{
"type": "FeatureCollection",
"features": [
{"type": "Feature", "properties": {"ProjectID": "P0155"}, "geometry": {"type": "MultiLineString", "coordinates": [[[-77.508356, 36.544856], [-77.537444, 36.621493], [-77.565415, 36.627353], [-77.669148, 36.758329], [-77.716061, 36.77848], [-77.741702, 36.826279], [-77.764502, 36.93361], [-77.803904, 36.947037], [-77.838018, 36.988968], [-77.816418, 37.057935], [-77.858116, 37.107095], [-78.012632, 37.143097], [-78.12437, 37.240338], [-78.22575, 37.275271], [-78.355423, 37.355265], [-78.407237, 37.365768], [-78.510057, 37.460184], [-78.576246, 37.489544], [-78.588744, 37.521302], [-78.639469, 37.556272], [-78.657896, 37.597767], [-78.69181, 37.614716], [-78.70383, 37.656823], [-78.751015, 37.674327], [-78.795703, 37.732141], [-78.783894, 37.784691], [-78.799394, 37.814686], [-78.881431, 37.861831], [-78.891298, 37.881422], [-78.971155, 37.90416]], [[-79.212351, 34.724557], [-79.14366, 34.723136], [-79.118385, 34.754738], [-79.056582, 34.763702], [-78.971924, 34.850128], [-78.928796, 34.839132], [-78.910443, 34.861264], [-78.780824, 34.882307], [-78.736945, 34.942322], [-78.727942, 35.123788], [-78.758474, 35.160123], [-78.663852, 35.214826], [-78.601429, 35.232435], [-78.522337, 35.299219], [-78.439651, 35.304031], [-78.382256, 35.3598], [-78.346275, 35.430788], [-78.316855, 35.441036], [-78.292528, 35.507744], [-78.248472, 35.52871], [-78.249267, 35.566932], [-78.15775, 35.626416], [-78.078537, 35.73985], [-78.051628, 35.756887], [-78.051966, 35.791304], [-77.996707, 35.870961], [-77.99362, 35.898353], [-77.916436, 35.969036], [-77.905636, 36.014967], [-77.872523, 36.038547], [-77.887244, 36.047526], [-77.821834, 36.109016], [-77.757436, 36.208285], [-77.718911, 36.233973], [-77.617701, 36.367975], [-77.5904, 36.378177], [-77.556954, 36.424539], [-77.549728, 36.485397], [-77.508342, 36.544856], [-77.402375, 36.52408], [-77.335059, 36.534057], [-77.132402, 36.637649], [-76.865179, 36.633354], [-76.849138, 36.666614], [-76.735009, 36.679997], [-76.738356, 36.697657], [-76.685824, 36.761906], [-76.634856, 36.793546], [-76.551159, 36.795293], [-76.516605, 36.782582], [-76.505068, 36.759473], [-76.463826, 36.771171], [-76.415639, 36.755085], [-76.281711, 36.773806]], [[-80.5601, 39.171089], [-80.551545, 39.147261], [-80.445016, 39.13475], [-80.441283, 39.114889], [-80.407489, 39.098216], [-80.378766, 39.057842], [-80.293353, 39.014522], [-80.289169, 38.990258], [-80.251542, 38.953073], [-80.253705, 38.931617], [-80.209216, 38.920522], [-80.164439, 38.854866], [-80.094741, 38.805528], [-80.092401, 38.761514], [-80.136963, 38.661059], [-80.154294, 38.651078], [-80.166181, 38.599903], [-80.134084, 38.527896], [-80.062959, 38.480495], [-80.042045, 38.407477], [-80.065347, 38.36603], [-80.002511, 38.333271], [-79.945062, 38.332425], [-79.867719, 38.299838], [-79.766924, 38.307801], [-79.710641, 38.246447], [-79.696123, 38.198789], [-79.616614, 38.132282], [-79.601099, 38.135777], [-79.570411, 38.091784], [-79.507961, 38.102056], [-79.421768, 38.200405], [-79.375089, 38.204418], [-79.319504, 38.277941], [-79.184888, 38.287756], [-79.144455, 38.243098], [-79.158236, 38.181053], [-79.141016, 38.122046], [-78.997626, 38.026629], [-78.967618, 37.98716], [-78.952811, 37.957499], [-78.979404, 37.914111]]]}}
]
}
