{
"type": "FeatureCollection",
"features": [
{"type": "Feature", "properties": {"ProjectID": "P0151", "LICINSTNO": "80051-2", "INSTA_LIC": "80051", "INSTA_NUM": "2", "INSTA_TYPE": "Compressor Station", "BA_ID": "0ZJ2", "BA_NAME": "Alliance Pipeline Ltd.", "PERM_APPR": null, "PERM_EXPIR": null, "POWER": "90000", "PRIME_SORC": "Turbine", "GEOM_SRCE": "Mapping", "INST_LOCAT": "01-21-061-15W5", "PLINSTATUS": "Operating", "ORG_LICNO": null, "ORG_INSTID": null, "ORG_ISS_DA": null, "FLD_CENTRE": "Edmonton", "H2S_CONT": "0", "SUBSTANCE1": "Natural Gas", "SUBSTANCE2": null, "SUBSTANCE3": null, "fid": null, "OBJECTID": null, "GCOMPID": null, "NAME": null, "ADDRESS": null, "CITY": null, "STATE": null, "ZIP": null, "ZIP4": null, "TYPE": null, "STATUS": null, "COUNTY": null, "COUNTYFIPS": null, "COUNTRY": null, "LATITUDE": null, "LONGITUDE": null, "NAICS_CODE": null, "NAICS_DESC": null, "SOURCE": null, "SOURCEDATE": null, "VAL_METHOD": null, "VAL_DATE": null, "WEBSITE": null, "PIPECO": null, "COMPID": null, "OPERATOR": null, "POSREL": null, "NUM_UNITS": null, "CERT_HP": null, "PLANT_COST": null, "EXP_FUEL": null, "EXP_OTHER": null, "GAS_COMPRE": null, "OP_COMP_HR": null, "OP_NUM_COM": null, "OP_DATE_PE": null, "EXP_POWER": null, "ELEC_COMPR": null, "full_id": null, "osm_id": null, "osm_type": null, "man_made": null, "shop": null, "pipeline": null, "layer": null, "path": null}, "geometry": {"type": "Point", "coordinates": [-116.181698, 54.284697]}},
{"type": "Feature", "properties": {"ProjectID": "P0151", "LICINSTNO": "80051-5", "INSTA_LIC": "80051", "INSTA_NUM": "5", "INSTA_TYPE": "Compressor Station", "BA_ID": "0ZJ2", "BA_NAME": "Alliance Pipeline Ltd.", "PERM_APPR": null, "PERM_EXPIR": null, "POWER": "1193", "PRIME_SORC": "Reciprocating", "GEOM_SRCE": "Mapping", "INST_LOCAT": "07-02-074-04W6", "PLINSTATUS": "Operating", "ORG_LICNO": null, "ORG_INSTID": null, "ORG_ISS_DA": null, "FLD_CENTRE": "Edmonton", "H2S_CONT": "0", "SUBSTANCE1": "Natural Gas", "SUBSTANCE2": null, "SUBSTANCE3": null, "fid": null, "OBJECTID": null, "GCOMPID": null, "NAME": null, "ADDRESS": null, "CITY": null, "STATE": null, "ZIP": null, "ZIP4": null, "TYPE": null, "STATUS": null, "COUNTY": null, "COUNTYFIPS": null, "COUNTRY": null, "LATITUDE": null, "LONGITUDE": null, "NAICS_CODE": null, "NAICS_DESC": null, "SOURCE": null, "SOURCEDATE": null, "VAL_METHOD": null, "VAL_DATE": null, "WEBSITE": null, "PIPECO": null, "COMPID": null, "OPERATOR": null, "POSREL": null, "NUM_UNITS": null, "CERT_HP": null, "PLANT_COST": null, "EXP_FUEL": null, "EXP_OTHER": null, "GAS_COMPRE": null, "OP_COMP_HR": null, "OP_NUM_COM": null, "OP_DATE_PE": null, "EXP_POWER": null, "ELEC_COMPR": null, "full_id": null, "osm_id": null, "osm_type": null, "man_made": null, "shop": null, "pipeline": null, "layer": null, "path": null}, "geometry": {"type": "Point", "coordinates": [-118.497549, 55.380159]}},
{"type": "Feature", "properties": {"ProjectID": "P0151", "LICINSTNO": "80051-7", "INSTA_LIC": "80051", "INSTA_NUM": "7", "INSTA_TYPE": "Compressor Station", "BA_ID": "0ZJ2", "BA_NAME": "Alliance Pipeline Ltd.", "PERM_APPR": null, "PERM_EXPIR": null, "POWER": "248", "PRIME_SORC": "Reciprocating", "GEOM_SRCE": "Mapping", "INST_LOCAT": "16-15-061-12W5", "PLINSTATUS": "Operating", "ORG_LICNO": null, "ORG_INSTID": null, "ORG_ISS_DA": null, "FLD_CENTRE": "Edmonton", "H2S_CONT": "0", "SUBSTANCE1": "Natural Gas", "SUBSTANCE2": null, "SUBSTANCE3": null, "fid": null, "OBJECTID": null, "GCOMPID": null, "NAME": null, "ADDRESS": null, "CITY": null, "STATE": null, "ZIP": null, "ZIP4": null, "TYPE": null, "STATUS": null, "COUNTY": null, "COUNTYFIPS": null, "COUNTRY": null, "LATITUDE": null, "LONGITUDE": null, "NAICS_CODE": null, "NAICS_DESC": null, "SOURCE": null, "SOURCEDATE": null, "VAL_METHOD": null, "VAL_DATE": null, "WEBSITE": null, "PIPECO": null, "COMPID": null, "OPERATOR": null, "POSREL": null, "NUM_UNITS": null, "CERT_HP": null, "PLANT_COST": null, "EXP_FUEL": null, "EXP_OTHER": null, "GAS_COMPRE": null, "OP_COMP_HR": null, "OP_NUM_COM": null, "OP_DATE_PE": null, "EXP_POWER": null, "ELEC_COMPR": null, "full_id": null, "osm_id": null, "osm_type": null, "man_made": null, "shop": null, "pipeline": null, "layer": null, "path": null}, "geometry": {"type": "Point", "coordinates": [-115.703071, 54.282961]}},
{"type": "Feature", "properties": {"ProjectID": "P0151", "LICINSTNO": "80051-8", "INSTA_LIC": "80051", "INSTA_NUM": "8", "INSTA_TYPE": "Compressor Station", "BA_ID": "0ZJ2", "BA_NAME": "Alliance Pipeline Ltd.", "PERM_APPR": null, "PERM_EXPIR": null, "POWER": "421", "PRIME_SORC": "Reciprocating", "GEOM_SRCE": "Mapping", "INST_LOCAT": "11-26-059-11W5", "PLINSTATUS": "Operating", "ORG_LICNO": null, "ORG_INSTID": null, "ORG_ISS_DA": null, "FLD_CENTRE": "Edmonton", "H2S_CONT": "0", "SUBSTANCE1": "Natural Gas", "SUBSTANCE2": null, "SUBSTANCE3": null, "fid": null, "OBJECTID": null, "GCOMPID": null, "NAME": null, "ADDRESS": null, "CITY": null, "STATE": null, "ZIP": null, "ZIP4": null, "TYPE": null, "STATUS": null, "COUNTY": null, "COUNTYFIPS": null, "COUNTRY": null, "LATITUDE": null, "LONGITUDE": null, "NAICS_CODE": null, "NAICS_DESC": null, "SOURCE": null, "SOURCEDATE": null, "VAL_METHOD": null, "VAL_DATE": null, "WEBSITE": null, "PIPECO": null, "COMPID": null, "OPERATOR": null, "POSREL": null, "NUM_UNITS": null, "CERT_HP": null, "PLANT_COST": null, "EXP_FUEL": null, "EXP_OTHER": null, "GAS_COMPRE": null, "OP_COMP_HR": null, "OP_NUM_COM": null, "OP_DATE_PE": null, "EXP_POWER": null, "ELEC_COMPR": null, "full_id": null, "osm_id": null, "osm_type": null, "man_made": null, "shop": null, "pipeline": null, "layer": null, "path": null}, "geometry": {"type": "Point", "coordinates": [-115.544973, 54.13302]}},
{"type": "Feature", "properties": {"ProjectID": "P0151", "LICINSTNO": "80051-9", "INSTA_LIC": "80051", "INSTA_NUM": "9", "INSTA_TYPE": "Compressor Station", "BA_ID": "0ZJ2", "BA_NAME": "Alliance Pipeline Ltd.", "PERM_APPR": null, "PERM_EXPIR": null, "POWER": "1790", "PRIME_SORC": "Reciprocating", "GEOM_SRCE": "Mapping", "INST_LOCAT": "12-06-057-08W5", "PLINSTATUS": "Operating", "ORG_LICNO": null, "ORG_INSTID": null, "ORG_ISS_DA": null, "FLD_CENTRE": "Edmonton", "H2S_CONT": "0", "SUBSTANCE1": "Natural Gas", "SUBSTANCE2": null, "SUBSTANCE3": null, "fid": null, "OBJECTID": null, "GCOMPID": null, "NAME": null, "ADDRESS": null, "CITY": null, "STATE": null, "ZIP": null, "ZIP4": null, "TYPE": null, "STATUS": null, "COUNTY": null, "COUNTYFIPS": null, "COUNTRY": null, "LATITUDE": null, "LONGITUDE": null, "NAICS_CODE": null, "NAICS_DESC": null, "SOURCE": null, "SOURCEDATE": null, "VAL_METHOD": null, "VAL_DATE": null, "WEBSITE": null, "PIPECO": null, "COMPID": null, "OPERATOR": null, "POSREL": null, "NUM_UNITS": null, "CERT_HP": null, "PLANT_COST": null, "EXP_FUEL": null, "EXP_OTHER": null, "GAS_COMPRE": null, "OP_COMP_HR": null, "OP_NUM_COM": null, "OP_DATE_PE": null, "EXP_POWER": null, "ELEC_COMPR": null, "full_id": null, "osm_id": null, "osm_type": null, "man_made": null, "shop": null, "pipeline": null, "layer": null, "path": null}, "geometry": {"type": "Point", "coordinates": [-115.189946, 53.899053]}},
{"type": "Feature", "properties": {"ProjectID": "P0151", "LICINSTNO": "80051-1", "INSTA_LIC": "80051", "INSTA_NUM": "1", "INSTA_TYPE": "Compressor Station", "BA_ID": "0ZJ2", "BA_NAME": "Alliance Pipeline Ltd.", "PERM_APPR": null, "PERM_EXPIR": null, "POWER": "15360", "PRIME_SORC": "Turbine", "GEOM_SRCE": "Mapping", "INST_LOCAT": "04-24-079-11W6", "PLINSTATUS": "Operating", "ORG_LICNO": null, "ORG_INSTID": null, "ORG_ISS_DA": null, "FLD_CENTRE": "Edmonton", "H2S_CONT": "0", "SUBSTANCE1": "Natural Gas", "SUBSTANCE2": null, "SUBSTANCE3": null, "fid": null, "OBJECTID": null, "GCOMPID": null, "NAME": null, "ADDRESS": null, "CITY": null, "STATE": null, "ZIP": null, "ZIP4": null, "TYPE": null, "STATUS": null, "COUNTY": null, "COUNTYFIPS": null, "COUNTRY": null, "LATITUDE": null, "LONGITUDE": null, "NAICS_CODE": null, "NAICS_DESC": null, "SOURCE": null, "SOURCEDATE": null, "VAL_METHOD": null, "VAL_DATE": null, "WEBSITE": null, "PIPECO": null, "COMPID": null, "OPERATOR": null, "POSREL": null, "NUM_UNITS": null, "CERT_HP": null, "PLANT_COST": null, "EXP_FUEL": null, "EXP_OTHER": null, "GAS_COMPRE": null, "OP_COMP_HR": null, "OP_NUM_COM": null, "OP_DATE_PE": null, "EXP_POWER": null, "ELEC_COMPR": null, "full_id": null, "osm_id": null, "osm_type": null, "man_made": null, "shop": null, "pipeline": null, "layer": null, "path": null}, "geometry": {"type": "Point", "coordinates": [-119.591832, 55.855674]}},
{"type": "Feature", "properties": {"ProjectID": "P0151", "LICINSTNO": null, "INSTA_LIC": null, "INSTA_NUM": null, "INSTA_TYPE": null, "BA_ID": null, "BA_NAME": null, "PERM_APPR": null, "PERM_EXPIR": null, "POWER": null, "PRIME_SORC": null, "GEOM_SRCE": null, "INST_LOCAT": null, "PLINSTATUS": null, "ORG_LICNO": null, "ORG_INSTID": null, "ORG_ISS_DA": null, "FLD_CENTRE": null, "H2S_CONT": null, "SUBSTANCE1": null, "SUBSTANCE2": null, "SUBSTANCE3": null, "fid": 1, "OBJECTID": 225, "GCOMPID": "GCOMP1200", "NAME": "TOWNER", "ADDRESS": "NORTH OF US ROUTE 2/CENTER AVENUE", "CITY": "TOWNER", "STATE": "ND", "ZIP": "58788", "ZIP4": "NOT AVAILABLE", "TYPE": "NATURAL GAS COMPRESSOR STATION", "STATUS": "IN SERVICE", "COUNTY": "MCHENRY", "COUNTYFIPS": "38049", "COUNTRY": "USA", "LATITUDE": 48.313240816, "LONGITUDE": -100.581863273, "NAICS_CODE": "486210", "NAICS_DESC": "BOOSTER PUMPING STATION, NATURAL GAS TRANSPORTATION", "SOURCE": "EPA ENVIROFACTS, FERC FORM 2, CORPORATE WEBSITE", "SOURCEDATE": "Wed, 15 Jul 2020 00:00:00 GMT", "VAL_METHOD": "IMAGERY/OTHER", "VAL_DATE": "Fri, 17 Jun 2022 00:00:00 GMT", "WEBSITE": "http://tariff.alliance-pipeline.com/", "PIPECO": "ALLIANCE PIPELINE", "COMPID": "63", "OPERATOR": "ALLIANCE PIPELINE", "POSREL": "WITHIN 40 FEET", "NUM_UNITS": 1, "CERT_HP": 31206, "PLANT_COST": 33500170, "EXP_FUEL": 2963316, "EXP_OTHER": 297337, "GAS_COMPRE": 1568037, "OP_COMP_HR": 8676, "OP_NUM_COM": 0, "OP_DATE_PE": "Fri, 20 Nov 2020 00:00:00 GMT", "EXP_POWER": 4525348, "ELEC_COMPR": 68339901, "full_id": null, "osm_id": null, "osm_type": null, "man_made": null, "shop": null, "pipeline": null, "layer": "Alliance_Gas_Pipeline_CS", "path": "/Users/amaliallano/Amalia/GEM/GGIT/Compressor_Stations/Working_Folder/Alliance_Gas_Pipeline_CS.geojson"}, "geometry": {"type": "Point", "coordinates": [-100.581863, 48.313241]}},
{"type": "Feature", "properties": {"ProjectID": "P0151", "LICINSTNO": null, "INSTA_LIC": null, "INSTA_NUM": null, "INSTA_TYPE": null, "BA_ID": null, "BA_NAME": null, "PERM_APPR": null, "PERM_EXPIR": null, "POWER": null, "PRIME_SORC": null, "GEOM_SRCE": null, "INST_LOCAT": null, "PLINSTATUS": null, "ORG_LICNO": null, "ORG_INSTID": null, "ORG_ISS_DA": null, "FLD_CENTRE": null, "H2S_CONT": null, "SUBSTANCE1": null, "SUBSTANCE2": null, "SUBSTANCE3": null, "fid": 2, "OBJECTID": 478, "GCOMPID": "GCOMP199", "NAME": "WIMBLEDON", "ADDRESS": "1540 98TH AVENUE SE", "CITY": "WIMBLEDON", "STATE": "ND", "ZIP": "58492", "ZIP4": "NOT AVAILABLE", "TYPE": "NATURAL GAS COMPRESSOR STATION", "STATUS": "IN SERVICE", "COUNTY": "BARNES", "COUNTYFIPS": "38003", "COUNTRY": "USA", "LATITUDE": 47.192493355, "LONGITUDE": -98.423267352, "NAICS_CODE": "486210", "NAICS_DESC": "BOOSTER PUMPING STATION, NATURAL GAS TRANSPORTATION", "SOURCE": "EPA ENVIROFACTS, FERC FORM 2, CORPORATE WEBSITE", "SOURCEDATE": "Wed, 15 Jul 2020 00:00:00 GMT", "VAL_METHOD": "IMAGERY/OTHER", "VAL_DATE": "Fri, 17 Jun 2022 00:00:00 GMT", "WEBSITE": "http://tariff.alliance-pipeline.com/", "PIPECO": "ALLIANCE PIPELINE", "COMPID": "63", "OPERATOR": "ALLIANCE PIPELINE", "POSREL": "WITHIN 40 FEET", "NUM_UNITS": 1, "CERT_HP": 31206, "PLANT_COST": 33500170, "EXP_FUEL": 2963316, "EXP_OTHER": 297337, "GAS_COMPRE": 1568037, "OP_COMP_HR": 8676, "OP_NUM_COM": 0, "OP_DATE_PE": "Fri, 18 Dec 2020 00:00:00 GMT", "EXP_POWER": 0, "ELEC_COMPR": 0, "full_id": null, "osm_id": null, "osm_type": null, "man_made": null, "shop": null, "pipeline": null, "layer": "Alliance_Gas_Pipeline_CS", "path": "/Users/amaliallano/Amalia/GEM/GGIT/Compressor_Stations/Working_Folder/Alliance_Gas_Pipeline_CS.geojson"}, "geometry": {"type": "Point", "coordinates": [-98.423267, 47.192493]}},
{"type": "Feature", "properties": {"ProjectID": "P0151", "LICINSTNO": null, "INSTA_LIC": null, "INSTA_NUM": null, "INSTA_TYPE": null, "BA_ID": null, "BA_NAME": null, "PERM_APPR": null, "PERM_EXPIR": null, "POWER": null, "PRIME_SORC": null, "GEOM_SRCE": null, "INST_LOCAT": null, "PLINSTATUS": null, "ORG_LICNO": null, "ORG_INSTID": null, "ORG_ISS_DA": null, "FLD_CENTRE": null, "H2S_CONT": null, "SUBSTANCE1": null, "SUBSTANCE2": null, "SUBSTANCE3": null, "fid": 3, "OBJECTID": 541, "GCOMPID": "GCOMP255", "NAME": "FAIRMOUNT", "ADDRESS": "17953 98TH STREET SE", "CITY": "FAIRMOUNT", "STATE": "ND", "ZIP": "58030", "ZIP4": "NOT AVAILABLE", "TYPE": "NATURAL GAS COMPRESSOR STATION", "STATUS": "IN SERVICE", "COUNTY": "RICHLAND", "COUNTYFIPS": "38077", "COUNTRY": "USA", "LATITUDE": 45.994998715, "LONGITUDE": -96.64766998, "NAICS_CODE": "486210", "NAICS_DESC": "BOOSTER PUMPING STATION, NATURAL GAS TRANSPORTATION", "SOURCE": "EPA ENVIROFACTS, FERC FORM 2, CORPORATE WEBSITE", "SOURCEDATE": "Wed, 15 Jul 2020 00:00:00 GMT", "VAL_METHOD": "IMAGERY/OTHER", "VAL_DATE": "Fri, 17 Jun 2022 00:00:00 GMT", "WEBSITE": "http://tariff.alliance-pipeline.com/", "PIPECO": "ALLIANCE PIPELINE", "COMPID": "63", "OPERATOR": "ALLIANCE PIPELINE", "POSREL": "WITHIN 40 FEET", "NUM_UNITS": 1, "CERT_HP": 31206, "PLANT_COST": 33500170, "EXP_FUEL": 2963316, "EXP_OTHER": 297337, "GAS_COMPRE": 1568037, "OP_COMP_HR": 8676, "OP_NUM_COM": 0, "OP_DATE_PE": "Thu, 20 Feb 2020 00:00:00 GMT", "EXP_POWER": 0, "ELEC_COMPR": 0, "full_id": null, "osm_id": null, "osm_type": null, "man_made": null, "shop": null, "pipeline": null, "layer": "Alliance_Gas_Pipeline_CS", "path": "/Users/amaliallano/Amalia/GEM/GGIT/Compressor_Stations/Working_Folder/Alliance_Gas_Pipeline_CS.geojson"}, "geometry": {"type": "Point", "coordinates": [-96.64767, 45.994999]}},
{"type": "Feature", "properties": {"ProjectID": "P0151", "LICINSTNO": null, "INSTA_LIC": null, "INSTA_NUM": null, "INSTA_TYPE": null, "BA_ID": null, "BA_NAME": null, "PERM_APPR": null, "PERM_EXPIR": null, "POWER": null, "PRIME_SORC": null, "GEOM_SRCE": null, "INST_LOCAT": null, "PLINSTATUS": null, "ORG_LICNO": null, "ORG_INSTID": null, "ORG_ISS_DA": null, "FLD_CENTRE": null, "H2S_CONT": null, "SUBSTANCE1": null, "SUBSTANCE2": null, "SUBSTANCE3": null, "fid": 4, "OBJECTID": 658, "GCOMPID": "GCOMP360", "NAME": "MANCHESTER", "ADDRESS": "220TH STREET/EAST OF 110TH AVENUE", "CITY": "MANCHESTER", "STATE": "IA", "ZIP": "52057", "ZIP4": "NOT AVAILABLE", "TYPE": "NATURAL GAS COMPRESSOR STATION", "STATUS": "IN SERVICE", "COUNTY": "DELAWARE", "COUNTYFIPS": "19055", "COUNTRY": "USA", "LATITUDE": 42.466900822, "LONGITUDE": -91.550970718, "NAICS_CODE": "486210", "NAICS_DESC": "BOOSTER PUMPING STATION, NATURAL GAS TRANSPORTATION", "SOURCE": "EPA ENVIROFACTS, FERC FORM 2, CORPORATE WEBSITE", "SOURCEDATE": "Wed, 15 Jul 2020 00:00:00 GMT", "VAL_METHOD": "IMAGERY/OTHER", "VAL_DATE": "Fri, 17 Jun 2022 00:00:00 GMT", "WEBSITE": "http://tariff.alliance-pipeline.com/", "PIPECO": "ALLIANCE PIPELINE", "COMPID": "63", "OPERATOR": "ALLIANCE PIPELINE", "POSREL": "WITHIN 40 FEET", "NUM_UNITS": 1, "CERT_HP": 31206, "PLANT_COST": 29260148, "EXP_FUEL": 2690671, "EXP_OTHER": 364619, "GAS_COMPRE": 1439124, "OP_COMP_HR": 8541, "OP_NUM_COM": 0, "OP_DATE_PE": "Wed, 15 Apr 2020 00:00:00 GMT", "EXP_POWER": 0, "ELEC_COMPR": 0, "full_id": null, "osm_id": null, "osm_type": null, "man_made": null, "shop": null, "pipeline": null, "layer": "Alliance_Gas_Pipeline_CS", "path": "/Users/amaliallano/Amalia/GEM/GGIT/Compressor_Stations/Working_Folder/Alliance_Gas_Pipeline_CS.geojson"}, "geometry": {"type": "Point", "coordinates": [-91.550971, 42.466901]}},
{"type": "Feature", "properties": {"ProjectID": "P0151", "LICINSTNO": null, "INSTA_LIC": null, "INSTA_NUM": null, "INSTA_TYPE": null, "BA_ID": null, "BA_NAME": null, "PERM_APPR": null, "PERM_EXPIR": null, "POWER": null, "PRIME_SORC": null, "GEOM_SRCE": null, "INST_LOCAT": null, "PLINSTATUS": null, "ORG_LICNO": null, "ORG_INSTID": null, "ORG_ISS_DA": null, "FLD_CENTRE": null, "H2S_CONT": null, "SUBSTANCE1": null, "SUBSTANCE2": null, "SUBSTANCE3": null, "fid": 5, "OBJECTID": 888, "GCOMPID": "GCOMP568", "NAME": "OLIVIA", "ADDRESS": "38884 870TH AVENUE", "CITY": "BIRD ISLAND", "STATE": "MN", "ZIP": "55310", "ZIP4": "NOT AVAILABLE", "TYPE": "NATURAL GAS COMPRESSOR STATION", "STATUS": "IN SERVICE", "COUNTY": "RENVILLE", "COUNTYFIPS": "27129", "COUNTRY": "USA", "LATITUDE": 44.8491, "LONGITUDE": -94.8969, "NAICS_CODE": "486210", "NAICS_DESC": "BOOSTER PUMPING STATION, NATURAL GAS TRANSPORTATION", "SOURCE": "EPA ENVIROFACTS, FERC FORM 2, CORPORATE WEBSITE", "SOURCEDATE": "Wed, 15 Jul 2020 00:00:00 GMT", "VAL_METHOD": "IMAGERY/OTHER", "VAL_DATE": "Fri, 17 Jun 2022 00:00:00 GMT", "WEBSITE": "http://tariff.alliance-pipeline.com/", "PIPECO": "ALLIANCE PIPELINE", "COMPID": "63", "OPERATOR": "ALLIANCE PIPELINE", "POSREL": "WITHIN 40 FEET", "NUM_UNITS": 1, "CERT_HP": 31206, "PLANT_COST": 29816141, "EXP_FUEL": 2320226, "EXP_OTHER": 373324, "GAS_COMPRE": 1224562, "OP_COMP_HR": 7428, "OP_NUM_COM": 0, "OP_DATE_PE": "Thu, 20 Feb 2020 00:00:00 GMT", "EXP_POWER": 0, "ELEC_COMPR": 0, "full_id": null, "osm_id": null, "osm_type": null, "man_made": null, "shop": null, "pipeline": null, "layer": "Alliance_Gas_Pipeline_CS", "path": "/Users/amaliallano/Amalia/GEM/GGIT/Compressor_Stations/Working_Folder/Alliance_Gas_Pipeline_CS.geojson"}, "geometry": {"type": "Point", "coordinates": [-94.8969, 44.8491]}},
{"type": "Feature", "properties": {"ProjectID": "P0151", "LICINSTNO": null, "INSTA_LIC": null, "INSTA_NUM": null, "INSTA_TYPE": null, "BA_ID": null, "BA_NAME": null, "PERM_APPR": null, "PERM_EXPIR": null, "POWER": null, "PRIME_SORC": null, "GEOM_SRCE": null, "INST_LOCAT": null, "PLINSTATUS": null, "ORG_LICNO": null, "ORG_INSTID": null, "ORG_ISS_DA": null, "FLD_CENTRE": null, "H2S_CONT": null, "SUBSTANCE1": null, "SUBSTANCE2": null, "SUBSTANCE3": null, "fid": 6, "OBJECTID": 1053, "GCOMPID": "GCOMP718", "NAME": "TAMPICO", "ADDRESS": "580 TAMPICO ROAD", "CITY": "TAMPICO", "STATE": "IL", "ZIP": "61283", "ZIP4": "NOT AVAILABLE", "TYPE": "NATURAL GAS COMPRESSOR STATION", "STATUS": "IN SERVICE", "COUNTY": "WHITESIDE", "COUNTYFIPS": "17195", "COUNTRY": "USA", "LATITUDE": 41.59254, "LONGITUDE": -89.78497, "NAICS_CODE": "486210", "NAICS_DESC": "BOOSTER PUMPING STATION, NATURAL GAS TRANSPORTATION", "SOURCE": "EPA ENVIROFACTS, FERC FORM 2, CORPORATE WEBSITE", "SOURCEDATE": "Wed, 15 Jul 2020 00:00:00 GMT", "VAL_METHOD": "IMAGERY/OTHER", "VAL_DATE": "Fri, 17 Jun 2022 00:00:00 GMT", "WEBSITE": "http://tariff.alliance-pipeline.com/", "PIPECO": "ALLIANCE PIPELINE", "COMPID": "63", "OPERATOR": "ALLIANCE PIPELINE", "POSREL": "WITHIN 40 FEET", "NUM_UNITS": 1, "CERT_HP": 31206, "PLANT_COST": 31434945, "EXP_FUEL": 1893419, "EXP_OTHER": 450616, "GAS_COMPRE": 1012834, "OP_COMP_HR": 8679, "OP_NUM_COM": 0, "OP_DATE_PE": "Fri, 05 Jun 2020 00:00:00 GMT", "EXP_POWER": 0, "ELEC_COMPR": 0, "full_id": null, "osm_id": null, "osm_type": null, "man_made": null, "shop": null, "pipeline": null, "layer": "Alliance_Gas_Pipeline_CS", "path": "/Users/amaliallano/Amalia/GEM/GGIT/Compressor_Stations/Working_Folder/Alliance_Gas_Pipeline_CS.geojson"}, "geometry": {"type": "Point", "coordinates": [-89.78497, 41.59254]}},
{"type": "Feature", "properties": {"ProjectID": "P0151", "LICINSTNO": null, "INSTA_LIC": null, "INSTA_NUM": null, "INSTA_TYPE": null, "BA_ID": null, "BA_NAME": null, "PERM_APPR": null, "PERM_EXPIR": null, "POWER": null, "PRIME_SORC": null, "GEOM_SRCE": null, "INST_LOCAT": null, "PLINSTATUS": null, "ORG_LICNO": null, "ORG_INSTID": null, "ORG_ISS_DA": null, "FLD_CENTRE": null, "H2S_CONT": null, "SUBSTANCE1": null, "SUBSTANCE2": null, "SUBSTANCE3": null, "fid": 7, "OBJECTID": 1238, "GCOMPID": "GCOMP885", "NAME": "ALBERT LEA", "ADDRESS": "850TH AVENUE AND 200TH STREET", "CITY": "HAYWARD", "STATE": "MN", "ZIP": "56043", "ZIP4": "NOT AVAILABLE", "TYPE": "NATURAL GAS COMPRESSOR STATION", "STATUS": "IN SERVICE", "COUNTY": "FREEBORN", "COUNTYFIPS": "27047", "COUNTRY": "USA", "LATITUDE": 43.64143, "LONGITUDE": -93.16075, "NAICS_CODE": "486210", "NAICS_DESC": "BOOSTER PUMPING STATION, NATURAL GAS TRANSPORTATION", "SOURCE": "EPA ENVIROFACTS, FERC FORM 2, CORPORATE WEBSITE", "SOURCEDATE": "Wed, 15 Jul 2020 00:00:00 GMT", "VAL_METHOD": "IMAGERY/OTHER", "VAL_DATE": "Fri, 17 Jun 2022 00:00:00 GMT", "WEBSITE": "http://tariff.alliance-pipeline.com/", "PIPECO": "ALLIANCE PIPELINE", "COMPID": "63", "OPERATOR": "ALLIANCE PIPELINE", "POSREL": "WITHIN 40 FEET", "NUM_UNITS": 1, "CERT_HP": 31206, "PLANT_COST": 35296823, "EXP_FUEL": 1588833, "EXP_OTHER": 354096, "GAS_COMPRE": 801928, "OP_COMP_HR": 4577, "OP_NUM_COM": 0, "OP_DATE_PE": "Thu, 20 Feb 2020 00:00:00 GMT", "EXP_POWER": 0, "ELEC_COMPR": 0, "full_id": null, "osm_id": null, "osm_type": null, "man_made": null, "shop": null, "pipeline": null, "layer": "Alliance_Gas_Pipeline_CS", "path": "/Users/amaliallano/Amalia/GEM/GGIT/Compressor_Stations/Working_Folder/Alliance_Gas_Pipeline_CS.geojson"}, "geometry": {"type": "Point", "coordinates": [-93.16075, 43.64143]}},
{"type": "Feature", "properties": {"ProjectID": "P0151", "LICINSTNO": null, "INSTA_LIC": null, "INSTA_NUM": null, "INSTA_TYPE": null, "BA_ID": null, "BA_NAME": null, "PERM_APPR": null, "PERM_EXPIR": null, "POWER": null, "PRIME_SORC": null, "GEOM_SRCE": null, "INST_LOCAT": null, "PLINSTATUS": null, "ORG_LICNO": null, "ORG_INSTID": null, "ORG_ISS_DA": null, "FLD_CENTRE": null, "H2S_CONT": null, "SUBSTANCE1": null, "SUBSTANCE2": null, "SUBSTANCE3": null, "fid": 9, "OBJECTID": null, "GCOMPID": null, "NAME": "KERROBERT", "ADDRESS": null, "CITY": null, "STATE": null, "ZIP": null, "ZIP4": null, "TYPE": null, "STATUS": null, "COUNTY": null, "COUNTYFIPS": null, "COUNTRY": null, "LATITUDE": null, "LONGITUDE": null, "NAICS_CODE": null, "NAICS_DESC": null, "SOURCE": null, "SOURCEDATE": null, "VAL_METHOD": null, "VAL_DATE": null, "WEBSITE": null, "PIPECO": null, "COMPID": null, "OPERATOR": null, "POSREL": null, "NUM_UNITS": null, "CERT_HP": null, "PLANT_COST": null, "EXP_FUEL": null, "EXP_OTHER": null, "GAS_COMPRE": null, "OP_COMP_HR": null, "OP_NUM_COM": null, "OP_DATE_PE": null, "EXP_POWER": null, "ELEC_COMPR": null, "full_id": "n4642412003", "osm_id": "4642412003", "osm_type": "node", "man_made": null, "shop": null, "pipeline": "valve", "layer": "Alliance_Gas_Pipeline_CS_OSM2", "path": "/Users/amaliallano/Amalia/GEM/GGIT/Compressor_Stations/Working_Folder/Alliance_Gas_Pipeline_CS_OSM2.geojson"}, "geometry": {"type": "Point", "coordinates": [-109.182228, 51.938715]}},
{"type": "Feature", "properties": {"ProjectID": "P0151", "LICINSTNO": null, "INSTA_LIC": null, "INSTA_NUM": null, "INSTA_TYPE": null, "BA_ID": null, "BA_NAME": null, "PERM_APPR": null, "PERM_EXPIR": null, "POWER": null, "PRIME_SORC": null, "GEOM_SRCE": null, "INST_LOCAT": null, "PLINSTATUS": null, "ORG_LICNO": null, "ORG_INSTID": null, "ORG_ISS_DA": null, "FLD_CENTRE": null, "H2S_CONT": null, "SUBSTANCE1": null, "SUBSTANCE2": null, "SUBSTANCE3": null, "fid": 10, "OBJECTID": null, "GCOMPID": null, "NAME": "IRMA", "ADDRESS": null, "CITY": null, "STATE": null, "ZIP": null, "ZIP4": null, "TYPE": null, "STATUS": null, "COUNTY": null, "COUNTYFIPS": null, "COUNTRY": null, "LATITUDE": null, "LONGITUDE": null, "NAICS_CODE": null, "NAICS_DESC": null, "SOURCE": null, "SOURCEDATE": null, "VAL_METHOD": null, "VAL_DATE": null, "WEBSITE": null, "PIPECO": null, "COMPID": null, "OPERATOR": null, "POSREL": null, "NUM_UNITS": null, "CERT_HP": null, "PLANT_COST": null, "EXP_FUEL": null, "EXP_OTHER": null, "GAS_COMPRE": null, "OP_COMP_HR": null, "OP_NUM_COM": null, "OP_DATE_PE": null, "EXP_POWER": null, "ELEC_COMPR": null, "full_id": "n4643015192", "osm_id": "4643015192", "osm_type": "node", "man_made": null, "shop": null, "pipeline": "valve", "layer": "Alliance_Gas_Pipeline_CS_OSM2", "path": "/Users/amaliallano/Amalia/GEM/GGIT/Compressor_Stations/Working_Folder/Alliance_Gas_Pipeline_CS_OSM2.geojson"}, "geometry": {"type": "Point", "coordinates": [-111.22216, 53.030863]}},
{"type": "Feature", "properties": {"ProjectID": "P0151", "LICINSTNO": null, "INSTA_LIC": null, "INSTA_NUM": null, "INSTA_TYPE": null, "BA_ID": null, "BA_NAME": null, "PERM_APPR": null, "PERM_EXPIR": null, "POWER": null, "PRIME_SORC": null, "GEOM_SRCE": null, "INST_LOCAT": null, "PLINSTATUS": null, "ORG_LICNO": null, "ORG_INSTID": null, "ORG_ISS_DA": null, "FLD_CENTRE": null, "H2S_CONT": null, "SUBSTANCE1": null, "SUBSTANCE2": null, "SUBSTANCE3": null, "fid": 11, "OBJECTID": null, "GCOMPID": null, "NAME": "ESTLIN", "ADDRESS": null, "CITY": null, "STATE": null, "ZIP": null, "ZIP4": null, "TYPE": null, "STATUS": null, "COUNTY": null, "COUNTYFIPS": null, "COUNTRY": null, "LATITUDE": null, "LONGITUDE": null, "NAICS_CODE": null, "NAICS_DESC": null, "SOURCE": null, "SOURCEDATE": null, "VAL_METHOD": null, "VAL_DATE": null, "WEBSITE": null, "PIPECO": null, "COMPID": null, "OPERATOR": null, "POSREL": null, "NUM_UNITS": null, "CERT_HP": null, "PLANT_COST": null, "EXP_FUEL": null, "EXP_OTHER": null, "GAS_COMPRE": null, "OP_COMP_HR": null, "OP_NUM_COM": null, "OP_DATE_PE": null, "EXP_POWER": null, "ELEC_COMPR": null, "full_id": "n4638599787", "osm_id": "4638599787", "osm_type": "node", "man_made": null, "shop": null, "pipeline": "valve", "layer": "Alliance_Gas_Pipeline_CS_OSM2", "path": "/Users/amaliallano/Amalia/GEM/GGIT/Compressor_Stations/Working_Folder/Alliance_Gas_Pipeline_CS_OSM2.geojson"}, "geometry": {"type": "Point", "coordinates": [-104.478991, 50.278181]}},
{"type": "Feature", "properties": {"ProjectID": "P0151", "LICINSTNO": null, "INSTA_LIC": null, "INSTA_NUM": null, "INSTA_TYPE": null, "BA_ID": null, "BA_NAME": null, "PERM_APPR": null, "PERM_EXPIR": null, "POWER": null, "PRIME_SORC": null, "GEOM_SRCE": null, "INST_LOCAT": null, "PLINSTATUS": null, "ORG_LICNO": null, "ORG_INSTID": null, "ORG_ISS_DA": null, "FLD_CENTRE": null, "H2S_CONT": null, "SUBSTANCE1": null, "SUBSTANCE2": null, "SUBSTANCE3": null, "fid": 12, "OBJECTID": null, "GCOMPID": null, "NAME": "LOREBURN", "ADDRESS": null, "CITY": null, "STATE": null, "ZIP": null, "ZIP4": null, "TYPE": null, "STATUS": null, "COUNTY": null, "COUNTYFIPS": null, "COUNTRY": null, "LATITUDE": null, "LONGITUDE": null, "NAICS_CODE": null, "NAICS_DESC": null, "SOURCE": null, "SOURCEDATE": null, "VAL_METHOD": null, "VAL_DATE": null, "WEBSITE": null, "PIPECO": null, "COMPID": null, "OPERATOR": null, "POSREL": null, "NUM_UNITS": null, "CERT_HP": null, "PLANT_COST": null, "EXP_FUEL": null, "EXP_OTHER": null, "GAS_COMPRE": null, "OP_COMP_HR": null, "OP_NUM_COM": null, "OP_DATE_PE": null, "EXP_POWER": null, "ELEC_COMPR": null, "full_id": "n4641377497", "osm_id": "4641377497", "osm_type": "node", "man_made": null, "shop": null, "pipeline": "valve", "layer": "Alliance_Gas_Pipeline_CS_OSM2", "path": "/Users/amaliallano/Amalia/GEM/GGIT/Compressor_Stations/Working_Folder/Alliance_Gas_Pipeline_CS_OSM2.geojson"}, "geometry": {"type": "Point", "coordinates": [-107.080041, 51.344358]}},
{"type": "Feature", "properties": {"ProjectID": "P0151", "LICINSTNO": null, "INSTA_LIC": null, "INSTA_NUM": null, "INSTA_TYPE": null, "BA_ID": null, "BA_NAME": null, "PERM_APPR": null, "PERM_EXPIR": null, "POWER": null, "PRIME_SORC": null, "GEOM_SRCE": null, "INST_LOCAT": null, "PLINSTATUS": null, "ORG_LICNO": null, "ORG_INSTID": null, "ORG_ISS_DA": null, "FLD_CENTRE": null, "H2S_CONT": null, "SUBSTANCE1": null, "SUBSTANCE2": null, "SUBSTANCE3": null, "fid": 13, "OBJECTID": null, "GCOMPID": null, "NAME": "ALAMEDA", "ADDRESS": null, "CITY": null, "STATE": null, "ZIP": null, "ZIP4": null, "TYPE": null, "STATUS": null, "COUNTY": null, "COUNTYFIPS": null, "COUNTRY": null, "LATITUDE": null, "LONGITUDE": null, "NAICS_CODE": null, "NAICS_DESC": null, "SOURCE": null, "SOURCEDATE": null, "VAL_METHOD": null, "VAL_DATE": null, "WEBSITE": null, "PIPECO": null, "COMPID": null, "OPERATOR": null, "POSREL": null, "NUM_UNITS": null, "CERT_HP": null, "PLANT_COST": null, "EXP_FUEL": null, "EXP_OTHER": null, "GAS_COMPRE": null, "OP_COMP_HR": null, "OP_NUM_COM": null, "OP_DATE_PE": null, "EXP_POWER": null, "ELEC_COMPR": null, "full_id": "n4637856101", "osm_id": "4637856101", "osm_type": "node", "man_made": null, "shop": null, "pipeline": "valve", "layer": "Alliance_Gas_Pipeline_CS_OSM2", "path": "/Users/amaliallano/Amalia/GEM/GGIT/Compressor_Stations/Working_Folder/Alliance_Gas_Pipeline_CS_OSM2.geojson"}, "geometry": {"type": "Point", "coordinates": [-102.297113, 49.323272]}},
{"type": "Feature", "properties": {"ProjectID": "P0151", "LICINSTNO": null, "INSTA_LIC": null, "INSTA_NUM": null, "INSTA_TYPE": null, "BA_ID": null, "BA_NAME": null, "PERM_APPR": null, "PERM_EXPIR": null, "POWER": null, "PRIME_SORC": null, "GEOM_SRCE": null, "INST_LOCAT": null, "PLINSTATUS": null, "ORG_LICNO": null, "ORG_INSTID": null, "ORG_ISS_DA": null, "FLD_CENTRE": null, "H2S_CONT": null, "SUBSTANCE1": null, "SUBSTANCE2": null, "SUBSTANCE3": null, "fid": null, "OBJECTID": null, "GCOMPID": null, "NAME": "MORINVILLE", "ADDRESS": null, "CITY": null, "STATE": null, "ZIP": null, "ZIP4": null, "TYPE": null, "STATUS": null, "COUNTY": null, "COUNTYFIPS": null, "COUNTRY": null, "LATITUDE": null, "LONGITUDE": null, "NAICS_CODE": null, "NAICS_DESC": null, "SOURCE": null, "SOURCEDATE": null, "VAL_METHOD": null, "VAL_DATE": null, "WEBSITE": null, "PIPECO": null, "COMPID": null, "OPERATOR": null, "POSREL": null, "NUM_UNITS": null, "CERT_HP": null, "PLANT_COST": null, "EXP_FUEL": null, "EXP_OTHER": null, "GAS_COMPRE": null, "OP_COMP_HR": null, "OP_NUM_COM": null, "OP_DATE_PE": null, "EXP_POWER": null, "ELEC_COMPR": null, "full_id": null, "osm_id": null, "osm_type": null, "man_made": null, "shop": null, "pipeline": null, "layer": null, "path": null}, "geometry": {"type": "Point", "coordinates": [-113.585143, 53.818328]}},
{"type": "Feature", "properties": {"ProjectID": "P0151", "LICINSTNO": null, "INSTA_LIC": null, "INSTA_NUM": null, "INSTA_TYPE": null, "BA_ID": null, "BA_NAME": null, "PERM_APPR": null, "PERM_EXPIR": null, "POWER": null, "PRIME_SORC": null, "GEOM_SRCE": null, "INST_LOCAT": null, "PLINSTATUS": null, "ORG_LICNO": null, "ORG_INSTID": null, "ORG_ISS_DA": null, "FLD_CENTRE": null, "H2S_CONT": null, "SUBSTANCE1": null, "SUBSTANCE2": null, "SUBSTANCE3": null, "fid": null, "OBJECTID": null, "GCOMPID": null, "NAME": null, "ADDRESS": null, "CITY": null, "STATE": null, "ZIP": null, "ZIP4": null, "TYPE": null, "STATUS": null, "COUNTY": null, "COUNTYFIPS": null, "COUNTRY": null, "LATITUDE": null, "LONGITUDE": null, "NAICS_CODE": null, "NAICS_DESC": null, "SOURCE": null, "SOURCEDATE": null, "VAL_METHOD": null, "VAL_DATE": null, "WEBSITE": null, "PIPECO": null, "COMPID": null, "OPERATOR": null, "POSREL": null, "NUM_UNITS": null, "CERT_HP": null, "PLANT_COST": null, "EXP_FUEL": null, "EXP_OTHER": null, "GAS_COMPRE": null, "OP_COMP_HR": null, "OP_NUM_COM": null, "OP_DATE_PE": null, "EXP_POWER": null, "ELEC_COMPR": null, "full_id": null, "osm_id": null, "osm_type": null, "man_made": null, "shop": null, "pipeline": null, "layer": null, "path": null}, "geometry": {"type": "Point", "coordinates": [-116.621629, 54.093423]}}
]
}
