{
"type": "FeatureCollection",
"features": [
{"type": "Feature", "properties": {"ProjectID": "P0176"}, "geometry": {"type": "MultiLineString", "coordinates": [[[-76.409351, 38.388272], [-77.513861, 39.244326], [-77.689642, 41.347279], [-77.343208, 41.982936], [-76.134574, 43.054759], [-73.739554, 42.696485]], [[-74.706351, 44.989976], [-75.233695, 43.939358], [-73.366019, 41.271529], [-73.536307, 40.761735]], [[-77.343208, 41.982936], [-77.810127, 42.790325], [-78.870308, 42.891021]], [[-77.810127, 42.790325], [-77.617867, 43.172097]], [[-77.343208, 41.982936], [-79.65583, 40.962233], [-80.479805, 41.045143], [-84.478828, 39.163037]], [[-79.65583, 40.962233], [-80.848222, 39.748692], [-80.512764, 39.739892], [-81.106026, 37.229195]], [[-80.848222, 39.748692], [-81.683183, 41.120019], [-81.694169, 41.491398]], [[-79.590287, 41.458472], [-80.529618, 41.639357], [-81.683183, 41.120019], [-82.688432, 41.3431], [-83.578698, 41.66192]]]}}
]
}
