{
"type": "FeatureCollection",
"features": [
{"type": "Feature", "properties": {"ProjectID": "P0178", "Name": "New gas pipeline", "description": null, "timestamp": null, "begin": null, "end": null, "altitudeMode": null, "tessellate": 1, "extrude": 0, "visibility": -1, "drawOrder": null, "icon": null}, "geometry": {"type": "LineString", "coordinates": [[-123.159622, 49.718944], [-123.159525, 49.718944], [-123.159523, 49.718322], [-123.159358, 49.718322], [-123.156376, 49.718292], [-123.154578, 49.718274], [-123.154205, 49.718271], [-123.153662, 49.718265], [-123.153129, 49.718259], [-123.152506, 49.718256], [-123.151937, 49.718256], [-123.151283, 49.718255], [-123.151133, 49.718255], [-123.150957, 49.718296], [-123.149377, 49.718293], [-123.149129, 49.718295], [-123.145528, 49.718283], [-123.145335, 49.718282], [-123.145118, 49.718248], [-123.145035, 49.718249], [-123.144747, 49.718251], [-123.144531, 49.718251], [-123.144241, 49.718253], [-123.143731, 49.718255], [-123.143478, 49.718256], [-123.143256, 49.718257], [-123.142842, 49.718259], [-123.142612, 49.71826], [-123.142377, 49.71826], [-123.142153, 49.718261], [-123.14197, 49.718261], [-123.1419, 49.718262], [-123.141894, 49.718262], [-123.139315, 49.718261], [-123.139304, 49.718261], [-123.13806, 49.718256], [-123.136453, 49.718251], [-123.133066, 49.718237], [-123.132881, 49.718231], [-123.132694, 49.718155], [-123.132585, 49.71803], [-123.132587, 49.717871], [-123.13259, 49.717688], [-123.132603, 49.716823], [-123.132598, 49.716775], [-123.132557, 49.716613], [-123.132397, 49.716486], [-123.13216, 49.716427], [-123.131709, 49.716387], [-123.131414, 49.71635], [-123.131154, 49.716326], [-123.130901, 49.716247], [-123.130699, 49.716123], [-123.130467, 49.716037], [-123.130206, 49.715999], [-123.129903, 49.715885], [-123.129705, 49.715779], [-123.129491, 49.715608], [-123.129254, 49.715465], [-123.129029, 49.715367], [-123.128793, 49.715311], [-123.128548, 49.715282], [-123.128297, 49.715286], [-123.126878, 49.715388], [-123.126638, 49.715451], [-123.126431, 49.715552], [-123.126247, 49.71568], [-123.126051, 49.715783], [-123.125828, 49.715875], [-123.125579, 49.715925], [-123.125325, 49.715945], [-123.125075, 49.715932], [-123.124819, 49.715896], [-123.124585, 49.715826], [-123.124373, 49.715735], [-123.124198, 49.715619], [-123.123895, 49.715335], [-123.123725, 49.715199], [-123.122323, 49.714285], [-123.122137, 49.714158], [-123.121954, 49.71401], [-123.121823, 49.71384], [-123.121749, 49.713656], [-123.121735, 49.713472], [-123.121747, 49.713295], [-123.12173, 49.713013], [-123.121644, 49.712736], [-123.121491, 49.712472], [-123.121274, 49.712228], [-123.120226, 49.71124], [-123.119967, 49.711022], [-123.119674, 49.710823], [-123.119673, 49.710823], [-123.118548, 49.710121], [-123.118343, 49.710024], [-123.118122, 49.709942], [-123.117888, 49.709879], [-123.117301, 49.709726], [-123.11701, 49.70964], [-123.116729, 49.709518], [-123.11654, 49.709387], [-123.116304, 49.709145], [-123.116099, 49.709047], [-123.113075, 49.708563], [-123.112823, 49.708562], [-123.105242, 49.70933], [-123.104739, 49.709383], [-123.103103, 49.708988], [-123.100707, 49.70844], [-123.099621, 49.709146], [-123.098506, 49.708425], [-123.098382, 49.708284], [-123.097815, 49.706701], [-123.096406, 49.705347], [-123.095888, 49.704869], [-123.095703, 49.704756], [-123.094741, 49.703834], [-123.094618, 49.703684], [-123.094417, 49.702702], [-123.094243, 49.702358], [-123.094051, 49.702122], [-123.093743, 49.701505], [-123.093132, 49.700884], [-123.092994, 49.700427], [-123.092673, 49.700084], [-123.092153, 49.699869], [-123.091977, 49.699737], [-123.091648, 49.699321], [-123.091231, 49.698768], [-123.090568, 49.698199], [-123.089593, 49.697679], [-123.088231, 49.697618], [-123.087827, 49.697047], [-123.086577, 49.696414], [-123.085946, 49.695564], [-123.085885, 49.695407], [-123.08589, 49.695245], [-123.085894, 49.695083], [-123.085898, 49.694921], [-123.08588, 49.694759], [-123.085862, 49.694598], [-123.085401, 49.692142], [-123.085171, 49.691269], [-123.085221, 49.691005], [-123.085024, 49.690705], [-123.085003, 49.690628], [-123.084866, 49.690128], [-123.084849, 49.690066], [-123.084848, 49.690062], [-123.084846, 49.690059], [-123.08477, 49.689932], [-123.084677, 49.689661], [-123.084577, 49.689199], [-123.084547, 49.689106], [-123.084436, 49.688801], [-123.084343, 49.688544], [-123.084217, 49.688172], [-123.084154, 49.687982], [-123.084096, 49.687638], [-123.084037, 49.687321], [-123.084014, 49.687124], [-123.084024, 49.686927], [-123.083971, 49.68665], [-123.083953, 49.686526], [-123.083723, 49.686036], [-123.083548, 49.68568], [-123.083173, 49.684758], [-123.082906, 49.684246], [-123.082793, 49.683982], [-123.082803, 49.68372], [-123.082801, 49.683564], [-123.082792, 49.683548], [-123.082786, 49.68354], [-123.082619, 49.683258], [-123.082502, 49.682929], [-123.08238, 49.682645], [-123.082288, 49.682505], [-123.0821, 49.682275], [-123.081868, 49.682087], [-123.081769, 49.681938], [-123.081651, 49.681529], [-123.081439, 49.680799], [-123.080967, 49.68048], [-123.080686, 49.680267], [-123.080386, 49.679934], [-123.080132, 49.679748], [-123.079664, 49.67946], [-123.079334, 49.679226], [-123.079229, 49.679081], [-123.079097, 49.678933], [-123.078751, 49.678712], [-123.078459, 49.678553], [-123.078272, 49.678441], [-123.077733, 49.677757], [-123.077686, 49.67746], [-123.077527, 49.677263], [-123.077336, 49.677104], [-123.077214, 49.676974], [-123.077135, 49.676839], [-123.077175, 49.676707], [-123.077116, 49.676632], [-123.076444, 49.675965], [-123.076334, 49.675795], [-123.076268, 49.675621], [-123.076145, 49.675452], [-123.075786, 49.675187], [-123.07535, 49.674793], [-123.075329, 49.674774], [-123.075134, 49.674711], [-123.074893, 49.674558], [-123.074668, 49.674354], [-123.074442, 49.674145], [-123.073879, 49.673686], [-123.073721, 49.673557], [-123.073465, 49.673394], [-123.073276, 49.673197], [-123.073111, 49.672878], [-123.073067, 49.672717], [-123.073006, 49.672569], [-123.072824, 49.672397], [-123.072651, 49.672256], [-123.072512, 49.672097], [-123.07232, 49.671836], [-123.072299, 49.671639], [-123.072146, 49.671424], [-123.071965, 49.671204], [-123.071771, 49.671066], [-123.071399, 49.670853], [-123.070613, 49.670288], [-123.069978, 49.669751], [-123.069687, 49.669308], [-123.069519, 49.66914], [-123.069212, 49.668912], [-123.06892, 49.668524], [-123.068765, 49.668386], [-123.068347, 49.668163], [-123.068154, 49.66804], [-123.067997, 49.667871], [-123.067872, 49.667718], [-123.067701, 49.6676], [-123.067494, 49.667515], [-123.067247, 49.667432], [-123.067014, 49.667292], [-123.066861, 49.66715], [-123.066698, 49.666952], [-123.066476, 49.666751], [-123.066316, 49.666627], [-123.065375, 49.666201], [-123.064928, 49.665953], [-123.064686, 49.665859], [-123.064156, 49.66574], [-123.063431, 49.665582], [-123.062784, 49.665376], [-123.062321, 49.665091], [-123.06209, 49.66499], [-123.061832, 49.664926], [-123.061279, 49.664843], [-123.060867, 49.664701], [-123.060103, 49.664341], [-123.058141, 49.663383], [-123.057535, 49.663143], [-123.056701, 49.662919], [-123.056109, 49.662645], [-123.0553, 49.662373], [-123.054016, 49.661892], [-123.053626, 49.661719], [-123.053464, 49.661596], [-123.053027, 49.661002], [-123.05185, 49.659707], [-123.051498, 49.659375], [-123.05118, 49.658922], [-123.050918, 49.658331], [-123.050539, 49.657752], [-123.050264, 49.657483], [-123.050069, 49.657192], [-123.049931, 49.656595], [-123.049819, 49.656428], [-123.048965, 49.655732], [-123.048865, 49.655583], [-123.04864, 49.655257], [-123.048296, 49.654981], [-123.047487, 49.654613], [-123.046608, 49.654043], [-123.046203, 49.653966], [-123.045726, 49.653939], [-123.045214, 49.653818], [-123.044434, 49.653464], [-123.043886, 49.653244], [-123.043075, 49.652767], [-123.042552, 49.652388], [-123.042453, 49.652085], [-123.042506, 49.651914], [-123.042506, 49.651732], [-123.042242, 49.651496], [-123.041709, 49.65074], [-123.041419, 49.650049], [-123.041297, 49.649715], [-123.041126, 49.649404], [-123.041044, 49.648841], [-123.040977, 49.648701], [-123.040873, 49.648249], [-123.040858, 49.648063], [-123.040874, 49.647632], [-123.040693, 49.647339], [-123.040364, 49.646424], [-123.040155, 49.64608], [-123.04013, 49.645809], [-123.040051, 49.64547], [-123.040058, 49.645334], [-123.039988, 49.645138], [-123.039701, 49.644846], [-123.039344, 49.644598], [-123.038613, 49.644301], [-123.038088, 49.644171], [-123.037587, 49.644005], [-123.037238, 49.643828], [-123.036941, 49.643568], [-123.036715, 49.643223], [-123.036668, 49.643029], [-123.036737, 49.642597], [-123.036584, 49.64197], [-123.036483, 49.641823], [-123.036036, 49.641465], [-123.035837, 49.6412], [-123.035668, 49.641074], [-123.035457, 49.640978], [-123.034751, 49.640536], [-123.034449, 49.640294], [-123.033796, 49.639639], [-123.03362, 49.639488], [-123.032817, 49.639157], [-123.031898, 49.638912], [-123.03001, 49.638132], [-123.028735, 49.637658], [-123.02809, 49.637201], [-123.027459, 49.63694], [-123.025929, 49.637322], [-123.025552, 49.637192], [-123.025102, 49.637094], [-123.024706, 49.637025], [-123.024486, 49.636921], [-123.024397, 49.636952], [-123.023115, 49.636348], [-123.023115, 49.63628], [-123.022772, 49.636186], [-123.022486, 49.636051], [-123.021479, 49.635666], [-123.019995, 49.634941], [-123.019075, 49.634393], [-123.018677, 49.634116], [-123.018346, 49.633945], [-123.017912, 49.633744], [-123.017291, 49.633487], [-123.016357, 49.633055], [-123.016143, 49.632971], [-123.015003, 49.632205], [-123.014879, 49.632093], [-123.014677, 49.631916], [-123.014453, 49.631778], [-123.01422, 49.631611], [-123.013979, 49.631508], [-123.013642, 49.631266], [-123.013308, 49.631088], [-123.013029, 49.630888], [-123.012685, 49.630578], [-123.012257, 49.630279], [-123.01179, 49.629858], [-123.009952, 49.628512], [-123.00946, 49.628302], [-123.009102, 49.628159], [-123.008941, 49.628117], [-123.008669, 49.628028], [-123.007797, 49.627687], [-123.007495, 49.62755], [-123.00735, 49.627429], [-123.007233, 49.627221], [-123.006738, 49.626802], [-123.006654, 49.626649], [-123.00644, 49.626477], [-123.005989, 49.62619], [-123.005242, 49.625826], [-123.004545, 49.625403], [-123.004141, 49.625145], [-123.003591, 49.624712], [-123.003233, 49.624353], [-123.002442, 49.62373], [-123.002064, 49.623421], [-123.001816, 49.623153], [-123.001458, 49.622715], [-123.001276, 49.622416], [-123.001187, 49.622176], [-123.001164, 49.621984], [-123.001085, 49.621708], [-123.001013, 49.621531], [-123.000842, 49.621235], [-123.000718, 49.620899], [-123.000698, 49.620536], [-123.000712, 49.620434], [-123.000681, 49.62032], [-123.000558, 49.620152], [-123.000439, 49.620049], [-123.000329, 49.619859], [-123.000246, 49.619657], [-123.000062, 49.618978], [-123.000024, 49.618632], [-122.99976, 49.618427], [-122.999624, 49.618291], [-122.999494, 49.61811], [-122.999405, 49.617913], [-122.999217, 49.617684], [-122.998947, 49.61746], [-122.998603, 49.617236], [-122.998027, 49.617016], [-122.997789, 49.616907], [-122.997127, 49.616356], [-122.996792, 49.616176], [-122.996628, 49.616053], [-122.996187, 49.61568], [-122.995603, 49.615061], [-122.995463, 49.61493], [-122.995311, 49.614803], [-122.994946, 49.614604], [-122.9948, 49.614452], [-122.994675, 49.614305], [-122.994589, 49.614134], [-122.994454, 49.613998], [-122.994124, 49.613898], [-122.99386, 49.613751], [-122.992195, 49.612485], [-122.991809, 49.61212], [-122.991543, 49.61195], [-122.991019, 49.611741], [-122.989725, 49.610875], [-122.989791, 49.610467], [-122.988328, 49.609422], [-122.988103, 49.609225], [-122.98808, 49.609185], [-122.987976, 49.609004], [-122.987717, 49.608667], [-122.987545, 49.608526], [-122.98727, 49.608389], [-122.9871, 49.608264], [-122.986981, 49.608108], [-122.986849, 49.607971], [-122.986682, 49.607851], [-122.98616, 49.60763], [-122.985226, 49.606967], [-122.985079, 49.606836], [-122.984415, 49.605712], [-122.984269, 49.605581], [-122.983525, 49.605189], [-122.983171, 49.604878], [-122.982992, 49.604584], [-122.982585, 49.604225], [-122.982358, 49.60398], [-122.982179, 49.603867], [-122.981352, 49.603569], [-122.978767, 49.601946], [-122.976655, 49.600338], [-122.975385, 49.599497], [-122.975031, 49.59918], [-122.973203, 49.598032], [-122.973057, 49.597921], [-122.972062, 49.597163], [-122.971807, 49.596935], [-122.971789, 49.596919], [-122.971667, 49.596759], [-122.970996, 49.596266], [-122.970918, 49.596209], [-122.970517, 49.595681], [-122.96953, 49.594955], [-122.968939, 49.5947], [-122.967908, 49.593942], [-122.96764, 49.593607], [-122.967435, 49.593412], [-122.967357, 49.593364], [-122.967356, 49.593363], [-122.966984, 49.593136], [-122.966504, 49.592865], [-122.966294, 49.592746], [-122.965412, 49.592801], [-122.964547, 49.592184], [-122.964221, 49.591968], [-122.963985, 49.59177], [-122.963691, 49.591507], [-122.963344, 49.591091], [-122.962958, 49.590684], [-122.962406, 49.590291], [-122.962023, 49.590062], [-122.961847, 49.58986], [-122.961333, 49.589354], [-122.961092, 49.589138], [-122.960254, 49.588307], [-122.95888, 49.587127], [-122.958566, 49.586808], [-122.958271, 49.586504], [-122.958178, 49.585924], [-122.958116, 49.585743], [-122.958056, 49.585621], [-122.957867, 49.585417], [-122.957666, 49.585324], [-122.957311, 49.585182], [-122.956795, 49.584916], [-122.956131, 49.584233], [-122.955898, 49.584072], [-122.955814, 49.583958], [-122.95559, 49.583693], [-122.955375, 49.583607], [-122.955018, 49.58349], [-122.954629, 49.583325], [-122.954847, 49.583078], [-122.954168, 49.582013], [-122.953844, 49.581291], [-122.9542, 49.580525], [-122.953442, 49.579597], [-122.951992, 49.576852], [-122.951779, 49.576313], [-122.951625, 49.576014], [-122.951483, 49.57589], [-122.951337, 49.575614], [-122.950355, 49.574591], [-122.949646, 49.573641], [-122.949538, 49.573537], [-122.949011, 49.572834], [-122.948699, 49.572226], [-122.948465, 49.571831], [-122.948185, 49.571539], [-122.947474, 49.571033], [-122.947008, 49.570475], [-122.94674, 49.569799], [-122.946337, 49.569523], [-122.945901, 49.569419], [-122.944424, 49.568292], [-122.943932, 49.567618], [-122.940708, 49.564425], [-122.939004, 49.562538], [-122.938791, 49.562382], [-122.93805, 49.562099], [-122.937672, 49.561802], [-122.937423, 49.561318], [-122.935447, 49.559932], [-122.934929, 49.560038], [-122.934126, 49.559533], [-122.933919, 49.559442], [-122.933175, 49.559283], [-122.932615, 49.559225], [-122.932321, 49.559122], [-122.931753, 49.558908], [-122.931521, 49.558757], [-122.931142, 49.558311], [-122.930771, 49.557824], [-122.930608, 49.557517], [-122.930562, 49.557239], [-122.930263, 49.556807], [-122.930015, 49.556534], [-122.929834, 49.556374], [-122.929579, 49.556084], [-122.929363, 49.555909], [-122.929145, 49.555768], [-122.928556, 49.555469], [-122.928392, 49.555343], [-122.928232, 49.555101], [-122.92818, 49.554977], [-122.928061, 49.554746], [-122.927996, 49.554631], [-122.927815, 49.554471], [-122.927679, 49.554402], [-122.927469, 49.554359], [-122.927153, 49.554296], [-122.926844, 49.554232], [-122.926578, 49.554163], [-122.926348, 49.554088], [-122.926267, 49.55406], [-122.926179, 49.554017], [-122.926099, 49.553952], [-122.92581, 49.553579], [-122.92542, 49.5531], [-122.925154, 49.552643], [-122.924858, 49.552167], [-122.924573, 49.551862], [-122.924061, 49.551427], [-122.923768, 49.551261], [-122.923777, 49.551108], [-122.923705, 49.550945], [-122.923558, 49.550803], [-122.921618, 49.549815], [-122.920768, 49.549199], [-122.919569, 49.547788], [-122.919123, 49.547623], [-122.919046, 49.547532], [-122.918793, 49.547269], [-122.91844, 49.54689], [-122.918348, 49.546796], [-122.917699, 49.546317], [-122.917186, 49.545981], [-122.917031, 49.545864], [-122.916761, 49.545668], [-122.916413, 49.545428], [-122.916192, 49.545254], [-122.916063, 49.545153], [-122.915688, 49.544997], [-122.915485, 49.54489], [-122.915396, 49.544793], [-122.915348, 49.544648], [-122.915377, 49.544204], [-122.915356, 49.543946], [-122.915295, 49.543724], [-122.915178, 49.543532], [-122.914922, 49.543127], [-122.914682, 49.542744], [-122.914523, 49.542572], [-122.91429, 49.542441], [-122.914073, 49.5423], [-122.91375, 49.542088], [-122.913106, 49.541876], [-122.912771, 49.541658], [-122.912592, 49.541416], [-122.912377, 49.540757], [-122.91235, 49.540224], [-122.912494, 49.539859], [-122.912612, 49.539624], [-122.912701, 49.539488], [-122.912797, 49.539169], [-122.912813, 49.538892], [-122.912717, 49.538567], [-122.912562, 49.538213], [-122.912409, 49.537959], [-122.91214, 49.537653], [-122.911437, 49.53639], [-122.910959, 49.535252], [-122.910797, 49.535019], [-122.910634, 49.534787], [-122.910163, 49.534127], [-122.909936, 49.533767], [-122.910084, 49.533535], [-122.910006, 49.533427], [-122.909681, 49.53297], [-122.909357, 49.532513], [-122.909134, 49.5322], [-122.908837, 49.531741], [-122.907278, 49.529336], [-122.906883, 49.528575], [-122.906155, 49.527629], [-122.906048, 49.527489], [-122.905921, 49.527323], [-122.905742, 49.527224], [-122.905512, 49.527174], [-122.904402, 49.527128], [-122.904222, 49.527015], [-122.904119, 49.52695], [-122.901413, 49.527055], [-122.901079, 49.527099], [-122.900857, 49.527171], [-122.90059, 49.527324], [-122.899584, 49.52831], [-122.89372, 49.527601], [-122.893328, 49.527508], [-122.891427, 49.526459], [-122.890998, 49.526029], [-122.89008, 49.524124], [-122.88877, 49.521406], [-122.888615, 49.521085], [-122.888317, 49.520852], [-122.888136, 49.52057], [-122.888041, 49.520264], [-122.88705, 49.518738], [-122.885977, 49.517842], [-122.884166, 49.516934], [-122.881683, 49.516071], [-122.881561, 49.516029], [-122.881194, 49.516016], [-122.880869, 49.516083], [-122.880726, 49.516138], [-122.880516, 49.516216], [-122.880249, 49.516381], [-122.879972, 49.516561], [-122.879748, 49.516632], [-122.879574, 49.516704], [-122.879407, 49.51683], [-122.879227, 49.516992], [-122.879059, 49.517051], [-122.878703, 49.517059], [-122.878416, 49.517079], [-122.878178, 49.51715], [-122.878012, 49.517224], [-122.877677, 49.517436], [-122.877332, 49.517613], [-122.876721, 49.51782], [-122.875805, 49.517974], [-122.875477, 49.518065], [-122.87501, 49.518248], [-122.874738, 49.518395], [-122.874447, 49.518552], [-122.873837, 49.518763], [-122.873567, 49.518827], [-122.873255, 49.518875], [-122.872539, 49.518912], [-122.872026, 49.518804], [-122.871617, 49.518704], [-122.871271, 49.518735], [-122.870836, 49.518897], [-122.870463, 49.519161], [-122.870261, 49.519262], [-122.869949, 49.519364], [-122.869291, 49.519553], [-122.86833, 49.519787], [-122.867853, 49.519931], [-122.867354, 49.5201], [-122.866759, 49.520213], [-122.865871, 49.520409], [-122.86456, 49.520765], [-122.863643, 49.520826], [-122.862878, 49.520915], [-122.862356, 49.521024], [-122.861968, 49.521126], [-122.861433, 49.521259], [-122.860221, 49.521711], [-122.859703, 49.52184], [-122.859366, 49.521931], [-122.858757, 49.522113], [-122.857589, 49.522472], [-122.856972, 49.52261], [-122.85586, 49.522893], [-122.855484, 49.522902], [-122.855228, 49.522918], [-122.854714, 49.523008], [-122.854589, 49.523029], [-122.854443, 49.523082], [-122.854147, 49.523243], [-122.853656, 49.523447], [-122.853269, 49.523517], [-122.852812, 49.523604], [-122.851716, 49.523873], [-122.850558, 49.524064], [-122.850189, 49.52409], [-122.849834, 49.524113], [-122.848794, 49.524161], [-122.846365, 49.52393], [-122.846052, 49.523906], [-122.845722, 49.523894], [-122.844756, 49.523943], [-122.844009, 49.524048], [-122.843477, 49.524106], [-122.842651, 49.524281], [-122.841676, 49.524298], [-122.840351, 49.524275], [-122.839992, 49.524255], [-122.839556, 49.524223], [-122.838535, 49.523956], [-122.838014, 49.523877], [-122.837287, 49.523771], [-122.837094, 49.52375], [-122.836262, 49.523867], [-122.835977, 49.523899], [-122.835649, 49.524001], [-122.835155, 49.523828], [-122.834747, 49.523498], [-122.834489, 49.523395], [-122.833832, 49.523175], [-122.832657, 49.522922], [-122.831644, 49.522907], [-122.830509, 49.522986], [-122.830154, 49.522973], [-122.829303, 49.522884], [-122.828721, 49.522781], [-122.828197, 49.522747], [-122.828033, 49.522703], [-122.827298, 49.522448], [-122.826798, 49.522365], [-122.826173, 49.522337], [-122.825996, 49.522293], [-122.825825, 49.52221], [-122.825146, 49.521747], [-122.823906, 49.521043], [-122.822931, 49.520577], [-122.822475, 49.520406], [-122.822106, 49.520283], [-122.821851, 49.520168], [-122.821117, 49.519746], [-122.82055, 49.519549], [-122.820497, 49.51951]]}},
{"type": "Feature", "properties": {"ProjectID": "P0178", "Name": "New gas pipeline", "description": null, "timestamp": null, "begin": null, "end": null, "altitudeMode": null, "tessellate": 1, "extrude": 0, "visibility": -1, "drawOrder": null, "icon": null}, "geometry": {"type": "LineString", "coordinates": [[-122.784213, 49.333752], [-122.784229, 49.333699], [-122.784386, 49.33372], [-122.786668, 49.331272], [-122.786894, 49.331028], [-122.78693, 49.330989], [-122.787068, 49.330898], [-122.787122, 49.330842], [-122.787977, 49.329966], [-122.788043, 49.329846], [-122.788361, 49.329525], [-122.789203, 49.328673], [-122.79167, 49.326156], [-122.791944, 49.325871], [-122.793022, 49.324691], [-122.793425, 49.324261], [-122.795151, 49.324006], [-122.796858, 49.32371], [-122.797064, 49.323624], [-122.798003, 49.323172], [-122.798345, 49.322893], [-122.798858, 49.322335], [-122.800323, 49.320522], [-122.800617, 49.320209], [-122.802167, 49.318943], [-122.802361, 49.318816], [-122.807171, 49.317224], [-122.809132, 49.316488], [-122.809317, 49.316394], [-122.809523, 49.31623], [-122.809817, 49.315683], [-122.809938, 49.315668], [-122.809934, 49.31539]]}}
]
}
