{
"type": "FeatureCollection",
"features": [
{"type": "Feature", "properties": {"ProjectID": "P0194"}, "geometry": {"type": "LineString", "coordinates": [[-96.239502, 48.255791], [-96.23825, 48.255807]]}},
{"type": "Feature", "properties": {"ProjectID": "P0194", "full_id": "r9626186", "website": "https://www.tcenergy.com/operations/natural-gas/great-lakes-gas-transmission", "operator": "TC Energy Corporation", "operator:website": "https://www.tcpipelineslp.com/assets/great-lakes/", "route": "pipeline", "operator:wikipedia": "en:TC Energy", "type": "route", "name": "Great Lakes Gas Transmission", "layer": "add2", "osm_type": "relation", "operator:wikidata": "Q1516108", "path": "/Users/char/Desktop/gem o&g resources/gis data/Great Lakes Transmission/add2.geojson", "osm_id": "9626186"}, "geometry": {"type": "LineString", "coordinates": [[-89.696154, 46.404347], [-89.696071, 46.404335], [-89.69611, 46.404203], [-89.696193, 46.404215], [-89.696154, 46.404347]]}},
{"type": "Feature", "properties": {"ProjectID": "P0194"}, "geometry": {"type": "LineString", "coordinates": [[-84.995556, 45.360016], [-85.001221, 45.360107], [-85.006027, 45.359564], [-85.0068, 45.359323], [-85.011563, 45.358659], [-85.01461, 45.357513], [-85.01873, 45.356548], [-85.024738, 45.356186], [-85.026948, 45.354392], [-85.03654, 45.354452], [-85.042892, 45.354588], [-85.05214, 45.354603], [-85.055122, 45.353683], [-85.057354, 45.352341], [-85.059521, 45.350864], [-85.060358, 45.346656], [-85.060401, 45.3445], [-85.06053, 45.338738], [-85.060546, 45.335375], [-85.060551, 45.334228]]}},
{"type": "Feature", "properties": {"ProjectID": "P0194", "full_id": "r9626186", "website": "https://www.tcenergy.com/operations/natural-gas/great-lakes-gas-transmission", "operator": "TC Energy Corporation", "operator:website": "https://www.tcpipelineslp.com/assets/great-lakes/", "route": "pipeline", "operator:wikipedia": "en:TC Energy", "type": "route", "name": "Great Lakes Gas Transmission", "layer": "add2", "osm_type": "relation", "operator:wikidata": "Q1516108", "path": "/Users/char/Desktop/gem o&g resources/gis data/Great Lakes Transmission/add2.geojson", "osm_id": "9626186"}, "geometry": {"type": "LineString", "coordinates": [[-90.535394, 46.510671], [-90.537503, 46.510557], [-90.540443, 46.510868], [-90.554286, 46.513661], [-90.618025, 46.514981], [-90.639354, 46.515821], [-90.668316, 46.52363], [-90.681685, 46.527338], [-90.695212, 46.531588], [-90.698303, 46.530987], [-90.700641, 46.530224], [-90.702531, 46.530455], [-90.704566, 46.531135], [-90.705896, 46.531559], [-90.710335, 46.532293], [-90.751784, 46.538754], [-90.755431, 46.539319], [-90.769088, 46.540659], [-90.77957, 46.541702], [-90.807831, 46.544448], [-90.8097, 46.545617], [-90.822657, 46.546818], [-90.835211, 46.547462], [-90.85234, 46.548077], [-90.882376, 46.551219], [-90.885049, 46.551503]]}},
{"type": "Feature", "properties": {"ProjectID": "P0194", "path": "/Users/char/Desktop/gem o&g resources/gis data/Great Lakes Transmission/add1.geojson", "operator": "TC Energy Corporation", "route": "pipeline", "type": "route", "layer": "add1", "name": "Great Lakes Gas Transmission", "substance": "gas", "osm_type": "relation", "full_id": "r10668461", "osm_id": "10668461"}, "geometry": {"type": "LineString", "coordinates": [[-95.381726, 47.682712], [-95.384481, 47.684416], [-95.388067, 47.685754], [-95.390972, 47.687355], [-95.391016, 47.688141], [-95.391033, 47.688891], [-95.4165, 47.702481], [-95.430499, 47.711568], [-95.443185, 47.716893], [-95.480727, 47.73912], [-95.494546, 47.747409], [-95.497945, 47.748909], [-95.527728, 47.760565], [-95.551881, 47.773904], [-95.582746, 47.79086], [-95.615722, 47.808721], [-95.628253, 47.816283], [-95.632304, 47.817436], [-95.654706, 47.830028], [-95.67304, 47.841205], [-95.685845, 47.849154], [-95.6969, 47.856026], [-95.706273, 47.861969], [-95.715697, 47.867946], [-95.723826, 47.873036], [-95.736846, 47.880508], [-95.739473, 47.882741], [-95.741808, 47.88539], [-95.75215, 47.897113], [-95.75451, 47.898638], [-95.765342, 47.906417], [-95.782165, 47.918084], [-95.790284, 47.923635], [-95.79528, 47.927402], [-95.801786, 47.931773], [-95.808652, 47.936534], [-95.814463, 47.941157], [-95.818969, 47.94563], [-95.832341, 47.955334], [-95.839809, 47.960777], [-95.859464, 47.97507], [-95.869738, 47.982056], [-95.875274, 47.98675], [-95.882913, 47.992914], [-95.893453, 48.000966], [-95.900036, 48.006249], [-95.905529, 48.010269], [-95.911426, 48.014805], [-95.915357, 48.017779], [-95.916301, 48.019082], [-95.91637, 48.019427], [-95.916516, 48.02023], [-95.924438, 48.024576], [-95.933879, 48.030833], [-95.937656, 48.033519], [-95.947028, 48.041726], [-95.953294, 48.047108], [-95.960487, 48.051779], [-95.971559, 48.058881], [-95.980674, 48.065334], [-95.983764, 48.068088], [-95.988587, 48.071948], [-95.998887, 48.080091], [-96.003265, 48.083646], [-96.013564, 48.091828], [-96.024061, 48.100398], [-96.036996, 48.1108], [-96.045819, 48.117304], [-96.051227, 48.121143], [-96.058436, 48.127217], [-96.068496, 48.13475], [-96.073886, 48.138845], [-96.078933, 48.142671], [-96.096975, 48.15567], [-96.11069, 48.165312], [-96.122707, 48.17423], [-96.129333, 48.179295], [-96.147374, 48.192989], [-96.154635, 48.19835], [-96.158987, 48.201754], [-96.170926, 48.211376]]}},
{"type": "Feature", "properties": {"ProjectID": "P0194", "full_id": "r9626186", "website": "https://www.tcenergy.com/operations/natural-gas/great-lakes-gas-transmission", "operator": "TC Energy Corporation", "operator:website": "https://www.tcpipelineslp.com/assets/great-lakes/", "route": "pipeline", "operator:wikipedia": "en:TC Energy", "type": "route", "name": "Great Lakes Gas Transmission", "layer": "add2", "osm_type": "relation", "operator:wikidata": "Q1516108", "path": "/Users/char/Desktop/gem o&g resources/gis data/Great Lakes Transmission/add2.geojson", "osm_id": "9626186"}, "geometry": {"type": "LineString", "coordinates": [[-91.282034, 46.551069], [-91.281224, 46.553957], [-91.277982, 46.559526], [-91.275552, 46.562831], [-91.27225, 46.564717], [-91.262812, 46.570301], [-91.259949, 46.574274], [-91.257164, 46.583798], [-91.257141, 46.583878]]}},
{"type": "Feature", "properties": {"ProjectID": "P0194"}, "geometry": {"type": "LineString", "coordinates": [[-85.44481, 46.11872], [-85.445154, 46.115474]]}},
{"type": "Feature", "properties": {"ProjectID": "P0194", "full_id": "r9626186", "website": "https://www.tcenergy.com/operations/natural-gas/great-lakes-gas-transmission", "operator": "TC Energy Corporation", "operator:website": "https://www.tcpipelineslp.com/assets/great-lakes/", "route": "pipeline", "operator:wikipedia": "en:TC Energy", "type": "route", "name": "Great Lakes Gas Transmission", "layer": "add2", "osm_type": "relation", "operator:wikidata": "Q1516108", "path": "/Users/char/Desktop/gem o&g resources/gis data/Great Lakes Transmission/add2.geojson", "osm_id": "9626186"}, "geometry": {"type": "LineString", "coordinates": [[-89.179868, 46.257448], [-89.179529, 46.257311], [-89.179136, 46.25737]]}},
{"type": "Feature", "properties": {"ProjectID": "P0194", "full_id": "r9626186", "website": "https://www.tcenergy.com/operations/natural-gas/great-lakes-gas-transmission", "operator": "TC Energy Corporation", "operator:website": "https://www.tcpipelineslp.com/assets/great-lakes/", "route": "pipeline", "operator:wikipedia": "en:TC Energy", "type": "route", "name": "Great Lakes Gas Transmission", "layer": "add2", "osm_type": "relation", "operator:wikidata": "Q1516108", "path": "/Users/char/Desktop/gem o&g resources/gis data/Great Lakes Transmission/add2.geojson", "osm_id": "9626186"}, "geometry": {"type": "LineString", "coordinates": [[-91.657458, 46.626875], [-91.65048, 46.62694], [-91.642013, 46.62704], [-91.630436, 46.627184], [-91.628137, 46.627162], [-91.609513, 46.62722], [-91.608469, 46.627126], [-91.597388, 46.624502], [-91.596755, 46.624353], [-91.595381, 46.624383], [-91.594399, 46.624353], [-91.593897, 46.624412], [-91.592741, 46.624877], [-91.590625, 46.625311], [-91.589797, 46.625416], [-91.589229, 46.625416], [-91.587811, 46.625072], [-91.587244, 46.624922], [-91.586677, 46.624892], [-91.58563, 46.625027], [-91.584321, 46.625206], [-91.582925, 46.625206], [-91.57865, 46.625102], [-91.574604, 46.624966]]}},
{"type": "Feature", "properties": {"ProjectID": "P0194", "full_id": "r9626186", "website": "https://www.tcenergy.com/operations/natural-gas/great-lakes-gas-transmission", "operator": "TC Energy Corporation", "operator:website": "https://www.tcpipelineslp.com/assets/great-lakes/", "route": "pipeline", "operator:wikipedia": "en:TC Energy", "type": "route", "name": "Great Lakes Gas Transmission", "layer": "add2", "osm_type": "relation", "operator:wikidata": "Q1516108", "path": "/Users/char/Desktop/gem o&g resources/gis data/Great Lakes Transmission/add2.geojson", "osm_id": "9626186"}, "geometry": {"type": "LineString", "coordinates": [[-90.535446, 46.510716], [-90.535236, 46.51071], [-90.535243, 46.510587], [-90.535453, 46.510593], [-90.535446, 46.510716]]}},
{"type": "Feature", "properties": {"ProjectID": "P0194"}, "geometry": {"type": "LineString", "coordinates": [[-93.849635, 47.332221], [-93.841009, 47.332424], [-93.826161, 47.328876], [-93.798523, 47.322767], [-93.78685, 47.320265], [-93.772431, 47.320032], [-93.760157, 47.320149], [-93.74857, 47.319625], [-93.724022, 47.309209], [-93.720932, 47.305484], [-93.717327, 47.30368], [-93.713551, 47.30368], [-93.70883, 47.301468], [-93.706341, 47.301817], [-93.694325, 47.296346], [-93.687201, 47.293261], [-93.680506, 47.290757], [-93.671408, 47.287613], [-93.664799, 47.283654], [-93.660765, 47.281209], [-93.656559, 47.279462], [-93.649864, 47.277016], [-93.63802, 47.272823], [-93.624973, 47.268514], [-93.614245, 47.267757], [-93.598023, 47.263155], [-93.591414, 47.26298], [-93.589096, 47.263097], [-93.586264, 47.264437], [-93.531504, 47.264378], [-93.530517, 47.262747], [-93.522363, 47.256835], [-93.517685, 47.253281], [-93.515668, 47.25299], [-93.50966, 47.24865], [-93.501506, 47.243318], [-93.492622, 47.239268], [-93.492236, 47.238452], [-93.483911, 47.233266], [-93.478847, 47.23312], [-93.474083, 47.229565], [-93.471379, 47.228661], [-93.461251, 47.221842], [-93.4549, 47.218082], [-93.444772, 47.211669], [-93.43636, 47.206071], [-93.427434, 47.200765], [-93.41795, 47.195749], [-93.412972, 47.192804], [-93.413229, 47.190587], [-93.404431, 47.184988], [-93.398981, 47.181546], [-93.391643, 47.176908], [-93.384862, 47.17262], [-93.379884, 47.170286], [-93.371601, 47.166172], [-93.3604, 47.160715], [-93.346582, 47.153916], [-93.329673, 47.145656], [-93.319223, 47.140563], [-93.313859, 47.138388], [-93.30828, 47.136855], [-93.299696, 47.134607], [-93.29401, 47.133221], [-93.292165, 47.133279], [-93.286285, 47.130506], [-93.284354, 47.128579], [-93.283968, 47.127761], [-93.284311, 47.127089], [-93.284097, 47.126418], [-93.273926, 47.120724], [-93.265772, 47.116314], [-93.258348, 47.111992], [-93.251739, 47.108516], [-93.245344, 47.104456], [-93.234057, 47.09686], [-93.225431, 47.091192], [-93.224402, 47.090345], [-93.217964, 47.088796], [-93.214874, 47.086459], [-93.203244, 47.078043], [-93.189812, 47.068485], [-93.180499, 47.061908], [-93.168612, 47.05378], [-93.15342, 47.043194], [-93.13797, 47.032841], [-93.118916, 47.020759], [-93.080292, 46.996295], [-93.052311, 46.980018], [-92.969399, 46.932917], [-92.933178, 46.912165], [-92.92099, 46.904542], [-92.920303, 46.903838], [-92.9076, 46.896273], [-92.897472, 46.889], [-92.890413, 46.884424], [-92.88286, 46.880186], [-92.877817, 46.876138], [-92.877002, 46.875551], [-92.87344, 46.874084], [-92.871037, 46.872045], [-92.867174, 46.868715], [-92.866423, 46.867937], [-92.864299, 46.866779], [-92.856274, 46.86358], [-92.85342, 46.862524], [-92.849386, 46.860147], [-92.83988, 46.854674], [-92.825976, 46.846162], [-92.811985, 46.83718], [-92.801685, 46.831367], [-92.786408, 46.821736], [-92.770615, 46.815627], [-92.767353, 46.81598], [-92.763233, 46.815451], [-92.751002, 46.808813], [-92.74435, 46.8052], [-92.734137, 46.799589], [-92.725725, 46.794859], [-92.710276, 46.786368], [-92.707572, 46.784869], [-92.703967, 46.784899], [-92.702328, 46.785565]]}},
{"type": "Feature", "properties": {"ProjectID": "P0194", "full_id": "r9626186", "website": "https://www.tcenergy.com/operations/natural-gas/great-lakes-gas-transmission", "operator": "TC Energy Corporation", "operator:website": "https://www.tcpipelineslp.com/assets/great-lakes/", "route": "pipeline", "operator:wikipedia": "en:TC Energy", "type": "route", "name": "Great Lakes Gas Transmission", "layer": "add2", "osm_type": "relation", "operator:wikidata": "Q1516108", "path": "/Users/char/Desktop/gem o&g resources/gis data/Great Lakes Transmission/add2.geojson", "osm_id": "9626186"}, "geometry": {"type": "LineString", "coordinates": [[-89.178668, 46.257496], [-89.178666, 46.257305], [-89.179074, 46.257303], [-89.179274, 46.25737], [-89.179275, 46.257493], [-89.178668, 46.257496]]}},
{"type": "Feature", "properties": {"ProjectID": "P0194", "full_id": "r9626186", "website": "https://www.tcenergy.com/operations/natural-gas/great-lakes-gas-transmission", "operator": "TC Energy Corporation", "operator:website": "https://www.tcpipelineslp.com/assets/great-lakes/", "route": "pipeline", "operator:wikipedia": "en:TC Energy", "type": "route", "name": "Great Lakes Gas Transmission", "layer": "add2", "osm_type": "relation", "operator:wikidata": "Q1516108", "path": "/Users/char/Desktop/gem o&g resources/gis data/Great Lakes Transmission/add2.geojson", "osm_id": "9626186"}, "geometry": {"type": "LineString", "coordinates": [[-90.48769, 46.507277], [-90.495146, 46.509361], [-90.497055, 46.510424], [-90.50654, 46.512285], [-90.512569, 46.513097], [-90.514543, 46.511665], [-90.522118, 46.511384], [-90.535293, 46.510676]]}},
{"type": "Feature", "properties": {"ProjectID": "P0194", "full_id": "r9626186", "website": "https://www.tcenergy.com/operations/natural-gas/great-lakes-gas-transmission", "operator": "TC Energy Corporation", "operator:website": "https://www.tcpipelineslp.com/assets/great-lakes/", "route": "pipeline", "operator:wikipedia": "en:TC Energy", "type": "route", "name": "Great Lakes Gas Transmission", "layer": "add2", "osm_type": "relation", "operator:wikidata": "Q1516108", "path": "/Users/char/Desktop/gem o&g resources/gis data/Great Lakes Transmission/add2.geojson", "osm_id": "9626186"}, "geometry": {"type": "LineString", "coordinates": [[-89.696061, 46.403849], [-89.69576, 46.403806], [-89.695695, 46.404024], [-89.695973, 46.404063], [-89.695965, 46.404091], [-89.696224, 46.404128], [-89.696263, 46.403997], [-89.696027, 46.403964], [-89.696061, 46.403849]]}},
{"type": "Feature", "properties": {"ProjectID": "P0194"}, "geometry": {"type": "LineString", "coordinates": [[-95.207143, 47.585284], [-95.205234, 47.585326]]}},
{"type": "Feature", "properties": {"ProjectID": "P0194", "full_id": "r9626186", "website": "https://www.tcenergy.com/operations/natural-gas/great-lakes-gas-transmission", "operator": "TC Energy Corporation", "operator:website": "https://www.tcpipelineslp.com/assets/great-lakes/", "route": "pipeline", "operator:wikipedia": "en:TC Energy", "type": "route", "name": "Great Lakes Gas Transmission", "layer": "add2", "osm_type": "relation", "operator:wikidata": "Q1516108", "path": "/Users/char/Desktop/gem o&g resources/gis data/Great Lakes Transmission/add2.geojson", "osm_id": "9626186"}, "geometry": {"type": "LineString", "coordinates": [[-89.178765, 46.257367], [-89.178582, 46.257268], [-89.171748, 46.257293], [-89.158393, 46.257495], [-89.148569, 46.25716], [-89.138936, 46.256825], [-89.117456, 46.252448], [-89.101814, 46.245652], [-89.100805, 46.24586], [-89.098059, 46.24675], [-89.091729, 46.24169], [-89.08984, 46.24123], [-89.078468, 46.236614], [-89.07261, 46.235249], [-89.067117, 46.233156], [-89.057396, 46.229415], [-89.03802, 46.22039], [-89.022571, 46.213218], [-89.02094, 46.212595], [-88.993946, 46.202794], [-88.981694, 46.198324], [-88.976394, 46.196333], [-88.970514, 46.192501], [-88.951868, 46.185505], [-88.923994, 46.175045], [-88.910862, 46.170067], [-88.902171, 46.165297], [-88.901893, 46.164614], [-88.901313, 46.162265], [-88.890477, 46.158698], [-88.876272, 46.15797], [-88.863955, 46.158104], [-88.833078, 46.158163], [-88.825138, 46.158134], [-88.823057, 46.157494], [-88.82119, 46.157881], [-88.804496, 46.153437], [-88.782588, 46.147476], [-88.7654, 46.138719], [-88.757676, 46.134898], [-88.748685, 46.134467], [-88.746818, 46.134957], [-88.735767, 46.134199], [-88.729266, 46.135136], [-88.71122, 46.133396], [-88.70077, 46.131879], [-88.68738, 46.129396], [-88.662511, 46.128563], [-88.660494, 46.128786], [-88.656374, 46.128697], [-88.652769, 46.128905], [-88.634144, 46.129188], [-88.618651, 46.129396], [-88.617342, 46.128637], [-88.611763, 46.127998], [-88.587194, 46.125529], [-88.584748, 46.124622], [-88.578719, 46.120993], [-88.557604, 46.115386], [-88.533946, 46.109219], [-88.533636, 46.109138], [-88.525225, 46.108959], [-88.516985, 46.106683], [-88.501171, 46.100658], [-88.472825, 46.100092], [-88.468358, 46.100002]]}},
{"type": "Feature", "properties": {"ProjectID": "P0194", "full_id": "r9626186", "website": "https://www.tcenergy.com/operations/natural-gas/great-lakes-gas-transmission", "operator": "TC Energy Corporation", "operator:website": "https://www.tcpipelineslp.com/assets/great-lakes/", "route": "pipeline", "operator:wikipedia": "en:TC Energy", "type": "route", "name": "Great Lakes Gas Transmission", "layer": "add2", "osm_type": "relation", "operator:wikidata": "Q1516108", "path": "/Users/char/Desktop/gem o&g resources/gis data/Great Lakes Transmission/add2.geojson", "osm_id": "9626186"}, "geometry": {"type": "LineString", "coordinates": [[-91.657458, 46.626875], [-91.66265, 46.626781], [-91.667327, 46.625423], [-91.67164, 46.624097], [-91.683142, 46.620619], [-91.689042, 46.61801], [-91.69563, 46.617317], [-91.710693, 46.615092], [-91.719512, 46.614237], [-91.726164, 46.613677], [-91.736121, 46.613073], [-91.754295, 46.611849], [-91.760196, 46.611053], [-91.788992, 46.611525], [-91.796181, 46.610464], [-91.800987, 46.611422], [-91.80457, 46.611378], [-91.819162, 46.610935], [-91.837723, 46.610478], [-91.842445, 46.610898], [-91.850288, 46.611547], [-91.858967, 46.611923], [-91.86283, 46.611886], [-91.884097, 46.61172], [-91.887702, 46.612973], [-91.90061, 46.61316], [-91.911862, 46.610659], [-91.917051, 46.610187], [-91.921008, 46.608004], [-91.923768, 46.608062], [-91.93532, 46.608626], [-91.950199, 46.609395], [-91.955862, 46.606312], [-91.974733, 46.606022], [-91.977054, 46.603911], [-91.980201, 46.603136], [-92.001874, 46.599274], [-92.006122, 46.599215], [-92.011808, 46.599215], [-92.022752, 46.599156], [-92.031442, 46.599126], [-92.035669, 46.59892], [-92.050947, 46.598846], [-92.055196, 46.599156], [-92.072705, 46.600571], [-92.087726, 46.600777], [-92.088349, 46.600757], [-92.093145, 46.600772], [-92.104113, 46.601095], [-92.112529, 46.60112], [-92.117995, 46.602015], [-92.125307, 46.602028], [-92.141396, 46.600822], [-92.181394, 46.600187], [-92.206298, 46.598906], [-92.213392, 46.597601], [-92.218351, 46.596034], [-92.271199, 46.59571], [-92.274457, 46.596195], [-92.291542, 46.596394], [-92.293352, 46.596208], [-92.304374, 46.596307], [-92.316572, 46.597588], [-92.353765, 46.597713], [-92.362633, 46.600038], [-92.369384, 46.600598], [-92.374958, 46.601356], [-92.395337, 46.608493], [-92.396948, 46.608506], [-92.429833, 46.62284], [-92.432295, 46.624803], [-92.436095, 46.627476], [-92.443154, 46.630745], [-92.445, 46.632522], [-92.457397, 46.640301]]}},
{"type": "Feature", "properties": {"ProjectID": "P0194"}, "geometry": {"type": "LineString", "coordinates": [[-84.768485, 45.261242], [-84.768512, 45.259754], [-84.768105, 45.257232], [-84.768298, 45.253425], [-84.768448, 45.250752], [-84.768598, 45.24983], [-84.769907, 45.246869], [-84.771345, 45.243213], [-84.77422, 45.235976], [-84.775164, 45.233513], [-84.775894, 45.231427], [-84.777331, 45.22712], [-84.779863, 45.219035], [-84.781516, 45.214455], [-84.783704, 45.207879], [-84.7857, 45.201741], [-84.788425, 45.193016], [-84.789541, 45.189478], [-84.790485, 45.182793], [-84.791987, 45.176834], [-84.794369, 45.167773], [-84.795892, 45.162129], [-84.796321, 45.16042], [-84.797823, 45.156576], [-84.799132, 45.15355], [-84.799926, 45.147754], [-84.80072, 45.143713], [-84.802587, 45.139294], [-84.805656, 45.131952], [-84.807265, 45.128289], [-84.809046, 45.1214], [-84.813337, 45.105697], [-84.816567, 45.094254], [-84.817361, 45.093565], [-84.819517, 45.070763], [-84.821792, 45.062094], [-84.82604, 45.0483], [-84.827542, 45.043206], [-84.829259, 45.037475], [-84.830074, 45.034806], [-84.830976, 45.028133], [-84.831834, 45.022886], [-84.833422, 45.011176], [-84.834409, 45.003317], [-84.835224, 44.997157], [-84.837027, 44.983681], [-84.838872, 44.969656], [-84.841018, 44.952742], [-84.841833, 44.94685], [-84.840074, 44.936765], [-84.83973, 44.934456], [-84.839859, 44.933058], [-84.839172, 44.923032], [-84.838958, 44.913034], [-84.842048, 44.906682], [-84.841747, 44.896711], [-84.841619, 44.887134], [-84.842262, 44.881965], [-84.842563, 44.875701], [-84.843206, 44.873024], [-84.842563, 44.865664], [-84.843807, 44.850879], [-84.844837, 44.8367], [-84.845781, 44.821056], [-84.845867, 44.815759], [-84.848013, 44.803215], [-84.847841, 44.794566], [-84.847498, 44.774829], [-84.848185, 44.753256], [-84.848442, 44.750269], [-84.848356, 44.748623], [-84.849472, 44.746733], [-84.850845, 44.738869], [-84.851961, 44.728443], [-84.852991, 44.722954], [-84.86166, 44.6952], [-84.867754, 44.676557], [-84.866982, 44.672804], [-84.870501, 44.662274], [-84.874363, 44.650979], [-84.87844, 44.638765], [-84.882731, 44.626061], [-84.886208, 44.61372], [-84.890928, 44.596701], [-84.896078, 44.578547], [-84.89758, 44.574114], [-84.898868, 44.566777], [-84.9014, 44.553781], [-84.903288, 44.539865], [-84.905176, 44.530535], [-84.908609, 44.512329], [-84.914703, 44.499291], [-84.914961, 44.494822], [-84.914703, 44.492342], [-84.914446, 44.490934], [-84.914789, 44.483372], [-84.915218, 44.47097], [-84.915905, 44.453787], [-84.916549, 44.432125], [-84.920025, 44.427467], [-84.922214, 44.414011], [-84.920669, 44.39908], [-84.918866, 44.385894], [-84.918737, 44.367981], [-84.918909, 44.361937], [-84.923458, 44.354572], [-84.929767, 44.348159], [-84.931355, 44.340762], [-84.933329, 44.33183], [-84.935088, 44.320901], [-84.935732, 44.313838], [-84.936848, 44.302906], [-84.938006, 44.280174], [-84.937835, 44.274643], [-84.943886, 44.258233], [-84.946117, 44.24483], [-84.945989, 44.209742], [-84.946075, 44.205189], [-84.948649, 44.191036], [-84.94925, 44.173401], [-84.949679, 44.161396], [-84.95234, 44.157794], [-84.95234, 44.143907], [-84.952812, 44.135807], [-84.954915, 44.13017], [-84.954743, 44.127767], [-84.952898, 44.124009], [-84.951739, 44.12059], [-84.949336, 44.115013], [-84.949508, 44.113226], [-84.952555, 44.099236], [-84.955044, 44.086629], [-84.954529, 44.06551], [-84.954186, 44.051632], [-84.955988, 44.04389], [-84.95852, 44.031642], [-84.961009, 44.019577], [-84.962125, 44.014268], [-84.96264, 44.005842], [-84.962854, 44.000903], [-84.965601, 43.993401], [-84.967017, 43.992166], [-84.965515, 43.98244], [-84.963584, 43.969129], [-84.962554, 43.961129], [-84.957833, 43.954394], [-84.949637, 43.944075], [-84.94513, 43.942282], [-84.939637, 43.938018], [-84.9383, 43.9357], [-84.939551, 43.934711], [-84.93968, 43.924605], [-84.930282, 43.914774], [-84.93041, 43.910941], [-84.928823, 43.909302], [-84.924274, 43.900119], [-84.918823, 43.893656], [-84.915261, 43.886109], [-84.911614, 43.879181], [-84.909596, 43.875716], [-84.907107, 43.873458], [-84.905348, 43.866899], [-84.90479, 43.864331], [-84.904962, 43.857956], [-84.90406, 43.855079], [-84.90243, 43.853686], [-84.902558, 43.850189], [-84.898138, 43.843968], [-84.894919, 43.835084], [-84.889469, 43.822298], [-84.88934, 43.818334], [-84.88595, 43.81276], [-84.883676, 43.805947], [-84.883375, 43.803005], [-84.881015, 43.800558], [-84.872947, 43.785595], [-84.86372, 43.774781], [-84.858141, 43.767964], [-84.849772, 43.759906], [-84.845996, 43.757007], [-84.83737, 43.75042], [-84.832306, 43.745925], [-84.827199, 43.741848], [-84.820354, 43.735941], [-84.816513, 43.732251], [-84.804626, 43.717923], [-84.801879, 43.71538], [-84.783812, 43.698472], [-84.758492, 43.678363], [-84.754801, 43.678239], [-84.750595, 43.675694], [-84.708796, 43.647193], [-84.676094, 43.621973], [-84.673948, 43.618307], [-84.667339, 43.612838], [-84.667339, 43.611471], [-84.644852, 43.595249], [-84.622021, 43.577531], [-84.619446, 43.575603], [-84.599018, 43.554644], [-84.591208, 43.545002], [-84.583311, 43.538532], [-84.548035, 43.514759], [-84.541168, 43.511087], [-84.537048, 43.508472], [-84.509497, 43.49546], [-84.507995, 43.495164], [-84.50675, 43.493172], [-84.50351, 43.490759], [-84.496279, 43.484158], [-84.486108, 43.47765], [-84.475336, 43.469958], [-84.446025, 43.451797], [-84.424138, 43.436935], [-84.410791, 43.428365], [-84.399934, 43.421539], [-84.387102, 43.415273], [-84.370365, 43.40458], [-84.361954, 43.399217], [-84.35277, 43.393417], [-84.341655, 43.386213], [-84.337535, 43.38325], [-84.30522, 43.36107], [-84.292517, 43.352614], [-84.284921, 43.347402], [-84.269815, 43.336978], [-84.250631, 43.324304], [-84.236941, 43.314749], [-84.215226, 43.302133], [-84.206815, 43.297386], [-84.196987, 43.289108], [-84.190464, 43.283329], [-84.188747, 43.281923], [-84.185314, 43.279986], [-84.176731, 43.272893], [-84.175959, 43.271644], [-84.170594, 43.268863], [-84.161024, 43.26305], [-84.156432, 43.261331], [-84.153128, 43.260175], [-84.132185, 43.259644], [-84.124246, 43.25805], [-84.09339, 43.258425], [-84.034209, 43.257706], [-84.023523, 43.256987], [-84.015799, 43.256612], [-84.012666, 43.255237], [-83.990951, 43.254799], [-83.979878, 43.254174], [-83.976574, 43.254236], [-83.964686, 43.254236], [-83.955889, 43.254299], [-83.938422, 43.251423], [-83.93765, 43.251736], [-83.930912, 43.248829], [-83.914819, 43.247641], [-83.904305, 43.248047], [-83.894391, 43.246266], [-83.872247, 43.24314], [-83.869414, 43.243952], [-83.851819, 43.242921], [-83.84697, 43.24242], [-83.827057, 43.241795], [-83.814547, 43.241326], [-83.796222, 43.239966], [-83.786824, 43.23881], [-83.781652, 43.2382], [-83.780494, 43.238497], [-83.773091, 43.2382], [-83.77028, 43.236949], [-83.768799, 43.236965], [-83.765667, 43.235886], [-83.759294, 43.23598], [-83.759015, 43.234933], [-83.754358, 43.234542], [-83.74202, 43.231697], [-83.732064, 43.22907], [-83.729553, 43.228664], [-83.719211, 43.225755], [-83.715413, 43.224724], [-83.71022, 43.223379], [-83.705521, 43.222112], [-83.700457, 43.219782], [-83.694727, 43.215983], [-83.691251, 43.213621], [-83.689932, 43.213418], [-83.685619, 43.211619], [-83.681831, 43.209563], [-83.679353, 43.208671], [-83.676842, 43.206591], [-83.674976, 43.204886], [-83.670985, 43.202658], [-83.666865, 43.199975], [-83.65061, 43.191019], [-83.644516, 43.189095], [-83.639388, 43.187484], [-83.639195, 43.187171], [-83.627973, 43.183494], [-83.625398, 43.182602], [-83.624067, 43.182195], [-83.622372, 43.181601], [-83.585787, 43.16675], [-83.575401, 43.16074], [-83.56802, 43.155731], [-83.5625, 43.1519], [-83.562398, 43.150096], [-83.550854, 43.147654], [-83.543601, 43.1459], [-83.541198, 43.145493], [-83.540082, 43.14493], [-83.530812, 43.144836], [-83.52489, 43.14446], [-83.51635, 43.143395], [-83.499913, 43.140702], [-83.491974, 43.137289], [-83.488584, 43.135974], [-83.479786, 43.134439], [-83.474464, 43.134001], [-83.455153, 43.129835], [-83.425455, 43.126453], [-83.421764, 43.125513], [-83.409534, 43.121253], [-83.405199, 43.119436], [-83.381252, 43.117619], [-83.373141, 43.117212], [-83.364945, 43.114581], [-83.358164, 43.111636], [-83.352971, 43.111291], [-83.33705, 43.105683], [-83.328466, 43.102393], [-83.308253, 43.098977], [-83.303747, 43.098852], [-83.29834, 43.097975], [-83.289285, 43.09224], [-83.284049, 43.088385], [-83.277183, 43.084029], [-83.267784, 43.07986], [-83.260403, 43.076756], [-83.258987, 43.073935], [-83.248773, 43.069797], [-83.239546, 43.065596], [-83.22577, 43.057789], [-83.202038, 43.046405], [-83.190966, 43.040414], [-83.184013, 43.036995], [-83.177533, 43.033451], [-83.158865, 43.025451], [-83.150883, 43.022784], [-83.142514, 43.020023], [-83.138051, 43.018266], [-83.129768, 43.015034], [-83.124619, 43.012901], [-83.11522, 43.009009], [-83.107624, 43.005651], [-83.094535, 43.000159], [-83.085866, 42.997146], [-83.07621, 42.993348], [-83.072562, 42.992186], [-83.070245, 42.992124], [-83.065567, 42.990115], [-83.058443, 42.98707], [-83.045182, 42.98167], [-83.030291, 42.976301], [-83.018532, 42.971874], [-83.003469, 42.96641], [-82.993727, 42.96283], [-82.986646, 42.960191], [-82.976646, 42.956705], [-82.974458, 42.95592], [-82.965188, 42.952622], [-82.964373, 42.951962], [-82.961068, 42.95036], [-82.941413, 42.942444], [-82.938452, 42.941188], [-82.933388, 42.938486], [-82.929053, 42.936506], [-82.925406, 42.934841], [-82.915664, 42.931793], [-82.892318, 42.922743], [-82.883306, 42.919349], [-82.880752, 42.918454], [-82.852621, 42.907594], [-82.841764, 42.904577], [-82.817388, 42.895963], [-82.803912, 42.8898], [-82.787604, 42.882285], [-82.780652, 42.878983], [-82.767563, 42.873794], [-82.757306, 42.871247], [-82.734003, 42.865585], [-82.728982, 42.863477], [-82.716064, 42.858633], [-82.707439, 42.855235], [-82.682204, 42.84866], [-82.668943, 42.844569], [-82.660532, 42.84221], [-82.652807, 42.838937], [-82.646842, 42.835349], [-82.620878, 42.827387], [-82.611351, 42.824743], [-82.608948, 42.82339], [-82.608562, 42.823106], [-82.603283, 42.820116], [-82.578306, 42.809822], [-82.566891, 42.806296], [-82.545261, 42.796471], [-82.529469, 42.78822], [-82.476168, 42.788787]]}},
{"type": "Feature", "properties": {"ProjectID": "P0194", "path": "/Users/char/Desktop/gem o&g resources/gis data/Great Lakes Transmission/add1.geojson", "operator": "TC Energy Corporation", "route": "pipeline", "type": "route", "layer": "add1", "name": "Great Lakes Gas Transmission", "substance": "gas", "osm_type": "relation", "full_id": "r10668461", "osm_id": "10668461"}, "geometry": {"type": "LineString", "coordinates": [[-95.381726, 47.682712], [-95.368199, 47.673109], [-95.342386, 47.659794], [-95.314717, 47.646523], [-95.313211, 47.644777], [-95.295173, 47.636069], [-95.271864, 47.622757], [-95.26964, 47.621765], [-95.238434, 47.605002], [-95.235439, 47.602782]]}},
{"type": "Feature", "properties": {"ProjectID": "P0194"}, "geometry": {"type": "LineString", "coordinates": [[-85.060546, 45.335375], [-85.064864, 45.335616], [-85.06568, 45.33554], [-85.068512, 45.335721], [-85.069971, 45.335918], [-85.071666, 45.336053], [-85.083618, 45.336853], [-85.09645, 45.337004]]}},
{"type": "Feature", "properties": {"ProjectID": "P0194", "full_id": "r9626186", "website": "https://www.tcenergy.com/operations/natural-gas/great-lakes-gas-transmission", "operator": "TC Energy Corporation", "operator:website": "https://www.tcpipelineslp.com/assets/great-lakes/", "route": "pipeline", "operator:wikipedia": "en:TC Energy", "type": "route", "name": "Great Lakes Gas Transmission", "layer": "add2", "osm_type": "relation", "operator:wikidata": "Q1516108", "path": "/Users/char/Desktop/gem o&g resources/gis data/Great Lakes Transmission/add2.geojson", "osm_id": "9626186"}, "geometry": {"type": "LineString", "coordinates": [[-90.885139, 46.551966], [-90.884788, 46.551964], [-90.884793, 46.551551], [-90.884983, 46.551566], [-90.884999, 46.551452], [-90.885203, 46.551471], [-90.885139, 46.551966]]}},
{"type": "Feature", "properties": {"ProjectID": "P0194"}, "geometry": {"type": "LineString", "coordinates": [[-92.703967, 46.784899], [-92.700512, 46.784957], [-92.699858, 46.784553], [-92.692852, 46.777669], [-92.684269, 46.769498], [-92.677918, 46.76309], [-92.675943, 46.761561], [-92.669935, 46.757827], [-92.663283, 46.7528], [-92.656503, 46.747713], [-92.652812, 46.744948], [-92.651353, 46.743713], [-92.648907, 46.741949], [-92.641482, 46.737184], [-92.638993, 46.735302], [-92.636933, 46.734272], [-92.632813, 46.731978], [-92.624917, 46.727889], [-92.617536, 46.723918], [-92.615218, 46.722829], [-92.609725, 46.71824], [-92.603245, 46.714179], [-92.596679, 46.709736], [-92.594104, 46.707529], [-92.586551, 46.697552], [-92.580113, 46.689398], [-92.576466, 46.684217], [-92.567067, 46.679536], [-92.557325, 46.674972], [-92.555265, 46.674265], [-92.542992, 46.67029], [-92.532992, 46.6649], [-92.52501, 46.661425], [-92.507458, 46.658214], [-92.498145, 46.656653], [-92.491751, 46.65577], [-92.483511, 46.650408], [-92.48055, 46.648464], [-92.476645, 46.646814], [-92.471237, 46.644664], [-92.463727, 46.642218], [-92.457397, 46.640301]]}},
{"type": "Feature", "properties": {"ProjectID": "P0194"}, "geometry": {"type": "LineString", "coordinates": [[-84.741175, 45.849014], [-84.739952, 45.848921], [-84.737163, 45.848532], [-84.757805, 45.7862], [-84.759403, 45.782138], [-84.759564, 45.781591], [-84.759575, 45.780776], [-84.762526, 45.780701]]}},
{"type": "Feature", "properties": {"ProjectID": "P0194"}, "geometry": {"type": "LineString", "coordinates": [[-86.960462, 45.939922], [-86.960271, 45.940577]]}},
{"type": "Feature", "properties": {"ProjectID": "P0194", "full_id": "r9626186", "website": "https://www.tcenergy.com/operations/natural-gas/great-lakes-gas-transmission", "operator": "TC Energy Corporation", "operator:website": "https://www.tcpipelineslp.com/assets/great-lakes/", "route": "pipeline", "operator:wikipedia": "en:TC Energy", "type": "route", "name": "Great Lakes Gas Transmission", "layer": "add2", "osm_type": "relation", "operator:wikidata": "Q1516108", "path": "/Users/char/Desktop/gem o&g resources/gis data/Great Lakes Transmission/add2.geojson", "osm_id": "9626186"}, "geometry": {"type": "LineString", "coordinates": [[-89.825055, 46.440325], [-89.825691, 46.439493], [-89.825008, 46.439491], [-89.818454, 46.439474], [-89.806588, 46.436191], [-89.797618, 46.43381], [-89.794292, 46.434505], [-89.777362, 46.428516], [-89.763758, 46.420987], [-89.754896, 46.417067], [-89.741657, 46.411993], [-89.734275, 46.409241], [-89.729726, 46.407939], [-89.710629, 46.405882], [-89.704449, 46.405557], [-89.696145, 46.404303]]}},
{"type": "Feature", "properties": {"ProjectID": "P0194", "full_id": "r9626186", "website": "https://www.tcenergy.com/operations/natural-gas/great-lakes-gas-transmission", "operator": "TC Energy Corporation", "operator:website": "https://www.tcpipelineslp.com/assets/great-lakes/", "route": "pipeline", "operator:wikipedia": "en:TC Energy", "type": "route", "name": "Great Lakes Gas Transmission", "layer": "add2", "osm_type": "relation", "operator:wikidata": "Q1516108", "path": "/Users/char/Desktop/gem o&g resources/gis data/Great Lakes Transmission/add2.geojson", "osm_id": "9626186"}, "geometry": {"type": "LineString", "coordinates": [[-90.48769, 46.507277], [-90.478572, 46.506156], [-90.471501, 46.505143], [-90.467689, 46.505209], [-90.462485, 46.50461], [-90.440243, 46.504427], [-90.433227, 46.504442], [-90.426145, 46.503704], [-90.400997, 46.503364], [-90.389689, 46.503172], [-90.382975, 46.499693], [-90.378885, 46.499298], [-90.369245, 46.498625], [-90.344701, 46.497096], [-90.339487, 46.496254], [-90.330496, 46.49621], [-90.326076, 46.495516], [-90.30273, 46.49584], [-90.299275, 46.495634], [-90.297215, 46.495516], [-90.293456, 46.495967], [-90.292023, 46.496102], [-90.291112, 46.496586], [-90.285705, 46.496649], [-90.279974, 46.497608], [-90.273499, 46.497545], [-90.264654, 46.497259], [-90.262153, 46.497259], [-90.245986, 46.498711], [-90.241192, 46.499079], [-90.236008, 46.498837], [-90.217327, 46.498326], [-90.209884, 46.497866], [-90.20098, 46.49819], [-90.1951, 46.498309], [-90.185187, 46.496728], [-90.178749, 46.496211], [-90.175359, 46.496241], [-90.156532, 46.501176]]}},
{"type": "Feature", "properties": {"ProjectID": "P0194", "path": "/Users/char/Desktop/gem o&g resources/gis data/Great Lakes Transmission/add1.geojson", "operator": "TC Energy Corporation", "route": "pipeline", "type": "route", "layer": "add1", "name": "Great Lakes Gas Transmission", "substance": "gas", "osm_type": "relation", "full_id": "r10668461", "osm_id": "10668461"}, "geometry": {"type": "LineString", "coordinates": [[-95.235439, 47.602782], [-95.230587, 47.600507], [-95.22733, 47.599074], [-95.209325, 47.58891], [-95.207143, 47.585284], [-95.206351, 47.583967], [-95.206321, 47.583589], [-95.20581, 47.58171], [-95.158832, 47.560574], [-95.129221, 47.541457], [-95.124786, 47.539806], [-95.087221, 47.520227], [-95.071557, 47.51729], [-95.062445, 47.514276], [-95.060356, 47.510585], [-95.056437, 47.506285], [-95.052803, 47.503512], [-94.997027, 47.478863], [-94.966887, 47.469542], [-94.96537, 47.468121], [-94.959963, 47.465896], [-94.937126, 47.453153], [-94.927553, 47.44797], [-94.924286, 47.446571], [-94.907492, 47.442982], [-94.904903, 47.442914], [-94.889467, 47.437351], [-94.884489, 47.43439], [-94.875048, 47.430267], [-94.868868, 47.428051], [-94.863046, 47.426406], [-94.855207, 47.423938], [-94.820016, 47.407037], [-94.805231, 47.399569], [-94.789267, 47.390796], [-94.777336, 47.384985], [-94.775791, 47.384869], [-94.766693, 47.381207], [-94.754677, 47.37743], [-94.732876, 47.37092], [-94.713049, 47.364874], [-94.696226, 47.360107], [-94.688931, 47.357897], [-94.681978, 47.355688], [-94.667988, 47.351385], [-94.646616, 47.344755], [-94.625931, 47.338241], [-94.62533, 47.337078], [-94.608851, 47.331377], [-94.595804, 47.326665], [-94.582415, 47.321196], [-94.580655, 47.32108], [-94.576063, 47.321283], [-94.567223, 47.322476], [-94.556708, 47.323902], [-94.556317, 47.323843], [-94.554863, 47.323523], [-94.553876, 47.322942], [-94.540572, 47.321429], [-94.530616, 47.320381], [-94.51714, 47.320381], [-94.507442, 47.320381], [-94.49182, 47.320265], [-94.489803, 47.320818], [-94.488001, 47.320352], [-94.471135, 47.320294], [-94.460192, 47.320236], [-94.450407, 47.320207], [-94.448905, 47.320091], [-94.447446, 47.3198], [-94.446158, 47.319596], [-94.438863, 47.319625], [-94.43131, 47.319538], [-94.428434, 47.320003], [-94.425302, 47.320469], [-94.4238, 47.320585], [-94.408479, 47.321167], [-94.394617, 47.321749], [-94.381785, 47.322272], [-94.365392, 47.322825], [-94.362967, 47.323407], [-94.361057, 47.323087], [-94.35389, 47.323392], [-94.340329, 47.323931], [-94.316683, 47.324832], [-94.297543, 47.325618], [-94.295139, 47.325618], [-94.293852, 47.326752], [-94.282994, 47.327334], [-94.265742, 47.32809], [-94.248104, 47.328934], [-94.224157, 47.330039], [-94.220681, 47.330883], [-94.219866, 47.331028], [-94.218664, 47.330476], [-94.215145, 47.330563], [-94.196219, 47.331406], [-94.174719, 47.332482], [-94.160342, 47.33318], [-94.140129, 47.33414], [-94.12086, 47.3351], [-94.118285, 47.334955], [-94.101505, 47.333617], [-94.08597, 47.33225], [-94.044986, 47.328672], [-94.033184, 47.327887], [-94.010997, 47.325967], [-93.991857, 47.324512], [-93.970184, 47.322912], [-93.962202, 47.321778], [-93.956537, 47.3214], [-93.95349, 47.321021], [-93.943791, 47.319538], [-93.931603, 47.317879], [-93.914824, 47.320061], [-93.910972, 47.320505], [-93.891757, 47.326098], [-93.881199, 47.328759], [-93.869677, 47.331872], [-93.867338, 47.332512], [-93.859141, 47.33241], [-93.849635, 47.332221], [-93.849533, 47.332878]]}},
{"type": "Feature", "properties": {"ProjectID": "P0194", "full_id": "r9626186", "website": "https://www.tcenergy.com/operations/natural-gas/great-lakes-gas-transmission", "operator": "TC Energy Corporation", "operator:website": "https://www.tcpipelineslp.com/assets/great-lakes/", "route": "pipeline", "operator:wikipedia": "en:TC Energy", "type": "route", "name": "Great Lakes Gas Transmission", "layer": "add2", "osm_type": "relation", "operator:wikidata": "Q1516108", "path": "/Users/char/Desktop/gem o&g resources/gis data/Great Lakes Transmission/add2.geojson", "osm_id": "9626186"}, "geometry": {"type": "LineString", "coordinates": [[-90.156751, 46.500967], [-90.157271, 46.500968], [-90.157272, 46.500721], [-90.156752, 46.50072], [-90.156751, 46.500967]]}},
{"type": "Feature", "properties": {"ProjectID": "P0194", "full_id": "r9626186", "website": "https://www.tcenergy.com/operations/natural-gas/great-lakes-gas-transmission", "operator": "TC Energy Corporation", "operator:website": "https://www.tcpipelineslp.com/assets/great-lakes/", "route": "pipeline", "operator:wikipedia": "en:TC Energy", "type": "route", "name": "Great Lakes Gas Transmission", "layer": "add2", "osm_type": "relation", "operator:wikidata": "Q1516108", "path": "/Users/char/Desktop/gem o&g resources/gis data/Great Lakes Transmission/add2.geojson", "osm_id": "9626186"}, "geometry": {"type": "LineString", "coordinates": [[-88.4687, 46.1006], [-88.468358, 46.100002], [-88.466547, 46.100054], [-88.464864, 46.100048], [-88.460487, 46.101536], [-88.444265, 46.101893], [-88.437763, 46.102339], [-88.429523, 46.102413], [-88.420232, 46.103916], [-88.416005, 46.103529], [-88.400792, 46.09728], [-88.393925, 46.094513], [-88.392809, 46.093277], [-88.363605, 46.089706], [-88.359571, 46.089185], [-88.357984, 46.088471], [-88.35455, 46.08792], [-88.353091, 46.087161], [-88.338307, 46.082786], [-88.314403, 46.083158], [-88.310262, 46.083947], [-88.282281, 46.084944], [-88.258763, 46.085747], [-88.257454, 46.085256], [-88.252412, 46.086194], [-88.231533, 46.086045], [-88.217543, 46.086224], [-88.212887, 46.085375], [-88.201171, 46.085167], [-88.192352, 46.085301], [-88.18761, 46.085286], [-88.186601, 46.084587], [-88.179177, 46.084036], [-88.167804, 46.083947], [-88.160959, 46.083024], [-88.151368, 46.082801], [-88.146219, 46.084101], [-88.131107, 46.08411], [-88.114537, 46.084101], [-88.098097, 46.08402], [-88.090346, 46.084146], [-88.078518, 46.084119], [-88.033015, 46.08416], [-88.014258, 46.084565], [-88.009409, 46.084446], [-88.007263, 46.084446], [-88.004778, 46.084573], [-88.003014, 46.084743], [-88.001941, 46.084803], [-88.000701, 46.084633], [-87.999156, 46.084425], [-87.997006, 46.084386], [-87.99589, 46.084356], [-87.994616, 46.084901], [-87.98655, 46.084785], [-87.978932, 46.084781], [-87.970029, 46.084892], [-87.950824, 46.085143], [-87.933957, 46.085528], [-87.927947, 46.085763], [-87.922839, 46.085976], [-87.912555, 46.086367], [-87.897843, 46.086967], [-87.885432, 46.08745], [-87.876549, 46.087788], [-87.860548, 46.08849], [-87.859721, 46.088285], [-87.851749, 46.088226], [-87.848026, 46.088576], [-87.836343, 46.088538], [-87.835205, 46.088784], [-87.822686, 46.088956], [-87.814241, 46.089052], [-87.812557, 46.088538], [-87.80363, 46.088739], [-87.791968, 46.089037], [-87.779362, 46.089275], [-87.776191, 46.089309], [-87.775044, 46.089095], [-87.76301, 46.088813], [-87.750017, 46.088478], [-87.723136, 46.087728], [-87.70303, 46.0888], [-87.683117, 46.090466], [-87.653012, 46.08877], [-87.638206, 46.087952], [-87.630717, 46.086136], [-87.625031, 46.084856], [-87.603681, 46.077875], [-87.594883, 46.076968], [-87.57703, 46.073395], [-87.545981, 46.066353], [-87.518472, 46.060904], [-87.516091, 46.060466], [-87.508154, 46.059161], [-87.506531, 46.058594], [-87.503028, 46.057553], [-87.497979, 46.056505], [-87.489886, 46.054834], [-87.481356, 46.053576], [-87.47539, 46.052294], [-87.448021, 46.04618], [-87.434532, 46.043142], [-87.425599, 46.041036], [-87.410376, 46.038736], [-87.401028, 46.037586], [-87.394323, 46.036887], [-87.393663, 46.036755], [-87.393349, 46.036576], [-87.392241, 46.034999], [-87.391794, 46.034695], [-87.384529, 46.032411], [-87.347286, 46.020675], [-87.33419, 46.017231], [-87.305779, 46.00997], [-87.285183, 46.004691], [-87.275231, 46.002094], [-87.267944, 46.001091], [-87.260522, 46.000033], [-87.247638, 45.998323], [-87.242702, 45.997638], [-87.228262, 45.995686], [-87.208504, 45.993011], [-87.192351, 45.990678], [-87.180195, 45.988633], [-87.163012, 45.985825], [-87.161255, 45.984471], [-87.153934, 45.983009], [-87.136057, 45.979509], [-87.12371, 45.977113], [-87.116177, 45.975534], [-87.112214, 45.975401], [-87.105475, 45.975059], [-87.101065, 45.974732], [-87.099419, 45.975032], [-87.091716, 45.974048], [-87.077487, 45.968861], [-87.073, 45.96661], [-87.045741, 45.960038], [-87.02285, 45.952982], [-87.020354, 45.952348], [-87.014452, 45.951514], [-86.997559, 45.946158], [-86.992904, 45.944289], [-86.983954, 45.943355], [-86.975388, 45.940669], [-86.969605, 45.940535], [-86.965214, 45.940068], [-86.960462, 45.939922], [-86.955975, 45.939784], [-86.951368, 45.936831], [-86.938243, 45.93336], [-86.935508, 45.933326], [-86.927253, 45.933794], [-86.921038, 45.934545], [-86.913288, 45.934428], [-86.887613, 45.928787], [-86.88303, 45.928303], [-86.878207, 45.927135], [-86.859971, 45.928753], [-86.824314, 45.924597], [-86.805958, 45.925298], [-86.800823, 45.925916], [-86.785682, 45.926567], [-86.781531, 45.926734], [-86.77522, 45.927619], [-86.77462, 45.927869], [-86.772892, 45.928086], [-86.753024, 45.930456], [-86.740595, 45.931841], [-86.725646, 45.933393], [-86.706354, 45.933293], [-86.704626, 45.933243], [-86.678255, 45.934912], [-86.663978, 45.936263], [-86.647278, 45.937782], [-86.637512, 45.93643], [-86.623522, 45.934361], [-86.614884, 45.932842], [-86.593648, 45.928937], [-86.555208, 45.927986], [-86.541915, 45.924814], [-86.528933, 45.921793], [-86.511537, 45.921726], [-86.489605, 45.925766], [-86.471796, 45.929181], [-86.393841, 45.932508], [-86.371714, 45.933407], [-86.364928, 45.933689], [-86.357478, 45.934], [-86.354078, 45.934528], [-86.342254, 45.93644], [-86.334764, 45.937655], [-86.333653, 45.937985], [-86.329197, 45.939454], [-86.320786, 45.942374], [-86.312022, 45.945369], [-86.297394, 45.950342], [-86.296758, 45.950577], [-86.296378, 45.950747], [-86.296067, 45.950991], [-86.295525, 45.951509], [-86.291448, 45.955624], [-86.286531, 45.960474], [-86.286247, 45.960916], [-86.285908, 45.961848], [-86.28534, 45.962536], [-86.277646, 45.970275], [-86.275235, 45.972666], [-86.272689, 45.972769], [-86.269276, 45.973993], [-86.267813, 45.97452], [-86.266133, 45.975075], [-86.262422, 45.975941], [-86.261635, 45.976129], [-86.260648, 45.97632], [-86.259691, 45.97637], [-86.25676, 45.976447], [-86.256241, 45.976426], [-86.248812, 45.974835], [-86.248467, 45.9748], [-86.246431, 45.975076], [-86.245749, 45.975274], [-86.245414, 45.975493], [-86.243785, 45.977317], [-86.243378, 45.977968], [-86.241923, 45.980924], [-86.24174, 45.981327], [-86.24174, 45.984615], [-86.241638, 45.984848], [-86.241435, 45.985011], [-86.240549, 45.985294], [-86.231818, 45.987946], [-86.215678, 45.992923], [-86.199111, 45.994436], [-86.193545, 45.99491], [-86.190492, 45.995291], [-86.181761, 45.996599], [-86.175675, 45.997448], [-86.169397, 45.997794], [-86.164868, 45.998897], [-86.160726, 46.000714], [-86.158355, 46.002262], [-86.150275, 46.005881], [-86.147711, 46.007033], [-86.137372, 46.010722], [-86.133291, 46.013026], [-86.12859, 46.014722], [-86.118902, 46.018249], [-86.105495, 46.023245], [-86.101516, 46.024799], [-86.091146, 46.027265], [-86.085864, 46.029314], [-86.057605, 46.039989], [-86.045729, 46.043457], [-86.017256, 46.051685], [-86.007975, 46.054383], [-86.004424, 46.056502], [-85.993077, 46.06326], [-85.988793, 46.065759], [-85.9863, 46.067489], [-85.984122, 46.070348], [-85.978667, 46.077112], [-85.97249, 46.084643], [-85.970995, 46.085984], [-85.969621, 46.086888], [-85.958447, 46.093479], [-85.955169, 46.095889], [-85.949014, 46.100275], [-85.948193, 46.100832], [-85.947814, 46.100976], [-85.946304, 46.101143], [-85.944724, 46.101147], [-85.944212, 46.101186], [-85.943132, 46.101379], [-85.94171, 46.101616], [-85.941091, 46.101681], [-85.937599, 46.102116], [-85.929763, 46.103032], [-85.919622, 46.104087], [-85.918301, 46.104235], [-85.916689, 46.104266], [-85.887204, 46.10453], [-85.864389, 46.104599], [-85.859298, 46.104576], [-85.85411, 46.104041], [-85.842994, 46.103846], [-85.838585, 46.103856], [-85.827792, 46.10352], [-85.823427, 46.103316], [-85.816795, 46.10328], [-85.813479, 46.103293], [-85.810118, 46.103271], [-85.803083, 46.103164], [-85.798265, 46.103161], [-85.797197, 46.103167], [-85.795776, 46.103149], [-85.792462, 46.103115], [-85.780358, 46.102986], [-85.773187, 46.102903], [-85.772672, 46.10303], [-85.770965, 46.104074], [-85.770443, 46.104161], [-85.758678, 46.104645], [-85.746239, 46.105111], [-85.742082, 46.105288], [-85.741357, 46.105381], [-85.739236, 46.105787], [-85.737882, 46.105881], [-85.73195, 46.105949], [-85.725831, 46.105869], [-85.697131, 46.105593], [-85.68818, 46.105528], [-85.683034, 46.105574], [-85.677968, 46.10581], [-85.669955, 46.105983], [-85.660798, 46.106209], [-85.658245, 46.106297], [-85.656929, 46.106353], [-85.656174, 46.10635], [-85.65599, 46.106328], [-85.655838, 46.106265], [-85.655628, 46.106155], [-85.655219, 46.10575], [-85.654255, 46.104679], [-85.65366, 46.103892], [-85.653273, 46.103554], [-85.652895, 46.103478], [-85.652409, 46.103438], [-85.641609, 46.10488], [-85.630658, 46.106242], [-85.628237, 46.106695], [-85.626252, 46.106952], [-85.612501, 46.108666], [-85.605558, 46.109547], [-85.603195, 46.109856], [-85.600722, 46.110183], [-85.594339, 46.110976], [-85.589352, 46.11167], [-85.588385, 46.111728], [-85.582085, 46.11213], [-85.575786, 46.112474], [-85.574777, 46.112567], [-85.574399, 46.112655], [-85.571758, 46.113599], [-85.570463, 46.113833], [-85.567099, 46.114556], [-85.561615, 46.115733], [-85.557158, 46.116666], [-85.551136, 46.11796], [-85.548142, 46.118304], [-85.541035, 46.11908], [-85.535333, 46.119709], [-85.529068, 46.120415], [-85.524375, 46.120962], [-85.51906, 46.121557], [-85.517268, 46.121761], [-85.516289, 46.121755], [-85.492696, 46.120774], [-85.479524, 46.120164], [-85.478608, 46.120124], [-85.469442, 46.119733], [-85.456643, 46.119186], [-85.447167, 46.118825], [-85.44481, 46.11872], [-85.431777, 46.118143], [-85.424193, 46.117895], [-85.40919, 46.115747], [-85.400205, 46.114404], [-85.373581, 46.114497], [-85.367025, 46.114507], [-85.365878, 46.114528], [-85.363554, 46.114807], [-85.362476, 46.114902], [-85.360782, 46.114662], [-85.359322, 46.114497], [-85.35676, 46.114518], [-85.341486, 46.114572], [-85.323404, 46.114582], [-85.322808, 46.114506], [-85.32014, 46.113906], [-85.303683, 46.109999], [-85.28212, 46.104759], [-85.268929, 46.101506], [-85.258142, 46.098831], [-85.241932, 46.094853], [-85.225557, 46.090834], [-85.207485, 46.086359], [-85.192452, 46.079756], [-85.184063, 46.074381], [-85.152131, 46.064289], [-85.151032, 46.063941], [-85.10711, 46.046374], [-85.106186, 46.046054], [-85.096948, 46.043706], [-85.08926, 46.041696], [-85.083854, 46.04015], [-85.071835, 46.036568], [-85.057599, 46.032351], [-85.048949, 46.029821], [-85.042914, 46.028047], [-85.040871, 46.027307], [-85.040312, 46.027137], [-85.034609, 46.027035], [-85.033236, 46.029508], [-85.031004, 46.030283], [-85.03127, 46.030762]]}},
{"type": "Feature", "properties": {"ProjectID": "P0194", "full_id": "r9626186", "website": "https://www.tcenergy.com/operations/natural-gas/great-lakes-gas-transmission", "operator": "TC Energy Corporation", "operator:website": "https://www.tcpipelineslp.com/assets/great-lakes/", "route": "pipeline", "operator:wikipedia": "en:TC Energy", "type": "route", "name": "Great Lakes Gas Transmission", "layer": "add2", "osm_type": "relation", "operator:wikidata": "Q1516108", "path": "/Users/char/Desktop/gem o&g resources/gis data/Great Lakes Transmission/add2.geojson", "osm_id": "9626186"}, "geometry": {"type": "LineString", "coordinates": [[-91.574538, 46.624964], [-91.566085, 46.624682], [-91.565343, 46.624652], [-91.560566, 46.624053], [-91.546714, 46.62221], [-91.54558, 46.622105], [-91.53439, 46.621776], [-91.5273, 46.621431], [-91.516153, 46.620247], [-91.508366, 46.619319], [-91.505399, 46.619214], [-91.500818, 46.619229], [-91.500404, 46.619079], [-91.499771, 46.618584], [-91.498898, 46.61812], [-91.496477, 46.617266], [-91.495735, 46.617041], [-91.490805, 46.616457], [-91.47955, 46.614374], [-91.469101, 46.612411], [-91.449839, 46.609684], [-91.42255, 46.605982], [-91.415133, 46.604993], [-91.414152, 46.604739], [-91.412909, 46.603989], [-91.41208, 46.603689], [-91.407014, 46.603248], [-91.385919, 46.601584], [-91.377272, 46.60026], [-91.354716, 46.597001], [-91.352394, 46.596712], [-91.336307, 46.595822], [-91.330497, 46.595533], [-91.324411, 46.595301], [-91.323371, 46.595254], [-91.322744, 46.595133], [-91.316712, 46.593452], [-91.311834, 46.592144], [-91.303951, 46.590258], [-91.291428, 46.588156], [-91.283774, 46.587137], [-91.266534, 46.584778], [-91.260755, 46.584073], [-91.259444, 46.58392], [-91.258694, 46.583827], [-91.257141, 46.583878], [-91.256321, 46.583905]]}},
{"type": "Feature", "properties": {"ProjectID": "P0194"}, "geometry": {"type": "LineString", "coordinates": [[-85.040312, 46.027137], [-85.030961, 46.022923], [-85.022507, 46.018751], [-85.00989, 46.012134], [-85.001736, 46.009243], [-84.991822, 46.004981], [-84.972038, 45.996723], [-84.956932, 45.990432], [-84.947276, 45.986466], [-84.933243, 45.978176], [-84.918437, 45.970213], [-84.90303, 45.960995], [-84.896851, 45.957177], [-84.895177, 45.957415], [-84.885521, 45.952612], [-84.867411, 45.9436], [-84.85312, 45.936885], [-84.84076, 45.926289], [-84.832048, 45.919662], [-84.825912, 45.906539], [-84.823144, 45.904956], [-84.814324, 45.901358], [-84.813209, 45.899103], [-84.801857, 45.893085], [-84.793639, 45.888276], [-84.791365, 45.886976], [-84.781365, 45.881196], [-84.779016, 45.878708], [-84.775507, 45.87519], [-84.769413, 45.865972], [-84.769113, 45.865135], [-84.766903, 45.863701], [-84.765916, 45.862774], [-84.760315, 45.858426], [-84.757719, 45.856438], [-84.756496, 45.854286], [-84.756324, 45.853061], [-84.753127, 45.848442], [-84.743342, 45.849384], [-84.741819, 45.84901], [-84.741175, 45.849014], [-84.76141, 45.787038], [-84.762075, 45.785826], [-84.762526, 45.784704], [-84.762526, 45.780701], [-84.762526, 45.774019], [-84.762096, 45.7733], [-84.761581, 45.767403], [-84.756603, 45.761236], [-84.749951, 45.7542], [-84.750209, 45.742371], [-84.750681, 45.728502], [-84.763169, 45.716308], [-84.780207, 45.701624], [-84.787545, 45.695779], [-84.793425, 45.685587], [-84.793425, 45.673473], [-84.793339, 45.666186], [-84.793811, 45.649658], [-84.796901, 45.636937], [-84.794583, 45.628205], [-84.79291, 45.622442], [-84.79085, 45.619441], [-84.786601, 45.611756], [-84.782867, 45.600888], [-84.781709, 45.600407], [-84.77613, 45.594672], [-84.774714, 45.58347], [-84.77231, 45.574309], [-84.772096, 45.572266], [-84.771881, 45.56821], [-84.770808, 45.564665], [-84.771023, 45.558235], [-84.771109, 45.550482], [-84.769435, 45.540173], [-84.768019, 45.536325], [-84.767118, 45.532688], [-84.767418, 45.525111], [-84.767332, 45.521293], [-84.766002, 45.516031], [-84.763298, 45.505324], [-84.762054, 45.500512], [-84.760895, 45.489833], [-84.759994, 45.487546], [-84.758835, 45.483936], [-84.756346, 45.470515], [-84.754415, 45.460311], [-84.75287, 45.452966], [-84.750938, 45.446493], [-84.749351, 45.441736], [-84.749265, 45.438153], [-84.750166, 45.436346], [-84.747376, 45.427281], [-84.745531, 45.420624], [-84.743042, 45.412491], [-84.742656, 45.411647], [-84.736562, 45.403814], [-84.733901, 45.399957], [-84.734674, 45.390283], [-84.738321, 45.386847], [-84.744287, 45.372981], [-84.75111, 45.355523], [-84.75184, 45.353955], [-84.752913, 45.347742], [-84.754629, 45.342765], [-84.757633, 45.334379], [-84.75759, 45.329311], [-84.760895, 45.313861], [-84.761367, 45.311507], [-84.761496, 45.309455], [-84.761281, 45.306135], [-84.763556, 45.295177], [-84.764156, 45.291917], [-84.764242, 45.289139], [-84.764671, 45.278118], [-84.764028, 45.275974], [-84.763985, 45.271293], [-84.764071, 45.267578], [-84.768448, 45.262745], [-84.768485, 45.261242], [-84.768108, 45.261265]]}},
{"type": "Feature", "properties": {"ProjectID": "P0194", "full_id": "r9626186", "website": "https://www.tcenergy.com/operations/natural-gas/great-lakes-gas-transmission", "operator": "TC Energy Corporation", "operator:website": "https://www.tcpipelineslp.com/assets/great-lakes/", "route": "pipeline", "operator:wikipedia": "en:TC Energy", "type": "route", "name": "Great Lakes Gas Transmission", "layer": "add2", "osm_type": "relation", "operator:wikidata": "Q1516108", "path": "/Users/char/Desktop/gem o&g resources/gis data/Great Lakes Transmission/add2.geojson", "osm_id": "9626186"}, "geometry": {"type": "LineString", "coordinates": [[-89.180041, 46.257441], [-89.179879, 46.257366], [-89.179789, 46.257459], [-89.179951, 46.257534], [-89.180041, 46.257441]]}},
{"type": "Feature", "properties": {"ProjectID": "P0194", "full_id": "r9626186", "website": "https://www.tcenergy.com/operations/natural-gas/great-lakes-gas-transmission", "operator": "TC Energy Corporation", "operator:website": "https://www.tcpipelineslp.com/assets/great-lakes/", "route": "pipeline", "operator:wikipedia": "en:TC Energy", "type": "route", "name": "Great Lakes Gas Transmission", "layer": "add2", "osm_type": "relation", "operator:wikidata": "Q1516108", "path": "/Users/char/Desktop/gem o&g resources/gis data/Great Lakes Transmission/add2.geojson", "osm_id": "9626186"}, "geometry": {"type": "LineString", "coordinates": [[-89.696101, 46.404297], [-89.686167, 46.402805], [-89.675781, 46.40131], [-89.674215, 46.401443], [-89.667263, 46.399875], [-89.65883, 46.397537], [-89.653702, 46.395598], [-89.643209, 46.39289], [-89.642265, 46.392165], [-89.626794, 46.388183], [-89.616279, 46.386851], [-89.595015, 46.38136], [-89.575274, 46.376445], [-89.562506, 46.373173], [-89.54685, 46.370314], [-89.544361, 46.366583], [-89.537662, 46.364021], [-89.526848, 46.359209], [-89.526354, 46.358024], [-89.51614, 46.352915], [-89.496035, 46.342813], [-89.474405, 46.331865], [-89.46623, 46.327213], [-89.45166, 46.319314], [-89.445824, 46.320115], [-89.423207, 46.31312], [-89.408659, 46.308584], [-89.38424, 46.301558], [-89.353169, 46.296547], [-89.342677, 46.294798], [-89.333514, 46.291106], [-89.328686, 46.289312], [-89.325382, 46.288348], [-89.309205, 46.28174], [-89.306971, 46.280815], [-89.284526, 46.278887], [-89.269055, 46.277463], [-89.259206, 46.276573], [-89.256052, 46.276454], [-89.253928, 46.275594], [-89.248306, 46.274838], [-89.232749, 46.275164], [-89.218372, 46.273726], [-89.216965, 46.273593], [-89.214151, 46.272684], [-89.209617, 46.270126], [-89.204745, 46.26765], [-89.18385, 46.259734], [-89.182847, 46.258896], [-89.181479, 46.258274], [-89.179945, 46.257495]]}},
{"type": "Feature", "properties": {"ProjectID": "P0194", "full_id": "r9626186", "website": "https://www.tcenergy.com/operations/natural-gas/great-lakes-gas-transmission", "operator": "TC Energy Corporation", "operator:website": "https://www.tcpipelineslp.com/assets/great-lakes/", "route": "pipeline", "operator:wikipedia": "en:TC Energy", "type": "route", "name": "Great Lakes Gas Transmission", "layer": "add2", "osm_type": "relation", "operator:wikidata": "Q1516108", "path": "/Users/char/Desktop/gem o&g resources/gis data/Great Lakes Transmission/add2.geojson", "osm_id": "9626186"}, "geometry": {"type": "LineString", "coordinates": [[-90.15644, 46.501163], [-90.136349, 46.500953], [-90.127165, 46.500894], [-90.123346, 46.500332], [-90.117037, 46.500746], [-90.109141, 46.500628], [-90.106308, 46.500244], [-90.093777, 46.499741], [-90.084035, 46.499594], [-90.081396, 46.497378], [-90.074143, 46.497142], [-90.070195, 46.49729], [-90.064444, 46.499313], [-90.056054, 46.499313], [-90.052879, 46.498279], [-90.049982, 46.498368], [-90.040991, 46.499431], [-90.039532, 46.500037], [-90.0261, 46.501263], [-90.021787, 46.500716], [-90.007045, 46.499756], [-89.996531, 46.49856], [-89.988935, 46.497555], [-89.983485, 46.496255], [-89.981661, 46.495532], [-89.980051, 46.494261], [-89.974497, 46.494241], [-89.968913, 46.49405], [-89.968102, 46.49423], [-89.967208, 46.494308], [-89.944603, 46.498323], [-89.940419, 46.498368], [-89.937522, 46.498663], [-89.931535, 46.499092], [-89.929411, 46.499461], [-89.914949, 46.500022], [-89.908833, 46.500318], [-89.905057, 46.498323], [-89.883385, 46.483432], [-89.880638, 46.48126], [-89.879501, 46.480108], [-89.876175, 46.479206], [-89.860833, 46.468271], [-89.849889, 46.460615], [-89.834182, 46.444368], [-89.829655, 46.439503], [-89.825691, 46.439493]]}},
{"type": "Feature", "properties": {"ProjectID": "P0194"}, "geometry": {"type": "LineString", "coordinates": [[-85.031004, 46.030283], [-85.016413, 46.034722], [-85.002165, 46.038386], [-84.985385, 46.042497], [-84.97251, 46.045655], [-84.962554, 46.048127], [-84.956632, 46.049408], [-84.940968, 46.055126], [-84.921742, 46.062273], [-84.906678, 46.067633], [-84.902215, 46.069628], [-84.887967, 46.075999], [-84.876208, 46.081209], [-84.875221, 46.081655], [-84.862948, 46.086031], [-84.852991, 46.089662], [-84.833722, 46.096835], [-84.832392, 46.097013], [-84.831319, 46.09743], [-84.830589, 46.097668], [-84.829645, 46.098263], [-84.824195, 46.100317], [-84.801064, 46.110612], [-84.794004, 46.113944], [-84.78585, 46.118763], [-84.776709, 46.124162], [-84.773877, 46.126616], [-84.764972, 46.134438], [-84.763019, 46.136222], [-84.761903, 46.13707], [-84.758534, 46.139359], [-84.727249, 46.161821]]}},
{"type": "Feature", "properties": {"ProjectID": "P0194", "path": "/Users/char/Desktop/gem o&g resources/gis data/Great Lakes Transmission/add1.geojson", "operator": "TC Energy Corporation", "route": "pipeline", "type": "route", "layer": "add1", "name": "Great Lakes Gas Transmission", "substance": "gas", "osm_type": "relation", "full_id": "r10668461", "osm_id": "10668461"}, "geometry": {"type": "LineString", "coordinates": [[-97.060293, 48.990624], [-97.058115, 48.9878], [-97.024094, 48.962779], [-97.009631, 48.950211], [-96.997486, 48.936329], [-96.987991, 48.926588], [-96.974441, 48.912643], [-96.952254, 48.889813], [-96.945419, 48.88261], [-96.937877, 48.874926], [-96.93026, 48.86698], [-96.91392, 48.84999], [-96.898127, 48.833721], [-96.874706, 48.810241], [-96.867885, 48.803534], [-96.853634, 48.789224], [-96.8365, 48.771765], [-96.824623, 48.761069], [-96.815729, 48.753303], [-96.807232, 48.745833], [-96.788408, 48.728716], [-96.788287, 48.728472], [-96.788025, 48.728341], [-96.771129, 48.713774], [-96.760926, 48.703537], [-96.751517, 48.693977], [-96.737248, 48.679606], [-96.732205, 48.674605], [-96.720017, 48.663268], [-96.716616, 48.659895], [-96.704675, 48.647952], [-96.69754, 48.640771], [-96.685567, 48.630902], [-96.676737, 48.623492], [-96.668658, 48.61635], [-96.652616, 48.602016], [-96.646128, 48.596174], [-96.638789, 48.589681], [-96.627856, 48.579929], [-96.616425, 48.569565], [-96.610755, 48.56478], [-96.602805, 48.558034], [-96.585842, 48.543774], [-96.572496, 48.532578], [-96.559203, 48.522105], [-96.549654, 48.514693], [-96.541704, 48.50927], [-96.526319, 48.49914], [-96.511985, 48.489335], [-96.507672, 48.485979], [-96.506975, 48.485111], [-96.497158, 48.478149], [-96.487673, 48.471598], [-96.473726, 48.461489], [-96.452225, 48.445828], [-96.439195, 48.433984], [-96.43272, 48.428647], [-96.414583, 48.413661], [-96.397632, 48.399584], [-96.385599, 48.389724], [-96.373395, 48.376834], [-96.369796, 48.37289], [-96.359957, 48.363834], [-96.353804, 48.357771], [-96.352286, 48.355975], [-96.346482, 48.351526], [-96.335721, 48.342327], [-96.334256, 48.340567], [-96.320604, 48.327621], [-96.315851, 48.323301], [-96.299484, 48.31347], [-96.293755, 48.304828], [-96.289512, 48.303786], [-96.282141, 48.297077], [-96.272657, 48.290967], [-96.256033, 48.276071], [-96.242799, 48.26237], [-96.239505, 48.258641], [-96.239502, 48.255791], [-96.239501, 48.254091], [-96.22781, 48.24808], [-96.211674, 48.239166], [-96.195431, 48.229404], [-96.192781, 48.228782], [-96.170926, 48.211376]]}},
{"type": "Feature", "properties": {"ProjectID": "P0194", "full_id": "r9626186", "website": "https://www.tcenergy.com/operations/natural-gas/great-lakes-gas-transmission", "operator": "TC Energy Corporation", "operator:website": "https://www.tcpipelineslp.com/assets/great-lakes/", "route": "pipeline", "operator:wikipedia": "en:TC Energy", "type": "route", "name": "Great Lakes Gas Transmission", "layer": "add2", "osm_type": "relation", "operator:wikidata": "Q1516108", "path": "/Users/char/Desktop/gem o&g resources/gis data/Great Lakes Transmission/add2.geojson", "osm_id": "9626186"}, "geometry": {"type": "LineString", "coordinates": [[-91.574659, 46.625041], [-91.574464, 46.625035], [-91.574472, 46.624918], [-91.574667, 46.624924], [-91.574659, 46.625041]]}},
{"type": "Feature", "properties": {"ProjectID": "P0194"}, "geometry": {"type": "LineString", "coordinates": [[-91.256321, 46.583905], [-91.25592, 46.584569]]}},
{"type": "Feature", "properties": {"ProjectID": "P0194", "full_id": "r9626186", "website": "https://www.tcenergy.com/operations/natural-gas/great-lakes-gas-transmission", "operator": "TC Energy Corporation", "operator:website": "https://www.tcpipelineslp.com/assets/great-lakes/", "route": "pipeline", "operator:wikipedia": "en:TC Energy", "type": "route", "name": "Great Lakes Gas Transmission", "layer": "add2", "osm_type": "relation", "operator:wikidata": "Q1516108", "path": "/Users/char/Desktop/gem o&g resources/gis data/Great Lakes Transmission/add2.geojson", "osm_id": "9626186"}, "geometry": {"type": "LineString", "coordinates": [[-90.156381, 46.501204], [-90.156375, 46.501051], [-90.156562, 46.501048], [-90.156568, 46.501201], [-90.156381, 46.501204]]}},
{"type": "Feature", "properties": {"ProjectID": "P0194", "full_id": "r9626186", "website": "https://www.tcenergy.com/operations/natural-gas/great-lakes-gas-transmission", "operator": "TC Energy Corporation", "operator:website": "https://www.tcpipelineslp.com/assets/great-lakes/", "route": "pipeline", "operator:wikipedia": "en:TC Energy", "type": "route", "name": "Great Lakes Gas Transmission", "layer": "add2", "osm_type": "relation", "operator:wikidata": "Q1516108", "path": "/Users/char/Desktop/gem o&g resources/gis data/Great Lakes Transmission/add2.geojson", "osm_id": "9626186"}, "geometry": {"type": "LineString", "coordinates": [[-91.256321, 46.583905], [-91.255907, 46.583913], [-91.251115, 46.58392], [-91.250597, 46.583895], [-91.249582, 46.583458], [-91.248795, 46.583268], [-91.246674, 46.583158], [-91.239309, 46.582905], [-91.233284, 46.582627], [-91.230449, 46.582535], [-91.227135, 46.582261], [-91.2171, 46.581454], [-91.206456, 46.58056], [-91.19772, 46.579987], [-91.189738, 46.579556], [-91.184208, 46.579307], [-91.173506, 46.57892], [-91.163427, 46.578337], [-91.161226, 46.578404], [-91.159217, 46.5781], [-91.155268, 46.577885], [-91.151145, 46.577626], [-91.148445, 46.577486], [-91.14589, 46.577446], [-91.131377, 46.577404], [-91.122768, 46.577356], [-91.10846, 46.57729], [-91.103829, 46.576697], [-91.090258, 46.574782], [-91.086832, 46.574253], [-91.078835, 46.572428], [-91.075983, 46.572056], [-91.070968, 46.571538], [-91.063708, 46.57067], [-91.054317, 46.569589], [-91.048515, 46.569104], [-91.041304, 46.568203], [-91.032945, 46.567031], [-91.023292, 46.565622], [-91.02244, 46.565431], [-91.021719, 46.565172], [-91.016425, 46.563403], [-91.015442, 46.56329], [-91.014344, 46.563189], [-91.012984, 46.563076], [-91.011967, 46.562986], [-91.011033, 46.562896], [-91.010001, 46.562783], [-91.009581, 46.562744], [-91.008518, 46.562648], [-91.007963, 46.562545], [-91.007475, 46.562378], [-91.00673, 46.561987], [-91.005836, 46.561577], [-91.005376, 46.561456], [-91.004834, 46.5614], [-90.986183, 46.561428], [-90.983957, 46.561206], [-90.970544, 46.560716], [-90.969532, 46.560554], [-90.967422, 46.559847], [-90.965693, 46.559363], [-90.961634, 46.558054], [-90.958942, 46.557816], [-90.957043, 46.557623], [-90.955937, 46.557591], [-90.94782, 46.557993], [-90.941316, 46.557785], [-90.937043, 46.557786], [-90.92537, 46.557581], [-90.923682, 46.557525], [-90.916297, 46.556836], [-90.914253, 46.556551], [-90.910183, 46.554683], [-90.904046, 46.554653], [-90.903166, 46.553429], [-90.885168, 46.551516]]}}
]
}
