{
"type": "FeatureCollection",
"features": [
{"type": "Feature", "properties": {"ProjectID": "P0199"}, "geometry": {"type": "MultiLineString", "coordinates": [[[-88.883977, 30.421916], [-88.855158, 30.302256], [-88.337433, 30.312931], [-88.287313, 30.405956], [-88.406103, 30.153945], [-83.20677, 27.596469], [-82.764576, 27.598908], [-82.60322, 27.664004], [-82.542114, 27.778889], [-82.576108, 27.87757]], [[-82.542114, 27.778889], [-81.815757, 27.656755], [-81.841163, 28.169465], [-81.615944, 28.257805]], [[-81.815757, 27.656755], [-81.510703, 27.642883], [-81.081543, 27.382529], [-80.824737, 27.319101], [-80.679168, 27.155485], [-80.492118, 26.95447], [-80.210593, 26.683618]]]}}
]
}
