{
"type": "FeatureCollection",
"features": [
{"type": "Feature", "properties": {"ProjectID": "P0205", "OBJECTID": 396, "GCOMPID": "GCOMP1355", "NAME": "WRIGHT", "ADDRESS": "WESTFALL ROAD", "CITY": "DELANSON-WRIGHT", "STATE": "NY", "ZIP": 12053, "ZIP4": "NOT AVAILABLE", "TYPE": "NATURAL GAS COMPRESSOR STATION", "STATUS": "IN SERVICE", "COUNTY": "SCHENECTADY", "COUNTYFIPS": 36095, "COUNTRY": "USA", "LATITUDE": 42.698085, "LONGITUDE": -74.232637, "NAICS_CODE": 486210, "NAICS_DESC": "BOOSTER PUMPING STATION, NATURAL GAS TRANSPORTATION", "SOURCE": "EPA ENVIROFACTS, FERC FORM 2, CORPORATE WEBSITE", "SOURCEDATE": "9/17/2015 12:00:00 AM", "VAL_METHOD": "IMAGERY/OTHER", "VAL_DATE": "6/17/2022 12:00:00 AM", "WEBSITE": "http://www.iroquois.com/", "PIPECO": "IPOC AS AGENT/IROQUOIS GAS TRANSMISSION SYSTEM L.P.", "COMPID": 110, "OPERATOR": "IPOC AS AGENT/IROQUOIS GAS TRANSMISSION SYSTEM L.P.", "POSREL": "WITHIN 40 FEET", "NUM_UNITS": 2, "CERT_HP": 14302, "PLANT_COST": 29106869, "EXP_FUEL": 0, "EXP_OTHER": 411343, "GAS_COMPRE": 245661, "OP_COMP_HR": 4149, "OP_NUM_COM": 2, "OP_DATE_PE": "12/30/2020 12:00:00 AM", "EXP_POWER": 0, "ELEC_COMPR": 425680, "x": -8263539.3511, "y": 5266129.6314}, "geometry": {"type": "Point", "coordinates": [-74.232637, 42.698085]}},
{"type": "Feature", "properties": {"ProjectID": "P0205", "OBJECTID": 555, "GCOMPID": "GCOMP268", "NAME": "DOVER", "ADDRESS": "186 DOVER FURNACE ROAD", "CITY": "DOVER", "STATE": "NY", "ZIP": 12522, "ZIP4": "NOT AVAILABLE", "TYPE": "NATURAL GAS COMPRESSOR STATION", "STATUS": "IN SERVICE", "COUNTY": "DUTCHESS", "COUNTYFIPS": 36027, "COUNTRY": "USA", "LATITUDE": 41.687184036, "LONGITUDE": -73.586746851, "NAICS_CODE": 486210, "NAICS_DESC": "BOOSTER PUMPING STATION, NATURAL GAS TRANSPORTATION", "SOURCE": "EPA ENVIROFACTS, FERC FORM 2, CORPORATE WEBSITE", "SOURCEDATE": "7/15/2020 12:00:00 AM", "VAL_METHOD": "IMAGERY/OTHER", "VAL_DATE": "6/17/2022 12:00:00 AM", "WEBSITE": "http://www.iroquois.com/", "PIPECO": "IPOC AS AGENT/IROQUOIS GAS TRANSMISSION SYSTEM L.P.", "COMPID": 110, "OPERATOR": "IPOC AS AGENT/IROQUOIS GAS TRANSMISSION SYSTEM L.P.", "POSREL": "WITHIN 40 FEET", "NUM_UNITS": 1, "CERT_HP": 18371, "PLANT_COST": 35651507, "EXP_FUEL": 0, "EXP_OTHER": 345196, "GAS_COMPRE": 242106, "OP_COMP_HR": 1686, "OP_NUM_COM": 1, "OP_DATE_PE": "1/9/2020 12:00:00 AM", "EXP_POWER": 0, "ELEC_COMPR": 569287, "x": -8191639.1886, "y": 5114235.6978}, "geometry": {"type": "Point", "coordinates": [-73.586747, 41.687184]}},
{"type": "Feature", "properties": {"ProjectID": "P0205", "OBJECTID": 830, "GCOMPID": "GCOMP515", "NAME": "BOONVILLE", "ADDRESS": "3338 EAST ROAD", "CITY": "BOONVILLE", "STATE": "NY", "ZIP": 13309, "ZIP4": "NOT AVAILABLE", "TYPE": "NATURAL GAS COMPRESSOR STATION", "STATUS": "IN SERVICE", "COUNTY": "ONEIDA", "COUNTYFIPS": 36065, "COUNTRY": "USA", "LATITUDE": 43.512545073, "LONGITUDE": -75.329203769, "NAICS_CODE": 486210, "NAICS_DESC": "BOOSTER PUMPING STATION, NATURAL GAS TRANSPORTATION", "SOURCE": "FERC FORM 2, IMAGERY", "SOURCEDATE": "7/15/2020 12:00:00 AM", "VAL_METHOD": "IMAGERY/OTHER", "VAL_DATE": "6/17/2022 12:00:00 AM", "WEBSITE": "http://www.iroquois.com/", "PIPECO": "IPOC AS AGENT/IROQUOIS GAS TRANSMISSION SYSTEM L.P.", "COMPID": 110, "OPERATOR": "IPOC AS AGENT/IROQUOIS GAS TRANSMISSION SYSTEM L.P.", "POSREL": "WITHIN 40 FEET", "NUM_UNITS": 1, "CERT_HP": 18371, "PLANT_COST": 26524451, "EXP_FUEL": 0, "EXP_OTHER": 262827, "GAS_COMPRE": 127613, "OP_COMP_HR": 883, "OP_NUM_COM": 1, "OP_DATE_PE": "1/7/2020 12:00:00 AM", "EXP_POWER": 0, "ELEC_COMPR": 604560, "x": -8385608.6054, "y": 5390314.701}, "geometry": {"type": "Point", "coordinates": [-75.329204, 43.512545]}},
{"type": "Feature", "properties": {"ProjectID": "P0205", "OBJECTID": 1137, "GCOMPID": "GCOMP794", "NAME": "BROOKFIELD", "ADDRESS": "68 HIGH MEADOW ROAD", "CITY": "BROOKFIELD", "STATE": "CT", "ZIP": 6804, "ZIP4": "NOT AVAILABLE", "TYPE": "NATURAL GAS COMPRESSOR STATION", "STATUS": "IN SERVICE", "COUNTY": "FAIRFIELD", "COUNTYFIPS": 9001, "COUNTRY": "USA", "LATITUDE": 41.433573084, "LONGITUDE": -73.373388111, "NAICS_CODE": 486210, "NAICS_DESC": "BOOSTER PUMPING STATION, NATURAL GAS TRANSPORTATION", "SOURCE": "EPA ENVIROFACTS, FERC FORM 2, CORPORATE WEBSITE", "SOURCEDATE": "7/15/2020 12:00:00 AM", "VAL_METHOD": "IMAGERY/OTHER", "VAL_DATE": "6/17/2022 12:00:00 AM", "WEBSITE": "http://www.iroquois.com/", "PIPECO": "IPOC AS AGENT/IROQUOIS GAS TRANSMISSION SYSTEM L.P.", "COMPID": 110, "OPERATOR": "IPOC AS AGENT/IROQUOIS GAS TRANSMISSION SYSTEM L.P.", "POSREL": "WITHIN 40 FEET", "NUM_UNITS": 2, "CERT_HP": 18010, "PLANT_COST": 55458341, "EXP_FUEL": 0, "EXP_OTHER": 428916, "GAS_COMPRE": 1019224, "OP_COMP_HR": 15093, "OP_NUM_COM": 2, "OP_DATE_PE": "3/28/2020 12:00:00 AM", "EXP_POWER": 0, "ELEC_COMPR": 912384, "x": -8167888.2023, "y": 5076505.4794}, "geometry": {"type": "Point", "coordinates": [-73.373388, 41.433573]}},
{"type": "Feature", "properties": {"ProjectID": "P0205", "OBJECTID": 1175, "GCOMPID": "GCOMP828", "NAME": "CROGHAN", "ADDRESS": "7267 OLD STATE ROAD", "CITY": "CROGHAN", "STATE": "NY", "ZIP": 13327, "ZIP4": "NOT AVAILABLE", "TYPE": "NATURAL GAS COMPRESSOR STATION", "STATUS": "IN SERVICE", "COUNTY": "LEWIS", "COUNTYFIPS": 36049, "COUNTRY": "USA", "LATITUDE": 43.935209, "LONGITUDE": -75.35818, "NAICS_CODE": 486210, "NAICS_DESC": "BOOSTER PUMPING STATION, NATURAL GAS TRANSPORTATION", "SOURCE": "EPA ENVIROFACTS, FERC FORM 2, CORPORATE WEBSITE", "SOURCEDATE": "7/15/2020 12:00:00 AM", "VAL_METHOD": "IMAGERY/OTHER", "VAL_DATE": "6/17/2022 12:00:00 AM", "WEBSITE": "http://www.iroquois.com/", "PIPECO": "IPOC AS AGENT/IROQUOIS GAS TRANSMISSION SYSTEM L.P.", "COMPID": 110, "OPERATOR": "IPOC AS AGENT/IROQUOIS GAS TRANSMISSION SYSTEM L.P.", "POSREL": "WITHIN 40 FEET", "NUM_UNITS": 2, "CERT_HP": 17180, "PLANT_COST": 30296267, "EXP_FUEL": 0, "EXP_OTHER": 308919, "GAS_COMPRE": 158797, "OP_COMP_HR": 1768, "OP_NUM_COM": 2, "OP_DATE_PE": "1/20/2020 12:00:00 AM", "EXP_POWER": 0, "ELEC_COMPR": 603520, "x": -8388834.2247, "y": 5455421.0953}, "geometry": {"type": "Point", "coordinates": [-75.35818, 43.935209]}},
{"type": "Feature", "properties": {"ProjectID": "P0205", "OBJECTID": 1259, "GCOMPID": "GCOMP903", "NAME": "ATHENS", "ADDRESS": "915 SCHOHARIE TURNPIKE COUNTY ROAD 28", "CITY": "ATHENS", "STATE": "NY", "ZIP": 12015, "ZIP4": "NOT AVAILABLE", "TYPE": "NATURAL GAS COMPRESSOR STATION", "STATUS": "IN SERVICE", "COUNTY": "GREENE", "COUNTYFIPS": 36039, "COUNTRY": "USA", "LATITUDE": 42.280909399, "LONGITUDE": -73.847206195, "NAICS_CODE": 486210, "NAICS_DESC": "BOOSTER PUMPING STATION, NATURAL GAS TRANSPORTATION", "SOURCE": "FERC FORM 2, IMAGERY", "SOURCEDATE": "7/15/2020 12:00:00 AM", "VAL_METHOD": "IMAGERY/OTHER", "VAL_DATE": "6/17/2022 12:00:00 AM", "WEBSITE": "http://www.iroquois.com/", "PIPECO": "IPOC AS AGENT/IROQUOIS GAS TRANSMISSION SYSTEM L.P.", "COMPID": 110, "OPERATOR": "IPOC AS AGENT/IROQUOIS GAS TRANSMISSION SYSTEM L.P.", "POSREL": "WITHIN 40 FEET", "NUM_UNITS": 1, "CERT_HP": 10028, "PLANT_COST": 25499510, "EXP_FUEL": 0, "EXP_OTHER": 232281, "GAS_COMPRE": 178744, "OP_COMP_HR": 2362, "OP_NUM_COM": 1, "OP_DATE_PE": "12/9/2020 12:00:00 AM", "EXP_POWER": 0, "ELEC_COMPR": 283680, "x": -8220633.3901, "y": 5203151.6319}, "geometry": {"type": "Point", "coordinates": [-73.847206, 42.280909]}},
{"type": "Feature", "properties": {"ProjectID": "P0205", "OBJECTID": 1276, "GCOMPID": "GCOMP919", "NAME": "MILFORD", "ADDRESS": "969 ORONOQUE ROAD", "CITY": "MILFORD", "STATE": "CT", "ZIP": 6460, "ZIP4": "NOT AVAILABLE", "TYPE": "NATURAL GAS COMPRESSOR STATION", "STATUS": "IN SERVICE", "COUNTY": "NEW HAVEN", "COUNTYFIPS": 9009, "COUNTRY": "USA", "LATITUDE": 41.236511697, "LONGITUDE": -73.098153442, "NAICS_CODE": 486210, "NAICS_DESC": "BOOSTER PUMPING STATION, NATURAL GAS TRANSPORTATION", "SOURCE": "FERC FORM 2, CORPORATE WEBSITE", "SOURCEDATE": "7/15/2020 12:00:00 AM", "VAL_METHOD": "IMAGERY/OTHER", "VAL_DATE": "6/17/2022 12:00:00 AM", "WEBSITE": "http://www.iroquois.com/", "PIPECO": "IPOC AS AGENT/IROQUOIS GAS TRANSMISSION SYSTEM L.P.", "COMPID": 110, "OPERATOR": "IPOC AS AGENT/IROQUOIS GAS TRANSMISSION SYSTEM L.P.", "POSREL": "WITHIN 40 FEET", "NUM_UNITS": 2, "CERT_HP": 20620, "PLANT_COST": 41679568, "EXP_FUEL": 0, "EXP_OTHER": 224067, "GAS_COMPRE": 222432, "OP_COMP_HR": 2830, "OP_NUM_COM": 2, "OP_DATE_PE": "1/20/2020 12:00:00 AM", "EXP_POWER": 0, "ELEC_COMPR": 450600, "x": -8137249.2191, "y": 5047289.9251}, "geometry": {"type": "Point", "coordinates": [-73.098153, 41.236512]}}
]
}
