{
"type": "FeatureCollection",
"features": [
{"type": "Feature", "properties": {"ProjectID": "P0209"}, "geometry": {"type": "MultiLineString", "coordinates": [[[-82.545251, 39.635556], [-82.52747, 39.628409]], [[-82.535161, 39.242053], [-82.505382, 39.452622], [-82.50839, 39.530783], [-82.531486, 39.583094], [-82.526752, 39.627348], [-82.480174, 39.627061], [-82.29758, 39.680684], [-82.21175, 39.678802], [-82.00432, 39.715872], [-81.877939, 39.714585], [-81.80557, 39.791267], [-81.622553, 39.796509], [-81.553895, 39.767746], [-81.470281, 39.799721], [-81.330217, 39.785496], [-81.249313, 39.80342], [-80.907118, 39.823531], [-80.797942, 39.785936], [-80.760119, 39.798915], [-80.756716, 39.82424], [-80.7277, 39.85044], [-80.582957, 39.876053], [-80.516985, 39.939774], [-80.519628, 39.959641]]]}}
]
}
