{
"type": "FeatureCollection",
"features": [
{"type": "Feature", "properties": {"ProjectID": "P0205", "substance": "oil", "osm_type": "way", "location": "underground", "man_made": "pipeline", "full_id": "w250226256", "path": "/Users/char/Desktop/gem o&g resources/gis data/Iroquois Pipeline/add_pipeline.geojson", "osm_id": "250226256"}, "geometry": {"type": "LineString", "coordinates": [[-74.927745, 43.178328], [-74.923388, 43.1753], [-74.919985, 43.172977], [-74.919201, 43.171454], [-74.916377, 43.169219], [-74.913384, 43.167203], [-74.910741, 43.165557], [-74.909413, 43.163929], [-74.903946, 43.158215], [-74.903512, 43.156869], [-74.903464, 43.155222], [-74.900688, 43.153805], [-74.899167, 43.152722], [-74.896983, 43.151921], [-74.894914, 43.150194], [-74.894745, 43.148257], [-74.893514, 43.146884], [-74.893393, 43.145017], [-74.892572, 43.143995], [-74.891607, 43.142604], [-74.888831, 43.14035], [-74.884921, 43.138272], [-74.881566, 43.135594], [-74.879153, 43.133604], [-74.875435, 43.131068], [-74.873909, 43.129753], [-74.871639, 43.128975], [-74.869207, 43.127449], [-74.867867, 43.12616], [-74.865068, 43.123314], [-74.862442, 43.12058], [-74.858846, 43.115981], [-74.856746, 43.114149], [-74.856408, 43.112845], [-74.852619, 43.109198], [-74.847647, 43.105092], [-74.842385, 43.101092], [-74.838837, 43.097867], [-74.837772, 43.092591], [-74.836324, 43.086334], [-74.831699, 43.082997], [-74.828187, 43.080691], [-74.826104, 43.079906], [-74.823783, 43.07947], [-74.823049, 43.078909], [-74.821394, 43.076241], [-74.820436, 43.075082], [-74.818303, 43.074396], [-74.816818, 43.074028], [-74.816426, 43.072645], [-74.815961, 43.069463], [-74.81575, 43.06792], [-74.814772, 43.066545], [-74.81295, 43.064032], [-74.812286, 43.061272], [-74.806892, 43.059297], [-74.801823, 43.056998], [-74.799373, 43.053962], [-74.798812, 43.0535], [-74.797984, 43.050102], [-74.797327, 43.048574], [-74.797054, 43.047576], [-74.794966, 43.046448], [-74.793034, 43.036776], [-74.795694, 43.033765], [-74.798613, 43.030251], [-74.793377, 43.024416], [-74.795265, 43.022471], [-74.784021, 43.01061], [-74.788399, 42.99655], [-74.789858, 42.994917], [-74.79003, 42.989518], [-74.78694, 42.986379], [-74.775095, 42.979786], [-74.773293, 42.977777], [-74.76737, 42.973946], [-74.759646, 42.965154], [-74.751663, 42.956737], [-74.748488, 42.952528], [-74.746771, 42.95102], [-74.730721, 42.937952], [-74.730463, 42.934873], [-74.726429, 42.930285], [-74.723178, 42.929078]]}},
{"type": "Feature", "properties": {"ProjectID": "P0205", "operator": "Iroquois Gas Transmission System", "path": "/Users/char/Desktop/gem o&g resources/gis data/Iroquois Pipeline/add pipeline 10.geojson", "osm_type": "way", "location": "underground", "man_made": "pipeline", "substance": "gas", "full_id": "w250806628", "osm_id": "250806628", "name": "Iroquois Gas Transmission System", "layer": "-1"}, "geometry": {"type": "LineString", "coordinates": [[-73.097105, 41.25942], [-73.096461, 41.260227], [-73.094659, 41.263259], [-73.093929, 41.265388], [-73.093286, 41.266905], [-73.092427, 41.269227], [-73.09217, 41.27084], [-73.092958, 41.272024], [-73.093174, 41.272796], [-73.09326, 41.273406], [-73.093237, 41.274051], [-73.093063, 41.27439], [-73.092659, 41.275178], [-73.092052, 41.276323], [-73.092052, 41.276639], [-73.092292, 41.277117], [-73.092759, 41.277525], [-73.093179, 41.277564], [-73.094077, 41.277586], [-73.094626, 41.2777], [-73.096605, 41.278604], [-73.096716, 41.279157], [-73.096772, 41.279489], [-73.096836, 41.279669], [-73.097414, 41.279915], [-73.098482, 41.279967], [-73.098955, 41.27995], [-73.099906, 41.279603], [-73.102352, 41.279691], [-73.106128, 41.279963], [-73.106933, 41.280103], [-73.107575, 41.280125], [-73.108013, 41.27963], [-73.108454, 41.278874], [-73.10878, 41.278091], [-73.109473, 41.277446], [-73.110588, 41.276956], [-73.11138, 41.276913], [-73.113518, 41.277446], [-73.113592, 41.277688], [-73.114599, 41.278383], [-73.116176, 41.278916], [-73.11793, 41.279477], [-73.119395, 41.280172], [-73.119659, 41.280377], [-73.11982, 41.280805], [-73.120002, 41.282272], [-73.120294, 41.28381], [-73.12048, 41.285469], [-73.120608, 41.28689], [-73.121146, 41.290561], [-73.121424, 41.292412], [-73.121541, 41.293398], [-73.121662, 41.293616], [-73.121985, 41.294192], [-73.122276, 41.294714], [-73.122913, 41.295871], [-73.12352, 41.296551], [-73.124103, 41.296889], [-73.124862, 41.297376], [-73.125872, 41.298511], [-73.127757, 41.300423], [-73.128078, 41.301203], [-73.127874, 41.30187], [-73.126362, 41.303953], [-73.125562, 41.3054], [-73.124687, 41.306333], [-73.124705, 41.309521], [-73.124706, 41.309576], [-73.124763, 41.311621], [-73.124809, 41.314347], [-73.124786, 41.316333], [-73.124296, 41.317122], [-73.124284, 41.318117], [-73.124459, 41.319042], [-73.124927, 41.319476], [-73.12538, 41.319822], [-73.125876, 41.320019], [-73.128018, 41.320085], [-73.12901, 41.320655], [-73.13124, 41.322079], [-73.131817, 41.322215], [-73.132115, 41.322088], [-73.133154, 41.320861], [-73.134175, 41.320207], [-73.135564, 41.319936], [-73.136597, 41.319655], [-73.137724, 41.319605], [-73.138903, 41.319649], [-73.14, 41.319947], [-73.141529, 41.319526], [-73.143117, 41.320534], [-73.144051, 41.321262], [-73.145778, 41.321823], [-73.152045, 41.323086], [-73.153506, 41.32329], [-73.15586, 41.323883], [-73.157467, 41.324641]]}},
{"type": "Feature", "properties": {"ProjectID": "P0205"}, "geometry": {"type": "LineString", "coordinates": [[-75.314198, 44.292585], [-75.313768, 44.29492], [-75.31291, 44.296394], [-75.309134, 44.297684], [-75.306301, 44.29836], [-75.304327, 44.299589], [-75.301452, 44.303397], [-75.299263, 44.305178], [-75.296731, 44.30696], [-75.2951, 44.310184], [-75.28995, 44.31129], [-75.287161, 44.312764], [-75.284114, 44.314575], [-75.28347, 44.315896], [-75.283728, 44.317278], [-75.284629, 44.31955], [-75.286861, 44.320072], [-75.28789, 44.321852], [-75.28965, 44.322528], [-75.289993, 44.323971], [-75.290937, 44.32526], [-75.28995, 44.327563], [-75.288405, 44.329036], [-75.288749, 44.330096], [-75.288084, 44.335207], [-75.288427, 44.33602], [-75.288041, 44.336573], [-75.28729, 44.337785], [-75.289049, 44.340394], [-75.29141, 44.341622], [-75.293255, 44.341683], [-75.295272, 44.34179], [-75.297396, 44.342757], [-75.299456, 44.343509], [-75.299799, 44.343847], [-75.300937, 44.344277], [-75.301623, 44.344982], [-75.302739, 44.346578], [-75.302074, 44.347975], [-75.303662, 44.350737], [-75.303254, 44.351703], [-75.305336, 44.35916], [-75.302932, 44.362612], [-75.302267, 44.36436], [-75.301859, 44.367812], [-75.301344, 44.369008], [-75.300808, 44.37045], [-75.300486, 44.372153], [-75.300679, 44.374545], [-75.299928, 44.375711], [-75.29937, 44.376018], [-75.298383, 44.377751], [-75.296774, 44.37861], [-75.296109, 44.379484], [-75.292461, 44.383149], [-75.291002, 44.384284], [-75.290294, 44.385833], [-75.288255, 44.386922], [-75.287805, 44.387014], [-75.287354, 44.386906], [-75.28641, 44.387029], [-75.285659, 44.387443], [-75.282934, 44.387688], [-75.281925, 44.388026], [-75.280895, 44.388578], [-75.280123, 44.389191], [-75.278213, 44.390126], [-75.275295, 44.390188], [-75.273535, 44.390433], [-75.272033, 44.390709], [-75.264459, 44.39373], [-75.257292, 44.396811], [-75.25609, 44.397578], [-75.254502, 44.398958], [-75.249138, 44.40788], [-75.249181, 44.416801], [-75.248752, 44.418548], [-75.249696, 44.42716], [-75.248838, 44.429244], [-75.248494, 44.43571], [-75.243859, 44.450969], [-75.243709, 44.454461], [-75.243344, 44.455426], [-75.241585, 44.468275], [-75.24137, 44.471827], [-75.232658, 44.478105], [-75.229654, 44.48034], [-75.22871, 44.482024], [-75.227423, 44.48377], [-75.227079, 44.486648], [-75.22738, 44.488423], [-75.228496, 44.49023], [-75.226865, 44.496138], [-75.226221, 44.497485], [-75.22562, 44.500454], [-75.226264, 44.515389], [-75.226479, 44.518358], [-75.22841, 44.523865], [-75.228667, 44.528271], [-75.229182, 44.531667], [-75.226822, 44.536608], [-75.226886, 44.538366], [-75.227723, 44.540095], [-75.231543, 44.547053], [-75.232787, 44.548827], [-75.23283, 44.549653], [-75.230041, 44.560906], [-75.228882, 44.564209], [-75.224161, 44.571821], [-75.221629, 44.575398], [-75.220599, 44.582704], [-75.216608, 44.592943], [-75.214419, 44.596029], [-75.214849, 44.62096], [-75.216308, 44.623495], [-75.217638, 44.627252], [-75.22047, 44.635712], [-75.220213, 44.636811], [-75.217552, 44.643376], [-75.222702, 44.649147], [-75.229268, 44.655192], [-75.230126, 44.656413], [-75.230598, 44.658916], [-75.231328, 44.659343], [-75.233431, 44.65974], [-75.234461, 44.660717], [-75.238709, 44.665357], [-75.254545, 44.680372], [-75.254803, 44.681775], [-75.255404, 44.682599], [-75.255404, 44.685528], [-75.250297, 44.687634], [-75.244589, 44.694163], [-75.245533, 44.698983], [-75.243859, 44.701819], [-75.240555, 44.704351], [-75.23768, 44.707279], [-75.239911, 44.711549], [-75.240426, 44.714751], [-75.239782, 44.718533], [-75.243301, 44.735485], [-75.24343, 44.737528], [-75.244246, 44.739143], [-75.244761, 44.743289], [-75.243945, 44.745606], [-75.244975, 44.753804], [-75.246477, 44.759076], [-75.243044, 44.768857], [-75.243816, 44.770838], [-75.242829, 44.779429], [-75.244675, 44.783145], [-75.244846, 44.799439], [-75.246477, 44.805712], [-75.25094, 44.821299], [-75.253816, 44.840047], [-75.253902, 44.842938], [-75.256991, 44.845981], [-75.26433, 44.855321]]}},
{"type": "Feature", "properties": {"ProjectID": "P0205"}, "geometry": {"type": "LineString", "coordinates": [[-73.102555, 41.221342], [-73.104658, 41.217468], [-73.106074, 41.214659], [-73.106546, 41.213045], [-73.107576, 41.212884]]}},
{"type": "Feature", "properties": {"ProjectID": "P0205", "operator": "Iroquois Gas Transmission System", "osm_type": "way", "location": "underground", "man_made": "pipeline", "substance": "gas", "full_id": "w250308178", "name": "Iroquois Gas Transmission System", "path": "/Users/char/Desktop/gem o&g resources/gis data/Iroquois Pipeline/add pipeline 5.geojson", "layer": "-1", "osm_id": "250308178"}, "geometry": {"type": "LineString", "coordinates": [[-73.793282, 41.726155], [-73.792719, 41.726143], [-73.790423, 41.725682], [-73.785704, 41.724757], [-73.781037, 41.723708], [-73.774911, 41.722543], [-73.773432, 41.722248], [-73.772713, 41.722262], [-73.771901, 41.72225], [-73.770323, 41.721636], [-73.765817, 41.720747], [-73.763489, 41.721027], [-73.760346, 41.720283], [-73.75953, 41.719578], [-73.75599, 41.718793], [-73.752471, 41.718064], [-73.75143, 41.717584], [-73.750915, 41.717272], [-73.750057, 41.716951], [-73.749327, 41.716967], [-73.748812, 41.717272], [-73.746784, 41.717087], [-73.746117, 41.717191], [-73.745044, 41.717278], [-73.743747, 41.71704], [-73.743322, 41.716253], [-73.742712, 41.716036], [-73.738997, 41.715458], [-73.733019, 41.714606], [-73.730881, 41.71465], [-73.730543, 41.714498], [-73.727133, 41.713835], [-73.71526, 41.712134], [-73.707415, 41.711014], [-73.699114, 41.709881], [-73.69678, 41.709063], [-73.69493, 41.70816], [-73.693398, 41.707312], [-73.688801, 41.707741], [-73.686763, 41.70772], [-73.685764, 41.707996], [-73.679019, 41.707107], [-73.673, 41.706137], [-73.670045, 41.705647], [-73.668252, 41.705708], [-73.666583, 41.705535], [-73.662219, 41.705116], [-73.65806, 41.704799], [-73.647569, 41.703758], [-73.642781, 41.703273], [-73.638238, 41.70288], [-73.63344, 41.699866], [-73.630103, 41.697895], [-73.628952, 41.694796], [-73.628739, 41.694579], [-73.628168, 41.694485], [-73.62515, 41.694846], [-73.621967, 41.692817], [-73.617798, 41.691509], [-73.616376, 41.691632], [-73.613348, 41.690671], [-73.61001, 41.689501], [-73.609091, 41.688359], [-73.60615, 41.687529], [-73.604651, 41.687594], [-73.601314, 41.686525], [-73.598895, 41.686322], [-73.592443, 41.686387], [-73.588365, 41.686402], [-73.586778, 41.68633]]}},
{"type": "Feature", "properties": {"ProjectID": "P0205"}, "geometry": {"type": "LineString", "coordinates": [[-73.847206, 42.280909], [-73.848939, 42.279976], [-73.851428, 42.275785], [-73.851557, 42.274927], [-73.850656, 42.273911]]}},
{"type": "Feature", "properties": {"ProjectID": "P0205"}, "geometry": {"type": "LineString", "coordinates": [[-75.328245, 43.512588], [-75.329204, 43.512545]]}},
{"type": "Feature", "properties": {"ProjectID": "P0205", "path": "/Users/char/Desktop/gem o&g resources/gis data/Iroquois Pipeline/add pipeline 9.geojson", "full_id": "w250469907", "operator": "Iroquois Gas Transmission System", "osm_id": "250469907", "osm_type": "way", "location": "underground", "man_made": "pipeline", "substance": "gas", "name": "Iroquois Gas Transmission System", "layer": "-1"}, "geometry": {"type": "LineString", "coordinates": [[-73.157467, 41.324641], [-73.160434, 41.328746], [-73.160769, 41.33061], [-73.160967, 41.332321], [-73.16166, 41.33322], [-73.162428, 41.333678], [-73.163996, 41.334273], [-73.164301, 41.334669], [-73.164986, 41.335556], [-73.165052, 41.336647], [-73.165537, 41.337551], [-73.165696, 41.337849], [-73.166042, 41.338198], [-73.166538, 41.338698], [-73.166546, 41.339256], [-73.167207, 41.341927], [-73.167842, 41.342367], [-73.168252, 41.344043], [-73.169044, 41.345642], [-73.172957, 41.348407], [-73.173132, 41.34902], [-73.173716, 41.350299], [-73.173984, 41.351798], [-73.174183, 41.353349], [-73.174801, 41.354645], [-73.17563, 41.355785], [-73.178486, 41.357805], [-73.181292, 41.360103], [-73.183554, 41.362141], [-73.184066, 41.362786], [-73.184016, 41.36374], [-73.183513, 41.364762], [-73.183158, 41.365821], [-73.183356, 41.366744], [-73.183801, 41.368008], [-73.184544, 41.368671], [-73.185023, 41.369371], [-73.185081, 41.370442], [-73.184553, 41.372808], [-73.184379, 41.375459], [-73.185543, 41.376933], [-73.18603, 41.377355], [-73.187871, 41.377695], [-73.189299, 41.378185], [-73.189413, 41.378873], [-73.189505, 41.379429], [-73.189885, 41.380309], [-73.190231, 41.38068], [-73.191445, 41.380649], [-73.19232, 41.380798], [-73.19317, 41.381504], [-73.193913, 41.382334], [-73.194325, 41.383795], [-73.194837, 41.384464], [-73.195497, 41.384904], [-73.19662, 41.385047], [-73.197594, 41.38535], [-73.198097, 41.386198], [-73.198692, 41.38722], [-73.200037, 41.387914], [-73.20149, 41.388273], [-73.202323, 41.388508], [-73.202934, 41.389239], [-73.203479, 41.390363], [-73.203747, 41.391205], [-73.204057, 41.392044], [-73.204336, 41.392198], [-73.205074, 41.393222]]}},
{"type": "Feature", "properties": {"ProjectID": "P0205"}, "geometry": {"type": "LineString", "coordinates": [[-73.076935, 41.140141], [-73.114701, 41.093584], [-73.178559, 41.06874], [-73.233147, 41.03301], [-73.313828, 40.973418], [-73.340521, 40.927327], [-73.338676, 40.920452], [-73.345842, 40.920452], [-73.346744, 40.928462], [-73.350392, 40.945288], [-73.362236, 40.963697], [-73.368759, 40.971215], [-73.379917, 40.978861], [-73.390045, 40.979121], [-73.413735, 40.978084], [-73.426438, 40.976399], [-73.494416, 40.965641], [-73.678437, 40.908324], [-73.729935, 40.896647], [-73.738518, 40.894311], [-73.745385, 40.884189], [-73.745084, 40.876271], [-73.744183, 40.872767]]}},
{"type": "Feature", "properties": {"ProjectID": "P0205", "path": "/Users/char/Desktop/gem o&g resources/gis data/Iroquois Pipeline/add pipeline 4.geojson", "operator": "Iroquois Gas Transmission System", "osm_id": "250221462", "usage": "transmission", "osm_type": "way", "full_id": "w250221462", "location": "underground", "man_made": "pipeline", "substance": "gas", "name": "Iroquois Gas Transmission System", "layer": "-1"}, "geometry": {"type": "LineString", "coordinates": [[-74.233383, 42.697478], [-74.233124, 42.696929], [-74.230357, 42.695612], [-74.220209, 42.690615], [-74.212026, 42.685972], [-74.204245, 42.681579], [-74.196676, 42.678084], [-74.193507, 42.677259], [-74.190058, 42.673101], [-74.188895, 42.67083], [-74.18719, 42.669783], [-74.182798, 42.662763], [-74.178486, 42.657616], [-74.17255, 42.652144], [-74.16519, 42.644916], [-74.159875, 42.63903], [-74.156546, 42.634693], [-74.152976, 42.629189], [-74.153818, 42.626193], [-74.156385, 42.623729], [-74.156406, 42.62305], [-74.155062, 42.621279], [-74.154179, 42.620158], [-74.153437, 42.617738], [-74.151372, 42.61452], [-74.148905, 42.609236], [-74.147742, 42.607288], [-74.144533, 42.605059], [-74.142829, 42.602125], [-74.141411, 42.595244], [-74.139142, 42.592342], [-74.137072, 42.591256], [-74.134208, 42.590369], [-74.132379, 42.589326], [-74.128805, 42.585975], [-74.126309, 42.584711], [-74.121332, 42.582049], [-74.119758, 42.581067], [-74.119672, 42.578697], [-74.119439, 42.577406], [-74.119105, 42.575564], [-74.117248, 42.569737], [-74.116595, 42.567659], [-74.117219, 42.564964], [-74.116765, 42.563669], [-74.115532, 42.562457], [-74.114567, 42.560734], [-74.113376, 42.558822], [-74.110625, 42.557715], [-74.108682, 42.556911], [-74.106498, 42.555146], [-74.105435, 42.553046], [-74.104002, 42.549755], [-74.102287, 42.547895], [-74.099762, 42.54381], [-74.09772, 42.540373], [-74.096472, 42.540122], [-74.094175, 42.539412], [-74.091041, 42.538053], [-74.085833, 42.53465], [-74.08505, 42.533719], [-74.084389, 42.532966], [-74.079375, 42.529345], [-74.07753, 42.527423], [-74.077189, 42.526581], [-74.076948, 42.524719], [-74.074802, 42.52293], [-74.071794, 42.52021], [-74.071172, 42.518215], [-74.071172, 42.516086], [-74.070731, 42.514667], [-74.069408, 42.513322], [-74.067924, 42.512391], [-74.065397, 42.512553], [-74.062549, 42.511947], [-74.060082, 42.512613], [-74.056231, 42.513115], [-74.050436, 42.508651], [-74.047648, 42.506595], [-74.047487, 42.505649], [-74.045963, 42.5042], [-74.043597, 42.500001], [-74.040388, 42.494101], [-74.039586, 42.491188], [-74.038362, 42.484888], [-74.03756, 42.484444], [-74.032185, 42.480909], [-74.03174, 42.480271], [-74.029209, 42.478561], [-74.02499, 42.475345], [-74.024295, 42.474173], [-74.019956, 42.470711], [-74.016964, 42.46728], [-74.01434, 42.464037], [-74.011532, 42.463033], [-74.009249, 42.460532], [-74.008767, 42.459967], [-74.006257, 42.456138], [-74.005378, 42.455374], [-74.004172, 42.455291], [-74.00196, 42.45369], [-74.000499, 42.453355], [-73.997225, 42.452105], [-73.995601, 42.450907], [-73.993515, 42.448198], [-73.989805, 42.44623], [-73.986315, 42.444809], [-73.982966, 42.444662], [-73.981482, 42.445061], [-73.98072, 42.444676], [-73.980138, 42.443936], [-73.977812, 42.443522], [-73.97709, 42.443315], [-73.976769, 42.442338], [-73.976308, 42.437528], [-73.975566, 42.436951], [-73.972999, 42.4355], [-73.972557, 42.434079], [-73.972257, 42.43325], [-73.970452, 42.431519], [-73.96981, 42.429994], [-73.96981, 42.428587], [-73.970091, 42.427625], [-73.96975, 42.427255], [-73.969088, 42.426826], [-73.965879, 42.425953], [-73.964335, 42.42499], [-73.96249, 42.424161], [-73.961928, 42.423184], [-73.961166, 42.421807], [-73.961347, 42.420801], [-73.959441, 42.418239], [-73.957095, 42.415708], [-73.956253, 42.412954], [-73.951881, 42.409045], [-73.949414, 42.406364], [-73.946767, 42.403802], [-73.944741, 42.400648], [-73.943051, 42.39726], [-73.940404, 42.39315], [-73.939447, 42.39177], [-73.938334, 42.390255], [-73.93811, 42.389913], [-73.938025, 42.388896], [-73.937792, 42.387948], [-73.937057, 42.386656], [-73.936868, 42.386331], [-73.93663, 42.386015], [-73.936255, 42.385376], [-73.936166, 42.384851], [-73.93611, 42.384599], [-73.935931, 42.384354], [-73.934663, 42.383021], [-73.934073, 42.382331], [-73.933525, 42.381522], [-73.933204, 42.380926], [-73.932703, 42.380352], [-73.931279, 42.379108], [-73.930657, 42.377789], [-73.925944, 42.373522], [-73.924641, 42.372292], [-73.924039, 42.37044], [-73.924129, 42.369328], [-73.92418, 42.368692], [-73.923879, 42.367625], [-73.922455, 42.366499], [-73.922303, 42.365599], [-73.922779, 42.364862], [-73.922921, 42.364096], [-73.922481, 42.361592], [-73.922206, 42.359459], [-73.922191, 42.35857], [-73.92178, 42.358099], [-73.921259, 42.357536], [-73.920712, 42.356247], [-73.920341, 42.355506], [-73.920311, 42.354739], [-73.920231, 42.353901], [-73.919674, 42.35339], [-73.919283, 42.353079], [-73.918947, 42.352445], [-73.918917, 42.35166], [-73.918265, 42.351185], [-73.918105, 42.349399], [-73.916561, 42.346035], [-73.914826, 42.342188], [-73.914373, 42.340704], [-73.913756, 42.338816], [-73.913688, 42.33797], [-73.913894, 42.336314], [-73.913894, 42.335554], [-73.913468, 42.3347], [-73.912717, 42.334254], [-73.91183, 42.33405], [-73.909235, 42.33297], [-73.908852, 42.332687], [-73.908852, 42.332089], [-73.908058, 42.330737], [-73.907392, 42.329484], [-73.907498, 42.328761], [-73.907037, 42.328247], [-73.905513, 42.327324], [-73.904268, 42.326475], [-73.902198, 42.324514], [-73.901304, 42.323434], [-73.900992, 42.322249], [-73.900609, 42.3207], [-73.896017, 42.317717], [-73.895502, 42.317114], [-73.889666, 42.312703], [-73.888979, 42.310006], [-73.889108, 42.309498], [-73.890524, 42.306102], [-73.890224, 42.305563], [-73.881769, 42.300929], [-73.879194, 42.299786], [-73.868637, 42.296866], [-73.859668, 42.289755], [-73.851557, 42.288834], [-73.851042, 42.288548], [-73.849239, 42.285374], [-73.849797, 42.282834], [-73.849282, 42.280897], [-73.848939, 42.279976], [-73.847694, 42.278801], [-73.844991, 42.277499], [-73.842502, 42.276769], [-73.841214, 42.275848], [-73.838682, 42.275324], [-73.837008, 42.27453], [-73.836644, 42.273911], [-73.836215, 42.273514], [-73.834369, 42.273213], [-73.832846, 42.272466], [-73.829563, 42.270513], [-73.82761, 42.269037], [-73.826451, 42.26702], [-73.826366, 42.26521], [-73.826859, 42.262732], [-73.826988, 42.262335], [-73.82673, 42.261557], [-73.825293, 42.260541], [-73.822632, 42.258794], [-73.821881, 42.258318], [-73.821173, 42.257269], [-73.820915, 42.256285], [-73.81598, 42.250742], [-73.8095, 42.245421], [-73.807826, 42.244118], [-73.801045, 42.240814], [-73.800745, 42.239035], [-73.79993, 42.236493], [-73.798728, 42.23519], [-73.797097, 42.234555], [-73.795338, 42.233951], [-73.794351, 42.232839], [-73.793964, 42.230519], [-73.791261, 42.227659], [-73.791261, 42.225848], [-73.790274, 42.223496], [-73.79199, 42.214788], [-73.793321, 42.214375], [-73.793964, 42.213135], [-73.793407, 42.210878], [-73.797054, 42.207477], [-73.803663, 42.205665], [-73.804221, 42.203408], [-73.803835, 42.201691], [-73.803663, 42.201024], [-73.803706, 42.199848], [-73.804908, 42.199243], [-73.80465, 42.19511], [-73.802075, 42.193075], [-73.801346, 42.190754], [-73.80156, 42.188624], [-73.801303, 42.187861], [-73.80156, 42.187002], [-73.799415, 42.178257], [-73.796325, 42.165948], [-73.79684, 42.165121], [-73.795037, 42.156946], [-73.790789, 42.134545], [-73.7889, 42.125315], [-73.799973, 42.110449], [-73.79993, 42.100642], [-73.807182, 42.09386], [-73.809972, 42.080101], [-73.813062, 42.075992], [-73.817954, 42.069398], [-73.818297, 42.068028], [-73.818941, 42.067168], [-73.819327, 42.066435], [-73.819156, 42.065575], [-73.818984, 42.065001], [-73.819242, 42.063759], [-73.819628, 42.063122], [-73.820186, 42.062166], [-73.819971, 42.060923], [-73.818941, 42.059713], [-73.81628, 42.055761], [-73.816195, 42.05471], [-73.816023, 42.053244], [-73.816237, 42.051874], [-73.815723, 42.049579], [-73.815765, 42.047381], [-73.815594, 42.046616], [-73.815336, 42.045755], [-73.815594, 42.043174], [-73.799028, 42.024941], [-73.795853, 42.020924], [-73.797999, 42.003514], [-73.798771, 41.995222], [-73.799887, 41.97889], [-73.801003, 41.96734], [-73.802462, 41.957256], [-73.802719, 41.941361], [-73.799415, 41.934689], [-73.795853, 41.930028], [-73.796368, 41.904225], [-73.796325, 41.902181], [-73.795552, 41.900552], [-73.795724, 41.899562], [-73.795595, 41.897134], [-73.795638, 41.89509], [-73.79714, 41.892438], [-73.796582, 41.871958], [-73.792205, 41.870104], [-73.792033, 41.868634], [-73.788858, 41.865822], [-73.78933, 41.863521], [-73.7883, 41.860133], [-73.788729, 41.859206], [-73.790832, 41.858215], [-73.792076, 41.856713], [-73.792849, 41.854987], [-73.791561, 41.852206], [-73.790102, 41.851215], [-73.788343, 41.850511], [-73.787699, 41.849936], [-73.787656, 41.848529], [-73.785081, 41.845684], [-73.785124, 41.843734], [-73.784094, 41.842967], [-73.784008, 41.842167], [-73.783536, 41.841176], [-73.783107, 41.839642], [-73.782549, 41.833598], [-73.782334, 41.832895], [-73.780747, 41.831744], [-73.779931, 41.8312], [-73.778772, 41.82586], [-73.780146, 41.824453], [-73.781648, 41.820711], [-73.781476, 41.819879], [-73.782206, 41.81521], [-73.783922, 41.812235], [-73.784137, 41.810508], [-73.783665, 41.807501], [-73.785167, 41.806253], [-73.786712, 41.805294], [-73.78727, 41.804366], [-73.786755, 41.803054], [-73.787913, 41.801551], [-73.7886, 41.800399], [-73.788343, 41.798032], [-73.786755, 41.794832], [-73.787828, 41.791761], [-73.789501, 41.789425], [-73.788557, 41.787889], [-73.787313, 41.784625], [-73.786926, 41.783889], [-73.787742, 41.781297], [-73.790145, 41.780081], [-73.791819, 41.776081], [-73.791046, 41.774128], [-73.789802, 41.773232], [-73.790445, 41.770736], [-73.792677, 41.764974], [-73.792505, 41.76411], [-73.794479, 41.761549], [-73.793192, 41.751977], [-73.791432, 41.740962], [-73.792334, 41.726839], [-73.792719, 41.726143]]}},
{"type": "Feature", "properties": {"ProjectID": "P0205"}, "geometry": {"type": "LineString", "coordinates": [[-73.586778, 41.68633], [-73.586747, 41.687184]]}},
{"type": "Feature", "properties": {"ProjectID": "P0205", "full_id": "w250380854", "substance": "oil", "osm_type": "way", "location": "underground", "man_made": "pipeline", "layer": "-1", "osm_id": "250380854", "path": "LineString?crs=EPSG:4326&field=full_id:string(0,0)&field=osm_id:string(0,0)&field=osm_type:string(0,0)&field=man_made:string(0,0)&field=bridge:string(0,0)&field=layer:string(0,0)&field=substance:string(0,0)&field=waterway:string(0,0)&field=location:string(0,0)&field=type:string(0,0)&field=tiger%3Aupload_uuid:string(0,0)&field=tiger%3Atlid:string(0,0)&field=tiger%3Asource:string(0,0)&field=tiger%3Areviewed:string(0,0)&field=tiger%3Aname_base:string(0,0)&field=tiger%3Acounty:string(0,0)&field=tiger%3Acfcc:string(0,0)&field=name:string(0,0)&uid={69391f19-3cf4-4af5-af92-6db54fcddbfd}"}, "geometry": {"type": "LineString", "coordinates": [[-75.358783, 43.935181], [-75.358598, 43.934049], [-75.359032, 43.932741], [-75.359531, 43.931838], [-75.359552, 43.93149], [-75.35911, 43.930703], [-75.359416, 43.929678], [-75.360027, 43.927449], [-75.361007, 43.924416], [-75.361682, 43.922949], [-75.364576, 43.919337], [-75.366457, 43.915735], [-75.367405, 43.912794], [-75.367679, 43.910304], [-75.3689, 43.906123], [-75.368965, 43.903482], [-75.369093, 43.901455], [-75.371408, 43.895941], [-75.370302, 43.890581], [-75.370029, 43.889261], [-75.370398, 43.88783], [-75.370511, 43.886335], [-75.371435, 43.884997], [-75.372116, 43.883368], [-75.373298, 43.880476], [-75.374242, 43.878518], [-75.379552, 43.872794], [-75.381848, 43.868779], [-75.383644, 43.863862], [-75.385418, 43.856698], [-75.386391, 43.853064], [-75.386845, 43.851703], [-75.387027, 43.849752], [-75.387345, 43.848768], [-75.388005, 43.848063], [-75.388234, 43.847549], [-75.387599, 43.846703], [-75.386506, 43.84487], [-75.385711, 43.842419], [-75.38396, 43.839967], [-75.382642, 43.838245], [-75.381891, 43.837753], [-75.381118, 43.837179], [-75.38047, 43.836556], [-75.379982, 43.835999], [-75.379334, 43.835745], [-75.378163, 43.835802], [-75.377651, 43.835564], [-75.376583, 43.835089], [-75.375935, 43.834236], [-75.375798, 43.833088], [-75.374855, 43.831292], [-75.371422, 43.828373], [-75.367762, 43.824453], [-75.366977, 43.823305], [-75.366273, 43.822132], [-75.365591, 43.821746], [-75.361078, 43.820672], [-75.360225, 43.819925], [-75.358361, 43.819048], [-75.353973, 43.819228], [-75.346653, 43.819721], [-75.344266, 43.819237], [-75.338366, 43.818031], [-75.335899, 43.817588], [-75.336482, 43.809619], [-75.336937, 43.804681], [-75.336278, 43.803762], [-75.336551, 43.802728], [-75.337028, 43.802203], [-75.337756, 43.794261], [-75.338028, 43.790848], [-75.342075, 43.778784], [-75.345417, 43.769295], [-75.345826, 43.76767], [-75.345713, 43.766718], [-75.344917, 43.765224], [-75.344326, 43.764009], [-75.344235, 43.76327], [-75.344962, 43.759608], [-75.346122, 43.758476], [-75.346122, 43.756965], [-75.344985, 43.747309], [-75.344599, 43.742874], [-75.343757, 43.742118], [-75.34378, 43.741133], [-75.343894, 43.740591], [-75.344189, 43.739835], [-75.343394, 43.733068], [-75.342938, 43.730024], [-75.346282, 43.727607], [-75.350751, 43.724714], [-75.352037, 43.724075], [-75.353163, 43.723796], [-75.35469, 43.722878], [-75.357101, 43.720636], [-75.361731, 43.717766], [-75.363966, 43.709005], [-75.363362, 43.707499], [-75.362686, 43.706482], [-75.361384, 43.70507], [-75.360749, 43.704594], [-75.360612, 43.703066], [-75.360465, 43.701282], [-75.360146, 43.699105], [-75.361397, 43.696869], [-75.363272, 43.694995], [-75.36616, 43.691658], [-75.368433, 43.689192], [-75.369627, 43.687696], [-75.373082, 43.685017], [-75.375458, 43.683669], [-75.376311, 43.682304], [-75.376527, 43.680652], [-75.376945, 43.677689]]}},
{"type": "Feature", "properties": {"ProjectID": "P0205", "osm_id": "250469905", "operator": "Iroquois Gas Transmission System", "osm_type": "way", "location": "underground", "man_made": "pipeline", "full_id": "w250469905", "substance": "gas", "name": "Iroquois Gas Transmission System", "layer": "-1", "path": "/Users/char/Desktop/gem o&g resources/gis data/Iroquois Pipeline/add pipeline 8.geojson"}, "geometry": {"type": "LineString", "coordinates": [[-73.205074, 41.393222], [-73.206148, 41.395437], [-73.206649, 41.397049], [-73.206731, 41.398038], [-73.206778, 41.399045], [-73.207618, 41.400262], [-73.208809, 41.401672], [-73.210665, 41.402863], [-73.212077, 41.403765], [-73.213116, 41.404693], [-73.213116, 41.406102], [-73.213721, 41.407773], [-73.214071, 41.409402], [-73.21825, 41.41075], [-73.220655, 41.411643], [-73.22306, 41.412203], [-73.224484, 41.412764], [-73.231539, 41.411167], [-73.231936, 41.411141], [-73.232916, 41.411491], [-73.234375, 41.412672], [-73.2358, 41.412594], [-73.237387, 41.412602], [-73.238449, 41.412883], [-73.241905, 41.412357], [-73.242967, 41.412725], [-73.244776, 41.41353], [-73.245547, 41.413618], [-73.247111, 41.414196], [-73.248616, 41.414467], [-73.249275, 41.414518], [-73.249423, 41.414747], [-73.24958, 41.415063], [-73.250265, 41.415342], [-73.25242, 41.416122], [-73.252783, 41.416456], [-73.25341, 41.416753], [-73.254004, 41.417013], [-73.254384, 41.417483], [-73.255564, 41.419786], [-73.25743, 41.420231], [-73.258313, 41.419959], [-73.258948, 41.419897], [-73.260054, 41.419872], [-73.262168, 41.419848], [-73.264495, 41.417353], [-73.264957, 41.417155], [-73.265981, 41.417242], [-73.266583, 41.417236], [-73.267714, 41.416889], [-73.271412, 41.416431], [-73.274491, 41.415886], [-73.27577, 41.415837], [-73.276843, 41.416134], [-73.277999, 41.41627], [-73.279633, 41.416295], [-73.280203, 41.416326], [-73.282335, 41.417428], [-73.284267, 41.417669], [-73.286532, 41.417836], [-73.288279, 41.418018], [-73.288985, 41.418338], [-73.28934, 41.418827], [-73.290025, 41.41918], [-73.290322, 41.419402], [-73.290668, 41.419797], [-73.291521, 41.419981], [-73.292904, 41.419858], [-73.293954, 41.420269], [-73.296884, 41.42188], [-73.298046, 41.423727], [-73.297993, 41.425315], [-73.297485, 41.425854], [-73.297363, 41.426585], [-73.297993, 41.427031], [-73.298717, 41.427377], [-73.299237, 41.427932], [-73.300135, 41.428239], [-73.301472, 41.428383], [-73.302195, 41.428934], [-73.303573, 41.429145], [-73.304516, 41.429699], [-73.305581, 41.430317], [-73.306836, 41.431153], [-73.307768, 41.431197], [-73.308421, 41.431608], [-73.309706, 41.432693], [-73.310441, 41.434242], [-73.310149, 41.434872], [-73.310418, 41.435739], [-73.310574, 41.436387], [-73.315056, 41.436544], [-73.315731, 41.436813], [-73.315739, 41.437203], [-73.315401, 41.438051], [-73.314996, 41.439152], [-73.315128, 41.439957], [-73.315904, 41.440613], [-73.317902, 41.440557], [-73.319751, 41.441336], [-73.324876, 41.440755], [-73.327213, 41.440474], [-73.336643, 41.439556], [-73.341943, 41.43899], [-73.344894, 41.438266], [-73.350125, 41.438231], [-73.358442, 41.436292], [-73.363275, 41.435194], [-73.371726, 41.432961], [-73.372061, 41.432872]]}},
{"type": "Feature", "properties": {"ProjectID": "P0205"}, "geometry": {"type": "LineString", "coordinates": [[-74.233383, 42.697478], [-74.232637, 42.698085]]}},
{"type": "Feature", "properties": {"ProjectID": "P0205", "osm_type": "way", "man_made": "pipeline", "type": "water", "osm_id": "134124541", "full_id": "w134124541", "path": "LineString?crs=EPSG:4326&field=full_id:string(0,0)&field=osm_id:string(0,0)&field=osm_type:string(0,0)&field=man_made:string(0,0)&field=bridge:string(0,0)&field=layer:string(0,0)&field=substance:string(0,0)&field=waterway:string(0,0)&field=location:string(0,0)&field=type:string(0,0)&field=tiger%3Aupload_uuid:string(0,0)&field=tiger%3Atlid:string(0,0)&field=tiger%3Asource:string(0,0)&field=tiger%3Areviewed:string(0,0)&field=tiger%3Aname_base:string(0,0)&field=tiger%3Acounty:string(0,0)&field=tiger%3Acfcc:string(0,0)&field=name:string(0,0)&uid={69391f19-3cf4-4af5-af92-6db54fcddbfd}"}, "geometry": {"type": "LineString", "coordinates": [[-75.319858, 44.155055], [-75.320499, 44.155087], [-75.321026, 44.1553]]}},
{"type": "Feature", "properties": {"ProjectID": "P0205"}, "geometry": {"type": "LineString", "coordinates": [[-73.09217, 41.27084], [-73.091097, 41.269937], [-73.089938, 41.269259], [-73.088796, 41.268982], [-73.088608, 41.268937]]}},
{"type": "Feature", "properties": {"ProjectID": "P0205", "operator": "Iroquois Gas Transmission System", "usage": "transmission", "osm_type": "way", "location": "underground", "man_made": "pipeline", "substance": "gas", "name": "Iroquois Gas Transmission System", "path": "/Users/char/Desktop/gem o&g resources/gis data/Iroquois Pipeline/add pipeline 3.geojson", "osm_id": "250221469", "full_id": "w250221469", "layer": "-1"}, "geometry": {"type": "LineString", "coordinates": [[-74.667513, 42.881063], [-74.674318, 42.884499], [-74.67859, 42.889377], [-74.680054, 42.891111], [-74.683463, 42.892448], [-74.691165, 42.896253], [-74.691646, 42.899001], [-74.691781, 42.901539], [-74.692683, 42.902583], [-74.692242, 42.906343], [-74.6952, 42.909641], [-74.696764, 42.913798], [-74.69869, 42.916882], [-74.706857, 42.920427], [-74.718142, 42.92466], [-74.723226, 42.927839], [-74.723178, 42.929078]]}},
{"type": "Feature", "properties": {"ProjectID": "P0205"}, "geometry": {"type": "LineString", "coordinates": [[-75.358783, 43.935181], [-75.35818, 43.935209]]}},
{"type": "Feature", "properties": {"ProjectID": "P0205"}, "geometry": {"type": "LineString", "coordinates": [[-73.744183, 40.872767], [-73.744869, 40.870041], [-73.746071, 40.867445], [-73.749333, 40.864329], [-73.753796, 40.863161], [-73.767014, 40.839139], [-73.783322, 40.8268], [-73.787956, 40.820045], [-73.7883, 40.802635], [-73.796883, 40.802635], [-73.816796, 40.807053], [-73.826237, 40.804844], [-73.832588, 40.803025], [-73.841858, 40.803155], [-73.850098, 40.802245], [-73.859024, 40.801466], [-73.870161, 40.803626], [-73.872113, 40.804406], [-73.871105, 40.805543], [-73.870697, 40.806452], [-73.87147, 40.808141], [-73.872671, 40.810074], [-73.873744, 40.810431], [-73.875031, 40.81035], [-73.875675, 40.810188], [-73.875632, 40.809798]]}},
{"type": "Feature", "properties": {"ProjectID": "P0205", "substance": "oil", "osm_id": "250221463", "full_id": "w250221463", "osm_type": "way", "location": "underground", "man_made": "pipeline", "path": "LineString?crs=EPSG:4326&field=full_id:string(0,0)&field=osm_id:string(0,0)&field=osm_type:string(0,0)&field=man_made:string(0,0)&field=bridge:string(0,0)&field=layer:string(0,0)&field=substance:string(0,0)&field=waterway:string(0,0)&field=location:string(0,0)&field=type:string(0,0)&field=tiger%3Aupload_uuid:string(0,0)&field=tiger%3Atlid:string(0,0)&field=tiger%3Asource:string(0,0)&field=tiger%3Areviewed:string(0,0)&field=tiger%3Aname_base:string(0,0)&field=tiger%3Acounty:string(0,0)&field=tiger%3Acfcc:string(0,0)&field=name:string(0,0)&uid={69391f19-3cf4-4af5-af92-6db54fcddbfd}"}, "geometry": {"type": "LineString", "coordinates": [[-75.328245, 43.512588], [-75.328449, 43.511953], [-75.329723, 43.509752], [-75.329973, 43.508911], [-75.329598, 43.50835], [-75.328085, 43.507764], [-75.325397, 43.506062], [-75.322339, 43.503059], [-75.320293, 43.501437], [-75.314408, 43.497305], [-75.313085, 43.496412], [-75.310829, 43.494623], [-75.309453, 43.493195], [-75.306927, 43.492227], [-75.306134, 43.491551], [-75.305372, 43.490169], [-75.302565, 43.488037], [-75.299546, 43.485891], [-75.298383, 43.485032], [-75.297962, 43.48437], [-75.297701, 43.482377], [-75.297049, 43.480667], [-75.295475, 43.479394], [-75.294372, 43.478229], [-75.292768, 43.477072], [-75.290973, 43.476439], [-75.288666, 43.476046], [-75.287754, 43.475464], [-75.285788, 43.474555], [-75.283101, 43.47251], [-75.280785, 43.470953], [-75.280715, 43.469977], [-75.279612, 43.468173], [-75.277476, 43.465436], [-75.275229, 43.463296], [-75.272652, 43.461877], [-75.268491, 43.459366], [-75.263287, 43.456185], [-75.26091, 43.454912], [-75.258995, 43.45323], [-75.255255, 43.449765], [-75.249018, 43.445178], [-75.238916, 43.443416], [-75.233371, 43.439668], [-75.230507, 43.437269], [-75.224948, 43.431708], [-75.221913, 43.428681], [-75.221402, 43.427023], [-75.221587, 43.426158], [-75.22102, 43.42488], [-75.219729, 43.420946], [-75.217712, 43.418642], [-75.212975, 43.414113], [-75.209666, 43.411389], [-75.208463, 43.40983], [-75.206297, 43.408344], [-75.206257, 43.407193], [-75.204593, 43.406231], [-75.201123, 43.404629], [-75.19988, 43.404279], [-75.199097, 43.403681], [-75.198616, 43.403215], [-75.198355, 43.402428], [-75.195808, 43.399194], [-75.195768, 43.397605], [-75.195989, 43.394632], [-75.195167, 43.389736], [-75.193903, 43.384605], [-75.192279, 43.382142], [-75.191075, 43.380918], [-75.18901, 43.376078], [-75.186643, 43.373425], [-75.184798, 43.371253], [-75.183755, 43.368556], [-75.183134, 43.365072], [-75.180607, 43.361966], [-75.176335, 43.354238], [-75.170436, 43.343241], [-75.169053, 43.341267], [-75.167177, 43.339553], [-75.166606, 43.338306], [-75.166586, 43.337008], [-75.166653, 43.335717], [-75.166511, 43.33482], [-75.163462, 43.33124], [-75.162313, 43.329363], [-75.160512, 43.3286], [-75.158569, 43.328616], [-75.156414, 43.328832], [-75.154613, 43.327522], [-75.152117, 43.326099], [-75.147366, 43.324655], [-75.147097, 43.324324], [-75.146686, 43.323251], [-75.145324, 43.320208], [-75.143481, 43.318877], [-75.137071, 43.315152], [-75.133511, 43.312748], [-75.132108, 43.310633], [-75.128704, 43.309694], [-75.127626, 43.30892], [-75.127215, 43.308249], [-75.127655, 43.305927], [-75.127343, 43.305287], [-75.128293, 43.303998], [-75.128222, 43.302986], [-75.12774, 43.300404], [-75.126557, 43.299616], [-75.125313, 43.298974], [-75.124611, 43.297806], [-75.123709, 43.297033], [-75.123268, 43.295996], [-75.122425, 43.295018], [-75.122225, 43.29369], [-75.121643, 43.292391], [-75.120059, 43.291019], [-75.117853, 43.289559], [-75.116349, 43.289121], [-75.115326, 43.289048], [-75.114142, 43.288376], [-75.111555, 43.287194], [-75.109109, 43.285865], [-75.108647, 43.284727], [-75.106301, 43.281164], [-75.104396, 43.278653], [-75.103834, 43.276536], [-75.102972, 43.271367], [-75.10227, 43.269965], [-75.101207, 43.268403], [-75.100405, 43.264723], [-75.100465, 43.263043], [-75.101347, 43.261816], [-75.101247, 43.260487], [-75.100124, 43.257099], [-75.099783, 43.255054], [-75.099262, 43.254397], [-75.098419, 43.254207], [-75.095411, 43.253783], [-75.091661, 43.253769], [-75.088592, 43.25371], [-75.087048, 43.253389], [-75.082917, 43.252644], [-75.079949, 43.252103], [-75.078665, 43.251388], [-75.077121, 43.251256], [-75.075588, 43.251008], [-75.066626, 43.247889], [-75.064498, 43.246587], [-75.057975, 43.244914], [-75.055678, 43.243901], [-75.054004, 43.241691], [-75.051849, 43.238529], [-75.050658, 43.23822], [-75.045524, 43.238426], [-75.044248, 43.237848], [-75.042659, 43.237641], [-75.0416, 43.237162], [-75.04155, 43.236644], [-75.040868, 43.236278], [-75.039304, 43.236176], [-75.037339, 43.235796], [-75.036547, 43.234971], [-75.035496, 43.234292], [-75.031624, 43.234601], [-75.030868, 43.234123], [-75.026796, 43.2299], [-75.026616, 43.229141], [-75.025252, 43.227972], [-75.025072, 43.226817], [-75.023327, 43.226057], [-75.017792, 43.224976], [-75.012437, 43.223237], [-75.010051, 43.222404], [-75.008225, 43.222652], [-75.006039, 43.222725], [-75.002438, 43.222092], [-74.996227, 43.221741], [-74.995149, 43.221596], [-74.993674, 43.220707], [-74.990413, 43.219198], [-74.986867, 43.217607], [-74.98128, 43.214672], [-74.978529, 43.213431], [-74.970162, 43.210703], [-74.963043, 43.207768], [-74.958449, 43.203819], [-74.955783, 43.202103], [-74.954251, 43.199312], [-74.952095, 43.195632], [-74.950791, 43.194929], [-74.947104, 43.194164], [-74.940098, 43.192778], [-74.938709, 43.192034], [-74.937517, 43.190504], [-74.936128, 43.189325], [-74.935107, 43.184589], [-74.932072, 43.180867], [-74.930484, 43.179398], [-74.929633, 43.179067], [-74.927745, 43.178328]]}},
{"type": "Feature", "properties": {"ProjectID": "P0205"}, "geometry": {"type": "LineString", "coordinates": [[-73.088796, 41.268982], [-73.082771, 41.267598], [-73.082771, 41.265211], [-73.081741, 41.262743], [-73.080518, 41.260114], [-73.079703, 41.258936], [-73.080454, 41.257275], [-73.081012, 41.256146], [-73.082922, 41.253468], [-73.08466, 41.251661], [-73.085303, 41.250629], [-73.087449, 41.248273], [-73.087964, 41.246886], [-73.090324, 41.245063], [-73.090882, 41.244369], [-73.09144, 41.243094], [-73.09217, 41.240513], [-73.093672, 41.239738], [-73.095603, 41.236511], [-73.095966, 41.235838], [-73.096976, 41.233962], [-73.098607, 41.233381], [-73.099251, 41.230605], [-73.099036, 41.22954], [-73.100796, 41.22557], [-73.102555, 41.221342], [-73.097491, 41.220309], [-73.098049, 41.218856], [-73.097105, 41.218178], [-73.096204, 41.217823], [-73.096118, 41.217242], [-73.095431, 41.216403], [-73.094444, 41.216048], [-73.093672, 41.215563], [-73.092685, 41.215144], [-73.091226, 41.214788], [-73.090024, 41.213788], [-73.088779, 41.213336], [-73.08732, 41.214175], [-73.08599, 41.215305], [-73.084531, 41.216306], [-73.080883, 41.212948], [-73.079338, 41.211044], [-73.079038, 41.209978], [-73.078051, 41.208977], [-73.077192, 41.208073], [-73.076677, 41.206653], [-73.076077, 41.205781], [-73.075218, 41.205103], [-73.073888, 41.204877], [-73.072772, 41.204909], [-73.071785, 41.204328], [-73.070841, 41.202972], [-73.069811, 41.202617], [-73.068996, 41.201842], [-73.068566, 41.201002], [-73.066978, 41.200841], [-73.065991, 41.200679], [-73.052945, 41.195674], [-73.048353, 41.193188], [-73.047195, 41.189603], [-73.04831, 41.185986], [-73.054791, 41.175036], [-73.068695, 41.152938], [-73.076935, 41.140141]]}},
{"type": "Feature", "properties": {"ProjectID": "P0205", "operator": "Iroquois Gas Transmission System", "osm_type": "way", "location": "underground", "man_made": "pipeline", "substance": "gas", "osm_id": "250308176", "path": "/Users/char/Desktop/gem o&g resources/gis data/Iroquois Pipeline/add pipeline 7.geojson", "name": "Iroquois Gas Transmission System", "full_id": "w250308176", "layer": "-1"}, "geometry": {"type": "LineString", "coordinates": [[-73.519724, 41.644879], [-73.519175, 41.644537], [-73.518703, 41.644326], [-73.518307, 41.644398], [-73.517784, 41.644919], [-73.516894, 41.64528], [-73.515633, 41.644845], [-73.514201, 41.644708], [-73.512702, 41.644347], [-73.512092, 41.643992], [-73.511202, 41.643732], [-73.508242, 41.643855], [-73.507536, 41.643848], [-73.506868, 41.643703], [-73.505524, 41.642857], [-73.504276, 41.641737], [-73.503898, 41.641411], [-73.503308, 41.641202], [-73.502767, 41.641151], [-73.502138, 41.64126], [-73.501528, 41.641274], [-73.501035, 41.641101], [-73.498675, 41.638635], [-73.497824, 41.637967], [-73.497667, 41.637323], [-73.494828, 41.631944], [-73.494698, 41.631622], [-73.494424, 41.631448], [-73.493439, 41.631254], [-73.490642, 41.630528], [-73.490149, 41.630395], [-73.489807, 41.630201], [-73.489698, 41.629741], [-73.488487, 41.626202], [-73.488494, 41.625303], [-73.488822, 41.623743], [-73.489677, 41.621457], [-73.490361, 41.620286], [-73.490977, 41.619437], [-73.490895, 41.619095], [-73.489438, 41.617034], [-73.488412, 41.615878], [-73.487721, 41.615326], [-73.487071, 41.614978], [-73.486695, 41.614426], [-73.485518, 41.613337], [-73.484135, 41.610011], [-73.48421, 41.609463], [-73.484624, 41.608994], [-73.483126, 41.60572], [-73.482223, 41.603649], [-73.481936, 41.603475], [-73.481429, 41.60347], [-73.47963, 41.603654], [-73.479309, 41.603552], [-73.479069, 41.603347], [-73.478837, 41.602749], [-73.478187, 41.601204], [-73.477907, 41.601066], [-73.477482, 41.601066], [-73.476559, 41.601137], [-73.475574, 41.601132], [-73.474722, 41.600968], [-73.473005, 41.598364], [-73.471209, 41.59729], [-73.470435, 41.596219], [-73.469545, 41.595959], [-73.466782, 41.594468], [-73.46458, 41.593241], [-73.463643, 41.592745], [-73.462404, 41.592581], [-73.460934, 41.592611], [-73.459867, 41.592878], [-73.458574, 41.592842], [-73.457691, 41.592919], [-73.457014, 41.593343], [-73.455569, 41.593554], [-73.453848, 41.593952], [-73.452638, 41.593807], [-73.451942, 41.593539], [-73.451755, 41.593364], [-73.451515, 41.59274], [-73.450441, 41.590975], [-73.449949, 41.590177], [-73.448957, 41.588458], [-73.448451, 41.587189], [-73.447938, 41.586222], [-73.447363, 41.585649], [-73.44646, 41.584958], [-73.445427, 41.584196], [-73.444264, 41.583485], [-73.443491, 41.582835], [-73.44319, 41.582088], [-73.442637, 41.580785], [-73.441651, 41.579689], [-73.441211, 41.579536], [-73.440294, 41.579495], [-73.438481, 41.580022], [-73.438057, 41.579956], [-73.437257, 41.579644], [-73.437001, 41.579206], [-73.436798, 41.578135], [-73.436247, 41.576876], [-73.438246, 41.573769], [-73.43831, 41.572569], [-73.438063, 41.571626], [-73.437799, 41.570743], [-73.435841, 41.569863], [-73.434254, 41.569074], [-73.432813, 41.568264], [-73.431652, 41.568039], [-73.430104, 41.567706], [-73.429582, 41.566997], [-73.429427, 41.565515], [-73.430507, 41.561328], [-73.430193, 41.559342], [-73.430412, 41.557592], [-73.43063, 41.556588], [-73.431205, 41.556159], [-73.43167, 41.555759], [-73.432299, 41.554889], [-73.432888, 41.553968], [-73.433175, 41.553026], [-73.433134, 41.552381], [-73.431998, 41.548101], [-73.431164, 41.546381], [-73.431137, 41.545828], [-73.431479, 41.545214], [-73.431957, 41.544292], [-73.431889, 41.54377], [-73.431602, 41.54335], [-73.431287, 41.542889], [-73.430893, 41.541712], [-73.4307, 41.540804], [-73.430869, 41.540177], [-73.431014, 41.539877], [-73.430917, 41.53925], [-73.430617, 41.538081], [-73.430148, 41.536839], [-73.428996, 41.535222], [-73.428593, 41.534141], [-73.426937, 41.533394], [-73.425274, 41.533119], [-73.424538, 41.532788], [-73.423672, 41.532185], [-73.423577, 41.532112], [-73.422674, 41.531274], [-73.420798, 41.529042], [-73.420101, 41.528271], [-73.419173, 41.527227], [-73.418667, 41.526859], [-73.416327, 41.526563], [-73.416037, 41.526427], [-73.415903, 41.526198], [-73.415951, 41.525419], [-73.415898, 41.523198], [-73.416085, 41.522908], [-73.416439, 41.522427], [-73.416627, 41.521583], [-73.416621, 41.521055], [-73.416589, 41.520812], [-73.41646, 41.520541], [-73.416471, 41.520247], [-73.416315, 41.51992], [-73.416095, 41.519121], [-73.416009, 41.518667], [-73.415958, 41.517896], [-73.41602, 41.51711], [-73.415398, 41.515717], [-73.412324, 41.509739], [-73.410677, 41.508992], [-73.410393, 41.508157], [-73.409679, 41.505702], [-73.408918, 41.503207], [-73.408488, 41.501681], [-73.412232, 41.50035], [-73.406739, 41.481416], [-73.402319, 41.476689], [-73.396955, 41.467461], [-73.394637, 41.461125], [-73.392792, 41.455593], [-73.392792, 41.450318], [-73.393221, 41.444785], [-73.392663, 41.444045], [-73.392534, 41.440539], [-73.390174, 41.436067], [-73.389101, 41.434072], [-73.388886, 41.432399], [-73.374006, 41.433622], [-73.373388, 41.433573], [-73.372061, 41.432872]]}},
{"type": "Feature", "properties": {"ProjectID": "P0205", "substance": "oil", "full_id": "w250380877", "osm_type": "way", "location": "underground", "man_made": "pipeline", "osm_id": "250380877", "layer": "-1", "path": "LineString?crs=EPSG:4326&field=full_id:string(0,0)&field=osm_id:string(0,0)&field=osm_type:string(0,0)&field=man_made:string(0,0)&field=bridge:string(0,0)&field=layer:string(0,0)&field=substance:string(0,0)&field=waterway:string(0,0)&field=location:string(0,0)&field=type:string(0,0)&field=tiger%3Aupload_uuid:string(0,0)&field=tiger%3Atlid:string(0,0)&field=tiger%3Asource:string(0,0)&field=tiger%3Areviewed:string(0,0)&field=tiger%3Aname_base:string(0,0)&field=tiger%3Acounty:string(0,0)&field=tiger%3Acfcc:string(0,0)&field=name:string(0,0)&uid={69391f19-3cf4-4af5-af92-6db54fcddbfd}"}, "geometry": {"type": "LineString", "coordinates": [[-75.376945, 43.677689], [-75.377311, 43.675902], [-75.377327, 43.672352], [-75.375639, 43.656885], [-75.376893, 43.655199], [-75.376378, 43.65214], [-75.375076, 43.646347], [-75.374095, 43.63875], [-75.373999, 43.635749], [-75.374594, 43.634573], [-75.375976, 43.631781], [-75.376475, 43.629989], [-75.375832, 43.628418], [-75.374272, 43.624857], [-75.375688, 43.623076], [-75.377289, 43.619946], [-75.377305, 43.618538], [-75.375778, 43.616036], [-75.373511, 43.612451], [-75.37072, 43.60898], [-75.368984, 43.605768], [-75.367328, 43.604999], [-75.366187, 43.603544], [-75.364965, 43.601076], [-75.363904, 43.599866], [-75.362248, 43.598678], [-75.361116, 43.596777], [-75.360513, 43.594456], [-75.359672, 43.589927], [-75.358956, 43.588487], [-75.357626, 43.586585], [-75.356944, 43.585201], [-75.35633, 43.584123], [-75.356148, 43.582509], [-75.353932, 43.580467], [-75.35215, 43.578681], [-75.350156, 43.576224], [-75.348758, 43.574326], [-75.347359, 43.571519], [-75.345559, 43.568688], [-75.34326, 43.566196], [-75.34244, 43.563994], [-75.341556, 43.562107], [-75.340704, 43.558391], [-75.339804, 43.552554], [-75.340511, 43.548744], [-75.340511, 43.545109], [-75.339449, 43.54099], [-75.340609, 43.538501], [-75.335471, 43.53059], [-75.336585, 43.526007], [-75.336585, 43.525002], [-75.332538, 43.523073], [-75.332833, 43.52215], [-75.330515, 43.519166], [-75.32837, 43.516759], [-75.327949, 43.515605], [-75.328245, 43.512588]]}},
{"type": "Feature", "properties": {"ProjectID": "P0205", "tiger:reviewed": "no", "tiger:source": "tiger_import_dch_v0.6_20070829", "tiger:county": "Lewis, NY", "tiger:name_base": "Iroquis Pipeline", "name": "Iroquis Pipeline", "osm_type": "way", "tiger:cfcc": "C10", "man_made": "pipeline", "tiger:upload_uuid": "bulk_upload.pl-62eeb845-5722-4f14-9028-ea0e1313ff5b", "osm_id": "20101391", "full_id": "w20101391", "tiger:tlid": "155043080", "path": "LineString?crs=EPSG:4326&field=full_id:string(0,0)&field=osm_id:string(0,0)&field=osm_type:string(0,0)&field=man_made:string(0,0)&field=bridge:string(0,0)&field=layer:string(0,0)&field=substance:string(0,0)&field=waterway:string(0,0)&field=location:string(0,0)&field=type:string(0,0)&field=tiger%3Aupload_uuid:string(0,0)&field=tiger%3Atlid:string(0,0)&field=tiger%3Asource:string(0,0)&field=tiger%3Areviewed:string(0,0)&field=tiger%3Aname_base:string(0,0)&field=tiger%3Acounty:string(0,0)&field=tiger%3Acfcc:string(0,0)&field=name:string(0,0)&uid={69391f19-3cf4-4af5-af92-6db54fcddbfd}"}, "geometry": {"type": "LineString", "coordinates": [[-75.361791, 44.089397], [-75.361563, 44.089529], [-75.361441, 44.089803], [-75.361334, 44.090098], [-75.361316, 44.090462]]}},
{"type": "Feature", "properties": {"ProjectID": "P0205"}, "geometry": {"type": "LineString", "coordinates": [[-73.338676, 40.920452], [-73.337174, 40.920517], [-73.336272, 40.92029], [-73.335156, 40.920258], [-73.333654, 40.918604], [-73.331294, 40.917534], [-73.324814, 40.915621], [-73.323054, 40.91494], [-73.317947, 40.912215], [-73.316703, 40.911599], [-73.315244, 40.910399], [-73.313141, 40.908583], [-73.310609, 40.906767], [-73.306704, 40.905015], [-73.303742, 40.900474], [-73.303914, 40.898203], [-73.301597, 40.889704], [-73.300738, 40.889671], [-73.29679, 40.889477], [-73.293958, 40.887498], [-73.291211, 40.879743], [-73.288422, 40.872864], [-73.287735, 40.872475], [-73.280654, 40.873318], [-73.280439, 40.870106], [-73.278894, 40.86553], [-73.277521, 40.862901], [-73.277993, 40.857351], [-73.279023, 40.855857], [-73.281469, 40.852384], [-73.28177, 40.851962], [-73.282242, 40.847775], [-73.283529, 40.844983], [-73.283143, 40.840373], [-73.282456, 40.837353], [-73.281941, 40.835243], [-73.282156, 40.833392], [-73.283272, 40.831184], [-73.286104, 40.827969], [-73.287606, 40.828034], [-73.28958, 40.828911]]}},
{"type": "Feature", "properties": {"ProjectID": "P0205"}, "geometry": {"type": "LineString", "coordinates": [[-73.095966, 41.235838], [-73.098153, 41.236512]]}},
{"type": "Feature", "properties": {"ProjectID": "P0205", "full_id": "w250380876", "substance": "oil", "osm_type": "way", "location": "underground", "man_made": "pipeline", "osm_id": "250380876", "path": "LineString?crs=EPSG:4326&field=full_id:string(0,0)&field=osm_id:string(0,0)&field=osm_type:string(0,0)&field=man_made:string(0,0)&field=bridge:string(0,0)&field=layer:string(0,0)&field=substance:string(0,0)&field=waterway:string(0,0)&field=location:string(0,0)&field=type:string(0,0)&field=tiger%3Aupload_uuid:string(0,0)&field=tiger%3Atlid:string(0,0)&field=tiger%3Asource:string(0,0)&field=tiger%3Areviewed:string(0,0)&field=tiger%3Aname_base:string(0,0)&field=tiger%3Acounty:string(0,0)&field=tiger%3Acfcc:string(0,0)&field=name:string(0,0)&uid={69391f19-3cf4-4af5-af92-6db54fcddbfd}"}, "geometry": {"type": "LineString", "coordinates": [[-75.354527, 44.05536], [-75.354731, 44.053064], [-75.354754, 44.051095], [-75.354254, 44.049478], [-75.353106, 44.046234], [-75.35331, 44.04518], [-75.354629, 44.042573], [-75.354981, 44.040057], [-75.355766, 44.038234], [-75.356379, 44.03651], [-75.355857, 44.034917], [-75.355663, 44.033642], [-75.356448, 44.032873], [-75.356902, 44.031541], [-75.356345, 44.029591], [-75.355481, 44.028447], [-75.35439, 44.027237], [-75.353799, 44.026093], [-75.353458, 44.024409], [-75.353663, 44.020633], [-75.354436, 44.014584], [-75.355413, 44.008501], [-75.356004, 44.001977], [-75.356118, 43.999425], [-75.355737, 43.998342], [-75.355045, 43.993473], [-75.354193, 43.990061], [-75.353743, 43.987528], [-75.353438, 43.983665], [-75.353422, 43.981721], [-75.352666, 43.980866], [-75.352537, 43.977152], [-75.352778, 43.974989], [-75.353422, 43.973496], [-75.352859, 43.970697], [-75.352505, 43.967133], [-75.352087, 43.963916], [-75.353043, 43.960441], [-75.354191, 43.957921], [-75.355293, 43.954918], [-75.356805, 43.95072], [-75.357226, 43.948674], [-75.357624, 43.944312], [-75.358022, 43.942053], [-75.358188, 43.939563], [-75.358758, 43.937907], [-75.358935, 43.936593], [-75.358833, 43.93565], [-75.358783, 43.935181]]}},
{"type": "Feature", "properties": {"ProjectID": "P0205", "operator": "Iroquois Gas Transmission System", "usage": "transmission", "osm_type": "way", "location": "underground", "osm_id": "250221461", "full_id": "w250221461", "man_made": "pipeline", "path": "/Users/char/Desktop/gem o&g resources/gis data/Iroquois Pipeline/add pipeline 2.geojson", "substance": "gas", "name": "Iroquois Gas Transmission System", "layer": "-1"}, "geometry": {"type": "LineString", "coordinates": [[-74.233383, 42.697478], [-74.2345, 42.697946], [-74.242683, 42.70085], [-74.247004, 42.702103], [-74.248947, 42.703837], [-74.249017, 42.705443], [-74.255194, 42.708774], [-74.262394, 42.7137], [-74.267889, 42.718666], [-74.269895, 42.720743], [-74.277977, 42.726032], [-74.280691, 42.727925], [-74.283719, 42.729265], [-74.286507, 42.731004], [-74.291029, 42.733699], [-74.292864, 42.734377], [-74.295522, 42.73599], [-74.299753, 42.738155], [-74.304516, 42.740608], [-74.305713, 42.741017], [-74.306741, 42.742704], [-74.308429, 42.743616], [-74.310428, 42.746801], [-74.313377, 42.749914], [-74.316511, 42.752695], [-74.318496, 42.755464], [-74.31905, 42.758484], [-74.327275, 42.761607], [-74.330082, 42.762961], [-74.335386, 42.763357], [-74.342604, 42.764439], [-74.343583, 42.764387], [-74.34544, 42.765199], [-74.352247, 42.768895], [-74.356119, 42.771258], [-74.357962, 42.771977], [-74.360756, 42.773559], [-74.363379, 42.776171], [-74.36606, 42.778607], [-74.372654, 42.780689], [-74.375533, 42.78123], [-74.377305, 42.78328], [-74.379617, 42.785102], [-74.382382, 42.787183], [-74.388069, 42.792002], [-74.396152, 42.798505], [-74.397712, 42.799588], [-74.401229, 42.800316], [-74.40398, 42.800826], [-74.408631, 42.803063], [-74.415452, 42.806288], [-74.419522, 42.809451], [-74.420558, 42.809981], [-74.421536, 42.809992], [-74.429959, 42.810345], [-74.432158, 42.811635], [-74.434412, 42.81227], [-74.436483, 42.812239], [-74.439278, 42.812941], [-74.441178, 42.814397], [-74.44363, 42.815396], [-74.446708, 42.817351], [-74.45082, 42.819785], [-74.455131, 42.822719], [-74.461555, 42.82691], [-74.465228, 42.829302], [-74.466646, 42.830051], [-74.470333, 42.831652], [-74.474304, 42.832193], [-74.483593, 42.83496], [-74.488981, 42.83653], [-74.493131, 42.837767], [-74.498285, 42.836635], [-74.504622, 42.83562], [-74.507835, 42.835638], [-74.517819, 42.838176], [-74.528736, 42.839903], [-74.542213, 42.842947], [-74.550255, 42.844521], [-74.559461, 42.846138], [-74.563681, 42.84629], [-74.569183, 42.847641], [-74.577096, 42.850178], [-74.586739, 42.852049], [-74.591249, 42.853131], [-74.600466, 42.855792], [-74.606649, 42.857435], [-74.613399, 42.857788], [-74.61703, 42.858453], [-74.626786, 42.860595], [-74.631267, 42.86311], [-74.637138, 42.865439], [-74.643548, 42.86652], [-74.647093, 42.867039], [-74.649561, 42.867829], [-74.652426, 42.8697], [-74.656311, 42.872714], [-74.659581, 42.874824], [-74.660283, 42.875096], [-74.661386, 42.876125], [-74.663, 42.877279], [-74.666259, 42.880049], [-74.667513, 42.881063]]}},
{"type": "Feature", "properties": {"ProjectID": "P0205", "operator": "Iroquois Gas Transmission System", "osm_type": "way", "location": "underground", "man_made": "pipeline", "substance": "gas", "path": "/Users/char/Desktop/gem o&g resources/gis data/Iroquois Pipeline/add pipeline 6.geojson", "name": "Iroquois Gas Transmission System", "osm_id": "250308179", "full_id": "w250308179"}, "geometry": {"type": "LineString", "coordinates": [[-73.586778, 41.68633], [-73.586019, 41.686039], [-73.585328, 41.685232], [-73.584521, 41.685166], [-73.584335, 41.685154], [-73.583285, 41.68497], [-73.581167, 41.684226], [-73.579677, 41.683315], [-73.579206, 41.682424], [-73.579542, 41.680095], [-73.577955, 41.67892], [-73.576356, 41.678578], [-73.570842, 41.677575], [-73.570542, 41.677015], [-73.57017, 41.676874], [-73.56957, 41.676268], [-73.568525, 41.675054], [-73.568022, 41.674129], [-73.567829, 41.673074], [-73.567829, 41.672713], [-73.567577, 41.672192], [-73.566861, 41.671036], [-73.566668, 41.669548], [-73.563127, 41.667351], [-73.563785, 41.663304], [-73.563263, 41.662436], [-73.560244, 41.660659], [-73.556394, 41.657811], [-73.555506, 41.657136], [-73.554674, 41.656471], [-73.554345, 41.656138], [-73.553068, 41.656182], [-73.551637, 41.656196], [-73.550766, 41.656196], [-73.549295, 41.656196], [-73.548212, 41.65598], [-73.546626, 41.656182], [-73.544675, 41.656545], [-73.54332, 41.657072], [-73.542314, 41.657094], [-73.540031, 41.657051], [-73.537719, 41.656696], [-73.536142, 41.656328], [-73.533666, 41.655988], [-73.532805, 41.656118], [-73.531586, 41.656574], [-73.530986, 41.656682], [-73.530086, 41.656321], [-73.528984, 41.655764], [-73.52819, 41.655576], [-73.5273, 41.655041], [-73.526749, 41.654434], [-73.526788, 41.654131], [-73.526644, 41.653584], [-73.525884, 41.652981], [-73.525132, 41.652296], [-73.523039, 41.649981], [-73.522252, 41.649455], [-73.521876, 41.648765], [-73.521203, 41.646921], [-73.520622, 41.64541], [-73.520487, 41.645298], [-73.520109, 41.645178], [-73.519724, 41.644879]]}},
{"type": "Feature", "properties": {"ProjectID": "P0205", "substance": "oil", "full_id": "w250380857", "osm_type": "way", "location": "underground", "man_made": "pipeline", "osm_id": "250380857", "path": "LineString?crs=EPSG:4326&field=full_id:string(0,0)&field=osm_id:string(0,0)&field=osm_type:string(0,0)&field=man_made:string(0,0)&field=bridge:string(0,0)&field=layer:string(0,0)&field=substance:string(0,0)&field=waterway:string(0,0)&field=location:string(0,0)&field=type:string(0,0)&field=tiger%3Aupload_uuid:string(0,0)&field=tiger%3Atlid:string(0,0)&field=tiger%3Asource:string(0,0)&field=tiger%3Areviewed:string(0,0)&field=tiger%3Aname_base:string(0,0)&field=tiger%3Acounty:string(0,0)&field=tiger%3Acfcc:string(0,0)&field=name:string(0,0)&uid={69391f19-3cf4-4af5-af92-6db54fcddbfd}"}, "geometry": {"type": "LineString", "coordinates": [[-75.314529, 44.291801], [-75.314827, 44.290697], [-75.315695, 44.28958], [-75.320799, 44.285374], [-75.321169, 44.28391], [-75.322712, 44.277787], [-75.322744, 44.273828], [-75.32276, 44.26554], [-75.323066, 44.26204], [-75.323355, 44.259749], [-75.324287, 44.255662], [-75.325815, 44.252011], [-75.327068, 44.250135], [-75.326956, 44.249501], [-75.325525, 44.243962], [-75.325284, 44.240887], [-75.324898, 44.23461], [-75.324818, 44.232399], [-75.325059, 44.22953], [-75.325606, 44.227042], [-75.326249, 44.226247], [-75.327149, 44.226086], [-75.32829, 44.225752], [-75.329962, 44.224116], [-75.33157, 44.222388], [-75.333193, 44.218171], [-75.334737, 44.216247], [-75.336585, 44.214473], [-75.337244, 44.213516], [-75.34054, 44.208447], [-75.341312, 44.207098], [-75.34136, 44.20537], [-75.341762, 44.204632], [-75.342292, 44.202638], [-75.343337, 44.202131], [-75.344173, 44.201048], [-75.343964, 44.199803], [-75.344575, 44.198674], [-75.344366, 44.197694], [-75.34435, 44.196473], [-75.344511, 44.19547], [-75.344077, 44.193257], [-75.343546, 44.190825], [-75.343321, 44.187493], [-75.343144, 44.186836], [-75.34046, 44.18415], [-75.339752, 44.183632], [-75.334576, 44.182917], [-75.333225, 44.18211], [-75.332245, 44.180992], [-75.332647, 44.17487], [-75.332936, 44.171042], [-75.333097, 44.170246], [-75.333676, 44.168805], [-75.333692, 44.168251], [-75.333756, 44.167686], [-75.33419, 44.16636], [-75.334817, 44.164676], [-75.336473, 44.162139], [-75.336778, 44.161297], [-75.336698, 44.159844], [-75.336843, 44.159141], [-75.337148, 44.158668], [-75.336634, 44.15793], [-75.335267, 44.156061], [-75.335444, 44.154078], [-75.335573, 44.152036], [-75.336184, 44.150467], [-75.336393, 44.144953], [-75.336473, 44.143315], [-75.337357, 44.142081], [-75.338515, 44.141366], [-75.340411, 44.13997], [-75.341537, 44.138978], [-75.343996, 44.135378], [-75.346134, 44.132609], [-75.349848, 44.129113], [-75.351648, 44.126817], [-75.352693, 44.125605], [-75.353947, 44.12527], [-75.354655, 44.124901], [-75.356632, 44.121901], [-75.357243, 44.120885], [-75.359895, 44.118946], [-75.361824, 44.116846], [-75.362741, 44.114999], [-75.364107, 44.114226], [-75.366486, 44.113129], [-75.367322, 44.111618], [-75.367403, 44.110498], [-75.366583, 44.108593], [-75.364445, 44.102983], [-75.363111, 44.102141], [-75.362323, 44.100674], [-75.36213, 44.098573], [-75.362146, 44.096207], [-75.362162, 44.093297], [-75.362021, 44.092332], [-75.361929, 44.090701], [-75.362241, 44.088903], [-75.363192, 44.086972], [-75.364316, 44.084666], [-75.365405, 44.082019], [-75.366355, 44.080154], [-75.366089, 44.079122], [-75.365173, 44.077765], [-75.364072, 44.076192], [-75.363029, 44.074318], [-75.361616, 44.072853], [-75.3607, 44.070954], [-75.359402, 44.068815], [-75.359147, 44.06854], [-75.35676, 44.067183], [-75.35632, 44.066683], [-75.356331, 44.065467], [-75.356702, 44.06356], [-75.355195, 44.058597], [-75.354639, 44.056165], [-75.354527, 44.05536]]}}
]
}
