{
"type": "FeatureCollection",
"features": [
{"type": "Feature", "properties": {"ProjectID": "P0214", "OBJECTID": 64, "GCOMPID": "GCOMP1055", "NAME": "#2110 PETERSBURG", "ADDRESS": "FORTY DOLLAR ROAD/ NORTH OF E DOANE LANE", "CITY": "PETERSBURG", "STATE": "IN", "ZIP": "47567", "ZIP4": "NOT AVAILABLE", "TYPE": "NATURAL GAS COMPRESSOR STATION", "STATUS": "IN SERVICE", "COUNTY": "PIKE", "COUNTYFIPS": "18125", "COUNTRY": "USA", "LATITUDE": 38.506708, "LONGITUDE": -87.225853, "NAICS_CODE": "486210", "NAICS_DESC": "BOOSTER PUMPING STATION, NATURAL GAS TRANSPORTATION", "SOURCE": "FERC FORM 2, IMAGERY", "SOURCEDATE": "Wed, 15 Jul 2020 00:00:00 GMT", "VAL_METHOD": "IMAGERY/OTHER", "VAL_DATE": "Fri, 17 Jun 2022 00:00:00 GMT", "WEBSITE": "https://www.oneok.com/mgt", "PIPECO": "MIDWESTERN GAS TRANSMISSION COMPANY", "COMPID": "5", "OPERATOR": "MIDWESTERN GAS TRANSMISSION COMPANY", "POSREL": "WITHIN 40 FEET", "NUM_UNITS": 4, "CERT_HP": 11640, "PLANT_COST": 17357521, "EXP_FUEL": 0, "EXP_OTHER": 0, "GAS_COMPRE": 66122, "OP_COMP_HR": 2478, "OP_NUM_COM": 3, "OP_DATE_PE": "Tue, 08 Dec 2020 00:00:00 GMT", "EXP_POWER": 0, "ELEC_COMPR": 0}, "geometry": {"type": "Point", "coordinates": [-87.176358, 38.442156]}},
{"type": "Feature", "properties": {"ProjectID": "P0214", "OBJECTID": 152, "GCOMPID": "GCOMP1135", "NAME": "#2105 HARTFORD", "ADDRESS": "KY HIGHWAY 69 PO BOX 185", "CITY": "HARTFORD", "STATE": "KY", "ZIP": "42347", "ZIP4": "NOT AVAILABLE", "TYPE": "NATURAL GAS COMPRESSOR STATION", "STATUS": "IN SERVICE", "COUNTY": "OHIO", "COUNTYFIPS": "21183", "COUNTRY": "USA", "LATITUDE": 37.506130735, "LONGITUDE": -86.838298962, "NAICS_CODE": "486210", "NAICS_DESC": "BOOSTER PUMPING STATION, NATURAL GAS TRANSPORTATION", "SOURCE": "EPA ENVIROFACTS, FERC FORM 2, CORPORATE WEBSITE", "SOURCEDATE": "Wed, 15 Jul 2020 00:00:00 GMT", "VAL_METHOD": "IMAGERY/OTHER", "VAL_DATE": "Fri, 17 Jun 2022 00:00:00 GMT", "WEBSITE": "https://www.oneok.com/mgt", "PIPECO": "MIDWESTERN GAS TRANSMISSION COMPANY", "COMPID": "5", "OPERATOR": "MIDWESTERN GAS TRANSMISSION COMPANY", "POSREL": "WITHIN 40 FEET", "NUM_UNITS": 2, "CERT_HP": 15590, "PLANT_COST": 8354260, "EXP_FUEL": 0, "EXP_OTHER": 0, "GAS_COMPRE": 0, "OP_COMP_HR": 0, "OP_NUM_COM": 0, "OP_DATE_PE": "Mon, 01 Jan 2001 00:00:00 GMT", "EXP_POWER": 0, "ELEC_COMPR": 0}, "geometry": {"type": "Point", "coordinates": [-86.836377, 37.50544]}},
{"type": "Feature", "properties": {"ProjectID": "P0214", "OBJECTID": 187, "GCOMPID": "GCOMP1167", "NAME": "#2118 POTOMAC", "ADDRESS": "N 620 E ROAD", "CITY": "POTOMAC", "STATE": "IL", "ZIP": "61865", "ZIP4": "NOT AVAILABLE", "TYPE": "NATURAL GAS COMPRESSOR STATION", "STATUS": "IN SERVICE", "COUNTY": "VERMILION", "COUNTYFIPS": "17183", "COUNTRY": "USA", "LATITUDE": 40.26168, "LONGITUDE": -87.82273, "NAICS_CODE": "486210", "NAICS_DESC": "BOOSTER PUMPING STATION, NATURAL GAS TRANSPORTATION", "SOURCE": "EPA ENVIROFACTS, FERC FORM 2, CORPORATE WEBSITE", "SOURCEDATE": "Wed, 15 Jul 2020 00:00:00 GMT", "VAL_METHOD": "IMAGERY/OTHER", "VAL_DATE": "Fri, 17 Jun 2022 00:00:00 GMT", "WEBSITE": "https://www.oneok.com/mgt", "PIPECO": "MIDWESTERN GAS TRANSMISSION COMPANY", "COMPID": "5", "OPERATOR": "MIDWESTERN GAS TRANSMISSION COMPANY", "POSREL": "WITHIN 40 FEET", "NUM_UNITS": 4, "CERT_HP": 9540, "PLANT_COST": 14769940, "EXP_FUEL": 0, "EXP_OTHER": 0, "GAS_COMPRE": 197095, "OP_COMP_HR": 7615, "OP_NUM_COM": 4, "OP_DATE_PE": "Wed, 29 Jan 2020 00:00:00 GMT", "EXP_POWER": 0, "ELEC_COMPR": 0}, "geometry": {"type": "Point", "coordinates": [-87.821477, 40.262546]}},
{"type": "Feature", "properties": {"ProjectID": "P0214", "OBJECTID": 462, "GCOMPID": "GCOMP184", "NAME": "#2113 SULLIVAN", "ADDRESS": "148 E COUNTY ROAD 475 S", "CITY": "CARLISLE", "STATE": "IN", "ZIP": "47838", "ZIP4": "8269", "TYPE": "NATURAL GAS COMPRESSOR STATION", "STATUS": "IN SERVICE", "COUNTY": "SULLIVAN", "COUNTYFIPS": "18153", "COUNTRY": "USA", "LATITUDE": 39.012507782, "LONGITUDE": -87.407622233, "NAICS_CODE": "486210", "NAICS_DESC": "BOOSTER PUMPING STATION, NATURAL GAS TRANSPORTATION", "SOURCE": "EPA ENVIROFACTS, FERC FORM 2, CORPORATE WEBSITE", "SOURCEDATE": "Wed, 15 Jul 2020 00:00:00 GMT", "VAL_METHOD": "IMAGERY/OTHER", "VAL_DATE": "Fri, 17 Jun 2022 00:00:00 GMT", "WEBSITE": "https://www.oneok.com/mgt", "PIPECO": "MIDWESTERN GAS TRANSMISSION COMPANY", "COMPID": "5", "OPERATOR": "MIDWESTERN GAS TRANSMISSION COMPANY", "POSREL": "WITHIN 40 FEET", "NUM_UNITS": 1, "CERT_HP": 9100, "PLANT_COST": 11101870, "EXP_FUEL": 0, "EXP_OTHER": 0, "GAS_COMPRE": 0, "OP_COMP_HR": 122, "OP_NUM_COM": 1, "OP_DATE_PE": "Fri, 28 Aug 2020 00:00:00 GMT", "EXP_POWER": 0, "ELEC_COMPR": 0}, "geometry": {"type": "Point", "coordinates": [-87.408519, 39.011662]}},
{"type": "Feature", "properties": {"ProjectID": "P0214", "OBJECTID": 654, "GCOMPID": "GCOMP357", "NAME": "#2101 PORTLAND", "ADDRESS": "220 TGT ROAD", "CITY": "PORTLAND", "STATE": "TN", "ZIP": "37148", "ZIP4": "9737", "TYPE": "NATURAL GAS COMPRESSOR STATION", "STATUS": "IN SERVICE", "COUNTY": "SUMNER", "COUNTYFIPS": "47165", "COUNTRY": "USA", "LATITUDE": 36.6202, "LONGITUDE": -86.5634, "NAICS_CODE": "486210", "NAICS_DESC": "BOOSTER PUMPING STATION, NATURAL GAS TRANSPORTATION", "SOURCE": "EPA ENVIROFACTS, FERC FORM 2, CORPORATE WEBSITE", "SOURCEDATE": "Wed, 15 Jul 2020 00:00:00 GMT", "VAL_METHOD": "IMAGERY/OTHER", "VAL_DATE": "Fri, 17 Jun 2022 00:00:00 GMT", "WEBSITE": "https://www.oneok.com/mgt", "PIPECO": "MIDWESTERN GAS TRANSMISSION COMPANY", "COMPID": "5", "OPERATOR": "MIDWESTERN GAS TRANSMISSION COMPANY", "POSREL": "WITHIN 40 FEET", "NUM_UNITS": 5, "CERT_HP": 11700, "PLANT_COST": 31019229, "EXP_FUEL": 0, "EXP_OTHER": 0, "GAS_COMPRE": 67708, "OP_COMP_HR": 4207, "OP_NUM_COM": 3, "OP_DATE_PE": "Sun, 10 May 2020 00:00:00 GMT", "EXP_POWER": 0, "ELEC_COMPR": 0}, "geometry": {"type": "Point", "coordinates": [-86.564618, 36.619559]}},
{"type": "Feature", "properties": {"ProjectID": "P0214", "OBJECTID": 697, "GCOMPID": "GCOMP396", "NAME": "#2125 WILL COUNTY", "ADDRESS": "23823 W AMOCO ROAD", "CITY": "CHANNAHON", "STATE": "IL", "ZIP": "60410", "ZIP4": "NOT AVAILABLE", "TYPE": "NATURAL GAS COMPRESSOR STATION", "STATUS": "IN SERVICE", "COUNTY": "WILL", "COUNTYFIPS": "17197", "COUNTRY": "USA", "LATITUDE": 41.448383, "LONGITUDE": -88.19146, "NAICS_CODE": "486210", "NAICS_DESC": "BOOSTER PUMPING STATION, NATURAL GAS TRANSPORTATION", "SOURCE": "EPA ENVIROFACTS, FERC FORM 2, CORPORATE WEBSITE", "SOURCEDATE": "Wed, 15 Jul 2020 00:00:00 GMT", "VAL_METHOD": "IMAGERY/OTHER", "VAL_DATE": "Fri, 17 Jun 2022 00:00:00 GMT", "WEBSITE": "https://www.oneok.com/mgt", "PIPECO": "MIDWESTERN GAS TRANSMISSION COMPANY", "COMPID": "5", "OPERATOR": "MIDWESTERN GAS TRANSMISSION COMPANY", "POSREL": "WITHIN 40 FEET", "NUM_UNITS": 2, "CERT_HP": 2900, "PLANT_COST": 6734704, "EXP_FUEL": 0, "EXP_OTHER": 0, "GAS_COMPRE": 105929, "OP_COMP_HR": 7396, "OP_NUM_COM": 2, "OP_DATE_PE": "Sun, 19 Jan 2020 00:00:00 GMT", "EXP_POWER": 0, "ELEC_COMPR": 0}, "geometry": {"type": "Point", "coordinates": [-88.191545, 41.448283]}},
{"type": "Feature", "properties": {"ProjectID": "P0214", "OBJECTID": 766, "GCOMPID": "GCOMP458", "NAME": "#2115 PARIS", "ADDRESS": "2874 MIDWESTERN GAS STREET", "CITY": "PARIS", "STATE": "IL", "ZIP": "61944", "ZIP4": "NOT AVAILABLE", "TYPE": "NATURAL GAS COMPRESSOR STATION", "STATUS": "IN SERVICE", "COUNTY": "EDGAR", "COUNTYFIPS": "17045", "COUNTRY": "USA", "LATITUDE": 39.520105, "LONGITUDE": -87.568189, "NAICS_CODE": "486210", "NAICS_DESC": "BOOSTER PUMPING STATION, NATURAL GAS TRANSPORTATION", "SOURCE": "FERC FORM 2, IMAGERY", "SOURCEDATE": "Wed, 15 Jul 2020 00:00:00 GMT", "VAL_METHOD": "IMAGERY/OTHER", "VAL_DATE": "Fri, 17 Jun 2022 00:00:00 GMT", "WEBSITE": "https://www.oneok.com/mgt", "PIPECO": "MIDWESTERN GAS TRANSMISSION COMPANY", "COMPID": "5", "OPERATOR": "MIDWESTERN GAS TRANSMISSION COMPANY", "POSREL": "WITHIN 40 FEET", "NUM_UNITS": 3, "CERT_HP": 8000, "PLANT_COST": 14884296, "EXP_FUEL": 0, "EXP_OTHER": 0, "GAS_COMPRE": 402, "OP_COMP_HR": 19, "OP_NUM_COM": 2, "OP_DATE_PE": "Mon, 04 May 2020 00:00:00 GMT", "EXP_POWER": 0, "ELEC_COMPR": 0}, "geometry": {"type": "Point", "coordinates": [-87.567326, 39.519966]}},
{"type": "Feature", "properties": {"ProjectID": "P0214", "OBJECTID": null, "GCOMPID": null, "NAME": null, "ADDRESS": null, "CITY": null, "STATE": null, "ZIP": null, "ZIP4": null, "TYPE": null, "STATUS": null, "COUNTY": null, "COUNTYFIPS": null, "COUNTRY": null, "LATITUDE": null, "LONGITUDE": null, "NAICS_CODE": null, "NAICS_DESC": null, "SOURCE": null, "SOURCEDATE": null, "VAL_METHOD": null, "VAL_DATE": null, "WEBSITE": null, "PIPECO": null, "COMPID": null, "OPERATOR": null, "POSREL": null, "NUM_UNITS": null, "CERT_HP": null, "PLANT_COST": null, "EXP_FUEL": null, "EXP_OTHER": null, "GAS_COMPRE": null, "OP_COMP_HR": null, "OP_NUM_COM": null, "OP_DATE_PE": null, "EXP_POWER": null, "ELEC_COMPR": null}, "geometry": {"type": "Point", "coordinates": [-86.190603, 36.379831]}},
{"type": "Feature", "properties": {"ProjectID": "P0214", "OBJECTID": null, "GCOMPID": null, "NAME": null, "ADDRESS": null, "CITY": null, "STATE": null, "ZIP": null, "ZIP4": null, "TYPE": null, "STATUS": null, "COUNTY": null, "COUNTYFIPS": null, "COUNTRY": null, "LATITUDE": null, "LONGITUDE": null, "NAICS_CODE": null, "NAICS_DESC": null, "SOURCE": null, "SOURCEDATE": null, "VAL_METHOD": null, "VAL_DATE": null, "WEBSITE": null, "PIPECO": null, "COMPID": null, "OPERATOR": null, "POSREL": null, "NUM_UNITS": null, "CERT_HP": null, "PLANT_COST": null, "EXP_FUEL": null, "EXP_OTHER": null, "GAS_COMPRE": null, "OP_COMP_HR": null, "OP_NUM_COM": null, "OP_DATE_PE": null, "EXP_POWER": null, "ELEC_COMPR": null}, "geometry": {"type": "Point", "coordinates": [-87.649595, 39.788611]}}
]
}
