{
"type": "FeatureCollection",
"features": [
{"type": "Feature", "properties": {"ProjectID": "P0211", "id": 1, "Name": "MackenzieGas", "Type": "Mainline"}, "geometry": {"type": "MultiLineString", "coordinates": [[[-133.056758, 68.292043], [-132.96291, 68.19348], [-132.810406, 68.120735], [-132.603157, 68.030211], [-132.41546, 67.973086], [-132.216032, 67.934924], [-132.028335, 67.874619], [-131.64512, 67.814157], [-131.508258, 67.749096], [-131.430051, 67.69573], [-131.211071, 67.66603], [-131.035105, 67.612474], [-130.835677, 67.563275], [-130.737918, 67.52145], [-130.558042, 67.449578], [-130.221751, 67.282538], [-129.983219, 67.202367], [-129.936295, 67.128009], [-129.940205, 67.050373], [-129.865909, 66.99542], [-129.756419, 66.898954], [-129.416218, 66.765109], [-129.025182, 66.630533], [-128.802292, 66.499899], [-128.516836, 66.315226], [-128.458181, 66.162395], [-128.22747, 65.884318], [-127.922462, 65.777049], [-127.89509, 65.704751], [-127.816883, 65.630637], [-127.664379, 65.549838], [-127.558799, 65.48664], [-127.433668, 65.429793], [-127.034812, 65.327157], [-126.80019, 65.287952], [-126.643776, 65.251963], [-126.166713, 65.10093], [-126.029851, 65.026742], [-125.756126, 65.000314], [-125.382687, 64.920872], [-125.095276, 64.870272], [-124.962324, 64.743769], [-124.825461, 64.618347], [-124.774627, 64.431656], [-124.680778, 64.36745], [-124.610392, 64.30818], [-124.453977, 64.265766], [-124.426605, 64.221586], [-124.37577, 64.112534], [-124.279967, 63.997911], [-124.115732, 63.912064], [-123.955407, 63.820778], [-123.810724, 63.734387], [-123.724696, 63.621683], [-123.685593, 63.494573], [-123.580013, 63.391425], [-123.513537, 63.340589], [-123.470523, 63.247449], [-123.333661, 63.166366], [-123.267185, 63.095674], [-123.228081, 62.989314], [-123.165516, 62.770952], [-123.091219, 62.619379], [-122.752973, 62.448946], [-122.616111, 62.36563], [-122.174241, 62.223825], [-121.798846, 62.097824], [-121.482108, 61.973135], [-121.360887, 61.884812], [-121.126265, 61.84609], [-121.118445, 61.655458], [-121.106714, 61.575524], [-120.559264, 60.958971], [-120.438043, 60.757121], [-120.281629, 60.582816], [-120.07438, 60.407566], [-119.996173, 60.244954], [-119.933607, 59.923172]]]}}
]
}
