{
"type": "FeatureCollection",
"features": [
{"type": "Feature", "properties": {"ProjectID": "P0226"}, "geometry": {"type": "LineString", "coordinates": [[-114.530225, 33.59609], [-114.530261, 33.595068], [-114.533179, 33.595086], [-114.536333, 33.596301], [-114.540474, 33.597963], [-114.546976, 33.589902], [-114.54747, 33.589008], [-114.54747, 33.585416], [-114.550881, 33.585344], [-114.55056, 33.57494], [-114.551418, 33.574672], [-114.606596, 33.573921], [-114.606682, 33.573742], [-114.606864, 33.573653], [-114.607058, 33.573706], [-114.60724, 33.573885], [-114.622293, 33.573688], [-114.639545, 33.573831], [-114.665594, 33.573974], [-114.691987, 33.574046], [-114.704905, 33.573939], [-114.705377, 33.573724], [-114.712415, 33.573483], [-114.712651, 33.573626], [-114.713026, 33.573679], [-114.713434, 33.573581], [-114.713584, 33.573358], [-114.720762, 33.573206], [-114.740074, 33.547583], [-114.746962, 33.538408], [-114.752347, 33.531271], [-114.752798, 33.530538], [-114.75297, 33.529429], [-114.754064, 33.521594], [-114.755051, 33.514886], [-114.75606, 33.507604], [-114.756703, 33.502862], [-114.758012, 33.49311], [-114.758699, 33.48801], [-114.759965, 33.479867], [-114.76151, 33.467929], [-114.762819, 33.459104], [-114.76372, 33.452516], [-114.765115, 33.44095], [-114.766338, 33.434271], [-114.76608, 33.433921], [-114.760094, 33.430009], [-114.756231, 33.423239], [-114.750781, 33.413568], [-114.748249, 33.408911], [-114.747992, 33.399847], [-114.747691, 33.389241], [-114.742713, 33.382827], [-114.74237, 33.380999], [-114.74061, 33.379781], [-114.740138, 33.377989], [-114.739065, 33.377559], [-114.735975, 33.37333], [-114.734945, 33.370929], [-114.730654, 33.365159], [-114.727736, 33.361754], [-114.727049, 33.360714], [-114.724388, 33.359245], [-114.724399, 33.358053], [-114.724281, 33.357139], [-114.724163, 33.35661], [-114.723766, 33.356135], [-114.723315, 33.355723], [-114.722897, 33.355454], [-114.722768, 33.355257], [-114.722886, 33.354979], [-114.722961, 33.35462], [-114.722564, 33.354038], [-114.721717, 33.353348], [-114.720976, 33.35281], [-114.720118, 33.351887], [-114.719442, 33.35143], [-114.718874, 33.351054], [-114.718487, 33.350785], [-114.718026, 33.350543], [-114.717758, 33.350314], [-114.717248, 33.349759], [-114.716964, 33.349257], [-114.716797, 33.349046], [-114.716781, 33.348701], [-114.716937, 33.348181], [-114.716996, 33.347957], [-114.716926, 33.34776], [-114.716422, 33.347007], [-114.716175, 33.346631], [-114.715891, 33.34625], [-114.715574, 33.345779], [-114.715408, 33.345564], [-114.715322, 33.34534], [-114.715183, 33.345143], [-114.715108, 33.344811], [-114.714732, 33.343852], [-114.714555, 33.343458], [-114.714383, 33.343144], [-114.715408, 33.341849], [-114.715676, 33.341903], [-114.716556, 33.341634], [-114.717253, 33.340039], [-114.718015, 33.335261], [-114.718273, 33.334759], [-114.720075, 33.33467], [-114.725246, 33.330636], [-114.727221, 33.32619], [-114.729173, 33.325257], [-114.730203, 33.324594], [-114.730396, 33.32428], [-114.730954, 33.319573], [-114.731083, 33.318964], [-114.731501, 33.316669], [-114.731716, 33.315916], [-114.731598, 33.314965], [-114.731576, 33.314553], [-114.731973, 33.313988], [-114.732778, 33.313782], [-114.740803, 33.301282], [-114.744408, 33.296512], [-114.751618, 33.292315], [-114.76269, 33.286862], [-114.767153, 33.28505], [-114.77299, 33.282898], [-114.777174, 33.282737], [-114.783633, 33.278772], [-114.79125, 33.272547], [-114.792023, 33.271955], [-114.792388, 33.271291], [-114.79331, 33.270717], [-114.793868, 33.270628], [-114.799147, 33.266519], [-114.802344, 33.263433], [-114.807258, 33.258678], [-114.813437, 33.252595], [-114.819145, 33.247607], [-114.824252, 33.245453], [-114.828587, 33.243336], [-114.831805, 33.240626], [-114.835517, 33.236983], [-114.839895, 33.234003], [-114.843478, 33.231042], [-114.846869, 33.227847], [-114.847684, 33.226878], [-114.849765, 33.223557], [-114.852469, 33.219464], [-114.853005, 33.218261], [-114.853585, 33.215569], [-114.855087, 33.208208], [-114.854808, 33.207382], [-114.855173, 33.205102], [-114.856095, 33.204222], [-114.856503, 33.201529], [-114.857168, 33.200057], [-114.858263, 33.196502], [-114.861074, 33.188906], [-114.863455, 33.183429], [-114.86573, 33.17691], [-114.865086, 33.175078], [-114.865065, 33.172941], [-114.864807, 33.1696], [-114.865408, 33.167409], [-114.867919, 33.165361], [-114.868047, 33.16026], [-114.868197, 33.155463], [-114.87, 33.150918], [-114.872725, 33.144469], [-114.874377, 33.140462], [-114.876823, 33.136994], [-114.880879, 33.13137], [-114.881866, 33.127381], [-114.884291, 33.117497], [-114.886501, 33.108564], [-114.888518, 33.099703], [-114.895277, 33.07234], [-114.895792, 33.065075], [-114.899054, 33.061479], [-114.905834, 33.035579], [-114.894762, 32.949839], [-114.887724, 32.941556], [-114.883862, 32.93003], [-114.883003, 32.928013], [-114.88163, 32.926356], [-114.881115, 32.924267], [-114.880257, 32.92297], [-114.877424, 32.915116], [-114.875536, 32.912667], [-114.872789, 32.909064], [-114.863949, 32.901569], [-114.862318, 32.899768], [-114.861631, 32.897894], [-114.859915, 32.895588], [-114.839144, 32.879876], [-114.83821, 32.834759], [-114.837899, 32.826465], [-114.837127, 32.764651], [-114.833908, 32.761222], [-114.823201, 32.753391], [-114.814489, 32.747074], [-114.809682, 32.743519], [-114.804425, 32.739783], [-114.800026, 32.736624], [-114.793139, 32.73166], [-114.792194, 32.730884], [-114.788718, 32.729025], [-114.782131, 32.725451], [-114.77653, 32.722418], [-114.774835, 32.719656], [-114.774492, 32.715432]]}},
{"type": "Feature", "properties": {"ProjectID": "P0226"}, "geometry": {"type": "LineString", "coordinates": [[-114.639545, 33.573831], [-114.639984, 33.595497], [-114.640371, 33.595604], [-114.640735, 33.602145], [-114.640639, 33.602297], [-114.640607, 33.602762], [-114.640572, 33.603564]]}}
]
}
