{
"type": "FeatureCollection",
"features": [
{"type": "Feature", "properties": {"ProjectID": "P0239", "id": null}, "geometry": {"type": "MultiLineString", "coordinates": [[[-101.290054, 37.942059], [-101.289586, 37.920229], [-101.270857, 37.873876], [-101.201827, 37.70576], [-101.104642, 37.527867], [-101.07374, 37.479173], [-101.02932, 37.400613], [-101.029119, 37.397561], [-101.017209, 37.387758], [-101.006996, 37.379067], [-101.002775, 37.375606], [-101.002657, 37.374977], [-100.993747, 37.368013], [-100.982012, 37.35878], [-100.97755, 37.354771], [-100.973058, 37.351303], [-100.966678, 37.346051], [-100.958485, 37.339174], [-100.952244, 37.33436], [-100.945872, 37.328771], [-100.941585, 37.325135], [-100.938805, 37.322062], [-100.932352, 37.317687], [-100.927568, 37.314176], [-100.905211, 37.301051], [-100.893857, 37.286127], [-100.881156, 37.276499], [-100.875392, 37.272022], [-100.85498, 37.253527], [-100.846538, 37.240813], [-100.820495, 37.223997], [-100.785122, 37.190955], [-100.775421, 37.180772], [-100.767754, 37.172461], [-100.761082, 37.165379], [-100.755665, 37.154775]]]}},
{"type": "Feature", "properties": {"ProjectID": "P0239", "id": null}, "geometry": {"type": "MultiLineString", "coordinates": [[[-101.201827, 37.70576], [-101.199524, 37.516804], [-101.02932, 37.400613]]]}},
{"type": "Feature", "properties": {"ProjectID": "P0239", "id": null}, "geometry": {"type": "MultiLineString", "coordinates": [[[-100.396412, 37.359837], [-100.359892, 37.368265]]]}},
{"type": "Feature", "properties": {"ProjectID": "P0239", "id": null}, "geometry": {"type": "MultiLineString", "coordinates": [[[-100.450983, 37.342591], [-100.426735, 37.296471]]]}},
{"type": "Feature", "properties": {"ProjectID": "P0239", "id": null}, "geometry": {"type": "MultiLineString", "coordinates": [[[-100.359892, 37.368265], [-100.360248, 37.292726], [-100.356971, 37.242627], [-100.355855, 37.211392]]]}},
{"type": "Feature", "properties": {"ProjectID": "P0239", "id": null}, "geometry": {"type": "MultiLineString", "coordinates": [[[-100.359892, 37.368265], [-100.322192, 37.377871], [-100.301122, 37.385947], [-100.280287, 37.389459], [-100.217546, 37.397067], [-100.153167, 37.409592], [-100.122733, 37.416615], [-100.080594, 37.431247], [-100.033539, 37.451497], [-99.979109, 37.467884]]]}},
{"type": "Feature", "properties": {"ProjectID": "P0239", "id": null}, "geometry": {"type": "MultiLineString", "coordinates": [[[-100.755665, 37.154775], [-100.748373, 37.16218], [-100.722679, 37.190917], [-100.719929, 37.193463], [-100.715129, 37.200369], [-100.703805, 37.210728], [-100.694762, 37.218746], [-100.682911, 37.228257], [-100.676004, 37.233817], [-100.667577, 37.241396], [-100.654291, 37.253511], [-100.643756, 37.260944], [-100.626315, 37.271274], [-100.619585, 37.2766], [-100.608904, 37.281106], [-100.597462, 37.287837], [-100.577709, 37.297845], [-100.566999, 37.303405], [-100.526557, 37.319266], [-100.450983, 37.342591]]]}},
{"type": "Feature", "properties": {"ProjectID": "P0239", "id": null}, "geometry": {"type": "MultiLineString", "coordinates": [[[-100.450983, 37.342591], [-100.396412, 37.359837]]]}},
{"type": "Feature", "properties": {"ProjectID": "P0239", "id": null}, "geometry": {"type": "MultiLineString", "coordinates": [[[-99.979109, 37.467884], [-99.89927, 37.495869], [-99.868719, 37.508745], [-99.685531, 37.557322], [-99.572224, 37.577923], [-99.45798, 37.601334], [-99.396955, 37.614218], [-99.266013, 37.627554], [-99.192035, 37.643473], [-99.027225, 37.663138], [-98.894252, 37.69404], [-98.69573, 37.750226], [-98.544966, 37.791428], [-98.39982, 37.842932], [-98.354872, 37.856978], [-98.175078, 37.870088], [-98.066453, 37.877579], [-97.984048, 37.88788], [-97.903515, 37.899117], [-97.809124, 37.906394]]]}},
{"type": "Feature", "properties": {"ProjectID": "P0239", "id": null}, "geometry": {"type": "MultiLineString", "coordinates": [[[-101.43358, 36.87369], [-101.384205, 36.85875], [-101.298054, 36.85875], [-101.112642, 36.853131], [-100.990906, 36.851258], [-100.921611, 36.935536], [-100.865426, 37.016069], [-100.811113, 37.087237], [-100.755665, 37.154775]]]}},
{"type": "Feature", "properties": {"ProjectID": "P0239", "id": null}, "geometry": {"type": "MultiLineString", "coordinates": [[[-100.990906, 36.851258], [-101.047092, 36.781963], [-101.097058, 36.746624]]]}},
{"type": "Feature", "properties": {"ProjectID": "P0239", "id": null}, "geometry": {"type": "MultiLineString", "coordinates": [[[-101.097058, 36.746624], [-101.157769, 36.639751], [-101.189139, 36.541426], [-101.22139, 36.476077], [-101.287464, 36.475876], [-101.370338, 36.473535], [-101.4298, 36.483368], [-101.466467, 36.492293]]]}},
{"type": "Feature", "properties": {"ProjectID": "P0239", "id": null}, "geometry": {"type": "MultiLineString", "coordinates": [[[-101.22139, 36.476077], [-101.366621, 36.354317], [-101.516449, 36.232582], [-101.643803, 36.123956], [-101.69437, 36.092118], [-101.743064, 36.037805], [-101.815613, 35.962097]]]}},
{"type": "Feature", "properties": {"ProjectID": "P0239", "id": null}, "geometry": {"type": "MultiLineString", "coordinates": [[[-101.22139, 36.476077], [-101.331037, 36.300004], [-101.39846, 36.170778], [-101.454645, 36.075262], [-101.505212, 36.004094], [-101.552033, 35.931053], [-101.56327, 35.886105], [-101.623201, 35.818682], [-101.508958, 35.721294], [-101.492102, 35.678218], [-101.482738, 35.642634], [-101.465399, 35.601958], [-101.464931, 35.577611]]]}},
{"type": "Feature", "properties": {"ProjectID": "P0239", "id": null}, "geometry": {"type": "MultiLineString", "coordinates": [[[-97.809124, 37.906394], [-97.872807, 37.853591], [-97.912137, 37.818007], [-97.985178, 37.702826], [-98.01608, 37.653196], [-98.039491, 37.602629], [-98.097549, 37.526779], [-98.133133, 37.475275], [-98.148116, 37.44531], [-98.189319, 37.413471], [-98.24925, 37.325447], [-98.306372, 37.258961], [-98.350384, 37.19903], [-98.385968, 37.17281], [-98.425298, 37.12318], [-98.468373, 37.053884], [-98.49272, 37.019237], [-98.566698, 36.945259], [-98.596663, 36.8769], [-98.636929, 36.802923], [-98.69101, 36.72619], [-98.745555, 36.673696], [-98.768029, 36.642794], [-98.781139, 36.613765], [-98.826087, 36.576308], [-98.866353, 36.536978], [-98.871036, 36.503267], [-98.861671, 36.46581], [-98.8804, 36.441463], [-98.914111, 36.404942], [-98.912238, 36.36093], [-98.926285, 36.329092], [-98.952504, 36.306618], [-98.973106, 36.259796], [-98.988089, 36.220467], [-99.012725, 36.145452], [-99.033973, 36.084685], [-99.046147, 36.029436], [-99.049893, 36.01258], [-98.98585, 36.019536]]]}},
{"type": "Feature", "properties": {"ProjectID": "P0239", "id": null}, "geometry": {"type": "MultiLineString", "coordinates": [[[-99.049893, 36.01258], [-99.050419, 35.940262], [-99.062593, 35.915915], [-99.107541, 35.881267], [-99.134698, 35.844746], [-99.167472, 35.810099], [-99.197438, 35.777324], [-99.221785, 35.75204], [-99.259242, 35.720202], [-99.29108, 35.699601], [-99.308872, 35.668699], [-99.340711, 35.628432], [-99.363185, 35.593785], [-99.362249, 35.524489], [-99.35663, 35.446766], [-99.360376, 35.407436], [-99.385557, 35.351734]]]}},
{"type": "Feature", "properties": {"ProjectID": "P0239", "id": null}, "geometry": {"type": "MultiLineString", "coordinates": [[[-97.809124, 37.906394], [-97.72118, 37.924326], [-97.609745, 37.938372], [-97.436507, 37.978638], [-97.342864, 37.998303], [-97.23143, 38.033887], [-97.144342, 38.054489], [-97.148322, 37.969098]]]}},
{"type": "Feature", "properties": {"ProjectID": "P0239", "id": null}, "geometry": {"type": "MultiLineString", "coordinates": [[[-97.144342, 38.054489], [-97.076861, 38.070466], [-96.99071, 38.086385], [-96.904559, 38.115415], [-96.839946, 38.120097], [-96.754731, 38.13508], [-96.656407, 38.167854], [-96.5637, 38.200629], [-96.473804, 38.217485], [-96.363306, 38.242768], [-96.26779, 38.267115], [-96.192556, 38.28982], [-96.10017, 38.303636], [-96.019638, 38.324237], [-95.992482, 38.306445], [-95.967198, 38.305509]]]}},
{"type": "Feature", "properties": {"ProjectID": "P0239", "id": null}, "geometry": {"type": "MultiLineString", "coordinates": [[[-96.019638, 38.324237], [-95.946597, 38.345775], [-95.859509, 38.360758], [-95.718109, 38.381359], [-95.684398, 38.386978], [-95.609484, 38.399151], [-95.551426, 38.40477], [-95.501795, 38.412261], [-95.439991, 38.434735], [-95.396916, 38.435672], [-95.336985, 38.447845], [-95.260198, 38.450655], [-95.215249, 38.461892], [-95.164682, 38.482493], [-95.077595, 38.492794], [-94.98208, 38.521823], [-94.933386, 38.521823], [-94.862217, 38.53306], [-94.749846, 38.565835], [-94.673372, 38.60006]]]}},
{"type": "Feature", "properties": {"ProjectID": "P0239", "id": null}, "geometry": {"type": "MultiLineString", "coordinates": [[[-95.684398, 38.386978], [-95.685803, 38.352798], [-95.68393, 38.311596]]]}},
{"type": "Feature", "properties": {"ProjectID": "P0239", "id": null}, "geometry": {"type": "MultiLineString", "coordinates": [[[-95.439991, 38.434735], [-95.451228, 38.446441], [-95.461061, 38.472661]]]}},
{"type": "Feature", "properties": {"ProjectID": "P0239", "id": null}, "geometry": {"type": "MultiLineString", "coordinates": [[[-95.077595, 38.532592], [-95.08415, 38.510118], [-95.077595, 38.492794], [-95.076659, 38.427712], [-95.077595, 38.407111], [-95.113179, 38.3734]]]}},
{"type": "Feature", "properties": {"ProjectID": "P0239", "id": null}, "geometry": {"type": "MultiLineString", "coordinates": [[[-94.673372, 38.60006], [-94.65714, 38.632789], [-94.656204, 38.668373], [-94.644031, 38.69272], [-94.649649, 38.747033], [-94.629984, 38.766698], [-94.600019, 38.776062], [-94.595336, 38.843485], [-94.597678, 38.965337]]]}},
{"type": "Feature", "properties": {"ProjectID": "P0239", "id": null}, "geometry": {"type": "MultiLineString", "coordinates": [[[-94.673372, 38.60006], [-94.598848, 38.607623], [-94.50146, 38.654444], [-94.46728, 38.690964]]]}},
{"type": "Feature", "properties": {"ProjectID": "P0239", "id": null}, "geometry": {"type": "MultiLineString", "coordinates": [[[-94.50146, 38.654444], [-94.442465, 38.666617], [-94.377384, 38.683005], [-94.309961, 38.689092], [-94.191035, 38.714375], [-94.114248, 38.719994], [-94.021542, 38.739659], [-93.926964, 38.753705], [-93.811783, 38.775243], [-93.809911, 38.756514], [-93.817402, 38.742468], [-93.833321, 38.732167]]]}},
{"type": "Feature", "properties": {"ProjectID": "P0239", "id": null}, "geometry": {"type": "MultiLineString", "coordinates": [[[-93.811783, 38.775243], [-93.68162, 38.78648], [-93.631053, 38.79959], [-93.526174, 38.820191], [-93.453133, 38.827682], [-93.36602, 38.846012]]]}},
{"type": "Feature", "properties": {"ProjectID": "P0239", "id": null}, "geometry": {"type": "MultiLineString", "coordinates": [[[-93.526174, 38.820191], [-93.526174, 38.774774], [-93.521492, 38.728421], [-93.521024, 38.67645], [-93.520555, 38.635247], [-93.596406, 38.634779]]]}},
{"type": "Feature", "properties": {"ProjectID": "P0239", "id": null}, "geometry": {"type": "MultiLineString", "coordinates": [[[-93.520555, 38.635247], [-93.52196, 38.6006], [-93.517278, 38.54816]]]}},
{"type": "Feature", "properties": {"ProjectID": "P0239", "id": null}, "geometry": {"type": "MultiLineString", "coordinates": [[[-93.36602, 38.846012], [-93.185784, 38.859989], [-93.07154, 38.882463], [-93.004117, 38.904937], [-92.925458, 38.904937], [-92.912348, 38.88059]]]}},
{"type": "Feature", "properties": {"ProjectID": "P0239", "id": null}, "geometry": {"type": "MultiLineString", "coordinates": [[[-92.925458, 38.904937], [-92.852417, 38.929284], [-92.766266, 38.97236], [-92.728809, 39.004198], [-92.608946, 39.034164]]]}},
{"type": "Feature", "properties": {"ProjectID": "P0239", "id": null}, "geometry": {"type": "MultiLineString", "coordinates": [[[-92.766266, 38.97236], [-92.711953, 38.929284], [-92.678242, 38.86748], [-92.653895, 38.820659], [-92.635166, 38.785075], [-92.558379, 38.738254], [-92.51905, 38.693306], [-92.505003, 38.672704], [-92.429153, 38.651166], [-92.358921, 38.636184], [-92.319591, 38.620264], [-92.279325, 38.602472], [-92.235313, 38.586553], [-92.189428, 38.579998]]]}},
{"type": "Feature", "properties": {"ProjectID": "P0239", "id": null}, "geometry": {"type": "MultiLineString", "coordinates": [[[-92.505003, 38.672704], [-92.540587, 38.672704], [-92.589281, 38.662404], [-92.63142, 38.670831], [-92.685733, 38.66334], [-92.748473, 38.661467]]]}},
{"type": "Feature", "properties": {"ProjectID": "P0239", "id": null}, "geometry": {"type": "MultiLineString", "coordinates": [[[-92.608946, 39.034164], [-92.628611, 39.058979], [-92.653426, 39.100182], [-92.672155, 39.128743]]]}},
{"type": "Feature", "properties": {"ProjectID": "P0239", "id": null}, "geometry": {"type": "MultiLineString", "coordinates": [[[-92.608946, 39.034164], [-92.567275, 39.047274], [-92.489552, 39.066002], [-92.42213, 39.08239], [-92.33832, 39.099245], [-92.276984, 39.110951], [-92.208157, 39.117038], [-92.138866, 39.138248], [-92.04756, 39.151685], [-91.957663, 39.177437], [-91.894923, 39.186333], [-91.85372, 39.197102], [-91.76991, 39.227536], [-91.672054, 39.264524], [-91.637406, 39.274825], [-91.527844, 39.316028], [-91.444971, 39.339438], [-91.330727, 39.368467], [-91.21742, 39.402179], [-91.134078, 39.449936], [-91.080233, 39.462578], [-91.033412, 39.462578], [-90.994082, 39.460705], [-90.914112, 39.471776], [-90.806798, 39.497694], [-90.742184, 39.505654], [-90.673825, 39.515018], [-90.605466, 39.534683], [-90.523529, 39.542174], [-90.450488, 39.566053], [-90.373701, 39.567926], [-90.29551, 39.571672], [-90.19344, 39.574481], [-90.078728, 39.586186], [-89.979467, 39.594146], [-89.861945, 39.599764], [-89.825425, 39.601637], [-89.772985, 39.616152], [-89.722886, 39.615215], [-89.6309, 39.63285]]]}},
{"type": "Feature", "properties": {"ProjectID": "P0239", "id": null}, "geometry": {"type": "MultiLineString", "coordinates": [[[-89.6309, 39.63285], [-89.566972, 39.643776], [-89.480821, 39.651268], [-89.411525, 39.67936], [-89.362831, 39.686852], [-89.280426, 39.701835], [-89.254206, 39.709326], [-89.158691, 39.71869], [-89.115615, 39.722436], [-89.008863, 39.750529], [-88.872145, 39.776749], [-88.748537, 39.778621], [-88.626802, 39.787986], [-88.424534, 39.786113], [-88.358652, 39.790242], [-88.261596, 39.780494], [-88.207283, 39.782367], [-88.05371, 39.782367], [-87.887026, 39.787986], [-87.735326, 39.78424], [-87.594862, 39.789858], [-87.465635, 39.789858], [-87.40945, 39.79735], [-87.350089, 39.802659], [-87.220292, 39.793604], [-87.057354, 39.765511], [-86.871942, 39.778621], [-86.767063, 39.799223], [-86.604125, 39.827315], [-86.467407, 39.8629], [-86.368146, 39.889119], [-86.306342, 39.902229], [-86.259022, 39.920668], [-86.14715, 39.973398], [-86.025415, 40.061422], [-85.914917, 40.155064], [-85.853113, 40.198139], [-85.765089, 40.261816], [-85.680811, 40.314256], [-85.564694, 40.404153], [-85.54222, 40.419136], [-85.448577, 40.49405], [-85.27253, 40.617658], [-85.156413, 40.713173], [-85.124574, 40.722537], [-85.034678, 40.814307], [-84.922307, 40.907949], [-84.854884, 40.973499], [-84.809665, 41.037757], [-84.667599, 41.117708], [-84.485933, 41.241316], [-84.367944, 41.32934], [-84.229353, 41.430474], [-84.073906, 41.554082], [-83.847292, 41.709528], [-83.759268, 41.791934], [-83.558873, 41.915542], [-83.433392, 42.016676], [-83.315403, 42.1047], [-83.238616, 42.172122], [-83.199286, 42.224094], [-83.163, 42.269042], [-83.153167, 42.283732]]]}},
{"type": "Feature", "properties": {"ProjectID": "P0239", "id": null}, "geometry": {"type": "MultiLineString", "coordinates": [[[-83.759268, 41.791934], [-83.779635, 41.823304], [-83.802109, 41.872934], [-83.855954, 41.945039], [-83.886856, 41.997479], [-83.920567, 42.075202], [-83.938359, 42.199747], [-83.928058, 42.276533], [-83.918694, 42.3271], [-83.918694, 42.421679], [-83.897156, 42.454454], [-83.889665, 42.500339], [-83.851271, 42.538732], [-83.878428, 42.587426], [-83.949596, 42.615519]]]}},
{"type": "Feature", "properties": {"ProjectID": "P0239", "id": null}, "geometry": {"type": "MultiLineString", "coordinates": [[[-83.938359, 42.199747], [-83.993608, 42.195064], [-84.019828, 42.189446], [-84.070395, 42.191319], [-84.119089, 42.174463], [-84.164037, 42.174463], [-84.252061, 42.166972], [-84.326975, 42.174463], [-84.373796, 42.168845], [-84.418745, 42.17259], [-84.484294, 42.187573], [-84.551717, 42.195064], [-84.615394, 42.204429], [-84.697799, 42.210047], [-84.789569, 42.221284], [-84.885084, 42.234394], [-84.950634, 42.241886], [-85.012438, 42.25125], [-85.061132, 42.256868], [-85.14541, 42.249377], [-85.205341, 42.253123], [-85.272764, 42.260614], [-85.357042, 42.271851], [-85.422592, 42.260614], [-85.51998, 42.260614], [-85.545731, 42.261258]]]}},
{"type": "Feature", "properties": {"ProjectID": "P0239", "id": null}, "geometry": {"type": "MultiLineString", "coordinates": [[[-85.14541, 42.249377], [-85.16051, 42.281333]]]}},
{"type": "Feature", "properties": {"ProjectID": "P0239", "id": null}, "geometry": {"type": "MultiLineString", "coordinates": [[[-84.885084, 42.234394], [-84.884382, 42.265999], [-84.889064, 42.326866], [-84.905919, 42.395225]]]}},
{"type": "Feature", "properties": {"ProjectID": "P0239", "id": null}, "geometry": {"type": "MultiLineString", "coordinates": [[[-83.847292, 41.709528], [-83.799066, 41.662005], [-83.750372, 41.632039], [-83.656729, 41.564617]]]}},
{"type": "Feature", "properties": {"ProjectID": "P0239", "id": null}, "geometry": {"type": "MultiLineString", "coordinates": [[[-84.367944, 41.32934], [-84.330955, 41.293054], [-84.284134, 41.263088]]]}},
{"type": "Feature", "properties": {"ProjectID": "P0239", "id": null}, "geometry": {"type": "MultiLineString", "coordinates": [[[-85.54222, 40.419136], [-85.499612, 40.367866], [-85.407843, 40.309808], [-85.323565, 40.236767], [-85.314669, 40.189009], [-85.301559, 40.161853], [-85.229454, 40.145466], [-85.120361, 40.112223], [-85.017354, 40.07617], [-84.983174, 40.067274], [-84.910601, 40.041523], [-84.817427, 40.012493], [-84.749068, 39.988146], [-84.775756, 39.939452], [-84.795421, 39.892163], [-84.82486, 39.836504]]]}},
{"type": "Feature", "properties": {"ProjectID": "P0239", "id": null}, "geometry": {"type": "MultiLineString", "coordinates": [[[-84.983174, 40.067274], [-84.977029, 40.091212], [-84.962983, 40.123518], [-84.946595, 40.160975]]]}},
{"type": "Feature", "properties": {"ProjectID": "P0239", "id": null}, "geometry": {"type": "MultiLineString", "coordinates": [[[-85.680811, 40.314256], [-85.641422, 40.294884]]]}},
{"type": "Feature", "properties": {"ProjectID": "P0239", "id": null}, "geometry": {"type": "MultiLineString", "coordinates": [[[-85.853113, 40.198139], [-85.882083, 40.217161], [-85.94576, 40.250872], [-86.019738, 40.290202]]]}},
{"type": "Feature", "properties": {"ProjectID": "P0239", "id": null}, "geometry": {"type": "MultiLineString", "coordinates": [[[-85.875339, 40.182648], [-85.842753, 40.153484], [-85.81747, 40.143183], [-85.807169, 40.122582], [-85.774394, 40.109472], [-85.744429, 40.089807]]]}},
{"type": "Feature", "properties": {"ProjectID": "P0239", "id": null}, "geometry": {"type": "MultiLineString", "coordinates": [[[-86.767063, 39.799223], [-86.781987, 39.827608], [-86.797906, 39.880048], [-86.822253, 39.945598], [-86.847537, 40.012084]]]}},
{"type": "Feature", "properties": {"ProjectID": "P0239", "id": null}, "geometry": {"type": "MultiLineString", "coordinates": [[[-87.594862, 39.789858], [-87.600422, 39.835099], [-87.606041, 39.920314], [-87.59574, 39.995228], [-87.597613, 40.066396], [-87.629451, 40.079506], [-87.64818, 40.105726], [-87.660353, 40.244317], [-87.641625, 40.313612], [-87.644434, 40.391336]]]}},
{"type": "Feature", "properties": {"ProjectID": "P0239", "id": null}, "geometry": {"type": "MultiLineString", "coordinates": [[[-88.207283, 39.782367], [-88.209098, 39.825735], [-88.212844, 39.908141], [-88.222208, 40.041113]]]}},
{"type": "Feature", "properties": {"ProjectID": "P0239", "id": null}, "geometry": {"type": "MultiLineString", "coordinates": [[[-88.2107, 39.860991], [-88.158531, 39.863192]]]}},
{"type": "Feature", "properties": {"ProjectID": "P0239", "id": null}, "geometry": {"type": "MultiLineString", "coordinates": [[[-88.454354, 39.786389], [-88.456314, 39.724601]]]}},
{"type": "Feature", "properties": {"ProjectID": "P0239", "id": null}, "geometry": {"type": "MultiLineString", "coordinates": [[[-89.254206, 39.709326], [-89.259766, 39.642196], [-89.261639, 39.544808]]]}},
{"type": "Feature", "properties": {"ProjectID": "P0239", "id": null}, "geometry": {"type": "MultiLineString", "coordinates": [[[-89.6309, 39.63285], [-89.56504, 39.689017], [-89.550058, 39.739584], [-89.56504, 39.851955], [-89.53882, 39.938106], [-89.542566, 40.059841], [-89.548185, 40.112281], [-89.56504, 40.157229], [-89.561295, 40.275219], [-89.55193, 40.36137], [-89.533202, 40.4007], [-89.536948, 40.45314], [-89.55193, 40.481232], [-89.535075, 40.522435], [-89.555676, 40.574875], [-89.59126, 40.597349], [-89.63059, 40.623569], [-89.684903, 40.636679], [-89.739215, 40.6835], [-89.808511, 40.704101], [-89.868442, 40.73594], [-89.909644, 40.750922], [-90.001414, 40.764032]]]}},
{"type": "Feature", "properties": {"ProjectID": "P0239", "id": null}, "geometry": {"type": "MultiLineString", "coordinates": [[[-89.684903, 40.636679], [-89.737342, 40.602967], [-89.791655, 40.576748], [-89.885297, 40.573002], [-89.958339, 40.563638], [-90.007033, 40.548655]]]}},
{"type": "Feature", "properties": {"ProjectID": "P0239", "id": null}, "geometry": {"type": "MultiLineString", "coordinates": [[[-89.548185, 40.112281], [-89.488254, 40.125391], [-89.424577, 40.13101], [-89.329061, 40.127264], [-89.214818, 40.127264]]]}},
{"type": "Feature", "properties": {"ProjectID": "P0239", "id": null}, "geometry": {"type": "MultiLineString", "coordinates": [[[-90.19344, 39.574481], [-90.194317, 39.617849], [-90.194317, 39.722729]]]}},
{"type": "Feature", "properties": {"ProjectID": "P0239", "id": null}, "geometry": {"type": "MultiLineString", "coordinates": [[[-89.979467, 39.594146], [-89.950847, 39.552299]]]}},
{"type": "Feature", "properties": {"ProjectID": "P0239", "id": null}, "geometry": {"type": "MultiLineString", "coordinates": [[[-91.21742, 39.402179], [-91.197228, 39.36876], [-91.192546, 39.336922]]]}},
{"type": "Feature", "properties": {"ProjectID": "P0239", "id": null}, "geometry": {"type": "MultiLineString", "coordinates": [[[-91.444971, 39.339438], [-91.450999, 39.38187], [-91.450063, 39.452102], [-91.452872, 39.526079], [-91.411669, 39.577583], [-91.413542, 39.659052], [-91.443508, 39.702127], [-91.437889, 39.784533], [-91.436016, 39.822926], [-91.385449, 39.886603]]]}},
{"type": "Feature", "properties": {"ProjectID": "P0239", "id": null}, "geometry": {"type": "MultiLineString", "coordinates": [[[-91.413542, 39.659052], [-91.367657, 39.663734], [-91.299298, 39.666543]]]}},
{"type": "Feature", "properties": {"ProjectID": "P0239", "id": null}, "geometry": {"type": "MultiLineString", "coordinates": [[[-91.437889, 39.784533], [-91.467855, 39.788278], [-91.506248, 39.788278]]]}},
{"type": "Feature", "properties": {"ProjectID": "P0239", "id": null}, "geometry": {"type": "MultiLineString", "coordinates": [[[-91.637406, 39.274825], [-91.635475, 39.191776], [-91.644839, 39.111243], [-91.586781, 39.079405], [-91.553069, 39.071914]]]}},
{"type": "Feature", "properties": {"ProjectID": "P0239", "id": null}, "geometry": {"type": "MultiLineString", "coordinates": [[[-92.138866, 39.138248], [-92.069976, 39.113116], [-92.028773, 39.02322], [-92.004426, 38.938941], [-91.981952, 38.89212], [-91.942622, 38.862155]]]}},
{"type": "Feature", "properties": {"ProjectID": "P0239", "id": null}, "geometry": {"type": "MultiLineString", "coordinates": [[[-92.4408, 39.412772], [-92.435181, 39.347222], [-92.422071, 39.29291], [-92.384614, 39.229233], [-92.364013, 39.159937], [-92.33832, 39.099245], [-92.317192, 39.045694], [-92.304082, 39.000745]]]}},
{"type": "Feature", "properties": {"ProjectID": "P0239", "id": null}, "geometry": {"type": "MultiLineString", "coordinates": [[[-92.384614, 39.229233], [-92.347157, 39.238597], [-92.287226, 39.232979]]]}},
{"type": "Feature", "properties": {"ProjectID": "P0239", "id": null}, "geometry": {"type": "MultiLineString", "coordinates": [[[-98.69101, 36.72619], [-98.613709, 36.678413], [-98.565015, 36.607245], [-98.493847, 36.558551], [-98.43017, 36.521094], [-98.340273, 36.476145], [-98.231648, 36.442434], [-98.171717, 36.382503], [-98.111786, 36.348792], [-98.02938, 36.292606], [-97.954466, 36.243912], [-97.917009, 36.142778], [-97.879552, 36.060373], [-97.853332, 35.989205], [-97.834604, 35.910545], [-97.797147, 35.854359], [-97.744369, 35.789328]]]}}
]
}
