{
"type": "FeatureCollection",
"features": [
{"type": "Feature", "properties": {"ProjectID": "P0253", "NUM_UNITS": "1", "VAL_METHOD": "IMAGERY/OTHER", "OPERATOR": "SOUTHERN STAR CENTRAL GAS PIPELINE INC.", "PIPECO": "SOUTHERN STAR CENTRAL GAS PIPELINE INC.", "VAL_DATE": "Mon, 20 Jun 2022 00:00:00 GMT", "EXP_POWER": "0", "EXP_FUEL": "4604", "COUNTY": "ATCHISON", "EXP_OTHER": "65518", "COUNTRY": "USA", "OP_COMP_HR": "512", "GAS_COMPRE": "2307", "STATUS": "IN SERVICE", "OBJECTID": "1163", "COMPID": "43", "LONGITUDE": "-95.13258895", "POSREL": "WITHIN 40 FEET", "ZIP4": "NOT AVAILABLE", "ZIP": "66002", "SOURCE": "EPA ENVIROFACTS, FERC FORM 2, CORPORATE WEBSITE", "CITY": "ATCHISON", "WEBSITE": "https://www.southernstar.com/", "OP_NUM_COM": "1", "OP_DATE_PE": "Mon, 20 Jan 2020 00:00:00 GMT", "LATITUDE": "39.542954932999997", "GCOMPID": "GCOMP817", "NAME": "501 ATCHISON", "STATE": "KS", "NAICS_DESC": "BOOSTER PUMPING STATION, NATURAL GAS TRANSPORTATION", "CERT_HP": "660", "ADDRESS": "7002 LOGEMAN ROAD", "PLANT_COST": "3182896", "TYPE": "NATURAL GAS COMPRESSOR STATION", "ELEC_COMPR": "0", "NAICS_CODE": "486210", "COUNTYFIPS": "20005", "SOURCEDATE": "Wed, 15 Jul 2020 00:00:00 GMT"}, "geometry": {"type": "Point", "coordinates": [-95.132589, 39.542955]}},
{"type": "Feature", "properties": {"ProjectID": "P0253", "LONGITUDE": "-95.750233789000006", "GCOMPID": "GCOMP521", "COUNTY": "MONTGOMERY", "VAL_METHOD": "IMAGERY/OTHER", "OPERATOR": "SOUTHERN STAR CENTRAL GAS PIPELINE INC.", "PLANT_COST": "28615446", "PIPECO": "SOUTHERN STAR CENTRAL GAS PIPELINE INC.", "VAL_DATE": "Mon, 20 Jun 2022 00:00:00 GMT", "EXP_POWER": "0", "OBJECTID": "837", "ZIP": "67301", "CITY": "INDEPENDENCE", "COUNTRY": "USA", "STATUS": "IN SERVICE", "OP_DATE_PE": "Thu, 13 Feb 2020 00:00:00 GMT", "EXP_FUEL": "435924", "COMPID": "43", "LATITUDE": "37.151515734", "NAME": "515 GRABHAM", "POSREL": "WITHIN 40 FEET", "ZIP4": "NOT AVAILABLE", "SOURCE": "EPA ENVIROFACTS, FERC FORM 2, CORPORATE WEBSITE", "CERT_HP": "14135", "COUNTYFIPS": "20125", "WEBSITE": "https://www.southernstar.com/", "EXP_OTHER": "1100105", "OP_NUM_COM": "6", "ADDRESS": "3380 3400 ROAD", "STATE": "KS", "NAICS_DESC": "BOOSTER PUMPING STATION, NATURAL GAS TRANSPORTATION", "OP_COMP_HR": "25707", "TYPE": "NATURAL GAS COMPRESSOR STATION", "NUM_UNITS": "6", "GAS_COMPRE": "234805", "ELEC_COMPR": "0", "NAICS_CODE": "486210", "SOURCEDATE": "Wed, 15 Jul 2020 00:00:00 GMT"}, "geometry": {"type": "Point", "coordinates": [-95.750234, 37.151516]}},
{"type": "Feature", "properties": {"ProjectID": "P0253", "COUNTYFIPS": "29037", "VAL_METHOD": "IMAGERY/OTHER", "NUM_UNITS": "3", "OPERATOR": "SOUTHERN STAR CENTRAL GAS PIPELINE INC.", "OP_COMP_HR": "5680", "ZIP": "64078", "GAS_COMPRE": "80722", "PIPECO": "SOUTHERN STAR CENTRAL GAS PIPELINE INC.", "EXP_FUEL": "142947", "VAL_DATE": "Mon, 20 Jun 2022 00:00:00 GMT", "EXP_POWER": "0", "OP_DATE_PE": "Sun, 15 Mar 2020 00:00:00 GMT", "EXP_OTHER": "500756", "COUNTRY": "USA", "ADDRESS": "24380 S HARPER ROAD", "GCOMPID": "GCOMP407", "CERT_HP": "5590", "STATUS": "IN SERVICE", "COMPID": "43", "LATITUDE": "38.680243832000002", "PLANT_COST": "16269944", "NAME": "539 PECULIAR", "POSREL": "WITHIN 40 FEET", "ZIP4": "NOT AVAILABLE", "SOURCE": "EPA ENVIROFACTS, FERC FORM 2, CORPORATE WEBSITE", "CITY": "PECULIAR", "WEBSITE": "https://www.southernstar.com/", "OBJECTID": "710", "STATE": "MO", "LONGITUDE": "-94.482507964999996", "OP_NUM_COM": "3", "COUNTY": "CASS", "NAICS_DESC": "BOOSTER PUMPING STATION, NATURAL GAS TRANSPORTATION", "TYPE": "NATURAL GAS COMPRESSOR STATION", "ELEC_COMPR": "0", "NAICS_CODE": "486210", "SOURCEDATE": "Wed, 15 Jul 2020 00:00:00 GMT"}, "geometry": {"type": "Point", "coordinates": [-94.482508, 38.680244]}},
{"type": "Feature", "properties": {"ProjectID": "P0253", "VAL_METHOD": "IMAGERY/OTHER", "NAME": "411 WELDA", "OPERATOR": "SOUTHERN STAR CENTRAL GAS PIPELINE INC.", "GCOMPID": "GCOMP287", "PLANT_COST": "46384588", "PIPECO": "SOUTHERN STAR CENTRAL GAS PIPELINE INC.", "EXP_POWER": "0", "CITY": "WELDA", "LATITUDE": "38.172946", "GAS_COMPRE": "187774", "ZIP": "66091", "COUNTRY": "USA", "OP_DATE_PE": "Mon, 26 Oct 2020 00:00:00 GMT", "LONGITUDE": "-95.298455", "VAL_DATE": "Fri, 24 Jun 2022 00:00:00 GMT", "STATUS": "IN SERVICE", "COMPID": "43", "EXP_FUEL": "365052", "EXP_OTHER": "1188400", "POSREL": "WITHIN 40 FEET", "ZIP4": "NOT AVAILABLE", "SOURCE": "EPA ENVIROFACTS, FERC FORM 2, CORPORATE WEBSITE", "WEBSITE": "https://www.southernstar.com/", "COUNTYFIPS": "20003", "OBJECTID": "576", "COUNTY": "ANDERSON", "CERT_HP": "25607", "OP_NUM_COM": "8", "STATE": "KS", "NAICS_DESC": "BOOSTER PUMPING STATION, NATURAL GAS TRANSPORTATION", "NUM_UNITS": "9", "TYPE": "NATURAL GAS COMPRESSOR STATION", "ELEC_COMPR": "0", "NAICS_CODE": "486210", "ADDRESS": "19209 SW MARYLAND ROAD", "SOURCEDATE": "Wed, 15 Jul 2020 00:00:00 GMT", "OP_COMP_HR": "6910"}, "geometry": {"type": "Point", "coordinates": [-95.298455, 38.172946]}},
{"type": "Feature", "properties": {"ProjectID": "P0253", "VAL_METHOD": "IMAGERY/OTHER", "NUM_UNITS": "3", "ZIP": "67867", "OPERATOR": "SOUTHERN STAR CENTRAL GAS PIPELINE INC.", "PIPECO": "SOUTHERN STAR CENTRAL GAS PIPELINE INC.", "VAL_DATE": "Mon, 20 Jun 2022 00:00:00 GMT", "EXP_POWER": "0", "GAS_COMPRE": "113915", "COUNTRY": "USA", "ADDRESS": "29406 12TH ROAD", "CERT_HP": "6000", "LATITUDE": "37.584439521999997", "OP_COMP_HR": "8520", "LONGITUDE": "-100.450911679", "GCOMPID": "GCOMP468", "STATUS": "IN SERVICE", "COUNTY": "GRAY", "COMPID": "43", "POSREL": "WITHIN 40 FEET", "PLANT_COST": "4874949", "ZIP4": "NOT AVAILABLE", "SOURCE": "EPA ENVIROFACTS, FERC FORM 2, CORPORATE WEBSITE", "EXP_OTHER": "310482", "WEBSITE": "https://www.southernstar.com/", "OBJECTID": "777", "COUNTYFIPS": "20069", "EXP_FUEL": "210716", "OP_NUM_COM": "2", "OP_DATE_PE": "Mon, 24 Aug 2020 00:00:00 GMT", "STATE": "KS", "NAICS_DESC": "BOOSTER PUMPING STATION, NATURAL GAS TRANSPORTATION", "CITY": "MONTEZUMA", "TYPE": "NATURAL GAS COMPRESSOR STATION", "ELEC_COMPR": "0", "NAICS_CODE": "486210", "NAME": "538NTEZUMA", "SOURCEDATE": "Wed, 15 Jul 2020 00:00:00 GMT"}, "geometry": {"type": "Point", "coordinates": [-100.450912, 37.58444]}},
{"type": "Feature", "properties": {"ProjectID": "P0253", "VAL_METHOD": "IMAGERY/OTHER", "NUM_UNITS": "3", "CITY": "JOPLIN", "OBJECTID": "1093", "OPERATOR": "SOUTHERN STAR CENTRAL GAS PIPELINE INC.", "PIPECO": "SOUTHERN STAR CENTRAL GAS PIPELINE INC.", "VAL_DATE": "Mon, 20 Jun 2022 00:00:00 GMT", "EXP_POWER": "0", "LATITUDE": "37.016556801", "EXP_OTHER": "572283", "COUNTRY": "USA", "OP_DATE_PE": "Mon, 26 Oct 2020 00:00:00 GMT", "COUNTY": "NEWTON", "OP_COMP_HR": "7951", "STATUS": "IN SERVICE", "ADDRESS": "6300 RANGELINE ROAD", "COUNTYFIPS": "29145", "PLANT_COST": "13583619", "COMPID": "43", "GAS_COMPRE": "167072", "ZIP": "64804", "LONGITUDE": "-94.480222034999997", "POSREL": "WITHIN 40 FEET", "ZIP4": "NOT AVAILABLE", "SOURCE": "EPA ENVIROFACTS, FERC FORM 2, CORPORATE WEBSITE", "WEBSITE": "https://www.southernstar.com/", "STATE": "MO", "CERT_HP": "7600", "OP_NUM_COM": "3", "NAICS_DESC": "BOOSTER PUMPING STATION, NATURAL GAS TRANSPORTATION", "NAME": "507 SAGINAW", "EXP_FUEL": "284621", "GCOMPID": "GCOMP754", "TYPE": "NATURAL GAS COMPRESSOR STATION", "ELEC_COMPR": "0", "NAICS_CODE": "486210", "SOURCEDATE": "Wed, 15 Jul 2020 00:00:00 GMT"}, "geometry": {"type": "Point", "coordinates": [-94.480222, 37.016557]}},
{"type": "Feature", "properties": {"ProjectID": "P0253", "NUM_UNITS": "2", "EXP_FUEL": "39385", "OBJECTID": "1033", "VAL_METHOD": "IMAGERY/OTHER", "LATITUDE": "38.85652", "OPERATOR": "SOUTHERN STAR CENTRAL GAS PIPELINE INC.", "CERT_HP": "1800", "PIPECO": "SOUTHERN STAR CENTRAL GAS PIPELINE INC.", "VAL_DATE": "Mon, 20 Jun 2022 00:00:00 GMT", "EXP_POWER": "0", "GCOMPID": "GCOMP70", "OP_DATE_PE": "Sat, 18 Jan 2020 00:00:00 GMT", "ADDRESS": "1085 NE 700 ROAD", "COUNTRY": "USA", "STATUS": "IN SERVICE", "COUNTYFIPS": "29101", "COUNTY": "JOHNSON", "COMPID": "43", "LONGITUDE": "-93.53456", "EXP_OTHER": "99897", "POSREL": "WITHIN 40 FEET", "ZIP": "65336", "SOURCE": "EPA ENVIROFACTS, FERC FORM 2, CORPORATE WEBSITE", "CITY": "KNOB NOSTER", "WEBSITE": "https://www.southernstar.com/", "OP_NUM_COM": "1", "PLANT_COST": "5263345", "STATE": "MO", "OP_COMP_HR": "4432", "GAS_COMPRE": "23231", "NAICS_DESC": "BOOSTER PUMPING STATION, NATURAL GAS TRANSPORTATION", "NAME": "551 CONCORDIA", "ZIP4": "2426", "TYPE": "NATURAL GAS COMPRESSOR STATION", "ELEC_COMPR": "0", "NAICS_CODE": "486210", "SOURCEDATE": "Wed, 15 Jul 2020 00:00:00 GMT"}, "geometry": {"type": "Point", "coordinates": [-93.53456, 38.85652]}},
{"type": "Feature", "properties": {"ProjectID": "P0253", "SOURCE": "FERC FORM 2, IMAGERY", "NUM_UNITS": "1", "VAL_METHOD": "IMAGERY/OTHER", "OPERATOR": "SOUTHERN STAR CENTRAL GAS PIPELINE INC.", "EXP_FUEL": "879", "PIPECO": "SOUTHERN STAR CENTRAL GAS PIPELINE INC.", "VAL_DATE": "Mon, 20 Jun 2022 00:00:00 GMT", "EXP_POWER": "0", "CITY": "WELDA", "OBJECTID": "218", "NAME": "414 N WELDA", "ZIP": "66091", "COUNTRY": "USA", "PLANT_COST": "1716920", "STATUS": "IN SERVICE", "OP_DATE_PE": "Mon, 14 Sep 2020 00:00:00 GMT", "EXP_OTHER": "73941", "COMPID": "43", "ADDRESS": "NORTH OF 1100 ROAD; WEST OF SW MARYLAND ROAD", "POSREL": "WITHIN 40 FEET", "ZIP4": "NOT AVAILABLE", "WEBSITE": "https://www.southernstar.com/", "OP_NUM_COM": "1", "COUNTYFIPS": "20003", "LATITUDE": "38.212814596999998", "GAS_COMPRE": "506", "COUNTY": "ANDERSON", "OP_COMP_HR": "981", "STATE": "KS", "LONGITUDE": "-95.294845725000002", "NAICS_DESC": "BOOSTER PUMPING STATION, NATURAL GAS TRANSPORTATION", "CERT_HP": "265", "TYPE": "NATURAL GAS COMPRESSOR STATION", "ELEC_COMPR": "0", "GCOMPID": "GCOMP1195", "NAICS_CODE": "486210", "SOURCEDATE": "Wed, 15 Jul 2020 00:00:00 GMT"}, "geometry": {"type": "Point", "coordinates": [-95.294846, 38.212815]}},
{"type": "Feature", "properties": {"ProjectID": "P0253", "COUNTY": "LEAVENWORTH", "ADDRESS": "20031 207TH STREET", "VAL_METHOD": "IMAGERY/OTHER", "NUM_UNITS": "3", "OPERATOR": "SOUTHERN STAR CENTRAL GAS PIPELINE INC.", "CITY": "TONGANOXIE", "NAME": "542 TONGANOXIE", "PIPECO": "SOUTHERN STAR CENTRAL GAS PIPELINE INC.", "VAL_DATE": "Mon, 20 Jun 2022 00:00:00 GMT", "EXP_POWER": "0", "EXP_OTHER": "339534", "COUNTRY": "USA", "CERT_HP": "5750", "OP_DATE_PE": "Mon, 26 Oct 2020 00:00:00 GMT", "STATUS": "IN SERVICE", "PLANT_COST": "7858528", "ZIP4": "4148", "EXP_FUEL": "25308", "OP_COMP_HR": "519", "COMPID": "43", "LONGITUDE": "-95.060819111000001", "OBJECTID": "608", "POSREL": "WITHIN 40 FEET", "SOURCE": "EPA ENVIROFACTS, FERC FORM 2, CORPORATE WEBSITE", "COUNTYFIPS": "20103", "WEBSITE": "https://www.southernstar.com/", "OP_NUM_COM": "2", "ZIP": "66086", "LATITUDE": "39.13695314", "STATE": "KS", "NAICS_DESC": "BOOSTER PUMPING STATION, NATURAL GAS TRANSPORTATION", "TYPE": "NATURAL GAS COMPRESSOR STATION", "ELEC_COMPR": "0", "GCOMPID": "GCOMP315", "NAICS_CODE": "486210", "SOURCEDATE": "Wed, 15 Jul 2020 00:00:00 GMT", "GAS_COMPRE": "13635"}, "geometry": {"type": "Point", "coordinates": [-95.060819, 39.136953]}},
{"type": "Feature", "properties": {"ProjectID": "P0253", "NUM_UNITS": "2", "VAL_METHOD": "IMAGERY/OTHER", "OP_COMP_HR": "-999", "ZIP": "74083", "ADDRESS": "0.1 MILE W OF ROADS E0080 AND NS 409", "SOURCE": "EPA ENVIROFACTS, IMAGERY", "OBJECTID": "2028", "COMPID": "NOT AVAILABLE", "COUNTY": "NOWATA", "COUNTRY": "USA", "NAME": "SOUTHERN STAR COMPRESSOR FACILITY", "EXP_OTHER": "-999", "SOURCEDATE": "Fri, 27 May 2022 00:00:00 GMT", "STATUS": "IN SERVICE", "GAS_COMPRE": "-999", "COUNTYFIPS": "40105", "CERT_HP": "-999", "GCOMPID": "GCOMP2031", "POSREL": "WITHIN 40 FEET", "EXP_FUEL": "-999", "STATE": "OK", "ZIP4": "NOT AVAILABLE", "ELEC_COMPR": "-999", "OPERATOR": "SOUTHERN STAR CENTRAL GAS PIPELINE, INC.", "OP_NUM_COM": "-999", "WEBSITE": "https://www.southernstar.com/", "EXP_POWER": "-999", "PIPECO": "SOUTHERN STAR CENTRAL GAS PIPELINE, INC.", "NAICS_DESC": "BOOSTER PUMPING STATION, NATURAL GAS TRANSPORTATION", "LONGITUDE": "-95.721313", "VAL_DATE": "Sat, 25 Jun 2022 00:00:00 GMT", "CITY": "WANN", "TYPE": "NATURAL GAS COMPRESSOR STATION", "LATITUDE": "36.901458", "NAICS_CODE": "486210", "PLANT_COST": "-999"}, "geometry": {"type": "Point", "coordinates": [-95.721313, 36.901458]}},
{"type": "Feature", "properties": {"ProjectID": "P0253", "NUM_UNITS": "1", "GCOMPID": "GCOMP687", "VAL_METHOD": "IMAGERY/OTHER", "OPERATOR": "SOUTHERN STAR CENTRAL GAS PIPELINE INC.", "OBJECTID": "1018", "PIPECO": "SOUTHERN STAR CENTRAL GAS PIPELINE INC.", "VAL_DATE": "Mon, 20 Jun 2022 00:00:00 GMT", "EXP_POWER": "0", "CERT_HP": "1400", "GAS_COMPRE": "99048", "ZIP": "65201", "COUNTRY": "USA", "CITY": "COLUMBIA", "ADDRESS": "5401 S BEN WILLIAMS ROAD", "EXP_FUEL": "280036", "STATUS": "IN SERVICE", "LONGITUDE": "-92.22130723", "OP_COMP_HR": "6667", "COMPID": "43", "POSREL": "WITHIN 40 FEET", "PLANT_COST": "1532076", "ZIP4": "NOT AVAILABLE", "SOURCE": "EPA ENVIROFACTS, FERC FORM 2, CORPORATE WEBSITE", "WEBSITE": "https://www.southernstar.com/", "OP_NUM_COM": "1", "NAME": "552LUMBIA", "STATE": "MO", "LATITUDE": "38.887514721000002", "NAICS_DESC": "BOOSTER PUMPING STATION, NATURAL GAS TRANSPORTATION", "COUNTY": "BOONE", "TYPE": "NATURAL GAS COMPRESSOR STATION", "ELEC_COMPR": "0", "NAICS_CODE": "486210", "EXP_OTHER": "161009", "OP_DATE_PE": "Fri, 14 Dec 2012 00:00:00 GMT", "COUNTYFIPS": "29019", "SOURCEDATE": "Wed, 15 Jul 2020 00:00:00 GMT"}, "geometry": {"type": "Point", "coordinates": [-92.221307, 38.887515]}},
{"type": "Feature", "properties": {"ProjectID": "P0253", "SOURCE": "FERC FORM 2, IMAGERY", "NUM_UNITS": "1", "VAL_METHOD": "IMAGERY/OTHER", "OPERATOR": "SOUTHERN STAR CENTRAL GAS PIPELINE INC.", "PIPECO": "SOUTHERN STAR CENTRAL GAS PIPELINE INC.", "OP_COMP_HR": "0", "VAL_DATE": "Mon, 20 Jun 2022 00:00:00 GMT", "EXP_POWER": "0", "CITY": "WELDA", "LATITUDE": "38.14049153", "EXP_FUEL": "0", "ZIP": "66091", "COUNTRY": "USA", "STATUS": "IN SERVICE", "EXP_OTHER": "2722", "NAME": "412 S WELDA", "LONGITUDE": "-95.318182582999995", "COMPID": "43", "POSREL": "WITHIN 40 FEET", "PLANT_COST": "3387536", "GAS_COMPRE": "0", "ZIP4": "NOT AVAILABLE", "GCOMPID": "GCOMP1319", "WEBSITE": "https://www.southernstar.com/", "COUNTYFIPS": "20003", "OP_DATE_PE": "Thu, 31 Dec 2020 00:00:00 GMT", "OBJECTID": "356", "COUNTY": "ANDERSON", "STATE": "KS", "NAICS_DESC": "BOOSTER PUMPING STATION, NATURAL GAS TRANSPORTATION", "CERT_HP": "660", "ADDRESS": "SW 800TH ROAD/LOUISIANA ROAD", "TYPE": "NATURAL GAS COMPRESSOR STATION", "ELEC_COMPR": "0", "NAICS_CODE": "486210", "SOURCEDATE": "Wed, 15 Jul 2020 00:00:00 GMT", "OP_NUM_COM": "0"}, "geometry": {"type": "Point", "coordinates": [-95.318183, 38.140492]}},
{"type": "Feature", "properties": {"ProjectID": "P0253", "OP_DATE_PE": "Sun, 19 Apr 2020 00:00:00 GMT", "NUM_UNITS": "4", "VAL_METHOD": "IMAGERY/OTHER", "NAME": "532 AMERICUS", "OPERATOR": "SOUTHERN STAR CENTRAL GAS PIPELINE INC.", "GCOMPID": "GCOMP341", "ZIP": "66835", "CERT_HP": "8000", "PIPECO": "SOUTHERN STAR CENTRAL GAS PIPELINE INC.", "VAL_DATE": "Mon, 20 Jun 2022 00:00:00 GMT", "EXP_POWER": "0", "OBJECTID": "637", "PLANT_COST": "6694758", "COUNTYFIPS": "20111", "COUNTRY": "USA", "LATITUDE": "38.470112147000002", "LONGITUDE": "-96.281754273999994", "EXP_FUEL": "245321", "STATUS": "IN SERVICE", "GAS_COMPRE": "143100", "COMPID": "43", "EXP_OTHER": "587370", "CITY": "AMERICUS", "COUNTY": "LYON", "POSREL": "WITHIN 40 FEET", "ZIP4": "NOT AVAILABLE", "SOURCE": "EPA ENVIROFACTS, FERC FORM 2, CORPORATE WEBSITE", "WEBSITE": "https://www.southernstar.com/", "OP_NUM_COM": "3", "OP_COMP_HR": "10227", "STATE": "KS", "NAICS_DESC": "BOOSTER PUMPING STATION, NATURAL GAS TRANSPORTATION", "TYPE": "NATURAL GAS COMPRESSOR STATION", "ELEC_COMPR": "0", "NAICS_CODE": "486210", "ADDRESS": "2141 ROAD E", "SOURCEDATE": "Wed, 15 Jul 2020 00:00:00 GMT"}, "geometry": {"type": "Point", "coordinates": [-96.281754, 38.470112]}},
{"type": "Feature", "properties": {"ProjectID": "P0253", "GCOMPID": "GCOMP189", "COUNTYFIPS": "56037", "NUM_UNITS": "2", "PLANT_COST": "8322621", "OP_DATE_PE": "Fri, 03 Jul 2020 00:00:00 GMT", "VAL_METHOD": "IMAGERY/OTHER", "OPERATOR": "SOUTHERN STAR CENTRAL GAS PIPELINE INC.", "NAME": "569 RINER", "PIPECO": "SOUTHERN STAR CENTRAL GAS PIPELINE INC.", "VAL_DATE": "Mon, 20 Jun 2022 00:00:00 GMT", "EXP_POWER": "0", "LONGITUDE": "-107.555064716", "OBJECTID": "467", "COUNTRY": "USA", "EXP_FUEL": "118858", "STATUS": "IN SERVICE", "COMPID": "43", "EXP_OTHER": "324889", "ZIP": "82336", "POSREL": "WITHIN 40 FEET", "CERT_HP": "4800", "ZIP4": "NOT AVAILABLE", "COUNTY": "SWEETWATER", "CITY": "WAMSUTTER", "WEBSITE": "https://www.southernstar.com/", "OP_NUM_COM": "1", "STATE": "WY", "ADDRESS": "15 RINER ROAD", "NAICS_DESC": "BOOSTER PUMPING STATION, NATURAL GAS TRANSPORTATION", "OP_COMP_HR": "5022", "SOURCE": "FERC FORM 2, CORPORATE WEBSITE", "TYPE": "NATURAL GAS COMPRESSOR STATION", "ELEC_COMPR": "0", "NAICS_CODE": "486210", "LATITUDE": "41.748194655", "GAS_COMPRE": "69595", "SOURCEDATE": "Wed, 15 Jul 2020 00:00:00 GMT"}, "geometry": {"type": "Point", "coordinates": [-107.555065, 41.748195]}},
{"type": "Feature", "properties": {"ProjectID": "P0253", "NUM_UNITS": "2", "VAL_METHOD": "IMAGERY/OTHER", "OPERATOR": "SOUTHERN STAR CENTRAL GAS PIPELINE INC.", "OP_COMP_HR": "1419", "PIPECO": "SOUTHERN STAR CENTRAL GAS PIPELINE INC.", "VAL_DATE": "Mon, 20 Jun 2022 00:00:00 GMT", "CERT_HP": "8500", "EXP_POWER": "0", "EXP_OTHER": "373763", "GAS_COMPRE": "56194", "OBJECTID": "822", "COUNTYFIPS": "20059", "COUNTRY": "USA", "OP_DATE_PE": "Thu, 16 Jan 2020 00:00:00 GMT", "NAME": "555 OTTAWA", "GCOMPID": "GCOMP508", "LATITUDE": "38.618586872000002", "STATUS": "IN SERVICE", "EXP_FUEL": "107776", "COMPID": "43", "POSREL": "WITHIN 40 FEET", "PLANT_COST": "14469698", "ZIP": "66067", "ZIP4": "NOT AVAILABLE", "SOURCE": "EPA ENVIROFACTS, FERC FORM 2, CORPORATE WEBSITE", "WEBSITE": "https://www.southernstar.com/", "OP_NUM_COM": "2", "STATE": "KS", "NAICS_DESC": "BOOSTER PUMPING STATION, NATURAL GAS TRANSPORTATION", "CITY": "OTTAWA", "COUNTY": "FRANKLIN", "TYPE": "NATURAL GAS COMPRESSOR STATION", "LONGITUDE": "-95.2289355", "ELEC_COMPR": "0", "NAICS_CODE": "486210", "ADDRESS": "3243 NEBRASKA ROAD", "SOURCEDATE": "Wed, 15 Jul 2020 00:00:00 GMT"}, "geometry": {"type": "Point", "coordinates": [-95.228936, 38.618587]}},
{"type": "Feature", "properties": {"ProjectID": "P0253", "NUM_UNITS": "1", "OP_COMP_HR": "606", "VAL_METHOD": "IMAGERY/OTHER", "OPERATOR": "SOUTHERN STAR CENTRAL GAS PIPELINE INC.", "CITY": "MUTUAL", "PIPECO": "SOUTHERN STAR CENTRAL GAS PIPELINE INC.", "COUNTY": "WOODWARD", "VAL_DATE": "Mon, 20 Jun 2022 00:00:00 GMT", "EXP_OTHER": "115621", "EXP_POWER": "0", "OP_DATE_PE": "Wed, 07 Oct 2020 00:00:00 GMT", "ZIP": "73853", "COUNTRY": "USA", "OBJECTID": "200", "STATUS": "IN SERVICE", "LATITUDE": "36.237965426000002", "GAS_COMPRE": "3636", "COMPID": "43", "POSREL": "WITHIN 40 FEET", "STATE": "OK", "ZIP4": "NOT AVAILABLE", "SOURCE": "EPA ENVIROFACTS, FERC FORM 2, CORPORATE WEBSITE", "EXP_FUEL": "5889", "ADDRESS": "0.4 MILE N OF ROADS N2130 AND E0540", "COUNTYFIPS": "40153", "WEBSITE": "https://www.southernstar.com/", "OP_NUM_COM": "1", "CERT_HP": "1100", "PLANT_COST": "2271370", "GCOMPID": "GCOMP1179", "NAICS_DESC": "BOOSTER PUMPING STATION, NATURAL GAS TRANSPORTATION", "NAME": "548 MUTUAL", "TYPE": "NATURAL GAS COMPRESSOR STATION", "ELEC_COMPR": "0", "NAICS_CODE": "486210", "LONGITUDE": "-99.203344001999994", "SOURCEDATE": "Wed, 15 Jul 2020 00:00:00 GMT"}, "geometry": {"type": "Point", "coordinates": [-99.203344, 36.237965]}},
{"type": "Feature", "properties": {"ProjectID": "P0253", "SOURCE": "FERC FORM 2, IMAGERY", "NUM_UNITS": "1", "COUNTY": "MONTGOMERY", "VAL_METHOD": "IMAGERY/OTHER", "OPERATOR": "SOUTHERN STAR CENTRAL GAS PIPELINE INC.", "CITY": "ELK CITY", "PIPECO": "SOUTHERN STAR CENTRAL GAS PIPELINE INC.", "VAL_DATE": "Mon, 20 Jun 2022 00:00:00 GMT", "EXP_POWER": "0", "OBJECTID": "1354", "ZIP": "67344", "LONGITUDE": "-95.9501", "COUNTRY": "USA", "CERT_HP": "6283", "OP_DATE_PE": "Wed, 12 Feb 2020 00:00:00 GMT", "ADDRESS": "1166 HIGHWAY 160", "STATUS": "IN SERVICE", "LATITUDE": "37.320222", "EXP_OTHER": "132294", "COMPID": "43", "ZIP4": "NOT AVAILABLE", "PLANT_COST": "20871289", "COUNTYFIPS": "20125", "WEBSITE": "https://www.southernstar.com/", "OP_NUM_COM": "1", "GCOMPID": "GCOMP99", "STATE": "KS", "NAICS_DESC": "BOOSTER PUMPING STATION, NATURAL GAS TRANSPORTATION", "OP_COMP_HR": "300", "GAS_COMPRE": "16202", "TYPE": "NATURAL GAS COMPRESSOR STATION", "ELEC_COMPR": "0", "NAICS_CODE": "486210", "NAME": "416 ELK CITY", "POSREL": "NOTIONAL", "EXP_FUEL": "26643", "SOURCEDATE": "Wed, 15 Jul 2020 00:00:00 GMT"}, "geometry": {"type": "Point", "coordinates": [-95.9501, 37.320222]}},
{"type": "Feature", "properties": {"ProjectID": "P0253", "OBJECTID": "1133", "VAL_METHOD": "IMAGERY/OTHER", "NUM_UNITS": "3", "OPERATOR": "SOUTHERN STAR CENTRAL GAS PIPELINE INC.", "PIPECO": "SOUTHERN STAR CENTRAL GAS PIPELINE INC.", "LATITUDE": "37.585784260255203", "GAS_COMPRE": "140782", "EXP_POWER": "0", "COUNTRY": "USA", "ADDRESS": "6724 N AIR DEPOT BOULEVARD", "VAL_DATE": "Fri, 24 Jun 2022 00:00:00 GMT", "OP_DATE_PE": "Sun, 26 Jan 2020 00:00:00 GMT", "COUNTY": "OKLAHOMA", "COUNTYFIPS": "40109", "ZIP": "73034", "LONGITUDE": "-100.451060283522", "CITY": "EDMOND", "STATUS": "IN SERVICE", "PLANT_COST": "6013839", "GCOMPID": "GCOMP790", "COMPID": "43", "EXP_OTHER": "546601", "POSREL": "WITHIN 40 FEET", "STATE": "OK", "ZIP4": "NOT AVAILABLE", "SOURCE": "EPA ENVIROFACTS, FERC FORM 2, CORPORATE WEBSITE", "NAME": "535 EDMOND", "WEBSITE": "https://www.southernstar.com/", "OP_NUM_COM": "3", "NAICS_DESC": "BOOSTER PUMPING STATION, NATURAL GAS TRANSPORTATION", "CERT_HP": "4050", "TYPE": "NATURAL GAS COMPRESSOR STATION", "ELEC_COMPR": "0", "NAICS_CODE": "486210", "OP_COMP_HR": "13474", "SOURCEDATE": "Wed, 15 Jul 2020 00:00:00 GMT", "EXP_FUEL": "267505"}, "geometry": {"type": "Point", "coordinates": [-100.45106, 37.585784]}},
{"type": "Feature", "properties": {"ProjectID": "P0253", "NUM_UNITS": "1", "VAL_METHOD": "IMAGERY/OTHER", "NAME": "579 OGALLAH", "OPERATOR": "SOUTHERN STAR CENTRAL GAS PIPELINE INC.", "GAS_COMPRE": "87634", "GCOMPID": "GCOMP381", "PIPECO": "SOUTHERN STAR CENTRAL GAS PIPELINE INC.", "VAL_DATE": "Mon, 20 Jun 2022 00:00:00 GMT", "EXP_POWER": "0", "COUNTY": "TREGO", "ADDRESS": "23090 KS-147", "COUNTRY": "USA", "COUNTYFIPS": "20195", "LATITUDE": "38.928848", "OBJECTID": "681", "STATUS": "IN SERVICE", "COMPID": "43", "EXP_OTHER": "164102", "ZIP": "67656", "POSREL": "WITHIN 40 FEET", "ZIP4": "NOT AVAILABLE", "CERT_HP": "2400", "SOURCE": "EPA ENVIROFACTS, FERC FORM 2, CORPORATE WEBSITE", "WEBSITE": "https://www.southernstar.com/", "OP_NUM_COM": "1", "EXP_FUEL": "148856", "PLANT_COST": "6807443", "OP_DATE_PE": "Tue, 19 May 2020 00:00:00 GMT", "CITY": "OGALLAH", "STATE": "KS", "NAICS_DESC": "BOOSTER PUMPING STATION, NATURAL GAS TRANSPORTATION", "LONGITUDE": "-99.742073", "TYPE": "NATURAL GAS COMPRESSOR STATION", "ELEC_COMPR": "0", "NAICS_CODE": "486210", "OP_COMP_HR": "5324", "SOURCEDATE": "Wed, 15 Jul 2020 00:00:00 GMT"}, "geometry": {"type": "Point", "coordinates": [-99.742073, 38.928848]}},
{"type": "Feature", "properties": {"ProjectID": "P0253", "NUM_UNITS": "2", "VAL_METHOD": "IMAGERY/OTHER", "OPERATOR": "SOUTHERN STAR CENTRAL GAS PIPELINE INC.", "PIPECO": "SOUTHERN STAR CENTRAL GAS PIPELINE INC.", "VAL_DATE": "Mon, 20 Jun 2022 00:00:00 GMT", "EXP_POWER": "0", "LATITUDE": "36.963166946000001", "EXP_OTHER": "173537", "COUNTRY": "USA", "CERT_HP": "4000", "ZIP": "74022", "COUNTYFIPS": "40147", "PLANT_COST": "6555904", "ADDRESS": "16 25 MILE NE OF DEWEY", "STATUS": "IN SERVICE", "OP_DATE_PE": "Thu, 13 Feb 2020 00:00:00 GMT", "CITY": "COPAN", "EXP_FUEL": "21844", "GCOMPID": "GCOMP213", "COMPID": "43", "POSREL": "WITHIN 40 FEET", "STATE": "OK", "ZIP4": "NOT AVAILABLE", "SOURCE": "EPA ENVIROFACTS, FERC FORM 2, CORPORATE WEBSITE", "WEBSITE": "https://www.southernstar.com/", "OP_NUM_COM": "2", "OBJECTID": "495", "NAICS_DESC": "BOOSTER PUMPING STATION, NATURAL GAS TRANSPORTATION", "NAME": "523 COTTON VALLEY", "TYPE": "NATURAL GAS COMPRESSOR STATION", "ELEC_COMPR": "0", "LONGITUDE": "-95.859390857999998", "NAICS_CODE": "486210", "COUNTY": "WASHINGTON", "GAS_COMPRE": "11558", "OP_COMP_HR": "1048", "SOURCEDATE": "Wed, 15 Jul 2020 00:00:00 GMT"}, "geometry": {"type": "Point", "coordinates": [-95.859391, 36.963167]}},
{"type": "Feature", "properties": {"ProjectID": "P0253", "NAME": "529 UNITED", "COUNTY": "GRANT", "GCOMPID": "GCOMP126", "VAL_METHOD": "IMAGERY/OTHER", "ADDRESS": "12717 US-160", "OPERATOR": "SOUTHERN STAR CENTRAL GAS PIPELINE INC.", "PIPECO": "SOUTHERN STAR CENTRAL GAS PIPELINE INC.", "OP_COMP_HR": "0", "VAL_DATE": "Mon, 20 Jun 2022 00:00:00 GMT", "EXP_POWER": "0", "EXP_OTHER": "205489", "ZIP": "67880", "EXP_FUEL": "0", "COUNTRY": "USA", "CERT_HP": "4000", "LATITUDE": "37.557293332999997", "STATUS": "IN SERVICE", "OP_DATE_PE": "Mon, 02 Nov 2020 00:00:00 GMT", "COMPID": "43", "LONGITUDE": "-101.129747116", "CITY": "ULYSSES", "POSREL": "WITHIN 40 FEET", "GAS_COMPRE": "0", "ZIP4": "NOT AVAILABLE", "SOURCE": "EPA ENVIROFACTS, FERC FORM 2, CORPORATE WEBSITE", "WEBSITE": "https://www.southernstar.com/", "COUNTYFIPS": "20067", "STATE": "KS", "NAICS_DESC": "BOOSTER PUMPING STATION, NATURAL GAS TRANSPORTATION", "TYPE": "NATURAL GAS COMPRESSOR STATION", "NUM_UNITS": "6", "ELEC_COMPR": "0", "NAICS_CODE": "486210", "OBJECTID": "290", "SOURCEDATE": "Wed, 15 Jul 2020 00:00:00 GMT", "PLANT_COST": "-999", "OP_NUM_COM": "0"}, "geometry": {"type": "Point", "coordinates": [-101.129747, 37.557293]}},
{"type": "Feature", "properties": {"ProjectID": "P0253", "GCOMPID": "GCOMP784", "NUM_UNITS": "1", "VAL_METHOD": "IMAGERY/OTHER", "OPERATOR": "SOUTHERN STAR CENTRAL GAS PIPELINE INC.", "PIPECO": "SOUTHERN STAR CENTRAL GAS PIPELINE INC.", "VAL_DATE": "Mon, 20 Jun 2022 00:00:00 GMT", "EXP_POWER": "0", "EXP_FUEL": "125338", "COUNTRY": "USA", "ZIP": "80759", "LATITUDE": "40.218886001000001", "PLANT_COST": "4999007", "LONGITUDE": "-102.68692078799999", "CITY": "YUMA", "OP_DATE_PE": "Sun, 17 May 2020 00:00:00 GMT", "STATUS": "IN SERVICE", "COUNTYFIPS": "08125", "COMPID": "43", "POSREL": "WITHIN 40 FEET", "COUNTY": "YUMA", "ZIP4": "NOT AVAILABLE", "CERT_HP": "2400", "OBJECTID": "1126", "SOURCE": "EPA ENVIROFACTS, FERC FORM 2, CORPORATE WEBSITE", "NAME": "575 YUMA", "GAS_COMPRE": "75186", "WEBSITE": "https://www.southernstar.com/", "OP_NUM_COM": "1", "OP_COMP_HR": "3881", "ADDRESS": "6651 COUNTY ROAD 45", "NAICS_DESC": "BOOSTER PUMPING STATION, NATURAL GAS TRANSPORTATION", "EXP_OTHER": "194084", "STATE": "CO", "TYPE": "NATURAL GAS COMPRESSOR STATION", "ELEC_COMPR": "0", "NAICS_CODE": "486210", "SOURCEDATE": "Wed, 15 Jul 2020 00:00:00 GMT"}, "geometry": {"type": "Point", "coordinates": [-102.686921, 40.218886]}},
{"type": "Feature", "properties": {"ProjectID": "P0253", "CITY": "HUMBOLDT", "NUM_UNITS": "1", "VAL_METHOD": "IMAGERY/OTHER", "OPERATOR": "SOUTHERN STAR CENTRAL GAS PIPELINE INC.", "PIPECO": "SOUTHERN STAR CENTRAL GAS PIPELINE INC.", "EXP_OTHER": "66621", "VAL_DATE": "Mon, 20 Jun 2022 00:00:00 GMT", "EXP_POWER": "0", "LONGITUDE": "-95.486812123000007", "COUNTRY": "USA", "GCOMPID": "GCOMP748", "PLANT_COST": "4076182", "ADDRESS": "620 GEORGIA ROAD", "STATUS": "IN SERVICE", "OBJECTID": "1086", "COMPID": "43", "ZIP": "66748", "EXP_FUEL": "200801", "CERT_HP": "9300", "POSREL": "WITHIN 40 FEET", "SOURCE": "EPA ENVIROFACTS, FERC FORM 2, CORPORATE WEBSITE", "WEBSITE": "https://www.southernstar.com/", "OP_NUM_COM": "1", "GAS_COMPRE": "115855", "COUNTYFIPS": "20001", "NAME": "591 HUMBOLDT", "OP_COMP_HR": "1241", "STATE": "KS", "LATITUDE": "37.813864741000003", "NAICS_DESC": "BOOSTER PUMPING STATION, NATURAL GAS TRANSPORTATION", "COUNTY": "ALLEN", "TYPE": "NATURAL GAS COMPRESSOR STATION", "OP_DATE_PE": "Tue, 04 Feb 2020 00:00:00 GMT", "ELEC_COMPR": "0", "ZIP4": "1212", "NAICS_CODE": "486210", "SOURCEDATE": "Wed, 15 Jul 2020 00:00:00 GMT"}, "geometry": {"type": "Point", "coordinates": [-95.486812, 37.813865]}},
{"type": "Feature", "properties": {"ProjectID": "P0253", "LONGITUDE": "-100.48035", "NUM_UNITS": "1", "VAL_METHOD": "IMAGERY/OTHER", "OPERATOR": "SOUTHERN STAR CENTRAL GAS PIPELINE INC.", "COUNTY": "SHERIDAN", "GAS_COMPRE": "50155", "PIPECO": "SOUTHERN STAR CENTRAL GAS PIPELINE INC.", "VAL_DATE": "Mon, 20 Jun 2022 00:00:00 GMT", "EXP_POWER": "0", "ADDRESS": "6135 S ROAD 20 W", "ZIP": "67740", "PLANT_COST": "4609125", "NAME": "578 HOXIE", "COUNTYFIPS": "20179", "COUNTRY": "USA", "LATITUDE": "39.276301", "GCOMPID": "GCOMP744", "STATUS": "IN SERVICE", "COMPID": "43", "OBJECTID": "1082", "POSREL": "WITHIN 40 FEET", "CITY": "HOXIE", "ZIP4": "NOT AVAILABLE", "CERT_HP": "2400", "SOURCE": "EPA ENVIROFACTS, FERC FORM 2, CORPORATE WEBSITE", "WEBSITE": "https://www.southernstar.com/", "OP_NUM_COM": "1", "OP_COMP_HR": "3121", "OP_DATE_PE": "Tue, 19 May 2020 00:00:00 GMT", "EXP_OTHER": "206958", "STATE": "KS", "NAICS_DESC": "BOOSTER PUMPING STATION, NATURAL GAS TRANSPORTATION", "EXP_FUEL": "79330", "TYPE": "NATURAL GAS COMPRESSOR STATION", "ELEC_COMPR": "0", "NAICS_CODE": "486210", "SOURCEDATE": "Wed, 15 Jul 2020 00:00:00 GMT"}, "geometry": {"type": "Point", "coordinates": [-100.48035, 39.276301]}},
{"type": "Feature", "properties": {"ProjectID": "P0253", "VAL_METHOD": "IMAGERY/OTHER", "NUM_UNITS": "3", "OPERATOR": "SOUTHERN STAR CENTRAL GAS PIPELINE INC.", "PIPECO": "SOUTHERN STAR CENTRAL GAS PIPELINE INC.", "VAL_DATE": "Mon, 20 Jun 2022 00:00:00 GMT", "EXP_POWER": "0", "ADDRESS": "51970 W. 86TH STREET SOUTH", "PLANT_COST": "4535601", "CITY": "DRUMRIGHT", "NAME": "514 DRUMRIGHT", "COUNTRY": "USA", "OP_COMP_HR": "3571", "OP_DATE_PE": "Wed, 15 Jul 2020 00:00:00 GMT", "ZIP4": "5943", "STATUS": "IN SERVICE", "GCOMPID": "GCOMP676", "COMPID": "43", "OBJECTID": "1006", "COUNTY": "CREEK", "POSREL": "WITHIN 40 FEET", "STATE": "OK", "EXP_FUEL": "18856", "EXP_OTHER": "208532", "SOURCE": "EPA ENVIROFACTS, FERC FORM 2, CORPORATE WEBSITE", "LATITUDE": "36.038632676", "WEBSITE": "https://www.southernstar.com/", "LONGITUDE": "-96.574767042999994", "OP_NUM_COM": "2", "CERT_HP": "2475", "NAICS_DESC": "BOOSTER PUMPING STATION, NATURAL GAS TRANSPORTATION", "GAS_COMPRE": "9624", "ZIP": "74030", "TYPE": "NATURAL GAS COMPRESSOR STATION", "ELEC_COMPR": "0", "COUNTYFIPS": "40037", "NAICS_CODE": "486210", "SOURCEDATE": "Wed, 15 Jul 2020 00:00:00 GMT"}, "geometry": {"type": "Point", "coordinates": [-96.574767, 36.038633]}},
{"type": "Feature", "properties": {"ProjectID": "P0253", "CITY": "BLACKWELL", "VAL_METHOD": "IMAGERY/OTHER", "OPERATOR": "SOUTHERN STAR CENTRAL GAS PIPELINE INC.", "EXP_OTHER": "1128252", "LONGITUDE": "-97.300372718999995", "PIPECO": "SOUTHERN STAR CENTRAL GAS PIPELINE INC.", "CERT_HP": "8400", "COUNTYFIPS": "40071", "VAL_DATE": "Mon, 20 Jun 2022 00:00:00 GMT", "EXP_POWER": "0", "LATITUDE": "36.825483257000002", "EXP_FUEL": "1032351", "COUNTRY": "USA", "ADDRESS": "1600 N 13TH STREET", "OP_DATE_PE": "Sat, 18 Apr 2020 00:00:00 GMT", "OP_COMP_HR": "16430", "STATUS": "IN SERVICE", "COUNTY": "KAY", "COMPID": "43", "GAS_COMPRE": "559759", "NAME": "511 BLACKWELL", "POSREL": "WITHIN 40 FEET", "STATE": "OK", "ZIP4": "NOT AVAILABLE", "SOURCE": "EPA ENVIROFACTS, FERC FORM 2, CORPORATE WEBSITE", "WEBSITE": "https://www.southernstar.com/", "OP_NUM_COM": "3", "OBJECTID": "497", "NAICS_DESC": "BOOSTER PUMPING STATION, NATURAL GAS TRANSPORTATION", "GCOMPID": "GCOMP215", "TYPE": "NATURAL GAS COMPRESSOR STATION", "ELEC_COMPR": "0", "NAICS_CODE": "486210", "NUM_UNITS": "5", "PLANT_COST": "53451612", "ZIP": "74631", "SOURCEDATE": "Wed, 15 Jul 2020 00:00:00 GMT"}, "geometry": {"type": "Point", "coordinates": [-97.300373, 36.825483]}},
{"type": "Feature", "properties": {"ProjectID": "P0253", "NUM_UNITS": "4", "EXP_FUEL": "32", "OBJECTID": "2286", "VAL_METHOD": "IMAGERY/OTHER", "GCOMPID": "GCOMP2289", "OP_COMP_HR": "0", "EXP_POWER": "0", "LONGITUDE": "-98.756105", "EXP_OTHER": "311780", "COMPID": "NOT AVAILABLE", "PLANT_COST": "4433323", "NAME": "NORTH ALVA COMPRESOR STATION (SOUTHERN STAR)", "COUNTRY": "USA", "SOURCEDATE": "Wed, 22 Jun 2022 00:00:00 GMT", "GAS_COMPRE": "15", "STATUS": "IN SERVICE", "ZIP": "73717", "POSREL": "WITHIN 40 FEET", "ADDRESS": "NW OF ROADS E0110 AND N2390", "STATE": "OK", "COUNTY": "WOODS", "SOURCE": "EPA ENVIROFACTS, FERC FORM 2, NPMS, IMAGERY", "ZIP4": "NOT AVAILABLE", "OPERATOR": "SOUTHERN STAR CENTRAL GAS PIPELINE, INC.", "CERT_HP": "6900", "WEBSITE": "https://www.southernstar.com/", "OP_DATE_PE": "Thu, 31 Dec 2020 00:00:00 GMT", "PIPECO": "SOUTHERN STAR CENTRAL GAS PIPELINE, INC.", "COUNTYFIPS": "40151", "NAICS_DESC": "BOOSTER PUMPING STATION, NATURAL GAS TRANSPORTATION", "VAL_DATE": "Sat, 25 Jun 2022 00:00:00 GMT", "TYPE": "NATURAL GAS COMPRESSOR STATION", "ELEC_COMPR": "0", "CITY": "ALVA", "LATITUDE": "36.8563", "NAICS_CODE": "486210", "OP_NUM_COM": "0"}, "geometry": {"type": "Point", "coordinates": [-98.756105, 36.8563]}},
{"type": "Feature", "properties": {"ProjectID": "P0253", "NUM_UNITS": "1", "VAL_METHOD": "IMAGERY/OTHER", "OPERATOR": "SOUTHERN STAR CENTRAL GAS PIPELINE INC.", "PIPECO": "SOUTHERN STAR CENTRAL GAS PIPELINE INC.", "ADDRESS": "1775 E \"M\" AVENUE", "LONGITUDE": "-98.170342375999994", "VAL_DATE": "Mon, 20 Jun 2022 00:00:00 GMT", "EXP_POWER": "0", "OBJECTID": "539", "OP_DATE_PE": "Mon, 06 Apr 2020 00:00:00 GMT", "PLANT_COST": "3292574", "COUNTRY": "USA", "EXP_FUEL": "83113", "COUNTY": "RICE", "OP_COMP_HR": "2924", "NAME": "431 LYONS", "STATUS": "IN SERVICE", "COUNTYFIPS": "20159", "COMPID": "43", "GCOMPID": "GCOMP253", "POSREL": "WITHIN 40 FEET", "GAS_COMPRE": "46119", "ZIP4": "NOT AVAILABLE", "CERT_HP": "2400", "SOURCE": "EPA ENVIROFACTS, FERC FORM 2, CORPORATE WEBSITE", "ZIP": "67554", "WEBSITE": "https://www.southernstar.com/", "OP_NUM_COM": "1", "LATITUDE": "38.348586406000003", "CITY": "LYONS", "STATE": "KS", "NAICS_DESC": "BOOSTER PUMPING STATION, NATURAL GAS TRANSPORTATION", "EXP_OTHER": "141576", "TYPE": "NATURAL GAS COMPRESSOR STATION", "ELEC_COMPR": "0", "NAICS_CODE": "486210", "SOURCEDATE": "Wed, 15 Jul 2020 00:00:00 GMT"}, "geometry": {"type": "Point", "coordinates": [-98.170342, 38.348586]}},
{"type": "Feature", "properties": {"ProjectID": "P0253", "LATITUDE": "38.147133932000003", "VAL_METHOD": "IMAGERY/OTHER", "OPERATOR": "SOUTHERN STAR CENTRAL GAS PIPELINE INC.", "OBJECTID": "1195", "PIPECO": "SOUTHERN STAR CENTRAL GAS PIPELINE INC.", "VAL_DATE": "Mon, 20 Jun 2022 00:00:00 GMT", "EXP_POWER": "0", "PLANT_COST": "10746964", "CERT_HP": "11100", "COUNTY": "HARVEY", "COUNTYFIPS": "20079", "COUNTRY": "USA", "ZIP": "67062", "GCOMPID": "GCOMP846", "STATUS": "IN SERVICE", "GAS_COMPRE": "179852", "COMPID": "43", "CITY": "HESSTON", "ADDRESS": "7616 WEST DUTCH AVENUE", "POSREL": "WITHIN 40 FEET", "OP_DATE_PE": "Fri, 08 May 2020 00:00:00 GMT", "SOURCE": "EPA ENVIROFACTS, FERC FORM 2, CORPORATE WEBSITE", "WEBSITE": "https://www.southernstar.com/", "OP_COMP_HR": "15739", "NAME": "536 HESSTON", "LONGITUDE": "-97.453462501999994", "OP_NUM_COM": "6", "EXP_OTHER": "661550", "STATE": "KS", "NAICS_DESC": "BOOSTER PUMPING STATION, NATURAL GAS TRANSPORTATION", "EXP_FUEL": "293299", "ZIP4": "9234", "TYPE": "NATURAL GAS COMPRESSOR STATION", "ELEC_COMPR": "0", "NAICS_CODE": "486210", "NUM_UNITS": "8", "SOURCEDATE": "Wed, 15 Jul 2020 00:00:00 GMT"}, "geometry": {"type": "Point", "coordinates": [-97.453463, 38.147134]}},
{"type": "Feature", "properties": {"ProjectID": "P0253", "NUM_UNITS": "4", "EXP_FUEL": "32", "VAL_METHOD": "IMAGERY/OTHER", "OPERATOR": "SOUTHERN STAR CENTRAL GAS PIPELINE INC.", "ADDRESS": "31465 US-281", "PIPECO": "SOUTHERN STAR CENTRAL GAS PIPELINE INC.", "OP_COMP_HR": "0", "VAL_DATE": "Mon, 20 Jun 2022 00:00:00 GMT", "EXP_POWER": "0", "NAME": "556 ALVA", "EXP_OTHER": "311780", "PLANT_COST": "4433323", "LATITUDE": "36.863838895000001", "LONGITUDE": "-98.649330429000003", "COUNTRY": "USA", "GAS_COMPRE": "15", "STATUS": "IN SERVICE", "ZIP4": "9801", "GCOMPID": "GCOMP498", "COMPID": "43", "ZIP": "73717", "POSREL": "WITHIN 40 FEET", "STATE": "OK", "COUNTY": "WOODS", "SOURCE": "EPA ENVIROFACTS, FERC FORM 2, CORPORATE WEBSITE", "CERT_HP": "6900", "WEBSITE": "https://www.southernstar.com/", "OBJECTID": "810", "OP_DATE_PE": "Thu, 31 Dec 2020 00:00:00 GMT", "COUNTYFIPS": "40151", "NAICS_DESC": "BOOSTER PUMPING STATION, NATURAL GAS TRANSPORTATION", "TYPE": "NATURAL GAS COMPRESSOR STATION", "ELEC_COMPR": "0", "CITY": "ALVA", "NAICS_CODE": "486210", "SOURCEDATE": "Wed, 15 Jul 2020 00:00:00 GMT", "OP_NUM_COM": "0"}, "geometry": {"type": "Point", "coordinates": [-98.64933, 36.863839]}},
{"type": "Feature", "properties": {"ProjectID": "P0253", "NUM_UNITS": "1", "GAS_COMPRE": "100664", "VAL_METHOD": "IMAGERY/OTHER", "EXP_OTHER": "303410", "OPERATOR": "SOUTHERN STAR CENTRAL GAS PIPELINE INC.", "OBJECTID": "1151", "PLANT_COST": "4549058", "OP_COMP_HR": "5681", "LATITUDE": "40.990478054999997", "NAME": "573 CHEYENNE", "PIPECO": "SOUTHERN STAR CENTRAL GAS PIPELINE INC.", "VAL_DATE": "Mon, 20 Jun 2022 00:00:00 GMT", "EXP_POWER": "0", "OP_DATE_PE": "Wed, 20 May 2020 00:00:00 GMT", "GCOMPID": "GCOMP806", "COUNTRY": "USA", "ADDRESS": "68604 I-25 ACCESS ROAD", "STATUS": "IN SERVICE", "COUNTYFIPS": "08123", "LONGITUDE": "-104.90808184", "COMPID": "43", "CITY": "CARR", "ZIP": "80612", "POSREL": "WITHIN 40 FEET", "ZIP4": "NOT AVAILABLE", "CERT_HP": "2400", "SOURCE": "EPA ENVIROFACTS, FERC FORM 2, CORPORATE WEBSITE", "EXP_FUEL": "174031", "WEBSITE": "https://www.southernstar.com/", "OP_NUM_COM": "1", "COUNTY": "WELD", "NAICS_DESC": "BOOSTER PUMPING STATION, NATURAL GAS TRANSPORTATION", "STATE": "CO", "TYPE": "NATURAL GAS COMPRESSOR STATION", "ELEC_COMPR": "0", "NAICS_CODE": "486210", "SOURCEDATE": "Wed, 15 Jul 2020 00:00:00 GMT"}, "geometry": {"type": "Point", "coordinates": [-104.908082, 40.990478]}},
{"type": "Feature", "properties": {"ProjectID": "P0253", "NUM_UNITS": "2", "COUNTY": "GRANT", "NAME": "543 WAKITA", "VAL_METHOD": "IMAGERY/OTHER", "OPERATOR": "SOUTHERN STAR CENTRAL GAS PIPELINE INC.", "OBJECTID": "819", "PIPECO": "SOUTHERN STAR CENTRAL GAS PIPELINE INC.", "EXP_FUEL": "8409", "EXP_POWER": "0", "COUNTRY": "USA", "CERT_HP": "4000", "EXP_OTHER": "196337", "GCOMPID": "GCOMP505", "VAL_DATE": "Fri, 24 Jun 2022 00:00:00 GMT", "LATITUDE": "36.866571350426398", "ZIP": "73771", "STATUS": "IN SERVICE", "OP_DATE_PE": "Thu, 13 Feb 2020 00:00:00 GMT", "COMPID": "43", "POSREL": "WITHIN 40 FEET", "STATE": "OK", "ADDRESS": "31897 OK-11A; 1 MILE S OF WAKITA ON 11A", "ZIP4": "NOT AVAILABLE", "SOURCE": "EPA ENVIROFACTS, FERC FORM 2, CORPORATE WEBSITE", "WEBSITE": "https://www.southernstar.com/", "OP_NUM_COM": "2", "PLANT_COST": "5071035", "CITY": "WAKITA", "LONGITUDE": "-97.930749188102197", "COUNTYFIPS": "40053", "NAICS_DESC": "BOOSTER PUMPING STATION, NATURAL GAS TRANSPORTATION", "OP_COMP_HR": "322", "TYPE": "NATURAL GAS COMPRESSOR STATION", "ELEC_COMPR": "0", "NAICS_CODE": "486210", "SOURCEDATE": "Wed, 15 Jul 2020 00:00:00 GMT", "GAS_COMPRE": "4936"}, "geometry": {"type": "Point", "coordinates": [-97.930749, 36.866571]}},
{"type": "Feature", "properties": {"ProjectID": "P0253", "NUM_UNITS": "1", "VAL_METHOD": "IMAGERY/OTHER", "OPERATOR": "SOUTHERN STAR CENTRAL GAS PIPELINE INC.", "LONGITUDE": "-101.93744415", "PIPECO": "SOUTHERN STAR CENTRAL GAS PIPELINE INC.", "VAL_DATE": "Mon, 20 Jun 2022 00:00:00 GMT", "EXP_POWER": "0", "EXP_FUEL": "74196", "COUNTRY": "USA", "PLANT_COST": "4498470", "STATUS": "IN SERVICE", "OP_COMP_HR": "2787", "CITY": "SAINT FRANCIS", "COMPID": "43", "LATITUDE": "39.927247887999997", "COUNTY": "CHEYENNE", "POSREL": "WITHIN 40 FEET", "ZIP": "67756", "ZIP4": "NOT AVAILABLE", "CERT_HP": "2400", "GAS_COMPRE": "46934", "SOURCE": "EPA ENVIROFACTS, FERC FORM 2, CORPORATE WEBSITE", "WEBSITE": "https://www.southernstar.com/", "OP_NUM_COM": "1", "NAME": "576 SAINT FRANCIS", "COUNTYFIPS": "20023", "EXP_OTHER": "152424", "OP_DATE_PE": "Tue, 19 May 2020 00:00:00 GMT", "STATE": "KS", "NAICS_DESC": "BOOSTER PUMPING STATION, NATURAL GAS TRANSPORTATION", "GCOMPID": "GCOMP1133", "OBJECTID": "150", "TYPE": "NATURAL GAS COMPRESSOR STATION", "ELEC_COMPR": "0", "NAICS_CODE": "486210", "ADDRESS": "KS-27", "SOURCEDATE": "Wed, 15 Jul 2020 00:00:00 GMT"}, "geometry": {"type": "Point", "coordinates": [-101.937444, 39.927248]}},
{"type": "Feature", "properties": {"ProjectID": "P0253", "SOURCE": "FERC FORM 2, IMAGERY", "NUM_UNITS": "1", "VAL_METHOD": "IMAGERY/OTHER", "OPERATOR": "SOUTHERN STAR CENTRAL GAS PIPELINE INC.", "ZIP": "66015", "PIPECO": "SOUTHERN STAR CENTRAL GAS PIPELINE INC.", "VAL_DATE": "Mon, 20 Jun 2022 00:00:00 GMT", "EXP_OTHER": "40353", "EXP_POWER": "0", "EXP_FUEL": "417166", "CITY": "COLONY", "COUNTRY": "USA", "GCOMPID": "GCOMP1366", "GAS_COMPRE": "150450", "STATUS": "IN SERVICE", "LONGITUDE": "-95.407921", "COMPID": "43", "OP_COMP_HR": "1949", "POSREL": "WITHIN 40 FEET", "OBJECTID": "408", "ZIP4": "NOT AVAILABLE", "WEBSITE": "https://www.southernstar.com/", "OP_NUM_COM": "1", "COUNTYFIPS": "20003", "OP_DATE_PE": "Mon, 23 Mar 2020 00:00:00 GMT", "COUNTY": "ANDERSON", "LATITUDE": "38.038725", "STATE": "KS", "NAICS_DESC": "BOOSTER PUMPING STATION, NATURAL GAS TRANSPORTATION", "CERT_HP": "220", "PLANT_COST": "2016588", "NAME": "413 WEST COLONY", "ADDRESS": "WYOMING ROAD/1400TH STREET", "TYPE": "NATURAL GAS COMPRESSOR STATION", "ELEC_COMPR": "0", "NAICS_CODE": "486210", "SOURCEDATE": "Wed, 15 Jul 2020 00:00:00 GMT"}, "geometry": {"type": "Point", "coordinates": [-95.407921, 38.038725]}},
{"type": "Feature", "properties": {"ProjectID": "P0253", "SOURCE": "FERC FORM 2, IMAGERY", "NUM_UNITS": "1", "PLANT_COST": "4768348", "VAL_METHOD": "IMAGERY/OTHER", "OPERATOR": "SOUTHERN STAR CENTRAL GAS PIPELINE INC.", "OP_COMP_HR": "6908", "PIPECO": "SOUTHERN STAR CENTRAL GAS PIPELINE INC.", "ZIP": "67745", "VAL_DATE": "Mon, 20 Jun 2022 00:00:00 GMT", "EXP_POWER": "0", "COUNTRY": "USA", "COUNTYFIPS": "20153", "OBJECTID": "320", "CITY": "MCDONALD", "EXP_FUEL": "220420", "GCOMPID": "GCOMP1287", "STATUS": "IN SERVICE", "ADDRESS": "S24-T5S-R35W", "COMPID": "43", "POSREL": "WITHIN 40 FEET", "ZIP4": "NOT AVAILABLE", "CERT_HP": "2400", "LATITUDE": "39.610761", "WEBSITE": "https://www.southernstar.com/", "OP_NUM_COM": "1", "NAME": "577 LEVANT", "OP_DATE_PE": "Tue, 19 May 2020 00:00:00 GMT", "STATE": "KS", "LONGITUDE": "-101.204617", "NAICS_DESC": "BOOSTER PUMPING STATION, NATURAL GAS TRANSPORTATION", "COUNTY": "RAWLINS", "TYPE": "NATURAL GAS COMPRESSOR STATION", "ELEC_COMPR": "0", "NAICS_CODE": "486210", "EXP_OTHER": "216656", "GAS_COMPRE": "124979", "SOURCEDATE": "Wed, 15 Jul 2020 00:00:00 GMT"}, "geometry": {"type": "Point", "coordinates": [-101.204617, 39.610761]}},
{"type": "Feature", "properties": {"ProjectID": "P0253", "EXP_FUEL": "3491", "SOURCE": "FERC FORM 2, IMAGERY", "NUM_UNITS": "1", "OBJECTID": "1099", "VAL_METHOD": "IMAGERY/OTHER", "OPERATOR": "SOUTHERN STAR CENTRAL GAS PIPELINE INC.", "OP_DATE_PE": "Tue, 14 Jul 2020 00:00:00 GMT", "ZIP": "82083", "PIPECO": "SOUTHERN STAR CENTRAL GAS PIPELINE INC.", "VAL_DATE": "Mon, 20 Jun 2022 00:00:00 GMT", "EXP_POWER": "0", "CERT_HP": "3950", "NAME": "572 ARLINGTON", "COUNTRY": "USA", "COUNTY": "CARBON", "LONGITUDE": "-106.206526", "STATUS": "IN SERVICE", "OP_COMP_HR": "50", "GAS_COMPRE": "2248", "LATITUDE": "41.606935", "COUNTYFIPS": "56007", "EXP_OTHER": "108621", "COMPID": "43", "POSREL": "WITHIN 40 FEET", "ZIP4": "NOT AVAILABLE", "ADDRESS": "1108 WY-13", "WEBSITE": "https://www.southernstar.com/", "OP_NUM_COM": "1", "STATE": "WY", "GCOMPID": "GCOMP76", "NAICS_DESC": "BOOSTER PUMPING STATION, NATURAL GAS TRANSPORTATION", "TYPE": "NATURAL GAS COMPRESSOR STATION", "PLANT_COST": "3870179", "ELEC_COMPR": "0", "CITY": "ROCK RIVER", "NAICS_CODE": "486210", "SOURCEDATE": "Wed, 15 Jul 2020 00:00:00 GMT"}, "geometry": {"type": "Point", "coordinates": [-106.206526, 41.606935]}},
{"type": "Feature", "properties": {"ProjectID": "P0253", "GAS_COMPRE": "57762", "NUM_UNITS": "1", "VAL_METHOD": "IMAGERY/OTHER", "COUNTY": "JACKSON", "OPERATOR": "SOUTHERN STAR CENTRAL GAS PIPELINE INC.", "PLANT_COST": "2707447", "ADDRESS": "14019 SOUTH HUTT ROAD", "GCOMPID": "GCOMP160", "COUNTYFIPS": "29095", "PIPECO": "SOUTHERN STAR CENTRAL GAS PIPELINE INC.", "VAL_DATE": "Mon, 20 Jun 2022 00:00:00 GMT", "EXP_POWER": "0", "CERT_HP": "1400", "ZIP": "64070", "CITY": "LONE JACK", "COUNTRY": "USA", "LATITUDE": "38.860731162", "EXP_FUEL": "113366", "STATUS": "IN SERVICE", "OP_DATE_PE": "Thu, 24 Dec 2020 00:00:00 GMT", "COMPID": "43", "NAME": "553 LONE JACK", "POSREL": "WITHIN 40 FEET", "SOURCE": "EPA ENVIROFACTS, FERC FORM 2, CORPORATE WEBSITE", "WEBSITE": "https://www.southernstar.com/", "OP_NUM_COM": "1", "OBJECTID": "436", "STATE": "MO", "OP_COMP_HR": "4510", "ZIP4": "8140", "NAICS_DESC": "BOOSTER PUMPING STATION, NATURAL GAS TRANSPORTATION", "EXP_OTHER": "60163", "TYPE": "NATURAL GAS COMPRESSOR STATION", "ELEC_COMPR": "0", "NAICS_CODE": "486210", "LONGITUDE": "-94.191358582000007", "SOURCEDATE": "Wed, 15 Jul 2020 00:00:00 GMT"}, "geometry": {"type": "Point", "coordinates": [-94.191359, 38.860731]}},
{"type": "Feature", "properties": {"ProjectID": "P0253", "SOURCE": "FERC FORM 2, IMAGERY", "VAL_METHOD": "IMAGERY/OTHER", "NUM_UNITS": "3", "EXP_FUEL": "20700", "OPERATOR": "SOUTHERN STAR CENTRAL GAS PIPELINE INC.", "PLANT_COST": "4440972", "PIPECO": "SOUTHERN STAR CENTRAL GAS PIPELINE INC.", "VAL_DATE": "Mon, 20 Jun 2022 00:00:00 GMT", "EXP_POWER": "0", "OBJECTID": "1257", "NAME": "557 STAFFORD", "COUNTRY": "USA", "ADDRESS": "902 SOUTHEAST 60TH STREET", "OP_COMP_HR": "430", "CERT_HP": "6000", "GCOMPID": "GCOMP901", "STATUS": "IN SERVICE", "LATITUDE": "37.866895", "GAS_COMPRE": "12119", "COMPID": "43", "EXP_OTHER": "69148", "ZIP": "67578", "POSREL": "WITHIN 40 FEET", "ZIP4": "NOT AVAILABLE", "COUNTY": "STAFFORD", "WEBSITE": "https://www.southernstar.com/", "CITY": "STAFFORD", "OP_NUM_COM": "2", "COUNTYFIPS": "20185", "STATE": "KS", "NAICS_DESC": "BOOSTER PUMPING STATION, NATURAL GAS TRANSPORTATION", "TYPE": "NATURAL GAS COMPRESSOR STATION", "ELEC_COMPR": "0", "LONGITUDE": "-98.579023", "NAICS_CODE": "486210", "OP_DATE_PE": "Thu, 23 Apr 2020 00:00:00 GMT", "SOURCEDATE": "Wed, 15 Jul 2020 00:00:00 GMT"}, "geometry": {"type": "Point", "coordinates": [-98.579023, 37.866895]}},
{"type": "Feature", "properties": {"ProjectID": "P0253", "NAME": "583 OTIS", "SOURCE": "FERC FORM 2, IMAGERY", "NUM_UNITS": "1", "ADDRESS": "COUNTY ROAD 390; S11-T17S-R16W", "VAL_METHOD": "IMAGERY/OTHER", "OPERATOR": "SOUTHERN STAR CENTRAL GAS PIPELINE INC.", "COUNTY": "RUSH", "EXP_FUEL": "106694", "PIPECO": "SOUTHERN STAR CENTRAL GAS PIPELINE INC.", "VAL_DATE": "Mon, 20 Jun 2022 00:00:00 GMT", "EXP_POWER": "0", "ZIP": "67565", "COUNTRY": "USA", "OBJECTID": "4", "GCOMPID": "GCOMP1000", "GAS_COMPRE": "64055", "STATUS": "IN SERVICE", "LONGITUDE": "-99.052273971999995", "COMPID": "43", "OP_COMP_HR": "3907", "POSREL": "WITHIN 40 FEET", "ZIP4": "NOT AVAILABLE", "CERT_HP": "2400", "WEBSITE": "https://www.southernstar.com/", "OP_NUM_COM": "1", "CITY": "OTIS", "COUNTYFIPS": "20165", "OP_DATE_PE": "Tue, 19 May 2020 00:00:00 GMT", "STATE": "KS", "NAICS_DESC": "BOOSTER PUMPING STATION, NATURAL GAS TRANSPORTATION", "EXP_OTHER": "148808", "LATITUDE": "38.584358049000002", "TYPE": "NATURAL GAS COMPRESSOR STATION", "PLANT_COST": "4097471", "ELEC_COMPR": "0", "NAICS_CODE": "486210", "SOURCEDATE": "Wed, 15 Jul 2020 00:00:00 GMT"}, "geometry": {"type": "Point", "coordinates": [-99.052274, 38.584358]}},
{"type": "Feature", "properties": {"ProjectID": "P0253", "LONGITUDE": "-97.477908515806902", "NUM_UNITS": "1", "COUNTY": "GRANT", "LATITUDE": "36.853719180726699", "VAL_METHOD": "IMAGERY/OTHER", "OPERATOR": "SOUTHERN STAR CENTRAL GAS PIPELINE INC.", "CITY": "DEER CREEK", "PIPECO": "SOUTHERN STAR CENTRAL GAS PIPELINE INC.", "EXP_POWER": "0", "EXP_OTHER": "332990", "ADDRESS": "110146 JOHNSTON ROAD; JOHNSTON ROAD 31K", "NAME": "432 WEBB", "OP_DATE_PE": "Sat, 09 May 2020 00:00:00 GMT", "COUNTRY": "USA", "VAL_DATE": "Fri, 24 Jun 2022 00:00:00 GMT", "GAS_COMPRE": "88049", "STATUS": "IN SERVICE", "OBJECTID": "1066", "COMPID": "43", "POSREL": "WITHIN 40 FEET", "STATE": "OK", "ZIP4": "NOT AVAILABLE", "CERT_HP": "2400", "SOURCE": "EPA ENVIROFACTS, FERC FORM 2, CORPORATE WEBSITE", "GCOMPID": "GCOMP73", "WEBSITE": "https://www.southernstar.com/", "OP_NUM_COM": "1", "ZIP": "74636", "COUNTYFIPS": "40053", "NAICS_DESC": "BOOSTER PUMPING STATION, NATURAL GAS TRANSPORTATION", "PLANT_COST": "6774980", "TYPE": "NATURAL GAS COMPRESSOR STATION", "EXP_FUEL": "146270", "ELEC_COMPR": "0", "NAICS_CODE": "486210", "SOURCEDATE": "Wed, 15 Jul 2020 00:00:00 GMT", "OP_COMP_HR": "3886"}, "geometry": {"type": "Point", "coordinates": [-97.477909, 36.853719]}},
{"type": "Feature", "properties": {"ProjectID": "P0253", "VAL_METHOD": "IMAGERY/OTHER", "GCOMPID": "GCOMP141", "OPERATOR": "SOUTHERN STAR CENTRAL GAS PIPELINE INC.", "PIPECO": "SOUTHERN STAR CENTRAL GAS PIPELINE INC.", "VAL_DATE": "Mon, 20 Jun 2022 00:00:00 GMT", "EXP_POWER": "0", "EXP_FUEL": "1533706", "COUNTRY": "USA", "GAS_COMPRE": "843209", "EXP_OTHER": "777314", "OP_COMP_HR": "32922", "PLANT_COST": "28109728", "STATUS": "IN SERVICE", "LATITUDE": "37.167632222999998", "OP_DATE_PE": "Thu, 24 Sep 2020 00:00:00 GMT", "COMPID": "43", "LONGITUDE": "-101.327728974", "ZIP": "67951", "CERT_HP": "19489", "POSREL": "WITHIN 40 FEET", "ZIP4": "NOT AVAILABLE", "SOURCE": "EPA ENVIROFACTS, FERC FORM 2, CORPORATE WEBSITE", "OBJECTID": "415", "WEBSITE": "https://www.southernstar.com/", "COUNTYFIPS": "20189", "OP_NUM_COM": "5", "ADDRESS": "1338 S CEMETERY ROAD", "CITY": "HUGOTON", "STATE": "KS", "NAICS_DESC": "BOOSTER PUMPING STATION, NATURAL GAS TRANSPORTATION", "NAME": "518 HUGOTON", "TYPE": "NATURAL GAS COMPRESSOR STATION", "COUNTY": "STEVENS", "NUM_UNITS": "6", "ELEC_COMPR": "0", "NAICS_CODE": "486210", "SOURCEDATE": "Wed, 15 Jul 2020 00:00:00 GMT"}, "geometry": {"type": "Point", "coordinates": [-101.327729, 37.167632]}},
{"type": "Feature", "properties": {"ProjectID": "P0253", "NUM_UNITS": "1", "OBJECTID": "1231", "VAL_METHOD": "IMAGERY/OTHER", "OPERATOR": "SOUTHERN STAR CENTRAL GAS PIPELINE INC.", "GAS_COMPRE": "2752", "COUNTYFIPS": "08075", "ZIP": "80741", "PIPECO": "SOUTHERN STAR CENTRAL GAS PIPELINE INC.", "VAL_DATE": "Mon, 20 Jun 2022 00:00:00 GMT", "EXP_POWER": "0", "OP_DATE_PE": "Wed, 20 May 2020 00:00:00 GMT", "CERT_HP": "3950", "COUNTRY": "USA", "ADDRESS": "8426 COUNTY ROAD 6", "NAME": "574 MERINO", "EXP_OTHER": "76920", "STATUS": "IN SERVICE", "COMPID": "43", "PLANT_COST": "4822322", "LONGITUDE": "-103.41832266599999", "POSREL": "WITHIN 40 FEET", "CITY": "MERINO", "ZIP4": "NOT AVAILABLE", "LATITUDE": "40.463370161999997", "EXP_FUEL": "4912", "SOURCE": "EPA ENVIROFACTS, FERC FORM 2, CORPORATE WEBSITE", "WEBSITE": "https://www.southernstar.com/", "OP_NUM_COM": "1", "GCOMPID": "GCOMP879", "NAICS_DESC": "BOOSTER PUMPING STATION, NATURAL GAS TRANSPORTATION", "OP_COMP_HR": "46", "STATE": "CO", "TYPE": "NATURAL GAS COMPRESSOR STATION", "ELEC_COMPR": "0", "NAICS_CODE": "486210", "COUNTY": "LOGAN", "SOURCEDATE": "Wed, 15 Jul 2020 00:00:00 GMT"}, "geometry": {"type": "Point", "coordinates": [-103.418323, 40.46337]}}
]
}
