{
"type": "FeatureCollection",
"features": [
{"type": "Feature", "properties": {"ProjectID": "P0259", "OBJECTID": 49, "GCOMPID": "GCOMP1041", "NAME": "#233 - GENESEO", "ADDRESS": "FEDERAL ROAD AND DOW ROAD", "CITY": "GENESEO", "STATE": "NY", "ZIP": 14454, "ZIP4": "NOT AVAILABLE", "TYPE": "NATURAL GAS COMPRESSOR STATION", "STATUS": "IN SERVICE", "COUNTY": "LIVINGSTON", "COUNTYFIPS": 36051, "COUNTRY": "USA", "LATITUDE": 42.848677, "LONGITUDE": -77.920066, "NAICS_CODE": 486210, "NAICS_DESC": "BOOSTER PUMPING STATION, NATURAL GAS TRANSPORTATION", "SOURCE": "EPA ENVIROFACTS, FERC FORM 2, CORPORATE WEBSITE", "SOURCEDATE": "7/15/2020 12:00:00 AM", "VAL_METHOD": "IMAGERY/OTHER", "VAL_DATE": "6/20/2022 12:00:00 AM", "WEBSITE": "http://pipeline2.kindermorgan.com/", "PIPECO": "TENNESSEE GAS PIPELINE COMPANY L.L.C.", "COMPID": 9, "OPERATOR": "TENNESSEE GAS PIPELINE COMPANY L.L.C.", "POSREL": "WITHIN 40 FEET", "NUM_UNITS": 2, "CERT_HP": 7000, "PLANT_COST": 16213173, "EXP_FUEL": 1582, "EXP_OTHER": 126612, "GAS_COMPRE": 1024, "OP_COMP_HR": 15, "OP_NUM_COM": 2, "OP_DATE_PE": "10/27/2020 12:00:00 AM", "EXP_POWER": 0, "ELEC_COMPR": 0, "x": -8674022.0697, "y": 5288967.2335}, "geometry": {"type": "Point", "coordinates": [-77.920066, 42.848677]}},
{"type": "Feature", "properties": {"ProjectID": "P0259", "OBJECTID": 72, "GCOMPID": "GCOMP1062", "NAME": "#1 - AGUA DULCE", "ADDRESS": "GILLRINA ROAD/ COUNTY ROAD 32", "CITY": "ROBSTOWN", "STATE": "TX", "ZIP": 78330, "ZIP4": "NOT AVAILABLE", "TYPE": "NATURAL GAS COMPRESSOR STATION", "STATUS": "IN SERVICE", "COUNTY": "NUECES", "COUNTYFIPS": 48355, "COUNTRY": "USA", "LATITUDE": 27.747897422, "LONGITUDE": -97.855423513, "NAICS_CODE": 486210, "NAICS_DESC": "BOOSTER PUMPING STATION, NATURAL GAS TRANSPORTATION", "SOURCE": "EPA ENVIROFACTS, FERC FORM 2, CORPORATE WEBSITE", "SOURCEDATE": "7/15/2020 12:00:00 AM", "VAL_METHOD": "IMAGERY/OTHER", "VAL_DATE": "6/20/2022 12:00:00 AM", "WEBSITE": "http://pipeline2.kindermorgan.com/", "PIPECO": "TENNESSEE GAS PIPELINE COMPANY L.L.C.", "COMPID": 9, "OPERATOR": "TENNESSEE GAS PIPELINE COMPANY L.L.C.", "POSREL": "WITHIN 40 FEET", "NUM_UNITS": 12, "CERT_HP": 17800, "PLANT_COST": 23711328, "EXP_FUEL": 93054, "EXP_OTHER": 1623802, "GAS_COMPRE": 51919, "OP_COMP_HR": 18843, "OP_NUM_COM": 5, "OP_DATE_PE": "3/11/2020 12:00:00 AM", "EXP_POWER": 0, "ELEC_COMPR": 0, "x": -10893215.917, "y": 3217226.4425}, "geometry": {"type": "Point", "coordinates": [-97.855424, 27.747897]}},
{"type": "Feature", "properties": {"ProjectID": "P0259", "OBJECTID": 124, "GCOMPID": "GCOMP111", "NAME": "#219 - MERCER", "ADDRESS": "1211 GREENVILLE MERCER ROAD", "CITY": "MERCER", "STATE": "PA", "ZIP": 16137, "ZIP4": "NOT AVAILABLE", "TYPE": "NATURAL GAS COMPRESSOR STATION", "STATUS": "IN SERVICE", "COUNTY": "MERCER", "COUNTYFIPS": 42085, "COUNTRY": "USA", "LATITUDE": 41.276406, "LONGITUDE": -80.273928, "NAICS_CODE": 486210, "NAICS_DESC": "BOOSTER PUMPING STATION, NATURAL GAS TRANSPORTATION", "SOURCE": "EPA ENVIROFACTS, FERC FORM 2, CORPORATE WEBSITE", "SOURCEDATE": "7/15/2020 12:00:00 AM", "VAL_METHOD": "IMAGERY/OTHER", "VAL_DATE": "6/24/2022 12:00:00 AM", "WEBSITE": "http://pipeline2.kindermorgan.com/", "PIPECO": "TENNESSEE GAS PIPELINE COMPANY L.L.C.", "COMPID": 9, "OPERATOR": "TENNESSEE GAS PIPELINE COMPANY L.L.C.", "POSREL": "WITHIN 40 FEET", "NUM_UNITS": 14, "CERT_HP": 21550, "PLANT_COST": 42139061, "EXP_FUEL": 1229324, "EXP_OTHER": 1103297, "GAS_COMPRE": 736926, "OP_COMP_HR": 48192, "OP_NUM_COM": 14, "OP_DATE_PE": "8/6/2020 12:00:00 AM", "EXP_POWER": 0, "ELEC_COMPR": 0, "x": -8936052.7889, "y": 5053197.3708}, "geometry": {"type": "Point", "coordinates": [-80.273928, 41.276406]}},
{"type": "Feature", "properties": {"ProjectID": "P0259", "OBJECTID": 181, "GCOMPID": "GCOMP1161", "NAME": "#405A - CONNEXION NEW ENGLAND (AVOCA", "ADDRESS": "MACKEY ROAD/WEST OF HIGHWAY 415", "CITY": "AVOCA", "STATE": "NY", "ZIP": 14809, "ZIP4": "NOT AVAILABLE", "TYPE": "NATURAL GAS COMPRESSOR STATION", "STATUS": "IN SERVICE", "COUNTY": "STEUBEN", "COUNTYFIPS": 36101, "COUNTRY": "USA", "LATITUDE": 42.414198, "LONGITUDE": -77.458042, "NAICS_CODE": 486210, "NAICS_DESC": "BOOSTER PUMPING STATION, NATURAL GAS TRANSPORTATION", "SOURCE": "FERC FORM 2, CORPORATE WEBSITE", "SOURCEDATE": "7/15/2020 12:00:00 AM", "VAL_METHOD": "IMAGERY/OTHER", "VAL_DATE": "6/20/2022 12:00:00 AM", "WEBSITE": "http://pipeline2.kindermorgan.com/", "PIPECO": "TENNESSEE GAS PIPELINE COMPANY L.L.C.", "COMPID": 9, "OPERATOR": "TENNESSEE GAS PIPELINE COMPANY L.L.C.", "POSREL": "WITHIN 40 FEET", "NUM_UNITS": 1, "CERT_HP": 7700, "PLANT_COST": 17704522, "EXP_FUEL": 615545, "EXP_OTHER": 315291, "GAS_COMPRE": 352771, "OP_COMP_HR": 5772, "OP_NUM_COM": 1, "OP_DATE_PE": "3/16/2020 12:00:00 AM", "EXP_POWER": 0, "ELEC_COMPR": 0, "x": -8622589.7933, "y": 5223227.65}, "geometry": {"type": "Point", "coordinates": [-77.458042, 42.414198]}},
{"type": "Feature", "properties": {"ProjectID": "P0259", "OBJECTID": 183, "GCOMPID": "GCOMP1163", "NAME": "#303 - SENECA PA 303A", "ADDRESS": "MEADOW CHURCH ROAD/ZACKREAL ROAD", "CITY": "SENECA", "STATE": "PA", "ZIP": 16346, "ZIP4": "NOT AVAILABLE", "TYPE": "NATURAL GAS COMPRESSOR STATION", "STATUS": "IN SERVICE", "COUNTY": "VENANGO", "COUNTYFIPS": 42121, "COUNTRY": "USA", "LATITUDE": 41.367391, "LONGITUDE": -79.662108, "NAICS_CODE": 486210, "NAICS_DESC": "BOOSTER PUMPING STATION, NATURAL GAS TRANSPORTATION", "SOURCE": "FERC FORM 2, IMAGERY", "SOURCEDATE": "7/15/2020 12:00:00 AM", "VAL_METHOD": "IMAGERY/OTHER", "VAL_DATE": "6/20/2022 12:00:00 AM", "WEBSITE": "http://pipeline2.kindermorgan.com/", "PIPECO": "TENNESSEE GAS PIPELINE COMPANY L.L.C.", "COMPID": 9, "OPERATOR": "TENNESSEE GAS PIPELINE COMPANY L.L.C.", "POSREL": "WITHIN 40 FEET", "NUM_UNITS": 1, "CERT_HP": 16000, "PLANT_COST": 39344039, "EXP_FUEL": 1664569, "EXP_OTHER": 558409, "GAS_COMPRE": 981196, "OP_COMP_HR": 8305, "OP_NUM_COM": 1, "OP_DATE_PE": "2/14/2020 12:00:00 AM", "EXP_POWER": 0, "ELEC_COMPR": 0, "x": -8867945.2981, "y": 5066683.7185}, "geometry": {"type": "Point", "coordinates": [-79.662108, 41.367391]}},
{"type": "Feature", "properties": {"ProjectID": "P0259", "OBJECTID": 268, "GCOMPID": "GCOMP124", "NAME": "#409 AND 409A EDINBURG", "ADDRESS": "12702 N HIGHWAY 281", "CITY": "EDINBURG", "STATE": "TX", "ZIP": 78539, "ZIP4": "NOT AVAILABLE", "TYPE": "NATURAL GAS COMPRESSOR STATION", "STATUS": "IN SERVICE", "COUNTY": "HIDALGO", "COUNTYFIPS": 48215, "COUNTRY": "USA", "LATITUDE": 26.417321, "LONGITUDE": -98.135587, "NAICS_CODE": 486210, "NAICS_DESC": "BOOSTER PUMPING STATION, NATURAL GAS TRANSPORTATION", "SOURCE": "FERC FORM 2, CORPORATE WEBSITE", "SOURCEDATE": "7/15/2020 12:00:00 AM", "VAL_METHOD": "IMAGERY/OTHER", "VAL_DATE": "6/20/2022 12:00:00 AM", "WEBSITE": "http://pipeline2.kindermorgan.com/", "PIPECO": "TENNESSEE GAS PIPELINE COMPANY L.L.C.", "COMPID": 9, "OPERATOR": "TENNESSEE GAS PIPELINE COMPANY L.L.C.", "POSREL": "WITHIN 40 FEET", "NUM_UNITS": 4, "CERT_HP": 13920, "PLANT_COST": 34674046, "EXP_FUEL": 781009, "EXP_OTHER": 1243095, "GAS_COMPRE": 461142, "OP_COMP_HR": 23468, "OP_NUM_COM": 4, "OP_DATE_PE": "3/3/2020 12:00:00 AM", "EXP_POWER": 0, "ELEC_COMPR": 0, "x": -10924403.574, "y": 3050860.4212}, "geometry": {"type": "Point", "coordinates": [-98.135587, 26.417321]}},
{"type": "Feature", "properties": {"ProjectID": "P0259", "OBJECTID": 280, "GCOMPID": "GCOMP1250", "NAME": "#542 - DEKALB", "ADDRESS": "PUMPING STATION ROAD AND BLACKWATER ROAD", "CITY": "DE KALB", "STATE": "MS", "ZIP": 39328, "ZIP4": "NOT AVAILABLE", "TYPE": "NATURAL GAS COMPRESSOR STATION", "STATUS": "IN SERVICE", "COUNTY": "KEMPER", "COUNTYFIPS": 28069, "COUNTRY": "USA", "LATITUDE": 32.640098531, "LONGITUDE": -88.660628154, "NAICS_CODE": 486210, "NAICS_DESC": "BOOSTER PUMPING STATION, NATURAL GAS TRANSPORTATION", "SOURCE": "FERC FORM 2, IMAGERY", "SOURCEDATE": "7/15/2020 12:00:00 AM", "VAL_METHOD": "IMAGERY/OTHER", "VAL_DATE": "6/24/2022 12:00:00 AM", "WEBSITE": "http://pipeline2.kindermorgan.com/", "PIPECO": "TENNESSEE GAS PIPELINE COMPANY L.L.C.", "COMPID": 9, "OPERATOR": "TENNESSEE GAS PIPELINE COMPANY L.L.C.", "POSREL": "WITHIN 40 FEET", "NUM_UNITS": 5, "CERT_HP": 29500, "PLANT_COST": 38516468, "EXP_FUEL": 1679887, "EXP_OTHER": 1431693, "GAS_COMPRE": 992480, "OP_COMP_HR": 24242, "OP_NUM_COM": 4, "OP_DATE_PE": "12/30/2020 12:00:00 AM", "EXP_POWER": 0, "ELEC_COMPR": 0, "x": -9869655.9795, "y": 3847629.9204}, "geometry": {"type": "Point", "coordinates": [-88.660628, 32.640099]}},
{"type": "Feature", "properties": {"ProjectID": "P0259", "OBJECTID": 286, "GCOMPID": "GCOMP1256", "NAME": "#317 - TROY", "ADDRESS": "RD #1 TENNESSEE GAS ROAD", "CITY": "TROY", "STATE": "PA", "ZIP": 16947, "ZIP4": "NOT AVAILABLE", "TYPE": "NATURAL GAS COMPRESSOR STATION", "STATUS": "IN SERVICE", "COUNTY": "BRADFORD", "COUNTYFIPS": 42015, "COUNTRY": "USA", "LATITUDE": 41.739076, "LONGITUDE": -76.797608, "NAICS_CODE": 486210, "NAICS_DESC": "BOOSTER PUMPING STATION, NATURAL GAS TRANSPORTATION", "SOURCE": "EPA ENVIROFACTS, FERC FORM 2, CORPORATE WEBSITE", "SOURCEDATE": "7/15/2020 12:00:00 AM", "VAL_METHOD": "IMAGERY/OTHER", "VAL_DATE": "6/20/2022 12:00:00 AM", "WEBSITE": "http://pipeline2.kindermorgan.com/", "PIPECO": "TENNESSEE GAS PIPELINE COMPANY L.L.C.", "COMPID": 9, "OPERATOR": "TENNESSEE GAS PIPELINE COMPANY L.L.C.", "POSREL": "WITHIN 40 FEET", "NUM_UNITS": 2, "CERT_HP": 28900, "PLANT_COST": 70572794, "EXP_FUEL": 1527892, "EXP_OTHER": 347137, "GAS_COMPRE": 906820, "OP_COMP_HR": 8635, "OP_NUM_COM": 1, "OP_DATE_PE": "4/22/2020 12:00:00 AM", "EXP_POWER": 483566, "ELEC_COMPR": 1388358, "x": -8549070.6167, "y": 5121974.0743}, "geometry": {"type": "Point", "coordinates": [-76.797608, 41.739076]}},
{"type": "Feature", "properties": {"ProjectID": "P0259", "OBJECTID": 308, "GCOMPID": "GCOMP1276", "NAME": "#321 - WEST CLIFFORD", "ADDRESS": "RR 1 BOX 163T", "CITY": "UNION DALE", "STATE": "PA", "ZIP": 18470, "ZIP4": "NOT AVAILABLE", "TYPE": "NATURAL GAS COMPRESSOR STATION", "STATUS": "IN SERVICE", "COUNTY": "SUSQUEHANNA", "COUNTYFIPS": 42115, "COUNTRY": "USA", "LATITUDE": 41.711659, "LONGITUDE": -75.59897, "NAICS_CODE": 486210, "NAICS_DESC": "BOOSTER PUMPING STATION, NATURAL GAS TRANSPORTATION", "SOURCE": "EPA ENVIROFACTS, FERC FORM 2, CORPORATE WEBSITE", "SOURCEDATE": "7/15/2020 12:00:00 AM", "VAL_METHOD": "IMAGERY/OTHER", "VAL_DATE": "6/20/2022 12:00:00 AM", "WEBSITE": "http://pipeline2.kindermorgan.com/", "PIPECO": "TENNESSEE GAS PIPELINE COMPANY L.L.C.", "COMPID": 9, "OPERATOR": "TENNESSEE GAS PIPELINE COMPANY L.L.C.", "POSREL": "WITHIN 40 FEET", "NUM_UNITS": 4, "CERT_HP": 25210, "PLANT_COST": 70487321, "EXP_FUEL": 1711959, "EXP_OTHER": 732858, "GAS_COMPRE": 963771, "OP_COMP_HR": 19054, "OP_NUM_COM": 4, "OP_DATE_PE": "12/18/2020 12:00:00 AM", "EXP_POWER": 0, "ELEC_COMPR": 0, "x": -8415638.8449, "y": 5117884.7425}, "geometry": {"type": "Point", "coordinates": [-75.59897, 41.711659]}},
{"type": "Feature", "properties": {"ProjectID": "P0259", "OBJECTID": 310, "GCOMPID": "GCOMP1278", "NAME": "#17 - EAST BERNARD", "ADDRESS": "ROUTE 2, BOX 190", "CITY": "EAST BERNARD", "STATE": "TX", "ZIP": 77435, "ZIP4": "NOT AVAILABLE", "TYPE": "NATURAL GAS COMPRESSOR STATION", "STATUS": "IN SERVICE", "COUNTY": "WHARTON", "COUNTYFIPS": 48481, "COUNTRY": "USA", "LATITUDE": 29.532680093, "LONGITUDE": -96.144322291, "NAICS_CODE": 486210, "NAICS_DESC": "BOOSTER PUMPING STATION, NATURAL GAS TRANSPORTATION", "SOURCE": "EPA ENVIROFACTS, FERC FORM 2, CORPORATE WEBSITE", "SOURCEDATE": "7/15/2020 12:00:00 AM", "VAL_METHOD": "IMAGERY/OTHER", "VAL_DATE": "6/20/2022 12:00:00 AM", "WEBSITE": "http://pipeline2.kindermorgan.com/", "PIPECO": "TENNESSEE GAS PIPELINE COMPANY L.L.C.", "COMPID": 9, "OPERATOR": "TENNESSEE GAS PIPELINE COMPANY L.L.C.", "POSREL": "WITHIN 40 FEET", "NUM_UNITS": 2, "CERT_HP": 22700, "PLANT_COST": 34933424, "EXP_FUEL": 1133550, "EXP_OTHER": 705463, "GAS_COMPRE": 674684, "OP_COMP_HR": 9193, "OP_NUM_COM": 2, "OP_DATE_PE": "2/6/2020 12:00:00 AM", "EXP_POWER": 0, "ELEC_COMPR": 0, "x": -10702737.0, "y": 3443620.5569}, "geometry": {"type": "Point", "coordinates": [-96.144322, 29.53268]}},
{"type": "Feature", "properties": {"ProjectID": "P0259", "OBJECTID": 341, "GCOMPID": "GCOMP1305", "NAME": "#319 - WYALUSING", "ADDRESS": "SPRINGHILL ROAD", "CITY": "WYALUSING", "STATE": "PA", "ZIP": 18853, "ZIP4": "NOT AVAILABLE", "TYPE": "NATURAL GAS COMPRESSOR STATION", "STATUS": "IN SERVICE", "COUNTY": "BRADFORD", "COUNTYFIPS": 42015, "COUNTRY": "USA", "LATITUDE": 41.706376, "LONGITUDE": -76.208539, "NAICS_CODE": 486210, "NAICS_DESC": "BOOSTER PUMPING STATION, NATURAL GAS TRANSPORTATION", "SOURCE": "FERC FORM 2, CORPORATE WEBSITE", "SOURCEDATE": "7/15/2020 12:00:00 AM", "VAL_METHOD": "IMAGERY/OTHER", "VAL_DATE": "6/20/2022 12:00:00 AM", "WEBSITE": "http://pipeline2.kindermorgan.com/", "PIPECO": "TENNESSEE GAS PIPELINE COMPANY L.L.C.", "COMPID": 9, "OPERATOR": "TENNESSEE GAS PIPELINE COMPANY L.L.C.", "POSREL": "WITHIN 40 FEET", "NUM_UNITS": 1, "CERT_HP": 20500, "PLANT_COST": 74315365, "EXP_FUEL": 1163, "EXP_OTHER": 325734, "GAS_COMPRE": 764, "OP_COMP_HR": 6, "OP_NUM_COM": 1, "OP_DATE_PE": "9/23/2020 12:00:00 AM", "EXP_POWER": 0, "ELEC_COMPR": 0, "x": -8483495.7556, "y": 5117096.9669}, "geometry": {"type": "Point", "coordinates": [-76.208539, 41.706376]}},
{"type": "Feature", "properties": {"ProjectID": "P0259", "OBJECTID": 363, "GCOMPID": "GCOMP1325", "NAME": "#107A - NORTH MEANS", "ADDRESS": "TOWN BRANCH ROAD AND DOUBLE GATE ROAD", "CITY": "MEANS", "STATE": "KY", "ZIP": 40346, "ZIP4": "NOT AVAILABLE", "TYPE": "NATURAL GAS COMPRESSOR STATION", "STATUS": "IN SERVICE", "COUNTY": "MENIFEE", "COUNTYFIPS": 21165, "COUNTRY": "USA", "LATITUDE": 37.994212, "LONGITUDE": -83.804579, "NAICS_CODE": 486210, "NAICS_DESC": "BOOSTER PUMPING STATION, NATURAL GAS TRANSPORTATION", "SOURCE": "EPA ENVIROFACTS, FERC FORM 2, CORPORATE WEBSITE", "SOURCEDATE": "7/15/2020 12:00:00 AM", "VAL_METHOD": "IMAGERY/OTHER", "VAL_DATE": "6/20/2022 12:00:00 AM", "WEBSITE": "http://pipeline2.kindermorgan.com/", "PIPECO": "TENNESSEE GAS PIPELINE COMPANY L.L.C.", "COMPID": 9, "OPERATOR": "TENNESSEE GAS PIPELINE COMPANY L.L.C.", "POSREL": "WITHIN 40 FEET", "NUM_UNITS": 2, "CERT_HP": 4390, "PLANT_COST": 8359432, "EXP_FUEL": 11, "EXP_OTHER": 86423, "GAS_COMPRE": 6, "OP_COMP_HR": 2, "OP_NUM_COM": 1, "OP_DATE_PE": "7/6/2020 12:00:00 AM", "EXP_POWER": 0, "ELEC_COMPR": 0, "x": -9329083.0604, "y": 4578608.1949}, "geometry": {"type": "Point", "coordinates": [-83.804579, 37.994212]}},
{"type": "Feature", "properties": {"ProjectID": "P0259", "OBJECTID": 395, "GCOMPID": "GCOMP1354", "NAME": "#323A - HAWLEY", "ADDRESS": "WESTCOLANG ROAD", "CITY": "HAWLEY", "STATE": "PA", "ZIP": 18428, "ZIP4": "NOT AVAILABLE", "TYPE": "NATURAL GAS COMPRESSOR STATION", "STATUS": "IN SERVICE", "COUNTY": "WAYNE", "COUNTYFIPS": 42127, "COUNTRY": "USA", "LATITUDE": 41.501027, "LONGITUDE": -75.063854, "NAICS_CODE": 486210, "NAICS_DESC": "BOOSTER PUMPING STATION, NATURAL GAS TRANSPORTATION", "SOURCE": "EPA ENVIROFACTS, FERC FORM 2, CORPORATE WEBSITE", "SOURCEDATE": "7/15/2020 12:00:00 AM", "VAL_METHOD": "IMAGERY/OTHER", "VAL_DATE": "6/20/2022 12:00:00 AM", "WEBSITE": "http://pipeline2.kindermorgan.com/", "PIPECO": "TENNESSEE GAS PIPELINE COMPANY L.L.C.", "COMPID": 9, "OPERATOR": "TENNESSEE GAS PIPELINE COMPANY L.L.C.", "POSREL": "WITHIN 40 FEET", "NUM_UNITS": 2, "CERT_HP": 25400, "PLANT_COST": 49870100, "EXP_FUEL": 0, "EXP_OTHER": 305905, "GAS_COMPRE": 0, "OP_COMP_HR": 16465, "OP_NUM_COM": 2, "OP_DATE_PE": "4/21/2020 12:00:00 AM", "EXP_POWER": 7081091, "ELEC_COMPR": 131811000, "x": -8356070.0043, "y": 5086526.2965}, "geometry": {"type": "Point", "coordinates": [-75.063854, 41.501027]}},
{"type": "Feature", "properties": {"ProjectID": "P0259", "OBJECTID": 425, "GCOMPID": "GCOMP150", "NAME": "#851 - NEW ALBANY", "ADDRESS": "1362 COUNTY ROAD 81", "CITY": "NEW ALBANY", "STATE": "MS", "ZIP": 38652, "ZIP4": "NOT AVAILABLE", "TYPE": "NATURAL GAS COMPRESSOR STATION", "STATUS": "IN SERVICE", "COUNTY": "UNION", "COUNTYFIPS": 28145, "COUNTRY": "USA", "LATITUDE": 34.539167505, "LONGITUDE": -89.013538, "NAICS_CODE": 486210, "NAICS_DESC": "BOOSTER PUMPING STATION, NATURAL GAS TRANSPORTATION", "SOURCE": "EPA ENVIROFACTS, FERC FORM 2, CORPORATE WEBSITE", "SOURCEDATE": "7/15/2020 12:00:00 AM", "VAL_METHOD": "IMAGERY/OTHER", "VAL_DATE": "6/20/2022 12:00:00 AM", "WEBSITE": "http://pipeline2.kindermorgan.com/", "PIPECO": "TENNESSEE GAS PIPELINE COMPANY L.L.C.", "COMPID": 9, "OPERATOR": "TENNESSEE GAS PIPELINE COMPANY L.L.C.", "POSREL": "WITHIN 40 FEET", "NUM_UNITS": 8, "CERT_HP": 13600, "PLANT_COST": 15248570, "EXP_FUEL": 4756, "EXP_OTHER": 658675, "GAS_COMPRE": 2464, "OP_COMP_HR": 7, "OP_NUM_COM": 4, "OP_DATE_PE": "3/31/2020 12:00:00 AM", "EXP_POWER": 0, "ELEC_COMPR": 0, "x": -9908941.7239, "y": 4101430.8655}, "geometry": {"type": "Point", "coordinates": [-89.013538, 34.539168]}},
{"type": "Feature", "properties": {"ProjectID": "P0259", "OBJECTID": 427, "GCOMPID": "GCOMP152", "NAME": "#96 - CAMPBELLSVILLE", "ADDRESS": "1380 HOBSON ROAD", "CITY": "CAMPBELLSVILLE", "STATE": "KY", "ZIP": 42718, "ZIP4": "NOT AVAILABLE", "TYPE": "NATURAL GAS COMPRESSOR STATION", "STATUS": "IN SERVICE", "COUNTY": "TAYLOR", "COUNTYFIPS": 21217, "COUNTRY": "USA", "LATITUDE": 37.414386, "LONGITUDE": -85.39522, "NAICS_CODE": 486210, "NAICS_DESC": "BOOSTER PUMPING STATION, NATURAL GAS TRANSPORTATION", "SOURCE": "FERC FORM 2, IMAGERY", "SOURCEDATE": "7/15/2020 12:00:00 AM", "VAL_METHOD": "IMAGERY/OTHER", "VAL_DATE": "6/20/2022 12:00:00 AM", "WEBSITE": "http://pipeline2.kindermorgan.com/", "PIPECO": "TENNESSEE GAS PIPELINE COMPANY L.L.C.", "COMPID": 9, "OPERATOR": "TENNESSEE GAS PIPELINE COMPANY L.L.C.", "POSREL": "WITHIN 40 FEET", "NUM_UNITS": 21, "CERT_HP": 41200, "PLANT_COST": 66389273, "EXP_FUEL": 1139698, "EXP_OTHER": 2294055, "GAS_COMPRE": 682089, "OP_COMP_HR": 75484, "OP_NUM_COM": 13, "OP_DATE_PE": "10/23/2020 12:00:00 AM", "EXP_POWER": 3394824, "ELEC_COMPR": 99226651, "x": -9506152.4066, "y": 4497025.3292}, "geometry": {"type": "Point", "coordinates": [-85.39522, 37.414386]}},
{"type": "Feature", "properties": {"ProjectID": "P0259", "OBJECTID": 428, "GCOMPID": "GCOMP153", "NAME": "#871 - CAMPBELLSVILLE", "ADDRESS": "1380 HOBSON ROAD", "CITY": "CAMPBELLSVILLE", "STATE": "KY", "ZIP": 42718, "ZIP4": "NOT AVAILABLE", "TYPE": "NATURAL GAS COMPRESSOR STATION", "STATUS": "IN SERVICE", "COUNTY": "TAYLOR", "COUNTYFIPS": 21217, "COUNTRY": "USA", "LATITUDE": 37.41496, "LONGITUDE": -85.396031, "NAICS_CODE": 486210, "NAICS_DESC": "BOOSTER PUMPING STATION, NATURAL GAS TRANSPORTATION", "SOURCE": "EPA ENVIROFACTS, FERC FORM 2, CORPORATE WEBSITE", "SOURCEDATE": "7/15/2020 12:00:00 AM", "VAL_METHOD": "IMAGERY/OTHER", "VAL_DATE": "6/20/2022 12:00:00 AM", "WEBSITE": "http://pipeline2.kindermorgan.com/", "PIPECO": "TENNESSEE GAS PIPELINE COMPANY L.L.C.", "COMPID": 9, "OPERATOR": "TENNESSEE GAS PIPELINE COMPANY L.L.C.", "POSREL": "WITHIN 40 FEET", "NUM_UNITS": 3, "CERT_HP": 13500, "PLANT_COST": 18533376, "EXP_FUEL": 968239, "EXP_OTHER": 887607, "GAS_COMPRE": 577641, "OP_COMP_HR": 16547, "OP_NUM_COM": 3, "OP_DATE_PE": "12/23/2020 12:00:00 AM", "EXP_POWER": 0, "ELEC_COMPR": 0, "x": -9506242.6867, "y": 4497105.7783}, "geometry": {"type": "Point", "coordinates": [-85.396031, 37.41496]}},
{"type": "Feature", "properties": {"ProjectID": "P0259", "OBJECTID": 472, "GCOMPID": "GCOMP193", "NAME": "#703A - MANSFIELD", "ADDRESS": "1518 LA-513", "CITY": "MANSFIELD", "STATE": "LA", "ZIP": 71052, "ZIP4": "NOT AVAILABLE", "TYPE": "NATURAL GAS COMPRESSOR STATION", "STATUS": "IN SERVICE", "COUNTY": "DE SOTO PARISH", "COUNTYFIPS": 22031, "COUNTRY": "USA", "LATITUDE": 32.013017271, "LONGITUDE": -93.700437007, "NAICS_CODE": 486210, "NAICS_DESC": "BOOSTER PUMPING STATION, NATURAL GAS TRANSPORTATION", "SOURCE": "EPA ENVIROFACTS, FERC FORM 2, CORPORATE WEBSITE", "SOURCEDATE": "7/15/2020 12:00:00 AM", "VAL_METHOD": "IMAGERY/OTHER", "VAL_DATE": "6/20/2022 12:00:00 AM", "WEBSITE": "http://pipeline2.kindermorgan.com/", "PIPECO": "TENNESSEE GAS PIPELINE COMPANY L.L.C.", "COMPID": 9, "OPERATOR": "TENNESSEE GAS PIPELINE COMPANY L.L.C.", "POSREL": "WITHIN 40 FEET", "NUM_UNITS": 1, "CERT_HP": 7700, "PLANT_COST": 20539436, "EXP_FUEL": 415, "EXP_OTHER": 183298, "GAS_COMPRE": 264, "OP_COMP_HR": 11, "OP_NUM_COM": 1, "OP_DATE_PE": "4/22/2020 12:00:00 AM", "EXP_POWER": 0, "ELEC_COMPR": 0, "x": -10430684.935, "y": 3765019.4676}, "geometry": {"type": "Point", "coordinates": [-93.700437, 32.013017]}},
{"type": "Feature", "properties": {"ProjectID": "P0259", "OBJECTID": 481, "GCOMPID": "GCOMP200", "NAME": "#823 - KINDER", "ADDRESS": "15449 PARISH LINE ROAD", "CITY": "KINDER", "STATE": "LA", "ZIP": 70648, "ZIP4": "NOT AVAILABLE", "TYPE": "NATURAL GAS COMPRESSOR STATION", "STATUS": "IN SERVICE", "COUNTY": "ALLEN PARISH", "COUNTYFIPS": 22003, "COUNTRY": "USA", "LATITUDE": 30.435376, "LONGITUDE": -92.876376, "NAICS_CODE": 486210, "NAICS_DESC": "BOOSTER PUMPING STATION, NATURAL GAS TRANSPORTATION", "SOURCE": "EPA ENVIROFACTS, FERC FORM 2, CORPORATE WEBSITE", "SOURCEDATE": "7/15/2020 12:00:00 AM", "VAL_METHOD": "IMAGERY/OTHER", "VAL_DATE": "6/20/2022 12:00:00 AM", "WEBSITE": "http://pipeline2.kindermorgan.com/", "PIPECO": "TENNESSEE GAS PIPELINE COMPANY L.L.C.", "COMPID": 9, "OPERATOR": "TENNESSEE GAS PIPELINE COMPANY L.L.C.", "POSREL": "WITHIN 40 FEET", "NUM_UNITS": 13, "CERT_HP": 32650, "PLANT_COST": 65496367, "EXP_FUEL": 1586822, "EXP_OTHER": 3412742, "GAS_COMPRE": 927393, "OP_COMP_HR": 41329, "OP_NUM_COM": 9, "OP_DATE_PE": "8/21/2020 12:00:00 AM", "EXP_POWER": 0, "ELEC_COMPR": 0, "x": -10338950.883, "y": 3559637.0304}, "geometry": {"type": "Point", "coordinates": [-92.876376, 30.435376]}},
{"type": "Feature", "properties": {"ProjectID": "P0259", "OBJECTID": 488, "GCOMPID": "GCOMP207", "NAME": "#265E - BURRILLVILLE", "ADDRESS": "1575B SHERMAN FARM ROAD", "CITY": "BURRILLVILLE", "STATE": "RI", "ZIP": 2830, "ZIP4": "NOT AVAILABLE", "TYPE": "NATURAL GAS COMPRESSOR STATION", "STATUS": "IN SERVICE", "COUNTY": "PROVIDENCE", "COUNTYFIPS": 44007, "COUNTRY": "USA", "LATITUDE": 42.010371, "LONGITUDE": -71.666976, "NAICS_CODE": 486210, "NAICS_DESC": "BOOSTER PUMPING STATION, NATURAL GAS TRANSPORTATION", "SOURCE": "EPA ENVIROFACTS, FERC FORM 2, CORPORATE WEBSITE", "SOURCEDATE": "7/15/2020 12:00:00 AM", "VAL_METHOD": "IMAGERY/OTHER", "VAL_DATE": "6/20/2022 12:00:00 AM", "WEBSITE": "http://pipeline2.kindermorgan.com/", "PIPECO": "TENNESSEE GAS PIPELINE COMPANY L.L.C.", "COMPID": 9, "OPERATOR": "TENNESSEE GAS PIPELINE COMPANY L.L.C.", "POSREL": "WITHIN 40 FEET", "NUM_UNITS": 1, "CERT_HP": 7170, "PLANT_COST": 17933502, "EXP_FUEL": 611963, "EXP_OTHER": 383349, "GAS_COMPRE": 358220, "OP_COMP_HR": 7502, "OP_NUM_COM": 1, "OP_DATE_PE": "11/18/2020 12:00:00 AM", "EXP_POWER": 0, "ELEC_COMPR": 0, "x": -7977931.275, "y": 5162533.0962}, "geometry": {"type": "Point", "coordinates": [-71.666976, 42.010371]}},
{"type": "Feature", "properties": {"ProjectID": "P0259", "OBJECTID": 502, "GCOMPID": "GCOMP22", "NAME": "#523R - COCODRIE (LIRETTE)", "ADDRESS": "1.17 MILES SE OF HAGEWOOD COURT AND REDFISH STREET", "CITY": "COCODRIE", "STATE": "LA", "ZIP": 70344, "ZIP4": "NOT AVAILABLE", "TYPE": "NATURAL GAS COMPRESSOR STATION", "STATUS": "IN SERVICE", "COUNTY": "TERREBONNE PARISH", "COUNTYFIPS": 22109, "COUNTRY": "USA", "LATITUDE": 29.234872862, "LONGITUDE": -90.64796002, "NAICS_CODE": 486210, "NAICS_DESC": "BOOSTER PUMPING STATION, NATURAL GAS TRANSPORTATION", "SOURCE": "EPA ENVIROFACTS, FERC FORM 2, CORPORATE WEBSITE", "SOURCEDATE": "7/15/2020 12:00:00 AM", "VAL_METHOD": "IMAGERY/OTHER", "VAL_DATE": "6/20/2022 12:00:00 AM", "WEBSITE": "http://pipeline2.kindermorgan.com/", "PIPECO": "TENNESSEE GAS PIPELINE COMPANY L.L.C.", "COMPID": 9, "OPERATOR": "TENNESSEE GAS PIPELINE COMPANY L.L.C.", "POSREL": "WITHIN 40 FEET", "NUM_UNITS": 1, "CERT_HP": 3594, "PLANT_COST": 9074065, "EXP_FUEL": 265, "EXP_OTHER": 38054, "GAS_COMPRE": 170, "OP_COMP_HR": 0, "OP_NUM_COM": 0, "OP_DATE_PE": "1/1/2001 12:00:00 AM", "EXP_POWER": 0, "ELEC_COMPR": 0, "x": -10090884.751, "y": 3405574.1867}, "geometry": {"type": "Point", "coordinates": [-90.64796, 29.234873]}},
{"type": "Feature", "properties": {"ProjectID": "P0259", "OBJECTID": 505, "GCOMPID": "GCOMP222", "NAME": "#261 - AGAWAM", "ADDRESS": "1615 SUFFIELD STREET", "CITY": "AGAWAM", "STATE": "MA", "ZIP": 1001, "ZIP4": "NOT AVAILABLE", "TYPE": "NATURAL GAS COMPRESSOR STATION", "STATUS": "IN SERVICE", "COUNTY": "HAMPDEN", "COUNTYFIPS": 25013, "COUNTRY": "USA", "LATITUDE": 42.033986, "LONGITUDE": -72.633743, "NAICS_CODE": 486210, "NAICS_DESC": "BOOSTER PUMPING STATION, NATURAL GAS TRANSPORTATION", "SOURCE": "EPA ENVIROFACTS, FERC FORM 2, CORPORATE WEBSITE", "SOURCEDATE": "7/15/2020 12:00:00 AM", "VAL_METHOD": "IMAGERY/OTHER", "VAL_DATE": "6/20/2022 12:00:00 AM", "WEBSITE": "http://pipeline2.kindermorgan.com/", "PIPECO": "TENNESSEE GAS PIPELINE COMPANY L.L.C.", "COMPID": 9, "OPERATOR": "TENNESSEE GAS PIPELINE COMPANY L.L.C.", "POSREL": "WITHIN 40 FEET", "NUM_UNITS": 5, "CERT_HP": 17110, "PLANT_COST": 41991200, "EXP_FUEL": 710752, "EXP_OTHER": 815660, "GAS_COMPRE": 381976, "OP_COMP_HR": 9888, "OP_NUM_COM": 4, "OP_DATE_PE": "10/26/2020 12:00:00 AM", "EXP_POWER": 407122, "ELEC_COMPR": 2265200, "x": -8085551.2852, "y": 5166071.7423}, "geometry": {"type": "Point", "coordinates": [-72.633743, 42.033986]}},
{"type": "Feature", "properties": {"ProjectID": "P0259", "OBJECTID": 512, "GCOMPID": "GCOMP229", "NAME": "#325 - SUSSEX", "ADDRESS": "164 LIBERTYVILLE ROAD", "CITY": "SUSSEX", "STATE": "NJ", "ZIP": 7461, "ZIP4": "NOT AVAILABLE", "TYPE": "NATURAL GAS COMPRESSOR STATION", "STATUS": "IN SERVICE", "COUNTY": "SUSSEX", "COUNTYFIPS": 34037, "COUNTRY": "USA", "LATITUDE": 41.244238, "LONGITUDE": -74.646129, "NAICS_CODE": 486210, "NAICS_DESC": "BOOSTER PUMPING STATION, NATURAL GAS TRANSPORTATION", "SOURCE": "EPA ENVIROFACTS, FERC FORM 2, CORPORATE WEBSITE", "SOURCEDATE": "7/15/2020 12:00:00 AM", "VAL_METHOD": "IMAGERY/OTHER", "VAL_DATE": "6/20/2022 12:00:00 AM", "WEBSITE": "http://pipeline2.kindermorgan.com/", "PIPECO": "TENNESSEE GAS PIPELINE COMPANY L.L.C.", "COMPID": 9, "OPERATOR": "TENNESSEE GAS PIPELINE COMPANY L.L.C.", "POSREL": "WITHIN 40 FEET", "NUM_UNITS": 2, "CERT_HP": 20622, "PLANT_COST": 54321905, "EXP_FUEL": 2021242, "EXP_OTHER": 798731, "GAS_COMPRE": 1185257, "OP_COMP_HR": 16855, "OP_NUM_COM": 2, "OP_DATE_PE": "2/14/2020 12:00:00 AM", "EXP_POWER": 0, "ELEC_COMPR": 0, "x": -8309569.07, "y": 5048433.7345}, "geometry": {"type": "Point", "coordinates": [-74.646129, 41.244238]}},
{"type": "Feature", "properties": {"ProjectID": "P0259", "OBJECTID": 578, "GCOMPID": "GCOMP289", "NAME": "#9 - VICTORIA", "ADDRESS": "1925 OLD BLOOMINGTON ROAD N", "CITY": "VICTORIA", "STATE": "TX", "ZIP": 77905, "ZIP4": "NOT AVAILABLE", "TYPE": "NATURAL GAS COMPRESSOR STATION", "STATUS": "IN SERVICE", "COUNTY": "VICTORIA", "COUNTYFIPS": 48469, "COUNTRY": "USA", "LATITUDE": 28.700126, "LONGITUDE": -96.942853, "NAICS_CODE": 486210, "NAICS_DESC": "BOOSTER PUMPING STATION, NATURAL GAS TRANSPORTATION", "SOURCE": "EPA ENVIROFACTS, FERC FORM 2, CORPORATE WEBSITE", "SOURCEDATE": "7/15/2020 12:00:00 AM", "VAL_METHOD": "IMAGERY/OTHER", "VAL_DATE": "6/20/2022 12:00:00 AM", "WEBSITE": "http://pipeline2.kindermorgan.com/", "PIPECO": "TENNESSEE GAS PIPELINE COMPANY L.L.C.", "COMPID": 9, "OPERATOR": "TENNESSEE GAS PIPELINE COMPANY L.L.C.", "POSREL": "WITHIN 40 FEET", "NUM_UNITS": 8, "CERT_HP": 14000, "PLANT_COST": 72645475, "EXP_FUEL": 1116372, "EXP_OTHER": 2045021, "GAS_COMPRE": 661494, "OP_COMP_HR": 30072, "OP_NUM_COM": 4, "OP_DATE_PE": "9/25/2020 12:00:00 AM", "EXP_POWER": 0, "ELEC_COMPR": 0, "x": -10791629.032, "y": 3337533.8778}, "geometry": {"type": "Point", "coordinates": [-96.942853, 28.700126]}},
{"type": "Feature", "properties": {"ProjectID": "P0259", "OBJECTID": 585, "GCOMPID": "GCOMP295", "NAME": "#264 - CHARLTON CITY", "ADDRESS": "196 CARPENTER HILL ROAD", "CITY": "CHARLTON", "STATE": "MA", "ZIP": 1507, "ZIP4": "NOT AVAILABLE", "TYPE": "NATURAL GAS COMPRESSOR STATION", "STATUS": "IN SERVICE", "COUNTY": "WORCESTER", "COUNTYFIPS": 25027, "COUNTRY": "USA", "LATITUDE": 42.122074712, "LONGITUDE": -72.002106867, "NAICS_CODE": 486210, "NAICS_DESC": "BOOSTER PUMPING STATION, NATURAL GAS TRANSPORTATION", "SOURCE": "EPA ENVIROFACTS, FERC FORM 2, CORPORATE WEBSITE", "SOURCEDATE": "7/15/2020 12:00:00 AM", "VAL_METHOD": "IMAGERY/OTHER", "VAL_DATE": "6/20/2022 12:00:00 AM", "WEBSITE": "http://pipeline2.kindermorgan.com/", "PIPECO": "TENNESSEE GAS PIPELINE COMPANY L.L.C.", "COMPID": 9, "OPERATOR": "TENNESSEE GAS PIPELINE COMPANY L.L.C.", "POSREL": "WITHIN 40 FEET", "NUM_UNITS": 2, "CERT_HP": 12552, "PLANT_COST": 39048167, "EXP_FUEL": 888898, "EXP_OTHER": 288749, "GAS_COMPRE": 504412, "OP_COMP_HR": 9776, "OP_NUM_COM": 2, "OP_DATE_PE": "2/14/2020 12:00:00 AM", "EXP_POWER": 0, "ELEC_COMPR": 0, "x": -8015237.8725, "y": 5179283.2204}, "geometry": {"type": "Point", "coordinates": [-72.002107, 42.122075]}},
{"type": "Feature", "properties": {"ProjectID": "P0259", "OBJECTID": 587, "GCOMPID": "GCOMP297", "NAME": "#313 - COUDERSPORT", "ADDRESS": "197 TENNESSEE ROAD", "CITY": "COUDERSPORT", "STATE": "PA", "ZIP": 16915, "ZIP4": "NOT AVAILABLE", "TYPE": "NATURAL GAS COMPRESSOR STATION", "STATUS": "IN SERVICE", "COUNTY": "POTTER", "COUNTYFIPS": 42105, "COUNTRY": "USA", "LATITUDE": 41.852909, "LONGITUDE": -78.00079, "NAICS_CODE": 486210, "NAICS_DESC": "BOOSTER PUMPING STATION, NATURAL GAS TRANSPORTATION", "SOURCE": "EPA ENVIROFACTS, FERC FORM 2, CORPORATE WEBSITE", "SOURCEDATE": "7/15/2020 12:00:00 AM", "VAL_METHOD": "IMAGERY/OTHER", "VAL_DATE": "6/20/2022 12:00:00 AM", "WEBSITE": "http://pipeline2.kindermorgan.com/", "PIPECO": "TENNESSEE GAS PIPELINE COMPANY L.L.C.", "COMPID": 9, "OPERATOR": "TENNESSEE GAS PIPELINE COMPANY L.L.C.", "POSREL": "WITHIN 40 FEET", "NUM_UNITS": 10, "CERT_HP": 24170, "PLANT_COST": 80233495, "EXP_FUEL": 145, "EXP_OTHER": 2093865, "GAS_COMPRE": 94, "OP_COMP_HR": 29755, "OP_NUM_COM": 9, "OP_DATE_PE": "5/7/2020 12:00:00 AM", "EXP_POWER": 0, "ELEC_COMPR": 0, "x": -8683008.2243, "y": 5138971.3279}, "geometry": {"type": "Point", "coordinates": [-78.00079, 41.852909]}},
{"type": "Feature", "properties": {"ProjectID": "P0259", "OBJECTID": 606, "GCOMPID": "GCOMP313", "NAME": "#47 - WEST MONROE", "ADDRESS": "200 WORTHEY ROAD", "CITY": "WEST MONROE", "STATE": "LA", "ZIP": 71291, "ZIP4": "NOT AVAILABLE", "TYPE": "NATURAL GAS COMPRESSOR STATION", "STATUS": "IN SERVICE", "COUNTY": "OUACHITA PARISH", "COUNTYFIPS": 22073, "COUNTRY": "USA", "LATITUDE": 32.554956, "LONGITUDE": -92.181233, "NAICS_CODE": 486210, "NAICS_DESC": "BOOSTER PUMPING STATION, NATURAL GAS TRANSPORTATION", "SOURCE": "EPA ENVIROFACTS, FERC FORM 2, CORPORATE WEBSITE", "SOURCEDATE": "7/15/2020 12:00:00 AM", "VAL_METHOD": "IMAGERY/OTHER", "VAL_DATE": "6/20/2022 12:00:00 AM", "WEBSITE": "http://pipeline2.kindermorgan.com/", "PIPECO": "TENNESSEE GAS PIPELINE COMPANY L.L.C.", "COMPID": 9, "OPERATOR": "TENNESSEE GAS PIPELINE COMPANY L.L.C.", "POSREL": "WITHIN 40 FEET", "NUM_UNITS": 11, "CERT_HP": 38510, "PLANT_COST": 83981871, "EXP_FUEL": 365356, "EXP_OTHER": 2111359, "GAS_COMPRE": 216770, "OP_COMP_HR": 10060, "OP_NUM_COM": 4, "OP_DATE_PE": "10/15/2020 12:00:00 AM", "EXP_POWER": 0, "ELEC_COMPR": 0, "x": -10261567.918, "y": 3836379.7142}, "geometry": {"type": "Point", "coordinates": [-92.181233, 32.554956]}},
{"type": "Feature", "properties": {"ProjectID": "P0259", "OBJECTID": 607, "GCOMPID": "GCOMP314", "NAME": "#237 - CLIFTON SPRINGS", "ADDRESS": "2001 ARCHER ROAD", "CITY": "CLIFTON SPRINGS", "STATE": "NY", "ZIP": 14432, "ZIP4": "NOT AVAILABLE", "TYPE": "NATURAL GAS COMPRESSOR STATION", "STATUS": "IN SERVICE", "COUNTY": "ONTARIO", "COUNTYFIPS": 36069, "COUNTRY": "USA", "LATITUDE": 42.934006695, "LONGITUDE": -77.173473681, "NAICS_CODE": 486210, "NAICS_DESC": "BOOSTER PUMPING STATION, NATURAL GAS TRANSPORTATION", "SOURCE": "EPA ENVIROFACTS, FERC FORM 2, CORPORATE WEBSITE", "SOURCEDATE": "7/15/2020 12:00:00 AM", "VAL_METHOD": "IMAGERY/OTHER", "VAL_DATE": "6/20/2022 12:00:00 AM", "WEBSITE": "http://pipeline2.kindermorgan.com/", "PIPECO": "TENNESSEE GAS PIPELINE COMPANY L.L.C.", "COMPID": 9, "OPERATOR": "TENNESSEE GAS PIPELINE COMPANY L.L.C.", "POSREL": "WITHIN 40 FEET", "NUM_UNITS": 3, "CERT_HP": 8000, "PLANT_COST": 20975475, "EXP_FUEL": 91011, "EXP_OTHER": 987442, "GAS_COMPRE": 47548, "OP_COMP_HR": 1606, "OP_NUM_COM": 3, "OP_DATE_PE": "2/7/2020 12:00:00 AM", "EXP_POWER": 0, "ELEC_COMPR": 0, "x": -8590911.7929, "y": 5301932.3814}, "geometry": {"type": "Point", "coordinates": [-77.173474, 42.934007]}},
{"type": "Feature", "properties": {"ProjectID": "P0259", "OBJECTID": 612, "GCOMPID": "GCOMP319", "NAME": "#214 - CARROLLTON", "ADDRESS": "2029 COBBLER ROAD NE", "CITY": "CARROLLTON", "STATE": "OH", "ZIP": 44615, "ZIP4": "NOT AVAILABLE", "TYPE": "NATURAL GAS COMPRESSOR STATION", "STATUS": "IN SERVICE", "COUNTY": "CARROLL", "COUNTYFIPS": 39019, "COUNTRY": "USA", "LATITUDE": 40.622185, "LONGITUDE": -81.046215, "NAICS_CODE": 486210, "NAICS_DESC": "BOOSTER PUMPING STATION, NATURAL GAS TRANSPORTATION", "SOURCE": "EPA ENVIROFACTS, FERC FORM 2, CORPORATE WEBSITE", "SOURCEDATE": "7/15/2020 12:00:00 AM", "VAL_METHOD": "IMAGERY/OTHER", "VAL_DATE": "6/20/2022 12:00:00 AM", "WEBSITE": "http://pipeline2.kindermorgan.com/", "PIPECO": "TENNESSEE GAS PIPELINE COMPANY L.L.C.", "COMPID": 9, "OPERATOR": "TENNESSEE GAS PIPELINE COMPANY L.L.C.", "POSREL": "WITHIN 40 FEET", "NUM_UNITS": 13, "CERT_HP": 19880, "PLANT_COST": 31531925, "EXP_FUEL": 1780573, "EXP_OTHER": 2094726, "GAS_COMPRE": 1066037, "OP_COMP_HR": 73893, "OP_NUM_COM": 13, "OP_DATE_PE": "9/9/2020 12:00:00 AM", "EXP_POWER": 0, "ELEC_COMPR": 0, "x": -9022023.3845, "y": 4956772.7492}, "geometry": {"type": "Point", "coordinates": [-81.046215, 40.622185]}},
{"type": "Feature", "properties": {"ProjectID": "P0259", "OBJECTID": 614, "GCOMPID": "GCOMP320", "NAME": "#856 - SAVANNAH", "ADDRESS": "2030 HIGHWAY 226", "CITY": "SAVANNAH", "STATE": "TN", "ZIP": 38372, "ZIP4": "NOT AVAILABLE", "TYPE": "NATURAL GAS COMPRESSOR STATION", "STATUS": "IN SERVICE", "COUNTY": "HARDIN", "COUNTYFIPS": 47071, "COUNTRY": "USA", "LATITUDE": 35.15904861, "LONGITUDE": -88.220813242, "NAICS_CODE": 486210, "NAICS_DESC": "BOOSTER PUMPING STATION, NATURAL GAS TRANSPORTATION", "SOURCE": "EPA ENVIROFACTS, FERC FORM 2, CORPORATE WEBSITE", "SOURCEDATE": "7/15/2020 12:00:00 AM", "VAL_METHOD": "IMAGERY/OTHER", "VAL_DATE": "6/20/2022 12:00:00 AM", "WEBSITE": "http://pipeline2.kindermorgan.com/", "PIPECO": "TENNESSEE GAS PIPELINE COMPANY L.L.C.", "COMPID": 9, "OPERATOR": "TENNESSEE GAS PIPELINE COMPANY L.L.C.", "POSREL": "WITHIN 40 FEET", "NUM_UNITS": 2, "CERT_HP": 12500, "PLANT_COST": 14314340, "EXP_FUEL": 161679, "EXP_OTHER": 183560, "GAS_COMPRE": 59588, "OP_COMP_HR": 583, "OP_NUM_COM": 1, "OP_DATE_PE": "2/11/2012 12:00:00 AM", "EXP_POWER": 0, "ELEC_COMPR": 0, "x": -9820696.0075, "y": 4185516.2758}, "geometry": {"type": "Point", "coordinates": [-88.220813, 35.159049]}},
{"type": "Feature", "properties": {"ProjectID": "P0259", "OBJECTID": 617, "GCOMPID": "GCOMP323", "NAME": "#827 - ALEXANDRIA", "ADDRESS": "2042 HIGHWAY 457", "CITY": "ALEXANDRIA", "STATE": "LA", "ZIP": 71301, "ZIP4": "NOT AVAILABLE", "TYPE": "NATURAL GAS COMPRESSOR STATION", "STATUS": "IN SERVICE", "COUNTY": "RAPIDES PARISH", "COUNTYFIPS": 22079, "COUNTRY": "USA", "LATITUDE": 31.195056, "LONGITUDE": -92.354035, "NAICS_CODE": 486210, "NAICS_DESC": "BOOSTER PUMPING STATION, NATURAL GAS TRANSPORTATION", "SOURCE": "EPA ENVIROFACTS, FERC FORM 2, CORPORATE WEBSITE", "SOURCEDATE": "7/15/2020 12:00:00 AM", "VAL_METHOD": "IMAGERY/OTHER", "VAL_DATE": "6/20/2022 12:00:00 AM", "WEBSITE": "http://pipeline2.kindermorgan.com/", "PIPECO": "TENNESSEE GAS PIPELINE COMPANY L.L.C.", "COMPID": 9, "OPERATOR": "TENNESSEE GAS PIPELINE COMPANY L.L.C.", "POSREL": "WITHIN 40 FEET", "NUM_UNITS": 1, "CERT_HP": 15900, "PLANT_COST": 27242796, "EXP_FUEL": 1376453, "EXP_OTHER": 559317, "GAS_COMPRE": 830545, "OP_COMP_HR": 8473, "OP_NUM_COM": 1, "OP_DATE_PE": "12/4/2020 12:00:00 AM", "EXP_POWER": 0, "ELEC_COMPR": 0, "x": -10280804.149, "y": 3658106.8711}, "geometry": {"type": "Point", "coordinates": [-92.354035, 31.195056]}},
{"type": "Feature", "properties": {"ProjectID": "P0259", "OBJECTID": 629, "GCOMPID": "GCOMP334", "NAME": "#87 - PORTLAND", "ADDRESS": "208 TGT ROAD", "CITY": "PORTLAND", "STATE": "TN", "ZIP": 37148, "ZIP4": "NOT AVAILABLE", "TYPE": "NATURAL GAS COMPRESSOR STATION", "STATUS": "IN SERVICE", "COUNTY": "SUMNER", "COUNTYFIPS": 47165, "COUNTRY": "USA", "LATITUDE": 36.616086, "LONGITUDE": -86.557568, "NAICS_CODE": 486210, "NAICS_DESC": "BOOSTER PUMPING STATION, NATURAL GAS TRANSPORTATION", "SOURCE": "EPA ENVIROFACTS, FERC FORM 2, CORPORATE WEBSITE", "SOURCEDATE": "7/15/2020 12:00:00 AM", "VAL_METHOD": "IMAGERY/OTHER", "VAL_DATE": "6/20/2022 12:00:00 AM", "WEBSITE": "http://pipeline2.kindermorgan.com/", "PIPECO": "TENNESSEE GAS PIPELINE COMPANY L.L.C.", "COMPID": 9, "OPERATOR": "TENNESSEE GAS PIPELINE COMPANY L.L.C.", "POSREL": "WITHIN 40 FEET", "NUM_UNITS": 22, "CERT_HP": 49700, "PLANT_COST": 65717395, "EXP_FUEL": 2138953, "EXP_OTHER": 2813836, "GAS_COMPRE": 1275331, "OP_COMP_HR": 55471, "OP_NUM_COM": 10, "OP_DATE_PE": "11/20/2020 12:00:00 AM", "EXP_POWER": 0, "ELEC_COMPR": 0, "x": -9635544.3941, "y": 4385728.3747}, "geometry": {"type": "Point", "coordinates": [-86.557568, 36.616086]}},
{"type": "Feature", "properties": {"ProjectID": "P0259", "OBJECTID": 635, "GCOMPID": "GCOMP34", "NAME": "#530 - BAY SAINT LOUIS", "ADDRESS": "10064 LOWER BAY ROAD", "CITY": "BAY SAINT LOUIS", "STATE": "MS", "ZIP": 39520, "ZIP4": "NOT AVAILABLE", "TYPE": "NATURAL GAS COMPRESSOR STATION", "STATUS": "IN SERVICE", "COUNTY": "HANCOCK", "COUNTYFIPS": 28045, "COUNTRY": "USA", "LATITUDE": 30.239555, "LONGITUDE": -89.497266, "NAICS_CODE": 486210, "NAICS_DESC": "BOOSTER PUMPING STATION, NATURAL GAS TRANSPORTATION", "SOURCE": "EPA ENVIROFACTS, FERC FORM 2, CORPORATE WEBSITE", "SOURCEDATE": "7/15/2020 12:00:00 AM", "VAL_METHOD": "IMAGERY/OTHER", "VAL_DATE": "6/20/2022 12:00:00 AM", "WEBSITE": "http://pipeline2.kindermorgan.com/", "PIPECO": "TENNESSEE GAS PIPELINE COMPANY L.L.C.", "COMPID": 9, "OPERATOR": "TENNESSEE GAS PIPELINE COMPANY L.L.C.", "POSREL": "WITHIN 40 FEET", "NUM_UNITS": 9, "CERT_HP": 25100, "PLANT_COST": 29423025, "EXP_FUEL": 9442, "EXP_OTHER": 380531, "GAS_COMPRE": 4845, "OP_COMP_HR": 390, "OP_NUM_COM": 3, "OP_DATE_PE": "11/8/2020 12:00:00 AM", "EXP_POWER": 0, "ELEC_COMPR": 0, "x": -9962790.0785, "y": 3534379.7203}, "geometry": {"type": "Point", "coordinates": [-89.497266, 30.239555]}},
{"type": "Feature", "properties": {"ProjectID": "P0259", "OBJECTID": 647, "GCOMPID": "GCOMP350", "NAME": "#1871 - DRY CREEK", "ADDRESS": "2184 DRY CREEK ROAD", "CITY": "ELKHORN", "STATE": "KY", "ZIP": 42733, "ZIP4": "NOT AVAILABLE", "TYPE": "NATURAL GAS COMPRESSOR STATION", "STATUS": "IN SERVICE", "COUNTY": "PIKE", "COUNTYFIPS": 21195, "COUNTRY": "USA", "LATITUDE": 37.344731992, "LONGITUDE": -85.110977908, "NAICS_CODE": 486210, "NAICS_DESC": "BOOSTER PUMPING STATION, NATURAL GAS TRANSPORTATION", "SOURCE": "EPA ENVIROFACTS, FERC FORM 2, CORPORATE WEBSITE, IMAGERY", "SOURCEDATE": "7/15/2020 12:00:00 AM", "VAL_METHOD": "IMAGERY/OTHER", "VAL_DATE": "6/20/2022 12:00:00 AM", "WEBSITE": "http://pipeline2.kindermorgan.com/", "PIPECO": "TENNESSEE GAS PIPELINE COMPANY L.L.C.", "COMPID": 9, "OPERATOR": "TENNESSEE GAS PIPELINE COMPANY L.L.C.", "POSREL": "WITHIN 40 FEET", "NUM_UNITS": 2, "CERT_HP": 2400, "PLANT_COST": 3844939, "EXP_FUEL": 18921, "EXP_OTHER": 58339, "GAS_COMPRE": 6819, "OP_COMP_HR": 1370, "OP_NUM_COM": 1, "OP_DATE_PE": "11/7/2012 12:00:00 AM", "EXP_POWER": 0, "ELEC_COMPR": 0, "x": -9474510.7216, "y": 4487267.5332}, "geometry": {"type": "Point", "coordinates": [-85.110978, 37.344732]}},
{"type": "Feature", "properties": {"ProjectID": "P0259", "OBJECTID": 671, "GCOMPID": "GCOMP372", "NAME": "#504 - PITKIN", "ADDRESS": "2277 GRAVEL HILL CHURCH ROAD", "CITY": "PITKIN", "STATE": "LA", "ZIP": 70656, "ZIP4": "NOT AVAILABLE", "TYPE": "NATURAL GAS COMPRESSOR STATION", "STATUS": "IN SERVICE", "COUNTY": "VERNON PARISH", "COUNTYFIPS": 22115, "COUNTRY": "USA", "LATITUDE": 30.971916, "LONGITUDE": -93.034288, "NAICS_CODE": 486210, "NAICS_DESC": "BOOSTER PUMPING STATION, NATURAL GAS TRANSPORTATION", "SOURCE": "EPA ENVIROFACTS, FERC FORM 2, CORPORATE WEBSITE", "SOURCEDATE": "7/15/2020 12:00:00 AM", "VAL_METHOD": "IMAGERY/OTHER", "VAL_DATE": "6/20/2022 12:00:00 AM", "WEBSITE": "http://pipeline2.kindermorgan.com/", "PIPECO": "TENNESSEE GAS PIPELINE COMPANY L.L.C.", "COMPID": 9, "OPERATOR": "TENNESSEE GAS PIPELINE COMPANY L.L.C.", "POSREL": "WITHIN 40 FEET", "NUM_UNITS": 2, "CERT_HP": 6900, "PLANT_COST": 12130452, "EXP_FUEL": 255175, "EXP_OTHER": 299029, "GAS_COMPRE": 143903, "OP_COMP_HR": 4265, "OP_NUM_COM": 1, "OP_DATE_PE": "12/25/2020 12:00:00 AM", "EXP_POWER": 0, "ELEC_COMPR": 0, "x": -10356529.566, "y": 3629102.4382}, "geometry": {"type": "Point", "coordinates": [-93.034288, 30.971916]}},
{"type": "Feature", "properties": {"ProjectID": "P0259", "OBJECTID": 687, "GCOMPID": "GCOMP387", "NAME": "#204 - ALBANY", "ADDRESS": "2335 US HIGHWAY 50 W", "CITY": "ALBANY", "STATE": "OH", "ZIP": 45710, "ZIP4": "NOT AVAILABLE", "TYPE": "NATURAL GAS COMPRESSOR STATION", "STATUS": "IN SERVICE", "COUNTY": "ATHENS", "COUNTYFIPS": 39009, "COUNTRY": "USA", "LATITUDE": 39.21413, "LONGITUDE": -82.260986, "NAICS_CODE": 486210, "NAICS_DESC": "BOOSTER PUMPING STATION, NATURAL GAS TRANSPORTATION", "SOURCE": "EPA ENVIROFACTS, FERC FORM 2, CORPORATE WEBSITE", "SOURCEDATE": "7/15/2020 12:00:00 AM", "VAL_METHOD": "IMAGERY/OTHER", "VAL_DATE": "6/20/2022 12:00:00 AM", "WEBSITE": "http://pipeline2.kindermorgan.com/", "PIPECO": "TENNESSEE GAS PIPELINE COMPANY L.L.C.", "COMPID": 9, "OPERATOR": "TENNESSEE GAS PIPELINE COMPANY L.L.C.", "POSREL": "WITHIN 40 FEET", "NUM_UNITS": 12, "CERT_HP": 22970, "PLANT_COST": 30309536, "EXP_FUEL": 1858236, "EXP_OTHER": 2457025, "GAS_COMPRE": 1118585, "OP_COMP_HR": 67931, "OP_NUM_COM": 12, "OP_DATE_PE": "9/5/2020 12:00:00 AM", "EXP_POWER": 0, "ELEC_COMPR": 0, "x": -9157251.0737, "y": 4752390.4364}, "geometry": {"type": "Point", "coordinates": [-82.260986, 39.21413]}},
{"type": "Feature", "properties": {"ProjectID": "P0259", "OBJECTID": 718, "GCOMPID": "GCOMP414", "NAME": "#313A ELLLISBURG", "ADDRESS": "247 ROSE LAKE ROAD", "CITY": "GENESEE", "STATE": "PA", "ZIP": 16923, "ZIP4": "NOT AVAILABLE", "TYPE": "NATURAL GAS COMPRESSOR STATION", "STATUS": "IN SERVICE", "COUNTY": "POTTER", "COUNTYFIPS": 42105, "COUNTRY": "USA", "LATITUDE": 41.899490786, "LONGITUDE": -77.916445976, "NAICS_CODE": 486210, "NAICS_DESC": "BOOSTER PUMPING STATION, NATURAL GAS TRANSPORTATION", "SOURCE": "EPA ENVIROFACTS, FERC FORM 2, CORPORATE WEBSITE", "SOURCEDATE": "7/15/2020 12:00:00 AM", "VAL_METHOD": "IMAGERY/OTHER", "VAL_DATE": "6/20/2022 12:00:00 AM", "WEBSITE": "http://pipeline2.kindermorgan.com/", "PIPECO": "TENNESSEE GAS PIPELINE COMPANY L.L.C.", "COMPID": 9, "OPERATOR": "TENNESSEE GAS PIPELINE COMPANY L.L.C.", "POSREL": "WITHIN 40 FEET", "NUM_UNITS": 2, "CERT_HP": 4730, "PLANT_COST": 15108627, "EXP_FUEL": 974608, "EXP_OTHER": 194619, "GAS_COMPRE": 579260, "OP_COMP_HR": 15, "OP_NUM_COM": 2, "OP_DATE_PE": "9/14/2020 12:00:00 AM", "EXP_POWER": 1339071, "ELEC_COMPR": 16523970, "x": -8673619.0905, "y": 5145935.5214}, "geometry": {"type": "Point", "coordinates": [-77.916446, 41.899491]}},
{"type": "Feature", "properties": {"ProjectID": "P0259", "OBJECTID": 719, "GCOMPID": "GCOMP415", "NAME": "SOUTHWICK 260A #260A DOMESTIC FUEL", "ADDRESS": "248 FEEDING HILLS ROAD", "CITY": "SOUTHWICK", "STATE": "MA", "ZIP": 1077, "ZIP4": "NOT AVAILABLE", "TYPE": "NATURAL GAS COMPRESSOR STATION", "STATUS": "IN SERVICE", "COUNTY": "HAMPDEN", "COUNTYFIPS": 25013, "COUNTRY": "USA", "LATITUDE": 42.065506, "LONGITUDE": -72.720477, "NAICS_CODE": 486210, "NAICS_DESC": "BOOSTER PUMPING STATION, NATURAL GAS TRANSPORTATION", "SOURCE": "FERC FORM 2, U.S. FEDERAL REGISTER", "SOURCEDATE": "7/15/2020 12:00:00 AM", "VAL_METHOD": "IMAGERY/OTHER", "VAL_DATE": "6/20/2022 12:00:00 AM", "WEBSITE": "http://pipeline2.kindermorgan.com/", "PIPECO": "TENNESSEE GAS PIPELINE COMPANY L.L.C.", "COMPID": 9, "OPERATOR": "TENNESSEE GAS PIPELINE COMPANY L.L.C.", "POSREL": "WITHIN 40 FEET", "NUM_UNITS": 1, "CERT_HP": 2100, "PLANT_COST": 16081421, "EXP_FUEL": 0, "EXP_OTHER": 174654, "GAS_COMPRE": 0, "OP_COMP_HR": 1782, "OP_NUM_COM": 1, "OP_DATE_PE": "12/18/2020 12:00:00 AM", "EXP_POWER": 261302, "ELEC_COMPR": 1340400, "x": -8095206.4699, "y": 5170796.9814}, "geometry": {"type": "Point", "coordinates": [-72.722172, 42.052062]}},
{"type": "Feature", "properties": {"ProjectID": "P0259", "OBJECTID": 730, "GCOMPID": "GCOMP425", "NAME": "#71 - MIDDLETON", "ADDRESS": "2560 HIGHWAY 125 S", "CITY": "MIDDLETON", "STATE": "TN", "ZIP": 38052, "ZIP4": "NOT AVAILABLE", "TYPE": "NATURAL GAS COMPRESSOR STATION", "STATUS": "IN SERVICE", "COUNTY": "HARDEMAN", "COUNTYFIPS": 47069, "COUNTRY": "USA", "LATITUDE": 35.033369, "LONGITUDE": -88.891015, "NAICS_CODE": 486210, "NAICS_DESC": "BOOSTER PUMPING STATION, NATURAL GAS TRANSPORTATION", "SOURCE": "EPA ENVIROFACTS, FERC FORM 2, CORPORATE WEBSITE", "SOURCEDATE": "7/15/2020 12:00:00 AM", "VAL_METHOD": "IMAGERY/OTHER", "VAL_DATE": "6/20/2022 12:00:00 AM", "WEBSITE": "http://pipeline2.kindermorgan.com/", "PIPECO": "TENNESSEE GAS PIPELINE COMPANY L.L.C.", "COMPID": 9, "OPERATOR": "TENNESSEE GAS PIPELINE COMPANY L.L.C.", "POSREL": "WITHIN 40 FEET", "NUM_UNITS": 23, "CERT_HP": 34350, "PLANT_COST": 53930709, "EXP_FUEL": 567487, "EXP_OTHER": 1692601, "GAS_COMPRE": 352462, "OP_COMP_HR": 23249, "OP_NUM_COM": 11, "OP_DATE_PE": "10/16/2020 12:00:00 AM", "EXP_POWER": 0, "ELEC_COMPR": 0, "x": -9895302.5259, "y": 4168416.783}, "geometry": {"type": "Point", "coordinates": [-88.891015, 35.033369]}},
{"type": "Feature", "properties": {"ProjectID": "P0259", "OBJECTID": 731, "GCOMPID": "GCOMP426", "NAME": "#25 - CLEVELAND", "ADDRESS": "25726 HIGHWAY 105", "CITY": "CLEVELAND", "STATE": "TX", "ZIP": 77327, "ZIP4": "NOT AVAILABLE", "TYPE": "NATURAL GAS COMPRESSOR STATION", "STATUS": "IN SERVICE", "COUNTY": "LIBERTY", "COUNTYFIPS": 48291, "COUNTRY": "USA", "LATITUDE": 30.320938236, "LONGITUDE": -95.158913894, "NAICS_CODE": 486210, "NAICS_DESC": "BOOSTER PUMPING STATION, NATURAL GAS TRANSPORTATION", "SOURCE": "EPA ENVIROFACTS, FERC FORM 2, CORPORATE WEBSITE", "SOURCEDATE": "7/15/2020 12:00:00 AM", "VAL_METHOD": "IMAGERY/OTHER", "VAL_DATE": "6/20/2022 12:00:00 AM", "WEBSITE": "http://pipeline2.kindermorgan.com/", "PIPECO": "TENNESSEE GAS PIPELINE COMPANY L.L.C.", "COMPID": 9, "OPERATOR": "TENNESSEE GAS PIPELINE COMPANY L.L.C.", "POSREL": "WITHIN 40 FEET", "NUM_UNITS": 3, "CERT_HP": 25600, "PLANT_COST": 71633636, "EXP_FUEL": 0, "EXP_OTHER": 1067413, "GAS_COMPRE": 0, "OP_COMP_HR": 14692, "OP_NUM_COM": 2, "OP_DATE_PE": "11/21/2020 12:00:00 AM", "EXP_POWER": 3739813, "ELEC_COMPR": 85824000, "x": -10593041.839, "y": 3544870.5289}, "geometry": {"type": "Point", "coordinates": [-95.158914, 30.320938]}},
{"type": "Feature", "properties": {"ProjectID": "P0259", "OBJECTID": 732, "GCOMPID": "GCOMP427", "NAME": "#524 - LEEVILLE", "ADDRESS": "25750 HIGHWAY. 1", "CITY": "GOLDEN MEADOW", "STATE": "LA", "ZIP": 70357, "ZIP4": "NOT AVAILABLE", "TYPE": "NATURAL GAS COMPRESSOR STATION", "STATUS": "IN SERVICE", "COUNTY": "LAFOURCHE PARISH", "COUNTYFIPS": 22057, "COUNTRY": "USA", "LATITUDE": 29.216120062, "LONGITUDE": -90.216317639, "NAICS_CODE": 486210, "NAICS_DESC": "BOOSTER PUMPING STATION, NATURAL GAS TRANSPORTATION", "SOURCE": "EPA ENVIROFACTS, FERC FORM 2, CORPORATE WEBSITE", "SOURCEDATE": "7/15/2020 12:00:00 AM", "VAL_METHOD": "IMAGERY/OTHER", "VAL_DATE": "6/20/2022 12:00:00 AM", "WEBSITE": "http://pipeline2.kindermorgan.com/", "PIPECO": "TENNESSEE GAS PIPELINE COMPANY L.L.C.", "COMPID": 9, "OPERATOR": "TENNESSEE GAS PIPELINE COMPANY L.L.C.", "POSREL": "WITHIN 40 FEET", "NUM_UNITS": 4, "CERT_HP": 45400, "PLANT_COST": 127350667, "EXP_FUEL": 1802108, "EXP_OTHER": 0, "GAS_COMPRE": 778108, "OP_COMP_HR": 9046, "OP_NUM_COM": 0, "OP_DATE_PE": "7/15/2020 12:00:00 AM", "EXP_POWER": 0, "ELEC_COMPR": 0, "x": -10042834.541, "y": 3403182.1385}, "geometry": {"type": "Point", "coordinates": [-90.216318, 29.21612]}},
{"type": "Feature", "properties": {"ProjectID": "P0259", "OBJECTID": 736, "GCOMPID": "GCOMP430", "NAME": "#527 - PORT SULFUR", "ADDRESS": "26166 LA HIGHWAY. 23", "CITY": "PORT SULPHUR", "STATE": "LA", "ZIP": 70083, "ZIP4": "NOT AVAILABLE", "TYPE": "NATURAL GAS COMPRESSOR STATION", "STATUS": "IN SERVICE", "COUNTY": "PLAQUEMINES PARISH", "COUNTYFIPS": 22075, "COUNTRY": "USA", "LATITUDE": 29.515746, "LONGITUDE": -89.729297, "NAICS_CODE": 486210, "NAICS_DESC": "BOOSTER PUMPING STATION, NATURAL GAS TRANSPORTATION", "SOURCE": "EPA ENVIROFACTS, FERC FORM 2, CORPORATE WEBSITE", "SOURCEDATE": "7/15/2020 12:00:00 AM", "VAL_METHOD": "IMAGERY/OTHER", "VAL_DATE": "6/20/2022 12:00:00 AM", "WEBSITE": "http://pipeline2.kindermorgan.com/", "PIPECO": "TENNESSEE GAS PIPELINE COMPANY L.L.C.", "COMPID": 9, "OPERATOR": "TENNESSEE GAS PIPELINE COMPANY L.L.C.", "POSREL": "WITHIN 40 FEET", "NUM_UNITS": 4, "CERT_HP": 38200, "PLANT_COST": 121312992, "EXP_FUEL": 8002, "EXP_OTHER": 2323802, "GAS_COMPRE": 4953, "OP_COMP_HR": 439, "OP_NUM_COM": 1, "OP_DATE_PE": "7/8/2020 12:00:00 AM", "EXP_POWER": 398402, "ELEC_COMPR": 3356000, "x": -9988619.6513, "y": 3441454.1488}, "geometry": {"type": "Point", "coordinates": [-89.729297, 29.515746]}},
{"type": "Feature", "properties": {"ProjectID": "P0259", "OBJECTID": 745, "GCOMPID": "GCOMP439", "NAME": "#54 - GREENVILLE", "ADDRESS": "272 TENNESSEE GAS ROAD", "CITY": "GREENVILLE", "STATE": "MS", "ZIP": 38701, "ZIP4": "NOT AVAILABLE", "TYPE": "NATURAL GAS COMPRESSOR STATION", "STATUS": "IN SERVICE", "COUNTY": "WASHINGTON", "COUNTYFIPS": 28151, "COUNTRY": "USA", "LATITUDE": 33.358384561, "LONGITUDE": -91.056022244, "NAICS_CODE": 486210, "NAICS_DESC": "BOOSTER PUMPING STATION, NATURAL GAS TRANSPORTATION", "SOURCE": "EPA ENVIROFACTS, FERC FORM 2, CORPORATE WEBSITE", "SOURCEDATE": "7/15/2020 12:00:00 AM", "VAL_METHOD": "IMAGERY/OTHER", "VAL_DATE": "6/20/2022 12:00:00 AM", "WEBSITE": "http://pipeline2.kindermorgan.com/", "PIPECO": "TENNESSEE GAS PIPELINE COMPANY L.L.C.", "COMPID": 9, "OPERATOR": "TENNESSEE GAS PIPELINE COMPANY L.L.C.", "POSREL": "WITHIN 40 FEET", "NUM_UNITS": 16, "CERT_HP": 38970, "PLANT_COST": 57837834, "EXP_FUEL": 29889, "EXP_OTHER": 1036037, "GAS_COMPRE": 17060, "OP_COMP_HR": 120, "OP_NUM_COM": 2, "OP_DATE_PE": "5/4/2020 12:00:00 AM", "EXP_POWER": 829604, "ELEC_COMPR": 1058009, "x": -10136310.03, "y": 3942970.7086}, "geometry": {"type": "Point", "coordinates": [-91.056022, 33.358385]}},
{"type": "Feature", "properties": {"ProjectID": "P0259", "OBJECTID": 752, "GCOMPID": "GCOMP445", "NAME": "#860 - CENTERVILLE", "ADDRESS": "2775 HIGHWAY 48 N", "CITY": "NUNNELLY", "STATE": "TN", "ZIP": 37137, "ZIP4": "NOT AVAILABLE", "TYPE": "NATURAL GAS COMPRESSOR STATION", "STATUS": "IN SERVICE", "COUNTY": "HICKMAN", "COUNTYFIPS": 47081, "COUNTRY": "USA", "LATITUDE": 35.848036, "LONGITUDE": -87.449908, "NAICS_CODE": 486210, "NAICS_DESC": "BOOSTER PUMPING STATION, NATURAL GAS TRANSPORTATION", "SOURCE": "EPA ENVIROFACTS, FERC FORM 2, CORPORATE WEBSITE", "SOURCEDATE": "7/15/2020 12:00:00 AM", "VAL_METHOD": "IMAGERY/OTHER", "VAL_DATE": "6/20/2022 12:00:00 AM", "WEBSITE": "http://pipeline2.kindermorgan.com/", "PIPECO": "TENNESSEE GAS PIPELINE COMPANY L.L.C.", "COMPID": 9, "OPERATOR": "TENNESSEE GAS PIPELINE COMPANY L.L.C.", "POSREL": "WITHIN 40 FEET", "NUM_UNITS": 13, "CERT_HP": 31600, "PLANT_COST": 46264303, "EXP_FUEL": 2166940, "EXP_OTHER": 2714609, "GAS_COMPRE": 1278744, "OP_COMP_HR": 62941, "OP_NUM_COM": 9, "OP_DATE_PE": "12/18/2020 12:00:00 AM", "EXP_POWER": 0, "ELEC_COMPR": 0, "x": -9734879.2285, "y": 4279731.4564}, "geometry": {"type": "Point", "coordinates": [-87.449908, 35.848036]}},
{"type": "Feature", "properties": {"ProjectID": "P0259", "OBJECTID": 762, "GCOMPID": "GCOMP454", "NAME": "#249 - CARLISLE", "ADDRESS": "2840 HIGHWAY ROUTE 20", "CITY": "SLOANSVILLE", "STATE": "NY", "ZIP": 12160, "ZIP4": "NOT AVAILABLE", "TYPE": "NATURAL GAS COMPRESSOR STATION", "STATUS": "IN SERVICE", "COUNTY": "SCHOHARIE", "COUNTYFIPS": 36095, "COUNTRY": "USA", "LATITUDE": 42.755757956, "LONGITUDE": -74.402791826, "NAICS_CODE": 486210, "NAICS_DESC": "BOOSTER PUMPING STATION, NATURAL GAS TRANSPORTATION", "SOURCE": "EPA ENVIROFACTS, FERC FORM 2, CORPORATE WEBSITE", "SOURCEDATE": "7/15/2020 12:00:00 AM", "VAL_METHOD": "IMAGERY/OTHER", "VAL_DATE": "6/20/2022 12:00:00 AM", "WEBSITE": "http://pipeline2.kindermorgan.com/", "PIPECO": "TENNESSEE GAS PIPELINE COMPANY L.L.C.", "COMPID": 9, "OPERATOR": "TENNESSEE GAS PIPELINE COMPANY L.L.C.", "POSREL": "WITHIN 40 FEET", "NUM_UNITS": 4, "CERT_HP": 16200, "PLANT_COST": 45562963, "EXP_FUEL": 1095398, "EXP_OTHER": 1110979, "GAS_COMPRE": 633614, "OP_COMP_HR": 20207, "OP_NUM_COM": 4, "OP_DATE_PE": "2/29/2020 12:00:00 AM", "EXP_POWER": 0, "ELEC_COMPR": 0, "x": -8282480.8997, "y": 5274869.3005}, "geometry": {"type": "Point", "coordinates": [-74.402792, 42.755758]}},
{"type": "Feature", "properties": {"ProjectID": "P0259", "OBJECTID": 779, "GCOMPID": "GCOMP47", "NAME": "#106 - CLAY CITY", "ADDRESS": "10205 WINCHESTER ROAD", "CITY": "CLAY CITY", "STATE": "KY", "ZIP": 40312, "ZIP4": "NOT AVAILABLE", "TYPE": "NATURAL GAS COMPRESSOR STATION", "STATUS": "IN SERVICE", "COUNTY": "POWELL", "COUNTYFIPS": 21197, "COUNTRY": "USA", "LATITUDE": 37.917435866, "LONGITUDE": -83.984955151, "NAICS_CODE": 486210, "NAICS_DESC": "BOOSTER PUMPING STATION, NATURAL GAS TRANSPORTATION", "SOURCE": "EPA ENVIROFACTS, FERC FORM 2, CORPORATE WEBSITE", "SOURCEDATE": "7/15/2020 12:00:00 AM", "VAL_METHOD": "IMAGERY/OTHER", "VAL_DATE": "6/20/2022 12:00:00 AM", "WEBSITE": "http://pipeline2.kindermorgan.com/", "PIPECO": "TENNESSEE GAS PIPELINE COMPANY L.L.C.", "COMPID": 9, "OPERATOR": "TENNESSEE GAS PIPELINE COMPANY L.L.C.", "POSREL": "WITHIN 40 FEET", "NUM_UNITS": 18, "CERT_HP": 59800, "PLANT_COST": 167543850, "EXP_FUEL": 4159814, "EXP_OTHER": 3777990, "GAS_COMPRE": 2466558, "OP_COMP_HR": 62174, "OP_NUM_COM": 14, "OP_DATE_PE": "12/31/2020 12:00:00 AM", "EXP_POWER": 0, "ELEC_COMPR": 0, "x": -9349162.4417, "y": 4567768.8265}, "geometry": {"type": "Point", "coordinates": [-83.984955, 37.917436]}},
{"type": "Feature", "properties": {"ProjectID": "P0259", "OBJECTID": 780, "GCOMPID": "GCOMP470", "NAME": "#114 - CATLETTSBURG", "ADDRESS": "29450 MAYO TRAIL ROAD", "CITY": "CATLETTSBURG", "STATE": "KY", "ZIP": 41129, "ZIP4": "NOT AVAILABLE", "TYPE": "NATURAL GAS COMPRESSOR STATION", "STATUS": "IN SERVICE", "COUNTY": "BOYD", "COUNTYFIPS": 21019, "COUNTRY": "USA", "LATITUDE": 38.271462, "LONGITUDE": -82.576237, "NAICS_CODE": 486210, "NAICS_DESC": "BOOSTER PUMPING STATION, NATURAL GAS TRANSPORTATION", "SOURCE": "EPA ENVIROFACTS, FERC FORM 2, CORPORATE WEBSITE", "SOURCEDATE": "7/15/2020 12:00:00 AM", "VAL_METHOD": "IMAGERY/OTHER", "VAL_DATE": "6/20/2022 12:00:00 AM", "WEBSITE": "http://pipeline2.kindermorgan.com/", "PIPECO": "TENNESSEE GAS PIPELINE COMPANY L.L.C.", "COMPID": 9, "OPERATOR": "TENNESSEE GAS PIPELINE COMPANY L.L.C.", "POSREL": "WITHIN 40 FEET", "NUM_UNITS": 11, "CERT_HP": 34801, "PLANT_COST": 100154746, "EXP_FUEL": 2093057, "EXP_OTHER": 1265112, "GAS_COMPRE": 1220627, "OP_COMP_HR": 13101, "OP_NUM_COM": 10, "OP_DATE_PE": "9/9/2020 12:00:00 AM", "EXP_POWER": 2556432, "ELEC_COMPR": 17766000, "x": -9192344.6545, "y": 4617845.5853}, "geometry": {"type": "Point", "coordinates": [-82.576237, 38.271462]}},
{"type": "Feature", "properties": {"ProjectID": "P0259", "OBJECTID": 844, "GCOMPID": "GCOMP528", "NAME": "#209 - CAMBRIDGE", "ADDRESS": "3428 CLAY PIKE ROAD", "CITY": "CUMBERLAND", "STATE": "OH", "ZIP": 43732, "ZIP4": "NOT AVAILABLE", "TYPE": "NATURAL GAS COMPRESSOR STATION", "STATUS": "IN SERVICE", "COUNTY": "GUERNSEY", "COUNTYFIPS": 39059, "COUNTRY": "USA", "LATITUDE": 39.939008, "LONGITUDE": -81.681792, "NAICS_CODE": 486210, "NAICS_DESC": "BOOSTER PUMPING STATION, NATURAL GAS TRANSPORTATION", "SOURCE": "EPA ENVIROFACTS, FERC FORM 2, CORPORATE WEBSITE", "SOURCEDATE": "7/15/2020 12:00:00 AM", "VAL_METHOD": "IMAGERY/OTHER", "VAL_DATE": "6/20/2022 12:00:00 AM", "WEBSITE": "http://pipeline2.kindermorgan.com/", "PIPECO": "TENNESSEE GAS PIPELINE COMPANY L.L.C.", "COMPID": 9, "OPERATOR": "TENNESSEE GAS PIPELINE COMPANY L.L.C.", "POSREL": "WITHIN 40 FEET", "NUM_UNITS": 13, "CERT_HP": 21000, "PLANT_COST": 31664596, "EXP_FUEL": 1618008, "EXP_OTHER": 2014845, "GAS_COMPRE": 939302, "OP_COMP_HR": 70942, "OP_NUM_COM": 12, "OP_DATE_PE": "8/21/2020 12:00:00 AM", "EXP_POWER": 0, "ELEC_COMPR": 0, "x": -9092775.4925, "y": 4857083.0427}, "geometry": {"type": "Point", "coordinates": [-81.681792, 39.939008]}},
{"type": "Feature", "properties": {"ProjectID": "P0259", "OBJECTID": 847, "GCOMPID": "GCOMP530", "NAME": "#241 - LAFAYETTE", "ADDRESS": "3447 SENTINEL HEIGHTS ROAD", "CITY": "LA FAYETTE", "STATE": "NY", "ZIP": 13084, "ZIP4": "NOT AVAILABLE", "TYPE": "NATURAL GAS COMPRESSOR STATION", "STATUS": "IN SERVICE", "COUNTY": "ONONDAGA", "COUNTYFIPS": 36067, "COUNTRY": "USA", "LATITUDE": 42.939367, "LONGITUDE": -76.11627, "NAICS_CODE": 486210, "NAICS_DESC": "BOOSTER PUMPING STATION, NATURAL GAS TRANSPORTATION", "SOURCE": "EPA ENVIROFACTS, FERC FORM 2, CORPORATE WEBSITE", "SOURCEDATE": "7/15/2020 12:00:00 AM", "VAL_METHOD": "IMAGERY/OTHER", "VAL_DATE": "6/20/2022 12:00:00 AM", "WEBSITE": "http://pipeline2.kindermorgan.com/", "PIPECO": "TENNESSEE GAS PIPELINE COMPANY L.L.C.", "COMPID": 9, "OPERATOR": "TENNESSEE GAS PIPELINE COMPANY L.L.C.", "POSREL": "WITHIN 40 FEET", "NUM_UNITS": 5, "CERT_HP": 18400, "PLANT_COST": 52586637, "EXP_FUEL": 1050815, "EXP_OTHER": 1154433, "GAS_COMPRE": 599310, "OP_COMP_HR": 22070, "OP_NUM_COM": 5, "OP_DATE_PE": "12/23/2020 12:00:00 AM", "EXP_POWER": 0, "ELEC_COMPR": 0, "x": -8473224.4175, "y": 5302747.4351}, "geometry": {"type": "Point", "coordinates": [-76.11627, 42.939367]}},
{"type": "Feature", "properties": {"ProjectID": "P0259", "OBJECTID": 850, "GCOMPID": "GCOMP533", "NAME": "#79 - LOBELVILLE", "ADDRESS": "348 TENNESSEE GAS DRIVE", "CITY": "LOBELVILLE", "STATE": "TN", "ZIP": 37097, "ZIP4": "NOT AVAILABLE", "TYPE": "NATURAL GAS COMPRESSOR STATION", "STATUS": "IN SERVICE", "COUNTY": "PERRY", "COUNTYFIPS": 47135, "COUNTRY": "USA", "LATITUDE": 35.776680452, "LONGITUDE": -87.786855944, "NAICS_CODE": 486210, "NAICS_DESC": "BOOSTER PUMPING STATION, NATURAL GAS TRANSPORTATION", "SOURCE": "EPA ENVIROFACTS, FERC FORM 2, CORPORATE WEBSITE", "SOURCEDATE": "7/15/2020 12:00:00 AM", "VAL_METHOD": "IMAGERY/OTHER", "VAL_DATE": "6/20/2022 12:00:00 AM", "WEBSITE": "http://pipeline2.kindermorgan.com/", "PIPECO": "TENNESSEE GAS PIPELINE COMPANY L.L.C.", "COMPID": 9, "OPERATOR": "TENNESSEE GAS PIPELINE COMPANY L.L.C.", "POSREL": "WITHIN 40 FEET", "NUM_UNITS": 3, "CERT_HP": 39099, "PLANT_COST": 75857044, "EXP_FUEL": 9, "EXP_OTHER": 490329, "GAS_COMPRE": 6, "OP_COMP_HR": 0, "OP_NUM_COM": 0, "OP_DATE_PE": "1/1/2001 12:00:00 AM", "EXP_POWER": 0, "ELEC_COMPR": 0, "x": -9772388.102, "y": 4269936.2958}, "geometry": {"type": "Point", "coordinates": [-87.786856, 35.77668]}},
{"type": "Feature", "properties": {"ProjectID": "P0259", "OBJECTID": 941, "GCOMPID": "GCOMP617", "NAME": "#307 - PIGEON", "ADDRESS": "44232 PA-66", "CITY": "MARIENVILLE", "STATE": "PA", "ZIP": 16239, "ZIP4": "NOT AVAILABLE", "TYPE": "NATURAL GAS COMPRESSOR STATION", "STATUS": "IN SERVICE", "COUNTY": "FOREST", "COUNTYFIPS": 42053, "COUNTRY": "USA", "LATITUDE": 41.539255, "LONGITUDE": -79.038829, "NAICS_CODE": 486210, "NAICS_DESC": "BOOSTER PUMPING STATION, NATURAL GAS TRANSPORTATION", "SOURCE": "EPA ENVIROFACTS, FERC FORM 2, CORPORATE WEBSITE", "SOURCEDATE": "7/15/2020 12:00:00 AM", "VAL_METHOD": "IMAGERY/OTHER", "VAL_DATE": "6/20/2022 12:00:00 AM", "WEBSITE": "http://pipeline2.kindermorgan.com/", "PIPECO": "TENNESSEE GAS PIPELINE COMPANY L.L.C.", "COMPID": 9, "OPERATOR": "TENNESSEE GAS PIPELINE COMPANY L.L.C.", "POSREL": "WITHIN 40 FEET", "NUM_UNITS": 6, "CERT_HP": 15500, "PLANT_COST": 32658558, "EXP_FUEL": 1417182, "EXP_OTHER": 1642109, "GAS_COMPRE": 833105, "OP_COMP_HR": 42298, "OP_NUM_COM": 6, "OP_DATE_PE": "10/28/2020 12:00:00 AM", "EXP_POWER": 0, "ELEC_COMPR": 0, "x": -8798562.1972, "y": 5092210.0048}, "geometry": {"type": "Point", "coordinates": [-79.038829, 41.539255]}},
{"type": "Feature", "properties": {"ProjectID": "P0259", "OBJECTID": 956, "GCOMPID": "GCOMP630", "NAME": "#550 - HAMILTON", "ADDRESS": "455 COUNTY HIGHWAY 56", "CITY": "HAMILTON", "STATE": "AL", "ZIP": 35570, "ZIP4": "NOT AVAILABLE", "TYPE": "NATURAL GAS COMPRESSOR STATION", "STATUS": "IN SERVICE", "COUNTY": "MARION", "COUNTYFIPS": 1093, "COUNTRY": "USA", "LATITUDE": 34.235405, "LONGITUDE": -88.076087, "NAICS_CODE": 486210, "NAICS_DESC": "BOOSTER PUMPING STATION, NATURAL GAS TRANSPORTATION", "SOURCE": "EPA ENVIROFACTS, FERC FORM 2, CORPORATE WEBSITE", "SOURCEDATE": "7/15/2020 12:00:00 AM", "VAL_METHOD": "IMAGERY/OTHER", "VAL_DATE": "6/20/2022 12:00:00 AM", "WEBSITE": "http://pipeline2.kindermorgan.com/", "PIPECO": "TENNESSEE GAS PIPELINE COMPANY L.L.C.", "COMPID": 9, "OPERATOR": "TENNESSEE GAS PIPELINE COMPANY L.L.C.", "POSREL": "WITHIN 40 FEET", "NUM_UNITS": 5, "CERT_HP": 29500, "PLANT_COST": 34381215, "EXP_FUEL": 1935848, "EXP_OTHER": 1733682, "GAS_COMPRE": 1137998, "OP_COMP_HR": 23551, "OP_NUM_COM": 4, "OP_DATE_PE": "8/23/2020 12:00:00 AM", "EXP_POWER": 0, "ELEC_COMPR": 0, "x": -9804585.1559, "y": 4060455.1354}, "geometry": {"type": "Point", "coordinates": [-88.076087, 34.235405]}},
{"type": "Feature", "properties": {"ProjectID": "P0259", "OBJECTID": 958, "GCOMPID": "GCOMP632", "NAME": "#245 - WEST WINFIELD", "ADDRESS": "457 BURROWS ROAD", "CITY": "WEST WINFIELD", "STATE": "NY", "ZIP": 13491, "ZIP4": "NOT AVAILABLE", "TYPE": "NATURAL GAS COMPRESSOR STATION", "STATUS": "IN SERVICE", "COUNTY": "HERKIMER", "COUNTYFIPS": 36043, "COUNTRY": "USA", "LATITUDE": 42.873611, "LONGITUDE": -75.167397, "NAICS_CODE": 486210, "NAICS_DESC": "BOOSTER PUMPING STATION, NATURAL GAS TRANSPORTATION", "SOURCE": "EPA ENVIROFACTS, FERC FORM 2, CORPORATE WEBSITE", "SOURCEDATE": "7/15/2020 12:00:00 AM", "VAL_METHOD": "IMAGERY/OTHER", "VAL_DATE": "6/20/2022 12:00:00 AM", "WEBSITE": "http://pipeline2.kindermorgan.com/", "PIPECO": "TENNESSEE GAS PIPELINE COMPANY L.L.C.", "COMPID": 9, "OPERATOR": "TENNESSEE GAS PIPELINE COMPANY L.L.C.", "POSREL": "WITHIN 40 FEET", "NUM_UNITS": 9, "CERT_HP": 20219, "PLANT_COST": 80913648, "EXP_FUEL": 1144435, "EXP_OTHER": 1460918, "GAS_COMPRE": 638973, "OP_COMP_HR": 17027, "OP_NUM_COM": 5, "OP_DATE_PE": "1/27/2020 12:00:00 AM", "EXP_POWER": 0, "ELEC_COMPR": 0, "x": -8367596.3583, "y": 5292753.8961}, "geometry": {"type": "Point", "coordinates": [-75.167397, 42.873611]}},
{"type": "Feature", "properties": {"ProjectID": "P0259", "OBJECTID": 990, "GCOMPID": "GCOMP661", "NAME": "#254 - NASSAU", "ADDRESS": "5035 STATE ROUTE 66", "CITY": "NASSAU", "STATE": "NY", "ZIP": 12123, "ZIP4": "NOT AVAILABLE", "TYPE": "NATURAL GAS COMPRESSOR STATION", "STATUS": "IN SERVICE", "COUNTY": "RENSSELAER", "COUNTYFIPS": 36083, "COUNTRY": "USA", "LATITUDE": 42.482842, "LONGITUDE": -73.563171, "NAICS_CODE": 486210, "NAICS_DESC": "BOOSTER PUMPING STATION, NATURAL GAS TRANSPORTATION", "SOURCE": "EPA ENVIROFACTS, FERC FORM 2, CORPORATE WEBSITE", "SOURCEDATE": "7/15/2020 12:00:00 AM", "VAL_METHOD": "IMAGERY/OTHER", "VAL_DATE": "6/20/2022 12:00:00 AM", "WEBSITE": "http://pipeline2.kindermorgan.com/", "PIPECO": "TENNESSEE GAS PIPELINE COMPANY L.L.C.", "COMPID": 9, "OPERATOR": "TENNESSEE GAS PIPELINE COMPANY L.L.C.", "POSREL": "WITHIN 40 FEET", "NUM_UNITS": 7, "CERT_HP": 18710, "PLANT_COST": 56776179, "EXP_FUEL": 719946, "EXP_OTHER": 725964, "GAS_COMPRE": 384789, "OP_COMP_HR": 12702, "OP_NUM_COM": 7, "OP_DATE_PE": "1/20/2020 12:00:00 AM", "EXP_POWER": 0, "ELEC_COMPR": 0, "x": -8189014.7369, "y": 5233583.4997}, "geometry": {"type": "Point", "coordinates": [-73.563171, 42.482842]}},
{"type": "Feature", "properties": {"ProjectID": "P0259", "OBJECTID": 997, "GCOMPID": "GCOMP668", "NAME": "#546 - COLUMBUS", "ADDRESS": "511 CROWE ROAD", "CITY": "COLUMBUS", "STATE": "MS", "ZIP": 39702, "ZIP4": "NOT AVAILABLE", "TYPE": "NATURAL GAS COMPRESSOR STATION", "STATUS": "IN SERVICE", "COUNTY": "LOWNDES", "COUNTYFIPS": 28087, "COUNTRY": "USA", "LATITUDE": 33.449728, "LONGITUDE": -88.360271, "NAICS_CODE": 486210, "NAICS_DESC": "BOOSTER PUMPING STATION, NATURAL GAS TRANSPORTATION", "SOURCE": "EPA ENVIROFACTS, FERC FORM 2, CORPORATE WEBSITE", "SOURCEDATE": "7/15/2020 12:00:00 AM", "VAL_METHOD": "IMAGERY/OTHER", "VAL_DATE": "6/20/2022 12:00:00 AM", "WEBSITE": "http://pipeline2.kindermorgan.com/", "PIPECO": "TENNESSEE GAS PIPELINE COMPANY L.L.C.", "COMPID": 9, "OPERATOR": "TENNESSEE GAS PIPELINE COMPANY L.L.C.", "POSREL": "WITHIN 40 FEET", "NUM_UNITS": 8, "CERT_HP": 30000, "PLANT_COST": 30323222, "EXP_FUEL": 1946798, "EXP_OTHER": 1892455, "GAS_COMPRE": 1150343, "OP_COMP_HR": 35259, "OP_NUM_COM": 7, "OP_DATE_PE": "12/23/2020 12:00:00 AM", "EXP_POWER": 0, "ELEC_COMPR": 0, "x": -9836220.3741, "y": 3955151.1098}, "geometry": {"type": "Point", "coordinates": [-88.360271, 33.449728]}},
{"type": "Feature", "properties": {"ProjectID": "P0259", "OBJECTID": 1004, "GCOMPID": "GCOMP674", "NAME": "#230C - LOCKPORT", "ADDRESS": "5186 LOCKPORT JUNCTION ROAD", "CITY": "LOCKPORT", "STATE": "NY", "ZIP": 14094, "ZIP4": "NOT AVAILABLE", "TYPE": "NATURAL GAS COMPRESSOR STATION", "STATUS": "IN SERVICE", "COUNTY": "NIAGARA", "COUNTYFIPS": 36063, "COUNTRY": "USA", "LATITUDE": 43.159746, "LONGITUDE": -78.762253, "NAICS_CODE": 486210, "NAICS_DESC": "BOOSTER PUMPING STATION, NATURAL GAS TRANSPORTATION", "SOURCE": "EPA ENVIROFACTS, FERC FORM 2, CORPORATE WEBSITE", "SOURCEDATE": "7/15/2020 12:00:00 AM", "VAL_METHOD": "IMAGERY/OTHER", "VAL_DATE": "6/20/2022 12:00:00 AM", "WEBSITE": "http://pipeline2.kindermorgan.com/", "PIPECO": "TENNESSEE GAS PIPELINE COMPANY L.L.C.", "COMPID": 9, "OPERATOR": "TENNESSEE GAS PIPELINE COMPANY L.L.C.", "POSREL": "WITHIN 40 FEET", "NUM_UNITS": 4, "CERT_HP": 18000, "PLANT_COST": 24225445, "EXP_FUEL": 2314166, "EXP_OTHER": 145570, "GAS_COMPRE": 1381125, "OP_COMP_HR": 28006, "OP_NUM_COM": 4, "OP_DATE_PE": "10/13/2020 12:00:00 AM", "EXP_POWER": 0, "ELEC_COMPR": 0, "x": -8767773.8977, "y": 5336318.5123}, "geometry": {"type": "Point", "coordinates": [-78.762253, 43.159746]}},
{"type": "Feature", "properties": {"ProjectID": "P0259", "OBJECTID": 1007, "GCOMPID": "GCOMP677", "NAME": "#266A - MENDON", "ADDRESS": "52 THAYER ROAD", "CITY": "MENDON", "STATE": "MA", "ZIP": 1756, "ZIP4": "NOT AVAILABLE", "TYPE": "NATURAL GAS COMPRESSOR STATION", "STATUS": "IN SERVICE", "COUNTY": "WORCESTER", "COUNTYFIPS": 25027, "COUNTRY": "USA", "LATITUDE": 42.080665, "LONGITUDE": -71.514243, "NAICS_CODE": 486210, "NAICS_DESC": "BOOSTER PUMPING STATION, NATURAL GAS TRANSPORTATION", "SOURCE": "EPA ENVIROFACTS, FERC FORM 2, CORPORATE WEBSITE", "SOURCEDATE": "7/15/2020 12:00:00 AM", "VAL_METHOD": "IMAGERY/OTHER", "VAL_DATE": "6/20/2022 12:00:00 AM", "WEBSITE": "http://pipeline2.kindermorgan.com/", "PIPECO": "TENNESSEE GAS PIPELINE COMPANY L.L.C.", "COMPID": 9, "OPERATOR": "TENNESSEE GAS PIPELINE COMPANY L.L.C.", "POSREL": "WITHIN 40 FEET", "NUM_UNITS": 3, "CERT_HP": 9170, "PLANT_COST": 30000997, "EXP_FUEL": 255245, "EXP_OTHER": 308485, "GAS_COMPRE": 138681, "OP_COMP_HR": 5802, "OP_NUM_COM": 1, "OP_DATE_PE": "1/21/2020 12:00:00 AM", "EXP_POWER": 0, "ELEC_COMPR": 0, "x": -7960929.1152, "y": 5173070.339}, "geometry": {"type": "Point", "coordinates": [-71.514243, 42.080665]}},
{"type": "Feature", "properties": {"ProjectID": "P0259", "OBJECTID": 1017, "GCOMPID": "GCOMP686", "NAME": "#267 - HOPKINTON", "ADDRESS": "54 WILSON STREET", "CITY": "HOPKINTON", "STATE": "MA", "ZIP": 1748, "ZIP4": "NOT AVAILABLE", "TYPE": "NATURAL GAS COMPRESSOR STATION", "STATUS": "IN SERVICE", "COUNTY": "MIDDLESEX", "COUNTYFIPS": 25017, "COUNTRY": "USA", "LATITUDE": 42.246334, "LONGITUDE": -71.514755, "NAICS_CODE": 486210, "NAICS_DESC": "BOOSTER PUMPING STATION, NATURAL GAS TRANSPORTATION", "SOURCE": "EPA ENVIROFACTS, FERC FORM 2, CORPORATE WEBSITE", "SOURCEDATE": "7/15/2020 12:00:00 AM", "VAL_METHOD": "IMAGERY/OTHER", "VAL_DATE": "6/20/2022 12:00:00 AM", "WEBSITE": "http://pipeline2.kindermorgan.com/", "PIPECO": "TENNESSEE GAS PIPELINE COMPANY L.L.C.", "COMPID": 9, "OPERATOR": "TENNESSEE GAS PIPELINE COMPANY L.L.C.", "POSREL": "WITHIN 40 FEET", "NUM_UNITS": 5, "CERT_HP": 5000, "PLANT_COST": 16634180, "EXP_FUEL": 48660, "EXP_OTHER": 442034, "GAS_COMPRE": 24801, "OP_COMP_HR": 514, "OP_NUM_COM": 3, "OP_DATE_PE": "1/18/2020 12:00:00 AM", "EXP_POWER": 0, "ELEC_COMPR": 0, "x": -7960986.1108, "y": 5197950.8036}, "geometry": {"type": "Point", "coordinates": [-71.514755, 42.246334]}},
{"type": "Feature", "properties": {"ProjectID": "P0259", "OBJECTID": 1034, "GCOMPID": "GCOMP700", "NAME": "#834 - WINNSBORO", "ADDRESS": "552 HIGHWAY 873", "CITY": "EXTENSION", "STATE": "LA", "ZIP": 71243, "ZIP4": "NOT AVAILABLE", "TYPE": "NATURAL GAS COMPRESSOR STATION", "STATUS": "IN SERVICE", "COUNTY": "FRANKLIN PARISH", "COUNTYFIPS": 22041, "COUNTRY": "USA", "LATITUDE": 31.962804, "LONGITUDE": -91.82152, "NAICS_CODE": 486210, "NAICS_DESC": "BOOSTER PUMPING STATION, NATURAL GAS TRANSPORTATION", "SOURCE": "EPA ENVIROFACTS, FERC FORM 2, CORPORATE WEBSITE", "SOURCEDATE": "7/15/2020 12:00:00 AM", "VAL_METHOD": "IMAGERY/OTHER", "VAL_DATE": "6/20/2022 12:00:00 AM", "WEBSITE": "http://pipeline2.kindermorgan.com/", "PIPECO": "TENNESSEE GAS PIPELINE COMPANY L.L.C.", "COMPID": 9, "OPERATOR": "TENNESSEE GAS PIPELINE COMPANY L.L.C.", "POSREL": "WITHIN 40 FEET", "NUM_UNITS": 7, "CERT_HP": 11350, "PLANT_COST": 38536405, "EXP_FUEL": 624178, "EXP_OTHER": 1335259, "GAS_COMPRE": 364011, "OP_COMP_HR": 27313, "OP_NUM_COM": 7, "OP_DATE_PE": "10/29/2020 12:00:00 AM", "EXP_POWER": 0, "ELEC_COMPR": 0, "x": -10221524.85, "y": 3758429.0639}, "geometry": {"type": "Point", "coordinates": [-91.82152, 31.962804]}},
{"type": "Feature", "properties": {"ProjectID": "P0259", "OBJECTID": 1041, "GCOMPID": "GCOMP707", "NAME": "#534 - PURVIS", "ADDRESS": "560 PUMPING STATION ROAD", "CITY": "PURVIS", "STATE": "MS", "ZIP": 39475, "ZIP4": "NOT AVAILABLE", "TYPE": "NATURAL GAS COMPRESSOR STATION", "STATUS": "IN SERVICE", "COUNTY": "LAMAR", "COUNTYFIPS": 28073, "COUNTRY": "USA", "LATITUDE": 31.068246, "LONGITUDE": -89.297498, "NAICS_CODE": 486210, "NAICS_DESC": "BOOSTER PUMPING STATION, NATURAL GAS TRANSPORTATION", "SOURCE": "EPA ENVIROFACTS, FERC FORM 2, CORPORATE WEBSITE", "SOURCEDATE": "7/15/2020 12:00:00 AM", "VAL_METHOD": "IMAGERY/OTHER", "VAL_DATE": "6/20/2022 12:00:00 AM", "WEBSITE": "http://pipeline2.kindermorgan.com/", "PIPECO": "TENNESSEE GAS PIPELINE COMPANY L.L.C.", "COMPID": 9, "OPERATOR": "TENNESSEE GAS PIPELINE COMPANY L.L.C.", "POSREL": "WITHIN 40 FEET", "NUM_UNITS": 7, "CERT_HP": 26000, "PLANT_COST": 18108510, "EXP_FUEL": 109, "EXP_OTHER": 361293, "GAS_COMPRE": 65, "OP_COMP_HR": 8, "OP_NUM_COM": 2, "OP_DATE_PE": "8/25/2020 12:00:00 AM", "EXP_POWER": 0, "ELEC_COMPR": 0, "x": -9940552.0065, "y": 3641615.3608}, "geometry": {"type": "Point", "coordinates": [-89.297498, 31.068246]}},
{"type": "Feature", "properties": {"ProjectID": "P0259", "OBJECTID": 1079, "GCOMPID": "GCOMP741", "NAME": "#555 - COLLINWOOD", "ADDRESS": "6100 PUMPING STATION ROAD", "CITY": "CYPRESS INN", "STATE": "TN", "ZIP": 38452, "ZIP4": "NOT AVAILABLE", "TYPE": "NATURAL GAS COMPRESSOR STATION", "STATUS": "IN SERVICE", "COUNTY": "WAYNE", "COUNTYFIPS": 47181, "COUNTRY": "USA", "LATITUDE": 35.02431, "LONGITUDE": -87.757702, "NAICS_CODE": 486210, "NAICS_DESC": "BOOSTER PUMPING STATION, NATURAL GAS TRANSPORTATION", "SOURCE": "EPA ENVIROFACTS, FERC FORM 2, CORPORATE WEBSITE", "SOURCEDATE": "7/15/2020 12:00:00 AM", "VAL_METHOD": "IMAGERY/OTHER", "VAL_DATE": "6/20/2022 12:00:00 AM", "WEBSITE": "http://pipeline2.kindermorgan.com/", "PIPECO": "TENNESSEE GAS PIPELINE COMPANY L.L.C.", "COMPID": 9, "OPERATOR": "TENNESSEE GAS PIPELINE COMPANY L.L.C.", "POSREL": "WITHIN 40 FEET", "NUM_UNITS": 7, "CERT_HP": 25000, "PLANT_COST": 23092827, "EXP_FUEL": 1734855, "EXP_OTHER": 1273481, "GAS_COMPRE": 1025189, "OP_COMP_HR": 33966, "OP_NUM_COM": 7, "OP_DATE_PE": "12/8/2020 12:00:00 AM", "EXP_POWER": 0, "ELEC_COMPR": 0, "x": -9769142.6998, "y": 4167185.2669}, "geometry": {"type": "Point", "coordinates": [-87.757702, 35.02431]}},
{"type": "Feature", "properties": {"ProjectID": "P0259", "OBJECTID": 1178, "GCOMPID": "GCOMP830", "NAME": "#270 - CONCORD", "ADDRESS": "73 INDUSTRIAL PARK DRIVE", "CITY": "PELHAM", "STATE": "NH", "ZIP": 3076, "ZIP4": "NOT AVAILABLE", "TYPE": "NATURAL GAS COMPRESSOR STATION", "STATUS": "IN SERVICE", "COUNTY": "HILLSBOROUGH", "COUNTYFIPS": 33011, "COUNTRY": "USA", "LATITUDE": 42.784022, "LONGITUDE": -71.357465, "NAICS_CODE": 486210, "NAICS_DESC": "BOOSTER PUMPING STATION, NATURAL GAS TRANSPORTATION", "SOURCE": "FERC FORM 2, NEW HAMPSHIRE SITE EVALUATION COMMITTEE, IMAGERY", "SOURCEDATE": "7/15/2020 12:00:00 AM", "VAL_METHOD": "IMAGERY/OTHER", "VAL_DATE": "6/20/2022 12:00:00 AM", "WEBSITE": "http://pipeline2.kindermorgan.com/", "PIPECO": "TENNESSEE GAS PIPELINE COMPANY L.L.C.", "COMPID": 9, "OPERATOR": "TENNESSEE GAS PIPELINE COMPANY L.L.C.", "POSREL": "WITHIN 40 FEET", "NUM_UNITS": 1, "CERT_HP": 6053, "PLANT_COST": 22284052, "EXP_FUEL": 1453, "EXP_OTHER": 217138, "GAS_COMPRE": 766, "OP_COMP_HR": 19, "OP_NUM_COM": 1, "OP_DATE_PE": "1/14/2020 12:00:00 AM", "EXP_POWER": 0, "ELEC_COMPR": 0, "x": -7943476.6681, "y": 5279155.359}, "geometry": {"type": "Point", "coordinates": [-71.357465, 42.784022]}},
{"type": "Feature", "properties": {"ProjectID": "P0259", "OBJECTID": 1192, "GCOMPID": "GCOMP843", "NAME": "#229 - HAMBURG", "ADDRESS": "7586 E EDEN ROAD", "CITY": "EDEN", "STATE": "NY", "ZIP": 14057, "ZIP4": "NOT AVAILABLE", "TYPE": "NATURAL GAS COMPRESSOR STATION", "STATUS": "IN SERVICE", "COUNTY": "ERIE", "COUNTYFIPS": 36029, "COUNTRY": "USA", "LATITUDE": 42.67747, "LONGITUDE": -78.829967, "NAICS_CODE": 486210, "NAICS_DESC": "BOOSTER PUMPING STATION, NATURAL GAS TRANSPORTATION", "SOURCE": "EPA ENVIROFACTS, FERC FORM 2, CORPORATE WEBSITE", "SOURCEDATE": "7/15/2020 12:00:00 AM", "VAL_METHOD": "IMAGERY/OTHER", "VAL_DATE": "6/20/2022 12:00:00 AM", "WEBSITE": "http://pipeline2.kindermorgan.com/", "PIPECO": "TENNESSEE GAS PIPELINE COMPANY L.L.C.", "COMPID": 9, "OPERATOR": "TENNESSEE GAS PIPELINE COMPANY L.L.C.", "POSREL": "WITHIN 40 FEET", "NUM_UNITS": 6, "CERT_HP": 8400, "PLANT_COST": 22618447, "EXP_FUEL": 296139, "EXP_OTHER": 1005938, "GAS_COMPRE": 165241, "OP_COMP_HR": 10678, "OP_NUM_COM": 6, "OP_DATE_PE": "2/7/2020 12:00:00 AM", "EXP_POWER": 0, "ELEC_COMPR": 0, "x": -8775311.7857, "y": 5263007.6363}, "geometry": {"type": "Point", "coordinates": [-78.829967, 42.67747]}},
{"type": "Feature", "properties": {"ProjectID": "P0259", "OBJECTID": 1193, "GCOMPID": "GCOMP844", "NAME": "#110 - MOREHEAD", "ADDRESS": "7600 CRANSTON ROAD", "CITY": "MOREHEAD", "STATE": "KY", "ZIP": 40351, "ZIP4": "NOT AVAILABLE", "TYPE": "NATURAL GAS COMPRESSOR STATION", "STATUS": "IN SERVICE", "COUNTY": "ROWAN", "COUNTYFIPS": 21205, "COUNTRY": "USA", "LATITUDE": 38.285879, "LONGITUDE": -83.401169, "NAICS_CODE": 486210, "NAICS_DESC": "BOOSTER PUMPING STATION, NATURAL GAS TRANSPORTATION", "SOURCE": "EPA ENVIROFACTS, FERC FORM 2, CORPORATE WEBSITE", "SOURCEDATE": "7/15/2020 12:00:00 AM", "VAL_METHOD": "IMAGERY/OTHER", "VAL_DATE": "6/20/2022 12:00:00 AM", "WEBSITE": "http://pipeline2.kindermorgan.com/", "PIPECO": "TENNESSEE GAS PIPELINE COMPANY L.L.C.", "COMPID": 9, "OPERATOR": "TENNESSEE GAS PIPELINE COMPANY L.L.C.", "POSREL": "WITHIN 40 FEET", "NUM_UNITS": 4, "CERT_HP": 37100, "PLANT_COST": 86969007, "EXP_FUEL": 0, "EXP_OTHER": 822954, "GAS_COMPRE": 0, "OP_COMP_HR": 27361, "OP_NUM_COM": 4, "OP_DATE_PE": "11/21/2020 12:00:00 AM", "EXP_POWER": 6227643, "ELEC_COMPR": 187146491, "x": -9284175.6646, "y": 4619890.0168}, "geometry": {"type": "Point", "coordinates": [-83.401169, 38.285879]}},
{"type": "Feature", "properties": {"ProjectID": "P0259", "OBJECTID": 1218, "GCOMPID": "GCOMP867", "NAME": "#523 - COCODRIE", "ADDRESS": "8181 REDFISH STREET", "CITY": "COCODRIE", "STATE": "LA", "ZIP": 70344, "ZIP4": "NOT AVAILABLE", "TYPE": "NATURAL GAS COMPRESSOR STATION", "STATUS": "IN SERVICE", "COUNTY": "TERREBONNE PARISH", "COUNTYFIPS": 22109, "COUNTRY": "USA", "LATITUDE": 29.235745, "LONGITUDE": -90.669343, "NAICS_CODE": 486210, "NAICS_DESC": "BOOSTER PUMPING STATION, NATURAL GAS TRANSPORTATION", "SOURCE": "EPA ENVIROFACTS, FERC FORM 2, CORPORATE WEBSITE", "SOURCEDATE": "7/15/2020 12:00:00 AM", "VAL_METHOD": "IMAGERY/OTHER", "VAL_DATE": "6/20/2022 12:00:00 AM", "WEBSITE": "http://pipeline2.kindermorgan.com/", "PIPECO": "TENNESSEE GAS PIPELINE COMPANY L.L.C.", "COMPID": 9, "OPERATOR": "TENNESSEE GAS PIPELINE COMPANY L.L.C.", "POSREL": "WITHIN 40 FEET", "NUM_UNITS": 2, "CERT_HP": 12050, "PLANT_COST": 39932409, "EXP_FUEL": 518040, "EXP_OTHER": 2835240, "GAS_COMPRE": 177185, "OP_COMP_HR": 4914, "OP_NUM_COM": 1, "OP_DATE_PE": "11/15/2012 12:00:00 AM", "EXP_POWER": 0, "ELEC_COMPR": 0, "x": -10093265.093, "y": 3405685.4446}, "geometry": {"type": "Point", "coordinates": [-90.669343, 29.235745]}},
{"type": "Feature", "properties": {"ProjectID": "P0259", "OBJECTID": 1225, "GCOMPID": "GCOMP873", "NAME": "#538 - HEIDELBERG", "ADDRESS": "83 COUNTY ROAD 37", "CITY": "HEIDELBERG", "STATE": "MS", "ZIP": 39439, "ZIP4": "NOT AVAILABLE", "TYPE": "NATURAL GAS COMPRESSOR STATION", "STATUS": "IN SERVICE", "COUNTY": "JASPER", "COUNTYFIPS": 28061, "COUNTRY": "USA", "LATITUDE": 31.829229, "LONGITUDE": -88.962487, "NAICS_CODE": 486210, "NAICS_DESC": "BOOSTER PUMPING STATION, NATURAL GAS TRANSPORTATION", "SOURCE": "FERC FORM 2, IMAGERY", "SOURCEDATE": "7/15/2020 12:00:00 AM", "VAL_METHOD": "IMAGERY/OTHER", "VAL_DATE": "6/20/2022 12:00:00 AM", "WEBSITE": "http://pipeline2.kindermorgan.com/", "PIPECO": "TENNESSEE GAS PIPELINE COMPANY L.L.C.", "COMPID": 9, "OPERATOR": "TENNESSEE GAS PIPELINE COMPANY L.L.C.", "POSREL": "WITHIN 40 FEET", "NUM_UNITS": 9, "CERT_HP": 24000, "PLANT_COST": 16097236, "EXP_FUEL": 368, "EXP_OTHER": 712018, "GAS_COMPRE": 235, "OP_COMP_HR": 18, "OP_NUM_COM": 1, "OP_DATE_PE": "10/12/2020 12:00:00 AM", "EXP_POWER": 0, "ELEC_COMPR": 0, "x": -9903258.7525, "y": 3740915.0952}, "geometry": {"type": "Point", "coordinates": [-88.962487, 31.829229]}},
{"type": "Feature", "properties": {"ProjectID": "P0259", "OBJECTID": 1234, "GCOMPID": "GCOMP881", "NAME": "#63 - BATESVILLE", "ADDRESS": "8450 HIGHWAY 6 W", "CITY": "BATESVILLE", "STATE": "MS", "ZIP": 38606, "ZIP4": "NOT AVAILABLE", "TYPE": "NATURAL GAS COMPRESSOR STATION", "STATUS": "IN SERVICE", "COUNTY": "PANOLA", "COUNTYFIPS": 28107, "COUNTRY": "USA", "LATITUDE": 34.295105211, "LONGITUDE": -90.074181859, "NAICS_CODE": 486210, "NAICS_DESC": "BOOSTER PUMPING STATION, NATURAL GAS TRANSPORTATION", "SOURCE": "EPA ENVIROFACTS, FERC FORM 2, CORPORATE WEBSITE", "SOURCEDATE": "7/15/2020 12:00:00 AM", "VAL_METHOD": "IMAGERY/OTHER", "VAL_DATE": "6/24/2022 12:00:00 AM", "WEBSITE": "http://pipeline2.kindermorgan.com/", "PIPECO": "TENNESSEE GAS PIPELINE COMPANY L.L.C.", "COMPID": 9, "OPERATOR": "TENNESSEE GAS PIPELINE COMPANY L.L.C.", "POSREL": "WITHIN 40 FEET", "NUM_UNITS": 23, "CERT_HP": 38150, "PLANT_COST": 59166624, "EXP_FUEL": 172028, "EXP_OTHER": 1787450, "GAS_COMPRE": 97881, "OP_COMP_HR": 7799, "OP_NUM_COM": 17, "OP_DATE_PE": "1/21/2020 12:00:00 AM", "EXP_POWER": 0, "ELEC_COMPR": 0, "x": -10027012.058, "y": 4068496.6129}, "geometry": {"type": "Point", "coordinates": [-90.074182, 34.295105]}},
{"type": "Feature", "properties": {"ProjectID": "P0259", "OBJECTID": 1260, "GCOMPID": "GCOMP904", "NAME": "#32 - JASPER", "ADDRESS": "9217 STATE HIGHWAY 63 W", "CITY": "JASPER", "STATE": "TX", "ZIP": 75951, "ZIP4": "NOT AVAILABLE", "TYPE": "NATURAL GAS COMPRESSOR STATION", "STATUS": "IN SERVICE", "COUNTY": "JASPER", "COUNTYFIPS": 48241, "COUNTRY": "USA", "LATITUDE": 30.983161239, "LONGITUDE": -94.140270133, "NAICS_CODE": 486210, "NAICS_DESC": "BOOSTER PUMPING STATION, NATURAL GAS TRANSPORTATION", "SOURCE": "EPA ENVIROFACTS, FERC FORM 2, CORPORATE WEBSITE", "SOURCEDATE": "7/15/2020 12:00:00 AM", "VAL_METHOD": "IMAGERY/OTHER", "VAL_DATE": "6/20/2022 12:00:00 AM", "WEBSITE": "http://pipeline2.kindermorgan.com/", "PIPECO": "TENNESSEE GAS PIPELINE COMPANY L.L.C.", "COMPID": 9, "OPERATOR": "TENNESSEE GAS PIPELINE COMPANY L.L.C.", "POSREL": "WITHIN 40 FEET", "NUM_UNITS": 20, "CERT_HP": 26750, "PLANT_COST": 64011362, "EXP_FUEL": 1402857, "EXP_OTHER": 3520664, "GAS_COMPRE": 837508, "OP_COMP_HR": 69580, "OP_NUM_COM": 16, "OP_DATE_PE": "9/19/2020 12:00:00 AM", "EXP_POWER": 0, "ELEC_COMPR": 0, "x": -10479646.934, "y": 3630562.5028}, "geometry": {"type": "Point", "coordinates": [-94.14027, 30.983161]}},
{"type": "Feature", "properties": {"ProjectID": "P0259", "OBJECTID": 1280, "GCOMPID": "GCOMP922", "NAME": "#224 - CLYMER", "ADDRESS": "9766 RAVLIN HILL ROAD", "CITY": "CLYMER", "STATE": "NY", "ZIP": 14724, "ZIP4": "NOT AVAILABLE", "TYPE": "NATURAL GAS COMPRESSOR STATION", "STATUS": "IN SERVICE", "COUNTY": "CHAUTAUQUA", "COUNTYFIPS": 36013, "COUNTRY": "USA", "LATITUDE": 42.055664, "LONGITUDE": -79.69657, "NAICS_CODE": 486210, "NAICS_DESC": "BOOSTER PUMPING STATION, NATURAL GAS TRANSPORTATION", "SOURCE": "EPA ENVIROFACTS, FERC FORM 2, CORPORATE WEBSITE", "SOURCEDATE": "7/15/2020 12:00:00 AM", "VAL_METHOD": "IMAGERY/OTHER", "VAL_DATE": "6/20/2022 12:00:00 AM", "WEBSITE": "http://pipeline2.kindermorgan.com/", "PIPECO": "TENNESSEE GAS PIPELINE COMPANY L.L.C.", "COMPID": 9, "OPERATOR": "TENNESSEE GAS PIPELINE COMPANY L.L.C.", "POSREL": "WITHIN 40 FEET", "NUM_UNITS": 4, "CERT_HP": 8000, "PLANT_COST": 17245238, "EXP_FUEL": 134441, "EXP_OTHER": 651351, "GAS_COMPRE": 72908, "OP_COMP_HR": 2146, "OP_NUM_COM": 3, "OP_DATE_PE": "2/14/2020 12:00:00 AM", "EXP_POWER": 0, "ELEC_COMPR": 0, "x": -8871781.5904, "y": 5169321.2917}, "geometry": {"type": "Point", "coordinates": [-79.69657, 42.055664]}},
{"type": "Feature", "properties": {"ProjectID": "P0259", "OBJECTID": 1298, "GCOMPID": "GCOMP939", "NAME": "#200 - GREENUP", "ADDRESS": "BIG WHITE OAK CREEK ROAD AND ROUTE 7; (7 STUART LANE)", "CITY": "GREENUP", "STATE": "KY", "ZIP": 41144, "ZIP4": "NOT AVAILABLE", "TYPE": "NATURAL GAS COMPRESSOR STATION", "STATUS": "IN SERVICE", "COUNTY": "GREENUP", "COUNTYFIPS": 21089, "COUNTRY": "USA", "LATITUDE": 38.563991, "LONGITUDE": -82.954653, "NAICS_CODE": 486210, "NAICS_DESC": "BOOSTER PUMPING STATION, NATURAL GAS TRANSPORTATION", "SOURCE": "EPA ENVIROFACTS, FERC FORM 2, CORPORATE WEBSITE", "SOURCEDATE": "7/15/2020 12:00:00 AM", "VAL_METHOD": "IMAGERY/OTHER", "VAL_DATE": "6/20/2022 12:00:00 AM", "WEBSITE": "http://pipeline2.kindermorgan.com/", "PIPECO": "TENNESSEE GAS PIPELINE COMPANY L.L.C.", "COMPID": 9, "OPERATOR": "TENNESSEE GAS PIPELINE COMPANY L.L.C.", "POSREL": "WITHIN 40 FEET", "NUM_UNITS": 13, "CERT_HP": 24200, "PLANT_COST": 48325303, "EXP_FUEL": 2539323, "EXP_OTHER": 2055398, "GAS_COMPRE": 1513819, "OP_COMP_HR": 97803, "OP_NUM_COM": 13, "OP_DATE_PE": "3/8/2020 12:00:00 AM", "EXP_POWER": 0, "ELEC_COMPR": 0, "x": -9234469.7309, "y": 4659408.0708}, "geometry": {"type": "Point", "coordinates": [-82.954653, 38.563991]}},
{"type": "Feature", "properties": {"ProjectID": "P0259", "OBJECTID": 1300, "GCOMPID": "GCOMP940", "NAME": "#820 - STARKS", "ADDRESS": "BIG WOODS VINTON ROAD AND OLD NO. 7 ROAD", "CITY": "VINTON", "STATE": "LA", "ZIP": 70668, "ZIP4": "NOT AVAILABLE", "TYPE": "NATURAL GAS COMPRESSOR STATION", "STATUS": "IN SERVICE", "COUNTY": "CALCASIEU PARISH", "COUNTYFIPS": 22019, "COUNTRY": "USA", "LATITUDE": 30.283533, "LONGITUDE": -93.602365, "NAICS_CODE": 486210, "NAICS_DESC": "BOOSTER PUMPING STATION, NATURAL GAS TRANSPORTATION", "SOURCE": "EPA ENVIROFACTS, FERC FORM 2, CORPORATE WEBSITE", "SOURCEDATE": "7/15/2020 12:00:00 AM", "VAL_METHOD": "IMAGERY/OTHER", "VAL_DATE": "6/20/2022 12:00:00 AM", "WEBSITE": "http://pipeline2.kindermorgan.com/", "PIPECO": "TENNESSEE GAS PIPELINE COMPANY L.L.C.", "COMPID": 9, "OPERATOR": "TENNESSEE GAS PIPELINE COMPANY L.L.C.", "POSREL": "WITHIN 40 FEET", "NUM_UNITS": 2, "CERT_HP": 9150, "PLANT_COST": 12188774, "EXP_FUEL": 7500, "EXP_OTHER": 303613, "GAS_COMPRE": 4331, "OP_COMP_HR": 199, "OP_NUM_COM": 1, "OP_DATE_PE": "2/28/2020 12:00:00 AM", "EXP_POWER": 0, "ELEC_COMPR": 0, "x": -10419767.609, "y": 3540047.6793}, "geometry": {"type": "Point", "coordinates": [-93.602365, 30.283533]}},
{"type": "Feature", "properties": {"ProjectID": "P0259", "OBJECTID": 1306, "GCOMPID": "GCOMP946", "NAME": "#838 - LAKE PROVIDENCE", "ADDRESS": "BULL RUN ROAD/ SOUTH OF HIGHWAY 881", "CITY": "LAKE PROVIDENCE", "STATE": "LA", "ZIP": 71254, "ZIP4": "NOT AVAILABLE", "TYPE": "NATURAL GAS COMPRESSOR STATION", "STATUS": "IN SERVICE", "COUNTY": "EAST CARROLL PARISH", "COUNTYFIPS": 22035, "COUNTRY": "USA", "LATITUDE": 32.66807896, "LONGITUDE": -91.232807492, "NAICS_CODE": 486210, "NAICS_DESC": "BOOSTER PUMPING STATION, NATURAL GAS TRANSPORTATION", "SOURCE": "FERC FORM 2, IMAGERY", "SOURCEDATE": "7/15/2020 12:00:00 AM", "VAL_METHOD": "IMAGERY/OTHER", "VAL_DATE": "6/20/2022 12:00:00 AM", "WEBSITE": "http://pipeline2.kindermorgan.com/", "PIPECO": "TENNESSEE GAS PIPELINE COMPANY L.L.C.", "COMPID": 9, "OPERATOR": "TENNESSEE GAS PIPELINE COMPANY L.L.C.", "POSREL": "WITHIN 40 FEET", "NUM_UNITS": 8, "CERT_HP": 16350, "PLANT_COST": 15187431, "EXP_FUEL": 13205, "EXP_OTHER": 593393, "GAS_COMPRE": 7458, "OP_COMP_HR": 0, "OP_NUM_COM": 0, "OP_DATE_PE": "1/1/2001 12:00:00 AM", "EXP_POWER": 0, "ELEC_COMPR": 0, "x": -10155989.674, "y": 3851329.4175}, "geometry": {"type": "Point", "coordinates": [-91.232807, 32.668079]}},
{"type": "Feature", "properties": {"ProjectID": "P0259", "OBJECTID": 1312, "GCOMPID": "GCOMP951", "NAME": "#315 - WELLSBORO", "ADDRESS": "CATLIN HOLLOW ROAD", "CITY": "WELLSBORO", "STATE": "PA", "ZIP": 16901, "ZIP4": "NOT AVAILABLE", "TYPE": "NATURAL GAS COMPRESSOR STATION", "STATUS": "IN SERVICE", "COUNTY": "TIOGA", "COUNTYFIPS": 42117, "COUNTRY": "USA", "LATITUDE": 41.813819451, "LONGITUDE": -77.279161712, "NAICS_CODE": 486210, "NAICS_DESC": "BOOSTER PUMPING STATION, NATURAL GAS TRANSPORTATION", "SOURCE": "EPA ENVIROFACTS, FERC FORM 2, CORPORATE WEBSITE", "SOURCEDATE": "7/15/2020 12:00:00 AM", "VAL_METHOD": "IMAGERY/OTHER", "VAL_DATE": "6/24/2022 12:00:00 AM", "WEBSITE": "http://pipeline2.kindermorgan.com/", "PIPECO": "TENNESSEE GAS PIPELINE COMPANY L.L.C.", "COMPID": 9, "OPERATOR": "TENNESSEE GAS PIPELINE COMPANY L.L.C.", "POSREL": "WITHIN 40 FEET", "NUM_UNITS": 2, "CERT_HP": 28630, "PLANT_COST": 73365097, "EXP_FUEL": 2486456, "EXP_OTHER": 521674, "GAS_COMPRE": 1499301, "OP_COMP_HR": 14402, "OP_NUM_COM": 2, "OP_DATE_PE": "5/4/2020 12:00:00 AM", "EXP_POWER": 0, "ELEC_COMPR": 0, "x": -8602676.9307, "y": 5133131.1716}, "geometry": {"type": "Point", "coordinates": [-77.279162, 41.813819]}},
{"type": "Feature", "properties": {"ProjectID": "P0259", "OBJECTID": 1322, "GCOMPID": "GCOMP960", "NAME": "#310 - SMETHPORT", "ADDRESS": "CLERMONT ROAD (HIGHWAY 146)/NW OF RED MILL ROAD (8 MILES SSW OF SMETHPORT)", "CITY": "SMETHPORT", "STATE": "PA", "ZIP": 16749, "ZIP4": "NOT AVAILABLE", "TYPE": "NATURAL GAS COMPRESSOR STATION", "STATUS": "IN SERVICE", "COUNTY": "MCKEAN", "COUNTYFIPS": 42083, "COUNTRY": "USA", "LATITUDE": 41.701156, "LONGITUDE": -78.498839, "NAICS_CODE": 486210, "NAICS_DESC": "BOOSTER PUMPING STATION, NATURAL GAS TRANSPORTATION", "SOURCE": "FERC FORM 2, IMAGERY", "SOURCEDATE": "7/15/2020 12:00:00 AM", "VAL_METHOD": "IMAGERY/OTHER", "VAL_DATE": "6/20/2022 12:00:00 AM", "WEBSITE": "http://pipeline2.kindermorgan.com/", "PIPECO": "TENNESSEE GAS PIPELINE COMPANY L.L.C.", "COMPID": 9, "OPERATOR": "TENNESSEE GAS PIPELINE COMPANY L.L.C.", "POSREL": "WITHIN 40 FEET", "NUM_UNITS": 1, "CERT_HP": 16000, "PLANT_COST": 42103605, "EXP_FUEL": 1343842, "EXP_OTHER": 409546, "GAS_COMPRE": 792425, "OP_COMP_HR": 7262, "OP_NUM_COM": 1, "OP_DATE_PE": "4/1/2020 12:00:00 AM", "EXP_POWER": 0, "ELEC_COMPR": 0, "x": -8738450.7853, "y": 5116318.6491}, "geometry": {"type": "Point", "coordinates": [-78.498839, 41.701156]}},
{"type": "Feature", "properties": {"ProjectID": "P0259", "OBJECTID": 1329, "GCOMPID": "GCOMP967", "NAME": "#847 - COFFEEVILLE", "ADDRESS": "COUNTY ROAD 156/NORTH OF COUNTY ROAD 72", "CITY": "COFFEEVILLE", "STATE": "MS", "ZIP": 38922, "ZIP4": "NOT AVAILABLE", "TYPE": "NATURAL GAS COMPRESSOR STATION", "STATUS": "IN SERVICE", "COUNTY": "YALOBUSHA", "COUNTYFIPS": 28161, "COUNTRY": "USA", "LATITUDE": 33.907570875, "LONGITUDE": -89.785441774, "NAICS_CODE": 486210, "NAICS_DESC": "BOOSTER PUMPING STATION, NATURAL GAS TRANSPORTATION", "SOURCE": "FERC FORM 2, IMAGERY", "SOURCEDATE": "7/15/2020 12:00:00 AM", "VAL_METHOD": "IMAGERY/OTHER", "VAL_DATE": "6/24/2022 12:00:00 AM", "WEBSITE": "http://pipeline2.kindermorgan.com/", "PIPECO": "TENNESSEE GAS PIPELINE COMPANY L.L.C.", "COMPID": 9, "OPERATOR": "TENNESSEE GAS PIPELINE COMPANY L.L.C.", "POSREL": "WITHIN 40 FEET", "NUM_UNITS": 2, "CERT_HP": 13400, "PLANT_COST": 30742928, "EXP_FUEL": 0, "EXP_OTHER": 436503, "GAS_COMPRE": 0, "OP_COMP_HR": 4, "OP_NUM_COM": 2, "OP_DATE_PE": "2/14/2020 12:00:00 AM", "EXP_POWER": 1046385, "ELEC_COMPR": 122949, "x": -9994869.6589, "y": 4016397.7949}, "geometry": {"type": "Point", "coordinates": [-89.785442, 33.907571]}},
{"type": "Feature", "properties": {"ProjectID": "P0259", "OBJECTID": 1343, "GCOMPID": "GCOMP98", "NAME": "#843 - ISOLA", "ADDRESS": "1165 TENNESSEE GAS ROAD", "CITY": "ISOLA", "STATE": "MS", "ZIP": 38754, "ZIP4": "NOT AVAILABLE", "TYPE": "NATURAL GAS COMPRESSOR STATION", "STATUS": "IN SERVICE", "COUNTY": "HUMPHREYS", "COUNTYFIPS": 28053, "COUNTRY": "USA", "LATITUDE": 33.233616, "LONGITUDE": -90.579861, "NAICS_CODE": 486210, "NAICS_DESC": "BOOSTER PUMPING STATION, NATURAL GAS TRANSPORTATION", "SOURCE": "EPA ENVIROFACTS, FERC FORM 2, CORPORATE WEBSITE", "SOURCEDATE": "7/15/2020 12:00:00 AM", "VAL_METHOD": "IMAGERY/OTHER", "VAL_DATE": "6/20/2022 12:00:00 AM", "WEBSITE": "http://pipeline2.kindermorgan.com/", "PIPECO": "TENNESSEE GAS PIPELINE COMPANY L.L.C.", "COMPID": 9, "OPERATOR": "TENNESSEE GAS PIPELINE COMPANY L.L.C.", "POSREL": "WITHIN 40 FEET", "NUM_UNITS": 9, "CERT_HP": 14350, "PLANT_COST": 11541957, "EXP_FUEL": 1027, "EXP_OTHER": 614990, "GAS_COMPRE": 511, "OP_COMP_HR": 5, "OP_NUM_COM": 3, "OP_DATE_PE": "12/14/2020 12:00:00 AM", "EXP_POWER": 0, "ELEC_COMPR": 0, "x": -10083304.003, "y": 3926353.7923}, "geometry": {"type": "Point", "coordinates": [-90.579861, 33.233616]}}
]
}
