{
"type": "FeatureCollection",
"features": [
{"type": "Feature", "properties": {"ProjectID": "P0262", "OBJECTID": 21, "GCOMPID": "GCOMP1016", "NAME": "LAROSE", "ADDRESS": "DELTA FARM ROAD (HIGHWAY 657 E)", "CITY": "LAROSE", "STATE": "LA", "ZIP": 70373, "ZIP4": "NOT AVAILABLE", "TYPE": "NATURAL GAS COMPRESSOR STATION", "STATUS": "IN SERVICE", "COUNTY": "LAFOURCHE PARISH", "COUNTYFIPS": 22057, "COUNTRY": "USA", "LATITUDE": 29.58778, "LONGITUDE": -90.36861, "NAICS_CODE": 486210, "NAICS_DESC": "BOOSTER PUMPING STATION, NATURAL GAS TRANSPORTATION", "SOURCE": "EPA ENVIROFACTS, FERC FORM 2, CORPORATE WEBSITE", "SOURCEDATE": "7/15/2020 12:00:00 AM", "VAL_METHOD": "IMAGERY/OTHER", "VAL_DATE": "6/20/2022 12:00:00 AM", "WEBSITE": "https://www.enbridge.com/", "PIPECO": "TEXAS EASTERN TRANSMISSION L.P.", "COMPID": 17, "OPERATOR": "TEXAS EASTERN TRANSMISSION L.P.", "POSREL": "WITHIN 40 FEET", "NUM_UNITS": 1, "CERT_HP": 19800, "PLANT_COST": 10681214, "EXP_FUEL": 0, "EXP_OTHER": false, "GAS_COMPRE": 0, "OP_COMP_HR": 0, "OP_NUM_COM": 1, "OP_DATE_PE": "2/29/2020 12:00:00 AM", "EXP_POWER": 16507, "ELEC_COMPR": 113760, "x": -10059787.6488959, "y": 3450672.09633135}, "geometry": {"type": "Point", "coordinates": [-90.36861, 29.58778]}},
{"type": "Feature", "properties": {"ProjectID": "P0262", "OBJECTID": 62, "GCOMPID": "GCOMP1053", "NAME": "HUNTSVILLE", "ADDRESS": "FOREST SERVICE ROAD 207", "CITY": "OAKHURST", "STATE": "TX", "ZIP": 77359, "ZIP4": "NOT AVAILABLE", "TYPE": "NATURAL GAS COMPRESSOR STATION", "STATUS": "IN SERVICE", "COUNTY": "SAN JACINTO", "COUNTYFIPS": 48407, "COUNTRY": "USA", "LATITUDE": 30.646834146, "LONGITUDE": -95.337706998, "NAICS_CODE": 486210, "NAICS_DESC": "BOOSTER PUMPING STATION, NATURAL GAS TRANSPORTATION", "SOURCE": "EPA ENVIROFACTS, FERC FORM 2, CORPORATE WEBSITE", "SOURCEDATE": "7/15/2020 12:00:00 AM", "VAL_METHOD": "IMAGERY/OTHER", "VAL_DATE": "6/20/2022 12:00:00 AM", "WEBSITE": "https://www.enbridge.com/", "PIPECO": "TEXAS EASTERN TRANSMISSION L.P.", "COMPID": 17, "OPERATOR": "TEXAS EASTERN TRANSMISSION L.P.", "POSREL": "WITHIN 40 FEET", "NUM_UNITS": 1, "CERT_HP": 10500, "PLANT_COST": 9482676, "EXP_FUEL": 362918, "EXP_OTHER": false, "GAS_COMPRE": 231950, "OP_COMP_HR": 3317, "OP_NUM_COM": 1, "OP_DATE_PE": "4/26/2020 12:00:00 AM", "EXP_POWER": 31853, "ELEC_COMPR": 104320, "x": -10612944.9964157, "y": 3586968.27075053}, "geometry": {"type": "Point", "coordinates": [-95.337707, 30.646834]}},
{"type": "Feature", "properties": {"ProjectID": "P0262", "OBJECTID": 82, "GCOMPID": "GCOMP1071", "NAME": "VIDOR", "ADDRESS": "HIGHWAY 105 SOUTH ON MANSFIELD FERRY", "CITY": "VIDOR", "STATE": "TX", "ZIP": 77662, "ZIP4": "NOT AVAILABLE", "TYPE": "NATURAL GAS COMPRESSOR STATION", "STATUS": "IN SERVICE", "COUNTY": "ORANGE", "COUNTYFIPS": 48361, "COUNTRY": "USA", "LATITUDE": 30.063056, "LONGITUDE": -93.975833, "NAICS_CODE": 486210, "NAICS_DESC": "BOOSTER PUMPING STATION, NATURAL GAS TRANSPORTATION", "SOURCE": "EPA ENVIROFACTS, FERC FORM 2, CORPORATE WEBSITE", "SOURCEDATE": "7/15/2020 12:00:00 AM", "VAL_METHOD": "IMAGERY/OTHER", "VAL_DATE": "6/20/2022 12:00:00 AM", "WEBSITE": "https://www.enbridge.com/", "PIPECO": "TEXAS EASTERN TRANSMISSION L.P.", "COMPID": 17, "OPERATOR": "TEXAS EASTERN TRANSMISSION L.P.", "POSREL": "WITHIN 40 FEET", "NUM_UNITS": 9, "CERT_HP": 12100, "PLANT_COST": 22564486, "EXP_FUEL": 185531, "EXP_OTHER": false, "GAS_COMPRE": 124555, "OP_COMP_HR": 14665, "OP_NUM_COM": 9, "OP_DATE_PE": "9/8/2020 12:00:00 AM", "EXP_POWER": 44714, "ELEC_COMPR": 311040, "x": -10461341.8764337, "y": 3511657.68211324}, "geometry": {"type": "Point", "coordinates": [-93.975833, 30.063056]}},
{"type": "Feature", "properties": {"ProjectID": "P0262", "OBJECTID": 85, "GCOMPID": "GCOMP1074", "NAME": "BALD KNOB", "ADDRESS": "HIGHWAY 258 EAST", "CITY": "BALD KNOB", "STATE": "AR", "ZIP": 72010, "ZIP4": "NOT AVAILABLE", "TYPE": "NATURAL GAS COMPRESSOR STATION", "STATUS": "IN SERVICE", "COUNTY": "WHITE", "COUNTYFIPS": 5145, "COUNTRY": "USA", "LATITUDE": 35.325545521, "LONGITUDE": -91.526345965, "NAICS_CODE": 486210, "NAICS_DESC": "BOOSTER PUMPING STATION, NATURAL GAS TRANSPORTATION", "SOURCE": "EPA ENVIROFACTS, FERC FORM 2, CORPORATE WEBSITE", "SOURCEDATE": "7/15/2020 12:00:00 AM", "VAL_METHOD": "IMAGERY/OTHER", "VAL_DATE": "6/20/2022 12:00:00 AM", "WEBSITE": "https://www.enbridge.com/", "PIPECO": "TEXAS EASTERN TRANSMISSION L.P.", "COMPID": 17, "OPERATOR": "TEXAS EASTERN TRANSMISSION L.P.", "POSREL": "WITHIN 40 FEET", "NUM_UNITS": 8, "CERT_HP": 8800, "PLANT_COST": 4572002, "EXP_FUEL": 39076, "EXP_OTHER": false, "GAS_COMPRE": 23991, "OP_COMP_HR": 2782, "OP_NUM_COM": 8, "OP_DATE_PE": "10/27/2020 12:00:00 AM", "EXP_POWER": 24895, "ELEC_COMPR": 132480, "x": -10188666.2269928, "y": 4208209.95773099}, "geometry": {"type": "Point", "coordinates": [-91.526346, 35.325546]}},
{"type": "Feature", "properties": {"ProjectID": "P0262", "OBJECTID": 95, "GCOMPID": "GCOMP1083", "NAME": "DELMONT", "ADDRESS": "HIGHWAY 66 NORTH BEAVER RUN ROAD AND JOBES ROAD", "CITY": "GREENSBURG", "STATE": "PA", "ZIP": 15601, "ZIP4": "NOT AVAILABLE", "TYPE": "NATURAL GAS COMPRESSOR STATION", "STATUS": "IN SERVICE", "COUNTY": "WESTMORELAND", "COUNTYFIPS": 42129, "COUNTRY": "USA", "LATITUDE": 40.382036376, "LONGITUDE": -79.555428696, "NAICS_CODE": 486210, "NAICS_DESC": "BOOSTER PUMPING STATION, NATURAL GAS TRANSPORTATION", "SOURCE": "EPA ENVIROFACTS, FERC FORM 2, CORPORATE WEBSITE", "SOURCEDATE": "7/15/2020 12:00:00 AM", "VAL_METHOD": "IMAGERY/OTHER", "VAL_DATE": "6/20/2022 12:00:00 AM", "WEBSITE": "https://www.enbridge.com/", "PIPECO": "TEXAS EASTERN TRANSMISSION L.P.", "COMPID": 17, "OPERATOR": "TEXAS EASTERN TRANSMISSION L.P.", "POSREL": "WITHIN 40 FEET", "NUM_UNITS": 9, "CERT_HP": 73300, "PLANT_COST": 173368013, "EXP_FUEL": 1118368, "EXP_OTHER": false, "GAS_COMPRE": 644008, "OP_COMP_HR": 12207, "OP_NUM_COM": 9, "OP_DATE_PE": "12/8/2020 12:00:00 AM", "EXP_POWER": 4522221, "ELEC_COMPR": 99643818, "x": -8856069.8122793, "y": 4921615.06627401}, "geometry": {"type": "Point", "coordinates": [-79.555429, 40.382036]}},
{"type": "Feature", "properties": {"ProjectID": "P0262", "OBJECTID": 118, "GCOMPID": "GCOMP1104", "NAME": "NORRIS CITY", "ADDRESS": "HIGHWAY 1 AND BY-PASS 45", "CITY": "NORRIS CITY", "STATE": "IL", "ZIP": 62869, "ZIP4": "NOT AVAILABLE", "TYPE": "NATURAL GAS COMPRESSOR STATION", "STATUS": "IN SERVICE", "COUNTY": "WHITE", "COUNTYFIPS": 17193, "COUNTRY": "USA", "LATITUDE": 37.98274573, "LONGITUDE": -88.314756017, "NAICS_CODE": 486210, "NAICS_DESC": "BOOSTER PUMPING STATION, NATURAL GAS TRANSPORTATION", "SOURCE": "EPA ENVIROFACTS, FERC FORM 2, CORPORATE WEBSITE", "SOURCEDATE": "7/15/2020 12:00:00 AM", "VAL_METHOD": "IMAGERY/OTHER", "VAL_DATE": "6/20/2022 12:00:00 AM", "WEBSITE": "https://www.enbridge.com/", "PIPECO": "TEXAS EASTERN TRANSMISSION L.P.", "COMPID": 17, "OPERATOR": "TEXAS EASTERN TRANSMISSION L.P.", "POSREL": "WITHIN 40 FEET", "NUM_UNITS": 7, "CERT_HP": 7000, "PLANT_COST": 6478330, "EXP_FUEL": 1286, "EXP_OTHER": false, "GAS_COMPRE": 782, "OP_COMP_HR": 229, "OP_NUM_COM": 7, "OP_DATE_PE": "12/9/2020 12:00:00 AM", "EXP_POWER": 12167, "ELEC_COMPR": 64960, "x": -9831153.66934463, "y": 4576988.64986025}, "geometry": {"type": "Point", "coordinates": [-88.314756, 37.982746]}},
{"type": "Feature", "properties": {"ProjectID": "P0262", "OBJECTID": 176, "GCOMPID": "GCOMP1157", "NAME": "ENTRIKEN", "ADDRESS": "LOGGING ROAD 31118/WEST OF OLD FORGE ROAD", "CITY": "JAMES CREEK", "STATE": "PA", "ZIP": 16657, "ZIP4": "NOT AVAILABLE", "TYPE": "NATURAL GAS COMPRESSOR STATION", "STATUS": "IN SERVICE", "COUNTY": "HUNTINGDON", "COUNTYFIPS": 42061, "COUNTRY": "USA", "LATITUDE": 40.308939, "LONGITUDE": -78.138862, "NAICS_CODE": 486210, "NAICS_DESC": "BOOSTER PUMPING STATION, NATURAL GAS TRANSPORTATION", "SOURCE": "EPA ENVIROFACTS, FERC FORM 2, CORPORATE WEBSITE", "SOURCEDATE": "7/15/2020 12:00:00 AM", "VAL_METHOD": "IMAGERY/OTHER", "VAL_DATE": "6/24/2022 12:00:00 AM", "WEBSITE": "https://www.enbridge.com/", "PIPECO": "TEXAS EASTERN TRANSMISSION L.P.", "COMPID": 17, "OPERATOR": "TEXAS EASTERN TRANSMISSION L.P.", "POSREL": "WITHIN 40 FEET", "NUM_UNITS": 2, "CERT_HP": 48000, "PLANT_COST": 80128910, "EXP_FUEL": 1056301, "EXP_OTHER": false, "GAS_COMPRE": 558171, "OP_COMP_HR": 2806, "OP_NUM_COM": 2, "OP_DATE_PE": "1/21/2020 12:00:00 AM", "EXP_POWER": 66532, "ELEC_COMPR": 338116, "x": -8698378.32900587, "y": 4910938.53941261}, "geometry": {"type": "Point", "coordinates": [-78.138862, 40.308939]}},
{"type": "Feature", "properties": {"ProjectID": "P0262", "OBJECTID": 180, "GCOMPID": "GCOMP1160", "NAME": "LINDEN", "ADDRESS": "LOWER ROAD AND RANGE ROAD", "CITY": "LINDEN", "STATE": "NJ", "ZIP": 7036, "ZIP4": "NOT AVAILABLE", "TYPE": "NATURAL GAS COMPRESSOR STATION", "STATUS": "IN SERVICE", "COUNTY": "UNION", "COUNTYFIPS": 34039, "COUNTRY": "USA", "LATITUDE": 40.6053, "LONGITUDE": -74.2526, "NAICS_CODE": 486210, "NAICS_DESC": "BOOSTER PUMPING STATION, NATURAL GAS TRANSPORTATION", "SOURCE": "EPA ENVIROFACTS, FERC FORM 2, CORPORATE WEBSITE", "SOURCEDATE": "7/15/2020 12:00:00 AM", "VAL_METHOD": "IMAGERY/OTHER", "VAL_DATE": "6/20/2022 12:00:00 AM", "WEBSITE": "https://www.enbridge.com/", "PIPECO": "TEXAS EASTERN TRANSMISSION L.P.", "COMPID": 17, "OPERATOR": "TEXAS EASTERN TRANSMISSION L.P.", "POSREL": "WITHIN 40 FEET", "NUM_UNITS": 3, "CERT_HP": 6150, "PLANT_COST": 24807336, "EXP_FUEL": 375939, "EXP_OTHER": false, "GAS_COMPRE": 221361, "OP_COMP_HR": 12619, "OP_NUM_COM": 3, "OP_DATE_PE": "12/10/2020 12:00:00 AM", "EXP_POWER": 77469, "ELEC_COMPR": 383625, "x": -8265761.62207662, "y": 4954296.66961603}, "geometry": {"type": "Point", "coordinates": [-74.2526, 40.6053]}},
{"type": "Feature", "properties": {"ProjectID": "P0262", "OBJECTID": 189, "GCOMPID": "GCOMP1169", "NAME": "BERNVILLE", "ADDRESS": "N HEIDLEBURG TWP", "CITY": "BERNVILLE", "STATE": "PA", "ZIP": 19506, "ZIP4": "NOT AVAILABLE", "TYPE": "NATURAL GAS COMPRESSOR STATION", "STATUS": "IN SERVICE", "COUNTY": "BERKS", "COUNTYFIPS": 42011, "COUNTRY": "USA", "LATITUDE": 40.40901, "LONGITUDE": -76.15048, "NAICS_CODE": 486210, "NAICS_DESC": "BOOSTER PUMPING STATION, NATURAL GAS TRANSPORTATION", "SOURCE": "EPA ENVIROFACTS, FERC FORM 2, CORPORATE WEBSITE", "SOURCEDATE": "7/15/2020 12:00:00 AM", "VAL_METHOD": "IMAGERY/OTHER", "VAL_DATE": "6/20/2022 12:00:00 AM", "WEBSITE": "https://www.enbridge.com/", "PIPECO": "TEXAS EASTERN TRANSMISSION L.P.", "COMPID": 17, "OPERATOR": "TEXAS EASTERN TRANSMISSION L.P.", "POSREL": "WITHIN 40 FEET", "NUM_UNITS": 2, "CERT_HP": 41800, "PLANT_COST": 28060366, "EXP_FUEL": 1648910, "EXP_OTHER": false, "GAS_COMPRE": 883739, "OP_COMP_HR": 3766, "OP_NUM_COM": 2, "OP_DATE_PE": "12/8/2020 12:00:00 AM", "EXP_POWER": 42754, "ELEC_COMPR": 291752, "x": -8477032.65726336, "y": 4925557.73137133}, "geometry": {"type": "Point", "coordinates": [-76.15048, 40.40901]}},
{"type": "Feature", "properties": {"ProjectID": "P0262", "OBJECTID": 207, "GCOMPID": "GCOMP1185", "NAME": "GAS CITY", "ADDRESS": "NE OF COUNTY ROAD 500W AND STATE ROUTE 40", "CITY": "GAS CITY", "STATE": "IN", "ZIP": 46933, "ZIP4": "NOT AVAILABLE", "TYPE": "NATURAL GAS COMPRESSOR STATION", "STATUS": "IN SERVICE", "COUNTY": "GRANT", "COUNTYFIPS": 18053, "COUNTRY": "USA", "LATITUDE": 40.425293, "LONGITUDE": -85.575735, "NAICS_CODE": 486210, "NAICS_DESC": "BOOSTER PUMPING STATION, NATURAL GAS TRANSPORTATION", "SOURCE": "EPA ENVIROFACTS, FERC FORM 2, CORPORATE WEBSITE", "SOURCEDATE": "7/15/2020 12:00:00 AM", "VAL_METHOD": "IMAGERY/OTHER", "VAL_DATE": "6/20/2022 12:00:00 AM", "WEBSITE": "https://www.enbridge.com/", "PIPECO": "TEXAS EASTERN TRANSMISSION L.P.", "COMPID": 17, "OPERATOR": "TEXAS EASTERN TRANSMISSION L.P.", "POSREL": "WITHIN 40 FEET", "NUM_UNITS": 3, "CERT_HP": 12300, "PLANT_COST": 45451901, "EXP_FUEL": 86751, "EXP_OTHER": false, "GAS_COMPRE": 57375, "OP_COMP_HR": 2576, "OP_NUM_COM": 3, "OP_DATE_PE": "8/24/2020 12:00:00 AM", "EXP_POWER": 97323, "ELEC_COMPR": 255462, "x": -9526247.24446011, "y": 4927938.54039824}, "geometry": {"type": "Point", "coordinates": [-85.575735, 40.425293]}},
{"type": "Feature", "properties": {"ProjectID": "P0262", "OBJECTID": 215, "GCOMPID": "GCOMP1192", "NAME": "KOSCIUSKO", "ADDRESS": "NILE ROAD/JAMISON ROAD", "CITY": "KOSCIUSKO", "STATE": "MS", "ZIP": 39090, "ZIP4": "NOT AVAILABLE", "TYPE": "NATURAL GAS COMPRESSOR STATION", "STATUS": "IN SERVICE", "COUNTY": "ATTALA", "COUNTYFIPS": 28007, "COUNTRY": "USA", "LATITUDE": 32.989021613, "LONGITUDE": -89.552988517, "NAICS_CODE": 486210, "NAICS_DESC": "BOOSTER PUMPING STATION, NATURAL GAS TRANSPORTATION", "SOURCE": "EPA ENVIROFACTS, FERC FORM 2, CORPORATE WEBSITE", "SOURCEDATE": "7/15/2020 12:00:00 AM", "VAL_METHOD": "IMAGERY/OTHER", "VAL_DATE": "6/20/2022 12:00:00 AM", "WEBSITE": "https://www.enbridge.com/", "PIPECO": "TEXAS EASTERN TRANSMISSION L.P.", "COMPID": 17, "OPERATOR": "TEXAS EASTERN TRANSMISSION L.P.", "POSREL": "WITHIN 40 FEET", "NUM_UNITS": 15, "CERT_HP": 51875, "PLANT_COST": 40291076, "EXP_FUEL": 740948, "EXP_OTHER": false, "GAS_COMPRE": 487788, "OP_COMP_HR": 30677, "OP_NUM_COM": 15, "OP_DATE_PE": "11/8/2020 12:00:00 AM", "EXP_POWER": 2381162, "ELEC_COMPR": 27757122, "x": -9968993.08072831, "y": 3893846.85678237}, "geometry": {"type": "Point", "coordinates": [-89.552989, 32.989022]}},
{"type": "Feature", "properties": {"ProjectID": "P0262", "OBJECTID": 234, "GCOMPID": "GCOMP1209", "NAME": "HOLBROOK", "ADDRESS": "OFF HIGHWAY 21", "CITY": "WIND RIDGE", "STATE": "PA", "ZIP": 15380, "ZIP4": "NOT AVAILABLE", "TYPE": "NATURAL GAS COMPRESSOR STATION", "STATUS": "IN SERVICE", "COUNTY": "GREENE", "COUNTYFIPS": 42059, "COUNTRY": "USA", "LATITUDE": 39.890586123, "LONGITUDE": -80.451689007, "NAICS_CODE": 486210, "NAICS_DESC": "BOOSTER PUMPING STATION, NATURAL GAS TRANSPORTATION", "SOURCE": "EPA ENVIROFACTS, FERC FORM 2, CORPORATE WEBSITE", "SOURCEDATE": "7/15/2020 12:00:00 AM", "VAL_METHOD": "IMAGERY/OTHER", "VAL_DATE": "6/20/2022 12:00:00 AM", "WEBSITE": "https://www.enbridge.com/", "PIPECO": "TEXAS EASTERN TRANSMISSION L.P.", "COMPID": 17, "OPERATOR": "TEXAS EASTERN TRANSMISSION L.P.", "POSREL": "WITHIN 40 FEET", "NUM_UNITS": 15, "CERT_HP": 58800, "PLANT_COST": 125741484, "EXP_FUEL": 8177, "EXP_OTHER": false, "GAS_COMPRE": 5115, "OP_COMP_HR": 217, "OP_NUM_COM": 15, "OP_DATE_PE": "4/14/2020 12:00:00 AM", "EXP_POWER": 104971, "ELEC_COMPR": 832230, "x": -8955841.05371804, "y": 4850055.26848132}, "geometry": {"type": "Point", "coordinates": [-80.451689, 39.890586]}},
{"type": "Feature", "properties": {"ProjectID": "P0262", "OBJECTID": 240, "GCOMPID": "GCOMP1214", "NAME": "HANOVER", "ADDRESS": "OFF OF COLUMBIA TPKE", "CITY": "MORRISTOWN", "STATE": "NJ", "ZIP": 7960, "ZIP4": "NOT AVAILABLE", "TYPE": "NATURAL GAS COMPRESSOR STATION", "STATUS": "IN SERVICE", "COUNTY": "MORRIS", "COUNTYFIPS": 34027, "COUNTRY": "USA", "LATITUDE": 40.791597, "LONGITUDE": -74.429208, "NAICS_CODE": 486210, "NAICS_DESC": "BOOSTER PUMPING STATION, NATURAL GAS TRANSPORTATION", "SOURCE": "EPA ENVIROFACTS, FERC FORM 2, CORPORATE WEBSITE", "SOURCEDATE": "7/15/2020 12:00:00 AM", "VAL_METHOD": "IMAGERY/OTHER", "VAL_DATE": "6/20/2022 12:00:00 AM", "WEBSITE": "https://www.enbridge.com/", "PIPECO": "TEXAS EASTERN TRANSMISSION L.P.", "COMPID": 17, "OPERATOR": "TEXAS EASTERN TRANSMISSION L.P.", "POSREL": "WITHIN 40 FEET", "NUM_UNITS": 1, "CERT_HP": 6500, "PLANT_COST": 28332964, "EXP_FUEL": 972788, "EXP_OTHER": false, "GAS_COMPRE": 611047, "OP_COMP_HR": 6871, "OP_NUM_COM": 3, "OP_DATE_PE": "2/14/2020 12:00:00 AM", "EXP_POWER": 29071, "ELEC_COMPR": 134600, "x": -8285421.53470664, "y": 4981650.69624042}, "geometry": {"type": "Point", "coordinates": [-74.429208, 40.791597]}},
{"type": "Feature", "properties": {"ProjectID": "P0262", "OBJECTID": 401, "GCOMPID": "GCOMP136", "NAME": "GRAND CHENIER", "ADDRESS": "1324 HIGHWAY 1143", "CITY": "CREOLE", "STATE": "LA", "ZIP": 70632, "ZIP4": "NOT AVAILABLE", "TYPE": "NATURAL GAS COMPRESSOR STATION", "STATUS": "IN SERVICE", "COUNTY": "CAMERON PARISH", "COUNTYFIPS": 22023, "COUNTRY": "USA", "LATITUDE": 29.816356965, "LONGITUDE": -93.040628319, "NAICS_CODE": 486210, "NAICS_DESC": "BOOSTER PUMPING STATION, NATURAL GAS TRANSPORTATION", "SOURCE": "EPA ENVIROFACTS, FERC FORM 2, CORPORATE WEBSITE", "SOURCEDATE": "7/15/2020 12:00:00 AM", "VAL_METHOD": "IMAGERY/OTHER", "VAL_DATE": "6/20/2022 12:00:00 AM", "WEBSITE": "https://www.enbridge.com/", "PIPECO": "TEXAS EASTERN TRANSMISSION L.P.", "COMPID": 17, "OPERATOR": "TEXAS EASTERN TRANSMISSION L.P.", "POSREL": "WITHIN 40 FEET", "NUM_UNITS": 1, "CERT_HP": 27550, "PLANT_COST": 20766113, "EXP_FUEL": 0, "EXP_OTHER": false, "GAS_COMPRE": 0, "OP_COMP_HR": 0, "OP_NUM_COM": 1, "OP_DATE_PE": "5/28/2020 12:00:00 AM", "EXP_POWER": 17049, "ELEC_COMPR": 95040, "x": -10357235.3675573, "y": 3479966.01760762}, "geometry": {"type": "Point", "coordinates": [-93.040628, 29.816357]}},
{"type": "Feature", "properties": {"ProjectID": "P0262", "OBJECTID": 410, "GCOMPID": "GCOMP137", "NAME": "LAMBERTVILLE", "ADDRESS": "1325 ROUTE 179,HIGHWAY 179NO.", "CITY": "LAMBERTVILLE", "STATE": "NJ", "ZIP": 8530, "ZIP4": "3506", "TYPE": "NATURAL GAS COMPRESSOR STATION", "STATUS": "IN SERVICE", "COUNTY": "HUNTERDON", "COUNTYFIPS": 34019, "COUNTRY": "USA", "LATITUDE": 40.401777751, "LONGITUDE": -74.909095599, "NAICS_CODE": 486210, "NAICS_DESC": "BOOSTER PUMPING STATION, NATURAL GAS TRANSPORTATION", "SOURCE": "EPA ENVIROFACTS, FERC FORM 2, CORPORATE WEBSITE", "SOURCEDATE": "7/15/2020 12:00:00 AM", "VAL_METHOD": "IMAGERY/OTHER", "VAL_DATE": "6/20/2022 12:00:00 AM", "WEBSITE": "https://www.enbridge.com/", "PIPECO": "TEXAS EASTERN TRANSMISSION L.P.", "COMPID": 17, "OPERATOR": "TEXAS EASTERN TRANSMISSION L.P.", "POSREL": "WITHIN 40 FEET", "NUM_UNITS": 5, "CERT_HP": 31600, "PLANT_COST": 221119360, "EXP_FUEL": 1994778, "EXP_OTHER": false, "GAS_COMPRE": 1189438, "OP_COMP_HR": 8120, "OP_NUM_COM": 5, "OP_DATE_PE": "10/1/2020 12:00:00 AM", "EXP_POWER": 530632, "ELEC_COMPR": 4841072, "x": -8338842.37786532, "y": 4924500.45719087}, "geometry": {"type": "Point", "coordinates": [-74.909096, 40.401778]}},
{"type": "Feature", "properties": {"ProjectID": "P0262", "OBJECTID": 455, "GCOMPID": "GCOMP178", "NAME": "MARIETTA", "ADDRESS": "1462 RIVER ROAD", "CITY": "MARIETTA", "STATE": "PA", "ZIP": 17547, "ZIP4": "9400", "TYPE": "NATURAL GAS COMPRESSOR STATION", "STATUS": "IN SERVICE", "COUNTY": "LANCASTER", "COUNTYFIPS": 42071, "COUNTRY": "USA", "LATITUDE": 40.063979276, "LONGITUDE": -76.577265465, "NAICS_CODE": 486210, "NAICS_DESC": "BOOSTER PUMPING STATION, NATURAL GAS TRANSPORTATION", "SOURCE": "EPA ENVIROFACTS, FERC FORM 2, CORPORATE WEBSITE", "SOURCEDATE": "7/15/2020 12:00:00 AM", "VAL_METHOD": "IMAGERY/OTHER", "VAL_DATE": "6/20/2022 12:00:00 AM", "WEBSITE": "https://www.enbridge.com/", "PIPECO": "TEXAS EASTERN TRANSMISSION L.P.", "COMPID": 17, "OPERATOR": "TEXAS EASTERN TRANSMISSION L.P.", "POSREL": "WITHIN 40 FEET", "NUM_UNITS": 3, "CERT_HP": 23960, "PLANT_COST": 102070103, "EXP_FUEL": 1126396, "EXP_OTHER": false, "GAS_COMPRE": 668166, "OP_COMP_HR": 10549, "OP_NUM_COM": 3, "OP_DATE_PE": "1/22/2020 12:00:00 AM", "EXP_POWER": 25057, "ELEC_COMPR": 256500, "x": -8524542.19790513, "y": 4875243.93387584}, "geometry": {"type": "Point", "coordinates": [-76.577265, 40.063979]}},
{"type": "Feature", "properties": {"ProjectID": "P0262", "OBJECTID": 464, "GCOMPID": "GCOMP186", "NAME": "CLINTON", "ADDRESS": "1485 BILLY BELL ROAD", "CITY": "JACKSON", "STATE": "MS", "ZIP": 39213, "ZIP4": "9794", "TYPE": "NATURAL GAS COMPRESSOR STATION", "STATUS": "IN SERVICE", "COUNTY": "HINDS", "COUNTYFIPS": 28049, "COUNTRY": "USA", "LATITUDE": 32.407610229, "LONGITUDE": -90.259139026, "NAICS_CODE": 486210, "NAICS_DESC": "BOOSTER PUMPING STATION, NATURAL GAS TRANSPORTATION", "SOURCE": "EPA ENVIROFACTS, FERC FORM 2, CORPORATE WEBSITE", "SOURCEDATE": "7/15/2020 12:00:00 AM", "VAL_METHOD": "IMAGERY/OTHER", "VAL_DATE": "6/20/2022 12:00:00 AM", "WEBSITE": "https://www.enbridge.com/", "PIPECO": "TEXAS EASTERN TRANSMISSION L.P.", "COMPID": 17, "OPERATOR": "TEXAS EASTERN TRANSMISSION L.P.", "POSREL": "WITHIN 40 FEET", "NUM_UNITS": 4, "CERT_HP": 30400, "PLANT_COST": 85070516, "EXP_FUEL": 425431, "EXP_OTHER": false, "GAS_COMPRE": 224399, "OP_COMP_HR": 3208, "OP_NUM_COM": 4, "OP_DATE_PE": "12/31/2020 12:00:00 AM", "EXP_POWER": 112152, "ELEC_COMPR": 501000, "x": -10047601.3958136, "y": 3816935.5373877}, "geometry": {"type": "Point", "coordinates": [-90.259139, 32.40761]}},
{"type": "Feature", "properties": {"ProjectID": "P0262", "OBJECTID": 474, "GCOMPID": "GCOMP195", "NAME": "UNIONTOWN", "ADDRESS": "1525 CONNELLSVILLE ROAD", "CITY": "LEMONT FURNACE", "STATE": "PA", "ZIP": 15456, "ZIP4": "1015", "TYPE": "NATURAL GAS COMPRESSOR STATION", "STATUS": "IN SERVICE", "COUNTY": "FAYETTE", "COUNTYFIPS": 42051, "COUNTRY": "USA", "LATITUDE": 39.9319037417427, "LONGITUDE": -79.671019322356, "NAICS_CODE": 486210, "NAICS_DESC": "BOOSTER PUMPING STATION, NATURAL GAS TRANSPORTATION", "SOURCE": "EPA ENVIROFACTS, FERC FORM 2, CORPORATE WEBSITE", "SOURCEDATE": "7/15/2020 12:00:00 AM", "VAL_METHOD": "IMAGERY/OTHER", "VAL_DATE": "6/24/2022 12:00:00 AM", "WEBSITE": "https://www.enbridge.com/", "PIPECO": "TEXAS EASTERN TRANSMISSION L.P.", "COMPID": 17, "OPERATOR": "TEXAS EASTERN TRANSMISSION L.P.", "POSREL": "WITHIN 40 FEET", "NUM_UNITS": 5, "CERT_HP": 80900, "PLANT_COST": 129486003, "EXP_FUEL": 168118, "EXP_OTHER": false, "GAS_COMPRE": 107186, "OP_COMP_HR": 17986, "OP_NUM_COM": 5, "OP_DATE_PE": "2/21/2020 12:00:00 AM", "EXP_POWER": 6318523, "ELEC_COMPR": 112487212, "x": -8868937.30190609, "y": 4856051.64555638}, "geometry": {"type": "Point", "coordinates": [-79.671019, 39.931904]}},
{"type": "Feature", "properties": {"ProjectID": "P0262", "OBJECTID": 525, "GCOMPID": "GCOMP240", "NAME": "LEIDY", "ADDRESS": "169 GAS PLANT LANE", "CITY": "LEIDY", "STATE": "PA", "ZIP": 17004, "ZIP4": "NOT AVAILABLE", "TYPE": "NATURAL GAS COMPRESSOR STATION", "STATUS": "IN SERVICE", "COUNTY": "CLINTON", "COUNTYFIPS": 42035, "COUNTRY": "USA", "LATITUDE": 41.425509, "LONGITUDE": -77.855894, "NAICS_CODE": 486210, "NAICS_DESC": "BOOSTER PUMPING STATION, NATURAL GAS TRANSPORTATION", "SOURCE": "EPA ENVIROFACTS, FERC FORM 2, CORPORATE WEBSITE", "SOURCEDATE": "7/15/2020 12:00:00 AM", "VAL_METHOD": "IMAGERY/OTHER", "VAL_DATE": "6/20/2022 12:00:00 AM", "WEBSITE": "https://www.enbridge.com/", "PIPECO": "TEXAS EASTERN TRANSMISSION L.P.", "COMPID": 17, "OPERATOR": "TEXAS EASTERN TRANSMISSION L.P.", "POSREL": "WITHIN 40 FEET", "NUM_UNITS": 13, "CERT_HP": 25800, "PLANT_COST": 70320930, "EXP_FUEL": 290562, "EXP_OTHER": false, "GAS_COMPRE": 192916, "OP_COMP_HR": 36501, "OP_NUM_COM": 11, "OP_DATE_PE": "5/16/2020 12:00:00 AM", "EXP_POWER": 13060, "ELEC_COMPR": 126189, "x": -8666878.47533508, "y": 5075308.19259196}, "geometry": {"type": "Point", "coordinates": [-77.855894, 41.425509]}},
{"type": "Feature", "properties": {"ProjectID": "P0262", "OBJECTID": 529, "GCOMPID": "GCOMP244", "NAME": "SAINT FRANCISVILLE", "ADDRESS": "17238 HIGHWAY 10", "CITY": "SAINT FRANCISVILLE", "STATE": "LA", "ZIP": 70775, "ZIP4": "NOT AVAILABLE", "TYPE": "NATURAL GAS COMPRESSOR STATION", "STATUS": "IN SERVICE", "COUNTY": "WEST FELICIANA PARISH", "COUNTYFIPS": 22125, "COUNTRY": "USA", "LATITUDE": 30.834781798, "LONGITUDE": -91.254406907, "NAICS_CODE": 486210, "NAICS_DESC": "BOOSTER PUMPING STATION, NATURAL GAS TRANSPORTATION", "SOURCE": "EPA ENVIROFACTS, FERC FORM 2, CORPORATE WEBSITE", "SOURCEDATE": "7/15/2020 12:00:00 AM", "VAL_METHOD": "IMAGERY/OTHER", "VAL_DATE": "6/20/2022 12:00:00 AM", "WEBSITE": "https://www.enbridge.com/", "PIPECO": "TEXAS EASTERN TRANSMISSION L.P.", "COMPID": 17, "OPERATOR": "TEXAS EASTERN TRANSMISSION L.P.", "POSREL": "WITHIN 40 FEET", "NUM_UNITS": 4, "CERT_HP": 32000, "PLANT_COST": 56783664, "EXP_FUEL": 607360, "EXP_OTHER": false, "GAS_COMPRE": 371497, "OP_COMP_HR": 5213, "OP_NUM_COM": 4, "OP_DATE_PE": "12/31/2020 12:00:00 AM", "EXP_POWER": 53889, "ELEC_COMPR": 421500, "x": -10158394.1095294, "y": 3611310.95211341}, "geometry": {"type": "Point", "coordinates": [-91.254407, 30.834782]}},
{"type": "Feature", "properties": {"ProjectID": "P0262", "OBJECTID": 533, "GCOMPID": "GCOMP248", "NAME": "DANVILLE", "ADDRESS": "1745 AIRPORT BOULEVARD HIGHWAY 1273", "CITY": "DANVILLE", "STATE": "KY", "ZIP": 40422, "ZIP4": "NOT AVAILABLE", "TYPE": "NATURAL GAS COMPRESSOR STATION", "STATUS": "IN SERVICE", "COUNTY": "BOYLE", "COUNTYFIPS": 21021, "COUNTRY": "USA", "LATITUDE": 37.579915741, "LONGITUDE": -84.750462491, "NAICS_CODE": 486210, "NAICS_DESC": "BOOSTER PUMPING STATION, NATURAL GAS TRANSPORTATION", "SOURCE": "EPA ENVIROFACTS, FERC FORM 2, CORPORATE WEBSITE", "SOURCEDATE": "7/15/2020 12:00:00 AM", "VAL_METHOD": "IMAGERY/OTHER", "VAL_DATE": "6/20/2022 12:00:00 AM", "WEBSITE": "https://www.enbridge.com/", "PIPECO": "TEXAS EASTERN TRANSMISSION L.P.", "COMPID": 17, "OPERATOR": "TEXAS EASTERN TRANSMISSION L.P.", "POSREL": "WITHIN 40 FEET", "NUM_UNITS": 13, "CERT_HP": 52970, "PLANT_COST": 117212392, "EXP_FUEL": 2516864, "EXP_OTHER": false, "GAS_COMPRE": 1521347, "OP_COMP_HR": 32398, "OP_NUM_COM": 13, "OP_DATE_PE": "1/8/2020 12:00:00 AM", "EXP_POWER": 298404, "ELEC_COMPR": 1500520, "x": -9434378.32899255, "y": 4520250.7906042}, "geometry": {"type": "Point", "coordinates": [-84.750462, 37.579916]}},
{"type": "Feature", "properties": {"ProjectID": "P0262", "OBJECTID": 534, "GCOMPID": "GCOMP249", "NAME": "BATESVILLE", "ADDRESS": "1764 IN-46", "CITY": "BATESVILLE", "STATE": "IN", "ZIP": 47006, "ZIP4": "NOT AVAILABLE", "TYPE": "NATURAL GAS COMPRESSOR STATION", "STATUS": "IN SERVICE", "COUNTY": "RIPLEY", "COUNTYFIPS": 18137, "COUNTRY": "USA", "LATITUDE": 39.287102, "LONGITUDE": -85.185087, "NAICS_CODE": 486210, "NAICS_DESC": "BOOSTER PUMPING STATION, NATURAL GAS TRANSPORTATION", "SOURCE": "FERC FORM 2, IMAGERY", "SOURCEDATE": "7/15/2020 12:00:00 AM", "VAL_METHOD": "IMAGERY/OTHER", "VAL_DATE": "6/20/2022 12:00:00 AM", "WEBSITE": "https://www.enbridge.com/", "PIPECO": "TEXAS EASTERN TRANSMISSION L.P.", "COMPID": 17, "OPERATOR": "TEXAS EASTERN TRANSMISSION L.P.", "POSREL": "WITHIN 40 FEET", "NUM_UNITS": 2, "CERT_HP": 3500, "PLANT_COST": 2609591, "EXP_FUEL": 0, "EXP_OTHER": false, "GAS_COMPRE": 0, "OP_COMP_HR": 0, "OP_NUM_COM": 3, "OP_DATE_PE": "12/1/2020 12:00:00 AM", "EXP_POWER": 9435, "ELEC_COMPR": 98290, "x": -9482760.5080207, "y": 4762880.30681918}, "geometry": {"type": "Point", "coordinates": [-85.185087, 39.287102]}},
{"type": "Feature", "properties": {"ProjectID": "P0262", "OBJECTID": 545, "GCOMPID": "GCOMP259", "NAME": "GLEN KARN", "ADDRESS": "180 MIKESELL ROAD", "CITY": "HOLLANSBURG", "STATE": "OH", "ZIP": 45332, "ZIP4": "NOT AVAILABLE", "TYPE": "NATURAL GAS COMPRESSOR STATION", "STATUS": "IN SERVICE", "COUNTY": "DARKE", "COUNTYFIPS": 39037, "COUNTRY": "USA", "LATITUDE": 40.010373534, "LONGITUDE": -84.799628872, "NAICS_CODE": 486210, "NAICS_DESC": "BOOSTER PUMPING STATION, NATURAL GAS TRANSPORTATION", "SOURCE": "EPA ENVIROFACTS, FERC FORM 2, CORPORATE WEBSITE", "SOURCEDATE": "7/15/2020 12:00:00 AM", "VAL_METHOD": "IMAGERY/OTHER", "VAL_DATE": "6/20/2022 12:00:00 AM", "WEBSITE": "https://www.enbridge.com/", "PIPECO": "TEXAS EASTERN TRANSMISSION L.P.", "COMPID": 17, "OPERATOR": "TEXAS EASTERN TRANSMISSION L.P.", "POSREL": "WITHIN 40 FEET", "NUM_UNITS": 1, "CERT_HP": 8170, "PLANT_COST": 19944982, "EXP_FUEL": 765145, "EXP_OTHER": false, "GAS_COMPRE": 475979, "OP_COMP_HR": 8083, "OP_NUM_COM": 1, "OP_DATE_PE": "12/25/2020 12:00:00 AM", "EXP_POWER": 13248, "ELEC_COMPR": 94560, "x": -9439851.50548962, "y": 4867449.84772007}, "geometry": {"type": "Point", "coordinates": [-84.799629, 40.010374]}},
{"type": "Feature", "properties": {"ProjectID": "P0262", "OBJECTID": 554, "GCOMPID": "GCOMP267", "NAME": "BARTON", "ADDRESS": "1835 MOUNT MILLS ROAD", "CITY": "TUSCUMBIA", "STATE": "AL", "ZIP": 35674, "ZIP4": "NOT AVAILABLE", "TYPE": "NATURAL GAS COMPRESSOR STATION", "STATUS": "IN SERVICE", "COUNTY": "COLBERT", "COUNTYFIPS": 1033, "COUNTRY": "USA", "LATITUDE": 34.648553502, "LONGITUDE": -87.912814516, "NAICS_CODE": 486210, "NAICS_DESC": "BOOSTER PUMPING STATION, NATURAL GAS TRANSPORTATION", "SOURCE": "FERC FORM 2, CORPORATE WEBSITE", "SOURCEDATE": "7/15/2020 12:00:00 AM", "VAL_METHOD": "IMAGERY/OTHER", "VAL_DATE": "6/20/2022 12:00:00 AM", "WEBSITE": "https://www.enbridge.com/", "PIPECO": "TEXAS EASTERN TRANSMISSION L.P.", "COMPID": 17, "OPERATOR": "TEXAS EASTERN TRANSMISSION L.P.", "POSREL": "WITHIN 40 FEET", "NUM_UNITS": 8, "CERT_HP": 57800, "PLANT_COST": 52158677, "EXP_FUEL": 0, "EXP_OTHER": false, "GAS_COMPRE": 0, "OP_COMP_HR": 29720, "OP_NUM_COM": 8, "OP_DATE_PE": "3/31/2020 12:00:00 AM", "EXP_POWER": 4165456, "ELEC_COMPR": 68150338, "x": -9786409.74612463, "y": 4116222.94319834}, "geometry": {"type": "Point", "coordinates": [-87.912815, 34.648554]}},
{"type": "Feature", "properties": {"ProjectID": "P0262", "OBJECTID": 559, "GCOMPID": "GCOMP271", "NAME": "WAYNESBURG", "ADDRESS": "188 EAST STATE ROAD", "CITY": "WAYNESBURG", "STATE": "PA", "ZIP": 15370, "ZIP4": "NOT AVAILABLE", "TYPE": "NATURAL GAS COMPRESSOR STATION", "STATUS": "IN SERVICE", "COUNTY": "GREENE", "COUNTYFIPS": 42059, "COUNTRY": "USA", "LATITUDE": 39.917822, "LONGITUDE": -80.124552, "NAICS_CODE": 486210, "NAICS_DESC": "BOOSTER PUMPING STATION, NATURAL GAS TRANSPORTATION", "SOURCE": "EPA ENVIROFACTS, FERC FORM 2, CORPORATE WEBSITE", "SOURCEDATE": "7/15/2020 12:00:00 AM", "VAL_METHOD": "IMAGERY/OTHER", "VAL_DATE": "6/20/2022 12:00:00 AM", "WEBSITE": "https://www.enbridge.com/", "PIPECO": "TEXAS EASTERN TRANSMISSION L.P.", "COMPID": 17, "OPERATOR": "TEXAS EASTERN TRANSMISSION L.P.", "POSREL": "WITHIN 166 FEET", "NUM_UNITS": 1, "CERT_HP": 5000, "PLANT_COST": 16282574, "EXP_FUEL": 569158, "EXP_OTHER": false, "GAS_COMPRE": 346263, "OP_COMP_HR": 8344, "OP_NUM_COM": 1, "OP_DATE_PE": "2/20/2020 12:00:00 AM", "EXP_POWER": 7105, "ELEC_COMPR": 36916, "x": -8919424.32867916, "y": 4854007.57268633}, "geometry": {"type": "Point", "coordinates": [-80.124552, 39.917822]}},
{"type": "Feature", "properties": {"ProjectID": "P0262", "OBJECTID": 567, "GCOMPID": "GCOMP279", "NAME": "SOMERSET", "ADDRESS": "1895 BIG INCH ROAD NE", "CITY": "SOMERSET", "STATE": "OH", "ZIP": 43783, "ZIP4": "NOT AVAILABLE", "TYPE": "NATURAL GAS COMPRESSOR STATION", "STATUS": "IN SERVICE", "COUNTY": "PERRY", "COUNTYFIPS": 39127, "COUNTRY": "USA", "LATITUDE": 39.781026, "LONGITUDE": -82.287527, "NAICS_CODE": 486210, "NAICS_DESC": "BOOSTER PUMPING STATION, NATURAL GAS TRANSPORTATION", "SOURCE": "EPA ENVIROFACTS, FERC FORM 2, CORPORATE WEBSITE", "SOURCEDATE": "7/15/2020 12:00:00 AM", "VAL_METHOD": "IMAGERY/OTHER", "VAL_DATE": "6/20/2022 12:00:00 AM", "WEBSITE": "https://www.enbridge.com/", "PIPECO": "TEXAS EASTERN TRANSMISSION L.P.", "COMPID": 17, "OPERATOR": "TEXAS EASTERN TRANSMISSION L.P.", "POSREL": "WITHIN 40 FEET", "NUM_UNITS": 8, "CERT_HP": 18300, "PLANT_COST": 36679115, "EXP_FUEL": 1338863, "EXP_OTHER": false, "GAS_COMPRE": 828268, "OP_COMP_HR": 7721, "OP_NUM_COM": 8, "OP_DATE_PE": "12/1/2020 12:00:00 AM", "EXP_POWER": 23222, "ELEC_COMPR": 142800, "x": -9160205.60427774, "y": 4834172.41128984}, "geometry": {"type": "Point", "coordinates": [-82.287527, 39.781026]}},
{"type": "Feature", "properties": {"ProjectID": "P0262", "OBJECTID": 577, "GCOMPID": "GCOMP288", "NAME": "TOMPKINSVILLE", "ADDRESS": "1921 PIPELINE ROAD", "CITY": "SUMMER SHADE", "STATE": "KY", "ZIP": 42166, "ZIP4": "NOT AVAILABLE", "TYPE": "NATURAL GAS COMPRESSOR STATION", "STATUS": "IN SERVICE", "COUNTY": "METCALFE", "COUNTYFIPS": 21169, "COUNTRY": "USA", "LATITUDE": 36.830918513, "LONGITUDE": -85.668283751, "NAICS_CODE": 486210, "NAICS_DESC": "BOOSTER PUMPING STATION, NATURAL GAS TRANSPORTATION", "SOURCE": "EPA ENVIROFACTS, FERC FORM 2, CORPORATE WEBSITE", "SOURCEDATE": "7/15/2020 12:00:00 AM", "VAL_METHOD": "IMAGERY/OTHER", "VAL_DATE": "6/20/2022 12:00:00 AM", "WEBSITE": "https://www.enbridge.com/", "PIPECO": "TEXAS EASTERN TRANSMISSION L.P.", "COMPID": 17, "OPERATOR": "TEXAS EASTERN TRANSMISSION L.P.", "POSREL": "WITHIN 40 FEET", "NUM_UNITS": 3, "CERT_HP": 46875, "PLANT_COST": 81532292, "EXP_FUEL": 0, "EXP_OTHER": false, "GAS_COMPRE": 0, "OP_COMP_HR": 8327, "OP_NUM_COM": 3, "OP_DATE_PE": "1/31/2020 12:00:00 AM", "EXP_POWER": 5749181, "ELEC_COMPR": 80310614, "x": -9536549.72429499, "y": 4415565.14010082}, "geometry": {"type": "Point", "coordinates": [-85.668284, 36.830919]}},
{"type": "Feature", "properties": {"ProjectID": "P0262", "OBJECTID": 581, "GCOMPID": "GCOMP291", "NAME": "OAKFORD", "ADDRESS": "195 ADELE LANE", "CITY": "GREENSBURG", "STATE": "PA", "ZIP": 15601, "ZIP4": "NOT AVAILABLE", "TYPE": "NATURAL GAS COMPRESSOR STATION", "STATUS": "IN SERVICE", "COUNTY": "WESTMORELAND", "COUNTYFIPS": 42129, "COUNTRY": "USA", "LATITUDE": 40.384831, "LONGITUDE": -79.548869, "NAICS_CODE": 486210, "NAICS_DESC": "BOOSTER PUMPING STATION, NATURAL GAS TRANSPORTATION", "SOURCE": "EPA ENVIROFACTS, FERC FORM 2, CORPORATE WEBSITE", "SOURCEDATE": "7/15/2020 12:00:00 AM", "VAL_METHOD": "IMAGERY/OTHER", "VAL_DATE": "6/20/2022 12:00:00 AM", "WEBSITE": "https://www.enbridge.com/", "PIPECO": "TEXAS EASTERN TRANSMISSION L.P.", "COMPID": 17, "OPERATOR": "TEXAS EASTERN TRANSMISSION L.P.", "POSREL": "WITHIN 40 FEET", "NUM_UNITS": 15, "CERT_HP": 43800, "PLANT_COST": 144278613, "EXP_FUEL": 713127, "EXP_OTHER": false, "GAS_COMPRE": 420885, "OP_COMP_HR": 41937, "OP_NUM_COM": 15, "OP_DATE_PE": "12/27/2020 12:00:00 AM", "EXP_POWER": 1846565, "ELEC_COMPR": 1495193, "x": -8855339.59026082, "y": 4922023.47593195}, "geometry": {"type": "Point", "coordinates": [-79.548869, 40.384831]}},
{"type": "Feature", "properties": {"ProjectID": "P0262", "OBJECTID": 586, "GCOMPID": "GCOMP296", "NAME": "ACCIDENT", "ADDRESS": "196 TEXAS EASTERN DRIVE", "CITY": "ACCIDENT", "STATE": "MD", "ZIP": 21520, "ZIP4": "NOT AVAILABLE", "TYPE": "NATURAL GAS COMPRESSOR STATION", "STATUS": "IN SERVICE", "COUNTY": "GARRETT", "COUNTYFIPS": 24023, "COUNTRY": "USA", "LATITUDE": 39.63982099, "LONGITUDE": -79.339502157, "NAICS_CODE": 486210, "NAICS_DESC": "BOOSTER PUMPING STATION, NATURAL GAS TRANSPORTATION", "SOURCE": "EPA ENVIROFACTS, FERC FORM 2, CORPORATE WEBSITE", "SOURCEDATE": "7/15/2020 12:00:00 AM", "VAL_METHOD": "IMAGERY/OTHER", "VAL_DATE": "6/20/2022 12:00:00 AM", "WEBSITE": "https://www.enbridge.com/", "PIPECO": "TEXAS EASTERN TRANSMISSION L.P.", "COMPID": 17, "OPERATOR": "TEXAS EASTERN TRANSMISSION L.P.", "POSREL": "WITHIN 40 FEET", "NUM_UNITS": 2, "CERT_HP": 11000, "PLANT_COST": 78578717, "EXP_FUEL": 614443, "EXP_OTHER": false, "GAS_COMPRE": 394433, "OP_COMP_HR": 7828, "OP_NUM_COM": 2, "OP_DATE_PE": "11/26/2020 12:00:00 AM", "EXP_POWER": 88893, "ELEC_COMPR": 485952, "x": -8832032.97990907, "y": 4813739.26453766}, "geometry": {"type": "Point", "coordinates": [-79.339502, 39.639821]}},
{"type": "Feature", "properties": {"ProjectID": "P0262", "OBJECTID": 592, "GCOMPID": "GCOMP300", "NAME": "FIVE POINTS", "ADDRESS": "19909 FIVE POINTS PIKE", "CITY": "WILLIAMSPORT", "STATE": "OH", "ZIP": 43164, "ZIP4": "NOT AVAILABLE", "TYPE": "NATURAL GAS COMPRESSOR STATION", "STATUS": "IN SERVICE", "COUNTY": "PICKAWAY", "COUNTYFIPS": 39129, "COUNTRY": "USA", "LATITUDE": 39.648955, "LONGITUDE": -83.166418, "NAICS_CODE": 486210, "NAICS_DESC": "BOOSTER PUMPING STATION, NATURAL GAS TRANSPORTATION", "SOURCE": "EPA ENVIROFACTS, FERC FORM 2, CORPORATE WEBSITE", "SOURCEDATE": "7/15/2020 12:00:00 AM", "VAL_METHOD": "IMAGERY/OTHER", "VAL_DATE": "6/20/2022 12:00:00 AM", "WEBSITE": "https://www.enbridge.com/", "PIPECO": "TEXAS EASTERN TRANSMISSION L.P.", "COMPID": 17, "OPERATOR": "TEXAS EASTERN TRANSMISSION L.P.", "POSREL": "WITHIN 40 FEET", "NUM_UNITS": 4, "CERT_HP": 16600, "PLANT_COST": 32930581, "EXP_FUEL": 1031541, "EXP_OTHER": false, "GAS_COMPRE": 616673, "OP_COMP_HR": 6676, "OP_NUM_COM": 4, "OP_DATE_PE": "12/25/2020 12:00:00 AM", "EXP_POWER": 130591, "ELEC_COMPR": 570000, "x": -9258043.30286054, "y": 4815059.7424682}, "geometry": {"type": "Point", "coordinates": [-83.166418, 39.648955]}},
{"type": "Feature", "properties": {"ProjectID": "P0262", "OBJECTID": 610, "GCOMPID": "GCOMP317", "NAME": "EGYPT", "ADDRESS": "20161 OLD HOUSTON ROAD", "CITY": "ABERDEEN", "STATE": "MS", "ZIP": 39730, "ZIP4": "8555", "TYPE": "NATURAL GAS COMPRESSOR STATION", "STATUS": "IN SERVICE", "COUNTY": "MONROE", "COUNTYFIPS": 28095, "COUNTRY": "USA", "LATITUDE": 33.87025481, "LONGITUDE": -88.692412426, "NAICS_CODE": 486210, "NAICS_DESC": "BOOSTER PUMPING STATION, NATURAL GAS TRANSPORTATION", "SOURCE": "EPA ENVIROFACTS, FERC FORM 2, CORPORATE WEBSITE", "SOURCEDATE": "7/15/2020 12:00:00 AM", "VAL_METHOD": "IMAGERY/OTHER", "VAL_DATE": "6/20/2022 12:00:00 AM", "WEBSITE": "https://www.enbridge.com/", "PIPECO": "TEXAS EASTERN TRANSMISSION L.P.", "COMPID": 17, "OPERATOR": "TEXAS EASTERN TRANSMISSION L.P.", "POSREL": "WITHIN 40 FEET", "NUM_UNITS": 3, "CERT_HP": 55000, "PLANT_COST": 39286550, "EXP_FUEL": 0, "EXP_OTHER": false, "GAS_COMPRE": 0, "OP_COMP_HR": 2330, "OP_NUM_COM": 3, "OP_DATE_PE": "12/31/2020 12:00:00 AM", "EXP_POWER": 4091890, "ELEC_COMPR": 84325025, "x": -9873194.18848933, "y": 4011393.69366607}, "geometry": {"type": "Point", "coordinates": [-88.692412, 33.870255]}},
{"type": "Feature", "properties": {"ProjectID": "P0262", "OBJECTID": 642, "GCOMPID": "GCOMP346", "NAME": "OWINGSVILLE", "ADDRESS": "216 OLD OAKLEY PEBBLE ROAD", "CITY": "OWINGSVILLE", "STATE": "KY", "ZIP": 40360, "ZIP4": "NOT AVAILABLE", "TYPE": "NATURAL GAS COMPRESSOR STATION", "STATUS": "IN SERVICE", "COUNTY": "BATH", "COUNTYFIPS": 21011, "COUNTRY": "USA", "LATITUDE": 38.229159, "LONGITUDE": -83.704513, "NAICS_CODE": 486210, "NAICS_DESC": "BOOSTER PUMPING STATION, NATURAL GAS TRANSPORTATION", "SOURCE": "EPA ENVIROFACTS, FERC FORM 2, CORPORATE WEBSITE", "SOURCEDATE": "7/15/2020 12:00:00 AM", "VAL_METHOD": "IMAGERY/OTHER", "VAL_DATE": "6/20/2022 12:00:00 AM", "WEBSITE": "https://www.enbridge.com/", "PIPECO": "TEXAS EASTERN TRANSMISSION L.P.", "COMPID": 17, "OPERATOR": "TEXAS EASTERN TRANSMISSION L.P.", "POSREL": "WITHIN 40 FEET", "NUM_UNITS": 5, "CERT_HP": 50500, "PLANT_COST": 142632334, "EXP_FUEL": 2292823, "EXP_OTHER": false, "GAS_COMPRE": 1381296, "OP_COMP_HR": 19751, "OP_NUM_COM": 5, "OP_DATE_PE": "4/2/2020 12:00:00 AM", "EXP_POWER": 235023, "ELEC_COMPR": 1508400, "x": -9317943.76425894, "y": 4611849.06516942}, "geometry": {"type": "Point", "coordinates": [-83.704513, 38.229159]}},
{"type": "Feature", "properties": {"ProjectID": "P0262", "OBJECTID": 665, "GCOMPID": "GCOMP367", "NAME": "LILLY", "ADDRESS": "224 TEXAS LANE", "CITY": "LILLY", "STATE": "PA", "ZIP": 15938, "ZIP4": "5703", "TYPE": "NATURAL GAS COMPRESSOR STATION", "STATUS": "IN SERVICE", "COUNTY": "CAMBRIA", "COUNTYFIPS": 42021, "COUNTRY": "USA", "LATITUDE": 40.438101874, "LONGITUDE": -78.592113298, "NAICS_CODE": 486210, "NAICS_DESC": "BOOSTER PUMPING STATION, NATURAL GAS TRANSPORTATION", "SOURCE": "EPA ENVIROFACTS, FERC FORM 2, CORPORATE WEBSITE", "SOURCEDATE": "7/15/2020 12:00:00 AM", "VAL_METHOD": "IMAGERY/OTHER", "VAL_DATE": "6/20/2022 12:00:00 AM", "WEBSITE": "https://www.enbridge.com/", "PIPECO": "TEXAS EASTERN TRANSMISSION L.P.", "COMPID": 17, "OPERATOR": "TEXAS EASTERN TRANSMISSION L.P.", "POSREL": "WITHIN 40 FEET", "NUM_UNITS": 4, "CERT_HP": 34800, "PLANT_COST": 40947151, "EXP_FUEL": 3105949, "EXP_OTHER": false, "GAS_COMPRE": 1838484, "OP_COMP_HR": 22991, "OP_NUM_COM": 4, "OP_DATE_PE": "1/17/2020 12:00:00 AM", "EXP_POWER": 83900, "ELEC_COMPR": 325065, "x": -8748834.03270062, "y": 4929811.7872283}, "geometry": {"type": "Point", "coordinates": [-78.592113, 40.438102]}},
{"type": "Feature", "properties": {"ProjectID": "P0262", "OBJECTID": 666, "GCOMPID": "GCOMP368", "NAME": "GILLIS", "ADDRESS": "2240 T. E. ROAD", "CITY": "RAGLEY", "STATE": "LA", "ZIP": 70657, "ZIP4": "NOT AVAILABLE", "TYPE": "NATURAL GAS COMPRESSOR STATION", "STATUS": "IN SERVICE", "COUNTY": "BEAUREGARD PARISH", "COUNTYFIPS": 22011, "COUNTRY": "USA", "LATITUDE": 30.459632678, "LONGITUDE": -93.14450579, "NAICS_CODE": 486210, "NAICS_DESC": "BOOSTER PUMPING STATION, NATURAL GAS TRANSPORTATION", "SOURCE": "EPA ENVIROFACTS, FERC FORM 2, CORPORATE WEBSITE", "SOURCEDATE": "7/15/2020 12:00:00 AM", "VAL_METHOD": "IMAGERY/OTHER", "VAL_DATE": "6/20/2022 12:00:00 AM", "WEBSITE": "https://www.enbridge.com/", "PIPECO": "TEXAS EASTERN TRANSMISSION L.P.", "COMPID": 17, "OPERATOR": "TEXAS EASTERN TRANSMISSION L.P.", "POSREL": "WITHIN 40 FEET", "NUM_UNITS": 1, "CERT_HP": 15600, "PLANT_COST": 84274328, "EXP_FUEL": 135446, "EXP_OTHER": false, "GAS_COMPRE": 97056, "OP_COMP_HR": 798, "OP_NUM_COM": 1, "OP_DATE_PE": "9/15/2020 12:00:00 AM", "EXP_POWER": 54568, "ELEC_COMPR": 179200, "x": -10368798.9547339, "y": 3562769.2197975}, "geometry": {"type": "Point", "coordinates": [-93.144506, 30.459633]}},
{"type": "Feature", "properties": {"ProjectID": "P0262", "OBJECTID": 735, "GCOMPID": "GCOMP43", "NAME": "SEYMOUR", "ADDRESS": "10197 E 1000 N", "CITY": "SEYMOUR", "STATE": "IN", "ZIP": 47274, "ZIP4": "9704", "TYPE": "NATURAL GAS COMPRESSOR STATION", "STATUS": "IN SERVICE", "COUNTY": "JACKSON", "COUNTYFIPS": 18071, "COUNTRY": "USA", "LATITUDE": 39.025874202, "LONGITUDE": -85.850873906, "NAICS_CODE": 486210, "NAICS_DESC": "BOOSTER PUMPING STATION, NATURAL GAS TRANSPORTATION", "SOURCE": "EPA ENVIROFACTS, FERC FORM 2, CORPORATE WEBSITE", "SOURCEDATE": "7/15/2020 12:00:00 AM", "VAL_METHOD": "IMAGERY/OTHER", "VAL_DATE": "6/20/2022 12:00:00 AM", "WEBSITE": "https://www.enbridge.com/", "PIPECO": "TEXAS EASTERN TRANSMISSION L.P.", "COMPID": 17, "OPERATOR": "TEXAS EASTERN TRANSMISSION L.P.", "POSREL": "WITHIN 40 FEET", "NUM_UNITS": 2, "CERT_HP": 4000, "PLANT_COST": 4109823, "EXP_FUEL": 0, "EXP_OTHER": false, "GAS_COMPRE": 0, "OP_COMP_HR": 33, "OP_NUM_COM": 3, "OP_DATE_PE": "12/1/2020 12:00:00 AM", "EXP_POWER": 16427, "ELEC_COMPR": 171487, "x": -9556875.56737345, "y": 4725378.50796951}, "geometry": {"type": "Point", "coordinates": [-85.850874, 39.025874]}},
{"type": "Feature", "properties": {"ProjectID": "P0262", "OBJECTID": 743, "GCOMPID": "GCOMP437", "NAME": "WALNUT RIDGE", "ADDRESS": "269 STATE HIGHWAY 349", "CITY": "WALNUT RIDGE", "STATE": "AR", "ZIP": 72476, "ZIP4": "NOT AVAILABLE", "TYPE": "NATURAL GAS COMPRESSOR STATION", "STATUS": "IN SERVICE", "COUNTY": "LAWRENCE", "COUNTYFIPS": 5075, "COUNTRY": "USA", "LATITUDE": 35.924745652, "LONGITUDE": -90.904184953, "NAICS_CODE": 486210, "NAICS_DESC": "BOOSTER PUMPING STATION, NATURAL GAS TRANSPORTATION", "SOURCE": "EPA ENVIROFACTS, FERC FORM 2, CORPORATE WEBSITE", "SOURCEDATE": "7/15/2020 12:00:00 AM", "VAL_METHOD": "IMAGERY/OTHER", "VAL_DATE": "6/20/2022 12:00:00 AM", "WEBSITE": "https://www.enbridge.com/", "PIPECO": "TEXAS EASTERN TRANSMISSION L.P.", "COMPID": 17, "OPERATOR": "TEXAS EASTERN TRANSMISSION L.P.", "POSREL": "WITHIN 40 FEET", "NUM_UNITS": 4, "CERT_HP": 8000, "PLANT_COST": 3586079, "EXP_FUEL": 0, "EXP_OTHER": false, "GAS_COMPRE": 0, "OP_COMP_HR": 514, "OP_NUM_COM": 4, "OP_DATE_PE": "2/29/2020 12:00:00 AM", "EXP_POWER": 15763, "ELEC_COMPR": 72000, "x": -10119407.5799455, "y": 4290271.42436141}, "geometry": {"type": "Point", "coordinates": [-90.904185, 35.924746]}},
{"type": "Feature", "properties": {"ProjectID": "P0262", "OBJECTID": 788, "GCOMPID": "GCOMP478", "NAME": "DONALDSON", "ADDRESS": "2997 PUMPING STATION ROAD", "CITY": "MALVERN", "STATE": "AR", "ZIP": 72104, "ZIP4": "NOT AVAILABLE", "TYPE": "NATURAL GAS COMPRESSOR STATION", "STATUS": "IN SERVICE", "COUNTY": "HOT SPRING", "COUNTYFIPS": 5059, "COUNTRY": "USA", "LATITUDE": 34.167263699, "LONGITUDE": -92.82700434, "NAICS_CODE": 486210, "NAICS_DESC": "BOOSTER PUMPING STATION, NATURAL GAS TRANSPORTATION", "SOURCE": "EPA ENVIROFACTS, FERC FORM 2, CORPORATE WEBSITE", "SOURCEDATE": "7/15/2020 12:00:00 AM", "VAL_METHOD": "IMAGERY/OTHER", "VAL_DATE": "6/20/2022 12:00:00 AM", "WEBSITE": "https://www.enbridge.com/", "PIPECO": "TEXAS EASTERN TRANSMISSION L.P.", "COMPID": 17, "OPERATOR": "TEXAS EASTERN TRANSMISSION L.P.", "POSREL": "WITHIN 40 FEET", "NUM_UNITS": 4, "CERT_HP": 8000, "PLANT_COST": 2484767, "EXP_FUEL": 0, "EXP_OTHER": false, "GAS_COMPRE": 0, "OP_COMP_HR": 0, "OP_NUM_COM": 4, "OP_DATE_PE": "1/1/2020 12:00:00 AM", "EXP_POWER": 26005, "ELEC_COMPR": 36000, "x": -10333454.8549938, "y": 4051283.62770785}, "geometry": {"type": "Point", "coordinates": [-92.827004, 34.167264]}},
{"type": "Feature", "properties": {"ProjectID": "P0262", "OBJECTID": 795, "GCOMPID": "GCOMP484", "NAME": "LONGVIEW", "ADDRESS": "3009 LILLY STREET", "CITY": "LONGVIEW", "STATE": "TX", "ZIP": 75602, "ZIP4": "4013", "TYPE": "NATURAL GAS COMPRESSOR STATION", "STATUS": "IN SERVICE", "COUNTY": "GREGG", "COUNTYFIPS": 48183, "COUNTRY": "USA", "LATITUDE": 32.456280866, "LONGITUDE": -94.711130295, "NAICS_CODE": 486210, "NAICS_DESC": "BOOSTER PUMPING STATION, NATURAL GAS TRANSPORTATION", "SOURCE": "EPA ENVIROFACTS, FERC FORM 2, CORPORATE WEBSITE", "SOURCEDATE": "7/15/2020 12:00:00 AM", "VAL_METHOD": "IMAGERY/OTHER", "VAL_DATE": "6/20/2022 12:00:00 AM", "WEBSITE": "https://www.enbridge.com/", "PIPECO": "TEXAS EASTERN TRANSMISSION L.P.", "COMPID": 17, "OPERATOR": "TEXAS EASTERN TRANSMISSION L.P.", "POSREL": "WITHIN 40 FEET", "NUM_UNITS": 1, "CERT_HP": 2500, "PLANT_COST": 1693931, "EXP_FUEL": 49, "EXP_OTHER": false, "GAS_COMPRE": 32, "OP_COMP_HR": 3, "OP_NUM_COM": 1, "OP_DATE_PE": "7/25/2020 12:00:00 AM", "EXP_POWER": 15416, "ELEC_COMPR": 71640, "x": -10543194.7968948, "y": 3823354.73691311}, "geometry": {"type": "Point", "coordinates": [-94.71113, 32.456281]}},
{"type": "Feature", "properties": {"ProjectID": "P0262", "OBJECTID": 799, "GCOMPID": "GCOMP488", "NAME": "JOAQUIN", "ADDRESS": "3053 FM 139", "CITY": "JOAQUIN", "STATE": "TX", "ZIP": 75954, "ZIP4": "NOT AVAILABLE", "TYPE": "NATURAL GAS COMPRESSOR STATION", "STATUS": "IN SERVICE", "COUNTY": "SHELBY", "COUNTYFIPS": 48419, "COUNTRY": "USA", "LATITUDE": 31.939387, "LONGITUDE": -94.008244, "NAICS_CODE": 486210, "NAICS_DESC": "BOOSTER PUMPING STATION, NATURAL GAS TRANSPORTATION", "SOURCE": "EPA ENVIROFACTS, FERC FORM 2, CORPORATE WEBSITE", "SOURCEDATE": "7/15/2020 12:00:00 AM", "VAL_METHOD": "IMAGERY/OTHER", "VAL_DATE": "6/20/2022 12:00:00 AM", "WEBSITE": "https://www.enbridge.com/", "PIPECO": "TEXAS EASTERN TRANSMISSION L.P.", "COMPID": 17, "OPERATOR": "TEXAS EASTERN TRANSMISSION L.P.", "POSREL": "WITHIN 40 FEET", "NUM_UNITS": 4, "CERT_HP": 4400, "PLANT_COST": 35365340, "EXP_FUEL": 41645, "EXP_OTHER": false, "GAS_COMPRE": 25216, "OP_COMP_HR": 3686, "OP_NUM_COM": 4, "OP_DATE_PE": "2/21/2020 12:00:00 AM", "EXP_POWER": 68987, "ELEC_COMPR": 444300, "x": -10464949.8524498, "y": 3755356.85613956}, "geometry": {"type": "Point", "coordinates": [-94.008244, 31.939387]}},
{"type": "Feature", "properties": {"ProjectID": "P0262", "OBJECTID": 804, "GCOMPID": "GCOMP492", "NAME": "MONROE", "ADDRESS": "309 WORTHY ROAD", "CITY": "WEST MONROE", "STATE": "LA", "ZIP": 71291, "ZIP4": "1695", "TYPE": "NATURAL GAS COMPRESSOR STATION", "STATUS": "IN SERVICE", "COUNTY": "OUACHITA PARISH", "COUNTYFIPS": 22073, "COUNTRY": "USA", "LATITUDE": 32.558475385, "LONGITUDE": -92.185892666, "NAICS_CODE": 486210, "NAICS_DESC": "BOOSTER PUMPING STATION, NATURAL GAS TRANSPORTATION", "SOURCE": "EPA ENVIROFACTS, FERC FORM 2, CORPORATE WEBSITE", "SOURCEDATE": "7/15/2020 12:00:00 AM", "VAL_METHOD": "IMAGERY/OTHER", "VAL_DATE": "6/20/2022 12:00:00 AM", "WEBSITE": "https://www.enbridge.com/", "PIPECO": "TEXAS EASTERN TRANSMISSION L.P.", "COMPID": 17, "OPERATOR": "TEXAS EASTERN TRANSMISSION L.P.", "POSREL": "WITHIN 40 FEET", "NUM_UNITS": 3, "CERT_HP": 7500, "PLANT_COST": 10255573, "EXP_FUEL": 1515, "EXP_OTHER": false, "GAS_COMPRE": 995, "OP_COMP_HR": 56, "OP_NUM_COM": 3, "OP_DATE_PE": "6/15/2020 12:00:00 AM", "EXP_POWER": 22120, "ELEC_COMPR": 144960, "x": -10262086.6299025, "y": 3836844.53225326}, "geometry": {"type": "Point", "coordinates": [-92.185893, 32.558475]}},
{"type": "Feature", "properties": {"ProjectID": "P0262", "OBJECTID": 806, "GCOMPID": "GCOMP494", "NAME": "WHEELERSBURGH", "ADDRESS": "3096 STATE ROUTE 522", "CITY": "WHEELERSBURG", "STATE": "OH", "ZIP": 45694, "ZIP4": "NOT AVAILABLE", "TYPE": "NATURAL GAS COMPRESSOR STATION", "STATUS": "IN SERVICE", "COUNTY": "SCIOTO", "COUNTYFIPS": 39145, "COUNTRY": "USA", "LATITUDE": 38.700345, "LONGITUDE": -82.832908, "NAICS_CODE": 486210, "NAICS_DESC": "BOOSTER PUMPING STATION, NATURAL GAS TRANSPORTATION", "SOURCE": "EPA ENVIROFACTS, FERC FORM 2, CORPORATE WEBSITE", "SOURCEDATE": "7/15/2020 12:00:00 AM", "VAL_METHOD": "IMAGERY/OTHER", "VAL_DATE": "6/20/2022 12:00:00 AM", "WEBSITE": "https://www.enbridge.com/", "PIPECO": "TEXAS EASTERN TRANSMISSION L.P.", "COMPID": 17, "OPERATOR": "TEXAS EASTERN TRANSMISSION L.P.", "POSREL": "WITHIN 40 FEET", "NUM_UNITS": 7, "CERT_HP": 30000, "PLANT_COST": 28667649, "EXP_FUEL": 0, "EXP_OTHER": false, "GAS_COMPRE": 0, "OP_COMP_HR": 27775, "OP_NUM_COM": 7, "OP_DATE_PE": "12/31/2020 12:00:00 AM", "EXP_POWER": 3294765, "ELEC_COMPR": 116515725, "x": -9220917.13948607, "y": 4678839.00705634}, "geometry": {"type": "Point", "coordinates": [-82.832908, 38.700345]}},
{"type": "Feature", "properties": {"ProjectID": "P0262", "OBJECTID": 809, "GCOMPID": "GCOMP497", "NAME": "UNION CHURCH", "ADDRESS": "3109 TEXAS EASTERN ROAD", "CITY": "UNION CHURCH", "STATE": "MS", "ZIP": 39668, "ZIP4": "NOT AVAILABLE", "TYPE": "NATURAL GAS COMPRESSOR STATION", "STATUS": "IN SERVICE", "COUNTY": "JEFFERSON", "COUNTYFIPS": 28063, "COUNTRY": "USA", "LATITUDE": 31.627696751, "LONGITUDE": -90.755960606, "NAICS_CODE": 486210, "NAICS_DESC": "BOOSTER PUMPING STATION, NATURAL GAS TRANSPORTATION", "SOURCE": "EPA ENVIROFACTS, FERC FORM 2, CORPORATE WEBSITE", "SOURCEDATE": "7/15/2020 12:00:00 AM", "VAL_METHOD": "IMAGERY/OTHER", "VAL_DATE": "6/20/2022 12:00:00 AM", "WEBSITE": "https://www.enbridge.com/", "PIPECO": "TEXAS EASTERN TRANSMISSION L.P.", "COMPID": 17, "OPERATOR": "TEXAS EASTERN TRANSMISSION L.P.", "POSREL": "WITHIN 40 FEET", "NUM_UNITS": 13, "CERT_HP": 32050, "PLANT_COST": 25962264, "EXP_FUEL": 1194245, "EXP_OTHER": false, "GAS_COMPRE": 716357, "OP_COMP_HR": 44339, "OP_NUM_COM": 13, "OP_DATE_PE": "12/12/2020 12:00:00 AM", "EXP_POWER": 223427, "ELEC_COMPR": 1072800, "x": -10102907.3211143, "y": 3714538.64624152}, "geometry": {"type": "Point", "coordinates": [-90.755961, 31.627697]}},
{"type": "Feature", "properties": {"ProjectID": "P0262", "OBJECTID": 829, "GCOMPID": "GCOMP514", "NAME": "PERULACK", "ADDRESS": "3318 PUMPING STATION ROAD", "CITY": "PERULACK", "STATE": "PA", "ZIP": 17021, "ZIP4": "7187", "TYPE": "NATURAL GAS COMPRESSOR STATION", "STATUS": "IN SERVICE", "COUNTY": "JUNIATA", "COUNTYFIPS": 42067, "COUNTRY": "USA", "LATITUDE": 40.35416141, "LONGITUDE": -77.654159047, "NAICS_CODE": 486210, "NAICS_DESC": "BOOSTER PUMPING STATION, NATURAL GAS TRANSPORTATION", "SOURCE": "EPA ENVIROFACTS, FERC FORM 2, CORPORATE WEBSITE", "SOURCEDATE": "7/15/2020 12:00:00 AM", "VAL_METHOD": "IMAGERY/OTHER", "VAL_DATE": "6/20/2022 12:00:00 AM", "WEBSITE": "https://www.enbridge.com/", "PIPECO": "TEXAS EASTERN TRANSMISSION L.P.", "COMPID": 17, "OPERATOR": "TEXAS EASTERN TRANSMISSION L.P.", "POSREL": "WITHIN 40 FEET", "NUM_UNITS": 4, "CERT_HP": 34800, "PLANT_COST": 54445786, "EXP_FUEL": 2700013, "EXP_OTHER": false, "GAS_COMPRE": 1571024, "OP_COMP_HR": 25186, "OP_NUM_COM": 4, "OP_DATE_PE": "1/21/2020 12:00:00 AM", "EXP_POWER": 100560, "ELEC_COMPR": 696823, "x": -8644421.44309191, "y": 4917542.31267384}, "geometry": {"type": "Point", "coordinates": [-77.654159, 40.354161]}},
{"type": "Feature", "properties": {"ProjectID": "P0262", "OBJECTID": 834, "GCOMPID": "GCOMP519", "NAME": "CHAMBERSBURG", "ADDRESS": "3351 MOLLY PITCHER HIGHWAY", "CITY": "CHAMBERSBURG", "STATE": "PA", "ZIP": 17202, "ZIP4": "NOT AVAILABLE", "TYPE": "NATURAL GAS COMPRESSOR STATION", "STATUS": "IN SERVICE", "COUNTY": "FRANKLIN", "COUNTYFIPS": 42055, "COUNTRY": "USA", "LATITUDE": 39.890987, "LONGITUDE": -77.679297, "NAICS_CODE": 486210, "NAICS_DESC": "BOOSTER PUMPING STATION, NATURAL GAS TRANSPORTATION", "SOURCE": "FERC FORM 2, IMAGERY", "SOURCEDATE": "7/15/2020 12:00:00 AM", "VAL_METHOD": "IMAGERY/OTHER", "VAL_DATE": "6/20/2022 12:00:00 AM", "WEBSITE": "https://www.enbridge.com/", "PIPECO": "TEXAS EASTERN TRANSMISSION L.P.", "COMPID": 17, "OPERATOR": "TEXAS EASTERN TRANSMISSION L.P.", "POSREL": "WITHIN 40 FEET", "NUM_UNITS": 2, "CERT_HP": 41300, "PLANT_COST": 49346572, "EXP_FUEL": 0, "EXP_OTHER": false, "GAS_COMPRE": 0, "OP_COMP_HR": 5195, "OP_NUM_COM": 2, "OP_DATE_PE": "6/1/2020 12:00:00 AM", "EXP_POWER": 2220585, "ELEC_COMPR": 51829176, "x": -8647219.78721946, "y": 4850113.42991466}, "geometry": {"type": "Point", "coordinates": [-77.679297, 39.890987]}},
{"type": "Feature", "properties": {"ProjectID": "P0262", "OBJECTID": 845, "GCOMPID": "GCOMP529", "NAME": "ATLANTA", "ADDRESS": "3437 COUNTY ROAD 4670", "CITY": "ATLANTA", "STATE": "TX", "ZIP": 75551, "ZIP4": "NOT AVAILABLE", "TYPE": "NATURAL GAS COMPRESSOR STATION", "STATUS": "IN SERVICE", "COUNTY": "CASS", "COUNTYFIPS": 48067, "COUNTRY": "USA", "LATITUDE": 33.051691, "LONGITUDE": -94.071382, "NAICS_CODE": 486210, "NAICS_DESC": "BOOSTER PUMPING STATION, NATURAL GAS TRANSPORTATION", "SOURCE": "EPA ENVIROFACTS, FERC FORM 2, CORPORATE WEBSITE", "SOURCEDATE": "7/15/2020 12:00:00 AM", "VAL_METHOD": "IMAGERY/OTHER", "VAL_DATE": "6/20/2022 12:00:00 AM", "WEBSITE": "https://www.enbridge.com/", "PIPECO": "TEXAS EASTERN TRANSMISSION L.P.", "COMPID": 17, "OPERATOR": "TEXAS EASTERN TRANSMISSION L.P.", "POSREL": "WITHIN 40 FEET", "NUM_UNITS": 4, "CERT_HP": 8000, "PLANT_COST": 5325990, "EXP_FUEL": 0, "EXP_OTHER": false, "GAS_COMPRE": 0, "OP_COMP_HR": 0, "OP_NUM_COM": 4, "OP_DATE_PE": "1/31/2020 12:00:00 AM", "EXP_POWER": 2433, "ELEC_COMPR": 36000, "x": -10471978.3424595, "y": 3902167.09070783}, "geometry": {"type": "Point", "coordinates": [-94.071382, 33.051691]}},
{"type": "Feature", "properties": {"ProjectID": "P0262", "OBJECTID": 884, "GCOMPID": "GCOMP564", "NAME": "POLLARD", "ADDRESS": "380 CLAY 320 ROAD", "CITY": "POLLARD", "STATE": "AR", "ZIP": 72456, "ZIP4": "NOT AVAILABLE", "TYPE": "NATURAL GAS COMPRESSOR STATION", "STATUS": "IN SERVICE", "COUNTY": "CLAY", "COUNTYFIPS": 5021, "COUNTRY": "USA", "LATITUDE": 36.497095395, "LONGITUDE": -90.287725968, "NAICS_CODE": 486210, "NAICS_DESC": "BOOSTER PUMPING STATION, NATURAL GAS TRANSPORTATION", "SOURCE": "EPA ENVIROFACTS, FERC FORM 2, CORPORATE WEBSITE", "SOURCEDATE": "7/15/2020 12:00:00 AM", "VAL_METHOD": "IMAGERY/OTHER", "VAL_DATE": "6/20/2022 12:00:00 AM", "WEBSITE": "https://www.enbridge.com/", "PIPECO": "TEXAS EASTERN TRANSMISSION L.P.", "COMPID": 17, "OPERATOR": "TEXAS EASTERN TRANSMISSION L.P.", "POSREL": "WITHIN 40 FEET", "NUM_UNITS": 3, "CERT_HP": 4500, "PLANT_COST": 3801906, "EXP_FUEL": 0, "EXP_OTHER": false, "GAS_COMPRE": 0, "OP_COMP_HR": 2419, "OP_NUM_COM": 3, "OP_DATE_PE": "1/31/2020 12:00:00 AM", "EXP_POWER": 140110, "ELEC_COMPR": 1752000, "x": -10050783.6796404, "y": 4369238.28346102}, "geometry": {"type": "Point", "coordinates": [-90.287726, 36.497095]}},
{"type": "Feature", "properties": {"ProjectID": "P0262", "OBJECTID": 891, "GCOMPID": "GCOMP570", "NAME": "HOPE", "ADDRESS": "393 NEVADA 112", "CITY": "EMMET", "STATE": "AR", "ZIP": 71835, "ZIP4": "NOT AVAILABLE", "TYPE": "NATURAL GAS COMPRESSOR STATION", "STATUS": "IN SERVICE", "COUNTY": "NEVADA", "COUNTYFIPS": 5099, "COUNTRY": "USA", "LATITUDE": 33.585504865, "LONGITUDE": -93.436879759, "NAICS_CODE": 486210, "NAICS_DESC": "BOOSTER PUMPING STATION, NATURAL GAS TRANSPORTATION", "SOURCE": "EPA ENVIROFACTS, FERC FORM 2, CORPORATE WEBSITE", "SOURCEDATE": "7/15/2020 12:00:00 AM", "VAL_METHOD": "IMAGERY/OTHER", "VAL_DATE": "6/20/2022 12:00:00 AM", "WEBSITE": "https://www.enbridge.com/", "PIPECO": "TEXAS EASTERN TRANSMISSION L.P.", "COMPID": 17, "OPERATOR": "TEXAS EASTERN TRANSMISSION L.P.", "POSREL": "WITHIN 40 FEET", "NUM_UNITS": 8, "CERT_HP": 8300, "PLANT_COST": 5362575, "EXP_FUEL": 33049, "EXP_OTHER": false, "GAS_COMPRE": 18307, "OP_COMP_HR": 3206, "OP_NUM_COM": 8, "OP_DATE_PE": "12/18/2020 12:00:00 AM", "EXP_POWER": 23826, "ELEC_COMPR": 100720, "x": -10401345.8760842, "y": 3973280.32477755}, "geometry": {"type": "Point", "coordinates": [-93.43688, 33.585505]}},
{"type": "Feature", "properties": {"ProjectID": "P0262", "OBJECTID": 897, "GCOMPID": "GCOMP577", "NAME": "BLESSING", "ADDRESS": "4 MILES SOUTH OF BLESSING ON RAILROAD AVENUE 4220 COUNTY ROAD 394", "CITY": "BLESSING", "STATE": "TX", "ZIP": 77419, "ZIP4": "NOT AVAILABLE", "TYPE": "NATURAL GAS COMPRESSOR STATION", "STATUS": "IN SERVICE", "COUNTY": "MATAGORDA", "COUNTYFIPS": 48321, "COUNTRY": "USA", "LATITUDE": 28.811944, "LONGITUDE": -96.221383, "NAICS_CODE": 486210, "NAICS_DESC": "BOOSTER PUMPING STATION, NATURAL GAS TRANSPORTATION", "SOURCE": "EPA ENVIROFACTS, FERC FORM 2, CORPORATE WEBSITE", "SOURCEDATE": "7/15/2020 12:00:00 AM", "VAL_METHOD": "IMAGERY/OTHER", "VAL_DATE": "6/20/2022 12:00:00 AM", "WEBSITE": "https://www.enbridge.com/", "PIPECO": "TEXAS EASTERN TRANSMISSION L.P.", "COMPID": 17, "OPERATOR": "TEXAS EASTERN TRANSMISSION L.P.", "POSREL": "WITHIN 40 FEET", "NUM_UNITS": 7, "CERT_HP": 15000, "PLANT_COST": 89852634, "EXP_FUEL": 142688, "EXP_OTHER": false, "GAS_COMPRE": 91667, "OP_COMP_HR": 17355, "OP_NUM_COM": 7, "OP_DATE_PE": "10/31/2020 12:00:00 AM", "EXP_POWER": 149913, "ELEC_COMPR": 960000, "x": -10711315.3589845, "y": 3351732.42408018}, "geometry": {"type": "Point", "coordinates": [-96.221383, 28.811944]}},
{"type": "Feature", "properties": {"ProjectID": "P0262", "OBJECTID": 907, "GCOMPID": "GCOMP586", "NAME": "HEIDLERSBURG", "ADDRESS": "4032 OXFOROAD ROAD", "CITY": "YORK SPRINGS", "STATE": "PA", "ZIP": 17372, "ZIP4": "NOT AVAILABLE", "TYPE": "NATURAL GAS COMPRESSOR STATION", "STATUS": "IN SERVICE", "COUNTY": "ADAMS", "COUNTYFIPS": 42001, "COUNTRY": "USA", "LATITUDE": 39.948113384, "LONGITUDE": -77.129198908, "NAICS_CODE": 486210, "NAICS_DESC": "BOOSTER PUMPING STATION, NATURAL GAS TRANSPORTATION", "SOURCE": "EPA ENVIROFACTS, FERC FORM 2, CORPORATE WEBSITE", "SOURCEDATE": "7/15/2020 12:00:00 AM", "VAL_METHOD": "IMAGERY/OTHER", "VAL_DATE": "6/20/2022 12:00:00 AM", "WEBSITE": "https://www.enbridge.com/", "PIPECO": "TEXAS EASTERN TRANSMISSION L.P.", "COMPID": 17, "OPERATOR": "TEXAS EASTERN TRANSMISSION L.P.", "POSREL": "WITHIN 40 FEET", "NUM_UNITS": 2, "CERT_HP": 43000, "PLANT_COST": 71174056, "EXP_FUEL": 0, "EXP_OTHER": false, "GAS_COMPRE": 0, "OP_COMP_HR": 10169, "OP_NUM_COM": 2, "OP_DATE_PE": "3/31/2020 12:00:00 AM", "EXP_POWER": 1815824, "ELEC_COMPR": 51540111, "x": -8585983.14773167, "y": 4858405.12015519}, "geometry": {"type": "Point", "coordinates": [-77.129199, 39.948113]}},
{"type": "Feature", "properties": {"ProjectID": "P0262", "OBJECTID": 932, "GCOMPID": "GCOMP609", "NAME": "GRANTVILLE", "ADDRESS": "429 STATION ROAD HIGHWAY 81 EXIT 28", "CITY": "GRANTVILLE", "STATE": "PA", "ZIP": 17028, "ZIP4": "NOT AVAILABLE", "TYPE": "NATURAL GAS COMPRESSOR STATION", "STATUS": "IN SERVICE", "COUNTY": "DAUPHIN", "COUNTYFIPS": 42043, "COUNTRY": "USA", "LATITUDE": 40.379974198, "LONGITUDE": -76.671228326, "NAICS_CODE": 486210, "NAICS_DESC": "BOOSTER PUMPING STATION, NATURAL GAS TRANSPORTATION", "SOURCE": "EPA ENVIROFACTS, FERC FORM 2, CORPORATE WEBSITE", "SOURCEDATE": "7/15/2020 12:00:00 AM", "VAL_METHOD": "IMAGERY/OTHER", "VAL_DATE": "6/20/2022 12:00:00 AM", "WEBSITE": "https://www.enbridge.com/", "PIPECO": "TEXAS EASTERN TRANSMISSION L.P.", "COMPID": 17, "OPERATOR": "TEXAS EASTERN TRANSMISSION L.P.", "POSREL": "WITHIN 40 FEET", "NUM_UNITS": 4, "CERT_HP": 33500, "PLANT_COST": 43411480, "EXP_FUEL": 2605577, "EXP_OTHER": false, "GAS_COMPRE": 1505482, "OP_COMP_HR": 18788, "OP_NUM_COM": 4, "OP_DATE_PE": "12/18/2020 12:00:00 AM", "EXP_POWER": 48993, "ELEC_COMPR": 331463, "x": -8535002.09574513, "y": 4921313.70800491}, "geometry": {"type": "Point", "coordinates": [-76.671228, 40.379974]}},
{"type": "Feature", "properties": {"ProjectID": "P0262", "OBJECTID": 933, "GCOMPID": "GCOMP61", "NAME": "FRANKLIN (FREEHOLD)", "ADDRESS": "106 WESTON ROAD", "CITY": "FRANKLIN TWP", "STATE": "NJ", "ZIP": 8873, "ZIP4": "NOT AVAILABLE", "TYPE": "NATURAL GAS COMPRESSOR STATION", "STATUS": "IN SERVICE", "COUNTY": "SOMERSET", "COUNTYFIPS": 34035, "COUNTRY": "USA", "LATITUDE": 40.515597955, "LONGITUDE": -74.552186712, "NAICS_CODE": 486210, "NAICS_DESC": "BOOSTER PUMPING STATION, NATURAL GAS TRANSPORTATION", "SOURCE": "EPA ENVIROFACTS, FERC FORM 2, CORPORATE WEBSITE", "SOURCEDATE": "7/15/2020 12:00:00 AM", "VAL_METHOD": "IMAGERY/OTHER", "VAL_DATE": "6/20/2022 12:00:00 AM", "WEBSITE": "https://www.enbridge.com/", "PIPECO": "TEXAS EASTERN TRANSMISSION L.P.", "COMPID": 17, "OPERATOR": "TEXAS EASTERN TRANSMISSION L.P.", "POSREL": "WITHIN 40 FEET", "NUM_UNITS": 1, "CERT_HP": 5000, "PLANT_COST": 18429007, "EXP_FUEL": 0, "EXP_OTHER": false, "GAS_COMPRE": 0, "OP_COMP_HR": 383, "OP_NUM_COM": 1, "OP_DATE_PE": "3/1/2020 12:00:00 AM", "EXP_POWER": 233905, "ELEC_COMPR": 1602702, "x": -8299111.46230489, "y": 4941152.90106004}, "geometry": {"type": "Point", "coordinates": [-74.552187, 40.515598]}},
{"type": "Feature", "properties": {"ProjectID": "P0262", "OBJECTID": 934, "GCOMPID": "GCOMP610", "NAME": "SHERMANS DALE", "ADDRESS": "429 TEXAS EASTERN ROAD OFF HIGHWAY 34", "CITY": "SHERMANS DALE", "STATE": "PA", "ZIP": 17090, "ZIP4": "NOT AVAILABLE", "TYPE": "NATURAL GAS COMPRESSOR STATION", "STATUS": "IN SERVICE", "COUNTY": "PERRY", "COUNTYFIPS": 42099, "COUNTRY": "USA", "LATITUDE": 40.34373139, "LONGITUDE": -77.161431863, "NAICS_CODE": 486210, "NAICS_DESC": "BOOSTER PUMPING STATION, NATURAL GAS TRANSPORTATION", "SOURCE": "FERC FORM 2, CORPORATE WEBSITE, IMAGERY", "SOURCEDATE": "7/15/2020 12:00:00 AM", "VAL_METHOD": "IMAGERY/OTHER", "VAL_DATE": "6/20/2022 12:00:00 AM", "WEBSITE": "https://www.enbridge.com/", "PIPECO": "TEXAS EASTERN TRANSMISSION L.P.", "COMPID": 17, "OPERATOR": "TEXAS EASTERN TRANSMISSION L.P.", "POSREL": "WITHIN 40 FEET", "NUM_UNITS": 2, "CERT_HP": 41800, "PLANT_COST": 27366107, "EXP_FUEL": 1235691, "EXP_OTHER": false, "GAS_COMPRE": 739506, "OP_COMP_HR": 3595, "OP_NUM_COM": 2, "OP_DATE_PE": "1/30/2020 12:00:00 AM", "EXP_POWER": 18417, "ELEC_COMPR": 128000, "x": -8589571.30386903, "y": 4916018.83690533}, "geometry": {"type": "Point", "coordinates": [-77.161432, 40.343731]}},
{"type": "Feature", "properties": {"ProjectID": "P0262", "OBJECTID": 964, "GCOMPID": "GCOMP638", "NAME": "BERNE", "ADDRESS": "46552 SWAZEY ROAD", "CITY": "LEWISVILLE", "STATE": "OH", "ZIP": 43754, "ZIP4": "NOT AVAILABLE", "TYPE": "NATURAL GAS COMPRESSOR STATION", "STATUS": "IN SERVICE", "COUNTY": "MONROE", "COUNTYFIPS": 39111, "COUNTRY": "USA", "LATITUDE": 39.773849573, "LONGITUDE": -81.291654717, "NAICS_CODE": 486210, "NAICS_DESC": "BOOSTER PUMPING STATION, NATURAL GAS TRANSPORTATION", "SOURCE": "EPA ENVIROFACTS, FERC FORM 2, CORPORATE WEBSITE", "SOURCEDATE": "7/15/2020 12:00:00 AM", "VAL_METHOD": "IMAGERY/OTHER", "VAL_DATE": "6/20/2022 12:00:00 AM", "WEBSITE": "https://www.enbridge.com/", "PIPECO": "TEXAS EASTERN TRANSMISSION L.P.", "COMPID": 17, "OPERATOR": "TEXAS EASTERN TRANSMISSION L.P.", "POSREL": "WITHIN 40 FEET", "NUM_UNITS": 8, "CERT_HP": 35100, "PLANT_COST": 59057948, "EXP_FUEL": 0, "EXP_OTHER": false, "GAS_COMPRE": 0, "OP_COMP_HR": 33483, "OP_NUM_COM": 8, "OP_DATE_PE": "3/1/2020 12:00:00 AM", "EXP_POWER": 3729188, "ELEC_COMPR": 147974037, "x": -9049345.60883905, "y": 4833132.93273632}, "geometry": {"type": "Point", "coordinates": [-81.291655, 39.77385]}},
{"type": "Feature", "properties": {"ProjectID": "P0262", "OBJECTID": 965, "GCOMPID": "GCOMP639", "NAME": "BECHTELSVILLE", "ADDRESS": "467 FORGEDALE ROAD", "CITY": "BARTO", "STATE": "PA", "ZIP": 19504, "ZIP4": "NOT AVAILABLE", "TYPE": "NATURAL GAS COMPRESSOR STATION", "STATUS": "IN SERVICE", "COUNTY": "BERKS", "COUNTYFIPS": 42011, "COUNTRY": "USA", "LATITUDE": 40.4183854152651, "LONGITUDE": -75.6224427245614, "NAICS_CODE": 486210, "NAICS_DESC": "BOOSTER PUMPING STATION, NATURAL GAS TRANSPORTATION", "SOURCE": "FERC FORM 2, CORPORATE WEBSITE", "SOURCEDATE": "7/15/2020 12:00:00 AM", "VAL_METHOD": "IMAGERY/OTHER", "VAL_DATE": "6/24/2022 12:00:00 AM", "WEBSITE": "https://www.enbridge.com/", "PIPECO": "TEXAS EASTERN TRANSMISSION L.P.", "COMPID": 17, "OPERATOR": "TEXAS EASTERN TRANSMISSION L.P.", "POSREL": "WITHIN 40 FEET", "NUM_UNITS": 4, "CERT_HP": 33500, "PLANT_COST": 49549417, "EXP_FUEL": 2217383, "EXP_OTHER": false, "GAS_COMPRE": 1259940, "OP_COMP_HR": 16359, "OP_NUM_COM": 4, "OP_DATE_PE": "1/17/2020 12:00:00 AM", "EXP_POWER": 71657, "ELEC_COMPR": 298826, "x": -8418251.81669049, "y": 4926928.48165207}, "geometry": {"type": "Point", "coordinates": [-75.622443, 40.418385]}},
{"type": "Feature", "properties": {"ProjectID": "P0262", "OBJECTID": 974, "GCOMPID": "GCOMP647", "NAME": "SUMMERFIELD", "ADDRESS": "48651 GLADY ROAD", "CITY": "SUMMERFIELD", "STATE": "OH", "ZIP": 43788, "ZIP4": "NOT AVAILABLE", "TYPE": "NATURAL GAS COMPRESSOR STATION", "STATUS": "IN SERVICE", "COUNTY": "NOBLE", "COUNTYFIPS": 39121, "COUNTRY": "USA", "LATITUDE": 39.803115, "LONGITUDE": -81.336536, "NAICS_CODE": 486210, "NAICS_DESC": "BOOSTER PUMPING STATION, NATURAL GAS TRANSPORTATION", "SOURCE": "EPA ENVIROFACTS, FERC FORM 2, CORPORATE WEBSITE", "SOURCEDATE": "7/15/2020 12:00:00 AM", "VAL_METHOD": "IMAGERY/OTHER", "VAL_DATE": "6/20/2022 12:00:00 AM", "WEBSITE": "https://www.enbridge.com/", "PIPECO": "TEXAS EASTERN TRANSMISSION L.P.", "COMPID": 17, "OPERATOR": "TEXAS EASTERN TRANSMISSION L.P.", "POSREL": "WITHIN 40 FEET", "NUM_UNITS": 5, "CERT_HP": 19000, "PLANT_COST": 95913058, "EXP_FUEL": 0, "EXP_OTHER": false, "GAS_COMPRE": 0, "OP_COMP_HR": 0, "OP_NUM_COM": 5, "OP_DATE_PE": "2/29/2020 12:00:00 AM", "EXP_POWER": 354816, "ELEC_COMPR": 1116194, "x": -9054341.77040876, "y": 4837372.60069441}, "geometry": {"type": "Point", "coordinates": [-81.336536, 39.803115]}},
{"type": "Feature", "properties": {"ProjectID": "P0262", "OBJECTID": 1003, "GCOMPID": "GCOMP673", "NAME": "YAZOO CITY", "ADDRESS": "5170 RACETRACK ROAD", "CITY": "YAZOO", "STATE": "MS", "ZIP": 39194, "ZIP4": "NOT AVAILABLE", "TYPE": "NATURAL GAS COMPRESSOR STATION", "STATUS": "IN SERVICE", "COUNTY": "YAZOO", "COUNTYFIPS": 28163, "COUNTRY": "USA", "LATITUDE": 32.884238376, "LONGITUDE": -90.425269374, "NAICS_CODE": 486210, "NAICS_DESC": "BOOSTER PUMPING STATION, NATURAL GAS TRANSPORTATION", "SOURCE": "EPA ENVIROFACTS, FERC FORM 2, CORPORATE WEBSITE", "SOURCEDATE": "7/15/2020 12:00:00 AM", "VAL_METHOD": "IMAGERY/OTHER", "VAL_DATE": "6/20/2022 12:00:00 AM", "WEBSITE": "https://www.enbridge.com/", "PIPECO": "TEXAS EASTERN TRANSMISSION L.P.", "COMPID": 17, "OPERATOR": "TEXAS EASTERN TRANSMISSION L.P.", "POSREL": "WITHIN 40 FEET", "NUM_UNITS": 1, "CERT_HP": 8000, "PLANT_COST": 6381960, "EXP_FUEL": 0, "EXP_OTHER": false, "GAS_COMPRE": 0, "OP_COMP_HR": 0, "OP_NUM_COM": 1, "OP_DATE_PE": "3/1/2020 12:00:00 AM", "EXP_POWER": 14440, "ELEC_COMPR": 74160, "x": -10066094.9415583, "y": 3879948.60502908}, "geometry": {"type": "Point", "coordinates": [-90.425269, 32.884238]}},
{"type": "Feature", "properties": {"ProjectID": "P0262", "OBJECTID": 1030, "GCOMPID": "GCOMP698", "NAME": "WHITE CASTLE", "ADDRESS": "55095 GRAND ROAD", "CITY": "WHITE CASTLE", "STATE": "LA", "ZIP": 70788, "ZIP4": "NOT AVAILABLE", "TYPE": "NATURAL GAS COMPRESSOR STATION", "STATUS": "IN SERVICE", "COUNTY": "IBERVILLE PARISH", "COUNTYFIPS": 22047, "COUNTRY": "USA", "LATITUDE": 30.110818647, "LONGITUDE": -91.135003559, "NAICS_CODE": 486210, "NAICS_DESC": "BOOSTER PUMPING STATION, NATURAL GAS TRANSPORTATION", "SOURCE": "EPA ENVIROFACTS, FERC FORM 2, CORPORATE WEBSITE", "SOURCEDATE": "7/15/2020 12:00:00 AM", "VAL_METHOD": "IMAGERY/OTHER", "VAL_DATE": "6/20/2022 12:00:00 AM", "WEBSITE": "https://www.enbridge.com/", "PIPECO": "TEXAS EASTERN TRANSMISSION L.P.", "COMPID": 17, "OPERATOR": "TEXAS EASTERN TRANSMISSION L.P.", "POSREL": "WITHIN 40 FEET", "NUM_UNITS": 1, "CERT_HP": 19800, "PLANT_COST": 9635829, "EXP_FUEL": 0, "EXP_OTHER": false, "GAS_COMPRE": 0, "OP_COMP_HR": 0, "OP_NUM_COM": 1, "OP_DATE_PE": "1/1/2001 12:00:00 AM", "EXP_POWER": 13377, "ELEC_COMPR": 61120, "x": -10145102.1896311, "y": 3517802.51552091}, "geometry": {"type": "Point", "coordinates": [-91.135004, 30.110819]}},
{"type": "Feature", "properties": {"ProjectID": "P0262", "OBJECTID": 1046, "GCOMPID": "GCOMP711", "NAME": "NORTH LITTLE ROCK", "ADDRESS": "5700 LYNCH DRIVE", "CITY": "NORTH LITTLE ROCK", "STATE": "AR", "ZIP": 72117, "ZIP4": "4606", "TYPE": "NATURAL GAS COMPRESSOR STATION", "STATUS": "IN SERVICE", "COUNTY": "PULASKI", "COUNTYFIPS": 5119, "COUNTRY": "USA", "LATITUDE": 34.754519151, "LONGITUDE": -92.199834999, "NAICS_CODE": 486210, "NAICS_DESC": "BOOSTER PUMPING STATION, NATURAL GAS TRANSPORTATION", "SOURCE": "EPA ENVIROFACTS, FERC FORM 2, CORPORATE WEBSITE", "SOURCEDATE": "7/15/2020 12:00:00 AM", "VAL_METHOD": "IMAGERY/OTHER", "VAL_DATE": "6/20/2022 12:00:00 AM", "WEBSITE": "https://www.enbridge.com/", "PIPECO": "TEXAS EASTERN TRANSMISSION L.P.", "COMPID": 17, "OPERATOR": "TEXAS EASTERN TRANSMISSION L.P.", "POSREL": "WITHIN 40 FEET", "NUM_UNITS": 4, "CERT_HP": 7750, "PLANT_COST": 3254768, "EXP_FUEL": 0, "EXP_OTHER": false, "GAS_COMPRE": 0, "OP_COMP_HR": 0, "OP_NUM_COM": 4, "OP_DATE_PE": "12/31/2020 12:00:00 AM", "EXP_POWER": 15280, "ELEC_COMPR": 48000, "x": -10263638.6833125, "y": 4130571.11555851}, "geometry": {"type": "Point", "coordinates": [-92.199835, 34.754519]}},
{"type": "Feature", "properties": {"ProjectID": "P0262", "OBJECTID": 1061, "GCOMPID": "GCOMP725", "NAME": "OPELOUSAS", "ADDRESS": "586 TEXAS EASTERN ROAD", "CITY": "OPELOUSAS", "STATE": "LA", "ZIP": 70570, "ZIP4": "NOT AVAILABLE", "TYPE": "NATURAL GAS COMPRESSOR STATION", "STATUS": "IN SERVICE", "COUNTY": "SAINT LANDRY PARISH", "COUNTYFIPS": 22097, "COUNTRY": "USA", "LATITUDE": 30.573750972, "LONGITUDE": -92.124064777, "NAICS_CODE": 486210, "NAICS_DESC": "BOOSTER PUMPING STATION, NATURAL GAS TRANSPORTATION", "SOURCE": "EPA ENVIROFACTS, FERC FORM 2, CORPORATE WEBSITE", "SOURCEDATE": "7/15/2020 12:00:00 AM", "VAL_METHOD": "IMAGERY/OTHER", "VAL_DATE": "6/20/2022 12:00:00 AM", "WEBSITE": "https://www.enbridge.com/", "PIPECO": "TEXAS EASTERN TRANSMISSION L.P.", "COMPID": 17, "OPERATOR": "TEXAS EASTERN TRANSMISSION L.P.", "POSREL": "WITHIN 40 FEET", "NUM_UNITS": 10, "CERT_HP": 30950, "PLANT_COST": 75304803, "EXP_FUEL": 156896, "EXP_OTHER": false, "GAS_COMPRE": 89082, "OP_COMP_HR": 11265, "OP_NUM_COM": 10, "OP_DATE_PE": "4/10/2020 12:00:00 AM", "EXP_POWER": 3674417, "ELEC_COMPR": 32992000, "x": -10255203.9807822, "y": 3577515.44176034}, "geometry": {"type": "Point", "coordinates": [-92.124065, 30.573751]}},
{"type": "Feature", "properties": {"ProjectID": "P0262", "OBJECTID": 1100, "GCOMPID": "GCOMP760", "NAME": "MOUNT BELVIEU", "ADDRESS": "6371 S FM-565", "CITY": "BAYTOWN", "STATE": "TX", "ZIP": 77520, "ZIP4": "NOT AVAILABLE", "TYPE": "NATURAL GAS COMPRESSOR STATION", "STATUS": "IN SERVICE", "COUNTY": "CHAMBERS", "COUNTYFIPS": 48071, "COUNTRY": "USA", "LATITUDE": 29.816416124, "LONGITUDE": -94.825268741, "NAICS_CODE": 486210, "NAICS_DESC": "BOOSTER PUMPING STATION, NATURAL GAS TRANSPORTATION", "SOURCE": "EPA ENVIROFACTS, FERC FORM 2, CORPORATE WEBSITE", "SOURCEDATE": "7/15/2020 12:00:00 AM", "VAL_METHOD": "IMAGERY/OTHER", "VAL_DATE": "6/20/2022 12:00:00 AM", "WEBSITE": "https://www.enbridge.com/", "PIPECO": "TEXAS EASTERN TRANSMISSION L.P.", "COMPID": 17, "OPERATOR": "TEXAS EASTERN TRANSMISSION L.P.", "POSREL": "WITHIN 40 FEET", "NUM_UNITS": 5, "CERT_HP": 10250, "PLANT_COST": 39360653, "EXP_FUEL": 181210, "EXP_OTHER": false, "GAS_COMPRE": 119249, "OP_COMP_HR": 7261, "OP_NUM_COM": 5, "OP_DATE_PE": "9/3/2020 12:00:00 AM", "EXP_POWER": 60474, "ELEC_COMPR": 319680, "x": -10555900.6305834, "y": 3479973.60794075}, "geometry": {"type": "Point", "coordinates": [-94.825269, 29.816416]}},
{"type": "Feature", "properties": {"ProjectID": "P0262", "OBJECTID": 1154, "GCOMPID": "GCOMP809", "NAME": "MOUNT PLEASANT", "ADDRESS": "693 PARRISH HOLLOW ROAD", "CITY": "LYNNVILLE", "STATE": "TN", "ZIP": 38472, "ZIP4": "8146", "TYPE": "NATURAL GAS COMPRESSOR STATION", "STATUS": "IN SERVICE", "COUNTY": "GILES", "COUNTYFIPS": 47055, "COUNTRY": "USA", "LATITUDE": 35.42956229, "LONGITUDE": -87.107443749, "NAICS_CODE": 486210, "NAICS_DESC": "BOOSTER PUMPING STATION, NATURAL GAS TRANSPORTATION", "SOURCE": "EPA ENVIROFACTS, FERC FORM 2, CORPORATE WEBSITE", "SOURCEDATE": "7/15/2020 12:00:00 AM", "VAL_METHOD": "IMAGERY/OTHER", "VAL_DATE": "6/20/2022 12:00:00 AM", "WEBSITE": "https://www.enbridge.com/", "PIPECO": "TEXAS EASTERN TRANSMISSION L.P.", "COMPID": 17, "OPERATOR": "TEXAS EASTERN TRANSMISSION L.P.", "POSREL": "WITHIN 40 FEET", "NUM_UNITS": 3, "CERT_HP": 50000, "PLANT_COST": 33912102, "EXP_FUEL": 0, "EXP_OTHER": false, "GAS_COMPRE": 0, "OP_COMP_HR": 7585, "OP_NUM_COM": 3, "OP_DATE_PE": "2/29/2020 12:00:00 AM", "EXP_POWER": 3798106, "ELEC_COMPR": 68376036, "x": -9696756.2824424, "y": 4222411.25853841}, "geometry": {"type": "Point", "coordinates": [-87.107444, 35.429562]}},
{"type": "Feature", "properties": {"ProjectID": "P0262", "OBJECTID": 1184, "GCOMPID": "GCOMP836", "NAME": "PHOENIXVILLE", "ADDRESS": "745 POTTSTOWN PIKE", "CITY": "CHESTER SPRINGS", "STATE": "PA", "ZIP": 19425, "ZIP4": "3621", "TYPE": "NATURAL GAS COMPRESSOR STATION", "STATUS": "IN SERVICE", "COUNTY": "CHESTER", "COUNTYFIPS": 42029, "COUNTRY": "USA", "LATITUDE": 40.097006, "LONGITUDE": -75.686322, "NAICS_CODE": 486210, "NAICS_DESC": "BOOSTER PUMPING STATION, NATURAL GAS TRANSPORTATION", "SOURCE": "FERC FORM 2, IMAGERY", "SOURCEDATE": "7/15/2020 12:00:00 AM", "VAL_METHOD": "IMAGERY/OTHER", "VAL_DATE": "6/20/2022 12:00:00 AM", "WEBSITE": "https://www.enbridge.com/", "PIPECO": "TEXAS EASTERN TRANSMISSION L.P.", "COMPID": 17, "OPERATOR": "TEXAS EASTERN TRANSMISSION L.P.", "POSREL": "WITHIN 40 FEET", "NUM_UNITS": 1, "CERT_HP": 4000, "PLANT_COST": 18623983, "EXP_FUEL": 0, "EXP_OTHER": false, "GAS_COMPRE": 0, "OP_COMP_HR": 222, "OP_NUM_COM": 1, "OP_DATE_PE": "1/30/2020 12:00:00 AM", "EXP_POWER": 73141, "ELEC_COMPR": 382789, "x": -8425362.82505574, "y": 4880048.95655215}, "geometry": {"type": "Point", "coordinates": [-75.686322, 40.097006]}},
{"type": "Feature", "properties": {"ProjectID": "P0262", "OBJECTID": 1189, "GCOMPID": "GCOMP840", "NAME": "GLADEVILLE", "ADDRESS": "7555 FRANKLIN ROAD", "CITY": "GLADEVILLE", "STATE": "TN", "ZIP": 37071, "ZIP4": "NOT AVAILABLE", "TYPE": "NATURAL GAS COMPRESSOR STATION", "STATUS": "IN SERVICE", "COUNTY": "WILSON", "COUNTYFIPS": 47189, "COUNTRY": "USA", "LATITUDE": 36.137089449, "LONGITUDE": -86.40691507, "NAICS_CODE": 486210, "NAICS_DESC": "BOOSTER PUMPING STATION, NATURAL GAS TRANSPORTATION", "SOURCE": "EPA ENVIROFACTS, FERC FORM 2, CORPORATE WEBSITE", "SOURCEDATE": "7/15/2020 12:00:00 AM", "VAL_METHOD": "IMAGERY/OTHER", "VAL_DATE": "6/20/2022 12:00:00 AM", "WEBSITE": "https://www.enbridge.com/", "PIPECO": "TEXAS EASTERN TRANSMISSION L.P.", "COMPID": 17, "OPERATOR": "TEXAS EASTERN TRANSMISSION L.P.", "POSREL": "WITHIN 40 FEET", "NUM_UNITS": 8, "CERT_HP": 48500, "PLANT_COST": 33726928, "EXP_FUEL": 0, "EXP_OTHER": false, "GAS_COMPRE": 0, "OP_COMP_HR": 14053, "OP_NUM_COM": 8, "OP_DATE_PE": "2/29/2020 12:00:00 AM", "EXP_POWER": 3994033, "ELEC_COMPR": 13570467, "x": -9618773.78661003, "y": 4319501.10157933}, "geometry": {"type": "Point", "coordinates": [-86.406915, 36.137089]}},
{"type": "Feature", "properties": {"ProjectID": "P0262", "OBJECTID": 1199, "GCOMPID": "GCOMP85", "NAME": "FRENCH LICK", "ADDRESS": "11409 W STATE ROUTE 56", "CITY": "FRENCH LICK", "STATE": "IN", "ZIP": 47432, "ZIP4": "9753", "TYPE": "NATURAL GAS COMPRESSOR STATION", "STATUS": "IN SERVICE", "COUNTY": "ORANGE", "COUNTYFIPS": 18117, "COUNTRY": "USA", "LATITUDE": 38.521049, "LONGITUDE": -86.669647, "NAICS_CODE": 486210, "NAICS_DESC": "BOOSTER PUMPING STATION, NATURAL GAS TRANSPORTATION", "SOURCE": "EPA ENVIROFACTS, FERC FORM 2, CORPORATE WEBSITE", "SOURCEDATE": "7/15/2020 12:00:00 AM", "VAL_METHOD": "IMAGERY/OTHER", "VAL_DATE": "6/20/2022 12:00:00 AM", "WEBSITE": "https://www.enbridge.com/", "PIPECO": "TEXAS EASTERN TRANSMISSION L.P.", "COMPID": 17, "OPERATOR": "TEXAS EASTERN TRANSMISSION L.P.", "POSREL": "WITHIN 40 FEET", "NUM_UNITS": 7, "CERT_HP": 7000, "PLANT_COST": 9058957, "EXP_FUEL": 50881, "EXP_OTHER": false, "GAS_COMPRE": 31746, "OP_COMP_HR": 3369, "OP_NUM_COM": 7, "OP_DATE_PE": "11/17/2020 12:00:00 AM", "EXP_POWER": 53745, "ELEC_COMPR": 250692, "x": -9648020.97127276, "y": 4653296.31925687}, "geometry": {"type": "Point", "coordinates": [-86.669647, 38.521049]}},
{"type": "Feature", "properties": {"ProjectID": "P0262", "OBJECTID": 1200, "GCOMPID": "GCOMP850", "NAME": "ORAN", "ADDRESS": "7717 SOUTH HIGHWAY 77", "CITY": "ORAN", "STATE": "MO", "ZIP": 63771, "ZIP4": "NOT AVAILABLE", "TYPE": "NATURAL GAS COMPRESSOR STATION", "STATUS": "IN SERVICE", "COUNTY": "SCOTT", "COUNTYFIPS": 29201, "COUNTRY": "USA", "LATITUDE": 37.07031979, "LONGITUDE": -89.639005269, "NAICS_CODE": 486210, "NAICS_DESC": "BOOSTER PUMPING STATION, NATURAL GAS TRANSPORTATION", "SOURCE": "EPA ENVIROFACTS, FERC FORM 2, CORPORATE WEBSITE", "SOURCEDATE": "7/15/2020 12:00:00 AM", "VAL_METHOD": "IMAGERY/OTHER", "VAL_DATE": "6/20/2022 12:00:00 AM", "WEBSITE": "https://www.enbridge.com/", "PIPECO": "TEXAS EASTERN TRANSMISSION L.P.", "COMPID": 17, "OPERATOR": "TEXAS EASTERN TRANSMISSION L.P.", "POSREL": "WITHIN 40 FEET", "NUM_UNITS": 10, "CERT_HP": 10000, "PLANT_COST": 8164450, "EXP_FUEL": 3489, "EXP_OTHER": false, "GAS_COMPRE": 2557, "OP_COMP_HR": 376, "OP_NUM_COM": 10, "OP_DATE_PE": "5/13/2020 12:00:00 AM", "EXP_POWER": 35330, "ELEC_COMPR": 309870, "x": -9978568.42176064, "y": 4448912.99690118}, "geometry": {"type": "Point", "coordinates": [-89.639005, 37.07032]}},
{"type": "Feature", "properties": {"ProjectID": "P0262", "OBJECTID": 1215, "GCOMPID": "GCOMP864", "NAME": "IOWA GAS PLANT", "ADDRESS": "8101 HIGHWAY 3059", "CITY": "IOWA", "STATE": "LA", "ZIP": 70647, "ZIP4": "NOT AVAILABLE", "TYPE": "NATURAL GAS COMPRESSOR STATION", "STATUS": "IN SERVICE", "COUNTY": "JEFFERSON DAVIS PARISH", "COUNTYFIPS": 22053, "COUNTRY": "USA", "LATITUDE": 30.273533005, "LONGITUDE": -93.024780595, "NAICS_CODE": 486210, "NAICS_DESC": "BOOSTER PUMPING STATION, NATURAL GAS TRANSPORTATION", "SOURCE": "EPA ENVIROFACTS, FERC FORM 2, CORPORATE WEBSITE", "SOURCEDATE": "7/15/2020 12:00:00 AM", "VAL_METHOD": "IMAGERY/OTHER", "VAL_DATE": "6/20/2022 12:00:00 AM", "WEBSITE": "https://www.enbridge.com/", "PIPECO": "TEXAS EASTERN TRANSMISSION L.P.", "COMPID": 17, "OPERATOR": "TEXAS EASTERN TRANSMISSION L.P.", "POSREL": "WITHIN 40 FEET", "NUM_UNITS": 1, "CERT_HP": 27550, "PLANT_COST": 548274, "EXP_FUEL": 382920, "EXP_OTHER": false, "GAS_COMPRE": 146578, "OP_COMP_HR": 0, "OP_NUM_COM": 0, "OP_DATE_PE": "7/15/2020 12:00:00 AM", "EXP_POWER": 3462, "ELEC_COMPR": 4560, "x": -10355471.2069914, "y": 3538758.64002205}, "geometry": {"type": "Point", "coordinates": [-93.024781, 30.273533]}},
{"type": "Feature", "properties": {"ProjectID": "P0262", "OBJECTID": 1217, "GCOMPID": "GCOMP866", "NAME": "BEDFORD", "ADDRESS": "8177 US ROUTE 220S", "CITY": "BEDFORD", "STATE": "PA", "ZIP": 15522, "ZIP4": "6270", "TYPE": "NATURAL GAS COMPRESSOR STATION", "STATUS": "IN SERVICE", "COUNTY": "BEDFORD", "COUNTYFIPS": 42009, "COUNTRY": "USA", "LATITUDE": 39.92947, "LONGITUDE": -78.58699, "NAICS_CODE": 486210, "NAICS_DESC": "BOOSTER PUMPING STATION, NATURAL GAS TRANSPORTATION", "SOURCE": "EPA ENVIROFACTS, FERC FORM 2, CORPORATE WEBSITE", "SOURCEDATE": "7/15/2020 12:00:00 AM", "VAL_METHOD": "IMAGERY/OTHER", "VAL_DATE": "6/20/2022 12:00:00 AM", "WEBSITE": "https://www.enbridge.com/", "PIPECO": "TEXAS EASTERN TRANSMISSION L.P.", "COMPID": 17, "OPERATOR": "TEXAS EASTERN TRANSMISSION L.P.", "POSREL": "WITHIN 40 FEET", "NUM_UNITS": 3, "CERT_HP": 54600, "PLANT_COST": 101313224, "EXP_FUEL": 0, "EXP_OTHER": false, "GAS_COMPRE": 0, "OP_COMP_HR": 18259, "OP_NUM_COM": 3, "OP_DATE_PE": "2/27/2020 12:00:00 AM", "EXP_POWER": 9859011, "ELEC_COMPR": 199956553, "x": -8748263.70977608, "y": 4855698.33918217}, "geometry": {"type": "Point", "coordinates": [-78.58699, 39.92947]}},
{"type": "Feature", "properties": {"ProjectID": "P0262", "OBJECTID": 1219, "GCOMPID": "GCOMP868", "NAME": "THOMASTON", "ADDRESS": "819 ZENGERLE ROAD", "CITY": "CUERO", "STATE": "TX", "ZIP": 77954, "ZIP4": "NOT AVAILABLE", "TYPE": "NATURAL GAS COMPRESSOR STATION", "STATUS": "IN SERVICE", "COUNTY": "DE WITT", "COUNTYFIPS": 48123, "COUNTRY": "USA", "LATITUDE": 29.011887907, "LONGITUDE": -97.146438989, "NAICS_CODE": 486210, "NAICS_DESC": "BOOSTER PUMPING STATION, NATURAL GAS TRANSPORTATION", "SOURCE": "EPA ENVIROFACTS, FERC FORM 2, CORPORATE WEBSITE", "SOURCEDATE": "7/15/2020 12:00:00 AM", "VAL_METHOD": "IMAGERY/OTHER", "VAL_DATE": "6/20/2022 12:00:00 AM", "WEBSITE": "https://www.enbridge.com/", "PIPECO": "TEXAS EASTERN TRANSMISSION L.P.", "COMPID": 17, "OPERATOR": "TEXAS EASTERN TRANSMISSION L.P.", "POSREL": "WITHIN 40 FEET", "NUM_UNITS": 7, "CERT_HP": 4200, "PLANT_COST": 12745597, "EXP_FUEL": 322282, "EXP_OTHER": false, "GAS_COMPRE": 201742, "OP_COMP_HR": 29124, "OP_NUM_COM": 7, "OP_DATE_PE": "1/1/2020 12:00:00 AM", "EXP_POWER": 34457, "ELEC_COMPR": 183360, "x": -10814292.1206353, "y": 3377159.18612982}, "geometry": {"type": "Point", "coordinates": [-97.146439, 29.011888]}},
{"type": "Feature", "properties": {"ProjectID": "P0262", "OBJECTID": 1246, "GCOMPID": "GCOMP892", "NAME": "ARMAGH", "ADDRESS": "862 HORSE THIEF ROAD", "CITY": "NEW FLORENCE", "STATE": "PA", "ZIP": 15944, "ZIP4": "8127", "TYPE": "NATURAL GAS COMPRESSOR STATION", "STATUS": "IN SERVICE", "COUNTY": "WESTMORELAND", "COUNTYFIPS": 42129, "COUNTRY": "USA", "LATITUDE": 40.430904, "LONGITUDE": -79.084475, "NAICS_CODE": 486210, "NAICS_DESC": "BOOSTER PUMPING STATION, NATURAL GAS TRANSPORTATION", "SOURCE": "EPA ENVIROFACTS, FERC FORM 2, CORPORATE WEBSITE", "SOURCEDATE": "7/15/2020 12:00:00 AM", "VAL_METHOD": "IMAGERY/OTHER", "VAL_DATE": "6/20/2022 12:00:00 AM", "WEBSITE": "https://www.enbridge.com/", "PIPECO": "TEXAS EASTERN TRANSMISSION L.P.", "COMPID": 17, "OPERATOR": "TEXAS EASTERN TRANSMISSION L.P.", "POSREL": "WITHIN 40 FEET", "NUM_UNITS": 2, "CERT_HP": 40100, "PLANT_COST": 76122319, "EXP_FUEL": 950695, "EXP_OTHER": false, "GAS_COMPRE": 503772, "OP_COMP_HR": 2993, "OP_NUM_COM": 2, "OP_DATE_PE": "1/21/2020 12:00:00 AM", "EXP_POWER": 69602, "ELEC_COMPR": 406873, "x": -8803643.48665337, "y": 4928759.08289494}, "geometry": {"type": "Point", "coordinates": [-79.084475, 40.430904]}},
{"type": "Feature", "properties": {"ProjectID": "P0262", "OBJECTID": 1269, "GCOMPID": "GCOMP912", "NAME": "ATHENS", "ADDRESS": "9375 HARNER ROAD", "CITY": "ATHENS", "STATE": "OH", "ZIP": 45701, "ZIP4": "8970", "TYPE": "NATURAL GAS COMPRESSOR STATION", "STATUS": "IN SERVICE", "COUNTY": "ATHENS", "COUNTYFIPS": 39009, "COUNTRY": "USA", "LATITUDE": 39.240002, "LONGITUDE": -82.124199, "NAICS_CODE": 486210, "NAICS_DESC": "BOOSTER PUMPING STATION, NATURAL GAS TRANSPORTATION", "SOURCE": "EPA ENVIROFACTS, FERC FORM 2, CORPORATE WEBSITE", "SOURCEDATE": "7/15/2020 12:00:00 AM", "VAL_METHOD": "IMAGERY/OTHER", "VAL_DATE": "6/20/2022 12:00:00 AM", "WEBSITE": "https://www.enbridge.com/", "PIPECO": "TEXAS EASTERN TRANSMISSION L.P.", "COMPID": 17, "OPERATOR": "TEXAS EASTERN TRANSMISSION L.P.", "POSREL": "WITHIN 40 FEET", "NUM_UNITS": 4, "CERT_HP": 32000, "PLANT_COST": 58555053, "EXP_FUEL": 1382201, "EXP_OTHER": false, "GAS_COMPRE": 832871, "OP_COMP_HR": 14391, "OP_NUM_COM": 4, "OP_DATE_PE": "12/31/2020 12:00:00 AM", "EXP_POWER": 75442, "ELEC_COMPR": 359760, "x": -9142024.01448546, "y": 4756108.33915405}, "geometry": {"type": "Point", "coordinates": [-82.124199, 39.240002]}},
{"type": "Feature", "properties": {"ProjectID": "P0262", "OBJECTID": 1286, "GCOMPID": "GCOMP928", "NAME": "OAKFORD", "ADDRESS": "ADA LANE/BEAVER RUN ROAD", "CITY": "GREENSBURG", "STATE": "PA", "ZIP": 15601, "ZIP4": "NOT AVAILABLE", "TYPE": "NATURAL GAS COMPRESSOR STATION", "STATUS": "IN SERVICE", "COUNTY": "WESTMORELAND", "COUNTYFIPS": 42129, "COUNTRY": "USA", "LATITUDE": 40.386095332, "LONGITUDE": -79.563927505, "NAICS_CODE": 486210, "NAICS_DESC": "BOOSTER PUMPING STATION, NATURAL GAS TRANSPORTATION", "SOURCE": "FERC FORM 2, IMAGERY", "SOURCEDATE": "7/15/2020 12:00:00 AM", "VAL_METHOD": "IMAGERY/OTHER", "VAL_DATE": "6/20/2022 12:00:00 AM", "WEBSITE": "https://www.enbridge.com/", "PIPECO": "TEXAS EASTERN TRANSMISSION L.P.", "COMPID": 17, "OPERATOR": "TEXAS EASTERN TRANSMISSION L.P.", "POSREL": "WITHIN 40 FEET", "NUM_UNITS": 4, "CERT_HP": 24200, "PLANT_COST": 41821949, "EXP_FUEL": 0, "EXP_OTHER": false, "GAS_COMPRE": 0, "OP_COMP_HR": 14951, "OP_NUM_COM": 4, "OP_DATE_PE": "1/22/2020 12:00:00 AM", "EXP_POWER": 0, "ELEC_COMPR": 0, "x": -8857015.89536953, "y": 4922208.25247341}, "geometry": {"type": "Point", "coordinates": [-79.563928, 40.386095]}},
{"type": "Feature", "properties": {"ProjectID": "P0262", "OBJECTID": 1299, "GCOMPID": "GCOMP94", "NAME": "LEBANON", "ADDRESS": "1157 STREET ROAD 122 W", "CITY": "LEBANON", "STATE": "OH", "ZIP": 45036, "ZIP4": "NOT AVAILABLE", "TYPE": "NATURAL GAS COMPRESSOR STATION", "STATUS": "IN SERVICE", "COUNTY": "WARREN", "COUNTYFIPS": 39165, "COUNTRY": "USA", "LATITUDE": 39.48695, "LONGITUDE": -84.22305, "NAICS_CODE": 486210, "NAICS_DESC": "BOOSTER PUMPING STATION, NATURAL GAS TRANSPORTATION", "SOURCE": "EPA ENVIROFACTS, FERC FORM 2, CORPORATE WEBSITE", "SOURCEDATE": "7/15/2020 12:00:00 AM", "VAL_METHOD": "IMAGERY/OTHER", "VAL_DATE": "6/20/2022 12:00:00 AM", "WEBSITE": "https://www.enbridge.com/", "PIPECO": "TEXAS EASTERN TRANSMISSION L.P.", "COMPID": 17, "OPERATOR": "TEXAS EASTERN TRANSMISSION L.P.", "POSREL": "WITHIN 40 FEET", "NUM_UNITS": 10, "CERT_HP": 19800, "PLANT_COST": 51326472, "EXP_FUEL": 1070789, "EXP_OTHER": false, "GAS_COMPRE": 658369, "OP_COMP_HR": 26043, "OP_NUM_COM": 10, "OP_DATE_PE": "10/9/2020 12:00:00 AM", "EXP_POWER": 72937, "ELEC_COMPR": 1065750, "x": -9375667.03905641, "y": 4791664.95945689}, "geometry": {"type": "Point", "coordinates": [-84.22305, 39.48695]}},
{"type": "Feature", "properties": {"ProjectID": "P0262", "OBJECTID": 1324, "GCOMPID": "GCOMP962", "NAME": "CHARCO", "ADDRESS": "COUNTY ROAD 2442/WEST OF MAIL ROAD", "CITY": "GOLIAD", "STATE": "TX", "ZIP": 77963, "ZIP4": "NOT AVAILABLE", "TYPE": "NATURAL GAS COMPRESSOR STATION", "STATUS": "IN SERVICE", "COUNTY": "GOLIAD", "COUNTYFIPS": 48175, "COUNTRY": "USA", "LATITUDE": 28.71163, "LONGITUDE": -97.674737, "NAICS_CODE": 486210, "NAICS_DESC": "BOOSTER PUMPING STATION, NATURAL GAS TRANSPORTATION", "SOURCE": "EPA ENVIROFACTS, FERC FORM 2, CORPORATE WEBSITE", "SOURCEDATE": "7/15/2020 12:00:00 AM", "VAL_METHOD": "IMAGERY/OTHER", "VAL_DATE": "6/20/2022 12:00:00 AM", "WEBSITE": "https://www.enbridge.com/", "PIPECO": "TEXAS EASTERN TRANSMISSION L.P.", "COMPID": 17, "OPERATOR": "TEXAS EASTERN TRANSMISSION L.P.", "POSREL": "WITHIN 40 FEET", "NUM_UNITS": 2, "CERT_HP": 2000, "PLANT_COST": 8943667, "EXP_FUEL": 96641, "EXP_OTHER": false, "GAS_COMPRE": 60283, "OP_COMP_HR": 8468, "OP_NUM_COM": 2, "OP_DATE_PE": "4/19/2020 12:00:00 AM", "EXP_POWER": 19135, "ELEC_COMPR": 160320, "x": -10873101.9862069, "y": 3338993.94390867}, "geometry": {"type": "Point", "coordinates": [-97.674737, 28.71163]}}
]
}
