{
"type": "FeatureCollection",
"features": [
{"type": "Feature", "properties": {"ProjectID": "P0271", "OBJECTID": 2, "GCOMPID": "GCOMP10", "NAME": "NO. 515 BEAR CREEK", "ADDRESS": "0.2 MILES SOUTHEAST OF HIGHWAY 115 AND BLUEBERRY LANE", "CITY": "BEAR CREEK", "STATE": "PA", "ZIP": 18602, "ZIP4": "NOT AVAILABLE", "TYPE": "NATURAL GAS COMPRESSOR STATION", "STATUS": "IN SERVICE", "COUNTY": "LUZERNE", "COUNTYFIPS": 42079, "COUNTRY": "USA", "LATITUDE": 41.172478, "LONGITUDE": -75.672182, "NAICS_CODE": 486210, "NAICS_DESC": "BOOSTER PUMPING STATION, NATURAL GAS TRANSPORTATION", "SOURCE": "EPA ENVIROFACTS, FERC FORM 2, CORPORATE WEBSITE", "SOURCEDATE": "7/15/2020 12:00:00 AM", "VAL_METHOD": "IMAGERY/OTHER", "VAL_DATE": "6/20/2022 12:00:00 AM", "WEBSITE": "http://www.1line.williams.com/", "PIPECO": "TRANSCONTINENTAL GAS PIPE LINE COMPANY L.L.C.", "COMPID": 29, "OPERATOR": "TRANSCONTINENTAL GAS PIPE LINE COMPANY L.L.C.", "POSREL": "WITHIN 40 FEET", "NUM_UNITS": 4, "CERT_HP": 12800, "PLANT_COST": 40685421, "EXP_FUEL": 10036, "EXP_OTHER": 655341, "GAS_COMPRE": 7042, "OP_COMP_HR": 14, "OP_NUM_COM": 1, "OP_DATE_PE": "11/7/2012 12:00:00 AM", "EXP_POWER": 0, "ELEC_COMPR": 0, "x": -8423788.7675, "y": 5037815.5128}, "geometry": {"type": "Point", "coordinates": [-75.672182, 41.172478]}},
{"type": "Feature", "properties": {"ProjectID": "P0271", "OBJECTID": 3, "GCOMPID": "GCOMP100", "NAME": "NO. 130 COMER", "ADDRESS": "117 WINNS LAKE ROAD", "CITY": "COMER", "STATE": "GA", "ZIP": 30629, "ZIP4": "NOT AVAILABLE", "TYPE": "NATURAL GAS COMPRESSOR STATION", "STATUS": "IN SERVICE", "COUNTY": "MADISON", "COUNTYFIPS": 13195, "COUNTRY": "USA", "LATITUDE": 34.151551066, "LONGITUDE": -83.142679529, "NAICS_CODE": 486210, "NAICS_DESC": "BOOSTER PUMPING STATION, NATURAL GAS TRANSPORTATION", "SOURCE": "EPA ENVIROFACTS, FERC FORM 2, CORPORATE WEBSITE", "SOURCEDATE": "7/15/2020 12:00:00 AM", "VAL_METHOD": "IMAGERY/OTHER", "VAL_DATE": "6/20/2022 12:00:00 AM", "WEBSITE": "http://www.1line.williams.com/", "PIPECO": "TRANSCONTINENTAL GAS PIPE LINE COMPANY L.L.C.", "COMPID": 29, "OPERATOR": "TRANSCONTINENTAL GAS PIPE LINE COMPANY L.L.C.", "POSREL": "WITHIN 40 FEET", "NUM_UNITS": 18, "CERT_HP": 59290, "PLANT_COST": 84070046, "EXP_FUEL": 1250623, "EXP_OTHER": 1652439, "GAS_COMPRE": 582110, "OP_COMP_HR": 17355, "OP_NUM_COM": 16, "OP_DATE_PE": "2/11/2021 12:00:00 AM", "EXP_POWER": 3681, "ELEC_COMPR": 0, "x": -9255400.7484, "y": 4049169.83}, "geometry": {"type": "Point", "coordinates": [-83.14268, 34.151551]}},
{"type": "Feature", "properties": {"ProjectID": "P0271", "OBJECTID": 15, "GCOMPID": "GCOMP1010", "NAME": "NO. 20 REFUGIO", "ADDRESS": "CROCKETT ROAD/W HOUSTON", "CITY": "REFUGIO", "STATE": "TX", "ZIP": 78377, "ZIP4": "NOT AVAILABLE", "TYPE": "NATURAL GAS COMPRESSOR STATION", "STATUS": "IN SERVICE", "COUNTY": "REFUGIO", "COUNTYFIPS": 48391, "COUNTRY": "USA", "LATITUDE": 28.320878, "LONGITUDE": -97.297189, "NAICS_CODE": 486210, "NAICS_DESC": "BOOSTER PUMPING STATION, NATURAL GAS TRANSPORTATION", "SOURCE": "EPA ENVIROFACTS, FERC FORM 2, CORPORATE WEBSITE", "SOURCEDATE": "7/15/2020 12:00:00 AM", "VAL_METHOD": "IMAGERY/OTHER", "VAL_DATE": "6/20/2022 12:00:00 AM", "WEBSITE": "http://www.1line.williams.com/", "PIPECO": "TRANSCONTINENTAL GAS PIPE LINE COMPANY L.L.C.", "COMPID": 29, "OPERATOR": "TRANSCONTINENTAL GAS PIPE LINE COMPANY L.L.C.", "POSREL": "WITHIN 40 FEET", "NUM_UNITS": 5, "CERT_HP": 8320, "PLANT_COST": 4401889, "EXP_FUEL": 0, "EXP_OTHER": 0, "GAS_COMPRE": 0, "OP_COMP_HR": 0, "OP_NUM_COM": 0, "OP_DATE_PE": "5/27/2022 12:00:00 AM", "EXP_POWER": 0, "ELEC_COMPR": 0, "x": -10831073.535, "y": 3289489.7298}, "geometry": {"type": "Point", "coordinates": [-97.297176, 28.320896]}},
{"type": "Feature", "properties": {"ProjectID": "P0271", "OBJECTID": 69, "GCOMPID": "GCOMP106", "NAME": "NO. 190 ELLICOTT CITY", "ADDRESS": "11910 CARROLL MILL ROAD", "CITY": "ELLICOTT CITY", "STATE": "MD", "ZIP": 21042, "ZIP4": "NOT AVAILABLE", "TYPE": "NATURAL GAS COMPRESSOR STATION", "STATUS": "IN SERVICE", "COUNTY": "HOWARD", "COUNTYFIPS": 24027, "COUNTRY": "USA", "LATITUDE": 39.266608, "LONGITUDE": -76.925377, "NAICS_CODE": 486210, "NAICS_DESC": "BOOSTER PUMPING STATION, NATURAL GAS TRANSPORTATION", "SOURCE": "EPA ENVIROFACTS, FERC FORM 2, CORPORATE WEBSITE", "SOURCEDATE": "7/15/2020 12:00:00 AM", "VAL_METHOD": "IMAGERY/OTHER", "VAL_DATE": "6/20/2022 12:00:00 AM", "WEBSITE": "http://www.1line.williams.com/", "PIPECO": "TRANSCONTINENTAL GAS PIPE LINE COMPANY L.L.C.", "COMPID": 29, "OPERATOR": "TRANSCONTINENTAL GAS PIPE LINE COMPANY L.L.C.", "POSREL": "WITHIN 40 FEET", "NUM_UNITS": 13, "CERT_HP": 59250, "PLANT_COST": 173028791, "EXP_FUEL": 4006376, "EXP_OTHER": 3276434, "GAS_COMPRE": 1823999, "OP_COMP_HR": 28402, "OP_NUM_COM": 8, "OP_DATE_PE": "8/31/2020 12:00:00 AM", "EXP_POWER": 0, "ELEC_COMPR": 0, "x": -8563293.7967, "y": 4759933.1508}, "geometry": {"type": "Point", "coordinates": [-76.925377, 39.266608]}},
{"type": "Feature", "properties": {"ProjectID": "P0271", "OBJECTID": 96, "GCOMPID": "GCOMP1084", "NAME": "NO. 61 ETHEL", "ADDRESS": "HIGHWAY 68 AND HOWELL LANE", "CITY": "JACKSON", "STATE": "LA", "ZIP": 70748, "ZIP4": "NOT AVAILABLE", "TYPE": "NATURAL GAS COMPRESSOR STATION", "STATUS": "IN SERVICE", "COUNTY": "EAST FELICIANA PARISH", "COUNTYFIPS": 22037, "COUNTRY": "USA", "LATITUDE": 30.763097, "LONGITUDE": -91.218573, "NAICS_CODE": 486210, "NAICS_DESC": "BOOSTER PUMPING STATION, NATURAL GAS TRANSPORTATION", "SOURCE": "EPA ENVIROFACTS, FERC FORM 2, CORPORATE WEBSITE", "SOURCEDATE": "7/15/2020 12:00:00 AM", "VAL_METHOD": "IMAGERY/OTHER", "VAL_DATE": "6/20/2022 12:00:00 AM", "WEBSITE": "http://www.1line.williams.com/", "PIPECO": "TRANSCONTINENTAL GAS PIPE LINE COMPANY L.L.C.", "COMPID": 29, "OPERATOR": "TRANSCONTINENTAL GAS PIPE LINE COMPANY L.L.C.", "POSREL": "WITHIN 40 FEET", "NUM_UNITS": 2, "CERT_HP": 3050, "PLANT_COST": 3759927, "EXP_FUEL": 0, "EXP_OTHER": 0, "GAS_COMPRE": 0, "OP_COMP_HR": 0, "OP_NUM_COM": 0, "OP_DATE_PE": "1/1/2001 12:00:00 AM", "EXP_POWER": 0, "ELEC_COMPR": 0, "x": -10154405.097, "y": 3602020.8466}, "geometry": {"type": "Point", "coordinates": [-91.218573, 30.763097]}},
{"type": "Feature", "properties": {"ProjectID": "P0271", "OBJECTID": 112, "GCOMPID": "GCOMP11", "NAME": "NO. 90 MYRTLEWOOD", "ADDRESS": "0.25 MILES NORTH OF AL HIGHWAY 69 AND CAMPGROUND ROAD", "CITY": "MYRTLEWOOD", "STATE": "AL", "ZIP": 36763, "ZIP4": "NOT AVAILABLE", "TYPE": "NATURAL GAS COMPRESSOR STATION", "STATUS": "IN SERVICE", "COUNTY": "MARENGO", "COUNTYFIPS": 1091, "COUNTRY": "USA", "LATITUDE": 32.203171356, "LONGITUDE": -87.949446123, "NAICS_CODE": 486210, "NAICS_DESC": "BOOSTER PUMPING STATION, NATURAL GAS TRANSPORTATION", "SOURCE": "EPA ENVIROFACTS, FERC FORM 2, CORPORATE WEBSITE", "SOURCEDATE": "7/15/2020 12:00:00 AM", "VAL_METHOD": "IMAGERY/OTHER", "VAL_DATE": "6/20/2022 12:00:00 AM", "WEBSITE": "http://www.1line.williams.com/", "PIPECO": "TRANSCONTINENTAL GAS PIPE LINE COMPANY L.L.C.", "COMPID": 29, "OPERATOR": "TRANSCONTINENTAL GAS PIPE LINE COMPANY L.L.C.", "POSREL": "WITHIN 40 FEET", "NUM_UNITS": 18, "CERT_HP": 80620, "PLANT_COST": 76428426, "EXP_FUEL": 5784832, "EXP_OTHER": 2844920, "GAS_COMPRE": 2536377, "OP_COMP_HR": 60092, "OP_NUM_COM": 18, "OP_DATE_PE": "2/2/2021 12:00:00 AM", "EXP_POWER": 0, "ELEC_COMPR": 0, "x": -9790487.558, "y": 3790009.6715}, "geometry": {"type": "Point", "coordinates": [-87.949446, 32.203171]}},
{"type": "Feature", "properties": {"ProjectID": "P0271", "OBJECTID": 212, "GCOMPID": "GCOMP119", "NAME": "NO. 35 HOUSTON", "ADDRESS": "12501 VETERANS MEMORIAL DRIVE", "CITY": "HOUSTON", "STATE": "TX", "ZIP": 77001, "ZIP4": "NOT AVAILABLE", "TYPE": "NATURAL GAS COMPRESSOR STATION", "STATUS": "IN SERVICE", "COUNTY": "HARRIS", "COUNTYFIPS": 48201, "COUNTRY": "USA", "LATITUDE": 29.96776, "LONGITUDE": -95.484721, "NAICS_CODE": 486210, "NAICS_DESC": "BOOSTER PUMPING STATION, NATURAL GAS TRANSPORTATION", "SOURCE": "EPA ENVIROFACTS, FERC FORM 2, CORPORATE WEBSITE", "SOURCEDATE": "7/15/2020 12:00:00 AM", "VAL_METHOD": "IMAGERY/OTHER", "VAL_DATE": "6/20/2022 12:00:00 AM", "WEBSITE": "http://www.1line.williams.com/", "PIPECO": "TRANSCONTINENTAL GAS PIPE LINE COMPANY L.L.C.", "COMPID": 29, "OPERATOR": "TRANSCONTINENTAL GAS PIPE LINE COMPANY L.L.C.", "POSREL": "WITHIN 40 FEET", "NUM_UNITS": 2, "CERT_HP": 14910, "PLANT_COST": 25776349, "EXP_FUEL": 2890, "EXP_OTHER": 780552, "GAS_COMPRE": 1584, "OP_COMP_HR": 0, "OP_NUM_COM": 0, "OP_DATE_PE": "1/1/2001 12:00:00 AM", "EXP_POWER": 45092, "ELEC_COMPR": 676083, "x": -10629310.52, "y": 3499406.3649}, "geometry": {"type": "Point", "coordinates": [-95.484721, 29.96776]}},
{"type": "Feature", "properties": {"ProjectID": "P0271", "OBJECTID": 219, "GCOMPID": "GCOMP1196", "NAME": "NO. 51 EUNICE", "ADDRESS": "NORTH OF ASHFOROAD CEMETRY ROAD/ EAST OF MCCLELLAND ROAD (3729 DURALDE HIGHWAY)", "CITY": "EUNICE", "STATE": "LA", "ZIP": 70535, "ZIP4": "NOT AVAILABLE", "TYPE": "NATURAL GAS COMPRESSOR STATION", "STATUS": "IN SERVICE", "COUNTY": "SAINT LANDRY PARISH", "COUNTYFIPS": 22097, "COUNTRY": "USA", "LATITUDE": 30.559647517, "LONGITUDE": -92.50146595, "NAICS_CODE": 486210, "NAICS_DESC": "BOOSTER PUMPING STATION, NATURAL GAS TRANSPORTATION", "SOURCE": "EPA ENVIROFACTS, FERC FORM 2, CORPORATE WEBSITE", "SOURCEDATE": "7/15/2020 12:00:00 AM", "VAL_METHOD": "IMAGERY/OTHER", "VAL_DATE": "6/20/2022 12:00:00 AM", "WEBSITE": "http://www.1line.williams.com/", "PIPECO": "TRANSCONTINENTAL GAS PIPE LINE COMPANY L.L.C.", "COMPID": 29, "OPERATOR": "TRANSCONTINENTAL GAS PIPE LINE COMPANY L.L.C.", "POSREL": "WITHIN 40 FEET", "NUM_UNITS": 5, "CERT_HP": 10000, "PLANT_COST": 11098882, "EXP_FUEL": 190697, "EXP_OTHER": 0, "GAS_COMPRE": 83644, "OP_COMP_HR": 4900, "OP_NUM_COM": 4, "OP_DATE_PE": "4/5/2020 12:00:00 AM", "EXP_POWER": 0, "ELEC_COMPR": 0, "x": -10297216.087, "y": 3575692.0729}, "geometry": {"type": "Point", "coordinates": [-92.501466, 30.559648]}},
{"type": "Feature", "properties": {"ProjectID": "P0271", "OBJECTID": 242, "GCOMPID": "GCOMP1216", "NAME": "NO. 85 BUTLER", "ADDRESS": "OFF PINEVIEW ROAD/0.6 MILES SE OF BRIGHTWATER ROAD", "CITY": "BUTLER", "STATE": "AL", "ZIP": 36904, "ZIP4": "NOT AVAILABLE", "TYPE": "NATURAL GAS COMPRESSOR STATION", "STATUS": "IN SERVICE", "COUNTY": "CHOCTAW", "COUNTYFIPS": 1023, "COUNTRY": "USA", "LATITUDE": 32.057195114, "LONGITUDE": -88.361446659, "NAICS_CODE": 486210, "NAICS_DESC": "BOOSTER PUMPING STATION, NATURAL GAS TRANSPORTATION", "SOURCE": "FERC FORM 2, CORPORATE WEBSITE", "SOURCEDATE": "7/15/2020 12:00:00 AM", "VAL_METHOD": "IMAGERY/OTHER", "VAL_DATE": "6/20/2022 12:00:00 AM", "WEBSITE": "http://www.1line.williams.com/", "PIPECO": "TRANSCONTINENTAL GAS PIPE LINE COMPANY L.L.C.", "COMPID": 29, "OPERATOR": "TRANSCONTINENTAL GAS PIPE LINE COMPANY L.L.C.", "POSREL": "WITHIN 40 FEET", "NUM_UNITS": 4, "CERT_HP": 38150, "PLANT_COST": 97169783, "EXP_FUEL": 2236696, "EXP_OTHER": 367902, "GAS_COMPRE": 1024546, "OP_COMP_HR": 8453, "OP_NUM_COM": 2, "OP_DATE_PE": "8/15/2020 12:00:00 AM", "EXP_POWER": 2825, "ELEC_COMPR": 0, "x": -9836351.2478, "y": 3770820.7184}, "geometry": {"type": "Point", "coordinates": [-88.361447, 32.057195]}},
{"type": "Feature", "properties": {"ProjectID": "P0271", "OBJECTID": 243, "GCOMPID": "GCOMP1217", "NAME": "NO. 135 ANDERSON SOUTH CAROLINA", "ADDRESS": "OFF STATE HIGHWAY 480 (BOLT DRIVE)/4.3 MILES EAST OF ANDERSON", "CITY": "ANDERSON", "STATE": "SC", "ZIP": 29621, "ZIP4": "NOT AVAILABLE", "TYPE": "NATURAL GAS COMPRESSOR STATION", "STATUS": "IN SERVICE", "COUNTY": "ANDERSON", "COUNTYFIPS": 45007, "COUNTRY": "USA", "LATITUDE": 34.487495, "LONGITUDE": -82.575687, "NAICS_CODE": 486210, "NAICS_DESC": "BOOSTER PUMPING STATION, NATURAL GAS TRANSPORTATION", "SOURCE": "FERC FORM 2, CORPORATE WEBSITE", "SOURCEDATE": "7/15/2020 12:00:00 AM", "VAL_METHOD": "IMAGERY/OTHER", "VAL_DATE": "6/20/2022 12:00:00 AM", "WEBSITE": "http://www.1line.williams.com/", "PIPECO": "TRANSCONTINENTAL GAS PIPE LINE COMPANY L.L.C.", "COMPID": 29, "OPERATOR": "TRANSCONTINENTAL GAS PIPE LINE COMPANY L.L.C.", "POSREL": "WITHIN 40 FEET", "NUM_UNITS": 1, "CERT_HP": 20500, "PLANT_COST": 34104154, "EXP_FUEL": 6271, "EXP_OTHER": 62498, "GAS_COMPRE": 2406, "OP_COMP_HR": 17, "OP_NUM_COM": 1, "OP_DATE_PE": "2/12/2021 12:00:00 AM", "EXP_POWER": 0, "ELEC_COMPR": 0, "x": -9192283.4287, "y": 4094450.0444}, "geometry": {"type": "Point", "coordinates": [-82.575687, 34.487495]}},
{"type": "Feature", "properties": {"ProjectID": "P0271", "OBJECTID": 322, "GCOMPID": "GCOMP1289", "NAME": "NO. 77 EMINENCE STORAGE FIELD", "ADDRESS": "SALT DOME ROAD AND ROGERS ROAD", "CITY": "SEMINARY", "STATE": "MS", "ZIP": 39479, "ZIP4": "NOT AVAILABLE", "TYPE": "NATURAL GAS COMPRESSOR STATION", "STATUS": "IN SERVICE", "COUNTY": "COVINGTON", "COUNTYFIPS": 28031, "COUNTRY": "USA", "LATITUDE": 31.596247, "LONGITUDE": -89.419276, "NAICS_CODE": 486210, "NAICS_DESC": "BOOSTER PUMPING STATION, NATURAL GAS TRANSPORTATION", "SOURCE": "EPA ENVIROFACTS, FERC FORM 2, CORPORATE WEBSITE", "SOURCEDATE": "7/15/2020 12:00:00 AM", "VAL_METHOD": "IMAGERY/OTHER", "VAL_DATE": "6/20/2022 12:00:00 AM", "WEBSITE": "http://www.1line.williams.com/", "PIPECO": "TRANSCONTINENTAL GAS PIPE LINE COMPANY L.L.C.", "COMPID": 29, "OPERATOR": "TRANSCONTINENTAL GAS PIPE LINE COMPANY L.L.C.", "POSREL": "WITHIN 40 FEET", "NUM_UNITS": 4, "CERT_HP": 15635, "PLANT_COST": 132766087, "EXP_FUEL": 349836, "EXP_OTHER": 1317225, "GAS_COMPRE": 146040, "OP_COMP_HR": 4025, "OP_NUM_COM": 4, "OP_DATE_PE": "2/10/2021 12:00:00 AM", "EXP_POWER": 0, "ELEC_COMPR": 0, "x": -9954108.2714, "y": 3710427.6802}, "geometry": {"type": "Point", "coordinates": [-89.419276, 31.596247]}},
{"type": "Feature", "properties": {"ProjectID": "P0271", "OBJECTID": 369, "GCOMPID": "GCOMP1330", "NAME": "NO. 535 WHARTON STORAGE FIELD", "ADDRESS": "TROUT RUN ROAD AND ELK LICK RUN ROAD", "CITY": "WHARTON", "STATE": "PA", "ZIP": 16720, "ZIP4": "NOT AVAILABLE", "TYPE": "NATURAL GAS COMPRESSOR STATION", "STATUS": "IN SERVICE", "COUNTY": "POTTER", "COUNTYFIPS": 42105, "COUNTRY": "USA", "LATITUDE": 41.512861, "LONGITUDE": -77.985783, "NAICS_CODE": 486210, "NAICS_DESC": "BOOSTER PUMPING STATION, NATURAL GAS TRANSPORTATION", "SOURCE": "EPA ENVIROFACTS, FERC FORM 2, CORPORATE WEBSITE", "SOURCEDATE": "7/15/2020 12:00:00 AM", "VAL_METHOD": "IMAGERY/OTHER", "VAL_DATE": "6/20/2022 12:00:00 AM", "WEBSITE": "http://www.1line.williams.com/", "PIPECO": "TRANSCONTINENTAL GAS PIPE LINE COMPANY L.L.C.", "COMPID": 29, "OPERATOR": "TRANSCONTINENTAL GAS PIPE LINE COMPANY L.L.C.", "POSREL": "WITHIN 40 FEET", "NUM_UNITS": 5, "CERT_HP": 8500, "PLANT_COST": 139545871, "EXP_FUEL": 323869, "EXP_OTHER": 1678509, "GAS_COMPRE": 123209, "OP_COMP_HR": 8667, "OP_NUM_COM": 5, "OP_DATE_PE": "2/24/2021 12:00:00 AM", "EXP_POWER": 0, "ELEC_COMPR": 0, "x": -8681337.6527, "y": 5088285.4074}, "geometry": {"type": "Point", "coordinates": [-77.985783, 41.512861]}},
{"type": "Feature", "properties": {"ProjectID": "P0271", "OBJECTID": 418, "GCOMPID": "GCOMP144", "NAME": "NO. 175 SCOTTSVILLE", "ADDRESS": "1344 TRANSCO ROAD", "CITY": "SCOTTSVILLE", "STATE": "VA", "ZIP": 24590, "ZIP4": "NOT AVAILABLE", "TYPE": "NATURAL GAS COMPRESSOR STATION", "STATUS": "IN SERVICE", "COUNTY": "BUCKINGHAM", "COUNTYFIPS": 51027, "COUNTRY": "USA", "LATITUDE": 37.838273, "LONGITUDE": -78.423394, "NAICS_CODE": 486210, "NAICS_DESC": "BOOSTER PUMPING STATION, NATURAL GAS TRANSPORTATION", "SOURCE": "EPA ENVIROFACTS, FERC FORM 2, CORPORATE WEBSITE", "SOURCEDATE": "7/15/2020 12:00:00 AM", "VAL_METHOD": "IMAGERY/OTHER", "VAL_DATE": "6/20/2022 12:00:00 AM", "WEBSITE": "http://www.1line.williams.com/", "PIPECO": "TRANSCONTINENTAL GAS PIPE LINE COMPANY L.L.C.", "COMPID": 29, "OPERATOR": "TRANSCONTINENTAL GAS PIPE LINE COMPANY L.L.C.", "POSREL": "WITHIN 40 FEET", "NUM_UNITS": 2, "CERT_HP": 63740, "PLANT_COST": 105722005, "EXP_FUEL": 15282, "EXP_OTHER": 689584, "GAS_COMPRE": 5834, "OP_COMP_HR": 4875, "OP_NUM_COM": 1, "OP_DATE_PE": "10/16/2020 12:00:00 AM", "EXP_POWER": 2146934, "ELEC_COMPR": 80179015, "x": -8730052.2864, "y": 4556604.3365}, "geometry": {"type": "Point", "coordinates": [-78.423394, 37.838273]}},
{"type": "Feature", "properties": {"ProjectID": "P0271", "OBJECTID": 448, "GCOMPID": "GCOMP171", "NAME": "NO. 110 WADLEY", "ADDRESS": "1440 COUNTY ROAD 41", "CITY": "WADLEY", "STATE": "AL", "ZIP": 36276, "ZIP4": "NOT AVAILABLE", "TYPE": "NATURAL GAS COMPRESSOR STATION", "STATUS": "IN SERVICE", "COUNTY": "RANDOLPH", "COUNTYFIPS": 1111, "COUNTRY": "USA", "LATITUDE": 33.152202, "LONGITUDE": -85.511693, "NAICS_CODE": 486210, "NAICS_DESC": "BOOSTER PUMPING STATION, NATURAL GAS TRANSPORTATION", "SOURCE": "EPA ENVIROFACTS, FERC FORM 2, CORPORATE WEBSITE", "SOURCEDATE": "7/15/2020 12:00:00 AM", "VAL_METHOD": "IMAGERY/OTHER", "VAL_DATE": "6/20/2022 12:00:00 AM", "WEBSITE": "http://www.1line.williams.com/", "PIPECO": "TRANSCONTINENTAL GAS PIPE LINE COMPANY L.L.C.", "COMPID": 29, "OPERATOR": "TRANSCONTINENTAL GAS PIPE LINE COMPANY L.L.C.", "POSREL": "WITHIN 40 FEET", "NUM_UNITS": 17, "CERT_HP": 82850, "PLANT_COST": 117167499, "EXP_FUEL": 3133535, "EXP_OTHER": 1986920, "GAS_COMPRE": 1420305, "OP_COMP_HR": 29834, "OP_NUM_COM": 16, "OP_DATE_PE": "2/1/2021 12:00:00 AM", "EXP_POWER": 51599, "ELEC_COMPR": 0, "x": -9519118.1216, "y": 3915523.7026}, "geometry": {"type": "Point", "coordinates": [-85.511693, 33.152202]}},
{"type": "Feature", "properties": {"ProjectID": "P0271", "OBJECTID": 521, "GCOMPID": "GCOMP237", "NAME": "NO. 80 SANDERVILLE", "ADDRESS": "1666 BONNER ROAD", "CITY": "HEIDELBERG", "STATE": "MS", "ZIP": 39439, "ZIP4": "NOT AVAILABLE", "TYPE": "NATURAL GAS COMPRESSOR STATION", "STATUS": "IN SERVICE", "COUNTY": "JASPER", "COUNTYFIPS": 28061, "COUNTRY": "USA", "LATITUDE": 31.815174, "LONGITUDE": -89.049347, "NAICS_CODE": 486210, "NAICS_DESC": "BOOSTER PUMPING STATION, NATURAL GAS TRANSPORTATION", "SOURCE": "EPA ENVIROFACTS, FERC FORM 2, CORPORATE WEBSITE", "SOURCEDATE": "7/15/2020 12:00:00 AM", "VAL_METHOD": "IMAGERY/OTHER", "VAL_DATE": "6/20/2022 12:00:00 AM", "WEBSITE": "http://www.1line.williams.com/", "PIPECO": "TRANSCONTINENTAL GAS PIPE LINE COMPANY L.L.C.", "COMPID": 29, "OPERATOR": "TRANSCONTINENTAL GAS PIPE LINE COMPANY L.L.C.", "POSREL": "WITHIN 40 FEET", "NUM_UNITS": 18, "CERT_HP": 71000, "PLANT_COST": 62080738, "EXP_FUEL": 2423076, "EXP_OTHER": 2256460, "GAS_COMPRE": 997067, "OP_COMP_HR": 22247, "OP_NUM_COM": 12, "OP_DATE_PE": "2/12/2021 12:00:00 AM", "EXP_POWER": 5998, "ELEC_COMPR": 0, "x": -9912927.9635, "y": 3739073.7197}, "geometry": {"type": "Point", "coordinates": [-89.049347, 31.815174]}},
{"type": "Feature", "properties": {"ProjectID": "P0271", "OBJECTID": 531, "GCOMPID": "GCOMP246", "NAME": "NO. 45 LAKE CHARLES", "ADDRESS": "17333 HIGHWAY 171", "CITY": "RAGLEY", "STATE": "LA", "ZIP": 70657, "ZIP4": "NOT AVAILABLE", "TYPE": "NATURAL GAS COMPRESSOR STATION", "STATUS": "IN SERVICE", "COUNTY": "BEAUREGARD PARISH", "COUNTYFIPS": 22011, "COUNTRY": "USA", "LATITUDE": 30.433924, "LONGITUDE": -93.229962, "NAICS_CODE": 486210, "NAICS_DESC": "BOOSTER PUMPING STATION, NATURAL GAS TRANSPORTATION", "SOURCE": "EPA ENVIROFACTS, FERC FORM 2, CORPORATE WEBSITE", "SOURCEDATE": "7/15/2020 12:00:00 AM", "VAL_METHOD": "IMAGERY/OTHER", "VAL_DATE": "6/20/2022 12:00:00 AM", "WEBSITE": "http://www.1line.williams.com/", "PIPECO": "TRANSCONTINENTAL GAS PIPE LINE COMPANY L.L.C.", "COMPID": 29, "OPERATOR": "TRANSCONTINENTAL GAS PIPE LINE COMPANY L.L.C.", "POSREL": "WITHIN 40 FEET", "NUM_UNITS": 8, "CERT_HP": 19750, "PLANT_COST": 42657298, "EXP_FUEL": 1189043, "EXP_OTHER": 2667776, "GAS_COMPRE": 593201, "OP_COMP_HR": 31804, "OP_NUM_COM": 8, "OP_DATE_PE": "10/25/2020 12:00:00 AM", "EXP_POWER": 0, "ELEC_COMPR": 0, "x": -10378311.897, "y": 3559449.5629}, "geometry": {"type": "Point", "coordinates": [-93.229962, 30.433924]}},
{"type": "Feature", "properties": {"ProjectID": "P0271", "OBJECTID": 562, "GCOMPID": "GCOMP274", "NAME": "NO. 530 LEIDY-TAMARACK STORAGE FIELD", "ADDRESS": "189 GAS PLANT LANE", "CITY": "RENOVO", "STATE": "PA", "ZIP": 17764, "ZIP4": "NOT AVAILABLE", "TYPE": "NATURAL GAS COMPRESSOR STATION", "STATUS": "IN SERVICE", "COUNTY": "CLINTON", "COUNTYFIPS": 42035, "COUNTRY": "USA", "LATITUDE": 41.430198, "LONGITUDE": -77.848661, "NAICS_CODE": 486210, "NAICS_DESC": "BOOSTER PUMPING STATION, NATURAL GAS TRANSPORTATION", "SOURCE": "EPA ENVIROFACTS, FERC FORM 2, CORPORATE WEBSITE", "SOURCEDATE": "7/15/2020 12:00:00 AM", "VAL_METHOD": "IMAGERY/OTHER", "VAL_DATE": "6/20/2022 12:00:00 AM", "WEBSITE": "http://www.1line.williams.com/", "PIPECO": "TRANSCONTINENTAL GAS PIPE LINE COMPANY L.L.C.", "COMPID": 29, "OPERATOR": "TRANSCONTINENTAL GAS PIPE LINE COMPANY L.L.C.", "POSREL": "WITHIN 40 FEET", "NUM_UNITS": 0, "CERT_HP": 0, "PLANT_COST": 69296694, "EXP_FUEL": 2047672, "EXP_OTHER": 913311, "GAS_COMPRE": 1578539, "OP_COMP_HR": 0, "OP_NUM_COM": 0, "OP_DATE_PE": "1/1/2001 12:00:00 AM", "EXP_POWER": 0, "ELEC_COMPR": 0, "x": -8666073.3015, "y": 5076004.3574}, "geometry": {"type": "Point", "coordinates": [-77.848661, 41.430198]}},
{"type": "Feature", "properties": {"ProjectID": "P0271", "OBJECTID": 583, "GCOMPID": "GCOMP293", "NAME": "NO. 167 SOUTH HILL", "ADDRESS": "1950 CHAPTICO ROAD", "CITY": "SOUTH HILL", "STATE": "VA", "ZIP": 23970, "ZIP4": "NOT AVAILABLE", "TYPE": "NATURAL GAS COMPRESSOR STATION", "STATUS": "IN SERVICE", "COUNTY": "MECKLENBURG", "COUNTYFIPS": 51117, "COUNTRY": "USA", "LATITUDE": 36.754648, "LONGITUDE": -78.132701, "NAICS_CODE": 486210, "NAICS_DESC": "BOOSTER PUMPING STATION, NATURAL GAS TRANSPORTATION", "SOURCE": "EPA ENVIROFACTS, FERC FORM 2, CORPORATE WEBSITE", "SOURCEDATE": "7/15/2020 12:00:00 AM", "VAL_METHOD": "IMAGERY/OTHER", "VAL_DATE": "6/24/2022 12:00:00 AM", "WEBSITE": "http://www.1line.williams.com/", "PIPECO": "TRANSCONTINENTAL GAS PIPE LINE COMPANY L.L.C.", "COMPID": 29, "OPERATOR": "TRANSCONTINENTAL GAS PIPE LINE COMPANY L.L.C.", "POSREL": "WITHIN 40 FEET", "NUM_UNITS": 2, "CERT_HP": 7800, "PLANT_COST": 15388307, "EXP_FUEL": 7203, "EXP_OTHER": 270406, "GAS_COMPRE": 5093, "OP_COMP_HR": 123, "OP_NUM_COM": 1, "OP_DATE_PE": "2/12/2021 12:00:00 AM", "EXP_POWER": 0, "ELEC_COMPR": 0, "x": -8697692.4896, "y": 4404962.8377}, "geometry": {"type": "Point", "coordinates": [-78.132701, 36.754648]}},
{"type": "Feature", "properties": {"ProjectID": "P0271", "OBJECTID": 613, "GCOMPID": "GCOMP32", "NAME": "NO. 125 MONROE", "ADDRESS": "1001 JAMES HUFF ROAD", "CITY": "MONROE", "STATE": "GA", "ZIP": 30656, "ZIP4": "NOT AVAILABLE", "TYPE": "NATURAL GAS COMPRESSOR STATION", "STATUS": "IN SERVICE", "COUNTY": "WALTON", "COUNTYFIPS": 13297, "COUNTRY": "USA", "LATITUDE": 33.83088, "LONGITUDE": -83.690779, "NAICS_CODE": 486210, "NAICS_DESC": "BOOSTER PUMPING STATION, NATURAL GAS TRANSPORTATION", "SOURCE": "EPA ENVIROFACTS, FERC FORM 2, CORPORATE WEBSITE", "SOURCEDATE": "7/15/2020 12:00:00 AM", "VAL_METHOD": "IMAGERY/OTHER", "VAL_DATE": "6/20/2022 12:00:00 AM", "WEBSITE": "http://www.1line.williams.com/", "PIPECO": "TRANSCONTINENTAL GAS PIPE LINE COMPANY L.L.C.", "COMPID": 29, "OPERATOR": "TRANSCONTINENTAL GAS PIPE LINE COMPANY L.L.C.", "POSREL": "WITHIN 40 FEET", "NUM_UNITS": 5, "CERT_HP": 49800, "PLANT_COST": 69084925, "EXP_FUEL": 608385, "EXP_OTHER": 334900, "GAS_COMPRE": 282579, "OP_COMP_HR": 4705, "OP_NUM_COM": 3, "OP_DATE_PE": "2/11/2021 12:00:00 AM", "EXP_POWER": 279008, "ELEC_COMPR": 5370800, "x": -9316414.9024, "y": 4006115.8851}, "geometry": {"type": "Point", "coordinates": [-83.690779, 33.83088]}},
{"type": "Feature", "properties": {"ProjectID": "P0271", "OBJECTID": 655, "GCOMPID": "GCOMP358", "NAME": "NO. 140 SPARTANBURG", "ADDRESS": "2201 MOORE DUNCAN HIGHWAY", "CITY": "MOORE", "STATE": "SC", "ZIP": 29369, "ZIP4": "NOT AVAILABLE", "TYPE": "NATURAL GAS COMPRESSOR STATION", "STATUS": "IN SERVICE", "COUNTY": "SPARTANBURG", "COUNTYFIPS": 45083, "COUNTRY": "USA", "LATITUDE": 34.846938396, "LONGITUDE": -82.010289319, "NAICS_CODE": 486210, "NAICS_DESC": "BOOSTER PUMPING STATION, NATURAL GAS TRANSPORTATION", "SOURCE": "EPA ENVIROFACTS, FERC FORM 2, CORPORATE WEBSITE", "SOURCEDATE": "7/15/2020 12:00:00 AM", "VAL_METHOD": "IMAGERY/OTHER", "VAL_DATE": "6/20/2022 12:00:00 AM", "WEBSITE": "http://www.1line.williams.com/", "PIPECO": "TRANSCONTINENTAL GAS PIPE LINE COMPANY L.L.C.", "COMPID": 29, "OPERATOR": "TRANSCONTINENTAL GAS PIPE LINE COMPANY L.L.C.", "POSREL": "WITHIN 40 FEET", "NUM_UNITS": 15, "CERT_HP": 60755, "PLANT_COST": 103061339, "EXP_FUEL": 667565, "EXP_OTHER": 1683636, "GAS_COMPRE": 306486, "OP_COMP_HR": 9332, "OP_NUM_COM": 10, "OP_DATE_PE": "2/11/2021 12:00:00 AM", "EXP_POWER": 0, "ELEC_COMPR": 0, "x": -9129343.6468, "y": 4143100.0888}, "geometry": {"type": "Point", "coordinates": [-82.010289, 34.846938]}},
{"type": "Feature", "properties": {"ProjectID": "P0271", "OBJECTID": 656, "GCOMPID": "GCOMP359", "NAME": "NO. 195 DELTA", "ADDRESS": "2204 BRYANSVILLE ROAD", "CITY": "DELTA", "STATE": "PA", "ZIP": 17314, "ZIP4": "NOT AVAILABLE", "TYPE": "NATURAL GAS COMPRESSOR STATION", "STATUS": "IN SERVICE", "COUNTY": "YORK", "COUNTYFIPS": 42133, "COUNTRY": "USA", "LATITUDE": 39.74564, "LONGITUDE": -76.358796, "NAICS_CODE": 486210, "NAICS_DESC": "BOOSTER PUMPING STATION, NATURAL GAS TRANSPORTATION", "SOURCE": "EPA ENVIROFACTS, FERC FORM 2, CORPORATE WEBSITE", "SOURCEDATE": "7/15/2020 12:00:00 AM", "VAL_METHOD": "IMAGERY/OTHER", "VAL_DATE": "6/20/2022 12:00:00 AM", "WEBSITE": "http://www.1line.williams.com/", "PIPECO": "TRANSCONTINENTAL GAS PIPE LINE COMPANY L.L.C.", "COMPID": 29, "OPERATOR": "TRANSCONTINENTAL GAS PIPE LINE COMPANY L.L.C.", "POSREL": "WITHIN 40 FEET", "NUM_UNITS": 4, "CERT_HP": 26000, "PLANT_COST": 75579396, "EXP_FUEL": 130146, "EXP_OTHER": 1104700, "GAS_COMPRE": 59921, "OP_COMP_HR": 15597, "OP_NUM_COM": 4, "OP_DATE_PE": "12/1/2020 12:00:00 AM", "EXP_POWER": 5573421, "ELEC_COMPR": 105805293, "x": -8500222.2883, "y": 4829047.9317}, "geometry": {"type": "Point", "coordinates": [-76.358796, 39.74564]}},
{"type": "Feature", "properties": {"ProjectID": "P0271", "OBJECTID": 689, "GCOMPID": "GCOMP389", "NAME": "NO. 105 ROCKFORD", "ADDRESS": "235 HIGHWAY 22 EAST", "CITY": "ROCKFORD", "STATE": "AL", "ZIP": 35136, "ZIP4": "NOT AVAILABLE", "TYPE": "NATURAL GAS COMPRESSOR STATION", "STATUS": "IN SERVICE", "COUNTY": "COOSA", "COUNTYFIPS": 1037, "COUNTRY": "USA", "LATITUDE": 32.896258, "LONGITUDE": -86.17155, "NAICS_CODE": 486210, "NAICS_DESC": "BOOSTER PUMPING STATION, NATURAL GAS TRANSPORTATION", "SOURCE": "EPA ENVIROFACTS, FERC FORM 2, CORPORATE WEBSITE", "SOURCEDATE": "7/15/2020 12:00:00 AM", "VAL_METHOD": "IMAGERY/OTHER", "VAL_DATE": "6/23/2022 12:00:00 AM", "WEBSITE": "http://www.1line.williams.com/", "PIPECO": "TRANSCONTINENTAL GAS PIPE LINE COMPANY L.L.C.", "COMPID": 29, "OPERATOR": "TRANSCONTINENTAL GAS PIPE LINE COMPANY L.L.C.", "POSREL": "WITHIN 40 FEET", "NUM_UNITS": 4, "CERT_HP": 65500, "PLANT_COST": 85667638, "EXP_FUEL": 3613266, "EXP_OTHER": 275571, "GAS_COMPRE": 1561684, "OP_COMP_HR": 9692, "OP_NUM_COM": 3, "OP_DATE_PE": "12/18/2020 12:00:00 AM", "EXP_POWER": 0, "ELEC_COMPR": 0, "x": -9592573.0669, "y": 3881542.0299}, "geometry": {"type": "Point", "coordinates": [-86.17155, 32.896258]}},
{"type": "Feature", "properties": {"ProjectID": "P0271", "OBJECTID": 692, "GCOMPID": "GCOMP391", "NAME": "NO. 150 DAVIDSON", "ADDRESS": "236 TRANSCO ROAD", "CITY": "MOORESVILLE", "STATE": "NC", "ZIP": 28117, "ZIP4": "NOT AVAILABLE", "TYPE": "NATURAL GAS COMPRESSOR STATION", "STATUS": "IN SERVICE", "COUNTY": "IREDELL", "COUNTYFIPS": 37097, "COUNTRY": "USA", "LATITUDE": 35.525254, "LONGITUDE": -80.858955, "NAICS_CODE": 486210, "NAICS_DESC": "BOOSTER PUMPING STATION, NATURAL GAS TRANSPORTATION", "SOURCE": "EPA ENVIROFACTS, FERC FORM 2, CORPORATE WEBSITE", "SOURCEDATE": "5/27/2022 12:00:00 AM", "VAL_METHOD": "IMAGERY/OTHER", "VAL_DATE": "6/20/2022 12:00:00 AM", "WEBSITE": "http://www.1line.williams.com/", "PIPECO": "TRANSCONTINENTAL GAS PIPE LINE COMPANY L.L.C.", "COMPID": 29, "OPERATOR": "TRANSCONTINENTAL GAS PIPE LINE COMPANY L.L.C.", "POSREL": "WITHIN 40 FEET", "NUM_UNITS": 16, "CERT_HP": 54300, "PLANT_COST": 105381712, "EXP_FUEL": 1354574, "EXP_OTHER": 2311727, "GAS_COMPRE": 583795, "OP_COMP_HR": 40038, "OP_NUM_COM": 6, "OP_DATE_PE": "2/11/2021 12:00:00 AM", "EXP_POWER": 9768, "ELEC_COMPR": 0, "x": -9001177.6967, "y": 4235492.1547}, "geometry": {"type": "Point", "coordinates": [-80.858955, 35.525254]}},
{"type": "Feature", "properties": {"ProjectID": "P0271", "OBJECTID": 712, "GCOMPID": "GCOMP409", "NAME": "NO. 170 APPOMATTOX", "ADDRESS": "2444 PUMPING STATION ROAD", "CITY": "APPOMATTOX", "STATE": "VA", "ZIP": 24522, "ZIP4": "NOT AVAILABLE", "TYPE": "NATURAL GAS COMPRESSOR STATION", "STATUS": "IN SERVICE", "COUNTY": "APPOMATTOX", "COUNTYFIPS": 51011, "COUNTRY": "USA", "LATITUDE": 37.344897, "LONGITUDE": -78.873806, "NAICS_CODE": 486210, "NAICS_DESC": "BOOSTER PUMPING STATION, NATURAL GAS TRANSPORTATION", "SOURCE": "EPA ENVIROFACTS, FERC FORM 2, CORPORATE WEBSITE", "SOURCEDATE": "7/15/2020 12:00:00 AM", "VAL_METHOD": "IMAGERY/OTHER", "VAL_DATE": "6/20/2022 12:00:00 AM", "WEBSITE": "http://www.1line.williams.com/", "PIPECO": "TRANSCONTINENTAL GAS PIPE LINE COMPANY L.L.C.", "COMPID": 29, "OPERATOR": "TRANSCONTINENTAL GAS PIPE LINE COMPANY L.L.C.", "POSREL": "WITHIN 40 FEET", "NUM_UNITS": 11, "CERT_HP": 33200, "PLANT_COST": 78608227, "EXP_FUEL": 3014176, "EXP_OTHER": 2099388, "GAS_COMPRE": 1407271, "OP_COMP_HR": 61504, "OP_NUM_COM": 11, "OP_DATE_PE": "11/6/2020 12:00:00 AM", "EXP_POWER": 0, "ELEC_COMPR": 0, "x": -8780191.9208, "y": 4487290.6384}, "geometry": {"type": "Point", "coordinates": [-78.873806, 37.344897]}},
{"type": "Feature", "properties": {"ProjectID": "P0271", "OBJECTID": 740, "GCOMPID": "GCOMP434", "NAME": "NO. 30 EL CAMPO", "ADDRESS": "2648 FM. 2546", "CITY": "EL CAMPO", "STATE": "TX", "ZIP": 77437, "ZIP4": "NOT AVAILABLE", "TYPE": "NATURAL GAS COMPRESSOR STATION", "STATUS": "IN SERVICE", "COUNTY": "WHARTON", "COUNTYFIPS": 48481, "COUNTRY": "USA", "LATITUDE": 29.279476, "LONGITUDE": -96.289727, "NAICS_CODE": 486210, "NAICS_DESC": "BOOSTER PUMPING STATION, NATURAL GAS TRANSPORTATION", "SOURCE": "EPA ENVIROFACTS, FERC FORM 2, CORPORATE WEBSITE", "SOURCEDATE": "7/15/2020 12:00:00 AM", "VAL_METHOD": "IMAGERY/OTHER", "VAL_DATE": "6/20/2022 12:00:00 AM", "WEBSITE": "http://www.1line.williams.com/", "PIPECO": "TRANSCONTINENTAL GAS PIPE LINE COMPANY L.L.C.", "COMPID": 29, "OPERATOR": "TRANSCONTINENTAL GAS PIPE LINE COMPANY L.L.C.", "POSREL": "WITHIN 40 FEET", "NUM_UNITS": 7, "CERT_HP": 17750, "PLANT_COST": 41534551, "EXP_FUEL": 766244, "EXP_OTHER": 1093567, "GAS_COMPRE": 399335, "OP_COMP_HR": 21496, "OP_NUM_COM": 4, "OP_DATE_PE": "4/9/2020 12:00:00 AM", "EXP_POWER": 0, "ELEC_COMPR": 0, "x": -10718923.378, "y": 3411265.3842}, "geometry": {"type": "Point", "coordinates": [-96.289727, 29.279476]}},
{"type": "Feature", "properties": {"ProjectID": "P0271", "OBJECTID": 746, "GCOMPID": "GCOMP44", "NAME": "NO. 517 BENTON", "ADDRESS": "102 POLE BRIDGE ROAD", "CITY": "BENTON", "STATE": "PA", "ZIP": 17814, "ZIP4": "NOT AVAILABLE", "TYPE": "NATURAL GAS COMPRESSOR STATION", "STATUS": "IN SERVICE", "COUNTY": "COLUMBIA", "COUNTYFIPS": 42037, "COUNTRY": "USA", "LATITUDE": 41.271842, "LONGITUDE": -76.429826, "NAICS_CODE": 486210, "NAICS_DESC": "BOOSTER PUMPING STATION, NATURAL GAS TRANSPORTATION", "SOURCE": "EPA ENVIROFACTS, FERC FORM 2, CORPORATE WEBSITE", "SOURCEDATE": "7/15/2020 12:00:00 AM", "VAL_METHOD": "IMAGERY/OTHER", "VAL_DATE": "6/20/2022 12:00:00 AM", "WEBSITE": "http://www.1line.williams.com/", "PIPECO": "TRANSCONTINENTAL GAS PIPE LINE COMPANY L.L.C.", "COMPID": 29, "OPERATOR": "TRANSCONTINENTAL GAS PIPE LINE COMPANY L.L.C.", "POSREL": "WITHIN 40 FEET", "NUM_UNITS": 6, "CERT_HP": 88000, "PLANT_COST": 154674310, "EXP_FUEL": 1189645, "EXP_OTHER": 2002343, "GAS_COMPRE": 667477, "OP_COMP_HR": 5002, "OP_NUM_COM": 3, "OP_DATE_PE": "1/28/2021 12:00:00 AM", "EXP_POWER": 0, "ELEC_COMPR": 0, "x": -8508129.3117, "y": 5052521.3626}, "geometry": {"type": "Point", "coordinates": [-76.429826, 41.271842]}},
{"type": "Feature", "properties": {"ProjectID": "P0271", "OBJECTID": 754, "GCOMPID": "GCOMP447", "NAME": "NO. 520 SALLADASBURG", "ADDRESS": "2782 STATE ROUTE 287", "CITY": "SALLADASBURG", "STATE": "PA", "ZIP": 17740, "ZIP4": "NOT AVAILABLE", "TYPE": "NATURAL GAS COMPRESSOR STATION", "STATUS": "IN SERVICE", "COUNTY": "LYCOMING", "COUNTYFIPS": 42081, "COUNTRY": "USA", "LATITUDE": 41.260054, "LONGITUDE": -77.229078, "NAICS_CODE": 486210, "NAICS_DESC": "BOOSTER PUMPING STATION, NATURAL GAS TRANSPORTATION", "SOURCE": "EPA ENVIROFACTS, FERC FORM 2, CORPORATE WEBSITE", "SOURCEDATE": "7/15/2020 12:00:00 AM", "VAL_METHOD": "IMAGERY/OTHER", "VAL_DATE": "6/20/2022 12:00:00 AM", "WEBSITE": "http://www.1line.williams.com/", "PIPECO": "TRANSCONTINENTAL GAS PIPE LINE COMPANY L.L.C.", "COMPID": 29, "OPERATOR": "TRANSCONTINENTAL GAS PIPE LINE COMPANY L.L.C.", "POSREL": "WITHIN 40 FEET", "NUM_UNITS": 9, "CERT_HP": 71700, "PLANT_COST": 140940964, "EXP_FUEL": 132062, "EXP_OTHER": 2120340, "GAS_COMPRE": 75373, "OP_COMP_HR": 2943, "OP_NUM_COM": 5, "OP_DATE_PE": "1/24/2021 12:00:00 AM", "EXP_POWER": 0, "ELEC_COMPR": 0, "x": -8597101.6374, "y": 5050775.5724}, "geometry": {"type": "Point", "coordinates": [-77.229078, 41.260054]}},
{"type": "Feature", "properties": {"ProjectID": "P0271", "OBJECTID": 768, "GCOMPID": "GCOMP46", "NAME": "NO. 185 MANASSAS", "ADDRESS": "10201 BALLS FOROAD ROAD", "CITY": "MANASSAS", "STATE": "VA", "ZIP": 20105, "ZIP4": "NOT AVAILABLE", "TYPE": "NATURAL GAS COMPRESSOR STATION", "STATUS": "IN SERVICE", "COUNTY": "LOUDOUN", "COUNTYFIPS": 51107, "COUNTRY": "USA", "LATITUDE": 38.802137, "LONGITUDE": -77.501796, "NAICS_CODE": 486210, "NAICS_DESC": "BOOSTER PUMPING STATION, NATURAL GAS TRANSPORTATION", "SOURCE": "EPA ENVIROFACTS, FERC FORM 2, CORPORATE WEBSITE", "SOURCEDATE": "7/15/2020 12:00:00 AM", "VAL_METHOD": "IMAGERY/OTHER", "VAL_DATE": "6/20/2022 12:00:00 AM", "WEBSITE": "http://www.1line.williams.com/", "PIPECO": "TRANSCONTINENTAL GAS PIPE LINE COMPANY L.L.C.", "COMPID": 29, "OPERATOR": "TRANSCONTINENTAL GAS PIPE LINE COMPANY L.L.C.", "POSREL": "WITHIN 40 FEET", "NUM_UNITS": 11, "CERT_HP": 50000, "PLANT_COST": 120901563, "EXP_FUEL": 458002, "EXP_OTHER": 2209141, "GAS_COMPRE": 188311, "OP_COMP_HR": 17299, "OP_NUM_COM": 4, "OP_DATE_PE": "11/6/2020 12:00:00 AM", "EXP_POWER": 8890086, "ELEC_COMPR": 105529646, "x": -8627460.4663, "y": 4693368.8948}, "geometry": {"type": "Point", "coordinates": [-77.501796, 38.802137]}},
{"type": "Feature", "properties": {"ProjectID": "P0271", "OBJECTID": 782, "GCOMPID": "GCOMP472", "NAME": "NO. 65 KENTWOOD", "ADDRESS": "29507 HIGHWAY 43", "CITY": "GREENSBURG", "STATE": "LA", "ZIP": 70441, "ZIP4": "NOT AVAILABLE", "TYPE": "NATURAL GAS COMPRESSOR STATION", "STATUS": "IN SERVICE", "COUNTY": "SAINT HELENA PARISH", "COUNTYFIPS": 22091, "COUNTRY": "USA", "LATITUDE": 30.993536, "LONGITUDE": -90.704699, "NAICS_CODE": 486210, "NAICS_DESC": "BOOSTER PUMPING STATION, NATURAL GAS TRANSPORTATION", "SOURCE": "EPA ENVIROFACTS, FERC FORM 2, CORPORATE WEBSITE", "SOURCEDATE": "7/15/2020 12:00:00 AM", "VAL_METHOD": "IMAGERY/OTHER", "VAL_DATE": "6/20/2022 12:00:00 AM", "WEBSITE": "http://www.1line.williams.com/", "PIPECO": "TRANSCONTINENTAL GAS PIPE LINE COMPANY L.L.C.", "COMPID": 29, "OPERATOR": "TRANSCONTINENTAL GAS PIPE LINE COMPANY L.L.C.", "POSREL": "WITHIN 40 FEET", "NUM_UNITS": 6, "CERT_HP": 26400, "PLANT_COST": 61225076, "EXP_FUEL": 10116, "EXP_OTHER": 667373, "GAS_COMPRE": 1472, "OP_COMP_HR": 50, "OP_NUM_COM": 2, "OP_DATE_PE": "2/10/2021 12:00:00 AM", "EXP_POWER": 0, "ELEC_COMPR": 0, "x": -10097200.905, "y": 3631909.6984}, "geometry": {"type": "Point", "coordinates": [-90.704699, 30.993536]}},
{"type": "Feature", "properties": {"ProjectID": "P0271", "OBJECTID": 784, "GCOMPID": "GCOMP474", "NAME": "NO. 50 EUNICE", "ADDRESS": "2959 VETERAN MEMORIAL HIGHWAY", "CITY": "MAMOU", "STATE": "LA", "ZIP": 70554, "ZIP4": "NOT AVAILABLE", "TYPE": "NATURAL GAS COMPRESSOR STATION", "STATUS": "IN SERVICE", "COUNTY": "EVANGELINE PARISH", "COUNTYFIPS": 22039, "COUNTRY": "USA", "LATITUDE": 30.575395, "LONGITUDE": -92.429964, "NAICS_CODE": 486210, "NAICS_DESC": "BOOSTER PUMPING STATION, NATURAL GAS TRANSPORTATION", "SOURCE": "FERC FORM 2, CORPORATE WEBSITE", "SOURCEDATE": "7/15/2020 12:00:00 AM", "VAL_METHOD": "IMAGERY/OTHER", "VAL_DATE": "6/20/2022 12:00:00 AM", "WEBSITE": "http://www.1line.williams.com/", "PIPECO": "TRANSCONTINENTAL GAS PIPE LINE COMPANY L.L.C.", "COMPID": 29, "OPERATOR": "TRANSCONTINENTAL GAS PIPE LINE COMPANY L.L.C.", "POSREL": "WITHIN 40 FEET", "NUM_UNITS": 1, "CERT_HP": 10310, "PLANT_COST": 34167789, "EXP_FUEL": 36530, "EXP_OTHER": 1511840, "GAS_COMPRE": 20226, "OP_COMP_HR": 0, "OP_NUM_COM": 0, "OP_DATE_PE": "1/1/2001 12:00:00 AM", "EXP_POWER": 0, "ELEC_COMPR": 0, "x": -10289256.527, "y": 3577728.0076}, "geometry": {"type": "Point", "coordinates": [-92.429964, 30.575395]}},
{"type": "Feature", "properties": {"ProjectID": "P0271", "OBJECTID": 786, "GCOMPID": "GCOMP476", "NAME": "NO. 60 ST. FRANCISVILLE", "ADDRESS": "2988 HIGHWAY 964", "CITY": "JACKSON", "STATE": "LA", "ZIP": 70748, "ZIP4": "NOT AVAILABLE", "TYPE": "NATURAL GAS COMPRESSOR STATION", "STATUS": "IN SERVICE", "COUNTY": "EAST FELICIANA PARISH", "COUNTYFIPS": 22037, "COUNTRY": "USA", "LATITUDE": 30.744502, "LONGITUDE": -91.266232, "NAICS_CODE": 486210, "NAICS_DESC": "BOOSTER PUMPING STATION, NATURAL GAS TRANSPORTATION", "SOURCE": "EPA ENVIROFACTS, FERC FORM 2, CORPORATE WEBSITE", "SOURCEDATE": "7/15/2020 12:00:00 AM", "VAL_METHOD": "IMAGERY/OTHER", "VAL_DATE": "6/20/2022 12:00:00 AM", "WEBSITE": "http://www.1line.williams.com/", "PIPECO": "TRANSCONTINENTAL GAS PIPE LINE COMPANY L.L.C.", "COMPID": 29, "OPERATOR": "TRANSCONTINENTAL GAS PIPE LINE COMPANY L.L.C.", "POSREL": "WITHIN 40 FEET", "NUM_UNITS": 13, "CERT_HP": 37640, "PLANT_COST": 62168901, "EXP_FUEL": 1658756, "EXP_OTHER": 1957389, "GAS_COMPRE": 635176, "OP_COMP_HR": 32033, "OP_NUM_COM": 11, "OP_DATE_PE": "2/10/2021 12:00:00 AM", "EXP_POWER": 0, "ELEC_COMPR": 0, "x": -10159710.473, "y": 3599612.1287}, "geometry": {"type": "Point", "coordinates": [-91.266232, 30.744502]}},
{"type": "Feature", "properties": {"ProjectID": "P0271", "OBJECTID": 789, "GCOMPID": "GCOMP479", "NAME": "NO. 40 SOUR LAKE", "ADDRESS": "29979 W HIGHWAY 105 W", "CITY": "SOUR LAKE", "STATE": "TX", "ZIP": 77659, "ZIP4": "NOT AVAILABLE", "TYPE": "NATURAL GAS COMPRESSOR STATION", "STATUS": "IN SERVICE", "COUNTY": "HARDIN", "COUNTYFIPS": 48199, "COUNTRY": "USA", "LATITUDE": 30.176871, "LONGITUDE": -94.503251, "NAICS_CODE": 486210, "NAICS_DESC": "BOOSTER PUMPING STATION, NATURAL GAS TRANSPORTATION", "SOURCE": "EPA ENVIROFACTS, FERC FORM 2, CORPORATE WEBSITE", "SOURCEDATE": "7/15/2020 12:00:00 AM", "VAL_METHOD": "IMAGERY/OTHER", "VAL_DATE": "6/20/2022 12:00:00 AM", "WEBSITE": "http://www.1line.williams.com/", "PIPECO": "TRANSCONTINENTAL GAS PIPE LINE COMPANY L.L.C.", "COMPID": 29, "OPERATOR": "TRANSCONTINENTAL GAS PIPE LINE COMPANY L.L.C.", "POSREL": "WITHIN 40 FEET", "NUM_UNITS": 6, "CERT_HP": 15000, "PLANT_COST": 33429559, "EXP_FUEL": 330206, "EXP_OTHER": 902105, "GAS_COMPRE": 138580, "OP_COMP_HR": 7818, "OP_NUM_COM": 3, "OP_DATE_PE": "10/19/2020 12:00:00 AM", "EXP_POWER": 0, "ELEC_COMPR": 0, "x": -10520053.78, "y": 3526305.2817}, "geometry": {"type": "Point", "coordinates": [-94.503251, 30.176871]}},
{"type": "Feature", "properties": {"ProjectID": "P0271", "OBJECTID": 811, "GCOMPID": "GCOMP499", "NAME": "NO. 54 WASHINGTON STORAGE FIELD", "ADDRESS": "3149 HIGHWAY 10", "CITY": "WASHINGTON", "STATE": "LA", "ZIP": 70589, "ZIP4": "NOT AVAILABLE", "TYPE": "NATURAL GAS COMPRESSOR STATION", "STATUS": "IN SERVICE", "COUNTY": "SAINT LANDRY PARISH", "COUNTYFIPS": 22097, "COUNTRY": "USA", "LATITUDE": 30.67018, "LONGITUDE": -92.021378, "NAICS_CODE": 486210, "NAICS_DESC": "BOOSTER PUMPING STATION, NATURAL GAS TRANSPORTATION", "SOURCE": "EPA ENVIROFACTS, FERC FORM 2, CORPORATE WEBSITE", "SOURCEDATE": "7/15/2020 12:00:00 AM", "VAL_METHOD": "IMAGERY/OTHER", "VAL_DATE": "6/20/2022 12:00:00 AM", "WEBSITE": "http://www.1line.williams.com/", "PIPECO": "TRANSCONTINENTAL GAS PIPE LINE COMPANY L.L.C.", "COMPID": 29, "OPERATOR": "TRANSCONTINENTAL GAS PIPE LINE COMPANY L.L.C.", "POSREL": "WITHIN 40 FEET", "NUM_UNITS": 3, "CERT_HP": 33000, "PLANT_COST": 158480907, "EXP_FUEL": 1202910, "EXP_OTHER": 2186602, "GAS_COMPRE": 386894, "OP_COMP_HR": 5082, "OP_NUM_COM": 2, "OP_DATE_PE": "4/10/2020 12:00:00 AM", "EXP_POWER": 0, "ELEC_COMPR": 0, "x": -10243772.941, "y": 3589989.4087}, "geometry": {"type": "Point", "coordinates": [-92.021378, 30.67018]}},
{"type": "Feature", "properties": {"ProjectID": "P0271", "OBJECTID": 814, "GCOMPID": "GCOMP500", "NAME": "NO. 205 LAWRENCEVILLE", "ADDRESS": "315 COLD SOIL ROAD", "CITY": "PRINCETON", "STATE": "NJ", "ZIP": 8540, "ZIP4": "NOT AVAILABLE", "TYPE": "NATURAL GAS COMPRESSOR STATION", "STATUS": "IN SERVICE", "COUNTY": "MERCER", "COUNTYFIPS": 34021, "COUNTRY": "USA", "LATITUDE": 40.337539, "LONGITUDE": -74.732468, "NAICS_CODE": 486210, "NAICS_DESC": "BOOSTER PUMPING STATION, NATURAL GAS TRANSPORTATION", "SOURCE": "EPA ENVIROFACTS, FERC FORM 2, CORPORATE WEBSITE", "SOURCEDATE": "7/15/2020 12:00:00 AM", "VAL_METHOD": "IMAGERY/OTHER", "VAL_DATE": "6/20/2022 12:00:00 AM", "WEBSITE": "http://www.1line.williams.com/", "PIPECO": "TRANSCONTINENTAL GAS PIPE LINE COMPANY L.L.C.", "COMPID": 29, "OPERATOR": "TRANSCONTINENTAL GAS PIPE LINE COMPANY L.L.C.", "POSREL": "WITHIN 40 FEET", "NUM_UNITS": 3, "CERT_HP": 57000, "PLANT_COST": 137090956, "EXP_FUEL": 0, "EXP_OTHER": 921921, "GAS_COMPRE": 0, "OP_COMP_HR": 24, "OP_NUM_COM": 2, "OP_DATE_PE": "3/16/2021 12:00:00 AM", "EXP_POWER": 474765, "ELEC_COMPR": 2668884, "x": -8319180.2835, "y": 4915114.4481}, "geometry": {"type": "Point", "coordinates": [-74.732468, 40.337539]}},
{"type": "Feature", "properties": {"ProjectID": "P0271", "OBJECTID": 821, "GCOMPID": "GCOMP507", "NAME": "NO: 207 SAYREVILLE", "ADDRESS": "3200 BORDENTOWN AVENUE", "CITY": "SAYREVILLE", "STATE": "NJ", "ZIP": 8857, "ZIP4": "NOT AVAILABLE", "TYPE": "NATURAL GAS COMPRESSOR STATION", "STATUS": "IN SERVICE", "COUNTY": "MIDDLESEX", "COUNTYFIPS": 34023, "COUNTRY": "USA", "LATITUDE": 40.441177, "LONGITUDE": -74.315548, "NAICS_CODE": 486210, "NAICS_DESC": "BOOSTER PUMPING STATION, NATURAL GAS TRANSPORTATION", "SOURCE": "FERC FORM 2, CORPORATE WEBSITE", "SOURCEDATE": "7/15/2020 12:00:00 AM", "VAL_METHOD": "IMAGERY/OTHER", "VAL_DATE": "6/20/2022 12:00:00 AM", "WEBSITE": "http://www.1line.williams.com/", "PIPECO": "TRANSCONTINENTAL GAS PIPE LINE COMPANY L.L.C.", "COMPID": 29, "OPERATOR": "TRANSCONTINENTAL GAS PIPE LINE COMPANY L.L.C.", "POSREL": "WITHIN 40 FEET", "NUM_UNITS": 5, "CERT_HP": 37300, "PLANT_COST": 210518724, "EXP_FUEL": 2509688, "EXP_OTHER": 0, "GAS_COMPRE": 1195819, "OP_COMP_HR": 14380, "OP_NUM_COM": 0, "OP_DATE_PE": "11/27/2012 12:00:00 AM", "EXP_POWER": 947649, "ELEC_COMPR": 12611013, "x": -8272768.9614, "y": 4930261.5653}, "geometry": {"type": "Point", "coordinates": [-74.315548, 40.441177]}},
{"type": "Feature", "properties": {"ProjectID": "P0271", "OBJECTID": 871, "GCOMPID": "GCOMP552", "NAME": "NO. 52 EUNICE", "ADDRESS": "3729 DURALDE HIGHWAY", "CITY": "EUNICE", "STATE": "LA", "ZIP": 70535, "ZIP4": "NOT AVAILABLE", "TYPE": "NATURAL GAS COMPRESSOR STATION", "STATUS": "IN SERVICE", "COUNTY": "SAINT LANDRY PARISH", "COUNTYFIPS": 22097, "COUNTRY": "USA", "LATITUDE": 30.559580057, "LONGITUDE": -92.501782317, "NAICS_CODE": 486210, "NAICS_DESC": "BOOSTER PUMPING STATION, NATURAL GAS TRANSPORTATION", "SOURCE": "EPA ENVIROFACTS, FERC FORM 2, CORPORATE WEBSITE", "SOURCEDATE": "7/15/2020 12:00:00 AM", "VAL_METHOD": "IMAGERY/OTHER", "VAL_DATE": "6/20/2022 12:00:00 AM", "WEBSITE": "http://www.1line.williams.com/", "PIPECO": "TRANSCONTINENTAL GAS PIPE LINE COMPANY L.L.C.", "COMPID": 29, "OPERATOR": "TRANSCONTINENTAL GAS PIPE LINE COMPANY L.L.C.", "POSREL": "WITHIN 40 FEET", "NUM_UNITS": 3, "CERT_HP": 6000, "PLANT_COST": 5078191, "EXP_FUEL": 10446, "EXP_OTHER": 0, "GAS_COMPRE": 4010, "OP_COMP_HR": 248, "OP_NUM_COM": 1, "OP_DATE_PE": "4/5/2020 12:00:00 AM", "EXP_POWER": 0, "ELEC_COMPR": 0, "x": -10297251.305, "y": 3575683.3519}, "geometry": {"type": "Point", "coordinates": [-92.501782, 30.55958]}},
{"type": "Feature", "properties": {"ProjectID": "P0271", "OBJECTID": 936, "GCOMPID": "GCOMP612", "NAME": "NO. 160 REIDSVILLE", "ADDRESS": "4300 NC HIGHWAY 65", "CITY": "REIDSVILLE", "STATE": "NC", "ZIP": 27320, "ZIP4": "NOT AVAILABLE", "TYPE": "NATURAL GAS COMPRESSOR STATION", "STATUS": "IN SERVICE", "COUNTY": "ROCKINGHAM", "COUNTYFIPS": 37157, "COUNTRY": "USA", "LATITUDE": 36.3423, "LONGITUDE": -79.820398, "NAICS_CODE": 486210, "NAICS_DESC": "BOOSTER PUMPING STATION, NATURAL GAS TRANSPORTATION", "SOURCE": "EPA ENVIROFACTS, FERC FORM 2, CORPORATE WEBSITE", "SOURCEDATE": "5/27/2022 12:00:00 AM", "VAL_METHOD": "IMAGERY/OTHER", "VAL_DATE": "6/20/2022 12:00:00 AM", "WEBSITE": "http://www.1line.williams.com/", "PIPECO": "TRANSCONTINENTAL GAS PIPE LINE COMPANY L.L.C.", "COMPID": 29, "OPERATOR": "TRANSCONTINENTAL GAS PIPE LINE COMPANY L.L.C.", "POSREL": "WITHIN 40 FEET", "NUM_UNITS": 16, "CERT_HP": 54520, "PLANT_COST": 81562860, "EXP_FUEL": 1883037, "EXP_OTHER": 2199164, "GAS_COMPRE": 849193, "OP_COMP_HR": 47351, "OP_NUM_COM": 13, "OP_DATE_PE": "11/26/2020 12:00:00 AM", "EXP_POWER": 39327, "ELEC_COMPR": 0, "x": -8885566.0603, "y": 4347824.1226}, "geometry": {"type": "Point", "coordinates": [-79.820398, 36.3423]}},
{"type": "Feature", "properties": {"ProjectID": "P0271", "OBJECTID": 971, "GCOMPID": "GCOMP644", "NAME": "NO. 62 HUMPHRIES", "ADDRESS": "4711 BAYOU BLACK DRIVE", "CITY": "GIBSON", "STATE": "LA", "ZIP": 70356, "ZIP4": "NOT AVAILABLE", "TYPE": "NATURAL GAS COMPRESSOR STATION", "STATUS": "IN SERVICE", "COUNTY": "TERREBONNE PARISH", "COUNTYFIPS": 22109, "COUNTRY": "USA", "LATITUDE": 29.6033457, "LONGITUDE": -90.875665368, "NAICS_CODE": 486210, "NAICS_DESC": "BOOSTER PUMPING STATION, NATURAL GAS TRANSPORTATION", "SOURCE": "EPA ENVIROFACTS, FERC FORM 2, CORPORATE WEBSITE", "SOURCEDATE": "7/15/2020 12:00:00 AM", "VAL_METHOD": "IMAGERY/OTHER", "VAL_DATE": "6/20/2022 12:00:00 AM", "WEBSITE": "http://www.1line.williams.com/", "PIPECO": "TRANSCONTINENTAL GAS PIPE LINE COMPANY L.L.C.", "COMPID": 29, "OPERATOR": "TRANSCONTINENTAL GAS PIPE LINE COMPANY L.L.C.", "POSREL": "WITHIN 40 FEET", "NUM_UNITS": 9, "CERT_HP": 24820, "PLANT_COST": 57425675, "EXP_FUEL": 76107, "EXP_OTHER": 502313, "GAS_COMPRE": 61122, "OP_COMP_HR": 4087, "OP_NUM_COM": 2, "OP_DATE_PE": "4/1/2020 12:00:00 AM", "EXP_POWER": 0, "ELEC_COMPR": 0, "x": -10116232.794, "y": 3452664.8504}, "geometry": {"type": "Point", "coordinates": [-90.875665, 29.603346]}},
{"type": "Feature", "properties": {"ProjectID": "P0271", "OBJECTID": 996, "GCOMPID": "GCOMP667", "NAME": "NO. 115 NEWNAN", "ADDRESS": "510 KEITH ROAD", "CITY": "NEWNAN", "STATE": "GA", "ZIP": 30263, "ZIP4": "NOT AVAILABLE", "TYPE": "NATURAL GAS COMPRESSOR STATION", "STATUS": "IN SERVICE", "COUNTY": "COWETA", "COUNTYFIPS": 13077, "COUNTRY": "USA", "LATITUDE": 33.369413, "LONGITUDE": -84.911028, "NAICS_CODE": 486210, "NAICS_DESC": "BOOSTER PUMPING STATION, NATURAL GAS TRANSPORTATION", "SOURCE": "EPA ENVIROFACTS, FERC FORM 2, CORPORATE WEBSITE", "SOURCEDATE": "7/15/2020 12:00:00 AM", "VAL_METHOD": "IMAGERY/OTHER", "VAL_DATE": "6/20/2022 12:00:00 AM", "WEBSITE": "http://www.1line.williams.com/", "PIPECO": "TRANSCONTINENTAL GAS PIPE LINE COMPANY L.L.C.", "COMPID": 29, "OPERATOR": "TRANSCONTINENTAL GAS PIPE LINE COMPANY L.L.C.", "POSREL": "WITHIN 40 FEET", "NUM_UNITS": 3, "CERT_HP": 62950, "PLANT_COST": 85410180, "EXP_FUEL": 0, "EXP_OTHER": 475036, "GAS_COMPRE": 0, "OP_COMP_HR": 1684, "OP_NUM_COM": 3, "OP_DATE_PE": "2/8/2021 12:00:00 AM", "EXP_POWER": 5531225, "ELEC_COMPR": 24616641, "x": -9452252.3997, "y": 3944440.6419}, "geometry": {"type": "Point", "coordinates": [-84.911028, 33.369413]}},
{"type": "Feature", "properties": {"ProjectID": "P0271", "OBJECTID": 1040, "GCOMPID": "GCOMP706", "NAME": "NO. 44 JOHNSON'S BAYOU", "ADDRESS": "5575 GULF BEACH HIGHWAY", "CITY": "CAMERON", "STATE": "LA", "ZIP": 70631, "ZIP4": "NOT AVAILABLE", "TYPE": "NATURAL GAS COMPRESSOR STATION", "STATUS": "IN SERVICE", "COUNTY": "CAMERON PARISH", "COUNTYFIPS": 22023, "COUNTRY": "USA", "LATITUDE": 29.760756852, "LONGITUDE": -93.639812658, "NAICS_CODE": 486210, "NAICS_DESC": "BOOSTER PUMPING STATION, NATURAL GAS TRANSPORTATION", "SOURCE": "EPA ENVIROFACTS, FERC FORM 2, CORPORATE WEBSITE", "SOURCEDATE": "7/15/2020 12:00:00 AM", "VAL_METHOD": "IMAGERY/OTHER", "VAL_DATE": "6/20/2022 12:00:00 AM", "WEBSITE": "http://www.1line.williams.com/", "PIPECO": "TRANSCONTINENTAL GAS PIPE LINE COMPANY L.L.C.", "COMPID": 29, "OPERATOR": "TRANSCONTINENTAL GAS PIPE LINE COMPANY L.L.C.", "POSREL": "WITHIN 40 FEET", "NUM_UNITS": 5, "CERT_HP": 43085, "PLANT_COST": 109911062, "EXP_FUEL": 3057482, "EXP_OTHER": 310155, "GAS_COMPRE": 1387421, "OP_COMP_HR": 13442, "OP_NUM_COM": 2, "OP_DATE_PE": "1/1/2021 12:00:00 AM", "EXP_POWER": 85149, "ELEC_COMPR": 0, "x": -10423936.263, "y": 3472834.2876}, "geometry": {"type": "Point", "coordinates": [-93.639812, 29.760757]}},
{"type": "Feature", "properties": {"ProjectID": "P0271", "OBJECTID": 1042, "GCOMPID": "GCOMP708", "NAME": "NO. 82 CODEN", "ADDRESS": "5600 ROCK ROAD", "CITY": "CODEN", "STATE": "AL", "ZIP": 36523, "ZIP4": "NOT AVAILABLE", "TYPE": "NATURAL GAS COMPRESSOR STATION", "STATUS": "IN SERVICE", "COUNTY": "MOBILE", "COUNTYFIPS": 1097, "COUNTRY": "USA", "LATITUDE": 30.400318, "LONGITUDE": -88.175624, "NAICS_CODE": 486210, "NAICS_DESC": "BOOSTER PUMPING STATION, NATURAL GAS TRANSPORTATION", "SOURCE": "EPA ENVIROFACTS, FERC FORM 2, CORPORATE WEBSITE", "SOURCEDATE": "7/15/2020 12:00:00 AM", "VAL_METHOD": "IMAGERY/OTHER", "VAL_DATE": "6/20/2022 12:00:00 AM", "WEBSITE": "http://www.1line.williams.com/", "PIPECO": "TRANSCONTINENTAL GAS PIPE LINE COMPANY L.L.C.", "COMPID": 29, "OPERATOR": "TRANSCONTINENTAL GAS PIPE LINE COMPANY L.L.C.", "POSREL": "WITHIN 40 FEET", "NUM_UNITS": 3, "CERT_HP": 25766, "PLANT_COST": 22862555, "EXP_FUEL": 0, "EXP_OTHER": 424872, "GAS_COMPRE": 0, "OP_COMP_HR": 0, "OP_NUM_COM": 1, "OP_DATE_PE": "4/1/2020 12:00:00 AM", "EXP_POWER": 0, "ELEC_COMPR": 0, "x": -9815665.5641, "y": 3555111.4763}, "geometry": {"type": "Point", "coordinates": [-88.175624, 30.400318]}},
{"type": "Feature", "properties": {"ProjectID": "P0271", "OBJECTID": 1070, "GCOMPID": "GCOMP733", "NAME": "NO. 200 MALVERN", "ADDRESS": "60 N BACTON HILL ROAD", "CITY": "MALVERN", "STATE": "PA", "ZIP": 19355, "ZIP4": "NOT AVAILABLE", "TYPE": "NATURAL GAS COMPRESSOR STATION", "STATUS": "IN SERVICE", "COUNTY": "CHESTER", "COUNTYFIPS": 42029, "COUNTRY": "USA", "LATITUDE": 40.048642, "LONGITUDE": -75.58806, "NAICS_CODE": 486210, "NAICS_DESC": "BOOSTER PUMPING STATION, NATURAL GAS TRANSPORTATION", "SOURCE": "EPA ENVIROFACTS, FERC FORM 2, CORPORATE WEBSITE", "SOURCEDATE": "7/15/2020 12:00:00 AM", "VAL_METHOD": "IMAGERY/OTHER", "VAL_DATE": "6/24/2022 12:00:00 AM", "WEBSITE": "http://www.1line.williams.com/", "PIPECO": "TRANSCONTINENTAL GAS PIPE LINE COMPANY L.L.C.", "COMPID": 29, "OPERATOR": "TRANSCONTINENTAL GAS PIPE LINE COMPANY L.L.C.", "POSREL": "WITHIN 40 FEET", "NUM_UNITS": 13, "CERT_HP": 33000, "PLANT_COST": 72112800, "EXP_FUEL": 65471, "EXP_OTHER": 2068807, "GAS_COMPRE": 23121, "OP_COMP_HR": 1285, "OP_NUM_COM": 13, "OP_DATE_PE": "9/2/2020 12:00:00 AM", "EXP_POWER": 0, "ELEC_COMPR": 0, "x": -8414424.3493, "y": 4873013.3221}, "geometry": {"type": "Point", "coordinates": [-75.58806, 40.048642]}},
{"type": "Feature", "properties": {"ProjectID": "P0271", "OBJECTID": 1090, "GCOMPID": "GCOMP751", "NAME": "NO. 505 CENTERVILLE", "ADDRESS": "623 CASE ROAD", "CITY": "NESHANIC STATION", "STATE": "NJ", "ZIP": 8853, "ZIP4": "NOT AVAILABLE", "TYPE": "NATURAL GAS COMPRESSOR STATION", "STATUS": "IN SERVICE", "COUNTY": "SOMERSET", "COUNTYFIPS": 34035, "COUNTRY": "USA", "LATITUDE": 40.532538, "LONGITUDE": -74.730111, "NAICS_CODE": 486210, "NAICS_DESC": "BOOSTER PUMPING STATION, NATURAL GAS TRANSPORTATION", "SOURCE": "EPA ENVIROFACTS, FERC FORM 2, CORPORATE WEBSITE", "SOURCEDATE": "7/15/2020 12:00:00 AM", "VAL_METHOD": "IMAGERY/OTHER", "VAL_DATE": "6/20/2022 12:00:00 AM", "WEBSITE": "http://www.1line.williams.com/", "PIPECO": "TRANSCONTINENTAL GAS PIPE LINE COMPANY L.L.C.", "COMPID": 29, "OPERATOR": "TRANSCONTINENTAL GAS PIPE LINE COMPANY L.L.C.", "POSREL": "WITHIN 40 FEET", "NUM_UNITS": 8, "CERT_HP": 16000, "PLANT_COST": 53902905, "EXP_FUEL": 7136, "EXP_OTHER": 1026074, "GAS_COMPRE": 1676, "OP_COMP_HR": 98, "OP_NUM_COM": 8, "OP_DATE_PE": "12/16/2020 12:00:00 AM", "EXP_POWER": 3594, "ELEC_COMPR": 0, "x": -8318917.9034, "y": 4943633.7261}, "geometry": {"type": "Point", "coordinates": [-74.730111, 40.532538]}},
{"type": "Feature", "properties": {"ProjectID": "P0271", "OBJECTID": 1106, "GCOMPID": "GCOMP766", "NAME": "NO. 100 BILLINGSLEY", "ADDRESS": "642 COUNTY ROAD 62; 4521 CHILTON ROAD", "CITY": "BILLINGSLEY", "STATE": "AL", "ZIP": 36006, "ZIP4": "NOT AVAILABLE", "TYPE": "NATURAL GAS COMPRESSOR STATION", "STATUS": "IN SERVICE", "COUNTY": "AUTAUGA", "COUNTYFIPS": 1001, "COUNTRY": "USA", "LATITUDE": 32.670019, "LONGITUDE": -86.720295, "NAICS_CODE": 486210, "NAICS_DESC": "BOOSTER PUMPING STATION, NATURAL GAS TRANSPORTATION", "SOURCE": "EPA ENVIROFACTS, FERC FORM 2, CORPORATE WEBSITE", "SOURCEDATE": "7/15/2020 12:00:00 AM", "VAL_METHOD": "IMAGERY/OTHER", "VAL_DATE": "6/22/2022 12:00:00 AM", "WEBSITE": "http://www.1line.williams.com/", "PIPECO": "TRANSCONTINENTAL GAS PIPE LINE COMPANY L.L.C.", "COMPID": 29, "OPERATOR": "TRANSCONTINENTAL GAS PIPE LINE COMPANY L.L.C.", "POSREL": "WITHIN 40 FEET", "NUM_UNITS": 6, "CERT_HP": 97880, "PLANT_COST": 112871818, "EXP_FUEL": 545390, "EXP_OTHER": 1605622, "GAS_COMPRE": 205562, "OP_COMP_HR": 4575, "OP_NUM_COM": 4, "OP_DATE_PE": "2/2/2021 12:00:00 AM", "EXP_POWER": 4213668, "ELEC_COMPR": 72994212, "x": -9653659.0808, "y": 3851585.9673}, "geometry": {"type": "Point", "coordinates": [-86.720295, 32.670019]}},
{"type": "Feature", "properties": {"ProjectID": "P0271", "OBJECTID": 1109, "GCOMPID": "GCOMP769", "NAME": "NO. 155 LEXINGTON", "ADDRESS": "650 BECKY HILL ROAD", "CITY": "LEXINGTON", "STATE": "NC", "ZIP": 27295, "ZIP4": "NOT AVAILABLE", "TYPE": "NATURAL GAS COMPRESSOR STATION", "STATUS": "IN SERVICE", "COUNTY": "DAVIDSON", "COUNTYFIPS": 37057, "COUNTRY": "USA", "LATITUDE": 35.879781, "LONGITUDE": -80.329941, "NAICS_CODE": 486210, "NAICS_DESC": "BOOSTER PUMPING STATION, NATURAL GAS TRANSPORTATION", "SOURCE": "EPA ENVIROFACTS, FERC FORM 2, CORPORATE WEBSITE", "SOURCEDATE": "5/27/2022 12:00:00 AM", "VAL_METHOD": "IMAGERY/OTHER", "VAL_DATE": "6/20/2022 12:00:00 AM", "WEBSITE": "http://www.1line.williams.com/", "PIPECO": "TRANSCONTINENTAL GAS PIPE LINE COMPANY L.L.C.", "COMPID": 29, "OPERATOR": "TRANSCONTINENTAL GAS PIPE LINE COMPANY L.L.C.", "POSREL": "WITHIN 40 FEET", "NUM_UNITS": 6, "CERT_HP": 22300, "PLANT_COST": 33641684, "EXP_FUEL": 0, "EXP_OTHER": 420609, "GAS_COMPRE": 0, "OP_COMP_HR": 0, "OP_NUM_COM": 0, "OP_DATE_PE": "1/1/2001 12:00:00 AM", "EXP_POWER": 0, "ELEC_COMPR": 0, "x": -8942288.1276, "y": 4284092.0068}, "geometry": {"type": "Point", "coordinates": [-80.329941, 35.879781]}},
{"type": "Feature", "properties": {"ProjectID": "P0271", "OBJECTID": 1110, "GCOMPID": "GCOMP77", "NAME": "NO. 145 GROVER", "ADDRESS": "111 TRANSCO ROAD", "CITY": "GROVER", "STATE": "NC", "ZIP": 28073, "ZIP4": "NOT AVAILABLE", "TYPE": "NATURAL GAS COMPRESSOR STATION", "STATUS": "IN SERVICE", "COUNTY": "CLEVELAND", "COUNTYFIPS": 37045, "COUNTRY": "USA", "LATITUDE": 35.170877, "LONGITUDE": -81.410907, "NAICS_CODE": 486210, "NAICS_DESC": "BOOSTER PUMPING STATION, NATURAL GAS TRANSPORTATION", "SOURCE": "EPA ENVIROFACTS, FERC FORM 2, CORPORATE WEBSITE", "SOURCEDATE": "7/15/2020 12:00:00 AM", "VAL_METHOD": "IMAGERY/OTHER", "VAL_DATE": "6/20/2022 12:00:00 AM", "WEBSITE": "http://www.1line.williams.com/", "PIPECO": "TRANSCONTINENTAL GAS PIPE LINE COMPANY L.L.C.", "COMPID": 29, "OPERATOR": "TRANSCONTINENTAL GAS PIPE LINE COMPANY L.L.C.", "POSREL": "WITHIN 40 FEET", "NUM_UNITS": 3, "CERT_HP": 37500, "PLANT_COST": 40241267, "EXP_FUEL": 1614, "EXP_OTHER": 427925, "GAS_COMPRE": 746, "OP_COMP_HR": 6924, "OP_NUM_COM": 2, "OP_DATE_PE": "2/12/2021 12:00:00 AM", "EXP_POWER": 4517707, "ELEC_COMPR": 64142865, "x": -9062620.7123, "y": 4187126.9606}, "geometry": {"type": "Point", "coordinates": [-81.410907, 35.170877]}},
{"type": "Feature", "properties": {"ProjectID": "P0271", "OBJECTID": 1146, "GCOMPID": "GCOMP801", "NAME": "NO. 120 STOCKBRIDGE", "ADDRESS": "683 VALLEY HILL ROAD", "CITY": "STOCKBRIDGE", "STATE": "GA", "ZIP": 30281, "ZIP4": "NOT AVAILABLE", "TYPE": "NATURAL GAS COMPRESSOR STATION", "STATUS": "IN SERVICE", "COUNTY": "HENRY", "COUNTYFIPS": 13151, "COUNTRY": "USA", "LATITUDE": 33.571159, "LONGITUDE": -84.253475, "NAICS_CODE": 486210, "NAICS_DESC": "BOOSTER PUMPING STATION, NATURAL GAS TRANSPORTATION", "SOURCE": "EPA ENVIROFACTS, FERC FORM 2, CORPORATE WEBSITE", "SOURCEDATE": "7/15/2020 12:00:00 AM", "VAL_METHOD": "IMAGERY/OTHER", "VAL_DATE": "6/20/2022 12:00:00 AM", "WEBSITE": "http://www.1line.williams.com/", "PIPECO": "TRANSCONTINENTAL GAS PIPE LINE COMPANY L.L.C.", "COMPID": 29, "OPERATOR": "TRANSCONTINENTAL GAS PIPE LINE COMPANY L.L.C.", "POSREL": "WITHIN 40 FEET", "NUM_UNITS": 18, "CERT_HP": 71530, "PLANT_COST": 96307139, "EXP_FUEL": 2263129, "EXP_OTHER": 1825356, "GAS_COMPRE": 999419, "OP_COMP_HR": 44679, "OP_NUM_COM": 17, "OP_DATE_PE": "2/3/2021 12:00:00 AM", "EXP_POWER": 1680593, "ELEC_COMPR": 19653691, "x": -9379053.9346, "y": 3971363.4889}, "geometry": {"type": "Point", "coordinates": [-84.253475, 33.571159]}},
{"type": "Feature", "properties": {"ProjectID": "P0271", "OBJECTID": 1173, "GCOMPID": "GCOMP826", "NAME": "OTHER: NO. 240 HACKENSACK MEADOWS", "ADDRESS": "718 PATERSON PLANK ROAD", "CITY": "CARLSTADT", "STATE": "NJ", "ZIP": 7072, "ZIP4": "NOT AVAILABLE", "TYPE": "NATURAL GAS COMPRESSOR STATION", "STATUS": "IN SERVICE", "COUNTY": "BERGEN", "COUNTYFIPS": 34003, "COUNTRY": "USA", "LATITUDE": 40.808564, "LONGITUDE": -74.062388, "NAICS_CODE": 486210, "NAICS_DESC": "BOOSTER PUMPING STATION, NATURAL GAS TRANSPORTATION", "SOURCE": "EPA ENVIROFACTS, FERC FORM 2, CORPORATE WEBSITE", "SOURCEDATE": "7/15/2020 12:00:00 AM", "VAL_METHOD": "IMAGERY/OTHER", "VAL_DATE": "6/20/2022 12:00:00 AM", "WEBSITE": "http://www.1line.williams.com/", "PIPECO": "TRANSCONTINENTAL GAS PIPE LINE COMPANY L.L.C.", "COMPID": 29, "OPERATOR": "TRANSCONTINENTAL GAS PIPE LINE COMPANY L.L.C.", "POSREL": "WITHIN 40 FEET", "NUM_UNITS": 5, "CERT_HP": 4320, "PLANT_COST": 63943522, "EXP_FUEL": 329939, "EXP_OTHER": 4433584, "GAS_COMPRE": 116777, "OP_COMP_HR": 11508, "OP_NUM_COM": 0, "OP_DATE_PE": "5/27/2022 12:00:00 AM", "EXP_POWER": 0, "ELEC_COMPR": 0, "x": -8244587.3191, "y": 4984145.7721}, "geometry": {"type": "Point", "coordinates": [-74.062388, 40.808564]}},
{"type": "Feature", "properties": {"ProjectID": "P0271", "OBJECTID": 1183, "GCOMPID": "GCOMP835", "NAME": "NO. 180 ORANGE", "ADDRESS": "7444 EVERONIA ROAD", "CITY": "UNIONVILLE", "STATE": "VA", "ZIP": 22567, "ZIP4": "NOT AVAILABLE", "TYPE": "NATURAL GAS COMPRESSOR STATION", "STATUS": "IN SERVICE", "COUNTY": "ORANGE", "COUNTYFIPS": 51137, "COUNTRY": "USA", "LATITUDE": 38.301532926, "LONGITUDE": -77.964429752, "NAICS_CODE": 486210, "NAICS_DESC": "BOOSTER PUMPING STATION, NATURAL GAS TRANSPORTATION", "SOURCE": "EPA ENVIROFACTS, FERC FORM 2, CORPORATE WEBSITE", "SOURCEDATE": "7/15/2020 12:00:00 AM", "VAL_METHOD": "IMAGERY/OTHER", "VAL_DATE": "6/20/2022 12:00:00 AM", "WEBSITE": "http://www.1line.williams.com/", "PIPECO": "TRANSCONTINENTAL GAS PIPE LINE COMPANY L.L.C.", "COMPID": 29, "OPERATOR": "TRANSCONTINENTAL GAS PIPE LINE COMPANY L.L.C.", "POSREL": "WITHIN 40 FEET", "NUM_UNITS": 14, "CERT_HP": 34020, "PLANT_COST": 56781433, "EXP_FUEL": 3155438, "EXP_OTHER": 3234180, "GAS_COMPRE": 1436232, "OP_COMP_HR": 77898, "OP_NUM_COM": 12, "OP_DATE_PE": "6/28/2020 12:00:00 AM", "EXP_POWER": 0, "ELEC_COMPR": 0, "x": -8678960.62, "y": 4622110.3129}, "geometry": {"type": "Point", "coordinates": [-77.96443, 38.301533]}},
{"type": "Feature", "properties": {"ProjectID": "P0271", "OBJECTID": 1249, "GCOMPID": "GCOMP895", "NAME": "NO. 63 CONVENT", "ADDRESS": "8797 HELVETIA STREET", "CITY": "CONVENT", "STATE": "LA", "ZIP": 70723, "ZIP4": "NOT AVAILABLE", "TYPE": "NATURAL GAS COMPRESSOR STATION", "STATUS": "IN SERVICE", "COUNTY": "SAINT JAMES PARISH", "COUNTYFIPS": 22093, "COUNTRY": "USA", "LATITUDE": 30.087817, "LONGITUDE": -90.867359, "NAICS_CODE": 486210, "NAICS_DESC": "BOOSTER PUMPING STATION, NATURAL GAS TRANSPORTATION", "SOURCE": "EPA ENVIROFACTS, FERC FORM 2, CORPORATE WEBSITE", "SOURCEDATE": "7/15/2020 12:00:00 AM", "VAL_METHOD": "IMAGERY/OTHER", "VAL_DATE": "6/20/2022 12:00:00 AM", "WEBSITE": "http://www.1line.williams.com/", "PIPECO": "TRANSCONTINENTAL GAS PIPE LINE COMPANY L.L.C.", "COMPID": 29, "OPERATOR": "TRANSCONTINENTAL GAS PIPE LINE COMPANY L.L.C.", "POSREL": "WITHIN 40 FEET", "NUM_UNITS": 8, "CERT_HP": 17960, "PLANT_COST": 15138747, "EXP_FUEL": 27934, "EXP_OTHER": 417944, "GAS_COMPRE": 14169, "OP_COMP_HR": 2587, "OP_NUM_COM": 3, "OP_DATE_PE": "3/3/2021 12:00:00 AM", "EXP_POWER": 0, "ELEC_COMPR": 0, "x": -10115308.134, "y": 3514842.9018}, "geometry": {"type": "Point", "coordinates": [-90.867359, 30.087817]}},
{"type": "Feature", "properties": {"ProjectID": "P0271", "OBJECTID": 1266, "GCOMPID": "GCOMP91", "NAME": "NO. 83 CITRONELLE", "ADDRESS": "11500 BEVERLY JEFFRIES HIGHWAY", "CITY": "CITRONELLE", "STATE": "AL", "ZIP": 36522, "ZIP4": "NOT AVAILABLE", "TYPE": "NATURAL GAS COMPRESSOR STATION", "STATUS": "IN SERVICE", "COUNTY": "MOBILE", "COUNTYFIPS": 1097, "COUNTRY": "USA", "LATITUDE": 31.084024, "LONGITUDE": -88.319371, "NAICS_CODE": 486210, "NAICS_DESC": "BOOSTER PUMPING STATION, NATURAL GAS TRANSPORTATION", "SOURCE": "EPA ENVIROFACTS, FERC FORM 2, CORPORATE WEBSITE", "SOURCEDATE": "7/15/2020 12:00:00 AM", "VAL_METHOD": "IMAGERY/OTHER", "VAL_DATE": "6/20/2022 12:00:00 AM", "WEBSITE": "http://www.1line.williams.com/", "PIPECO": "TRANSCONTINENTAL GAS PIPE LINE COMPANY L.L.C.", "COMPID": 29, "OPERATOR": "TRANSCONTINENTAL GAS PIPE LINE COMPANY L.L.C.", "POSREL": "WITHIN 40 FEET", "NUM_UNITS": 1, "CERT_HP": 16000, "PLANT_COST": 30601148, "EXP_FUEL": 1563217, "EXP_OTHER": 103349, "GAS_COMPRE": 664943, "OP_COMP_HR": 5891, "OP_NUM_COM": 1, "OP_DATE_PE": "11/13/2020 12:00:00 AM", "EXP_POWER": 0, "ELEC_COMPR": 0, "x": -9831667.4069, "y": 3643666.0736}, "geometry": {"type": "Point", "coordinates": [-88.319371, 31.084024]}},
{"type": "Feature", "properties": {"ProjectID": "P0271", "OBJECTID": 1270, "GCOMPID": "GCOMP913", "NAME": "NO. 165 CHATHAM", "ADDRESS": "945 TRANSCO ROAD", "CITY": "CHATHAM", "STATE": "VA", "ZIP": 24531, "ZIP4": "NOT AVAILABLE", "TYPE": "NATURAL GAS COMPRESSOR STATION", "STATUS": "IN SERVICE", "COUNTY": "PITTSYLVANIA", "COUNTYFIPS": 51143, "COUNTRY": "USA", "LATITUDE": 36.832032, "LONGITUDE": -79.337094, "NAICS_CODE": 486210, "NAICS_DESC": "BOOSTER PUMPING STATION, NATURAL GAS TRANSPORTATION", "SOURCE": "EPA ENVIROFACTS, FERC FORM 2, CORPORATE WEBSITE", "SOURCEDATE": "7/15/2020 12:00:00 AM", "VAL_METHOD": "IMAGERY/OTHER", "VAL_DATE": "6/20/2022 12:00:00 AM", "WEBSITE": "http://www.1line.williams.com/", "PIPECO": "TRANSCONTINENTAL GAS PIPE LINE COMPANY L.L.C.", "COMPID": 29, "OPERATOR": "TRANSCONTINENTAL GAS PIPE LINE COMPANY L.L.C.", "POSREL": "WITHIN 40 FEET", "NUM_UNITS": 12, "CERT_HP": 26950, "PLANT_COST": 71617498, "EXP_FUEL": 4406832, "EXP_OTHER": 1966519, "GAS_COMPRE": 1956807, "OP_COMP_HR": 19349, "OP_NUM_COM": 9, "OP_DATE_PE": "8/19/2020 12:00:00 AM", "EXP_POWER": 0, "ELEC_COMPR": 0, "x": -8831764.9051, "y": 4415720.0033}, "geometry": {"type": "Point", "coordinates": [-79.337094, 36.832032]}},
{"type": "Feature", "properties": {"ProjectID": "P0271", "OBJECTID": 1275, "GCOMPID": "GCOMP918", "NAME": "NO. 70 TYLERTOWN", "ADDRESS": "967 HIGHWAY 583 N", "CITY": "TYLERTOWN", "STATE": "MS", "ZIP": 39667, "ZIP4": "NOT AVAILABLE", "TYPE": "NATURAL GAS COMPRESSOR STATION", "STATUS": "IN SERVICE", "COUNTY": "WALTHALL", "COUNTYFIPS": 28147, "COUNTRY": "USA", "LATITUDE": 31.246931, "LONGITUDE": -90.199188, "NAICS_CODE": 486210, "NAICS_DESC": "BOOSTER PUMPING STATION, NATURAL GAS TRANSPORTATION", "SOURCE": "EPA ENVIROFACTS, FERC FORM 2, CORPORATE WEBSITE", "SOURCEDATE": "7/15/2020 12:00:00 AM", "VAL_METHOD": "IMAGERY/OTHER", "VAL_DATE": "6/20/2022 12:00:00 AM", "WEBSITE": "http://www.1line.williams.com/", "PIPECO": "TRANSCONTINENTAL GAS PIPE LINE COMPANY L.L.C.", "COMPID": 29, "OPERATOR": "TRANSCONTINENTAL GAS PIPE LINE COMPANY L.L.C.", "POSREL": "WITHIN 40 FEET", "NUM_UNITS": 6, "CERT_HP": 47390, "PLANT_COST": 44607301, "EXP_FUEL": 983164, "EXP_OTHER": 1353299, "GAS_COMPRE": 306483, "OP_COMP_HR": 2944, "OP_NUM_COM": 3, "OP_DATE_PE": "2/9/2021 12:00:00 AM", "EXP_POWER": 0, "ELEC_COMPR": 0, "x": -10040927.678, "y": 3664859.5276}, "geometry": {"type": "Point", "coordinates": [-90.199188, 31.246931]}}
]
}
