{
"type": "FeatureCollection",
"features": [
{"type": "Feature", "properties": {"ProjectID": "P0276"}, "geometry": {"type": "LineString", "coordinates": [[-97.85289, 27.75445], [-97.798439, 27.718915], [-97.764974, 27.619079], [-97.78723, 27.483522], [-97.77973, 27.34344], [-97.802194, 27.047387], [-97.799763, 26.877852], [-97.777588, 26.757835], [-97.785663, 26.554845], [-97.773414, 26.514279], [-97.620925, 26.221191], [-97.568787, 26.146236], [-97.550131, 26.141464], [-97.543745, 26.076486], [-97.431305, 26.057292], [-97.399333, 25.998575], [-97.321406, 26.000136], [-97.268734, 26.033424], [-97.218175, 26.034494], [-97.159685, 26.059817], [-97.112124, 25.985004], [-96.992104, 25.987868]]}}
]
}
