{
"type": "FeatureCollection",
"features": [
{"type": "Feature", "properties": {"ProjectID": "P0270", "id": null}, "geometry": {"type": "MultiLineString", "coordinates": [[[-108.38942, 38.991567], [-108.389739, 38.989711], [-108.389917, 38.98854], [-108.389936, 38.986834], [-108.39002, 38.984988], [-108.389074, 38.983151], [-108.388005, 38.981304], [-108.387087, 38.979749], [-108.385287, 38.976665], [-108.385278, 38.974725], [-108.385203, 38.973357], [-108.385175, 38.971492], [-108.385156, 38.969608], [-108.385193, 38.967443], [-108.385184, 38.965962], [-108.384116, 38.961248], [-108.369757, 38.951969], [-108.366121, 38.949682], [-108.36091, 38.946346], [-108.356974, 38.943984], [-108.351313, 38.94031], [-108.349139, 38.938736], [-108.348089, 38.936486], [-108.347339, 38.930638], [-108.345202, 38.929926], [-108.342728, 38.928464], [-108.34269, 38.92419], [-108.339991, 38.921303], [-108.344565, 38.919054], [-108.356636, 38.912906], [-108.364172, 38.910919], [-108.365559, 38.909775]]]}},
{"type": "Feature", "properties": {"ProjectID": "P0270", "id": null}, "geometry": {"type": "MultiLineString", "coordinates": [[[-108.365559, 38.909775], [-108.369289, 38.907901], [-108.368839, 38.906645], [-108.367883, 38.905727], [-108.366608, 38.905502], [-108.36584, 38.904096], [-108.363328, 38.901359], [-108.359767, 38.898641], [-108.35778, 38.897198], [-108.356186, 38.89583], [-108.3533, 38.892849], [-108.351125, 38.890637], [-108.349607, 38.889082], [-108.347658, 38.886982], [-108.345221, 38.885295], [-108.343946, 38.884545], [-108.339916, 38.883946], [-108.337939, 38.883768], [-108.335277, 38.883533], [-108.33479, 38.883599], [-108.332981, 38.882455], [-108.330694, 38.878332], [-108.329832, 38.876673], [-108.329288, 38.875914], [-108.328932, 38.875258], [-108.329138, 38.872512], [-108.328098, 38.87134], [-108.325436, 38.870478], [-108.324377, 38.870131], [-108.319579, 38.869906], [-108.31463, 38.869794], [-108.311331, 38.866869], [-108.309607, 38.866007], [-108.30507, 38.864583], [-108.297066, 38.861771], [-108.293233, 38.860449], [-108.290703, 38.859606], [-108.289634, 38.859353], [-108.28477, 38.855632], [-108.280159, 38.852258], [-108.271799, 38.846147], [-108.267938, 38.843036], [-108.250993, 38.830552], [-108.249943, 38.83029], [-108.240458, 38.826803], [-108.219165, 38.818893], [-108.211742, 38.802773], [-108.206268, 38.789877], [-108.199445, 38.789464], [-108.197384, 38.786203], [-108.196109, 38.772857], [-108.196934, 38.76862], [-108.190148, 38.75355], [-108.181301, 38.749539], [-108.16863, 38.74354]]]}},
{"type": "Feature", "properties": {"ProjectID": "P0270", "id": null}, "geometry": {"type": "MultiLineString", "coordinates": [[[-108.076461, 38.533362], [-108.073108, 38.535421], [-108.068534, 38.542244], [-108.074757, 38.550791], [-108.088103, 38.567961], [-108.1004, 38.584456], [-108.110147, 38.597203], [-108.11502, 38.605375], [-108.11757, 38.609274], [-108.119519, 38.610249], [-108.126042, 38.620821], [-108.134665, 38.62217], [-108.137964, 38.626894], [-108.137964, 38.631842], [-108.141413, 38.631917], [-108.142612, 38.637391], [-108.140813, 38.643539], [-108.148236, 38.65501], [-108.153409, 38.663333], [-108.15101, 38.668881], [-108.150185, 38.668881], [-108.15026, 38.671243], [-108.15131, 38.676829], [-108.155059, 38.679228], [-108.163231, 38.678553], [-108.164731, 38.683539], [-108.166155, 38.68875], [-108.166718, 38.68935], [-108.16638, 38.690325], [-108.16713, 38.690925], [-108.16713, 38.691824], [-108.168929, 38.69756], [-108.166118, 38.699285], [-108.166155, 38.702696], [-108.16683, 38.704646], [-108.16773, 38.706145], [-108.168817, 38.706295], [-108.170279, 38.70697], [-108.169792, 38.713418], [-108.168948, 38.71473], [-108.166755, 38.718273], [-108.165799, 38.720522], [-108.164787, 38.722715], [-108.163306, 38.725115], [-108.162669, 38.72712], [-108.162913, 38.730326], [-108.162819, 38.733606], [-108.161563, 38.73488], [-108.165273, 38.737775]]]}},
{"type": "Feature", "properties": {"ProjectID": "P0270", "id": null}, "geometry": {"type": "MultiLineString", "coordinates": [[[-108.165273, 38.737775], [-108.163719, 38.73951], [-108.1622, 38.740373], [-108.161882, 38.741347], [-108.165012, 38.743091], [-108.167617, 38.743315], [-108.16863, 38.74354]]]}},
{"type": "Feature", "properties": {"ProjectID": "P0270", "id": null}, "geometry": {"type": "MultiLineString", "coordinates": [[[-108.076461, 38.533362], [-108.081037, 38.530379], [-108.082668, 38.529479], [-108.084486, 38.528504], [-108.089228, 38.52453], [-108.094008, 38.520538], [-108.098563, 38.517707], [-108.099894, 38.516377], [-108.103418, 38.513115], [-108.106061, 38.510772], [-108.108347, 38.508504], [-108.111778, 38.505242], [-108.112696, 38.502656], [-108.115245, 38.498869], [-108.11697, 38.496564], [-108.119632, 38.494314], [-108.121056, 38.492346], [-108.122275, 38.491203], [-108.122931, 38.491128], [-108.123268, 38.490978], [-108.124674, 38.49094], [-108.126042, 38.490228], [-108.127785, 38.490378], [-108.131534, 38.48886], [-108.133521, 38.487435], [-108.141188, 38.48243], [-108.146586, 38.478794], [-108.147673, 38.477294], [-108.14996, 38.46796], [-108.149773, 38.465598], [-108.151047, 38.462374], [-108.15101, 38.461212], [-108.155883, 38.4578], [-108.158995, 38.453789], [-108.160157, 38.451802], [-108.164806, 38.44869], [-108.164881, 38.443854], [-108.168367, 38.439168], [-108.168067, 38.436956], [-108.168067, 38.435232], [-108.16788, 38.43242], [-108.168611, 38.43153], [-108.169501, 38.430733], [-108.169932, 38.429177], [-108.170101, 38.42854], [-108.169989, 38.427678], [-108.169951, 38.426956], [-108.170242, 38.426047], [-108.170148, 38.425372], [-108.170345, 38.424313], [-108.17027, 38.423648], [-108.170129, 38.422008], [-108.170232, 38.421464], [-108.170991, 38.419946], [-108.172885, 38.418484], [-108.174534, 38.414247], [-108.177683, 38.405213], [-108.179633, 38.402288], [-108.183082, 38.397677], [-108.18773, 38.395765], [-108.187768, 38.386562], [-108.18773, 38.38167], [-108.187805, 38.378989], [-108.187824, 38.373178], [-108.187768, 38.369579], [-108.187843, 38.363975], [-108.187693, 38.360582], [-108.187646, 38.357058], [-108.187215, 38.356215], [-108.186193, 38.354678], [-108.185481, 38.353797], [-108.185078, 38.353112], [-108.183672, 38.347995], [-108.187421, 38.334199], [-108.18937, 38.325502], [-108.209989, 38.304321], [-108.215088, 38.298978], [-108.217056, 38.297629], [-108.223092, 38.293636]]]}},
{"type": "Feature", "properties": {"ProjectID": "P0270", "id": null}, "geometry": {"type": "MultiLineString", "coordinates": [[[-108.223092, 38.293636], [-108.236569, 38.284958], [-108.239643, 38.283027], [-108.241311, 38.281959], [-108.267375, 38.26506], [-108.282371, 38.254713], [-108.296542, 38.245266], [-108.305089, 38.240768], [-108.334255, 38.225097], [-108.336786, 38.221836], [-108.337836, 38.221386], [-108.339485, 38.219774], [-108.339982, 38.218958], [-108.340882, 38.218462], [-108.34464, 38.217131], [-108.345183, 38.217065], [-108.348604, 38.217337], [-108.352541, 38.217], [-108.357227, 38.215163], [-108.362063, 38.213138], [-108.371135, 38.208152], [-108.375484, 38.205753], [-108.394866, 38.194038], [-108.39689, 38.192913], [-108.399664, 38.191638], [-108.410311, 38.188339], [-108.412485, 38.185903], [-108.412823, 38.185303], [-108.41451, 38.184628], [-108.416722, 38.184103], [-108.417996, 38.183878], [-108.420021, 38.181441], [-108.421501, 38.180148], [-108.428699, 38.179098], [-108.439796, 38.177561], [-108.441633, 38.176737], [-108.444707, 38.173737], [-108.445269, 38.173288], [-108.445419, 38.169745], [-108.445326, 38.16624], [-108.445363, 38.163765], [-108.445382, 38.15683], [-108.445382, 38.153531], [-108.445344, 38.148357], [-108.445382, 38.144196], [-108.445344, 38.137561], [-108.445382, 38.135742], [-108.445326, 38.133737], [-108.445269, 38.129294], [-108.445269, 38.125677]]]}},
{"type": "Feature", "properties": {"ProjectID": "P0270", "id": null}, "geometry": {"type": "MultiLineString", "coordinates": [[[-108.445269, 38.125677], [-108.445307, 38.118235], [-108.439046, 38.113811], [-108.433273, 38.109688], [-108.429618, 38.107213], [-108.429393, 38.104214], [-108.428924, 38.100297], [-108.428212, 38.095198], [-108.425494, 38.09323], [-108.421801, 38.090418], [-108.417996, 38.087494], [-108.416703, 38.08637], [-108.416309, 38.086257], [-108.414772, 38.084889], [-108.411923, 38.084823], [-108.411848, 38.08383], [-108.410752, 38.082855], [-108.410283, 38.082311], [-108.409355, 38.082096], [-108.407865, 38.080371], [-108.406684, 38.079247], [-108.404931, 38.078563], [-108.403582, 38.078844], [-108.401492, 38.079369], [-108.400236, 38.079687], [-108.398549, 38.07994], [-108.396018, 38.079987], [-108.394781, 38.079444], [-108.39375, 38.078347], [-108.393225, 38.078253], [-108.391838, 38.078291], [-108.390967, 38.077513], [-108.390676, 38.076126], [-108.390395, 38.075076], [-108.389851, 38.073764], [-108.389533, 38.072977], [-108.388015, 38.071421], [-108.387696, 38.070278], [-108.385559, 38.069228], [-108.38494, 38.068141], [-108.384734, 38.065329], [-108.384865, 38.063942], [-108.383816, 38.061749], [-108.382804, 38.060081], [-108.38286, 38.059031], [-108.382579, 38.058469], [-108.382766, 38.056988], [-108.382766, 38.056257], [-108.383666, 38.054382], [-108.383478, 38.052808], [-108.383029, 38.051777], [-108.382916, 38.050596], [-108.383235, 38.049302], [-108.384134, 38.046116], [-108.384266, 38.04471], [-108.385803, 38.041767], [-108.385859, 38.040942], [-108.385803, 38.040193], [-108.387358, 38.036856], [-108.387209, 38.031758], [-108.387059, 38.026565], [-108.386459, 38.025703], [-108.382897, 38.023773], [-108.382372, 38.021954], [-108.380423, 38.019236], [-108.378174, 38.0162], [-108.377818, 38.015975], [-108.375362, 38.015975], [-108.371182, 38.016012], [-108.368876, 38.01545], [-108.366402, 38.014775], [-108.361529, 38.013351], [-108.356261, 38.010708], [-108.355755, 38.00336], [-108.356524, 38.000736], [-108.356486, 37.999817], [-108.357124, 37.998449], [-108.356543, 37.99142], [-108.35853, 37.987183]]]}},
{"type": "Feature", "properties": {"ProjectID": "P0270", "id": null}, "geometry": {"type": "MultiLineString", "coordinates": [[[-108.38942, 38.991567], [-108.388464, 38.996244], [-108.388211, 38.997715], [-108.386646, 39.000452], [-108.386262, 39.001202], [-108.386159, 39.002467], [-108.386562, 39.002739], [-108.386787, 39.003179], [-108.386599, 39.006412], [-108.386328, 39.007603], [-108.384331, 39.00973], [-108.379814, 39.013085], [-108.37823, 39.013629], [-108.376684, 39.01361], [-108.376074, 39.013788], [-108.374162, 39.01361], [-108.369757, 39.013039], [-108.368052, 39.012889], [-108.359336, 39.015129], [-108.352644, 39.014416], [-108.349607, 39.014154], [-108.342934, 39.012973], [-108.340291, 39.012429], [-108.334443, 39.012073], [-108.331163, 39.013479], [-108.330469, 39.013685], [-108.327732, 39.014135], [-108.320478, 39.017059], [-108.313243, 39.020396], [-108.307976, 39.021614], [-108.305295, 39.02197], [-108.303271, 39.023114], [-108.302315, 39.024313], [-108.300722, 39.025082], [-108.299728, 39.028287], [-108.299072, 39.03153], [-108.295811, 39.035823], [-108.29343, 39.037603], [-108.292886, 39.037903], [-108.292662, 39.038259], [-108.291799, 39.03884], [-108.290675, 39.040021], [-108.287207, 39.043883], [-108.285782, 39.043995], [-108.285951, 39.044989], [-108.284114, 39.045551], [-108.28224, 39.046188], [-108.281452, 39.046357], [-108.278997, 39.047725], [-108.277516, 39.049581], [-108.275304, 39.051062], [-108.277254, 39.051868], [-108.277778, 39.052111], [-108.278003, 39.052468], [-108.279053, 39.052411], [-108.280534, 39.053217], [-108.280496, 39.053967], [-108.280909, 39.054548], [-108.280478, 39.056423], [-108.28074, 39.05736], [-108.281152, 39.057735], [-108.282746, 39.061634], [-108.282333, 39.063358], [-108.280553, 39.065045], [-108.279147, 39.067069], [-108.277385, 39.067107], [-108.275304, 39.070125], [-108.274892, 39.070612], [-108.275398, 39.072393], [-108.275398, 39.073724], [-108.275267, 39.074792], [-108.277329, 39.076648], [-108.277329, 39.07916]]]}},
{"type": "Feature", "properties": {"ProjectID": "P0270", "id": null}, "geometry": {"type": "MultiLineString", "coordinates": [[[-108.248884, 39.473786], [-108.248884, 39.475258], [-108.248818, 39.47568], [-108.248706, 39.476532], [-108.248818, 39.477535], [-108.248931, 39.479063], [-108.249156, 39.481237], [-108.249399, 39.483374], [-108.249559, 39.485277], [-108.249409, 39.485914], [-108.249118, 39.486589], [-108.248734, 39.487554], [-108.247656, 39.490188], [-108.247487, 39.491031], [-108.246944, 39.494649]]]}},
{"type": "Feature", "properties": {"ProjectID": "P0270", "id": null}, "geometry": {"type": "MultiLineString", "coordinates": [[[-108.246944, 39.494649], [-108.242169, 39.5024], [-108.242375, 39.504405], [-108.242187, 39.505736], [-108.242169, 39.507086], [-108.242319, 39.507892], [-108.24245, 39.508492], [-108.242412, 39.508904], [-108.242787, 39.509391], [-108.243068, 39.51061], [-108.245768, 39.513571], [-108.246161, 39.514452], [-108.246405, 39.514902], [-108.246199, 39.51569]]]}},
{"type": "Feature", "properties": {"ProjectID": "P0270", "id": null}, "geometry": {"type": "MultiLineString", "coordinates": [[[-108.246199, 39.51569], [-108.246039, 39.516064], [-108.243265, 39.515624], [-108.240397, 39.515521], [-108.237773, 39.515437], [-108.23678, 39.517377], [-108.235065, 39.518051], [-108.234118, 39.521163], [-108.233968, 39.521875], [-108.233078, 39.522616], [-108.232581, 39.5236], [-108.232169, 39.524387], [-108.232197, 39.526843], [-108.231016, 39.52838], [-108.230725, 39.529654], [-108.230885, 39.530919], [-108.232225, 39.531913], [-108.232993, 39.533441], [-108.231915, 39.535784], [-108.232159, 39.537302], [-108.232937, 39.538333], [-108.2326, 39.539879], [-108.231616, 39.541641], [-108.231475, 39.544134], [-108.232684, 39.546871], [-108.233199, 39.547883], [-108.233752, 39.549908], [-108.234099, 39.551857], [-108.234671, 39.553319], [-108.237333, 39.556131], [-108.23797, 39.558867], [-108.236995, 39.560329], [-108.236395, 39.562354], [-108.237483, 39.563629], [-108.237857, 39.565053], [-108.238757, 39.56674], [-108.238157, 39.567677], [-108.237783, 39.571351], [-108.23722, 39.572851], [-108.236658, 39.57525], [-108.236508, 39.581848], [-108.238457, 39.583423], [-108.239957, 39.58451], [-108.242918, 39.585934], [-108.24738, 39.586234], [-108.247942, 39.586759], [-108.247417, 39.590808], [-108.248017, 39.59212], [-108.248879, 39.592907], [-108.251803, 39.595382], [-108.254015, 39.595719], [-108.256883, 39.595138], [-108.257745, 39.595325], [-108.258833, 39.600011], [-108.258364, 39.602205]]]}},
{"type": "Feature", "properties": {"ProjectID": "P0270", "id": null}, "geometry": {"type": "MultiLineString", "coordinates": [[[-108.258364, 39.602205], [-108.2617, 39.605241], [-108.265149, 39.608915], [-108.266218, 39.61004], [-108.267605, 39.61482], [-108.268786, 39.618456], [-108.269573, 39.621174], [-108.27126, 39.626591], [-108.273659, 39.634014], [-108.273284, 39.636226], [-108.273997, 39.637313], [-108.273622, 39.639112], [-108.271448, 39.641249], [-108.271747, 39.644436], [-108.272122, 39.647247], [-108.270998, 39.648822], [-108.270398, 39.652871], [-108.267736, 39.65647], [-108.269086, 39.665092], [-108.268223, 39.667079], [-108.265112, 39.671803], [-108.262225, 39.68125], [-108.261101, 39.685111], [-108.260463, 39.688973], [-108.258701, 39.69066], [-108.257127, 39.694933]]]}},
{"type": "Feature", "properties": {"ProjectID": "P0270", "id": null}, "geometry": {"type": "MultiLineString", "coordinates": [[[-108.257127, 39.694933], [-108.257619, 39.698628], [-108.259175, 39.706763], [-108.256138, 39.716286], [-108.253964, 39.722846]]]}},
{"type": "Feature", "properties": {"ProjectID": "P0270", "id": null}, "geometry": {"type": "MultiLineString", "coordinates": [[[-108.253964, 39.722846], [-108.252408, 39.727907], [-108.251639, 39.730606], [-108.250196, 39.733193], [-108.249109, 39.738573], [-108.247722, 39.744983], [-108.245997, 39.752106], [-108.244423, 39.758929], [-108.242361, 39.766165], [-108.239887, 39.773287], [-108.239362, 39.773962], [-108.238462, 39.78056], [-108.238481, 39.782097], [-108.239212, 39.78489], [-108.247028, 39.788246], [-108.248228, 39.790214], [-108.25655, 39.79265], [-108.258612, 39.793925], [-108.258687, 39.798311], [-108.260524, 39.805397], [-108.262886, 39.809033], [-108.263673, 39.81102], [-108.264985, 39.812819], [-108.266747, 39.815669], [-108.268322, 39.818743], [-108.269671, 39.823391], [-108.270721, 39.82759], [-108.270796, 39.833888], [-108.271771, 39.836213], [-108.273795, 39.838087], [-108.277094, 39.842061], [-108.280393, 39.842961], [-108.281818, 39.845285], [-108.283317, 39.849034], [-108.281443, 39.855332], [-108.281518, 39.86073], [-108.282793, 39.864704], [-108.286243, 39.866256], [-108.286843, 39.867062], [-108.286955, 39.86948], [-108.289448, 39.871486], [-108.29046, 39.874541], [-108.292372, 39.878308], [-108.296384, 39.882657], [-108.294059, 39.886743], [-108.294172, 39.891992], [-108.29479, 39.892648], [-108.294959, 39.893698], [-108.295428, 39.897709], [-108.296027, 39.89859]]]}},
{"type": "Feature", "properties": {"ProjectID": "P0270", "id": null}, "geometry": {"type": "MultiLineString", "coordinates": [[[-108.248884, 39.473786], [-108.248869, 39.46994], [-108.247276, 39.465647], [-108.246564, 39.460869], [-108.24499, 39.451197], [-108.241691, 39.449922]]]}},
{"type": "Feature", "properties": {"ProjectID": "P0270", "id": null}, "geometry": {"type": "MultiLineString", "coordinates": [[[-108.241691, 39.449922], [-108.245815, 39.442725], [-108.249788, 39.440663], [-108.249976, 39.438301], [-108.2532, 39.430578], [-108.255787, 39.424692], [-108.254849, 39.423343], [-108.257511, 39.421468], [-108.259573, 39.419069], [-108.25946, 39.417045], [-108.258261, 39.413746], [-108.257099, 39.411084], [-108.258448, 39.409809], [-108.260098, 39.405011], [-108.254774, 39.401937], [-108.254549, 39.399687], [-108.255074, 39.396613], [-108.255449, 39.394439], [-108.253275, 39.391665], [-108.250876, 39.39039], [-108.245983, 39.388272], [-108.243115, 39.386154], [-108.243884, 39.383623], [-108.244727, 39.382874], [-108.246508, 39.380081], [-108.248945, 39.378394], [-108.251888, 39.376463], [-108.252197, 39.376229], [-108.252525, 39.374326]]]}},
{"type": "Feature", "properties": {"ProjectID": "P0270", "id": null}, "geometry": {"type": "MultiLineString", "coordinates": [[[-108.252525, 39.374326], [-108.25245, 39.372189], [-108.254193, 39.37069], [-108.258645, 39.366622], [-108.256433, 39.364092], [-108.255027, 39.362367], [-108.252347, 39.359218], [-108.247867, 39.354607], [-108.246236, 39.352245], [-108.243518, 39.34889], [-108.240632, 39.346022], [-108.240894, 39.345235], [-108.238682, 39.343848], [-108.235927, 39.343229], [-108.232534, 39.341804], [-108.233453, 39.339424], [-108.233359, 39.336069], [-108.233396, 39.332395], [-108.233228, 39.329864], [-108.233228, 39.326978], [-108.235646, 39.322029], [-108.238289, 39.320005], [-108.242131, 39.316687], [-108.242694, 39.316162], [-108.239544, 39.310839], [-108.239451, 39.308083], [-108.238139, 39.30694], [-108.237895, 39.306621], [-108.238082, 39.305272], [-108.237857, 39.303678], [-108.237876, 39.301241], [-108.237783, 39.29455]]]}},
{"type": "Feature", "properties": {"ProjectID": "P0270", "id": null}, "geometry": {"type": "MultiLineString", "coordinates": [[[-108.237783, 39.29455], [-108.218785, 39.286949], [-108.211062, 39.282488], [-108.208889, 39.273418]]]}},
{"type": "Feature", "properties": {"ProjectID": "P0270", "id": null}, "geometry": {"type": "MultiLineString", "coordinates": [[[-108.208889, 39.273418], [-108.208508, 39.271709], [-108.20773, 39.270716], [-108.207759, 39.269422], [-108.207121, 39.26775], [-108.205153, 39.267454], [-108.203147, 39.266704], [-108.201385, 39.265074], [-108.19854, 39.264007], [-108.197491, 39.262571], [-108.197491, 39.261156], [-108.197491, 39.259572], [-108.19616, 39.256854], [-108.196123, 39.254549], [-108.195275, 39.253354], [-108.194258, 39.252346], [-108.190753, 39.251287], [-108.180921, 39.243752], [-108.178335, 39.242196], [-108.176188, 39.241793], [-108.17302, 39.240593], [-108.171146, 39.238813], [-108.170668, 39.237904], [-108.167772, 39.236001], [-108.159515, 39.229464], [-108.156886, 39.224413], [-108.155434, 39.219026], [-108.153212, 39.217965], [-108.152794, 39.217091], [-108.152185, 39.216398], [-108.145115, 39.210167], [-108.142733, 39.208113], [-108.139941, 39.206193], [-108.138562, 39.205357], [-108.137653, 39.203548], [-108.136979, 39.20263], [-108.135648, 39.20188], [-108.133389, 39.200024], [-108.132068, 39.198965], [-108.130999, 39.197672], [-108.130718, 39.197091], [-108.130165, 39.196519], [-108.129195, 39.195634], [-108.124496, 39.193859], [-108.12026, 39.191235]]]}},
{"type": "Feature", "properties": {"ProjectID": "P0270", "id": null}, "geometry": {"type": "MultiLineString", "coordinates": [[[-108.277329, 39.07916], [-108.277349, 39.080349], [-108.276505, 39.081492], [-108.27793, 39.082073], [-108.278155, 39.083011], [-108.276655, 39.085635], [-108.276861, 39.087397], [-108.27538, 39.088578], [-108.274087, 39.088165], [-108.273037, 39.089777], [-108.273487, 39.090902], [-108.27405, 39.091221], [-108.274425, 39.09182], [-108.274275, 39.092308], [-108.274181, 39.092833], [-108.2727, 39.093807], [-108.271932, 39.093826], [-108.269832, 39.095232], [-108.267901, 39.094932]]]}},
{"type": "Feature", "properties": {"ProjectID": "P0270", "id": null}, "geometry": {"type": "MultiLineString", "coordinates": [[[-108.267901, 39.094932], [-108.267208, 39.095757], [-108.267058, 39.096413], [-108.265568, 39.097322], [-108.265099, 39.097781], [-108.263937, 39.097931], [-108.262929, 39.098498], [-108.261777, 39.09906], [-108.260268, 39.100982], [-108.259837, 39.102069], [-108.260118, 39.102706], [-108.26113, 39.102856], [-108.261749, 39.103269], [-108.260174, 39.104618], [-108.259593, 39.106211], [-108.258843, 39.107767], [-108.257306, 39.10833], [-108.254176, 39.108836], [-108.252826, 39.110935], [-108.251833, 39.112116], [-108.248646, 39.113334], [-108.244129, 39.11489], [-108.236706, 39.117571], [-108.23425, 39.117571], [-108.232282, 39.117421], [-108.228309, 39.111366], [-108.224372, 39.112809], [-108.220661, 39.113259], [-108.216968, 39.113953], [-108.216031, 39.114178], [-108.215431, 39.114459], [-108.213819, 39.116427], [-108.21202, 39.117158], [-108.209002, 39.117814], [-108.207765, 39.118039], [-108.206752, 39.117983], [-108.205759, 39.117589], [-108.203885, 39.11997], [-108.201017, 39.123906], [-108.202272, 39.127186], [-108.203847, 39.131385], [-108.205197, 39.136053], [-108.205497, 39.136409], [-108.208121, 39.13892], [-108.208027, 39.141039], [-108.207746, 39.1446], [-108.20724, 39.148274], [-108.20634, 39.149305], [-108.205609, 39.154497], [-108.204784, 39.159689], [-108.203959, 39.161639], [-108.203603, 39.163776], [-108.201916, 39.165163], [-108.201541, 39.166606], [-108.200904, 39.167075], [-108.199386, 39.171648], [-108.198167, 39.175397], [-108.19335, 39.176766], [-108.190032, 39.177159], [-108.185552, 39.177403], [-108.180023, 39.176934], [-108.175262, 39.180008], [-108.173837, 39.184657], [-108.170276, 39.185407], [-108.166677, 39.185032], [-108.161053, 39.188406], [-108.157979, 39.188856]]]}},
{"type": "Feature", "properties": {"ProjectID": "P0270", "id": null}, "geometry": {"type": "MultiLineString", "coordinates": [[[-108.12026, 39.191235], [-108.119701, 39.186074], [-108.120188, 39.184856], [-108.12512, 39.186344], [-108.127632, 39.187244], [-108.1293, 39.187862], [-108.131137, 39.188218], [-108.135655, 39.187375], [-108.137623, 39.187225], [-108.139647, 39.188837], [-108.157979, 39.188856]]]}},
{"type": "Feature", "properties": {"ProjectID": "P0270", "id": null}, "geometry": {"type": "MultiLineString", "coordinates": [[[-108.194659, 39.897241], [-108.196232, 39.897934], [-108.198669, 39.898271], [-108.201481, 39.898646], [-108.206429, 39.898571], [-108.208191, 39.898121], [-108.210065, 39.898684], [-108.217976, 39.898421], [-108.224611, 39.898271], [-108.226711, 39.897971], [-108.228023, 39.897259], [-108.230591, 39.897456], [-108.231725, 39.897803], [-108.234302, 39.898496], [-108.237161, 39.898515], [-108.247367, 39.898337], [-108.257667, 39.898196], [-108.269935, 39.898281], [-108.2718, 39.897362], [-108.273169, 39.897775], [-108.27629, 39.898365], [-108.280666, 39.89829], [-108.284172, 39.898215], [-108.287199, 39.898656], [-108.296027, 39.89859]]]}},
{"type": "Feature", "properties": {"ProjectID": "P0270", "id": null}, "geometry": {"type": "MultiLineString", "coordinates": [[[-108.35853, 37.987183], [-108.358704, 37.983738], [-108.35683, 37.979014], [-108.35668, 37.977815], [-108.357355, 37.976165], [-108.357804, 37.974141], [-108.359154, 37.970317], [-108.358929, 37.968517], [-108.359304, 37.958845], [-108.359679, 37.955246], [-108.346033, 37.948798], [-108.337935, 37.945199], [-108.336061, 37.945199], [-108.333512, 37.943625], [-108.331187, 37.94205], [-108.329763, 37.9422], [-108.327064, 37.940176], [-108.325339, 37.939501], [-108.32249, 37.937102], [-108.321965, 37.931329], [-108.321065, 37.929304], [-108.320241, 37.924206], [-108.316492, 37.918807], [-108.323315, 37.913409], [-108.329313, 37.899463], [-108.336724, 37.88237], [-108.340801, 37.8737], [-108.344142, 37.865762], [-108.347872, 37.857271], [-108.349241, 37.855734], [-108.349616, 37.853578], [-108.350389, 37.852004], [-108.351438, 37.851966], [-108.352151, 37.850842], [-108.354156, 37.849605], [-108.353163, 37.846254], [-108.354489, 37.843016], [-108.356392, 37.83847], [-108.358369, 37.834019], [-108.359185, 37.833166], [-108.360169, 37.832332], [-108.362409, 37.827842], [-108.360956, 37.820569], [-108.361256, 37.818151], [-108.362153, 37.811439], [-108.363299, 37.805349], [-108.364325, 37.805321], [-108.365825, 37.805143], [-108.366612, 37.804224], [-108.366846, 37.80145], [-108.365319, 37.799538], [-108.365675, 37.797823], [-108.366293, 37.79682], [-108.366115, 37.795002], [-108.364756, 37.792078], [-108.364756, 37.788929], [-108.365084, 37.786389], [-108.365478, 37.785096], [-108.366097, 37.782228], [-108.366228, 37.779247], [-108.366502, 37.776912], [-108.366631, 37.774439], [-108.36649, 37.772274], [-108.366425, 37.770728], [-108.366022, 37.769191], [-108.366162, 37.767691], [-108.365487, 37.765217], [-108.363332, 37.76293], [-108.363201, 37.760643], [-108.363383, 37.759809], [-108.36328, 37.759317], [-108.363065, 37.75748], [-108.362849, 37.756374], [-108.362127, 37.754959], [-108.362034, 37.754341], [-108.361996, 37.751782], [-108.362277, 37.749795], [-108.362662, 37.749139], [-108.363683, 37.748314], [-108.366186, 37.74718], [-108.369035, 37.745934], [-108.370056, 37.74569], [-108.371284, 37.745531], [-108.372924, 37.745521], [-108.374189, 37.744369], [-108.376645, 37.741697], [-108.378079, 37.740479], [-108.380178, 37.737883], [-108.381704, 37.736799], [-108.384012, 37.735259], [-108.384396, 37.734406], [-108.385839, 37.731575], [-108.387854, 37.727986], [-108.389551, 37.724949], [-108.393262, 37.718548], [-108.396149, 37.713375], [-108.399098, 37.707932], [-108.397255, 37.689419], [-108.395961, 37.687151], [-108.395061, 37.678922], [-108.394687, 37.675136], [-108.394836, 37.672455], [-108.39418, 37.670656], [-108.391819, 37.667713], [-108.392343, 37.666682], [-108.393843, 37.665333], [-108.394607, 37.663728], [-108.394745, 37.662359], [-108.392777, 37.660925], [-108.392674, 37.659313], [-108.394033, 37.658001], [-108.394211, 37.657308], [-108.394375, 37.656497], [-108.394351, 37.653662], [-108.395799, 37.64825], [-108.396399, 37.632205], [-108.396774, 37.612561], [-108.377955, 37.596965], [-108.370982, 37.577621], [-108.347664, 37.569148], [-108.319322, 37.553703], [-108.29263, 37.520713], [-108.275835, 37.498369], [-108.256791, 37.478875], [-108.247943, 37.451583], [-108.235197, 37.431339], [-108.219302, 37.411095], [-108.219527, 37.403672], [-108.218421, 37.400786], [-108.213641, 37.398255], [-108.211528, 37.393785], [-108.211579, 37.392613], [-108.211279, 37.389839], [-108.209695, 37.388714], [-108.208871, 37.387852], [-108.210567, 37.38564], [-108.210314, 37.382772], [-108.210276, 37.380589], [-108.209377, 37.379783], [-108.209489, 37.378546], [-108.208158, 37.375809], [-108.209967, 37.374234], [-108.210023, 37.364253], [-108.210136, 37.356643], [-108.201138, 37.35653], [-108.200576, 37.353719], [-108.202399, 37.351351], [-108.203336, 37.350733]]]}},
{"type": "Feature", "properties": {"ProjectID": "P0270", "id": null}, "geometry": {"type": "MultiLineString", "coordinates": [[[-108.205154, 37.347715], [-108.204367, 37.346009], [-108.20433, 37.344341], [-108.204442, 37.343629], [-108.205379, 37.341361], [-108.204939, 37.340124], [-108.205033, 37.339449], [-108.205501, 37.33884], [-108.206307, 37.338165], [-108.207441, 37.335259], [-108.2082, 37.334978]]]}},
{"type": "Feature", "properties": {"ProjectID": "P0270", "id": null}, "geometry": {"type": "MultiLineString", "coordinates": [[[-108.2082, 37.334978], [-108.208781, 37.333479], [-108.208088, 37.332279], [-108.20402, 37.332466], [-108.198659, 37.330517], [-108.194629, 37.326656], [-108.193711, 37.325531], [-108.19403, 37.323432], [-108.194929, 37.321051], [-108.195267, 37.319551], [-108.195567, 37.317827], [-108.195567, 37.31629], [-108.19566, 37.314003], [-108.195454, 37.310704], [-108.197872, 37.309692], [-108.198435, 37.308117], [-108.198378, 37.306524], [-108.197422, 37.304031], [-108.195998, 37.302232], [-108.193711, 37.300563], [-108.19253, 37.29777], [-108.193823, 37.295409], [-108.193317, 37.293422], [-108.192867, 37.292166], [-108.192511, 37.288998], [-108.192474, 37.28643], [-108.193167, 37.284837], [-108.194386, 37.28225], [-108.192736, 37.281088], [-108.191012, 37.280938], [-108.188687, 37.280488], [-108.187263, 37.279663], [-108.185313, 37.279438], [-108.18014, 37.276139], [-108.176241, 37.275315], [-108.176541, 37.271941], [-108.176916, 37.269691], [-108.175716, 37.266917], [-108.17864, 37.264218], [-108.18014, 37.263843], [-108.182089, 37.263243], [-108.182502, 37.262831], [-108.182539, 37.257582], [-108.182689, 37.249672], [-108.179653, 37.245661], [-108.178116, 37.242812], [-108.176691, 37.238763], [-108.175949, 37.236956]]]}},
{"type": "Feature", "properties": {"ProjectID": "P0270", "id": null}, "geometry": {"type": "MultiLineString", "coordinates": [[[-108.203336, 37.350733], [-108.205051, 37.348184]]]}},
{"type": "Feature", "properties": {"ProjectID": "P0270", "id": null}, "geometry": {"type": "MultiLineString", "coordinates": [[[-108.205154, 37.347715], [-108.205183, 37.347902], [-108.205051, 37.348184]]]}},
{"type": "Feature", "properties": {"ProjectID": "P0270", "id": null}, "geometry": {"type": "MultiLineString", "coordinates": [[[-108.204014, 37.348355], [-108.204783, 37.348583]]]}},
{"type": "Feature", "properties": {"ProjectID": "P0270", "id": null}, "geometry": {"type": "MultiLineString", "coordinates": [[[-108.248884, 39.473857], [-108.248149, 39.47391]]]}},
{"type": "Feature", "properties": {"ProjectID": "P0270", "id": null}, "geometry": {"type": "MultiLineString", "coordinates": [[[-108.175949, 37.236956], [-108.177723, 37.235496], [-108.178622, 37.234453], [-108.17922, 37.233391], [-108.17922, 37.233128], [-108.179565, 37.232701], [-108.18089, 37.231604], [-108.181697, 37.229072], [-108.18158, 37.227711], [-108.181489, 37.226631], [-108.182333, 37.225461], [-108.183222, 37.224563], [-108.183167, 37.223565], [-108.182677, 37.221741], [-108.180826, 37.219708], [-108.180391, 37.218547], [-108.180264, 37.217558], [-108.179347, 37.215326], [-108.17923, 37.215017], [-108.179139, 37.214627], [-108.180064, 37.212749], [-108.179847, 37.211297], [-108.179202, 37.209836], [-108.178975, 37.209056], [-108.178132, 37.207695]]]}},
{"type": "Feature", "properties": {"ProjectID": "P0270", "id": null}, "geometry": {"type": "MultiLineString", "coordinates": [[[-108.178132, 37.207695], [-108.178331, 37.206933], [-108.178767, 37.205899], [-108.17942, 37.204538], [-108.180563, 37.20187], [-108.18108, 37.200881], [-108.181144, 37.199629], [-108.180209, 37.198223], [-108.180246, 37.197669], [-108.179992, 37.19482], [-108.182169, 37.193659], [-108.182677, 37.174641], [-108.182968, 37.168362], [-108.182786, 37.15878], [-108.183059, 37.150233], [-108.182986, 37.144698], [-108.183004, 37.14096], [-108.182841, 37.136496], [-108.182732, 37.131361], [-108.182804, 37.127459], [-108.182768, 37.126261], [-108.182206, 37.125771], [-108.182224, 37.120345], [-108.182006, 37.119819], [-108.182006, 37.118676], [-108.182024, 37.117805], [-108.182405, 37.117424], [-108.182278, 37.112071], [-108.182224, 37.109476], [-108.182659, 37.091655], [-108.182968, 37.090013], [-108.182986, 37.088253], [-108.182895, 37.086338], [-108.182823, 37.084433], [-108.181552, 37.077682]]]}},
{"type": "Feature", "properties": {"ProjectID": "P0270", "id": null}, "geometry": {"type": "MultiLineString", "coordinates": [[[-108.181552, 37.077682], [-108.180572, 37.073182], [-108.179955, 37.070714], [-108.178939, 37.066812], [-108.178377, 37.064871], [-108.177996, 37.063528], [-108.178703, 37.061641], [-108.178776, 37.058882], [-108.179828, 37.05783], [-108.182006, 37.054563], [-108.185127, 37.051297], [-108.185272, 37.048811], [-108.186071, 37.046742], [-108.186089, 37.044582], [-108.186538, 37.041693], [-108.184891, 37.037796]]]}},
{"type": "Feature", "properties": {"ProjectID": "P0270", "id": null}, "geometry": {"type": "MultiLineString", "coordinates": [[[-108.163867, 36.966802], [-108.162669, 36.967546], [-108.156917, 36.974152], [-108.154286, 36.975749], [-108.149223, 36.977781], [-108.148315, 36.978598], [-108.147517, 36.978689], [-108.146628, 36.978253], [-108.144232, 36.978616], [-108.141619, 36.978689], [-108.136121, 36.978616], [-108.130078, 36.97858], [-108.11948, 36.97867], [-108.113709, 36.978834], [-108.112348, 36.978797], [-108.11135, 36.979124], [-108.108937, 36.979106], [-108.099283, 36.978797], [-108.087233, 36.978598], [-108.083749, 36.979396], [-108.078015, 36.980703], [-108.073587, 36.980612], [-108.064604, 36.980612], [-108.061809, 36.981447], [-108.060412, 36.980648], [-108.05994, 36.98058], [-108.059468, 36.984641], [-108.058688, 36.989069]]]}},
{"type": "Feature", "properties": {"ProjectID": "P0270", "id": null}, "geometry": {"type": "MultiLineString", "coordinates": [[[-108.05994, 36.98058], [-108.059541, 36.980122], [-108.058189, 36.978807], [-108.057245, 36.977554], [-108.055903, 36.975876], [-108.055032, 36.974097], [-108.053289, 36.970722], [-108.052346, 36.969416], [-108.051402, 36.966911], [-108.05064, 36.965677], [-108.049987, 36.964625], [-108.049696, 36.962738], [-108.047156, 36.961939], [-108.043926, 36.960995], [-108.04193, 36.960524], [-108.038804, 36.959067], [-108.03762, 36.958564], [-108.036413, 36.957983], [-108.035088, 36.957457], [-108.033491, 36.9541], [-108.033525, 36.952481], [-108.032684, 36.951704], [-108.03204, 36.950579], [-108.031205, 36.949817], [-108.027875, 36.943593], [-108.027548, 36.942359], [-108.026918, 36.941851], [-108.026056, 36.940412], [-108.024917, 36.93828], [-108.024273, 36.937223], [-108.023545, 36.936486], [-108.021871, 36.934072], [-108.019366, 36.930352], [-108.018865, 36.929474], [-108.015961, 36.927678], [-108.014764, 36.926916], [-108.013684, 36.926308], [-108.012196, 36.925346], [-108.011196, 36.925239], [-108.008846, 36.923729], [-108.008349, 36.922397], [-108.007215, 36.921363], [-108.004611, 36.918849], [-108.003957, 36.918214], [-108.001417, 36.917053], [-107.999003, 36.91649], [-107.997933, 36.91591], [-107.996862, 36.91395]]]}},
{"type": "Feature", "properties": {"ProjectID": "P0270", "id": null}, "geometry": {"type": "MultiLineString", "coordinates": [[[-108.058688, 36.989069], [-108.058271, 36.989985], [-108.056583, 36.992036], [-108.05515, 36.993433], [-108.054914, 36.995701], [-108.054841, 36.99904], [-108.054732, 36.999566], [-108.055603, 37.001417], [-108.056783, 37.003486], [-108.058997, 37.007932], [-108.060866, 37.011598], [-108.061936, 37.01334]]]}},
{"type": "Feature", "properties": {"ProjectID": "P0270", "id": null}, "geometry": {"type": "MultiLineString", "coordinates": [[[-108.05515, 36.993433], [-108.054333, 36.994032], [-108.052183, 36.995819], [-108.050522, 36.997289], [-108.049088, 36.998577], [-108.048435, 36.999122], [-108.047464, 36.999548], [-108.046956, 37.00032], [-108.046575, 37.000891], [-108.045241, 37.001889], [-108.044216, 37.002824]]]}},
{"type": "Feature", "properties": {"ProjectID": "P0270", "id": null}, "geometry": {"type": "MultiLineString", "coordinates": [[[-108.044216, 37.002824], [-108.04007, 37.006626], [-108.036077, 37.010328], [-108.032738, 37.013376], [-108.032253, 37.013753], [-108.03159, 37.014433], [-108.031273, 37.014869], [-108.029753, 37.016659], [-108.028374, 37.017466]]]}},
{"type": "Feature", "properties": {"ProjectID": "P0270", "id": null}, "geometry": {"type": "MultiLineString", "coordinates": [[[-108.163867, 36.966802], [-108.165128, 36.966832], [-108.167088, 36.966886], [-108.168222, 36.96685], [-108.169937, 36.966823], [-108.172051, 36.966773], [-108.173458, 36.966773], [-108.175953, 36.966714], [-108.177749, 36.966106], [-108.180145, 36.965453], [-108.180444, 36.965317], [-108.181769, 36.967331], [-108.182622, 36.968574], [-108.183956, 36.970407], [-108.18568, 36.973002], [-108.185988, 36.973419], [-108.187022, 36.973528], [-108.188964, 36.973782], [-108.188765, 36.975343], [-108.190094, 36.976817], [-108.191056, 36.978995], [-108.192471, 36.979049], [-108.193505, 36.979884], [-108.196196, 36.979907], [-108.196178, 36.98075], [-108.196667, 36.981631], [-108.196622, 36.982139], [-108.196087, 36.98262], [-108.19566, 36.983563], [-108.195887, 36.984688], [-108.195996, 36.985832], [-108.196259, 36.987002], [-108.19498, 36.987837], [-108.19537, 36.988508], [-108.195452, 36.989407], [-108.195211, 36.997214], [-108.19503, 37.002604], [-108.195139, 37.006669], [-108.193088, 37.008284], [-108.1916, 37.010316], [-108.190239, 37.01282], [-108.18984, 37.015107], [-108.190203, 37.016649], [-108.18984, 37.02262], [-108.189023, 37.024816], [-108.187862, 37.027156], [-108.185285, 37.028608], [-108.185122, 37.030278], [-108.18465, 37.032092], [-108.184105, 37.034034]]]}},
{"type": "Feature", "properties": {"ProjectID": "P0270", "id": null}, "geometry": {"type": "MultiLineString", "coordinates": [[[-107.996862, 36.91395], [-107.996458, 36.913086], [-107.995986, 36.912414], [-107.995478, 36.911852], [-107.994979, 36.910953], [-107.994435, 36.910209], [-107.993827, 36.909674], [-107.993155, 36.909057], [-107.992584, 36.908585], [-107.991804, 36.90775], [-107.990978, 36.90697], [-107.990207, 36.906353], [-107.989735, 36.905981], [-107.988601, 36.905437], [-107.987231, 36.904847], [-107.98655, 36.904448], [-107.986006, 36.903568], [-107.985543, 36.902415], [-107.984717, 36.900682], [-107.983501, 36.89875], [-107.982939, 36.896536], [-107.982122, 36.89463]]]}},
{"type": "Feature", "properties": {"ProjectID": "P0270", "id": null}, "geometry": {"type": "MultiLineString", "coordinates": [[[-107.982122, 36.89463], [-107.981433, 36.893623], [-107.980938, 36.893219]]]}},
{"type": "Feature", "properties": {"ProjectID": "P0270", "id": null}, "geometry": {"type": "MultiLineString", "coordinates": [[[-107.980938, 36.893219], [-107.975353, 36.887789], [-107.970635, 36.88445], [-107.966364, 36.880662], [-107.965384, 36.879428], [-107.949585, 36.872836], [-107.945658, 36.871788], [-107.941818, 36.868698], [-107.935213, 36.865795], [-107.927881, 36.863327], [-107.924128, 36.861929], [-107.920187, 36.849898], [-107.918191, 36.845543], [-107.916884, 36.843293], [-107.91605, 36.840353], [-107.91565, 36.838865], [-107.915796, 36.834655], [-107.916013, 36.828449], [-107.916159, 36.821517], [-107.915941, 36.820464], [-107.917901, 36.815419], [-107.91957, 36.810012], [-107.921131, 36.805983], [-107.923998, 36.800103], [-107.927228, 36.794369], [-107.928281, 36.7923], [-107.932926, 36.784461], [-107.934523, 36.781557], [-107.93514, 36.779634], [-107.936773, 36.776077], [-107.940693, 36.771504], [-107.947044, 36.764391], [-107.952851, 36.758184], [-107.954702, 36.756188], [-107.95659, 36.75372], [-107.958005, 36.750672], [-107.959239, 36.748458], [-107.960582, 36.745699], [-107.962179, 36.742179], [-107.964102, 36.736517], [-107.964393, 36.734847]]]}},
{"type": "Feature", "properties": {"ProjectID": "P0270", "id": null}, "geometry": {"type": "MultiLineString", "coordinates": [[[-107.924128, 36.861929], [-107.920725, 36.860809], [-107.917655, 36.859657], [-107.91634, 36.860668], [-107.914743, 36.861794], [-107.912384, 36.863717], [-107.910388, 36.865096], [-107.908936, 36.866221], [-107.90821, 36.866657], [-107.902766, 36.868072], [-107.901387, 36.868363]]]}}
]
}
