{
"type": "FeatureCollection",
"features": [
{"type": "Feature", "properties": {"ProjectID": "P0281", "FID": 25078, "TYPEPIPE": "Interstate", "Operator": "WBI Energy Transmission", "Status": "Operating", "Shape_Leng": 0.436257651284}, "geometry": {"type": "LineString", "coordinates": [[-106.67776, 46.309888], [-106.92352, 45.94944]]}},
{"type": "Feature", "properties": {"ProjectID": "P0281", "FID": 26011, "TYPEPIPE": "Interstate", "Operator": "WBI Energy Transmission", "Status": "Operating", "Shape_Leng": 0.157617019183}, "geometry": {"type": "LineString", "coordinates": [[-106.92352, 45.94944], [-107.07456, 45.904384]]}},
{"type": "Feature", "properties": {"ProjectID": "P0281", "FID": 26020, "TYPEPIPE": "Interstate", "Operator": "WBI Energy Transmission", "Status": "Operating", "Shape_Leng": 0.0944460882938}, "geometry": {"type": "LineString", "coordinates": [[-108.691726, 44.874797], [-108.776911, 44.915584]]}},
{"type": "Feature", "properties": {"ProjectID": "P0281", "FID": 26846, "TYPEPIPE": "Interstate", "Operator": "WBI Energy Transmission", "Status": "Operating", "Shape_Leng": 0.0596520256152}, "geometry": {"type": "LineString", "coordinates": [[-108.852544, 44.949952], [-108.847712, 44.890496]]}},
{"type": "Feature", "properties": {"ProjectID": "P0281", "FID": 26847, "TYPEPIPE": "Interstate", "Operator": "WBI Energy Transmission", "Status": "Operating", "Shape_Leng": 0.081327589218}, "geometry": {"type": "LineString", "coordinates": [[-108.868192, 45.02976], [-108.869904, 45.007251], [-108.866218, 44.991845], [-108.852544, 44.949952]]}},
{"type": "Feature", "properties": {"ProjectID": "P0281", "FID": 26848, "TYPEPIPE": "Interstate", "Operator": "WBI Energy Transmission", "Status": "Operating", "Shape_Leng": 0.739621791235}, "geometry": {"type": "LineString", "coordinates": [[-102.90526, 48.404269], [-102.797537, 48.655479], [-102.549671, 48.842349], [-102.579987, 48.995246]]}},
{"type": "Feature", "properties": {"ProjectID": "P0281", "FID": 26851, "TYPEPIPE": "Interstate", "Operator": "WBI Energy Transmission", "Status": "Operating", "Shape_Leng": 1.51097928739}, "geometry": {"type": "LineString", "coordinates": [[-102.90526, 48.404269], [-102.777127, 48.398647], [-102.594146, 48.311569], [-102.18037, 48.29532], [-102.033161, 48.289539], [-101.696718, 48.276327], [-101.418443, 48.230899]]}},
{"type": "Feature", "properties": {"ProjectID": "P0281", "FID": 26854, "TYPEPIPE": "Interstate", "Operator": "WBI Energy Transmission", "Status": "Operating", "Shape_Leng": 0.342119648233}, "geometry": {"type": "LineString", "coordinates": [[-101.222915, 47.939886], [-100.891213, 48.02367]]}},
{"type": "Feature", "properties": {"ProjectID": "P0281", "FID": 26855, "TYPEPIPE": "Interstate", "Operator": "WBI Energy Transmission", "Status": "Operating", "Shape_Leng": 0.269500853891}, "geometry": {"type": "LineString", "coordinates": [[-101.418443, 48.230899], [-101.304832, 48.263518], [-101.304832, 48.414818]]}},
{"type": "Feature", "properties": {"ProjectID": "P0281", "FID": 26857, "TYPEPIPE": "Interstate", "Operator": "WBI Energy Transmission", "Status": "Operating", "Shape_Leng": 0.462909753843}, "geometry": {"type": "LineString", "coordinates": [[-101.418443, 48.230899], [-101.222915, 47.939886], [-101.169152, 47.84128]]}},
{"type": "Feature", "properties": {"ProjectID": "P0281", "FID": 26858, "TYPEPIPE": "Interstate", "Operator": "WBI Energy Transmission", "Status": "Operating", "Shape_Leng": 0.161020540503}, "geometry": {"type": "LineString", "coordinates": [[-101.169152, 47.84128], [-101.062144, 47.72096]]}},
{"type": "Feature", "properties": {"ProjectID": "P0281", "FID": 26859, "TYPEPIPE": "Interstate", "Operator": "WBI Energy Transmission", "Status": "Operating", "Shape_Leng": 0.238741927143}, "geometry": {"type": "LineString", "coordinates": [[-101.062144, 47.72096], [-101.295104, 47.668736]]}},
{"type": "Feature", "properties": {"ProjectID": "P0281", "FID": 26860, "TYPEPIPE": "Interstate", "Operator": "WBI Energy Transmission", "Status": "Operating", "Shape_Leng": 0.237190320477}, "geometry": {"type": "LineString", "coordinates": [[-101.062144, 47.72096], [-100.916736, 47.533568]]}},
{"type": "Feature", "properties": {"ProjectID": "P0281", "FID": 26861, "TYPEPIPE": "Interstate", "Operator": "WBI Energy Transmission", "Status": "Operating", "Shape_Leng": 0.116224}, "geometry": {"type": "LineString", "coordinates": [[-100.916736, 47.533568], [-100.800512, 47.533568]]}},
{"type": "Feature", "properties": {"ProjectID": "P0281", "FID": 26862, "TYPEPIPE": "Interstate", "Operator": "WBI Energy Transmission", "Status": "Operating", "Shape_Leng": 0.151122418191}, "geometry": {"type": "LineString", "coordinates": [[-100.916736, 47.533568], [-100.849152, 47.3984]]}},
{"type": "Feature", "properties": {"ProjectID": "P0281", "FID": 26863, "TYPEPIPE": "Interstate", "Operator": "WBI Energy Transmission", "Status": "Operating", "Shape_Leng": 0.338944}, "geometry": {"type": "LineString", "coordinates": [[-100.849152, 47.3984], [-101.188096, 47.3984]]}},
{"type": "Feature", "properties": {"ProjectID": "P0281", "FID": 26864, "TYPEPIPE": "Interstate", "Operator": "WBI Energy Transmission", "Status": "Operating", "Shape_Leng": 0.245004706045}, "geometry": {"type": "LineString", "coordinates": [[-100.849152, 47.3984], [-100.800512, 47.158272]]}},
{"type": "Feature", "properties": {"ProjectID": "P0281", "FID": 26865, "TYPEPIPE": "Interstate", "Operator": "WBI Energy Transmission", "Status": "Operating", "Shape_Leng": 0.322551872914}, "geometry": {"type": "LineString", "coordinates": [[-100.800512, 47.158272], [-100.738305, 46.86797]]}},
{"type": "Feature", "properties": {"ProjectID": "P0281", "FID": 26866, "TYPEPIPE": "Interstate", "Operator": "WBI Energy Transmission", "Status": "Operating", "Shape_Leng": 0.63031275904}, "geometry": {"type": "LineString", "coordinates": [[-100.738305, 46.86797], [-100.17513, 46.857419]]}},
{"type": "Feature", "properties": {"ProjectID": "P0281", "FID": 26867, "TYPEPIPE": "Interstate", "Operator": "WBI Energy Transmission", "Status": "Operating", "Shape_Leng": 0.659968}, "geometry": {"type": "LineString", "coordinates": [[-100.17513, 46.857419], [-99.921132, 46.871358], [-99.497924, 46.858798]]}},
{"type": "Feature", "properties": {"ProjectID": "P0281", "FID": 26868, "TYPEPIPE": "Interstate", "Operator": "WBI Energy Transmission", "Status": "Operating", "Shape_Leng": 0.27136}, "geometry": {"type": "LineString", "coordinates": [[-99.497924, 46.858798], [-99.171328, 46.835712]]}},
{"type": "Feature", "properties": {"ProjectID": "P0281", "FID": 26869, "TYPEPIPE": "Interstate", "Operator": "WBI Energy Transmission", "Status": "Operating", "Shape_Leng": 0.495104}, "geometry": {"type": "LineString", "coordinates": [[-99.180861, 46.835712], [-99.179051, 46.904896], [-99.171328, 47.330816]]}},
{"type": "Feature", "properties": {"ProjectID": "P0281", "FID": 26870, "TYPEPIPE": "Interstate", "Operator": "WBI Energy Transmission", "Status": "Operating", "Shape_Leng": 0.255488}, "geometry": {"type": "LineString", "coordinates": [[-99.171328, 47.330816], [-99.145893, 47.451375], [-99.141481, 47.578459]]}},
{"type": "Feature", "properties": {"ProjectID": "P0281", "FID": 26871, "TYPEPIPE": "Interstate", "Operator": "WBI Energy Transmission", "Status": "Operating", "Shape_Leng": 0.279914665854}, "geometry": {"type": "LineString", "coordinates": [[-99.141481, 47.578459], [-99.132214, 47.741727], [-99.099561, 47.819389], [-99.083675, 47.867046]]}},
{"type": "Feature", "properties": {"ProjectID": "P0281", "FID": 26872, "TYPEPIPE": "Interstate", "Operator": "WBI Energy Transmission", "Status": "Operating", "Shape_Leng": 0.179922657161}, "geometry": {"type": "LineString", "coordinates": [[-99.083675, 47.867046], [-98.987008, 48.006144]]}},
{"type": "Feature", "properties": {"ProjectID": "P0281", "FID": 26873, "TYPEPIPE": "Interstate", "Operator": "WBI Energy Transmission", "Status": "Operating", "Shape_Leng": 0.232789458455}, "geometry": {"type": "LineString", "coordinates": [[-98.987008, 48.006144], [-98.8032, 48.148992]]}},
{"type": "Feature", "properties": {"ProjectID": "P0281", "FID": 26874, "TYPEPIPE": "Interstate", "Operator": "WBI Energy Transmission", "Status": "Operating", "Shape_Leng": 0.555771931814}, "geometry": {"type": "LineString", "coordinates": [[-98.8032, 48.148992], [-98.415104, 48.546816]]}},
{"type": "Feature", "properties": {"ProjectID": "P0281", "FID": 26875, "TYPEPIPE": "Interstate", "Operator": "WBI Energy Transmission", "Status": "Operating", "Shape_Leng": 0.0959409311608}, "geometry": {"type": "LineString", "coordinates": [[-98.415104, 48.546816], [-98.347008, 48.6144]]}},
{"type": "Feature", "properties": {"ProjectID": "P0281", "FID": 26876, "TYPEPIPE": "Interstate", "Operator": "WBI Energy Transmission", "Status": "Operating", "Shape_Leng": 0.202985239582}, "geometry": {"type": "LineString", "coordinates": [[-98.347008, 48.6144], [-98.33728, 48.817152]]}},
{"type": "Feature", "properties": {"ProjectID": "P0281", "FID": 26877, "TYPEPIPE": "Interstate", "Operator": "WBI Energy Transmission", "Status": "Operating", "Shape_Leng": 0.419705422333}, "geometry": {"type": "LineString", "coordinates": [[-98.347008, 48.6144], [-97.929728, 48.659456]]}},
{"type": "Feature", "properties": {"ProjectID": "P0281", "FID": 26878, "TYPEPIPE": "Interstate", "Operator": "WBI Energy Transmission", "Status": "Operating", "Shape_Leng": 0.107086363651}, "geometry": {"type": "LineString", "coordinates": [[-97.929728, 48.659456], [-97.871872, 48.749568]]}},
{"type": "Feature", "properties": {"ProjectID": "P0281", "FID": 26879, "TYPEPIPE": "Interstate", "Operator": "WBI Energy Transmission", "Status": "Operating", "Shape_Leng": 0.314636393572}, "geometry": {"type": "LineString", "coordinates": [[-97.871872, 48.749568], [-97.5616, 48.801792]]}},
{"type": "Feature", "properties": {"ProjectID": "P0281", "FID": 26880, "TYPEPIPE": "Interstate", "Operator": "WBI Energy Transmission", "Status": "Operating", "Shape_Leng": 0.187644332843}, "geometry": {"type": "LineString", "coordinates": [[-97.871872, 48.749568], [-97.8816, 48.93696]]}},
{"type": "Feature", "properties": {"ProjectID": "P0281", "FID": 26881, "TYPEPIPE": "Interstate", "Operator": "WBI Energy Transmission", "Status": "Operating", "Shape_Leng": 0.168972411665}, "geometry": {"type": "LineString", "coordinates": [[-97.929728, 48.659456], [-97.803776, 48.546816]]}},
{"type": "Feature", "properties": {"ProjectID": "P0281", "FID": 26882, "TYPEPIPE": "Interstate", "Operator": "WBI Energy Transmission", "Status": "Operating", "Shape_Leng": 0.171745284884}, "geometry": {"type": "LineString", "coordinates": [[-97.803776, 48.546816], [-97.649152, 48.472064]]}},
{"type": "Feature", "properties": {"ProjectID": "P0281", "FID": 26883, "TYPEPIPE": "Interstate", "Operator": "WBI Energy Transmission", "Status": "Operating", "Shape_Leng": 0.394441091571}, "geometry": {"type": "LineString", "coordinates": [[-97.649152, 48.472064], [-97.260544, 48.40448]]}},
{"type": "Feature", "properties": {"ProjectID": "P0281", "FID": 26884, "TYPEPIPE": "Interstate", "Operator": "WBI Energy Transmission", "Status": "Operating", "Shape_Leng": 0.737319998917}, "geometry": {"type": "LineString", "coordinates": [[-99.171328, 46.835712], [-99.028495, 46.834224], [-98.849133, 46.832356], [-98.632144, 46.830096], [-98.576116, 46.829512], [-98.51537, 46.828879], [-98.434048, 46.828032]]}},
{"type": "Feature", "properties": {"ProjectID": "P0281", "FID": 26885, "TYPEPIPE": "Interstate", "Operator": "WBI Energy Transmission", "Status": "Operating", "Shape_Leng": 0.457210266481}, "geometry": {"type": "LineString", "coordinates": [[-98.434048, 46.828032], [-98.30902, 46.838287], [-98.07839, 46.857204], [-97.978368, 46.865408]]}},
{"type": "Feature", "properties": {"ProjectID": "P0281", "FID": 26886, "TYPEPIPE": "Interstate", "Operator": "WBI Energy Transmission", "Status": "Operating", "Shape_Leng": 0.154790457407}, "geometry": {"type": "LineString", "coordinates": [[-100.738305, 46.86797], [-100.805076, 46.867573], [-100.880919, 46.8552]]}},
{"type": "Feature", "properties": {"ProjectID": "P0281", "FID": 26887, "TYPEPIPE": "Interstate", "Operator": "WBI Energy Transmission", "Status": "Operating", "Shape_Leng": 0.339968}, "geometry": {"type": "LineString", "coordinates": [[-100.880919, 46.8552], [-101.203863, 46.817097]]}},
{"type": "Feature", "properties": {"ProjectID": "P0281", "FID": 26888, "TYPEPIPE": "Interstate", "Operator": "WBI Energy Transmission", "Status": "Operating", "Shape_Leng": 0.475136}, "geometry": {"type": "LineString", "coordinates": [[-102.09024, 46.835712], [-102.30891, 46.835712], [-102.418486, 46.835712], [-102.565376, 46.835712]]}},
{"type": "Feature", "properties": {"ProjectID": "P0281", "FID": 26889, "TYPEPIPE": "Interstate", "Operator": "WBI Energy Transmission", "Status": "Operating", "Shape_Leng": 0.210432}, "geometry": {"type": "LineString", "coordinates": [[-102.565376, 46.835712], [-102.565376, 46.62528]]}},
{"type": "Feature", "properties": {"ProjectID": "P0281", "FID": 26890, "TYPEPIPE": "Interstate", "Operator": "WBI Energy Transmission", "Status": "Operating", "Shape_Leng": 0.09728}, "geometry": {"type": "LineString", "coordinates": [[-102.565376, 46.62528], [-102.565376, 46.528]]}},
{"type": "Feature", "properties": {"ProjectID": "P0281", "FID": 26891, "TYPEPIPE": "Interstate", "Operator": "WBI Energy Transmission", "Status": "Operating", "Shape_Leng": 0.137984}, "geometry": {"type": "LineString", "coordinates": [[-102.565376, 46.835712], [-102.70336, 46.835712]]}},
{"type": "Feature", "properties": {"ProjectID": "P0281", "FID": 26892, "TYPEPIPE": "Interstate", "Operator": "WBI Energy Transmission", "Status": "Operating", "Shape_Leng": 0.145297084458}, "geometry": {"type": "LineString", "coordinates": [[-103.031296, 46.835712], [-103.002112, 46.978048]]}},
{"type": "Feature", "properties": {"ProjectID": "P0281", "FID": 26893, "TYPEPIPE": "Interstate", "Operator": "WBI Energy Transmission", "Status": "Operating", "Shape_Leng": 0.151207391989}, "geometry": {"type": "LineString", "coordinates": [[-103.002112, 46.978048], [-103.021056, 47.128064]]}},
{"type": "Feature", "properties": {"ProjectID": "P0281", "FID": 26894, "TYPEPIPE": "Interstate", "Operator": "WBI Energy Transmission", "Status": "Operating", "Shape_Leng": 0.194048}, "geometry": {"type": "LineString", "coordinates": [[-103.021056, 47.128064], [-103.215104, 47.128064]]}},
{"type": "Feature", "properties": {"ProjectID": "P0281", "FID": 26895, "TYPEPIPE": "Interstate", "Operator": "WBI Energy Transmission", "Status": "Operating", "Shape_Leng": 0.182571618912}, "geometry": {"type": "LineString", "coordinates": [[-103.021056, 47.128064], [-102.991872, 47.308288]]}},
{"type": "Feature", "properties": {"ProjectID": "P0281", "FID": 26896, "TYPEPIPE": "Interstate", "Operator": "WBI Energy Transmission", "Status": "Operating", "Shape_Leng": 0.256171732231}, "geometry": {"type": "LineString", "coordinates": [[-102.991872, 47.308288], [-102.745335, 47.377883]]}},
{"type": "Feature", "properties": {"ProjectID": "P0281", "FID": 26897, "TYPEPIPE": "Interstate", "Operator": "WBI Energy Transmission", "Status": "Operating", "Shape_Leng": 0.193688321012}, "geometry": {"type": "LineString", "coordinates": [[-103.031296, 46.835712], [-103.134323, 46.831624], [-103.224832, 46.828032]]}},
{"type": "Feature", "properties": {"ProjectID": "P0281", "FID": 26898, "TYPEPIPE": "Interstate", "Operator": "WBI Energy Transmission", "Status": "Operating", "Shape_Leng": 0.109299708911}, "geometry": {"type": "LineString", "coordinates": [[-102.565376, 46.528], [-102.536704, 46.422528]]}},
{"type": "Feature", "properties": {"ProjectID": "P0281", "FID": 26899, "TYPEPIPE": "Interstate", "Operator": "WBI Energy Transmission", "Status": "Operating", "Shape_Leng": 0.205796615094}, "geometry": {"type": "LineString", "coordinates": [[-102.536704, 46.422528], [-102.342144, 46.355456]]}},
{"type": "Feature", "properties": {"ProjectID": "P0281", "FID": 26900, "TYPEPIPE": "Interstate", "Operator": "WBI Energy Transmission", "Status": "Operating", "Shape_Leng": 0.262256475871}, "geometry": {"type": "LineString", "coordinates": [[-102.565376, 46.528], [-102.82752, 46.52032]]}},
{"type": "Feature", "properties": {"ProjectID": "P0281", "FID": 26901, "TYPEPIPE": "Interstate", "Operator": "WBI Energy Transmission", "Status": "Operating", "Shape_Leng": 0.2176}, "geometry": {"type": "LineString", "coordinates": [[-103.935878, 45.20542], [-103.933237, 44.990224]]}},
{"type": "Feature", "properties": {"ProjectID": "P0281", "FID": 26902, "TYPEPIPE": "Interstate", "Operator": "WBI Energy Transmission", "Status": "Operating", "Shape_Leng": 0.131359684287}, "geometry": {"type": "LineString", "coordinates": [[-103.855104, 44.711424], [-103.78752, 44.598784]]}},
{"type": "Feature", "properties": {"ProjectID": "P0281", "FID": 26903, "TYPEPIPE": "Interstate", "Operator": "WBI Energy Transmission", "Status": "Operating", "Shape_Leng": 0.166116188735}, "geometry": {"type": "LineString", "coordinates": [[-103.78752, 44.598784], [-103.681024, 44.471296]]}},
{"type": "Feature", "properties": {"ProjectID": "P0281", "FID": 26904, "TYPEPIPE": "Interstate", "Operator": "WBI Energy Transmission", "Status": "Operating", "Shape_Leng": 0.142760804929}, "geometry": {"type": "LineString", "coordinates": [[-103.681024, 44.471296], [-103.777792, 44.366336]]}},
{"type": "Feature", "properties": {"ProjectID": "P0281", "FID": 26905, "TYPEPIPE": "Interstate", "Operator": "WBI Energy Transmission", "Status": "Operating", "Shape_Leng": 0.130531887169}, "geometry": {"type": "LineString", "coordinates": [[-103.681024, 44.471296], [-103.574016, 44.396544]]}},
{"type": "Feature", "properties": {"ProjectID": "P0281", "FID": 26906, "TYPEPIPE": "Interstate", "Operator": "WBI Energy Transmission", "Status": "Operating", "Shape_Leng": 0.379848103705}, "geometry": {"type": "LineString", "coordinates": [[-103.574016, 44.396544], [-103.292928, 44.141056]]}},
{"type": "Feature", "properties": {"ProjectID": "P0281", "FID": 26907, "TYPEPIPE": "Interstate", "Operator": "WBI Energy Transmission", "Status": "Operating", "Shape_Leng": 0.0539546950691}, "geometry": {"type": "LineString", "coordinates": [[-103.292928, 44.141056], [-103.254016, 44.10368]]}},
{"type": "Feature", "properties": {"ProjectID": "P0281", "FID": 26908, "TYPEPIPE": "Interstate", "Operator": "WBI Energy Transmission", "Status": "Operating", "Shape_Leng": 0.165531270762}, "geometry": {"type": "LineString", "coordinates": [[-103.254016, 44.10368], [-103.089152, 44.088832]]}},
{"type": "Feature", "properties": {"ProjectID": "P0281", "FID": 26909, "TYPEPIPE": "Interstate", "Operator": "WBI Energy Transmission", "Status": "Operating", "Shape_Leng": 0.0799739481206}, "geometry": {"type": "LineString", "coordinates": [[-103.933237, 44.990224], [-103.941543, 44.922595]]}},
{"type": "Feature", "properties": {"ProjectID": "P0281", "FID": 26910, "TYPEPIPE": "Interstate", "Operator": "WBI Energy Transmission", "Status": "Operating", "Shape_Leng": 0.228177325696}, "geometry": {"type": "LineString", "coordinates": [[-103.941543, 44.922595], [-103.855104, 44.711424]]}},
{"type": "Feature", "properties": {"ProjectID": "P0281", "FID": 26911, "TYPEPIPE": "Interstate", "Operator": "WBI Energy Transmission", "Status": "Operating", "Shape_Leng": 0.116948188981}, "geometry": {"type": "LineString", "coordinates": [[-103.941543, 44.922595], [-104.049152, 44.8768]]}},
{"type": "Feature", "properties": {"ProjectID": "P0281", "FID": 26912, "TYPEPIPE": "Interstate", "Operator": "WBI Energy Transmission", "Status": "Operating", "Shape_Leng": 0.176066221724}, "geometry": {"type": "LineString", "coordinates": [[-104.049152, 44.8768], [-104.214528, 44.816384]]}},
{"type": "Feature", "properties": {"ProjectID": "P0281", "FID": 26913, "TYPEPIPE": "Interstate", "Operator": "WBI Energy Transmission", "Status": "Operating", "Shape_Leng": 0.0805273626043}, "geometry": {"type": "LineString", "coordinates": [[-103.933237, 44.990224], [-104.049152, 44.97408]]}},
{"type": "Feature", "properties": {"ProjectID": "P0281", "FID": 26914, "TYPEPIPE": "Interstate", "Operator": "WBI Energy Transmission", "Status": "Operating", "Shape_Leng": 0.223232}, "geometry": {"type": "LineString", "coordinates": [[-104.049152, 44.97408], [-104.272384, 44.97408]]}},
{"type": "Feature", "properties": {"ProjectID": "P0281", "FID": 26915, "TYPEPIPE": "Interstate", "Operator": "WBI Energy Transmission", "Status": "Operating", "Shape_Leng": 0.0805273626042}, "geometry": {"type": "LineString", "coordinates": [[-104.272384, 44.97408], [-104.349696, 44.996608]]}},
{"type": "Feature", "properties": {"ProjectID": "P0281", "FID": 26916, "TYPEPIPE": "Interstate", "Operator": "WBI Energy Transmission", "Status": "Operating", "Shape_Leng": 0.700932487933}, "geometry": {"type": "LineString", "coordinates": [[-104.349696, 44.996608], [-104.585333, 45.01682], [-105.048064, 45.056512]]}},
{"type": "Feature", "properties": {"ProjectID": "P0281", "FID": 26917, "TYPEPIPE": "Interstate", "Operator": "WBI Energy Transmission", "Status": "Operating", "Shape_Leng": 0.059533073833}, "geometry": {"type": "LineString", "coordinates": [[-105.048064, 45.056512], [-105.086976, 45.101568]]}},
{"type": "Feature", "properties": {"ProjectID": "P0281", "FID": 26918, "TYPEPIPE": "Interstate", "Operator": "WBI Energy Transmission", "Status": "Operating", "Shape_Leng": 0.175409884875}, "geometry": {"type": "LineString", "coordinates": [[-105.048064, 45.056512], [-105.212928, 44.996608]]}},
{"type": "Feature", "properties": {"ProjectID": "P0281", "FID": 26919, "TYPEPIPE": "Interstate", "Operator": "WBI Energy Transmission", "Status": "Operating", "Shape_Leng": 0.325164746535}, "geometry": {"type": "LineString", "coordinates": [[-105.212928, 44.996608], [-105.520501, 44.900174], [-105.5232, 44.899328]]}},
{"type": "Feature", "properties": {"ProjectID": "P0281", "FID": 26920, "TYPEPIPE": "Interstate", "Operator": "WBI Energy Transmission", "Status": "Operating", "Shape_Leng": 0.587458367138}, "geometry": {"type": "LineString", "coordinates": [[-106.072576, 45.867008], [-105.486848, 45.821952]]}},
{"type": "Feature", "properties": {"ProjectID": "P0281", "FID": 26921, "TYPEPIPE": "Interstate", "Operator": "WBI Energy Transmission", "Status": "Operating", "Shape_Leng": 0.464901920667}, "geometry": {"type": "LineString", "coordinates": [[-107.07456, 45.904384], [-107.515147, 45.750454]]}},
{"type": "Feature", "properties": {"ProjectID": "P0281", "FID": 26922, "TYPEPIPE": "Interstate", "Operator": "WBI Energy Transmission", "Status": "Operating", "Shape_Leng": 0.143581086665}, "geometry": {"type": "LineString", "coordinates": [[-107.515147, 45.750454], [-107.4432, 45.612032]]}},
{"type": "Feature", "properties": {"ProjectID": "P0281", "FID": 26923, "TYPEPIPE": "Interstate", "Operator": "WBI Energy Transmission", "Status": "Operating", "Shape_Leng": 0.0787366378378}, "geometry": {"type": "LineString", "coordinates": [[-107.515147, 45.750454], [-107.545476, 45.738978], [-107.585601, 45.720293]]}},
{"type": "Feature", "properties": {"ProjectID": "P0281", "FID": 26924, "TYPEPIPE": "Interstate", "Operator": "WBI Energy Transmission", "Status": "Operating", "Shape_Leng": 0.363565428147}, "geometry": {"type": "LineString", "coordinates": [[-108.076544, 45.596672], [-108.417024, 45.469184]]}},
{"type": "Feature", "properties": {"ProjectID": "P0281", "FID": 26925, "TYPEPIPE": "Interstate", "Operator": "WBI Energy Transmission", "Status": "Operating", "Shape_Leng": 0.329785634714}, "geometry": {"type": "LineString", "coordinates": [[-108.417024, 45.469184], [-108.634624, 45.221376]]}},
{"type": "Feature", "properties": {"ProjectID": "P0281", "FID": 26926, "TYPEPIPE": "Interstate", "Operator": "WBI Energy Transmission", "Status": "Operating", "Shape_Leng": 0.195820422551}, "geometry": {"type": "LineString", "coordinates": [[-108.634624, 45.221376], [-108.577792, 45.033984]]}},
{"type": "Feature", "properties": {"ProjectID": "P0281", "FID": 26927, "TYPEPIPE": "Interstate", "Operator": "WBI Energy Transmission", "Status": "Operating", "Shape_Leng": 0.290430718375}, "geometry": {"type": "LineString", "coordinates": [[-108.577792, 45.033984], [-108.868192, 45.02976]]}},
{"type": "Feature", "properties": {"ProjectID": "P0281", "FID": 26928, "TYPEPIPE": "Interstate", "Operator": "WBI Energy Transmission", "Status": "Operating", "Shape_Leng": 0.01264}, "geometry": {"type": "LineString", "coordinates": [[-108.868192, 45.02976], [-108.880832, 45.02976]]}},
{"type": "Feature", "properties": {"ProjectID": "P0281", "FID": 26929, "TYPEPIPE": "Interstate", "Operator": "WBI Energy Transmission", "Status": "Operating", "Shape_Leng": 0.0621974847482}, "geometry": {"type": "LineString", "coordinates": [[-108.852544, 44.949952], [-108.889474, 44.999999]]}},
{"type": "Feature", "properties": {"ProjectID": "P0281", "FID": 26930, "TYPEPIPE": "Interstate", "Operator": "WBI Energy Transmission", "Status": "Operating", "Shape_Leng": 0.541871638823}, "geometry": {"type": "LineString", "coordinates": [[-108.964864, 45.109248], [-108.957572, 45.132802], [-108.884004, 45.370428], [-108.804608, 45.62688]]}},
{"type": "Feature", "properties": {"ProjectID": "P0281", "FID": 26931, "TYPEPIPE": "Interstate", "Operator": "WBI Energy Transmission", "Status": "Operating", "Shape_Leng": 0.0645201264723}, "geometry": {"type": "LineString", "coordinates": [[-108.804608, 45.62688], [-108.76672, 45.679104]]}},
{"type": "Feature", "properties": {"ProjectID": "P0281", "FID": 26932, "TYPEPIPE": "Interstate", "Operator": "WBI Energy Transmission", "Status": "Operating", "Shape_Leng": 0.176743853528}, "geometry": {"type": "LineString", "coordinates": [[-108.76672, 45.679104], [-108.908544, 45.784576]]}},
{"type": "Feature", "properties": {"ProjectID": "P0281", "FID": 26933, "TYPEPIPE": "Interstate", "Operator": "WBI Energy Transmission", "Status": "Operating", "Shape_Leng": 0.151967430616}, "geometry": {"type": "LineString", "coordinates": [[-108.908544, 45.784576], [-109.030912, 45.874688]]}},
{"type": "Feature", "properties": {"ProjectID": "P0281", "FID": 26934, "TYPEPIPE": "Interstate", "Operator": "WBI Energy Transmission", "Status": "Operating", "Shape_Leng": 0.35812487726}, "geometry": {"type": "LineString", "coordinates": [[-108.76672, 45.679104], [-108.611495, 45.755233], [-108.445184, 45.8368]]}},
{"type": "Feature", "properties": {"ProjectID": "P0281", "FID": 26935, "TYPEPIPE": "Interstate", "Operator": "WBI Energy Transmission", "Status": "Operating", "Shape_Leng": 0.164586095938}, "geometry": {"type": "LineString", "coordinates": [[-108.547856, 44.999288], [-108.407296, 44.913664]]}},
{"type": "Feature", "properties": {"ProjectID": "P0281", "FID": 26936, "TYPEPIPE": "Interstate", "Operator": "WBI Energy Transmission", "Status": "Operating", "Shape_Leng": 0.0458255006738}, "geometry": {"type": "LineString", "coordinates": [[-108.577792, 45.033984], [-108.547856, 44.999288]]}},
{"type": "Feature", "properties": {"ProjectID": "P0281", "FID": 26937, "TYPEPIPE": "Interstate", "Operator": "WBI Energy Transmission", "Status": "Operating", "Shape_Leng": 0.123072915233}, "geometry": {"type": "LineString", "coordinates": [[-108.407296, 44.913664], [-108.407741, 44.836409], [-108.379136, 44.793856]]}},
{"type": "Feature", "properties": {"ProjectID": "P0281", "FID": 26938, "TYPEPIPE": "Interstate", "Operator": "WBI Energy Transmission", "Status": "Operating", "Shape_Leng": 0.198656}, "geometry": {"type": "LineString", "coordinates": [[-108.379136, 44.793856], [-108.536666, 44.793856], [-108.577792, 44.793856]]}},
{"type": "Feature", "properties": {"ProjectID": "P0281", "FID": 26939, "TYPEPIPE": "Interstate", "Operator": "WBI Energy Transmission", "Status": "Operating", "Shape_Leng": 0.132736566561}, "geometry": {"type": "LineString", "coordinates": [[-108.889474, 44.999999], [-108.89424, 45.006906], [-108.964864, 45.109248]]}},
{"type": "Feature", "properties": {"ProjectID": "P0281", "FID": 26940, "TYPEPIPE": "Interstate", "Operator": "WBI Energy Transmission", "Status": "Operating", "Shape_Leng": 0.180401367268}, "geometry": {"type": "LineString", "coordinates": [[-108.577792, 44.793856], [-108.747776, 44.73344]]}},
{"type": "Feature", "properties": {"ProjectID": "P0281", "FID": 26941, "TYPEPIPE": "Interstate", "Operator": "WBI Energy Transmission", "Status": "Operating", "Shape_Leng": 0.782681892134}, "geometry": {"type": "LineString", "coordinates": [[-108.379136, 44.793856], [-108.229286, 44.589862], [-108.19598, 44.544521], [-108.186587, 44.531735], [-107.915776, 44.163072]]}},
{"type": "Feature", "properties": {"ProjectID": "P0281", "FID": 26942, "TYPEPIPE": "Interstate", "Operator": "WBI Energy Transmission", "Status": "Operating", "Shape_Leng": 0.4352}, "geometry": {"type": "LineString", "coordinates": [[-107.915776, 44.163072], [-107.907299, 44.127598], [-107.905618, 44.083459], [-107.915776, 43.727872]]}},
{"type": "Feature", "properties": {"ProjectID": "P0281", "FID": 26943, "TYPEPIPE": "Interstate", "Operator": "WBI Energy Transmission", "Status": "Operating", "Shape_Leng": 0.067584}, "geometry": {"type": "LineString", "coordinates": [[-107.915776, 43.727872], [-107.915776, 43.660288]]}},
{"type": "Feature", "properties": {"ProjectID": "P0281", "FID": 26944, "TYPEPIPE": "Interstate", "Operator": "WBI Energy Transmission", "Status": "Operating", "Shape_Leng": 0.160327958286}, "geometry": {"type": "LineString", "coordinates": [[-107.915776, 43.660288], [-108.048384, 43.7504]]}},
{"type": "Feature", "properties": {"ProjectID": "P0281", "FID": 26945, "TYPEPIPE": "Interstate", "Operator": "WBI Energy Transmission", "Status": "Operating", "Shape_Leng": 0.12288}, "geometry": {"type": "LineString", "coordinates": [[-108.048384, 43.7504], [-108.171264, 43.7504]]}},
{"type": "Feature", "properties": {"ProjectID": "P0281", "FID": 26946, "TYPEPIPE": "Interstate", "Operator": "WBI Energy Transmission", "Status": "Operating", "Shape_Leng": 0.225956801535}, "geometry": {"type": "LineString", "coordinates": [[-107.915776, 43.660288], [-107.802624, 43.464704]]}},
{"type": "Feature", "properties": {"ProjectID": "P0281", "FID": 26947, "TYPEPIPE": "Interstate", "Operator": "WBI Energy Transmission", "Status": "Operating", "Shape_Leng": 0.090112}, "geometry": {"type": "LineString", "coordinates": [[-107.802624, 43.464704], [-107.802624, 43.374592]]}},
{"type": "Feature", "properties": {"ProjectID": "P0281", "FID": 26948, "TYPEPIPE": "Interstate", "Operator": "WBI Energy Transmission", "Status": "Operating", "Shape_Leng": 0.0989167569222}, "geometry": {"type": "LineString", "coordinates": [[-107.802624, 43.374592], [-107.72992, 43.30752]]}},
{"type": "Feature", "properties": {"ProjectID": "P0281", "FID": 26949, "TYPEPIPE": "Interstate", "Operator": "WBI Energy Transmission", "Status": "Operating", "Shape_Leng": 0.290088554976}, "geometry": {"type": "LineString", "coordinates": [[-107.802624, 43.374592], [-108.066816, 43.254784]]}},
{"type": "Feature", "properties": {"ProjectID": "P0281", "FID": 26950, "TYPEPIPE": "Interstate", "Operator": "WBI Energy Transmission", "Status": "Operating", "Shape_Leng": 0.293383148255}, "geometry": {"type": "LineString", "coordinates": [[-108.066816, 43.254784], [-108.285952, 43.059712]]}},
{"type": "Feature", "properties": {"ProjectID": "P0281", "FID": 26951, "TYPEPIPE": "Interstate", "Operator": "WBI Energy Transmission", "Status": "Operating", "Shape_Leng": 0.295507398973}, "geometry": {"type": "LineString", "coordinates": [[-108.285952, 43.059712], [-108.55936, 43.17184]]}},
{"type": "Feature", "properties": {"ProjectID": "P0281", "FID": 26952, "TYPEPIPE": "Interstate", "Operator": "WBI Energy Transmission", "Status": "Operating", "Shape_Leng": 0.215805418727}, "geometry": {"type": "LineString", "coordinates": [[-108.285952, 43.059712], [-108.441088, 42.909696]]}},
{"type": "Feature", "properties": {"ProjectID": "P0281", "FID": 26953, "TYPEPIPE": "Interstate", "Operator": "WBI Energy Transmission", "Status": "Operating", "Shape_Leng": 0.194889825696}, "geometry": {"type": "LineString", "coordinates": [[-108.441088, 42.909696], [-108.286976, 42.7904]]}},
{"type": "Feature", "properties": {"ProjectID": "P0281", "FID": 26954, "TYPEPIPE": "Interstate", "Operator": "WBI Energy Transmission", "Status": "Operating", "Shape_Leng": 0.364127402407}, "geometry": {"type": "LineString", "coordinates": [[-107.87328, 48.381952], [-107.706428, 48.474573], [-107.54735, 48.450409]]}},
{"type": "Feature", "properties": {"ProjectID": "P0281", "FID": 26955, "TYPEPIPE": "Interstate", "Operator": "WBI Energy Transmission", "Status": "Operating", "Shape_Leng": 0.128365403583}, "geometry": {"type": "LineString", "coordinates": [[-107.54735, 48.450409], [-107.469825, 48.423225], [-107.382231, 48.420204]]}},
{"type": "Feature", "properties": {"ProjectID": "P0281", "FID": 26956, "TYPEPIPE": "Interstate", "Operator": "WBI Energy Transmission", "Status": "Operating", "Shape_Leng": 0.074516011058}, "geometry": {"type": "LineString", "coordinates": [[-107.303699, 48.430273], [-107.247278, 48.443467]]}},
{"type": "Feature", "properties": {"ProjectID": "P0281", "FID": 26957, "TYPEPIPE": "Interstate", "Operator": "WBI Energy Transmission", "Status": "Operating", "Shape_Leng": 0.253142451596}, "geometry": {"type": "LineString", "coordinates": [[-106.918469, 48.342206], [-106.507264, 48.40448]]}},
{"type": "Feature", "properties": {"ProjectID": "P0281", "FID": 26958, "TYPEPIPE": "Interstate", "Operator": "WBI Energy Transmission", "Status": "Operating", "Shape_Leng": 0.386551862166}, "geometry": {"type": "LineString", "coordinates": [[-106.918469, 48.342206], [-106.751961, 48.118158], [-106.602951, 48.041639], [-106.431726, 48.061698]]}},
{"type": "Feature", "properties": {"ProjectID": "P0281", "FID": 26959, "TYPEPIPE": "Interstate", "Operator": "WBI Energy Transmission", "Status": "Operating", "Shape_Leng": 0.562906221561}, "geometry": {"type": "LineString", "coordinates": [[-106.431726, 48.061698], [-106.139812, 48.055735], [-105.855888, 48.055735]]}},
{"type": "Feature", "properties": {"ProjectID": "P0281", "FID": 26960, "TYPEPIPE": "Interstate", "Operator": "WBI Energy Transmission", "Status": "Operating", "Shape_Leng": 0.330598998668}, "geometry": {"type": "LineString", "coordinates": [[-105.855888, 48.055735], [-105.678688, 48.067817], [-105.519616, 48.134144]]}},
{"type": "Feature", "properties": {"ProjectID": "P0281", "FID": 26961, "TYPEPIPE": "Interstate", "Operator": "WBI Energy Transmission", "Status": "Operating", "Shape_Leng": 0.0546786276346}, "geometry": {"type": "LineString", "coordinates": [[-105.519616, 48.134144], [-105.480192, 48.096256]]}},
{"type": "Feature", "properties": {"ProjectID": "P0281", "FID": 26962, "TYPEPIPE": "Interstate", "Operator": "WBI Energy Transmission", "Status": "Operating", "Shape_Leng": 0.230310463718}, "geometry": {"type": "LineString", "coordinates": [[-105.480192, 48.096256], [-105.372903, 47.896652]]}},
{"type": "Feature", "properties": {"ProjectID": "P0281", "FID": 26963, "TYPEPIPE": "Interstate", "Operator": "WBI Energy Transmission", "Status": "Operating", "Shape_Leng": 0.178264989272}, "geometry": {"type": "LineString", "coordinates": [[-105.247264, 47.805539], [-105.112576, 47.698432]]}},
{"type": "Feature", "properties": {"ProjectID": "P0281", "FID": 26964, "TYPEPIPE": "Interstate", "Operator": "WBI Energy Transmission", "Status": "Operating", "Shape_Leng": 0.208697631304}, "geometry": {"type": "LineString", "coordinates": [[-105.519616, 48.134144], [-105.3263, 48.13024]]}},
{"type": "Feature", "properties": {"ProjectID": "P0281", "FID": 26965, "TYPEPIPE": "Interstate", "Operator": "WBI Energy Transmission", "Status": "Operating", "Shape_Leng": 0.701646264564}, "geometry": {"type": "LineString", "coordinates": [[-105.112576, 47.698432], [-104.610779, 47.270905], [-104.587355, 47.24834]]}},
{"type": "Feature", "properties": {"ProjectID": "P0281", "FID": 26966, "TYPEPIPE": "Interstate", "Operator": "WBI Energy Transmission", "Status": "Operating", "Shape_Leng": 0.13426705806}, "geometry": {"type": "LineString", "coordinates": [[-104.574802, 47.258616], [-104.444416, 47.361024]]}},
{"type": "Feature", "properties": {"ProjectID": "P0281", "FID": 26967, "TYPEPIPE": "Interstate", "Operator": "WBI Energy Transmission", "Status": "Operating", "Shape_Leng": 0.451286686708}, "geometry": {"type": "LineString", "coordinates": [[-104.444416, 47.361024], [-104.1536, 47.706112]]}},
{"type": "Feature", "properties": {"ProjectID": "P0281", "FID": 26968, "TYPEPIPE": "Interstate", "Operator": "WBI Energy Transmission", "Status": "Operating", "Shape_Leng": 0.140976946984}, "geometry": {"type": "LineString", "coordinates": [[-104.1536, 47.706112], [-104.046471, 47.691768], [-104.01387, 47.687403]]}},
{"type": "Feature", "properties": {"ProjectID": "P0281", "FID": 26969, "TYPEPIPE": "Interstate", "Operator": "WBI Energy Transmission", "Status": "Operating", "Shape_Leng": 0.172514371344}, "geometry": {"type": "LineString", "coordinates": [[-104.1536, 47.706112], [-104.127982, 47.734213], [-104.037376, 47.8336]]}},
{"type": "Feature", "properties": {"ProjectID": "P0281", "FID": 26970, "TYPEPIPE": "Interstate", "Operator": "WBI Energy Transmission", "Status": "Operating", "Shape_Leng": 0.152449020987}, "geometry": {"type": "LineString", "coordinates": [[-104.037376, 47.8336], [-103.919919, 47.917036]]}},
{"type": "Feature", "properties": {"ProjectID": "P0281", "FID": 26971, "TYPEPIPE": "Interstate", "Operator": "WBI Energy Transmission", "Status": "Operating", "Shape_Leng": 0.203104017646}, "geometry": {"type": "LineString", "coordinates": [[-103.858251, 47.939187], [-103.76291, 47.896893], [-103.681024, 47.85664]]}},
{"type": "Feature", "properties": {"ProjectID": "P0281", "FID": 26972, "TYPEPIPE": "Interstate", "Operator": "WBI Energy Transmission", "Status": "Operating", "Shape_Leng": 0.200364774549}, "geometry": {"type": "LineString", "coordinates": [[-103.681024, 47.85664], [-103.593472, 47.676416]]}},
{"type": "Feature", "properties": {"ProjectID": "P0281", "FID": 26973, "TYPEPIPE": "Interstate", "Operator": "WBI Energy Transmission", "Status": "Operating", "Shape_Leng": 0.44317378464}, "geometry": {"type": "LineString", "coordinates": [[-103.681024, 47.85664], [-103.406682, 47.809362], [-103.244288, 47.781376]]}},
{"type": "Feature", "properties": {"ProjectID": "P0281", "FID": 26974, "TYPEPIPE": "Interstate", "Operator": "WBI Energy Transmission", "Status": "Operating", "Shape_Leng": 0.262739324015}, "geometry": {"type": "LineString", "coordinates": [[-103.858251, 47.939187], [-103.622656, 48.051712]]}},
{"type": "Feature", "properties": {"ProjectID": "P0281", "FID": 26975, "TYPEPIPE": "Interstate", "Operator": "WBI Energy Transmission", "Status": "Operating", "Shape_Leng": 0.0539546950691}, "geometry": {"type": "LineString", "coordinates": [[-103.622656, 48.051712], [-103.661568, 48.089088]]}},
{"type": "Feature", "properties": {"ProjectID": "P0281", "FID": 26976, "TYPEPIPE": "Interstate", "Operator": "WBI Energy Transmission", "Status": "Operating", "Shape_Leng": 0.0921884408933}, "geometry": {"type": "LineString", "coordinates": [[-103.661568, 48.089088], [-103.664371, 48.102091], [-103.681024, 48.1792]]}},
{"type": "Feature", "properties": {"ProjectID": "P0281", "FID": 26977, "TYPEPIPE": "Interstate", "Operator": "WBI Energy Transmission", "Status": "Operating", "Shape_Leng": 0.819039915883}, "geometry": {"type": "LineString", "coordinates": [[-103.681024, 48.1792], [-103.575721, 48.227672], [-103.123803, 48.321947], [-102.974308, 48.390869], [-102.90526, 48.404269]]}},
{"type": "Feature", "properties": {"ProjectID": "P0281", "FID": 26978, "TYPEPIPE": "Interstate", "Operator": "WBI Energy Transmission", "Status": "Operating", "Shape_Leng": 0.184781644111}, "geometry": {"type": "LineString", "coordinates": [[-103.224832, 46.828032], [-103.387237, 46.747081], [-103.390208, 46.7456]]}},
{"type": "Feature", "properties": {"ProjectID": "P0281", "FID": 26979, "TYPEPIPE": "Interstate", "Operator": "WBI Energy Transmission", "Status": "Operating", "Shape_Leng": 0.212992}, "geometry": {"type": "LineString", "coordinates": [[-103.390208, 46.7456], [-103.6032, 46.7456]]}},
{"type": "Feature", "properties": {"ProjectID": "P0281", "FID": 26980, "TYPEPIPE": "Interstate", "Operator": "WBI Energy Transmission", "Status": "Operating", "Shape_Leng": 0.32}, "geometry": {"type": "LineString", "coordinates": [[-103.6032, 46.7456], [-103.627036, 46.7456], [-103.914065, 46.721289]]}},
{"type": "Feature", "properties": {"ProjectID": "P0281", "FID": 26981, "TYPEPIPE": "Interstate", "Operator": "WBI Energy Transmission", "Status": "Operating", "Shape_Leng": 0.164864}, "geometry": {"type": "LineString", "coordinates": [[-103.914065, 46.721289], [-103.9232, 46.863431], [-103.9232, 46.910464]]}},
{"type": "Feature", "properties": {"ProjectID": "P0281", "FID": 26982, "TYPEPIPE": "Interstate", "Operator": "WBI Energy Transmission", "Status": "Operating", "Shape_Leng": 0.129523857138}, "geometry": {"type": "LineString", "coordinates": [[-103.9232, 46.910464], [-104.049152, 46.940672]]}},
{"type": "Feature", "properties": {"ProjectID": "P0281", "FID": 26983, "TYPEPIPE": "Interstate", "Operator": "WBI Energy Transmission", "Status": "Operating", "Shape_Leng": 0.122634421269}, "geometry": {"type": "LineString", "coordinates": [[-104.049152, 46.940672], [-104.15616, 47.000576]]}},
{"type": "Feature", "properties": {"ProjectID": "P0281", "FID": 26984, "TYPEPIPE": "Interstate", "Operator": "WBI Energy Transmission", "Status": "Operating", "Shape_Leng": 0.135897184685}, "geometry": {"type": "LineString", "coordinates": [[-103.9232, 46.910464], [-103.793818, 46.917788], [-103.78752, 46.918144]]}},
{"type": "Feature", "properties": {"ProjectID": "P0281", "FID": 26985, "TYPEPIPE": "Interstate", "Operator": "WBI Energy Transmission", "Status": "Operating", "Shape_Leng": 0.136490019796}, "geometry": {"type": "LineString", "coordinates": [[-103.914065, 46.721289], [-103.966727, 46.704772], [-104.068461, 46.70061]]}},
{"type": "Feature", "properties": {"ProjectID": "P0281", "FID": 26986, "TYPEPIPE": "Interstate", "Operator": "WBI Energy Transmission", "Status": "Operating", "Shape_Leng": 0.270697455326}, "geometry": {"type": "LineString", "coordinates": [[-104.068461, 46.70061], [-104.311296, 46.63296]]}},
{"type": "Feature", "properties": {"ProjectID": "P0281", "FID": 26987, "TYPEPIPE": "Interstate", "Operator": "WBI Energy Transmission", "Status": "Operating", "Shape_Leng": 0.092132973815}, "geometry": {"type": "LineString", "coordinates": [[-104.311296, 46.63296], [-104.418944, 46.613815]]}},
{"type": "Feature", "properties": {"ProjectID": "P0281", "FID": 26988, "TYPEPIPE": "Interstate", "Operator": "WBI Energy Transmission", "Status": "Operating", "Shape_Leng": 0.0957125081899}, "geometry": {"type": "LineString", "coordinates": [[-104.418944, 46.613815], [-104.447008, 46.685202]]}},
{"type": "Feature", "properties": {"ProjectID": "P0281", "FID": 26989, "TYPEPIPE": "Interstate", "Operator": "WBI Energy Transmission", "Status": "Operating", "Shape_Leng": 0.107251474209}, "geometry": {"type": "LineString", "coordinates": [[-104.446976, 46.685184], [-104.42752, 46.790656]]}},
{"type": "Feature", "properties": {"ProjectID": "P0281", "FID": 26990, "TYPEPIPE": "Interstate", "Operator": "WBI Energy Transmission", "Status": "Operating", "Shape_Leng": 0.101951015689}, "geometry": {"type": "LineString", "coordinates": [[-104.42752, 46.790656], [-104.47616, 46.880256]]}},
{"type": "Feature", "properties": {"ProjectID": "P0281", "FID": 26991, "TYPEPIPE": "Interstate", "Operator": "WBI Energy Transmission", "Status": "Operating", "Shape_Leng": 0.220710010647}, "geometry": {"type": "LineString", "coordinates": [[-104.47616, 46.880256], [-104.65024, 47.015936]]}},
{"type": "Feature", "properties": {"ProjectID": "P0281", "FID": 26992, "TYPEPIPE": "Interstate", "Operator": "WBI Energy Transmission", "Status": "Operating", "Shape_Leng": 0.172847590484}, "geometry": {"type": "LineString", "coordinates": [[-104.65024, 47.015936], [-104.66048, 47.18848]]}},
{"type": "Feature", "properties": {"ProjectID": "P0281", "FID": 26993, "TYPEPIPE": "Interstate", "Operator": "WBI Energy Transmission", "Status": "Operating", "Shape_Leng": 0.142259547813}, "geometry": {"type": "LineString", "coordinates": [[-104.66048, 47.18848], [-104.574802, 47.258616]]}},
{"type": "Feature", "properties": {"ProjectID": "P0281", "FID": 26995, "TYPEPIPE": "Interstate", "Operator": "WBI Energy Transmission", "Status": "Operating", "Shape_Leng": 0.0712397911282}, "geometry": {"type": "LineString", "coordinates": [[-104.116736, 46.249984], [-104.049152, 46.272512]]}},
{"type": "Feature", "properties": {"ProjectID": "P0281", "FID": 26996, "TYPEPIPE": "Interstate", "Operator": "WBI Energy Transmission", "Status": "Operating", "Shape_Leng": 0.0883849036941}, "geometry": {"type": "LineString", "coordinates": [[-104.049152, 46.272512], [-104.022595, 46.277199], [-103.962112, 46.287872]]}},
{"type": "Feature", "properties": {"ProjectID": "P0281", "FID": 26997, "TYPEPIPE": "Interstate", "Operator": "WBI Energy Transmission", "Status": "Operating", "Shape_Leng": 0.0924510958323}, "geometry": {"type": "LineString", "coordinates": [[-103.962112, 46.287872], [-103.90949, 46.30572], [-103.87456, 46.317568]]}},
{"type": "Feature", "properties": {"ProjectID": "P0281", "FID": 26998, "TYPEPIPE": "Interstate", "Operator": "WBI Energy Transmission", "Status": "Operating", "Shape_Leng": 0.0609366044345}, "geometry": {"type": "LineString", "coordinates": [[-103.87456, 46.317568], [-103.826432, 46.280192]]}},
{"type": "Feature", "properties": {"ProjectID": "P0281", "FID": 26999, "TYPEPIPE": "Interstate", "Operator": "WBI Energy Transmission", "Status": "Operating", "Shape_Leng": 0.404880975933}, "geometry": {"type": "LineString", "coordinates": [[-103.826432, 46.280192], [-103.65016, 46.246843], [-103.428608, 46.204928]]}},
{"type": "Feature", "properties": {"ProjectID": "P0281", "FID": 27001, "TYPEPIPE": "Interstate", "Operator": "WBI Energy Transmission", "Status": "Operating", "Shape_Leng": 0.0750719589327}, "geometry": {"type": "LineString", "coordinates": [[-104.116736, 46.249984], [-104.1491, 46.242675]]}},
{"type": "Feature", "properties": {"ProjectID": "P0281", "FID": 27002, "TYPEPIPE": "Interstate", "Operator": "WBI Energy Transmission", "Status": "Operating", "Shape_Leng": 0.320855738998}, "geometry": {"type": "LineString", "coordinates": [[-104.418944, 46.613815], [-104.718848, 46.587904]]}},
{"type": "Feature", "properties": {"ProjectID": "P0281", "FID": 27003, "TYPEPIPE": "Interstate", "Operator": "WBI Energy Transmission", "Status": "Operating", "Shape_Leng": 0.12544}, "geometry": {"type": "LineString", "coordinates": [[-104.718848, 46.587904], [-104.789398, 46.587904], [-104.844288, 46.587904]]}},
{"type": "Feature", "properties": {"ProjectID": "P0281", "FID": 27004, "TYPEPIPE": "Interstate", "Operator": "WBI Energy Transmission", "Status": "Operating", "Shape_Leng": 0.446464}, "geometry": {"type": "LineString", "coordinates": [[-104.844288, 46.587904], [-105.290752, 46.587904]]}},
{"type": "Feature", "properties": {"ProjectID": "P0281", "FID": 27005, "TYPEPIPE": "Interstate", "Operator": "WBI Energy Transmission", "Status": "Operating", "Shape_Leng": 0.195072}, "geometry": {"type": "LineString", "coordinates": [[-105.290752, 46.587904], [-105.290752, 46.782976]]}},
{"type": "Feature", "properties": {"ProjectID": "P0281", "FID": 27006, "TYPEPIPE": "Interstate", "Operator": "WBI Energy Transmission", "Status": "Operating", "Shape_Leng": 0.176039419586}, "geometry": {"type": "LineString", "coordinates": [[-105.290752, 46.587904], [-105.465344, 46.610432]]}},
{"type": "Feature", "properties": {"ProjectID": "P0281", "FID": 27007, "TYPEPIPE": "Interstate", "Operator": "WBI Energy Transmission", "Status": "Operating", "Shape_Leng": 0.120085558832}, "geometry": {"type": "LineString", "coordinates": [[-105.465344, 46.610432], [-105.581568, 46.64064]]}},
{"type": "Feature", "properties": {"ProjectID": "P0281", "FID": 27008, "TYPEPIPE": "Interstate", "Operator": "WBI Energy Transmission", "Status": "Operating", "Shape_Leng": 0.542063979608}, "geometry": {"type": "LineString", "coordinates": [[-105.581568, 46.64064], [-106.065526, 46.396472]]}},
{"type": "Feature", "properties": {"ProjectID": "P0281", "FID": 27009, "TYPEPIPE": "Interstate", "Operator": "WBI Energy Transmission", "Status": "Operating", "Shape_Leng": 0.097792}, "geometry": {"type": "LineString", "coordinates": [[-106.075515, 46.316949], [-106.0458, 46.253275]]}},
{"type": "Feature", "properties": {"ProjectID": "P0281", "FID": 27010, "TYPEPIPE": "Interstate", "Operator": "WBI Energy Transmission", "Status": "Operating", "Shape_Leng": 0.0916079465549}, "geometry": {"type": "LineString", "coordinates": [[-106.0458, 46.253275], [-106.0265, 46.185727]]}},
{"type": "Feature", "properties": {"ProjectID": "P0281", "FID": 27011, "TYPEPIPE": "Interstate", "Operator": "WBI Energy Transmission", "Status": "Operating", "Shape_Leng": 0.33792}, "geometry": {"type": "LineString", "coordinates": [[-106.0265, 46.185727], [-106.009958, 46.028574], [-106.072576, 45.867008]]}},
{"type": "Feature", "properties": {"ProjectID": "P0281", "FID": 27012, "TYPEPIPE": "Interstate", "Operator": "WBI Energy Transmission", "Status": "Operating", "Shape_Leng": 0.531831974909}, "geometry": {"type": "LineString", "coordinates": [[-106.14784, 46.354944], [-106.67776, 46.309888]]}},
{"type": "Feature", "properties": {"ProjectID": "P0281", "FID": 27017, "TYPEPIPE": "Interstate", "Operator": "WBI Energy Transmission", "Status": "Operating", "Shape_Leng": 0.13975836947}, "geometry": {"type": "LineString", "coordinates": [[-108.577792, 44.793856], [-108.691726, 44.874797]]}},
{"type": "Feature", "properties": {"ProjectID": "P0281", "FID": 27021, "TYPEPIPE": "Interstate", "Operator": "WBI Energy Transmission", "Status": "Operating", "Shape_Leng": 0.50626789439}, "geometry": {"type": "LineString", "coordinates": [[-107.585601, 45.720293], [-108.076544, 45.596672]]}},
{"type": "Feature", "properties": {"ProjectID": "P0281", "FID": 27030, "TYPEPIPE": "Interstate", "Operator": "WBI Energy Transmission", "Status": "Operating", "Shape_Leng": 0.0921963631604}, "geometry": {"type": "LineString", "coordinates": [[-106.065526, 46.396472], [-106.14784, 46.354944]]}},
{"type": "Feature", "properties": {"ProjectID": "P0281", "FID": 28018, "TYPEPIPE": "Interstate", "Operator": "WBI Energy Transmission", "Status": "Operating", "Shape_Leng": 0.126974559572}, "geometry": {"type": "LineString", "coordinates": [[-104.04494, 46.052288], [-104.037014, 46.039647], [-104.021002, 46.011527], [-103.981568, 45.942272]]}},
{"type": "Feature", "properties": {"ProjectID": "P0281", "FID": 28021, "TYPEPIPE": "Interstate", "Operator": "WBI Energy Transmission", "Status": "Operating", "Shape_Leng": 0.135293186828}, "geometry": {"type": "LineString", "coordinates": [[-104.092869, 46.178807], [-104.068301, 46.129832], [-104.064866, 46.097746], [-104.04494, 46.052288]]}},
{"type": "Feature", "properties": {"ProjectID": "P0281", "FID": 28022, "TYPEPIPE": "Interstate", "Operator": "WBI Energy Transmission", "Status": "Operating", "Shape_Leng": 0.133263616768}, "geometry": {"type": "LineString", "coordinates": [[-105.372903, 47.896652], [-105.247264, 47.805539]]}},
{"type": "Feature", "properties": {"ProjectID": "P0281", "FID": 28023, "TYPEPIPE": "Interstate", "Operator": "WBI Energy Transmission", "Status": "Operating", "Shape_Leng": 0.0898409234425}, "geometry": {"type": "LineString", "coordinates": [[-107.382231, 48.420204], [-107.303699, 48.430273]]}},
{"type": "Feature", "properties": {"ProjectID": "P0281", "FID": 28024, "TYPEPIPE": "Interstate", "Operator": "WBI Energy Transmission", "Status": "Operating", "Shape_Leng": 0.327936}, "geometry": {"type": "LineString", "coordinates": [[-102.70336, 46.835712], [-102.788331, 46.846148], [-102.875683, 46.841566], [-102.925773, 46.835712], [-103.031296, 46.835712]]}},
{"type": "Feature", "properties": {"ProjectID": "P0281", "FID": 28026, "TYPEPIPE": "Interstate", "Operator": "WBI Energy Transmission", "Status": "Operating", "Shape_Leng": 0.682850563004}, "geometry": {"type": "LineString", "coordinates": [[-101.203863, 46.817097], [-101.4134, 46.81434], [-101.620181, 46.806068], [-101.783055, 46.8475], [-101.910363, 46.833371]]}},
{"type": "Feature", "properties": {"ProjectID": "P0281", "FID": 28027, "TYPEPIPE": "Interstate", "Operator": "WBI Energy Transmission", "Status": "Operating", "Shape_Leng": 0.334054669372}, "geometry": {"type": "LineString", "coordinates": [[-103.976988, 45.548223], [-103.934504, 45.358038], [-103.935878, 45.20542]]}},
{"type": "Feature", "properties": {"ProjectID": "P0281", "FID": 28029, "TYPEPIPE": "Interstate", "Operator": "WBI Energy Transmission", "Status": "Operating", "Shape_Leng": 0.17989223277}, "geometry": {"type": "LineString", "coordinates": [[-101.910363, 46.833371], [-101.958663, 46.834], [-102.09024, 46.835712]]}},
{"type": "Feature", "properties": {"ProjectID": "P0281", "FID": 28031, "TYPEPIPE": "Interstate", "Operator": "WBI Energy Transmission", "Status": "Operating", "Shape_Leng": 0.0591714525764}, "geometry": {"type": "LineString", "coordinates": [[-103.919919, 47.917036], [-103.873851, 47.92942], [-103.858251, 47.939187]]}},
{"type": "Feature", "properties": {"ProjectID": "P0281", "FID": 28033, "TYPEPIPE": "Interstate", "Operator": "WBI Energy Transmission", "Status": "Operating", "Shape_Leng": 0.083075327944}, "geometry": {"type": "LineString", "coordinates": [[-108.776911, 44.915584], [-108.852544, 44.949952]]}},
{"type": "Feature", "properties": {"ProjectID": "P0281", "FID": 28035, "TYPEPIPE": "Interstate", "Operator": "WBI Energy Transmission", "Status": "Operating", "Shape_Leng": 0.528116056094}, "geometry": {"type": "LineString", "coordinates": [[-107.247278, 48.443467], [-106.918469, 48.342206]]}},
{"type": "Feature", "properties": {"ProjectID": "P0281", "FID": 28036, "TYPEPIPE": "Interstate", "Operator": "WBI Energy Transmission", "Status": "Operating", "Shape_Leng": 0.0465580975556}, "geometry": {"type": "LineString", "coordinates": [[-108.852544, 44.949952], [-108.898496, 44.95744]]}},
{"type": "Feature", "properties": {"ProjectID": "P0281", "FID": 28037, "TYPEPIPE": "Interstate", "Operator": "WBI Energy Transmission", "Status": "Operating", "Shape_Leng": 0.085817318159}, "geometry": {"type": "LineString", "coordinates": [[-106.753536, 44.11136], [-106.756672, 44.0256]]}},
{"type": "Feature", "properties": {"ProjectID": "P0281", "FID": 28038, "TYPEPIPE": "Interstate", "Operator": "WBI Energy Transmission", "Status": "Operating", "Shape_Leng": 0.0667767547579}, "geometry": {"type": "LineString", "coordinates": [[-106.699743, 44.126538], [-106.731402, 44.124115], [-106.753536, 44.11136]]}},
{"type": "Feature", "properties": {"ProjectID": "P0281", "FID": 28039, "TYPEPIPE": "Interstate", "Operator": "WBI Energy Transmission", "Status": "Operating", "Shape_Leng": 0.048621807124}, "geometry": {"type": "LineString", "coordinates": [[-106.693888, 44.154112], [-106.699743, 44.126538]]}},
{"type": "Feature", "properties": {"ProjectID": "P0281", "FID": 28040, "TYPEPIPE": "Interstate", "Operator": "WBI Energy Transmission", "Status": "Operating", "Shape_Leng": 0.278593823108}, "geometry": {"type": "LineString", "coordinates": [[-106.887104, 44.354816], [-106.843665, 44.309693], [-106.735084, 44.196905], [-106.693888, 44.154112]]}},
{"type": "Feature", "properties": {"ProjectID": "P0281", "FID": 28041, "TYPEPIPE": "Interstate", "Operator": "WBI Energy Transmission", "Status": "Operating", "Shape_Leng": 0.0886944179529}, "geometry": {"type": "LineString", "coordinates": [[-106.90048, 44.442496], [-106.887104, 44.354816]]}},
{"type": "Feature", "properties": {"ProjectID": "P0281", "FID": 28042, "TYPEPIPE": "Interstate", "Operator": "WBI Energy Transmission", "Status": "Operating", "Shape_Leng": 0.118847724286}, "geometry": {"type": "LineString", "coordinates": [[-106.981952, 44.529024], [-106.90048, 44.442496]]}},
{"type": "Feature", "properties": {"ProjectID": "P0281", "FID": 28043, "TYPEPIPE": "Interstate", "Operator": "WBI Energy Transmission", "Status": "Operating", "Shape_Leng": 0.0313067302668}, "geometry": {"type": "LineString", "coordinates": [[-106.979008, 44.560192], [-106.981952, 44.529024]]}},
{"type": "Feature", "properties": {"ProjectID": "P0281", "FID": 28044, "TYPEPIPE": "Interstate", "Operator": "WBI Energy Transmission", "Status": "Operating", "Shape_Leng": 0.132544015451}, "geometry": {"type": "LineString", "coordinates": [[-106.979072, 44.692736], [-106.979008, 44.560192]]}},
{"type": "Feature", "properties": {"ProjectID": "P0281", "FID": 28045, "TYPEPIPE": "Interstate", "Operator": "WBI Energy Transmission", "Status": "Operating", "Shape_Leng": 0.0532544996105}, "geometry": {"type": "LineString", "coordinates": [[-106.981826, 44.806501], [-106.979072, 44.692736]]}},
{"type": "Feature", "properties": {"ProjectID": "P0281", "FID": 28049, "TYPEPIPE": "Interstate", "Operator": "WBI Energy Transmission", "Status": "Operating", "Shape_Leng": 0.11105281548}, "geometry": {"type": "LineString", "coordinates": [[-106.756672, 44.0256], [-106.756037, 43.914549]]}},
{"type": "Feature", "properties": {"ProjectID": "P0281", "FID": 28050, "TYPEPIPE": "Interstate", "Operator": "WBI Energy Transmission", "Status": "Operating", "Shape_Leng": 0.0986645336938}, "geometry": {"type": "LineString", "coordinates": [[-108.884004, 45.370428], [-108.982651, 45.372288]]}},
{"type": "Feature", "properties": {"ProjectID": "P0281", "FID": 28051, "TYPEPIPE": "Interstate", "Operator": "WBI Energy Transmission", "Status": "Operating", "Shape_Leng": 0.938986622505}, "geometry": {"type": "LineString", "coordinates": [[-97.978368, 46.865408], [-97.519215, 46.874782], [-97.46938, 46.875799], [-97.346942, 46.878299], [-97.167258, 46.881967], [-97.039577, 46.884574]]}},
{"type": "Feature", "properties": {"ProjectID": "P0281", "FID": 28052, "TYPEPIPE": "Interstate", "Operator": "WBI Energy Transmission", "Status": "Operating", "Shape_Leng": 0.000209554288903}, "geometry": {"type": "LineString", "coordinates": [[-100.87663, 46.836308], [-100.876682, 46.836511]]}},
{"type": "Feature", "properties": {"ProjectID": "P0281", "FID": 28053, "TYPEPIPE": "Interstate", "Operator": "WBI Energy Transmission", "Status": "Operating", "Shape_Leng": 0.0364714371804}, "geometry": {"type": "LineString", "coordinates": [[-100.880919, 46.8552], [-100.889212, 46.887747]]}},
{"type": "Feature", "properties": {"ProjectID": "P0281", "FID": 28054, "TYPEPIPE": "Interstate", "Operator": "WBI Energy Transmission", "Status": "Operating", "Shape_Leng": 0.000279860679636}, "geometry": {"type": "LineString", "coordinates": [[-103.664371, 48.102091], [-103.664632, 48.10199]]}},
{"type": "Feature", "properties": {"ProjectID": "P0281", "FID": 28055, "TYPEPIPE": "Interstate", "Operator": "WBI Energy Transmission", "Status": "Operating", "Shape_Leng": 0.116727565542}, "geometry": {"type": "LineString", "coordinates": [[-103.664632, 48.10199], [-103.70433, 48.092782], [-103.778341, 48.075616]]}},
{"type": "Feature", "properties": {"ProjectID": "P0281", "FID": 28057, "TYPEPIPE": "Interstate", "Operator": "WBI Energy Transmission", "Status": "Operating", "Shape_Leng": 0.216727528034}, "geometry": {"type": "LineString", "coordinates": [[-108.379136, 44.793856], [-108.170116, 44.792082], [-108.168576, 44.792082], [-108.165496, 44.792082]]}},
{"type": "Feature", "properties": {"ProjectID": "P0281", "FID": 28058, "TYPEPIPE": "Interstate", "Operator": "WBI Energy Transmission", "Status": "Operating", "Shape_Leng": 0.323215103672}, "geometry": {"type": "LineString", "coordinates": [[-103.981568, 45.942272], [-103.976109, 45.619103]]}},
{"type": "Feature", "properties": {"ProjectID": "P0281", "FID": 28059, "TYPEPIPE": "Interstate", "Operator": "WBI Energy Transmission", "Status": "Operating", "Shape_Leng": 0.0708854501361}, "geometry": {"type": "LineString", "coordinates": [[-103.976988, 45.548223], [-103.976109, 45.619103]]}},
{"type": "Feature", "properties": {"ProjectID": "P0281", "FID": 28060, "TYPEPIPE": "Interstate", "Operator": "WBI Energy Transmission", "Status": "Operating", "Shape_Leng": 0.0506437035898}, "geometry": {"type": "LineString", "coordinates": [[-108.229286, 44.589862], [-108.205252, 44.595318], [-108.179899, 44.601074]]}},
{"type": "Feature", "properties": {"ProjectID": "P0281", "FID": 28061, "TYPEPIPE": "Interstate", "Operator": "WBI Energy Transmission", "Status": "Operating", "Shape_Leng": 0.282000306666}, "geometry": {"type": "LineString", "coordinates": [[-105.51999, 44.898991], [-105.726018, 44.869021], [-105.798704, 44.856224]]}},
{"type": "Feature", "properties": {"ProjectID": "P0281", "FID": null, "TYPEPIPE": null, "Operator": null, "Status": null, "Shape_Leng": null}, "geometry": {"type": "LineString", "coordinates": [[-97.718039, 48.505367], [-97.74135, 48.407594]]}},
{"type": "Feature", "properties": {"ProjectID": "P0281", "FID": null, "TYPEPIPE": null, "Operator": null, "Status": null, "Shape_Leng": null}, "geometry": {"type": "LineString", "coordinates": [[-103.65016, 46.246843], [-103.693155, 46.206061]]}},
{"type": "Feature", "properties": {"ProjectID": "P0281", "FID": null, "TYPEPIPE": null, "Operator": null, "Status": null, "Shape_Leng": null}, "geometry": {"type": "LineString", "coordinates": [[-106.981826, 44.806501], [-106.722661, 44.778241], [-106.604107, 44.701043], [-106.579293, 44.659687], [-106.471767, 44.654173], [-106.405598, 44.632117], [-106.298072, 44.648659], [-106.088534, 44.637631], [-105.807313, 44.532862], [-105.627909, 44.506285], [-105.719086, 44.659687], [-105.798704, 44.856224]]}},
{"type": "Feature", "properties": {"ProjectID": "P0281", "FID": null, "TYPEPIPE": null, "Operator": null, "Status": null, "Shape_Leng": null}, "geometry": {"type": "LineString", "coordinates": [[-104.733595, 45.029538], [-104.708232, 45.156322], [-104.701727, 45.439939], [-104.569387, 46.294631], [-104.418944, 46.613815]]}},
{"type": "Feature", "properties": {"ProjectID": "P0281", "FID": null, "TYPEPIPE": null, "Operator": null, "Status": null, "Shape_Leng": null}, "geometry": {"type": "LineString", "coordinates": [[-106.075515, 46.316949], [-106.14784, 46.354944]]}},
{"type": "Feature", "properties": {"ProjectID": "P0281", "FID": null, "TYPEPIPE": null, "Operator": null, "Status": null, "Shape_Leng": null}, "geometry": {"type": "LineString", "coordinates": [[-104.418944, 46.613815], [-104.35742, 46.49228], [-104.287319, 46.39469], [-104.286269, 46.394329], [-104.285111, 46.394333], [-104.26116, 46.36903], [-104.252358, 46.356134]]}},
{"type": "Feature", "properties": {"ProjectID": "P0281", "FID": null, "TYPEPIPE": null, "Operator": null, "Status": null, "Shape_Leng": null}, "geometry": {"type": "LineString", "coordinates": [[-104.252358, 46.356134], [-104.201782, 46.302512], [-104.092869, 46.178807]]}},
{"type": "Feature", "properties": {"ProjectID": "P0281", "FID": null, "TYPEPIPE": null, "Operator": null, "Status": null, "Shape_Leng": null}, "geometry": {"type": "LineString", "coordinates": [[-102.745335, 47.377883], [-102.738175, 47.25518]]}},
{"type": "Feature", "properties": {"ProjectID": "P0281", "FID": null, "TYPEPIPE": null, "Operator": null, "Status": null, "Shape_Leng": null}, "geometry": {"type": "LineString", "coordinates": [[-106.794504, 46.138663], [-106.677809, 46.039145], [-106.641564, 45.894163]]}}
]
}
