{
"type": "FeatureCollection",
"features": [
{"type": "Feature", "properties": {"ProjectID": "P0296"}, "geometry": {"type": "LineString", "coordinates": [[-76.144891, 39.714639], [-76.119662, 39.68151], [-76.075664, 39.669387], [-75.949073, 39.683364], [-75.856318, 39.667636], [-75.840664, 39.597662], [-75.799514, 39.556471], [-75.860264, 39.463061], [-75.847724, 39.418095], [-75.807698, 39.38548], [-75.851657, 39.286466], [-75.810352, 39.216239], [-75.779739, 39.108446], [-75.820244, 38.959395], [-75.806611, 38.807136], [-75.840339, 38.721063], [-75.83141, 38.659611], [-75.850371, 38.565769], [-75.723767, 38.478636], [-75.73249, 38.441385], [-75.681675, 38.357281], [-75.713845, 38.302723], [-75.714783, 38.213155], [-75.620103, 38.16791], [-75.579573, 38.084418], [-75.542296, 38.061703], [-75.598308, 37.828212], [-75.683042, 37.724731], [-75.73596, 37.702235]]}}
]
}
