{
"type": "FeatureCollection",
"features": [
{"type": "Feature", "properties": {"ProjectID": "P0292"}, "geometry": {"type": "MultiLineString", "coordinates": [[[-88.239975, 41.49469], [-88.298563, 41.444474], [-88.302906, 41.4082], [-88.371324, 41.410265], [-88.386707, 41.359557], [-88.357398, 41.105376], [-88.333242, 40.278119]], [[-88.333242, 40.278119], [-88.33458, 39.965364], [-88.345375, 39.947122], [-88.331129, 39.787096]], [[-88.456601, 40.860111], [-88.350674, 40.861333]], [[-88.475263, 40.283069], [-88.333242, 40.278119]]]}}
]
}
