{
"type": "FeatureCollection",
"features": [
{"type": "Feature", "properties": {"ProjectID": "P0304"}, "geometry": {"type": "LineString", "coordinates": [[-111.893539, 40.76168], [-111.90634, 40.350414], [-111.978074, 39.980922], [-111.867647, 39.410662], [-111.897301, 39.07646], [-112.022971, 38.586048], [-112.179699, 38.38936], [-112.409739, 38.006363], [-112.528046, 37.853673], [-112.655653, 37.764246], [-113.453862, 37.525355], [-114.145447, 37.224511], [-114.588904, 36.921703], [-114.792547, 36.730776], [-114.951162, 36.492319], [-115.07243, 36.342669], [-115.125091, 36.19311], [-115.147151, 36.066552], [-115.140379, 35.933818], [-115.08395, 35.765763], [-114.980076, 35.587329], [-114.794535, 35.34972], [-114.554997, 35.124208], [-114.232938, 34.864419], [-114.144824, 34.71926], [-114.004311, 34.369038], [-113.998825, 34.232544], [-114.022808, 34.127556], [-114.300913, 33.681807], [-114.314326, 33.55295], [-114.243592, 33.271063], [-114.144948, 32.979103], [-114.136604, 32.868153], [-114.17578, 32.774878], [-114.234704, 32.710975], [-114.468038, 32.614818]]}}
]
}
