{
"type": "FeatureCollection",
"features": [
{"type": "Feature", "properties": {"ProjectID": "P0320"}, "geometry": {"type": "LineString", "coordinates": [[-103.038981, 31.253465], [-102.965452, 31.291294], [-102.848988, 31.27985], [-102.375033, 31.351083], [-102.342837, 31.388597], [-102.270059, 31.366071], [-101.163891, 31.44076], [-101.13403, 31.409337], [-101.059202, 31.443301], [-100.357983, 31.45219], [-99.580197, 31.442534], [-99.472668, 31.418869], [-99.395041, 31.453599], [-99.223541, 31.423091], [-98.9697, 31.466181], [-98.921426, 31.460914], [-98.824142, 31.415829], [-98.335616, 31.41601], [-98.281682, 31.394144], [-98.134523, 31.4339], [-97.675819, 31.396008], [-97.552678, 31.354632], [-97.481164, 31.361851], [-97.294411, 31.314569], [-97.141227, 31.345161], [-96.906518, 31.343787], [-96.390948, 31.21881], [-96.206427, 31.237272], [-95.986701, 31.28585], [-95.773555, 31.272489], [-95.485155, 31.239885], [-95.348567, 31.193559], [-95.22946, 31.150337], [-95.063955, 31.008167], [-94.934936, 30.992146], [-94.741403, 30.905675], [-94.625236, 30.829684], [-94.424611, 30.820677], [-94.325318, 30.72359], [-94.189552, 30.702752], [-94.091379, 30.660359], [-94.088136, 30.6118], [-93.618381, 30.550231], [-93.379163, 30.455238], [-93.22758, 30.355791]]}}
]
}
