{
"type": "FeatureCollection",
"features": [
{"type": "Feature", "properties": {"ProjectID": "P0332", "id": 1, "Name": "Merrick", "Type": "Mainline"}, "geometry": {"type": "MultiLineString", "coordinates": [[[-120.869319, 55.81106], [-120.851762, 55.78724], [-120.893798, 55.782842], [-120.901619, 55.754796], [-120.914327, 55.723426], [-120.939745, 55.690378], [-120.978848, 55.670536], [-121.009153, 55.670536], [-121.047279, 55.677703], [-121.1118, 55.677703], [-121.144061, 55.676049], [-121.175343, 55.665574], [-121.242797, 55.6562], [-121.40801, 55.663369], [-121.483284, 55.607636], [-121.54976, 55.612606], [-121.587886, 55.609569], [-121.633344, 55.601838], [-121.657295, 55.587752], [-121.692977, 55.576977], [-121.703241, 55.563159], [-121.733547, 55.557354], [-121.723282, 55.540763], [-121.720838, 55.527209], [-121.712528, 55.505623], [-121.722304, 55.490672], [-121.755054, 55.47627], [-121.757009, 55.461308], [-121.756031, 55.44634], [-121.775583, 55.4236], [-121.780471, 55.409173], [-121.782426, 55.390299], [-121.771673, 55.383635], [-121.75261, 55.371138], [-121.75261, 55.350301], [-121.744789, 55.336681], [-121.743322, 55.314712], [-121.781937, 55.301915], [-121.805888, 55.292454], [-121.809799, 55.279649], [-121.812731, 55.26684], [-121.834238, 55.254028], [-121.8577, 55.239539], [-121.892894, 55.212776], [-121.898759, 55.19604], [-121.896804, 55.178181], [-121.915378, 55.167015], [-121.919288, 55.159197], [-121.944706, 55.160314], [-121.978921, 55.16869], [-122.001406, 55.161989], [-122.025846, 55.155845], [-122.037577, 55.147466], [-122.050285, 55.133498], [-122.093299, 55.136292], [-122.10112, 55.125673], [-122.103075, 55.113374], [-122.09721, 55.10163], [-122.112851, 55.088764], [-122.122627, 55.073655], [-122.143156, 55.058541], [-122.158798, 55.044541], [-122.16173, 55.025493], [-122.154887, 55.014284], [-122.173462, 54.999708], [-122.181771, 54.97082], [-122.189103, 54.946403], [-122.199368, 54.926185], [-122.217453, 54.917477], [-122.239449, 54.905957], [-122.25509, 54.891623], [-122.285395, 54.891623], [-122.308858, 54.882064], [-122.320589, 54.86969], [-122.371423, 54.855624], [-122.393908, 54.845493], [-122.416392, 54.829166], [-122.44963, 54.810579], [-122.485801, 54.784656], [-122.485801, 54.772252], [-122.537613, 54.742355], [-122.586493, 54.723728], [-122.610933, 54.716388], [-122.633417, 54.701138], [-122.649058, 54.676841], [-122.682296, 54.673449], [-122.711135, 54.663273], [-122.715534, 54.655639], [-122.695983, 54.61858], [-122.69305, 54.586303], [-122.680341, 54.544929], [-122.654924, 54.505215], [-122.63635, 54.474552], [-122.625596, 54.458076], [-122.602134, 54.441592], [-122.600179, 54.416002], [-122.596757, 54.356798], [-122.615332, 54.350247], [-122.623641, 54.339704], [-122.623152, 54.285812]]]}}
]
}
