{
"type": "FeatureCollection",
"features": [
{"type": "Feature", "properties": {"ProjectID": "P0369"}, "geometry": {"type": "MultiLineString", "coordinates": [[[-103.09, 31.312], [-103.061, 31.313]], [[-103.116, 31.32], [-103.062, 31.317]], [[-103.081, 31.325], [-103.062, 31.323]], [[-100.331, 30.233], [-100.327, 30.233]], [[-100.33, 30.261], [-100.319, 30.26]], [[-100.171, 31.642], [-100.167, 31.636]], [[-99.863, 31.82], [-99.852, 31.81]], [[-98.971, 31.756], [-98.985, 31.761]], [[-98.962, 31.776], [-98.946, 31.761]], [[-98.949, 31.774], [-98.942, 31.783]], [[-98.091, 31.711], [-98.083, 31.72]], [[-98.295, 31.69], [-98.29, 31.711]], [[-97.437, 31.439], [-97.445, 31.435]], [[-97.495, 31.067], [-97.497, 31.062]], [[-97.65, 31.101], [-97.643, 31.131]], [[-97.72, 31.12], [-97.716, 31.141]], [[-97.225, 31.473], [-97.189, 31.462]], [[-95.925, 31.297], [-95.918, 31.294]], [[-95.913, 31.194], [-95.944, 31.2]], [[-95.819, 30.311], [-95.906, 30.308]], [[-96.312, 32.055], [-96.337, 32.041]], [[-95.708, 31.674], [-95.725, 31.691]], [[-95.875, 32.546], [-95.927, 32.48]], [[-95.691, 32.403], [-95.743, 32.357]], [[-95.234, 32.268], [-95.218, 32.21]], [[-95.864, 32.179], [-95.894, 32.19]], [[-95.607, 32.937], [-95.632, 32.948]], [[-95.982, 31.992], [-95.995, 31.991]], [[-96.647, 32.287], [-96.619, 32.262]], [[-96.491, 32.299], [-96.523, 32.325]], [[-96.038, 32.308], [-96.019, 32.299]], [[-96.928, 32.98], [-96.984, 32.991]], [[-96.869, 32.662], [-96.854, 32.643]], [[-96.961, 32.524], [-96.947, 32.489]], [[-99.294, 32.723], [-99.233, 32.614]], [[-99.233, 32.614], [-99.173, 32.549]], [[-98.27, 32.523], [-98.307, 32.522]], [[-99.828, 32.205], [-99.786, 32.209]], [[-99.551, 32.453], [-99.554, 32.434]], [[-99.632, 32.453], [-99.634, 32.441]], [[-100.279, 32.102], [-100.301, 32.103]], [[-100.248, 32.057], [-100.271, 32.038]], [[-100.439, 34.092], [-100.448, 34.092]], [[-100.21, 34.435], [-100.181, 34.45]], [[-98.033, 33.777], [-98.078, 33.722]], [[-97.689, 33.671], [-97.719, 33.684]], [[-98.172, 33.697], [-98.185, 33.758]], [[-98.188, 34.041], [-98.174, 34.039]], [[-98.174, 34.073], [-98.162, 34.073]], [[-101.033, 32.707], [-100.983, 32.684]], [[-100.425, 30.821], [-100.431, 30.825]], [[-97.437, 31.124], [-97.437, 31.117]], [[-99.762, 33.176], [-99.783, 33.168]], [[-95.682, 31.718], [-95.666, 31.718]], [[-102.569, 31.515], [-102.316, 31.623]], [[-102.316, 31.623], [-102.077, 31.723]], [[-101.553, 31.887], [-101.088, 32.083]], [[-102.077, 31.723], [-101.553, 31.887]], [[-101.09, 32.082], [-100.909, 32.122]], [[-103.002, 31.357], [-102.569, 31.515]], [[-100.418, 32.482], [-100.395, 32.464]], [[-95.902, 30.242], [-96.116, 30.849]], [[-95.651, 29.53], [-95.901, 30.125]], [[-96.215, 31.005], [-96.39, 31.321]], [[-96.114, 30.846], [-96.216, 31.006]], [[-95.901, 30.123], [-95.902, 30.242]], [[-96.079, 30.367], [-95.941, 30.399]], [[-96.394, 30.753], [-96.199, 30.962]], [[-96.199, 30.962], [-96.13, 30.981]], [[-95.714, 31.478], [-96.04, 31.066]], [[-96.04, 31.066], [-96.199, 30.962]], [[-96.13, 30.981], [-95.758, 31.055]], [[-95.841, 30.929], [-95.822, 30.886]], [[-95.761, 31.064], [-95.715, 31.478]], [[-95.83, 30.865], [-95.762, 31.064]], [[-95.565, 31.531], [-95.558, 31.597]], [[-95.836, 31.585], [-95.903, 31.676]], [[-95.967, 31.686], [-95.943, 31.645]], [[-96.324, 32.019], [-96.395, 32.025]], [[-96.0, 31.98], [-96.57, 32.235]], [[-96.783, 32.585], [-96.448, 32.317]], [[-96.104, 32.112], [-95.921, 32.116]], [[-96.449, 32.317], [-96.104, 32.112]], [[-95.683, 32.292], [-95.921, 32.116]], [[-95.457, 32.302], [-96.074, 32.106]], [[-95.167, 32.259], [-95.457, 32.302]], [[-95.555, 31.778], [-95.44, 32.049]], [[-95.304, 32.004], [-95.361, 32.021]], [[-95.361, 32.021], [-95.427, 32.045]], [[-95.429, 32.045], [-95.544, 32.085]], [[-95.544, 32.085], [-95.687, 32.289]], [[-95.683, 32.285], [-95.743, 32.357]], [[-96.013, 32.536], [-96.517, 32.783]], [[-95.743, 32.357], [-96.013, 32.536]], [[-95.678, 32.458], [-95.583, 32.355]], [[-95.575, 32.295], [-95.583, 32.356]], [[-94.541, 32.292], [-94.996, 32.291]], [[-94.996, 32.292], [-95.092, 32.298]], [[-94.353, 32.289], [-94.541, 32.292]], [[-94.294, 32.165], [-94.314, 32.279]], [[-94.815, 32.361], [-94.784, 32.394]], [[-94.809, 32.285], [-94.815, 32.361]], [[-95.416, 32.967], [-95.511, 33.094]], [[-95.285, 32.575], [-95.416, 32.967]], [[-95.092, 32.298], [-95.285, 32.575]], [[-95.118, 33.435], [-95.262, 33.331]], [[-95.262, 33.332], [-95.511, 33.094]], [[-95.141, 33.678], [-95.116, 33.428]], [[-95.054, 33.663], [-95.141, 33.678]], [[-94.761, 33.603], [-95.054, 33.663]], [[-95.068, 33.782], [-95.141, 33.678]], [[-95.141, 33.678], [-95.259, 33.685]], [[-95.259, 33.685], [-95.517, 33.877]], [[-96.344, 33.67], [-95.807, 33.656]], [[-95.807, 33.648], [-95.807, 33.656]], [[-95.807, 33.656], [-95.567, 33.7]], [[-96.379, 33.031], [-96.372, 33.463]], [[-96.372, 33.458], [-96.372, 33.666]], [[-96.421, 32.861], [-96.379, 33.031]], [[-96.515, 32.782], [-96.522, 32.592]], [[-96.521, 32.592], [-96.69, 32.342]], [[-96.011, 32.785], [-96.517, 32.783]], [[-95.628, 32.948], [-95.784, 32.842]], [[-95.784, 32.842], [-96.011, 32.787]], [[-95.803, 33.358], [-95.888, 33.305]], [[-95.626, 33.456], [-95.803, 33.358]], [[-95.893, 33.305], [-95.906, 33.258]], [[-95.953, 33.377], [-95.888, 33.305]], [[-95.859, 33.428], [-95.922, 33.413]], [[-95.922, 33.413], [-96.045, 33.375]], [[-96.213, 33.41], [-96.214, 33.408]], [[-96.257, 33.373], [-96.151, 33.181]], [[-96.281, 33.028], [-96.261, 33.082]], [[-96.261, 33.082], [-96.151, 33.181]], [[-96.383, 32.979], [-96.275, 33.031]], [[-96.345, 33.069], [-96.273, 33.072]], [[-100.342, 34.484], [-100.181, 34.45]], [[-100.395, 34.4], [-100.386, 34.4]], [[-100.386, 34.4], [-100.294, 34.408]], [[-100.319, 34.409], [-100.318, 34.312]], [[-100.294, 34.408], [-100.298, 34.385]], [[-100.266, 34.45], [-100.295, 34.397]], [[-99.959, 34.421], [-99.428, 34.24]], [[-98.899, 34.014], [-98.539, 33.921]], [[-99.428, 34.24], [-98.897, 34.012]], [[-100.181, 34.45], [-99.959, 34.421]], [[-99.486, 34.259], [-99.537, 34.144]], [[-99.521, 34.195], [-99.466, 34.16]], [[-99.602, 34.18], [-99.532, 34.162]], [[-99.635, 34.042], [-99.569, 34.048]], [[-99.569, 34.048], [-99.428, 34.058]], [[-99.428, 34.058], [-99.321, 34.201]], [[-99.391, 34.086], [-99.294, 34.067]], [[-99.113, 34.1], [-99.047, 34.21]], [[-98.708, 33.859], [-98.489, 33.091]], [[-98.694, 33.949], [-98.708, 33.859]], [[-97.771, 33.281], [-97.757, 33.306]], [[-97.845, 33.286], [-97.682, 33.339]], [[-97.581, 33.011], [-97.647, 32.98]], [[-97.513, 33.096], [-97.562, 33.025]], [[-97.562, 33.025], [-97.581, 33.011]], [[-97.045, 33.034], [-97.318, 33.106]], [[-96.984, 32.991], [-97.045, 33.034]], [[-97.312, 33.11], [-97.513, 33.096]], [[-96.952, 32.91], [-96.98, 32.968]], [[-97.876, 33.579], [-97.982, 33.715]], [[-97.805, 33.49], [-97.876, 33.579]], [[-97.513, 33.096], [-97.807, 33.489]], [[-97.71, 33.695], [-97.679, 33.916]], [[-97.762, 33.59], [-97.71, 33.695]], [[-97.82, 33.494], [-97.762, 33.59]], [[-98.17, 33.983], [-98.033, 33.777]], [[-98.547, 34.078], [-98.42, 33.939]], [[-98.474, 33.954], [-98.453, 33.957]], [[-100.255, 33.886], [-100.247, 33.883]], [[-98.414, 33.93], [-98.31, 33.943]], [[-98.31, 33.943], [-98.17, 33.983]], [[-97.806, 33.501], [-97.795, 33.49]], [[-99.721, 33.425], [-99.652, 33.726]], [[-99.78, 33.191], [-99.721, 33.425]], [[-99.883, 33.317], [-99.866, 33.395]], [[-99.955, 33.382], [-99.734, 33.353]], [[-99.979, 33.386], [-99.955, 33.382]], [[-99.842, 32.985], [-99.78, 33.191]], [[-99.775, 32.52], [-99.842, 32.987]], [[-99.774, 32.438], [-99.775, 32.521]], [[-100.11, 32.916], [-99.839, 32.948]], [[-100.398, 32.862], [-100.11, 32.917]], [[-100.669, 32.528], [-100.67, 32.526]], [[-101.13, 32.673], [-101.007, 32.71]], [[-100.983, 32.74], [-100.955, 32.733]], [[-100.993, 32.79], [-100.959, 32.778]], [[-100.967, 32.767], [-100.968, 32.693]], [[-100.895, 32.533], [-100.906, 32.685]], [[-100.885, 32.403], [-100.895, 32.533]], [[-100.708, 32.595], [-100.761, 32.532]], [[-100.761, 32.532], [-100.868, 32.403]], [[-101.007, 32.71], [-100.537, 32.537]], [[-100.551, 32.54], [-100.372, 32.488]], [[-100.675, 32.055], [-100.72, 32.099]], [[-100.72, 32.099], [-100.935, 32.331]], [[-100.935, 32.331], [-100.885, 32.403]], [[-100.885, 32.403], [-100.541, 32.45]], [[-100.552, 32.446], [-99.997, 32.465]], [[-100.383, 32.493], [-99.984, 32.529]], [[-100.423, 32.238], [-100.383, 32.493]], [[-99.491, 32.273], [-98.989, 32.299]], [[-100.909, 32.122], [-100.499, 32.224]], [[-100.499, 32.224], [-100.04, 32.241]], [[-100.04, 32.241], [-99.491, 32.273]], [[-96.845, 32.651], [-96.894, 32.586]], [[-96.894, 32.586], [-97.008, 32.514]], [[-98.387, 32.324], [-98.989, 32.299]], [[-97.882, 32.362], [-98.387, 32.324]], [[-97.007, 32.514], [-97.575, 32.364]], [[-97.575, 32.364], [-97.59, 32.351]], [[-97.778, 32.335], [-97.93, 32.363]], [[-100.116, 32.049], [-100.261, 32.024]], [[-100.087, 32.052], [-100.116, 32.049]], [[-100.27, 31.877], [-100.235, 31.9]], [[-100.26, 31.88], [-100.185, 31.703]], [[-100.185, 31.703], [-100.158, 31.642]], [[-100.171, 31.642], [-100.196, 31.703]], [[-100.617, 31.665], [-100.624, 31.641]], [[-100.624, 31.649], [-99.985, 31.728]], [[-98.948, 30.201], [-98.732, 30.51]], [[-98.732, 30.51], [-98.508, 30.94]], [[-99.013, 30.142], [-98.948, 30.201]], [[-98.979, 29.965], [-99.013, 30.142]], [[-98.898, 29.962], [-98.979, 29.965]], [[-98.986, 29.956], [-98.997, 29.876]], [[-98.997, 29.876], [-99.033, 29.78]], [[-99.007, 29.88], [-98.979, 29.965]], [[-99.064, 29.731], [-99.007, 29.88]], [[-100.087, 31.696], [-100.023, 31.712]], [[-100.287, 31.487], [-100.084, 31.695]], [[-99.652, 31.887], [-99.638, 31.892]], [[-99.091, 31.759], [-98.966, 31.734]], [[-99.653, 31.789], [-99.091, 31.758]], [[-99.99, 31.729], [-99.653, 31.789]], [[-98.858, 31.874], [-98.99, 31.738]], [[-99.651, 31.952], [-99.751, 32.109]], [[-99.751, 32.109], [-99.8, 32.359]], [[-99.638, 31.892], [-99.651, 31.952]], [[-99.814, 32.355], [-99.726, 32.395]], [[-99.66, 32.567], [-99.606, 32.263]], [[-98.987, 32.5], [-99.492, 32.505]], [[-98.307, 32.522], [-98.365, 32.517]], [[-100.003, 32.465], [-99.754, 32.411]], [[-99.774, 32.439], [-99.737, 32.387]], [[-102.98, 31.208], [-102.972, 31.001]], [[-103.122, 31.39], [-102.98, 31.208]], [[-103.25, 31.61], [-103.122, 31.39]], [[-102.935, 30.702], [-102.972, 31.001]], [[-100.315, 30.243], [-100.425, 30.682]], [[-100.327, 30.233], [-100.323, 30.267]], [[-100.425, 30.682], [-100.42, 30.828]], [[-100.434, 30.82], [-100.421, 31.079]], [[-100.386, 31.407], [-100.287, 31.487]], [[-100.421, 31.079], [-100.39, 31.41]], [[-100.382, 31.41], [-100.388, 31.307]], [[-100.37, 31.306], [-100.397, 31.308]], [[-100.287, 31.488], [-100.24, 31.498]], [[-98.508, 30.94], [-98.521, 31.101]], [[-98.709, 31.195], [-98.476, 31.138]], [[-98.479, 31.131], [-98.273, 31.258]], [[-98.022, 30.756], [-98.243, 30.798]], [[-98.203, 31.06], [-98.264, 30.578]], [[-98.201, 31.183], [-98.203, 31.06]], [[-98.273, 31.258], [-98.2, 31.183]], [[-98.407, 31.81], [-98.348, 31.729]], [[-98.349, 31.729], [-98.324, 31.712]], [[-98.324, 31.712], [-98.091, 31.711]], [[-97.984, 31.938], [-97.929, 31.896]], [[-97.933, 31.898], [-98.083, 31.719]], [[-98.083, 31.719], [-97.933, 31.898]], [[-97.835, 31.95], [-97.709, 32.048]], [[-97.929, 31.896], [-97.835, 31.954]], [[-98.324, 31.712], [-98.343, 31.654]], [[-98.343, 31.654], [-98.292, 31.481]], [[-98.316, 31.707], [-98.33, 31.636]], [[-98.33, 31.636], [-98.336, 31.635]], [[-97.727, 30.212], [-97.637, 30.307]], [[-97.444, 30.814], [-97.191, 31.17]], [[-97.191, 31.17], [-97.123, 31.253]], [[-97.648, 30.307], [-97.57, 30.491]], [[-97.57, 30.491], [-97.444, 30.814]], [[-98.285, 31.375], [-98.273, 31.258]], [[-98.292, 31.481], [-98.285, 31.373]], [[-98.561, 31.448], [-98.293, 31.452]], [[-98.226, 31.467], [-98.174, 31.467]], [[-98.293, 31.452], [-98.227, 31.467]], [[-97.576, 30.505], [-97.669, 30.289]], [[-97.451, 30.816], [-97.576, 30.505]], [[-97.656, 30.462], [-97.602, 30.426]], [[-97.745, 31.385], [-97.502, 31.439]], [[-97.502, 31.439], [-97.218, 31.412]], [[-97.49, 31.441], [-97.482, 31.553]], [[-97.522, 31.663], [-97.622, 31.938]], [[-97.482, 31.549], [-97.526, 31.664]], [[-97.622, 31.938], [-97.709, 32.048]], [[-97.748, 32.141], [-97.709, 32.048]], [[-97.822, 32.345], [-97.796, 32.324]], [[-97.797, 32.325], [-97.747, 32.144]], [[-97.845, 31.139], [-97.772, 31.148]], [[-97.772, 31.148], [-97.381, 31.005]], [[-97.272, 31.281], [-97.451, 30.816]], [[-97.258, 31.32], [-97.272, 31.281]], [[-97.111, 31.53], [-97.258, 31.32]], [[-97.772, 31.148], [-97.374, 31.067]], [[-96.985, 30.663], [-96.986, 30.842]], [[-96.99, 30.843], [-96.989, 30.664]], [[-97.206, 30.941], [-97.397, 31.007]], [[-96.984, 30.842], [-97.206, 30.941]], [[-97.179, 31.507], [-97.16, 31.496]], [[-97.108, 31.538], [-97.168, 31.5]], [[-96.948, 31.473], [-96.944, 31.47]], [[-97.136, 31.539], [-96.948, 31.473]], [[-96.944, 31.47], [-96.878, 31.327]], [[-96.7, 31.187], [-96.434, 30.788]], [[-96.878, 31.327], [-96.7, 31.187]], [[-96.434, 30.788], [-96.394, 30.753]], [[-96.958, 31.599], [-96.965, 31.49]], [[-96.874, 31.51], [-96.778, 31.526]], [[-96.304, 31.602], [-95.979, 31.645]], [[-96.778, 31.526], [-96.304, 31.603]], [[-96.959, 31.496], [-96.874, 31.51]], [[-96.857, 31.519], [-96.783, 31.532]], [[-96.926, 31.512], [-96.857, 31.519]], [[-96.301, 31.329], [-96.229, 31.429]], [[-96.266, 31.458], [-96.261, 31.461]], [[-96.39, 31.322], [-96.301, 31.329]], [[-96.262, 31.373], [-95.962, 31.423]], [[-95.962, 31.423], [-95.892, 31.415]], [[-95.909, 31.022], [-95.983, 31.041]], [[-96.65, 32.194], [-96.691, 32.343]], [[-96.39, 31.321], [-96.598, 31.837]], [[-96.595, 31.831], [-96.65, 32.194]], [[-96.763, 31.827], [-96.51, 31.57]], [[-97.159, 31.879], [-96.943, 31.876]], [[-96.527, 31.674], [-96.292, 31.605]], [[-96.57, 32.235], [-96.599, 32.26]], [[-96.483, 31.687], [-96.443, 31.836]], [[-96.443, 31.836], [-96.57, 32.235]], [[-95.671, 31.744], [-95.762, 31.678]], [[-95.759, 31.671], [-95.979, 31.645]], [[-95.693, 31.683], [-95.702, 31.705]], [[-95.991, 31.979], [-95.762, 31.678]], [[-95.951, 31.914], [-95.911, 31.906]], [[-95.511, 33.094], [-95.806, 33.12]], [[-95.806, 33.12], [-95.904, 33.134]], [[-94.817, 32.378], [-94.79, 32.363]], [[-94.799, 32.286], [-94.82, 32.292]], [[-95.092, 32.298], [-95.284, 32.271]], [[-95.242, 32.28], [-95.23, 32.258]], [[-95.168, 32.294], [-95.167, 32.259]], [[-95.983, 31.984], [-96.007, 31.954]], [[-96.068, 32.107], [-96.019, 32.054]], [[-96.019, 32.054], [-95.986, 31.986]], [[-98.259, 32.198], [-98.326, 32.433]], [[-98.286, 32.404], [-98.326, 32.433]], [[-98.115, 32.096], [-98.259, 32.198]], [[-96.074, 32.106], [-96.023, 32.051]], [[-96.024, 32.051], [-95.986, 31.985]], [[-95.989, 31.971], [-95.984, 31.971]], [[-96.02, 31.972], [-95.954, 31.964]], [[-96.845, 32.651], [-96.783, 32.585]], [[-95.993, 32.141], [-96.018, 32.108]], [[-96.064, 32.171], [-96.026, 32.134]], [[-97.155, 31.837], [-97.265, 32.256]], [[-97.265, 32.253], [-97.378, 32.435]], [[-97.15, 31.619], [-97.155, 31.837]], [[-96.006, 32.38], [-95.927, 32.48]], [[-96.039, 32.297], [-96.006, 32.38]], [[-96.611, 32.252], [-96.587, 32.251]], [[-97.001, 32.302], [-96.599, 32.26]], [[-97.353, 32.388], [-97.006, 32.304]], [[-97.006, 32.304], [-97.001, 32.302]], [[-96.57, 32.235], [-96.469, 32.4]], [[-96.546, 32.374], [-96.525, 32.366]], [[-96.314, 33.193], [-96.762, 33.201]], [[-96.757, 33.201], [-96.915, 33.041]], [[-96.915, 33.041], [-96.921, 32.923]], [[-96.848, 33.217], [-96.848, 33.181]], [[-97.099, 33.245], [-96.833, 33.234]], [[-96.817, 33.363], [-96.82, 33.233]], [[-96.619, 33.706], [-96.716, 33.529]], [[-96.716, 33.529], [-96.817, 33.364]], [[-96.444, 32.108], [-96.432, 32.1]], [[-96.926, 31.512], [-96.965, 31.49]], [[-96.623, 31.552], [-96.641, 31.315]], [[-96.615, 31.372], [-96.549, 31.358]], [[-99.136, 32.539], [-99.191, 32.539]], [[-97.071, 32.593], [-97.037, 32.516]], [[-97.138, 32.733], [-97.071, 32.593]], [[-97.68, 32.96], [-97.652, 32.982]], [[-97.737, 32.913], [-97.733, 32.93]], [[-97.371, 33.105], [-97.424, 33.081]], [[-98.214, 32.222], [-98.341, 32.117]], [[-98.34, 32.122], [-98.563, 32.128]], [[-98.295, 32.104], [-98.297, 32.103]], [[-98.354, 32.388], [-98.317, 32.522]], [[-98.308, 32.522], [-98.362, 32.43]], [[-98.247, 32.436], [-98.313, 32.452]], [[-98.917, 32.038], [-98.948, 32.301]], [[-96.962, 32.53], [-96.647, 32.285]], [[-96.412, 32.081], [-96.392, 32.068]], [[-96.82, 33.233], [-96.616, 33.153]], [[-96.835, 33.203], [-96.832, 33.234]], [[-96.425, 33.088], [-96.377, 33.094]], [[-96.407, 33.057], [-96.377, 33.048]], [[-96.151, 33.181], [-95.902, 33.135]], [[-97.108, 33.48], [-97.107, 33.618]], [[-96.979, 32.968], [-97.0, 33.036]], [[-97.0, 33.036], [-97.109, 33.481]], [[-98.307, 32.522], [-98.292, 32.523]], [[-98.315, 32.52], [-97.991, 32.756]], [[-97.991, 32.756], [-97.647, 32.98]], [[-96.362, 33.555], [-96.386, 33.562]], [[-97.365, 33.677], [-97.355, 33.635]], [[-97.15, 33.645], [-97.113, 33.606]], [[-97.254, 33.866], [-97.15, 33.645]], [[-97.161, 33.645], [-97.113, 33.599]], [[-97.599, 33.131], [-97.561, 33.157]], [[-97.82, 32.857], [-97.884, 32.824]], [[-97.367, 32.227], [-97.368, 32.232]], [[-97.085, 30.526], [-97.05, 30.465]], [[-97.118, 30.588], [-97.085, 30.526]], [[-97.222, 30.64], [-97.118, 30.588]], [[-97.54, 30.624], [-97.222, 30.64]], [[-96.959, 31.496], [-97.123, 31.253]], [[-97.797, 32.427], [-97.835, 32.359]], [[-97.715, 32.394], [-97.745, 32.352]], [[-97.745, 32.352], [-97.748, 32.335]], [[-97.556, 32.248], [-97.574, 32.25]], [[-97.574, 32.25], [-97.641, 32.335]], [[-97.793, 32.504], [-97.796, 32.429]], [[-99.494, 32.427], [-99.688, 32.441]], [[-103.058, 31.309], [-103.002, 31.357]], [[-96.341, 33.605], [-96.327, 33.595]], [[-96.368, 33.56], [-96.28, 33.661]], [[-99.088, 32.515], [-99.096, 32.533]], [[-99.081, 32.503], [-99.088, 32.515]], [[-99.083, 32.505], [-99.158, 32.519]], [[-99.066, 32.523], [-99.129, 32.509]], [[-99.13, 32.539], [-99.129, 32.507]], [[-99.066, 32.518], [-99.033, 32.52]], [[-99.141, 32.502], [-99.066, 32.518]], [[-100.26, 31.88], [-100.305, 32.11]], [[-100.305, 32.11], [-100.391, 32.234]], [[-100.196, 31.703], [-100.271, 31.886]], [[-98.175, 34.11], [-98.17, 33.982]], [[-97.538, 33.69], [-97.436, 33.664]], [[-97.436, 33.664], [-97.333, 33.624]], [[-97.377, 33.656], [-97.15, 33.645]], [[-97.051, 33.633], [-97.058, 33.61]], [[-96.688, 33.655], [-96.797, 33.675]], [[-96.874, 33.662], [-97.113, 33.606]], [[-96.921, 33.812], [-96.874, 33.792]], [[-96.874, 33.792], [-96.797, 33.675]], [[-96.622, 33.722], [-96.605, 33.685]], [[-96.874, 33.662], [-96.34, 33.668]], [[-99.492, 32.503], [-99.991, 32.529]], [[-95.715, 31.478], [-95.639, 31.583]], [[-95.584, 33.38], [-95.584, 33.379]], [[-95.589, 33.26], [-95.511, 33.094]], [[-96.943, 31.876], [-96.763, 31.827]], [[-99.191, 32.539], [-99.136, 32.539]], [[-95.987, 31.657], [-95.928, 31.567]], [[-95.928, 31.567], [-95.887, 31.46]], [[-95.764, 31.678], [-95.64, 31.583]], [[-95.64, 31.583], [-95.565, 31.531]], [[-94.695, 32.431], [-94.718, 32.423]], [[-94.718, 32.423], [-94.815, 32.357]], [[-97.779, 32.335], [-97.59, 32.351]], [[-96.516, 32.783], [-96.484, 32.814]], [[-96.484, 32.814], [-96.421, 32.861]], [[-96.815, 33.137], [-96.822, 33.137]], [[-98.353, 33.876], [-97.982, 33.715], [-98.538, 33.921], [-98.353, 33.876]], [[-95.63, 33.468], [-95.589, 33.255], [-95.624, 33.612], [-95.63, 33.468], [-95.573, 33.69], [-95.624, 33.61]]]}}
]
}
