{
"type": "FeatureCollection",
"features": [
{"type": "Feature", "properties": {"ProjectID": "P0392"}, "geometry": {"type": "MultiLineString", "coordinates": [[[-81.221438, 40.437951], [-80.788309, 40.426527], [-80.638944, 40.473948], [-80.559576, 40.479711], [-80.517546, 40.454101], [-80.414686, 40.431349]], [[-81.221438, 40.437951], [-81.094424, 40.329893], [-81.084921, 40.258949], [-80.999012, 40.131273], [-80.928451, 39.980113]], [[-82.463819, 42.77273], [-82.646751, 42.840557], [-82.669677, 42.868778], [-82.791716, 42.886679], [-83.085345, 43.001904], [-83.188199, 42.982638], [-83.330934, 42.98298], [-83.391908, 42.942781], [-83.461669, 42.931656], [-83.471362, 42.884508], [-83.611997, 42.871556], [-83.759605, 42.885268], [-83.985929, 42.83902], [-84.024106, 42.757434], [-84.026602, 42.675109], [-84.04014, 42.65737], [-84.023168, 42.507563], [-83.99688, 42.470371], [-83.964412, 42.468176], [-83.949567, 42.443161], [-83.975147, 42.386397], [-83.952123, 42.348937], [-83.972309, 42.198581], [-84.019708, 42.14961], [-84.016004, 42.123723], [-84.05426, 42.033812], [-84.09056, 41.997599], [-84.091129, 41.957093], [-84.118762, 41.927514], [-84.113698, 41.89222], [-84.245651, 41.616241], [-84.293099, 41.483885], [-84.290596, 41.455534], [-84.362721, 41.363975], [-84.317235, 41.333199], [-83.672108, 41.242437], [-83.539787, 41.207184], [-83.490081, 41.176377], [-83.475673, 41.138177], [-83.411375, 41.115554], [-83.346856, 41.11552], [-83.147872, 41.046558], [-82.658021, 40.849459], [-82.455308, 40.844962], [-82.40247, 40.821006], [-82.300546, 40.80611], [-82.194871, 40.813974], [-82.090283, 40.788341], [-82.05253, 40.757334], [-81.949804, 40.74812], [-81.890611, 40.720734], [-81.432654, 40.661557], [-81.337381, 40.613266], [-81.339459, 40.585766], [-81.298808, 40.518938], [-81.277852, 40.511748], [-81.221438, 40.437951]], [[-81.039249, 39.814809], [-81.007269, 39.678345], [-80.98538, 39.674716], [-80.910056, 39.604757], [-80.973204, 39.515779], [-80.944962, 39.473172], [-80.685491, 39.268257], [-80.628447, 39.300642], [-80.609654, 39.289701], [-80.56943, 39.302536]], [[-81.297212, 39.791468], [-81.039249, 39.814809]], [[-80.928451, 39.980113], [-80.731318, 39.971495], [-80.68648, 39.953465], [-80.517165, 39.955123]], [[-81.039249, 39.814809], [-80.877504, 39.837435], [-80.924036, 39.929135], [-80.928451, 39.980113]], [[-81.297212, 39.791468], [-81.307368, 39.73388]], [[-81.302528, 39.791178], [-81.297212, 39.791468]]]}}
]
}
