{
"type": "FeatureCollection",
"features": [
{"type": "Feature", "id": 1219, "properties": {"ProjectID": "P0417", "OBJECTID": 1219, "nombre_gasoducto": "Lazaro Cardenas - Acapulco", "longitud_km": 331, "pais": "MÉXICO", "diametro": null, "operador": " ", "anio_operacion": "2020-2022", "tramo": "Lázaro Cárdenas - Acapulco", "Shape__Length": 2.7708626986230507}, "geometry": {"type": "LineString", "coordinates": [[-102.218557, 17.948537], [-102.186121, 18.027455], [-102.140001, 18.033203], [-102.119214, 18.036668], [-102.063781, 18.036668], [-102.018742, 18.036668], [-101.959845, 18.029739], [-101.894018, 18.02281], [-101.803979, 17.990795], [-101.741578, 17.932731], [-101.658428, 17.86344], [-101.623783, 17.82533], [-101.599531, 17.780291], [-101.537169, 17.731787], [-101.485201, 17.693677], [-101.440162, 17.686748], [-101.381264, 17.662496], [-101.301579, 17.624386], [-101.214966, 17.572418], [-101.145674, 17.544701], [-101.055596, 17.492733], [-101.02788, 17.468481], [-100.958589, 17.423442], [-100.851187, 17.364545], [-100.691818, 17.291789], [-100.580952, 17.24675], [-100.553236, 17.222498], [-100.487409, 17.184388], [-100.442461, 17.184783], [-100.369614, 17.12549], [-100.300323, 17.090845], [-100.203316, 17.056199], [-100.140954, 17.042341], [-100.076461, 17.016342], [-99.966831, 16.95985], [-99.919222, 16.966121], [-99.891506, 16.938404], [-99.856835, 16.920247], [-99.856785, 16.892757]]}}
]
}
