{
"type": "FeatureCollection",
"features": [
{"type": "Feature", "properties": {"ProjectID": "P0415"}, "geometry": {"type": "LineString", "coordinates": [[-103.658696, 25.470703], [-103.640452, 25.282908], [-103.751, 25.07037], [-103.90174, 24.772926], [-104.026191, 24.543857], [-104.18146, 24.379904], [-104.306688, 24.279191], [-104.39083, 24.199554], [-104.416113, 24.140628], [-104.385206, 24.045049], [-104.211696, 23.940695], [-103.961737, 23.842641], [-103.660058, 23.730886], [-103.426135, 23.666686], [-103.187177, 23.594001], [-103.076262, 23.514185], [-103.007756, 23.434358], [-102.929054, 23.301036], [-102.837641, 23.140416], [-102.7103, 22.926386], [-102.602626, 22.721374], [-102.508765, 22.557571], [-102.358, 22.28386], [-102.210236, 22.011905], [-102.088689, 21.798728]]}},
{"type": "Feature", "properties": {"ProjectID": "P0415", "OBJECTID": 1152, "nombre_gasoducto": "SISTRANGAS", "longitud_km": 17.989, "pais": "MÉXICO", "diametro": null, "operador": "CENAGAS", "anio_operacion": 1948, "tramo": "BUENAVISTA EL CARMEN-  EL CARMEN", "Shape__Length": 0.16353901284851896}, "geometry": {"type": "LineString", "coordinates": [[-98.439158, 26.17474], [-98.441994, 26.134034], [-98.481039, 26.017676]]}},
{"type": "Feature", "properties": {"ProjectID": "P0415", "OBJECTID": 1160, "nombre_gasoducto": "SISTRANGAS", "longitud_km": 4.651, "pais": "MÉXICO", "diametro": null, "operador": "CENAGAS", "anio_operacion": 1956, "tramo": "RAMAL", "Shape__Length": 0.044662565141290314}, "geometry": {"type": "LineString", "coordinates": [[-97.315542, 20.801963], [-97.270943, 20.799581]]}},
{"type": "Feature", "properties": {"ProjectID": "P0415", "OBJECTID": 1176, "nombre_gasoducto": "SISTRANGAS", "longitud_km": 675.688, "pais": "MÉXICO", "diametro": null, "operador": "CENAGAS", "anio_operacion": 1983, "tramo": "PEDRO ESCOBEDO-MINATITLAN", "Shape__Length": 0.009836628691267198}, "geometry": {"type": "LineString", "coordinates": [[-99.938603, 20.302842], [-99.931614, 20.29592]]}},
{"type": "Feature", "properties": {"ProjectID": "P0415", "OBJECTID": 1177, "nombre_gasoducto": "SISTRANGAS", "longitud_km": 245.774, "pais": "MÉXICO", "diametro": null, "operador": "CENAGAS", "anio_operacion": 1955, "tramo": "ECATEPEC-TUXPAN", "Shape__Length": 0.00025692863623193114}, "geometry": {"type": "LineString", "coordinates": [[-97.509911, 20.514966], [-97.509664, 20.515038]]}},
{"type": "Feature", "properties": {"ProjectID": "P0415", "OBJECTID": 1178, "nombre_gasoducto": "SISTRANGAS", "longitud_km": 339.469, "pais": "MÉXICO", "diametro": null, "operador": "CENAGAS", "anio_operacion": 1956, "tramo": "TEPEJI-CEMPOALA", "Shape__Length": 0.0032939444291944274}, "geometry": {"type": "LineString", "coordinates": [[-96.820273, 19.478734], [-96.817088, 19.477891]]}},
{"type": "Feature", "properties": {"ProjectID": "P0415", "OBJECTID": 1179, "nombre_gasoducto": "SISTRANGAS", "longitud_km": 675.688, "pais": "MÉXICO", "diametro": null, "operador": "CENAGAS", "anio_operacion": 1977, "tramo": "PEDRO ESCOBEDO-MINATITLAN", "Shape__Length": 0.0008845432161980557}, "geometry": {"type": "LineString", "coordinates": [[-97.389118, 18.857271], [-97.388236, 18.85734]]}}
]
}
