{
"type": "FeatureCollection",
"features": [
{"type": "Feature", "properties": {"ProjectID": "P0431", "CapacityBcm/y": 11.74, "CapacityUnits": "MMcf/d", "LengthKnownKm": 23, "Wiki": "https://www.gem.wiki/San_Isidro-Samalayuca_Gas_pipeline", "ParentHQCountry": "United States", "OtherLanguagePrimaryPipelineName": "Gasoducto San Isidro-Samalayuca", "Parent": "Sempra Energy [100.00%]", "Cost": "", "Countries": "Mexico", "StartCountry": "Mexico", "EndCountry": "Mexico", "EndLocation": "Salamayuca", "StartYear1": 2017, "CostUnits": "", "LengthEstimateKm": 35.53, "CapacityBOEd": 5463.13, "EndSubRegion": "Latin America and the Caribbean", "Diameter": "36, 42", "LastUpdated": "2023-08-18", "ShelvedYear": "", "OtherLanguageSegmentName": "", "FIDYear": "", "FuelSource": "", "StartYear3": "", "DiameterUnits": "in", "Capacity": 1135, "Status": "Operating", "CostUSD": "--", "StopYear": "", "FIDStatus": "", "StartLocation": "San Isidro", "OtherEnglishNames": "", "EndPrefecture/District": "", "CancelledYear": "", "PipelineName": "San Isidro-Samalayuca Gas Pipeline", "SegmentName": "", "WKTFormat": "LINESTRING (-106.283094 31.545794, -106.471365 31.472712, -106.485995 31.329876)", "StartSubRegion": "Latin America and the Caribbean", "EndRegion": "Americas", "StartPrefecture/District": "", "Fuel": "Gas", "StartRegion": "Americas", "Owner": "IEnova [100.00%]", "LengthMergedKm": 23, "StartState/Province": "Chihuahua", "EndState/Province": "Chihuahua", "StartYear2": ""}, "geometry": {"type": "LineString", "coordinates": [[-106.277447, 31.558644], [-106.314011, 31.549283], [-106.375809, 31.527045], [-106.424561, 31.504801], [-106.447511, 31.49008], [-106.453017, 31.486946], [-106.459884, 31.481339], [-106.462792, 31.472849], [-106.463257, 31.465133], [-106.460909, 31.453309], [-106.461336, 31.446797], [-106.461324, 31.441654], [-106.461739, 31.429999], [-106.461615, 31.41018], [-106.465759, 31.392696], [-106.465073, 31.380607], [-106.465759, 31.375477], [-106.468849, 31.367049], [-106.487063, 31.329636]]}}
]
}
