{
"type": "FeatureCollection",
"features": [
{"type": "Feature", "properties": {"ProjectID": "P0433"}, "geometry": {"type": "LineString", "coordinates": [[-106.254345, 31.545342], [-106.247424, 31.507192], [-106.244802, 31.491086], [-106.235438, 31.429284], [-106.225325, 31.324409], [-106.25477, 31.16659], [-106.334406, 30.95356], [-106.346098, 30.90244], [-106.420975, 30.591381], [-106.417806, 30.3159], [-106.310522, 30.128761], [-106.300137, 29.952971], [-106.260863, 29.805838], [-106.21378, 29.562577], [-106.143156, 29.295775], [-106.047996, 29.034946], [-106.025288, 28.917903], [-106.002581, 28.80086], [-105.995672, 28.756793], [-105.984767, 28.71185], [-105.974863, 28.669535], [-105.954383, 28.555905], [-105.927486, 28.445283]]}}
]
}
