{
"type": "FeatureCollection",
"features": [
{"type": "Feature", "properties": {"ProjectID": "P0430"}, "geometry": {"type": "LineString", "coordinates": [[-112.007935, 30.688441], [-111.997412, 30.684703], [-111.941072, 30.682803], [-111.89438, 30.693432], [-111.865541, 30.707602], [-111.841729, 30.71023], [-111.817911, 30.697764], [-111.795473, 30.692718], [-111.752931, 30.662723], [-111.678773, 30.627278], [-111.565573, 30.590849], [-111.431581, 30.553984], [-111.298372, 30.518499], [-111.213228, 30.497202], [-111.113214, 30.492994], [-110.997621, 30.516133], [-110.90579, 30.547377], [-110.874025, 30.609551], [-110.835573, 30.682803], [-110.761494, 30.741352], [-110.681764, 30.76308], [-110.474397, 30.838574], [-110.337068, 30.889263], [-110.220338, 30.93757], [-110.125581, 30.984675], [-110.087129, 31.008218], [-110.063783, 31.032933], [-110.039064, 31.062347], [-110.015718, 31.085871], [-109.96787, 31.097246], [-109.914094, 31.103511], [-109.797365, 31.097631], [-109.7287, 31.085871], [-109.589094, 31.074076], [-108.995363, 31.064699], [-108.907472, 31.069405], [-108.851167, 31.065876], [-108.813507, 31.0509], [-108.803102, 31.03411], [-108.793489, 31.005864], [-108.798982, 30.987029], [-108.800355, 30.978788], [-108.79547, 30.973607], [-108.787996, 30.96819], [-108.742677, 30.956414], [-108.668519, 30.939926], [-108.498231, 30.914009], [-108.314212, 30.8928], [-108.191233, 30.85755], [-108.025821, 30.829142], [-107.888492, 30.78432], [-107.806094, 30.732395], [-107.749329, 30.718095], [-107.696231, 30.725312], [-107.509463, 30.803195], [-107.217239, 30.942672], [-107.048037, 31.017635], [-106.86951, 31.109391], [-106.766316, 31.174439], [-106.468707, 31.367146]]}}
]
}
