{
"type": "FeatureCollection",
"features": [
{"type": "Feature", "properties": {"ProjectID": "P0451", "PipelineName": "Iran-Pakistan-India Pipeline", "SegmentName": "", "Wiki": "https://www.gem.wiki/Iran-Pakistan-India_Pipeline", "Status": "cancelled", "LastUpdated": "2025-07-11", "Fuel": "Gas", "OtherEnglishNames": "IPI Pipeline", "OtherLanguagePrimaryPipelineName": "", "OtherLanguageSegmentName": "", "CountriesOrAreas": "Iran; Pakistan; India", "Owner": "Iran Ministry of Petroleum; Pasargad Energy Development Co", "Parent": "Ministry of Petroleum (Iran) [unknown %]; Pars Aryan Investment Co [unknown %]; Pasargad Arzesh Afarinan Co [unknown %]", "ParentEntityIDs": "E100001015106; E100000001624", "StartYear1": "", "StartYear2": "", "StartYear3": "", "ShelvedYear": "", "CancelledYear": "2009", "StopYear": "", "Capacity": "3884.6", "CapacityUnits": "MMcf/d", "CapacityBcm/y": "39.7", "CapacityBOEd": "639886.85", "LengthKnownKm": "2700.0", "LengthEstimateKm": "2975.1", "LengthMergedKm": "2700.0", "Diameter": "", "DiameterUnits": "", "FuelSource": "South Pars gas field", "StartLocation": "Asaluyeh", "StartPrefecture/District": "", "StartState/Province": "Bushehr", "StartCountryOrArea": "Iran", "StartRegion": "Asia", "StartSubRegion": "Southern Asia", "EndLocation": "New Delhi", "EndPrefecture/District": "", "EndState/Province": "India", "EndCountryOrArea": "India", "EndRegion": "Asia", "EndSubRegion": "Southern Asia", "ProjectLevelCost": "", "ProjectLevelCostUnits": "", "CostUSD": "7500000000.0", "FIDStatus": "", "FIDYear": "", "PCI3": "", "PCI4": "", "PCI5": "", "PCI6": "", "RouteAccuracy": "medium", "RouteType": "Mapped route (at any accuracy)", "RouteCreator": "NE", "PipelineStatus": "cancelled", "CapacityMapScale": "639886.85"}, "geometry": {"type": "LineString", "coordinates": [[77.190732, 28.618912], [74.266103, 29.823256], [72.670413, 29.673483], [71.433617, 30.198742], [70.859089, 29.373268], [69.608413, 29.185182], [68.012723, 28.996751], [67.969596, 28.277586], [66.582438, 27.820286], [65.112077, 26.256676], [59.333225, 25.881706], [56.619559, 27.247579], [52.590286, 27.474501]]}}
]
}
