{
"type": "FeatureCollection",
"features": [
{"type": "Feature", "properties": {"ProjectID": "P0465", "Fuel": "Gas", "StartCount": "Algeria", "EndCountry": "Algeria", "Countries": "Algeria", "Wiki": "https://www.gem.wiki/Haoudh_El_Hamra-Arzew_Gas_Pipeline", "PipelineNa": "Haoudh El Hamra-Arzew Gas Pipeline", "SegmentNam": null, "OtherEngli": null, "Status": "operating", "Owner": "Sonatrach (100%)", "Parent": "Sonatrach [100.00%]", "ParentHQCo": "Algeria", "StartYear1": null, "StartYear2": null, "StartYear3": null, "StopYear": null, "ShelvedYea": null, "Capacity": null, "CancelledY": null, "CapacityUn": null, "CapacityBc": "--", "CapacityBO": "--", "LengthKnow": "795", "LengthEsti": "760.79", "LengthMerg": "795", "Diameter": null, "DiameterUn": null, "FuelSource": null, "StartLocat": "Haoudh El Hamra", "StartPrefe": null, "StartState": "Ouargla", "StartRegio": "Africa", "EndLocatio": "Arzew", "StartSubRe": "Northern Africa", "EndPrefect": null, "EndState/P": "Oran", "EndRegion": "Africa", "FIDStatus": null, "EndSubRegi": "Northern Africa", "FIDYear": null, "OtherLangu": null, "OtherLan_1": null, "Cost": null, "CostUnits": null, "CostUSD": "--", "WKTFormat": "LINESTRING (5.7348 32.0173, 5.2074 31.9547, 4.3567 32.3079, 3.2516 32.9361, 2.8099 33.7654, 2.6152 33.9366, 2.1151 34.6854, 1.5699 34.9698, 1.3004 35.3447, 0.7192 35.727, -0.0411 35.6148, -0.2617 35.8093)", "LastUpdate": "2022-07-06"}, "geometry": {"type": "MultiLineString", "coordinates": [[[5.976534, 31.893037], [5.96923, 31.880235], [5.955158, 31.887153], [5.934419, 31.897215], [5.869982, 31.904761], [5.809248, 31.902246], [5.788509, 31.895329], [5.627786, 31.901617], [5.466323, 31.89973], [5.2074, 31.9547], [5.105147, 32.029982], [4.952544, 32.098304], [4.359768, 32.309656], [4.292104, 32.375337], [4.270509, 32.381416], [4.169833, 32.445678], [4.136721, 32.460256], [3.886942, 32.574367], [3.737839, 32.643644], [3.710485, 32.647281], [3.674735, 32.653011], [3.6697, 32.655212], [3.658083, 32.672328], [3.650144, 32.67681], [3.646174, 32.680314], [3.644625, 32.683329], [3.640172, 32.687159], [3.638453, 32.687702], [3.625148, 32.691422], [3.610476, 32.69554], [3.608361, 32.69643], [3.606292, 32.697584], [3.601928, 32.699932], [3.593041, 32.704652], [3.590342, 32.706621], [3.585595, 32.709119], [3.581816, 32.712223], [3.576958, 32.715706], [3.576148, 32.716993], [3.572189, 32.720323], [3.559592, 32.735084], [3.554103, 32.739625], [3.53712, 32.749274], [3.520451, 32.757522], [3.513725, 32.759036], [3.508754, 32.761911], [3.478162, 32.769856], [3.473303, 32.772201], [3.472043, 32.778329], [3.462839, 32.786096], [3.4446, 32.791642], [3.433712, 32.795727], [3.428179, 32.797731], [3.418191, 32.802647], [3.402805, 32.804236], [3.390568, 32.806693], [3.383459, 32.808735], [3.38013, 32.816298], [3.374282, 32.826657], [3.251336, 32.915831], [3.204547, 33.032983], [3.088206, 33.25256], [3.06841, 33.287692], [3.050235, 33.32033], [3.031699, 33.35333], [3.017753, 33.375387], [2.992829, 33.412084], [2.964576, 33.452032], [2.931733, 33.499503], [2.911488, 33.529998], [2.902221, 33.553397], [2.891513, 33.576827], [2.873158, 33.620483], [2.839191, 33.700411], [2.829473, 33.722136], [2.822466, 33.737158], [2.820768, 33.744304], [2.818552, 33.750738], [2.815988, 33.758144], [2.813941, 33.763773], [2.811016, 33.764568], [2.744905, 33.832335], [2.730925, 33.840626], [2.723839, 33.844746], [2.718463, 33.847884], [2.708183, 33.853895], [2.70031, 33.858476], [2.6926, 33.86302], [2.688961, 33.865131], [2.685683, 33.867036], [2.682578, 33.868827], [2.675509, 33.874154], [2.674475, 33.875686], [2.660382, 33.882689], [2.658087, 33.885406], [2.655141, 33.886452], [2.652216, 33.886751], [2.6472, 33.888534], [2.642566, 33.894659], [2.637707, 33.902127], [2.614763, 33.936903], [2.613683, 33.94377], [2.616742, 33.948025], [2.611119, 33.9947], [2.615618, 34.021887], [2.608824, 34.03408], [2.582056, 34.069416], [2.570629, 34.078695], [2.568109, 34.08421], [2.562441, 34.089799], [2.559561, 34.095462], [2.557852, 34.103211], [2.558032, 34.104887], [2.551441, 34.115876], [2.549371, 34.117738], [2.542353, 34.120569], [2.539114, 34.123436], [2.532545, 34.132747], [2.529576, 34.136061], [2.519318, 34.156241], [2.517519, 34.157954], [2.509961, 34.168601], [2.502223, 34.188848], [2.493405, 34.207006], [2.460473, 34.250973], [2.441037, 34.280271], [2.43078, 34.30562], [2.416024, 34.317363], [2.397848, 34.336831], [2.368335, 34.381695], [2.369145, 34.390235], [2.34998, 34.416998], [2.337922, 34.42969], [2.331039, 34.439523], [2.314843, 34.471426], [2.242321, 34.551686], [2.20444, 34.586583], [2.169348, 34.62502], [2.105149, 34.698659], [2.013731, 34.741258], [1.876424, 34.804082], [1.806331, 34.849432], [1.753424, 34.876011], [1.73039, 34.883688], [1.713294, 34.895865], [1.634923, 34.93556], [1.575087, 34.966646], [1.569149, 34.972249], [1.540086, 35.009309], [1.525217, 35.028487], [1.50054, 35.042982], [1.485514, 35.051969], [1.477596, 35.059482], [1.465944, 35.077027], [1.446958, 35.11369], [1.424914, 35.152102], [1.341774, 35.289118], [1.302543, 35.344917], [1.279869, 35.355191], [1.27519, 35.367225], [1.27375, 35.376763], [1.271951, 35.381752], [1.268712, 35.382926], [1.265472, 35.382632], [1.260434, 35.377937], [1.256475, 35.377937], [1.248916, 35.383512], [1.247117, 35.391141], [1.246757, 35.400823], [1.229841, 35.419597], [1.222643, 35.42077], [1.21351, 35.431182], [1.196054, 35.439539], [1.191195, 35.440712], [1.178059, 35.450241], [1.167981, 35.461675], [1.162043, 35.467245], [1.155204, 35.468857], [1.13028, 35.466878], [1.109225, 35.476258], [1.094289, 35.484611], [1.087451, 35.487834], [1.081962, 35.489153], [1.066936, 35.496772], [1.063246, 35.499702], [1.051729, 35.503218], [1.028695, 35.513766], [1.016548, 35.517427], [1.00719, 35.517135], [0.984516, 35.533245], [0.973358, 35.54496], [0.974438, 35.548767], [0.971919, 35.550524], [0.9676, 35.551695], [0.961481, 35.549938], [0.952483, 35.554037], [0.943845, 35.566627], [0.938807, 35.566627], [0.933048, 35.569555], [0.92441, 35.575117], [0.917572, 35.576874], [0.912533, 35.585362], [0.906055, 35.588289], [0.897777, 35.588582], [0.890218, 35.590923], [0.88482, 35.601752], [0.875102, 35.607897], [0.868264, 35.62984], [0.8226, 35.650534], [0.812815, 35.652691], [0.803907, 35.656201], [0.797968, 35.657517], [0.794189, 35.660002], [0.785326, 35.664791], [0.784067, 35.671954], [0.767488, 35.684727], [0.759833, 35.690576], [0.758018, 35.693633], [0.754813, 35.699059], [0.749746, 35.70226], [0.747544, 35.706032], [0.743191, 35.706708], [0.738962, 35.710809], [0.737163, 35.713804], [0.734283, 35.716946], [0.727386, 35.722151], [0.722568, 35.725715], [0.717754, 35.727724], [0.6922, 35.732837], [0.685362, 35.732837], [0.680323, 35.735758], [0.671325, 35.737219], [0.65423, 35.737073], [0.614279, 35.727139], [0.608881, 35.725094], [0.606721, 35.725386], [0.587646, 35.721003], [0.581617, 35.71662], [0.565781, 35.71662], [0.548865, 35.715451], [0.544906, 35.714283], [0.541307, 35.71399], [0.533209, 35.711945], [0.477063, 35.718958], [0.423076, 35.723633], [0.395722, 35.724218], [0.36477, 35.707269], [0.345514, 35.707269], [0.316721, 35.700839], [0.285769, 35.690316], [0.24042, 35.669852], [0.205868, 35.656985], [0.171317, 35.65874], [0.123088, 35.652306], [0.07414, 35.641777], [0.03455, 35.640022], [-0.0411, 35.6148], [-0.106716, 35.624811], [-0.17438, 35.656401], [-0.21469, 35.732399], [-0.243483, 35.791977], [-0.2617, 35.8093]]]}}
]
}
