{
"type": "FeatureCollection",
"features": [
{"type": "Feature", "properties": {"ProjectID": "P0461"}, "geometry": {"type": "MultiLineString", "coordinates": [[[3.281849, 6.717337], [3.384082, 6.455027], [3.750292, 5.397266], [3.750292, 5.2753], [3.655017, 5.193976], [3.423634, 5.099084], [3.096975, 4.99062], [2.892813, 4.963501], [2.566155, 4.90926], [2.280329, 4.855014], [2.035335, 4.814327], [1.831173, 4.787201], [1.633316, 4.758622], [1.436461, 4.719381], [1.041748, 4.624423], [0.647036, 4.543019], [0.249911, 4.476409], [0.007329, 4.434467], [-0.400994, 4.366614], [-0.714042, 4.298754], [-1.449023, 4.135867], [-1.509054, 4.132529], [-1.567791, 4.155311], [-1.613475, 4.191111], [-1.646107, 4.249689], [-1.665686, 4.31477], [-1.766667, 4.916667]], [[2.892813, 4.963501], [2.433333, 6.366667]], [[1.633316, 4.758622], [1.222778, 6.131944]], [[0.249911, 4.476409], [0.0, 5.666667]]]}}
]
}
