{
"type": "FeatureCollection",
"features": [
{"type": "Feature", "properties": {"ProjectID": "P0463"}, "geometry": {"type": "MultiLineString", "coordinates": [[[-1.449023, 4.135867], [-1.911063, 4.014729], [-2.254852, 3.892177], [-2.549708, 3.817065], [-2.976308, 3.773246], [-3.463418, 3.769251], [-3.967016, 3.877895], [-4.457004, 3.959369], [-4.715609, 4.000103], [-5.123932, 3.986525], [-5.505034, 3.972947], [-5.668363, 3.932212], [-6.049465, 3.823575], [-6.376123, 3.728506], [-6.702782, 3.660594], [-7.070273, 3.592676], [-7.505818, 3.565508], [-7.954973, 3.565508], [-8.376907, 3.565508], [-8.812452, 3.647011], [-9.179943, 3.809994], [-9.901314, 4.176592], [-10.350469, 4.407326], [-10.677128, 4.624423], [-10.922122, 4.760074], [-11.684325, 5.261746], [-12.133481, 5.586942], [-12.569025, 5.911957], [-12.909295, 6.196188], [-13.317618, 6.53436], [-13.603444, 6.845276], [-13.916492, 7.196502], [-14.107043, 7.426003], [-14.365647, 7.763287], [-14.515366, 8.086826], [-14.678695, 8.423569], [-14.882857, 8.827273], [-15.087018, 9.270837], [-15.345623, 9.83456], [-15.413677, 9.968641], [-15.631449, 10.129464], [-15.849222, 10.31699], [-16.121437, 10.544549], [-16.393653, 10.825419], [-16.625036, 11.065956], [-16.856419, 11.252904], [-17.006138, 11.45307], [-17.360018, 11.852976], [-17.591401, 12.079332], [-17.822784, 12.358682], [-17.999724, 12.531465], [-18.163053, 12.889949], [-18.231107, 13.075629], [-18.28555, 13.473042], [-18.326383, 13.803716], [-18.353604, 14.186711], [-18.353604, 14.661252], [-18.339993, 14.924445], [-18.326383, 15.318629], [-18.190275, 15.829957], [-18.054167, 16.287744], [-17.93167, 16.73143], [-17.809173, 17.26509], [-17.713898, 17.797211], [-17.673065, 18.237283], [-17.659455, 18.585962], [-17.727509, 18.972548], [-17.822784, 19.37108], [-17.945281, 19.730208], [-18.067778, 20.024605], [-18.149443, 20.343977], [-18.203886, 20.497042], [-18.28555, 20.955318], [-18.28555, 21.399522], [-18.299161, 21.918162], [-18.27194, 22.283871], [-18.149443, 22.610938], [-17.958892, 23.012415], [-17.645844, 23.475137], [-17.360018, 23.898915], [-17.019748, 24.370911], [-16.815587, 24.630999], [-16.570593, 24.902894], [-16.284767, 25.223452], [-16.16227, 25.444884], [-16.026162, 25.714971], [-15.952923, 25.897117], [-15.876443, 26.057833], [-15.726725, 26.253305], [-15.372845, 26.606761], [-15.018965, 26.971259], [-14.637863, 27.370848], [-14.275246, 27.66849], [-14.124835, 27.781907], [-13.974424, 27.875511], [-13.725941, 28.021613], [-13.412893, 28.20169], [-12.814019, 28.620688], [-12.419307, 28.942779], [-12.065427, 29.251997], [-11.913236, 29.41545], [-11.779601, 29.583958], [-11.616271, 29.844022], [-11.480163, 30.10341], [-11.41211, 30.303382], [-11.384012, 30.434154], [-11.384888, 30.666987], [-11.384888, 31.110836], [-11.344056, 31.564217], [-11.269133, 31.881697], [-11.202078, 32.100431], [-11.009946, 32.57416], [-10.845983, 32.881856], [-10.690739, 33.139366], [-10.522338, 33.324602], [-10.34735, 33.479612], [-10.152293, 33.620177], [-9.955757, 33.729997], [-9.601877, 33.933507], [-9.247997, 34.113998], [-8.907727, 34.327832], [-8.553847, 34.585955], [-8.295242, 34.787408], [-8.036638, 34.99952], [-7.805255, 35.244438], [-7.519428, 35.621496], [-7.342488, 35.985772], [-7.274434, 36.150798], [-7.138327, 36.348373], [-6.961387, 36.479812], [-6.743614, 36.567314], [-6.607507, 36.611028], [-6.362513, 36.632876], [-6.158351, 36.643798]], [[-8.907727, 34.327832], [-8.540236, 33.922214], [-8.295242, 33.684707], [-8.104692, 33.514656], [-7.988628, 33.401794]], [[-13.725941, 28.021613], [-13.595403, 27.852954], [-13.476768, 27.716054], [-13.316869, 27.578981], [-13.172445, 27.487505]], [[-18.203886, 20.497042], [-17.848872, 20.483919], [-17.586356, 20.483919], [-17.314117, 20.529453], [-17.119661, 20.602278], [-16.915482, 20.738732], [-16.711303, 20.911397]], [[-18.353604, 14.186711], [-18.026946, 14.186711], [-17.645844, 14.199906], [-17.346407, 14.213101], [-16.876591, 14.308285]], [[-18.231107, 13.075629], [-17.795562, 13.168417], [-17.455293, 13.221422], [-17.022433, 13.28854], [-16.662689, 13.316926]], [[-17.006138, 11.45307], [-16.543371, 11.559768], [-16.271156, 11.679755], [-15.99894, 11.746391], [-15.699503, 11.839656]], [[-15.413677, 9.968641], [-14.978132, 10.19645], [-14.610641, 10.357159], [-14.460923, 10.424097]], [[-14.107043, 7.426003], [-13.52178, 7.817228], [-13.195121, 8.005965], [-12.870791, 8.170045]], [[-10.922122, 4.760074], [-10.71796, 5.139754], [-10.54102, 5.397266], [-10.391302, 5.600488], [-10.119235, 5.970238]], [[-5.668363, 3.932212], [-5.763639, 4.258036], [-5.804471, 4.570155], [-5.845303, 4.868576], [-5.858914, 5.180421]]]}}
]
}
