{
"type": "FeatureCollection",
"features": [
{"type": "Feature", "properties": {"ProjectID": "P0469", "Fuel": "Gas", "StartCount": "Algeria", "EndCountry": "Algeria", "Countries": "Algeria", "Wiki": "https://www.gem.wiki/In_Salah_Gas_Pipeline", "PipelineNa": "In Salah Gas Pipeline", "SegmentNam": null, "OtherEngli": "GR3", "Status": "operating", "Owner": "Sonatrach (35%); BP (33.15%); Equinor (31.85%)", "Parent": "Sonatrach [35.00%]; BP [33.15%]; Equinor [31.85%]", "ParentHQCo": "Algeria; United Kingdom; Norway", "StartYear1": "2003", "StartYear2": "2016", "StartYear3": null, "StopYear": null, "ShelvedYea": null, "Capacity": "9", "CancelledY": null, "CapacityUn": "bcm/y", "CapacityBc": "9", "CapacityBO": "4191.32", "LengthKnow": "830", "LengthEsti": "636.71", "LengthMerg": "830", "Diameter": "48", "DiameterUn": "in", "FuelSource": null, "StartLocat": "In Salah", "StartPrefe": null, "StartState": "Tamanrasset", "StartRegio": "Africa", "EndLocatio": "Haoudh El Hamra", "StartSubRe": "Northern Africa", "EndPrefect": null, "EndState/P": "Ouargla", "EndRegion": "Africa", "FIDStatus": null, "EndSubRegi": "Northern Africa", "FIDYear": null, "OtherLangu": "خط أنابيب غاز عين صالح - حاسي الرمل", "OtherLan_1": null, "Cost": null, "CostUnits": null, "CostUSD": "--", "WKTFormat": "LINESTRING (2.4846 27.5595, 2.1336 28.0665, 2.404 28.573121, 2.215693 29.090823, 2.9551 30.4219, 3.0778 31.0414, 3.0446 31.4653, 2.9625 31.8042, 3.1114 32.6619, 3.2516 32.9361)", "LastUpdate": "2024-07-09"}, "geometry": {"type": "MultiLineString", "coordinates": [[[2.487142, 27.556646], [2.481383, 27.55537], [2.480303, 27.568771], [2.479944, 27.585679], [2.462668, 27.615342], [2.45331, 27.622677], [2.435314, 27.666993], [2.423437, 27.670181], [2.405082, 27.684205], [2.378178, 27.724674], [2.309075, 27.82944], [2.290449, 27.850127], [2.278932, 27.857446], [2.273893, 27.862537], [2.272454, 27.8724], [2.262736, 27.876218], [2.24879, 27.897373], [2.241501, 27.909937], [2.227825, 27.909937], [2.214868, 27.93029], [2.20659, 27.946506], [2.20659, 27.950003], [2.202991, 27.954772], [2.203711, 27.960495], [2.200471, 27.965581], [2.201551, 27.971621], [2.201911, 27.974163], [2.198672, 27.97766], [2.196872, 27.982427], [2.193993, 27.986559], [2.192553, 27.997047], [2.188594, 27.998636], [2.188234, 28.003403], [2.184725, 28.006104], [2.182566, 28.016272], [2.172488, 28.018814], [2.170329, 28.024532], [2.158811, 28.042323], [2.136497, 28.065827], [2.151613, 28.091231], [2.178967, 28.138213], [2.222876, 28.221333], [2.2891, 28.345575], [2.296298, 28.35191], [2.304936, 28.372813], [2.305656, 28.382313], [2.40472, 28.569339], [2.28838, 28.933421], [2.279022, 28.9435], [2.264626, 29.005214], [2.259587, 29.019692], [2.254548, 29.036057], [2.24519, 29.053048], [2.213518, 29.081667], [2.215678, 29.090796], [2.318613, 29.273678], [2.379798, 29.382874], [2.392035, 29.409841], [2.45178, 29.515759], [2.517284, 29.644716], [2.649732, 29.944559], [2.747629, 30.11407], [2.953679, 30.419637], [2.963756, 30.427706], [2.997588, 30.575937], [3.015584, 30.595766], [3.018463, 30.613733], [3.006946, 30.629839], [2.996868, 30.832786], [3.036459, 30.880985], [3.057334, 30.944595], [3.054454, 30.951386], [3.055894, 30.960646], [3.059493, 30.97299], [3.060213, 30.987801], [3.067411, 30.997057], [3.07245, 31.021118], [3.079648, 31.040239], [3.060213, 31.096347], [3.040418, 31.125929], [3.044737, 31.164126], [3.057693, 31.204769], [3.057693, 31.229393], [3.041857, 31.257703], [3.026021, 31.282313], [3.03178, 31.300767], [3.027461, 31.329055], [3.0289, 31.362253], [3.032859, 31.370243], [3.033579, 31.409569], [3.040058, 31.430454], [3.045816, 31.4673], [3.091165, 31.564869], [3.089726, 31.577748], [3.076769, 31.603501], [3.068851, 31.610858], [3.058773, 31.623117], [3.047256, 31.638439], [3.033579, 31.658048], [3.037898, 31.667239], [3.032859, 31.678878], [3.0307, 31.697866], [2.970954, 31.783569], [2.961597, 31.805595], [2.960157, 31.827615], [2.966636, 31.853298], [2.979592, 31.879585], [2.975273, 31.888142], [2.975273, 31.900976], [2.984631, 31.911365], [2.993269, 31.921752], [2.991829, 31.933359], [3.001907, 31.95657], [3.017743, 32.019454], [3.02926, 32.056676], [3.03142, 32.065827], [3.063452, 32.106688], [3.089366, 32.249255], [3.108801, 32.542212], [3.11456, 32.648947], [3.2516, 32.9361]]]}}
]
}
