{
"type": "FeatureCollection",
"features": [
{"type": "Feature", "properties": {"ProjectID": "P0471", "id": 2, "Name": "Angola LNG Gas Pipeline System", "Type": "secondary"}, "geometry": {"type": "MultiLineString", "coordinates": [[[11.419969, -4.740874], [11.424942, -4.753687], [11.447282, -4.755176], [11.458393, -4.756099], [11.466726, -4.754253], [11.486632, -4.750563], [11.496353, -4.751024], [11.504686, -4.754715], [11.519037, -4.769016], [11.52737, -4.787008], [11.535703, -4.804538], [11.544961, -4.822067], [11.556072, -4.839596], [11.566719, -4.85528], [11.576904, -4.871885], [11.589403, -4.88849], [11.600976, -4.904634], [11.612087, -4.918471], [11.626438, -4.933691], [11.642177, -4.947066], [11.650047, -4.949372], [11.658843, -4.949834], [11.658843, -4.94476], [11.656065, -4.940609], [11.652825, -4.937381], [11.649121, -4.931846]]]}},
{"type": "Feature", "properties": {"ProjectID": "P0471", "id": 1, "Name": "Angola LNG Gas Pipeline System", "Type": "secondary"}, "geometry": {"type": "MultiLineString", "coordinates": [[[11.275186, -4.489817], [11.292909, -4.489817], [11.312404, -4.497767], [11.32924, -4.503068], [11.348735, -4.510135], [11.366458, -4.517202], [11.386839, -4.522502], [11.404561, -4.527802], [11.42317, -4.533103], [11.43912, -4.537519], [11.435576, -4.529569]]]}},
{"type": "Feature", "properties": {"ProjectID": "P0471", "id": 3, "Name": "Angola LNG Gas Pipeline System", "Type": "secondary"}, "geometry": {"type": "MultiLineString", "coordinates": [[[11.843417, -5.068653], [11.847848, -5.069536], [11.852279, -5.073949], [11.850949, -5.083217]]]}},
{"type": "Feature", "properties": {"ProjectID": "P0471", "id": 4, "Name": "Angola LNG Gas Pipeline System", "Type": "secondary"}, "geometry": {"type": "MultiLineString", "coordinates": [[[11.711827, -5.207658], [11.716701, -5.214276], [11.71803, -5.217365], [11.719802, -5.218688], [11.719802, -5.220895], [11.723347, -5.221777], [11.723347, -5.226631], [11.726005, -5.229278]]]}},
{"type": "Feature", "properties": {"ProjectID": "P0471", "id": 5, "Name": "Angola LNG Gas Pipeline System", "Type": "secondary"}, "geometry": {"type": "MultiLineString", "coordinates": [[[11.928881, -5.18472], [11.921897, -5.181011], [11.911654, -5.185184], [11.901877, -5.187966], [11.89629, -5.196776], [11.885116, -5.212541], [11.873476, -5.228769], [11.866026, -5.238969], [11.861836, -5.244996], [11.857646, -5.251487], [11.856756, -5.257052]]]}},
{"type": "Feature", "properties": {"ProjectID": "P0471", "id": 6, "Name": "Angola LNG Gas Pipeline System", "Type": "secondary"}, "geometry": {"type": "MultiLineString", "coordinates": [[[11.841816, -5.213932], [11.847868, -5.215323], [11.855318, -5.224596], [11.863698, -5.235723], [11.869286, -5.243605], [11.866492, -5.251024], [11.857646, -5.257051]]]}},
{"type": "Feature", "properties": {"ProjectID": "P0471", "id": 7, "Name": "Angola LNG Gas Pipeline System", "Type": "secondary"}, "geometry": {"type": "MultiLineString", "coordinates": [[[11.838091, -5.247314], [11.847403, -5.257051], [11.85718, -5.257051], [11.863233, -5.258442], [11.870682, -5.265396], [11.873941, -5.269105], [11.889771, -5.27235], [11.908395, -5.274669], [11.921432, -5.27745], [11.927484, -5.280696], [11.944711, -5.289968], [11.962403, -5.299703], [11.979165, -5.309902], [11.996392, -5.318711], [12.013618, -5.328909], [12.030845, -5.338644], [12.048072, -5.348379], [12.064833, -5.357651], [12.073613, -5.363269], [12.078097, -5.364959]]]}},
{"type": "Feature", "properties": {"ProjectID": "P0471", "id": 8, "Name": "Angola LNG Gas Pipeline System", "Type": "secondary"}, "geometry": {"type": "MultiLineString", "coordinates": [[[11.855475, -5.257052], [11.86882, -5.27096], [11.869286, -5.290895], [11.879063, -5.300167], [11.893031, -5.313611], [11.907929, -5.327055], [11.912585, -5.330764], [11.922828, -5.329373]]]}},
{"type": "Feature", "properties": {"ProjectID": "P0471", "id": 9, "Name": "Angola LNG Gas Pipeline System", "Type": "secondary"}, "geometry": {"type": "MultiLineString", "coordinates": [[[12.104408, -5.375034], [12.104874, -5.368544], [12.10208, -5.366226], [12.096028, -5.357882], [12.085927, -5.35399], [12.073549, -5.363269], [12.06623, -5.379669], [12.056918, -5.398674], [12.052728, -5.408408], [12.05459, -5.41397], [12.054663, -5.414314]]]}},
{"type": "Feature", "properties": {"ProjectID": "P0471", "id": 10, "Name": "Angola LNG Gas Pipeline System", "Type": "secondary"}, "geometry": {"type": "MultiLineString", "coordinates": [[[12.085927, -5.354022], [12.079778, -5.348123]]]}},
{"type": "Feature", "properties": {"ProjectID": "P0471", "id": 11, "Name": "Angola LNG Gas Pipeline System", "Type": "secondary"}, "geometry": {"type": "MultiLineString", "coordinates": [[[12.084326, -5.352555], [12.071179, -5.361898], [12.062597, -5.380391], [12.049915, -5.394674], [12.040051, -5.401816], [12.037233, -5.404303], [12.035824, -5.407364], [12.034415, -5.412337], [12.036721, -5.419989], [12.039667, -5.423687], [12.041044, -5.425154], [12.041813, -5.425887]]]}},
{"type": "Feature", "properties": {"ProjectID": "P0471", "id": 12, "Name": "Angola LNG Gas Pipeline System", "Type": "secondary"}, "geometry": {"type": "MultiLineString", "coordinates": [[[12.087832, -5.354883], [12.078225, -5.364704], [12.070539, -5.381028], [12.054783, -5.414059], [12.054695, -5.414298]]]}},
{"type": "Feature", "properties": {"ProjectID": "P0471", "id": 13, "Name": "Angola LNG Gas Pipeline System", "Type": "secondary"}, "geometry": {"type": "MultiLineString", "coordinates": [[[12.021989, -5.40341], [12.034415, -5.412337], [12.044407, -5.419862], [12.045023, -5.420324]]]}},
{"type": "Feature", "properties": {"ProjectID": "P0471", "id": 14, "Name": "Angola LNG Gas Pipeline System", "Type": "secondary"}, "geometry": {"type": "MultiLineString", "coordinates": [[[12.045944, -5.401752], [12.042613, -5.405451], [12.041332, -5.407746], [12.040436, -5.410169], [12.03829, -5.415239], [12.038386, -5.416928], [12.038898, -5.420244], [12.041076, -5.423177], [12.042165, -5.424325], [12.042901, -5.424931], [12.04584, -5.426063], [12.051476, -5.43805], [12.058137, -5.452077], [12.063005, -5.459473], [12.068642, -5.47146], [12.070691, -5.481151], [12.070947, -5.493137]]]}},
{"type": "Feature", "properties": {"ProjectID": "P0471", "id": 15, "Name": "Angola LNG Gas Pipeline System", "Type": "secondary"}, "geometry": {"type": "MultiLineString", "coordinates": [[[11.996401, -5.416578], [11.99781, -5.417407], [12.014399, -5.421424], [12.021765, -5.423145], [12.028106, -5.424421], [12.035664, -5.425823], [12.040404, -5.426334], [12.042389, -5.42576], [12.044182, -5.422954]]]}},
{"type": "Feature", "properties": {"ProjectID": "P0471", "id": 16, "Name": "Angola LNG Gas Pipeline System", "Type": "secondary"}, "geometry": {"type": "MultiLineString", "coordinates": [[[12.02516, -5.420085], [12.036008, -5.425855]]]}},
{"type": "Feature", "properties": {"ProjectID": "P0471", "id": 17, "Name": "Angola LNG Gas Pipeline System", "Type": "secondary"}, "geometry": {"type": "MultiLineString", "coordinates": [[[11.99781, -5.41747], [12.002614, -5.428693], [12.005688, -5.427673], [12.009083, -5.427354], [12.013054, -5.427481], [12.023815, -5.4278], [12.030027, -5.427481], [12.034895, -5.427354], [12.040147, -5.427609], [12.042397, -5.42576]]]}},
{"type": "Feature", "properties": {"ProjectID": "P0471", "id": 18, "Name": "Angola LNG Gas Pipeline System", "Type": "secondary"}, "geometry": {"type": "MultiLineString", "coordinates": [[[12.207318, -5.393431], [12.189896, -5.400063], [12.183491, -5.402103], [12.170681, -5.399808], [12.157871, -5.397257], [12.150697, -5.400828], [12.147879, -5.401338], [12.144805, -5.402613], [12.130201, -5.404654], [12.110474, -5.40848], [12.091772, -5.411795], [12.072044, -5.414601], [12.064871, -5.416131], [12.057953, -5.415876], [12.054663, -5.414298], [12.048986, -5.415621], [12.045656, -5.417152], [12.045143, -5.419957], [12.044166, -5.422986]]]}},
{"type": "Feature", "properties": {"ProjectID": "P0471", "id": 19, "Name": "Angola LNG Gas Pipeline System", "Type": "secondary"}, "geometry": {"type": "MultiLineString", "coordinates": [[[11.529213, -5.493329], [11.533825, -5.494859], [11.547659, -5.494859], [11.55637, -5.495879], [11.564569, -5.500469], [11.579941, -5.51424], [11.595313, -5.526991], [11.610685, -5.539741], [11.626057, -5.551981], [11.641429, -5.563711], [11.658338, -5.57595], [11.673197, -5.58717], [11.689082, -5.598899], [11.699842, -5.605018], [11.705991, -5.608078], [11.713677, -5.610118], [11.716367, -5.604955], [11.726871, -5.609034], [11.750057, -5.622866], [11.766966, -5.633575], [11.783876, -5.643773], [11.795148, -5.649382], [11.80181, -5.652442], [11.81462, -5.652952]]]}},
{"type": "Feature", "properties": {"ProjectID": "P0471", "id": 20, "Name": "Angola LNG Gas Pipeline System", "Type": "secondary"}, "geometry": {"type": "MultiLineString", "coordinates": [[[11.778495, -5.691703], [11.814363, -5.653461], [11.822434, -5.639503], [11.825636, -5.638164], [11.842033, -5.628985], [11.859967, -5.617767], [11.876876, -5.607058], [11.89276, -5.595329], [11.90762, -5.58258], [11.923504, -5.571361], [11.939901, -5.558611], [11.954761, -5.546881], [11.96962, -5.535661], [11.983455, -5.520361], [11.996778, -5.50557], [12.008563, -5.490268], [12.018811, -5.472927], [12.029059, -5.455584], [12.036745, -5.437731], [12.041869, -5.426509]]]}},
{"type": "Feature", "properties": {"ProjectID": "P0471", "id": 21, "Name": "Angola LNG Gas Pipeline System", "Type": "secondary"}, "geometry": {"type": "MultiLineString", "coordinates": [[[11.713549, -5.610118], [11.752107, -5.710568], [11.783876, -5.759512], [11.828967, -5.828843], [11.866884, -5.882874], [11.918124, -5.9634], [11.959116, -6.023533], [11.988835, -6.08264], [12.0411, -6.190646], [12.09234, -6.296593]]]}},
{"type": "Feature", "properties": {"ProjectID": "P0471", "id": 22, "Name": "Angola LNG Gas Pipeline System", "Type": "secondary"}, "geometry": {"type": "MultiLineString", "coordinates": [[[11.778623, -5.691703], [11.801169, -5.695017], [11.814748, -5.690429], [11.831144, -5.6838]]]}},
{"type": "Feature", "properties": {"ProjectID": "P0471", "id": 23, "Name": "Angola LNG Gas Pipeline System", "Type": "secondary"}, "geometry": {"type": "MultiLineString", "coordinates": [[[11.815004, -5.652952], [11.831401, -5.6838]]]}},
{"type": "Feature", "properties": {"ProjectID": "P0471", "id": 24, "Name": "Angola LNG Gas Pipeline System", "Type": "secondary"}, "geometry": {"type": "MultiLineString", "coordinates": [[[12.044815, -5.425808], [12.045584, -5.436775], [12.048402, -5.443916], [12.054294, -5.455393], [12.060443, -5.464829], [12.065055, -5.47197], [12.067617, -5.480386], [12.070947, -5.488547]]]}},
{"type": "Feature", "properties": {"ProjectID": "P0471", "id": 25, "Name": "Angola LNG Gas Pipeline System", "Type": "secondary"}, "geometry": {"type": "MultiLineString", "coordinates": [[[12.071204, -5.488547], [12.07479, -5.488802], [12.077352, -5.491097], [12.078633, -5.501808], [12.078633, -5.521954], [12.078633, -5.541335], [12.078889, -5.561735], [12.078889, -5.581879], [12.079402, -5.601257], [12.079402, -5.62191], [12.079914, -5.641032], [12.080683, -5.661684], [12.081195, -5.671627], [12.084013, -5.68106], [12.084782, -5.700562], [12.085294, -5.720192], [12.085038, -5.724016], [12.085551, -5.733702], [12.085551, -5.737781], [12.080427, -5.735487], [12.077096, -5.734722], [12.072485, -5.735487], [12.070435, -5.735487], [12.051989, -5.738801], [12.032005, -5.74186], [12.018939, -5.744409], [12.015096, -5.744409], [12.012021, -5.741605], [12.00203, -5.727584]]]}},
{"type": "Feature", "properties": {"ProjectID": "P0471", "id": 26, "Name": "Angola LNG Gas Pipeline System", "Type": "secondary"}, "geometry": {"type": "MultiLineString", "coordinates": [[[12.238246, -5.858598], [12.203403, -5.835151], [12.167535, -5.948302], [12.167535, -5.956457]]]}},
{"type": "Feature", "properties": {"ProjectID": "P0471", "id": 27, "Name": "Angola LNG Gas Pipeline System", "Type": "secondary"}, "geometry": {"type": "MultiLineString", "coordinates": [[[12.155493, -5.845091], [12.203146, -5.835915]]]}},
{"type": "Feature", "properties": {"ProjectID": "P0471", "id": 28, "Name": "Angola LNG Gas Pipeline System", "Type": "secondary"}, "geometry": {"type": "MultiLineString", "coordinates": [[[12.238502, -5.801761], [12.240039, -5.808898], [12.334833, -5.870577], [12.342007, -5.869557], [12.342519, -5.875674], [12.391197, -5.908804], [12.397858, -5.907785], [12.393759, -5.912372], [12.398371, -5.9297], [12.404007, -5.933778]]]}},
{"type": "Feature", "properties": {"ProjectID": "P0471", "id": 29, "Name": "Angola LNG Gas Pipeline System", "Type": "secondary"}, "geometry": {"type": "MultiLineString", "coordinates": [[[12.313825, -5.811447], [12.320998, -5.815525], [12.344569, -5.863441], [12.342519, -5.870577]]]}},
{"type": "Feature", "properties": {"ProjectID": "P0471", "id": 30, "Name": "Angola LNG Gas Pipeline System", "Type": "secondary"}, "geometry": {"type": "MultiLineString", "coordinates": [[[12.337395, -6.122062], [12.339445, -6.131233], [12.342519, -6.136837], [12.341494, -6.141422], [12.327147, -6.154668], [12.3128, -6.168932], [12.298965, -6.181668], [12.260023, -6.293728], [12.257461, -6.297803]]]}},
{"type": "Feature", "properties": {"ProjectID": "P0471", "id": 31, "Name": "Angola LNG Gas Pipeline System", "Type": "secondary"}, "geometry": {"type": "MultiLineString", "coordinates": [[[12.186237, -6.298312], [12.193923, -6.280995]]]}},
{"type": "Feature", "properties": {"ProjectID": "P0471", "id": 32, "Name": "Angola LNG Gas Pipeline System", "Type": "secondary"}, "geometry": {"type": "MultiLineString", "coordinates": [[[11.424812, -4.75377], [11.415076, -4.767046]]]}},
{"type": "Feature", "properties": {"ProjectID": "P0471", "id": 33, "Name": "Angola LNG Gas Pipeline System", "Type": "secnodary"}, "geometry": {"type": "MultiLineString", "coordinates": [[[11.424812, -4.75377], [11.434547, -4.760408], [11.437109, -4.766025]]]}},
{"type": "Feature", "properties": {"ProjectID": "P0471", "id": 34, "Name": "Angola LNG Gas Pipeline System", "Type": "secondary"}, "geometry": {"type": "MultiLineString", "coordinates": [[[11.492705, -4.79679], [11.489118, -4.800364], [11.47887, -4.801896], [11.47144, -4.818745]]]}},
{"type": "Feature", "properties": {"ProjectID": "P0471", "id": 35, "Name": "Angola LNG Gas Pipeline System", "Type": "secondary"}, "geometry": {"type": "MultiLineString", "coordinates": [[[11.486812, -4.816448], [11.4863, -4.802406], [11.482457, -4.801641], [11.472465, -4.798832], [11.470159, -4.800619]]]}}
]
}
