{
"type": "FeatureCollection",
"features": [
{"type": "Feature", "properties": {"ProjectID": "P0476"}, "geometry": {"type": "LineString", "coordinates": [[26.98, 30.7077], [26.9948, 30.6928], [27.0321, 30.6232], [27.1819, 30.4713], [27.3471, 30.3695], [27.366, 30.273], [27.3869, 30.2465], [27.3536, 30.2141], [27.3981, 30.1235], [27.442, 30.1025], [27.511, 30.0658], [27.5227, 30.0291], [27.5431, 30.0147], [27.588, 29.9872], [27.642, 29.9732], [27.7548, 29.9663], [27.8554, 29.9798], [27.8797, 29.9767], [28.2122, 29.9978], [28.3025, 29.9785], [28.4636, 29.8626], [28.5452, 29.8197], [28.5563, 29.7889]]}}
]
}
