{
"type": "FeatureCollection",
"features": [
{"type": "Feature", "properties": {"ProjectID": "P0682"}, "geometry": {"type": "LineString", "coordinates": [[4.702058, 52.880837], [4.672357, 52.881558], [4.657569, 52.882393], [4.642944, 52.88395], [4.628586, 52.886259], [4.614646, 52.889361], [4.601274, 52.893273], [4.588376, 52.897768], [4.548446, 52.909775], [4.482156, 52.93012], [4.442122, 52.942038], [4.362435, 52.966386], [4.348883, 52.970089], [4.334488, 52.972352], [4.319844, 52.973976], [4.217218, 52.98502], [4.129167, 52.994255], [4.114526, 52.995927], [4.026442, 53.005133], [4.011705, 53.006427], [3.99681, 53.006591], [3.773494, 53.001017], [3.550236, 52.994958], [3.5056, 52.993631], [3.490946, 52.992086], [3.290185, 52.958184], [3.189942, 52.941048], [3.175713, 52.938418], [3.147022, 52.933674], [3.061161, 52.918956], [2.832543, 52.879284], [2.718413, 52.859231], [2.704106, 52.856832], [2.689898, 52.854204], [2.604367, 52.839129], [2.590844, 52.835462], [2.579057, 52.830023], [2.569453, 52.823193], [2.562623, 52.815232], [2.557599, 52.806777], [2.551066, 52.798723], [2.541673, 52.791788], [2.530121, 52.786174], [2.516726, 52.782354], [2.502371, 52.78013], [2.270341, 52.75054], [2.255572, 52.750053], [2.107433, 52.750044], [2.092792, 52.751307], [2.078837, 52.754268], [2.066113, 52.758836], [2.055159, 52.764869], [2.017097, 52.79244], [2.006349, 52.798615], [1.993808, 52.80339], [1.979961, 52.806588], [1.965392, 52.808276], [1.848455, 52.820584], [1.614386, 52.844798], [1.600017, 52.846987], [1.515949, 52.864856], [1.507528, 52.866267], [1.501442, 52.866543], [1.494068, 52.866081], [1.486993, 52.864741], [1.469581, 52.859366]]}}
]
}
