{
"type": "FeatureCollection",
"features": [
{"type": "Feature", "properties": {"ProjectID": "P0691"}, "geometry": {"type": "LineString", "coordinates": [[-1.825651, 57.579971], [-1.808, 57.582088], [-1.80141, 57.582702], [-1.781407, 57.585542], [-1.773513, 57.585952], [-1.764119, 57.586132], [-1.753785, 57.58575], [-1.736282, 57.584078], [-1.725115, 57.583304], [-1.716316, 57.582249], [-1.703596, 57.581295], [-1.695365, 57.581236], [-1.689293, 57.581558], [-1.682803, 57.58231], [-1.678324, 57.583147], [-1.674082, 57.584301], [-1.668011, 57.586461], [-1.662612, 57.588582], [-1.659091, 57.590496], [-1.651946, 57.595472], [-1.642254, 57.601653], [-1.633967, 57.607294], [-1.628376, 57.610632], [-1.610972, 57.622708], [-1.601421, 57.628958], [-1.599493, 57.630425], [-1.597818, 57.631979], [-1.595006, 57.635237], [-1.593184, 57.638692], [-1.592294, 57.641343], [-1.592015, 57.643132], [-1.592022, 57.644928], [-1.592233, 57.646721], [-1.593003, 57.649382], [-1.597641, 57.660789], [-1.599839, 57.666963], [-1.60086, 57.671419], [-1.601256, 57.675005], [-1.601313, 57.677699], [-1.601239, 57.680392], [-1.59983, 57.686633], [-1.597751, 57.691904], [-1.595373, 57.696208], [-1.591797, 57.701243], [-1.585462, 57.707575], [-1.581049, 57.711392], [-1.573792, 57.716335], [-1.568096, 57.719632], [-1.564405, 57.721462], [-1.553701, 57.725797], [-1.544613, 57.72978], [-1.53987, 57.732322], [-1.535643, 57.735112], [-1.532875, 57.737362], [-1.528704, 57.741258], [-1.526717, 57.743734], [-1.522557, 57.749613], [-1.511548, 57.766582], [-1.508074, 57.771641], [-1.506027, 57.775062], [-1.501942, 57.780957], [-1.499018, 57.786114], [-1.489848, 57.799621], [-1.486266, 57.80561], [-1.484961, 57.807272], [-1.477794, 57.818297], [-1.473686, 57.824193], [-1.472208, 57.826767], [-1.469395, 57.830999], [-1.465176, 57.837818], [-1.452996, 57.855519], [-1.444993, 57.868295], [-1.44, 57.875928], [-1.430726, 57.88942], [-1.42936, 57.892025], [-1.425542, 57.897967], [-1.42415, 57.90056], [-1.42255, 57.90311], [-1.419638, 57.907322], [-1.417646, 57.909801], [-1.415869, 57.91233], [-1.407563, 57.926], [-1.403236, 57.931844], [-1.399459, 57.937796], [-1.393699, 57.946245], [-1.387106, 57.956431], [-1.38296, 57.962315], [-1.376815, 57.971643], [-1.37475, 57.975056], [-1.373003, 57.978402], [-1.370658, 57.983767], [-1.369039, 57.988194], [-1.367793, 57.990773], [-1.367133, 57.992543], [-1.365272, 57.996005], [-1.361323, 58.002856], [-1.354589, 58.013956], [-1.35176, 58.018179], [-1.34609, 58.02852], [-1.34374, 58.031891], [-1.336666, 58.042946], [-1.334801, 58.045449], [-1.329887, 58.054027], [-1.32161, 58.066758], [-1.31871, 58.071913], [-1.310813, 58.083755], [-1.309761, 58.085458], [-1.3075, 58.089791], [-1.303985, 58.094848], [-1.302479, 58.097423], [-1.301248, 58.10004], [-1.299037, 58.10344], [-1.297139, 58.106881], [-1.295831, 58.108553], [-1.294759, 58.110253], [-1.293448, 58.112861], [-1.290306, 58.117978], [-1.288296, 58.120472], [-1.28652, 58.123936], [-1.282622, 58.129879], [-1.280209, 58.134183], [-1.276361, 58.14013], [-1.274383, 58.143566], [-1.272536, 58.146076], [-1.270448, 58.149507], [-1.268224, 58.153823], [-1.266941, 58.155493], [-1.265471, 58.158074], [-1.260443, 58.165704], [-1.255665, 58.173386], [-1.253789, 58.176836], [-1.250349, 58.18191], [-1.248241, 58.185333], [-1.247477, 58.187078], [-1.244565, 58.191295], [-1.242574, 58.194735], [-1.240976, 58.198224], [-1.239037, 58.201666], [-1.235704, 58.206759], [-1.23264, 58.210949], [-1.226278, 58.220235], [-1.223702, 58.224514], [-1.219141, 58.23128], [-1.21756, 58.233843], [-1.216363, 58.236468], [-1.211679, 58.244167], [-1.202768, 58.257741], [-1.199877, 58.262914], [-1.19471, 58.270522], [-1.192802, 58.273971], [-1.186655, 58.283306], [-1.182262, 58.291052], [-1.175185, 58.302115], [-1.171047, 58.30896], [-1.160493, 58.32509], [-1.157618, 58.330262], [-1.149362, 58.343959], [-1.136633, 58.363495], [-1.132679, 58.370365], [-1.130397, 58.373746], [-1.11537, 58.397618], [-1.108591, 58.407791], [-1.106019, 58.411119], [-1.103123, 58.415341], [-1.095315, 58.429111], [-1.094088, 58.430792], [-1.090472, 58.436783], [-1.086558, 58.442721], [-1.0846, 58.446159], [-1.078478, 58.45548], [-1.075929, 58.459773], [-1.069871, 58.469116], [-1.067844, 58.472548], [-1.062164, 58.48102], [-1.059821, 58.485339], [-1.058243, 58.487902], [-1.057333, 58.489634], [-1.054238, 58.496633], [-1.046594, 58.512295], [-1.044798, 58.516685], [-1.043049, 58.520159], [-1.036651, 58.534131], [-1.035802, 58.536787], [-1.03502, 58.538536], [-1.032736, 58.542865], [-1.029629, 58.549862], [-1.02491, 58.559433], [-1.023932, 58.562076], [-1.022693, 58.564694], [-1.022155, 58.566468], [-1.018207, 58.574281], [-1.015613, 58.580417], [-1.012805, 58.585605], [-1.010781, 58.590887], [-1.00605, 58.600453], [-1.003507, 58.606596], [-0.998482, 58.617048], [-0.989914, 58.636292], [-0.98773, 58.64063], [-0.985673, 58.644058], [-0.981504, 58.64995], [-0.981075, 58.650821], [-0.97919, 58.656108], [-0.978494, 58.658782], [-0.977332, 58.661405], [-0.976404, 58.664054], [-0.974555, 58.667522], [-0.970498, 58.676244], [-0.968497, 58.681529], [-0.965029, 58.689406], [-0.9637, 58.692936], [-0.956955, 58.705934], [-0.955496, 58.70945], [-0.952547, 58.715538], [-0.950768, 58.719939], [-0.946914, 58.72776], [-0.941934, 58.739148], [-0.93905, 58.744321], [-0.936381, 58.749525], [-0.93525, 58.752158], [-0.933082, 58.756496], [-0.930877, 58.761765], [-0.925677, 58.773118], [-0.923917, 58.776593], [-0.922908, 58.779241], [-0.921991, 58.780967], [-0.919075, 58.787982], [-0.918161, 58.789723], [-0.916788, 58.794171], [-0.913617, 58.801161], [-0.905926, 58.814954], [-0.903362, 58.821106], [-0.893611, 58.841125], [-0.891997, 58.845536], [-0.890145, 58.849001], [-0.887665, 58.85423], [-0.880221, 58.868998], [-0.875187, 58.880377], [-0.873291, 58.883833], [-0.872317, 58.886482], [-0.869159, 58.892552], [-0.86807, 58.895193], [-0.866155, 58.89864], [-0.864316, 58.903025], [-0.862007, 58.9092], [-0.858593, 58.91616], [-0.857587, 58.91881], [-0.856231, 58.921405], [-0.854905, 58.924935], [-0.853344, 58.928436], [-0.851937, 58.931031], [-0.850227, 58.935438], [-0.849307, 58.937163], [-0.847799, 58.940669], [-0.846562, 58.94422], [-0.84492, 58.947692], [-0.844292, 58.949465], [-0.837856, 58.962512], [-0.834733, 58.969508], [-0.832826, 58.974827], [-0.828565, 58.982587], [-0.827648, 58.985244], [-0.825647, 58.989611], [-0.823189, 58.99577], [-0.822282, 58.997503], [-0.820066, 59.002776], [-0.818582, 59.005351], [-0.817002, 59.008846], [-0.816065, 59.011494], [-0.812811, 59.019404], [-0.811357, 59.021989], [-0.808115, 59.029899], [-0.804717, 59.036854], [-0.799947, 59.049186], [-0.798012, 59.053564], [-0.795878, 59.057928], [-0.79256, 59.063044], [-0.789783, 59.066341], [-0.785982, 59.070382], [-0.773443, 59.082203], [-0.770243, 59.085394], [-0.765682, 59.089222], [-0.761427, 59.093141], [-0.757809, 59.096213], [-0.744492, 59.108841], [-0.740957, 59.111938], [-0.734224, 59.117183], [-0.723406, 59.12423], [-0.720417, 59.126442], [-0.717699, 59.128747], [-0.705024, 59.140535], [-0.692929, 59.151463], [-0.686598, 59.156842], [-0.682726, 59.160866], [-0.666871, 59.175859], [-0.659919, 59.182093], [-0.62689, 59.21274], [-0.622447, 59.21661], [-0.616632, 59.222142], [-0.606106, 59.23147], [-0.603089, 59.233679], [-0.594522, 59.240459], [-0.589973, 59.243193], [-0.577852, 59.252001], [-0.56076, 59.263386], [-0.554664, 59.267782], [-0.549214, 59.271299], [-0.536529, 59.279889], [-0.527806, 59.286622], [-0.52424, 59.289709], [-0.510289, 59.303205], [-0.505809, 59.30706], [-0.498168, 59.31514], [-0.494794, 59.318291], [-0.477123, 59.335858], [-0.473688, 59.338991], [-0.468024, 59.344572], [-0.446404, 59.365143], [-0.444013, 59.367544], [-0.440442, 59.371648], [-0.436554, 59.375673], [-0.428648, 59.382676], [-0.4246, 59.386663], [-0.421946, 59.388993], [-0.417178, 59.393802], [-0.408618, 59.401651], [-0.403049, 59.407258], [-0.393668, 59.415901], [-0.389642, 59.4199], [-0.387482, 59.422355], [-0.384325, 59.425561], [-0.380676, 59.428645], [-0.377671, 59.431887], [-0.370611, 59.438112], [-0.368444, 59.440574], [-0.356547, 59.452602], [-0.347169, 59.461249], [-0.324145, 59.483494], [-0.317806, 59.489914], [-0.283471, 59.522326], [-0.27249, 59.533591], [-0.261769, 59.545909], [-0.251563, 59.560267], [-0.24174, 59.571807], [-0.2395, 59.574249], [-0.229775, 59.583828], [-0.226172, 59.58692], [-0.221229, 59.591687], [-0.218373, 59.593958], [-0.216264, 59.5954], [-0.211596, 59.598099], [-0.196794, 59.604522], [-0.191558, 59.606942], [-0.189122, 59.608246], [-0.185716, 59.610314], [-0.175738, 59.617733], [-0.157321, 59.635141], [-0.150196, 59.641352], [-0.138178, 59.651313], [-0.133233, 59.656084], [-0.123769, 59.666724], [-0.120621, 59.669938], [-0.103074, 59.686574], [-0.09989, 59.689786], [-0.091429, 59.697682], [-0.087414, 59.701684], [-0.084877, 59.704047], [-0.079385, 59.708663], [-0.07329, 59.713084], [-0.065355, 59.717924], [-0.059034, 59.722263], [-0.047932, 59.729276], [-0.034139, 59.738642], [-0.027399, 59.742819], [-0.017738, 59.749264], [-0.009951, 59.754163], [-0.002561, 59.759232], [0.00197, 59.761996], [0.016065, 59.771258], [0.034901, 59.783204], [0.045538, 59.790405], [0.061999, 59.801013], [0.07161, 59.807485], [0.124294, 59.841444], [0.145428, 59.855917], [0.153185, 59.860845], [0.171522, 59.873012], [0.183587, 59.880808], [0.192728, 59.886326], [0.199316, 59.890588], [0.213109, 59.898825], [0.251361, 59.923693], [0.257088, 59.92714], [0.27129, 59.93639], [0.286236, 59.945327], [0.303739, 59.956697], [0.311582, 59.961598], [0.319117, 59.966621], [0.332582, 59.975016], [0.342241, 59.981486], [0.355634, 59.989918], [0.37418, 60.00203], [0.383232, 60.007597], [0.407351, 60.023233], [0.415331, 60.028081], [0.424027, 60.033796], [0.459472, 60.056401], [0.47849, 60.068339], [0.488297, 60.074762], [0.491821, 60.076809], [0.499627, 60.081732], [0.504945, 60.085352], [0.52162, 60.095936], [0.536352, 60.104994], [0.568597, 60.125461], [0.575807, 60.130619], [0.580173, 60.133478], [0.595235, 60.142409], [0.604295, 60.147992], [0.640053, 60.170523], [0.647527, 60.175586], [0.656457, 60.181228], [0.658904, 60.18255], [0.665498, 60.186822], [0.689227, 60.201514], [0.6991, 60.207927], [0.705171, 60.212384], [0.70705, 60.213911], [0.71038, 60.217093], [0.71262, 60.219545], [0.718172, 60.226168], [0.722763, 60.232978], [0.726548, 60.238979], [0.72987, 60.243155], [0.733447, 60.248238], [0.757173, 60.282154], [0.771733, 60.303403], [0.779778, 60.314371], [0.789722, 60.328814], [0.800769, 60.344016], [0.803622, 60.348278], [0.807988, 60.354178], [0.817501, 60.367598], [0.819643, 60.370227], [0.822913, 60.373437], [0.825631, 60.375773], [0.829613, 60.378777], [0.832753, 60.380976], [0.837216, 60.383809], [0.846974, 60.389126], [0.877812, 60.404338], [0.886966, 60.408697], [0.898346, 60.414494], [0.917966, 60.423834], [0.951461, 60.440289], [0.989199, 60.458461], [1.017454, 60.472442], [1.037056, 60.481807], [1.056353, 60.491331], [1.116164, 60.520235], [1.128058, 60.525796], [1.16822, 60.545363], [1.189235, 60.555322], [1.198187, 60.559802], [1.214007, 60.567244], [1.250543, 60.58481], [1.262056, 60.590577], [1.266153, 60.592367], [1.2885, 60.602957], [1.307762, 60.61253], [1.315812, 60.616185], [1.328833, 60.622482], [1.339512, 60.627387], [1.352347, 60.633778], [1.367005, 60.640539], [1.387692, 60.650694], [1.391854, 60.652456], [1.398314, 60.655634], [1.415524, 60.663685], [1.423195, 60.667542], [1.429889, 60.6706], [1.433705, 60.672537], [1.457626, 60.683641], [1.460098, 60.684976], [1.478383, 60.693786], [1.508701, 60.708116], [1.51772, 60.712584], [1.522678, 60.715231], [1.527245, 60.718045], [1.53136, 60.721022], [1.53507, 60.72412], [1.538302, 60.727344], [1.54114, 60.730657], [1.543558, 60.734051], [1.553897, 60.752209], [1.557047, 60.758303], [1.559132, 60.761745], [1.559862, 60.763509], [1.562838, 60.768698], [1.565072, 60.772117], [1.567853, 60.777328], [1.573912, 60.787685], [1.58355, 60.805009], [1.589568, 60.81537], [1.590869, 60.817989], [1.592501, 60.820562], [1.593816, 60.823179], [1.597454, 60.829207], [1.599808, 60.833543], [1.605836, 60.84851], [1.607816, 60.853809], [1.609124, 60.856429], [1.610256, 60.85998], [1.611504, 60.862605], [1.624082, 60.894322], [1.626681, 60.900484], [1.630011, 60.909309], [1.633361, 60.917224], [1.637131, 60.926926], [1.650746, 60.960385], [1.651667, 60.963041], [1.652904, 60.965668], [1.655736, 60.972713], [1.657678, 60.977102], [1.659684, 60.9824], [1.662064, 60.987666], [1.663857, 60.990218], [1.665961, 60.992718], [1.670644, 60.996597], [1.672896, 60.998031], [1.682022, 61.002487], [1.68567, 61.00452], [1.689886, 61.007466], [1.691717, 61.009025], [1.693309, 61.010645], [1.694667, 61.012314], [1.695792, 61.014025], [1.697567, 61.017509], [1.701546, 61.029926], [1.702234, 61.032597], [1.702798, 61.034005], [1.705013, 61.034477]]}}
]
}
