{
"type": "FeatureCollection",
"features": [
{"type": "Feature", "properties": {"ProjectID": "P0721"}, "geometry": {"type": "MultiLineString", "coordinates": [[[13.3598, 50.6454], [13.39, 50.635]], [[12.233, 50.8142], [12.3813, 50.7892], [12.4108, 50.7696], [12.8331, 50.7401], [12.945, 50.6832], [13.2239, 50.6537], [13.3599, 50.6454]], [[11.5529, 50.8568], [11.8055, 50.841], [11.9083, 50.8178], [12.0034, 50.8255], [12.0694, 50.8372], [12.1393, 50.8469], [12.2329, 50.8142]], [[11.0068, 50.9026], [11.125, 50.9138], [11.2294, 50.9006], [11.3705, 50.855], [11.5529, 50.8568]], [[10.49, 51.006], [10.5282, 51.0073], [10.5598, 51.0001], [10.7351, 50.9081], [10.9133, 50.865], [11.0068, 50.9026]], [[9.789, 50.7853], [10.0945, 50.8811], [10.3394, 51.0118], [10.49, 51.006]]]}}
]
}
