{
"type": "FeatureCollection",
"features": [
{"type": "Feature", "properties": {"ProjectID": "P0730"}, "geometry": {"type": "MultiLineString", "coordinates": [[[6.933, 51.076], [7.04, 51.1064], [7.1414, 51.1608], [7.1958, 51.2679], [7.3855, 51.3937], [7.5019, 51.3956], [7.6916, 51.4932], [7.8325, 51.5289], [8.0747, 51.6397], [8.2268, 51.7336], [8.3433, 51.9064], [8.3733, 51.9214], [8.4278, 51.912], [8.4728, 51.9214], [8.5423, 51.9515], [8.6606, 52.0172], [8.6992, 52.0586]], [[6.3111, 50.8359], [6.4854, 50.8751], [6.5916, 50.9264], [6.7583, 50.9595], [6.8359, 51.0292], [6.933, 51.076]], [[6.09, 50.7], [6.3111, 50.8359]]]}}
]
}
