{
"type": "FeatureCollection",
"name": "P0748",
"crs": { "type": "name", "properties": { "name": "urn:ogc:def:crs:OGC:1.3:CRS84" } },
"features": [
{ "type": "Feature", "properties": { }, "geometry": { "type": "MultiLineString", "coordinates": [ [ [ 50.124135549575037, 30.718941271392179 ], [ 50.124135549575037, 30.719044984295465 ], [ 50.128599261776245, 30.721222929495166 ], [ 50.130650156571406, 30.727963876635258 ], [ 50.137767967919267, 30.74512523688167 ], [ 50.141869757509532, 30.750464855301832 ], [ 50.148067682221367, 30.752823524507644 ], [ 50.155064852698928, 30.758201592623568 ], [ 50.162966829703784, 30.765095447774158 ], [ 50.171110088449247, 30.772027680118896 ], [ 50.175830162499842, 30.775169695722425 ], [ 50.183656738960764, 30.780883366277092 ], [ 50.188603014643149, 30.784122257815 ], [ 50.194725538811042, 30.789252438788434 ], [ 50.196520071756815, 30.789887214880974 ], [ 50.198193963832253, 30.791014255985061 ], [ 50.202250513096189, 30.793734645598938 ], [ 50.206638824753469, 30.796519726647595 ], [ 50.209903668306055, 30.798676489788289 ], [ 50.215664269863026, 30.801526192694951 ], [ 50.221892354792431, 30.804761150748707 ], [ 50.229854652232419, 30.808361896908366 ], [ 50.236384339337569, 30.81053782198331 ], [ 50.240893291865142, 30.811988411322297 ], [ 50.243924393731511, 30.813037484606774 ], [ 50.248237304844828, 30.812312200595326 ], [ 50.255717038803624, 30.810434207620983 ], [ 50.259110063280893, 30.809708903955904 ], [ 50.262095924820898, 30.808698650440668 ], [ 50.264719863749974, 30.808128759156119 ], [ 50.26945501790938, 30.807766099306026 ], [ 50.271988476185733, 30.806963061909695 ], [ 50.273948890328164, 30.806030493930376 ], [ 50.276165666319983, 30.803880372156833 ], [ 50.277236354043922, 30.801652484391248 ], [ 50.278427682638174, 30.800771677308344 ], [ 50.281051621567251, 30.799074805614897 ], [ 50.282672733261961, 30.798019103147301 ], [ 50.285085550668015, 30.796490580868326 ], [ 50.286653881981955, 30.796322182859711 ], [ 50.28916472009513, 30.79610196963408 ], [ 50.291524757120449, 30.795739264398087 ], [ 50.293470091154077, 30.795208157833411 ], [ 50.295973389212861, 30.794249567826089 ], [ 50.297752842049817, 30.794081165891757 ], [ 50.300527582066771, 30.793511187925226 ], [ 50.303860286108893, 30.792837573244487 ], [ 50.306725506778584, 30.792163953844039 ], [ 50.308964902933582, 30.790926813613471 ], [ 50.309696288209786, 30.790531702646785 ], [ 50.311732102896144, 30.789942271793493 ], [ 50.314205240737358, 30.78914556280963 ], [ 50.316278755695691, 30.788773115288631 ], [ 50.317899867390395, 30.788365040696409 ], [ 50.319475738758719, 30.787866280509672 ], [ 50.320523806319471, 30.786671188757502 ], [ 50.321745295131258, 30.785647737944746 ], [ 50.322356039537162, 30.785809677089851 ], [ 50.323479507641864, 30.78590684044601 ], [ 50.323946991014289, 30.785505231271483 ], [ 50.324014851503826, 30.784494723349013 ], [ 50.324557735420179, 30.783801612417136 ], [ 50.325703823688066, 30.78338703900511 ], [ 50.329368290123519, 30.783762746235684 ], [ 50.331358864483512, 30.784203228705906 ], [ 50.33280655492716, 30.783710924635979 ], [ 50.335792416467157, 30.783089063261425 ], [ 50.338627476919271, 30.783037241298715 ], [ 50.341040294325325, 30.782544931260396 ], [ 50.343513432166539, 30.781806461478048 ], [ 50.346469133488966, 30.781003207207014 ], [ 50.349756597204724, 30.780912516787243 ], [ 50.355306077238673, 30.783322261748054 ], [ 50.35690456877019, 30.785187829285743 ], [ 50.358171297908356, 30.787597467128354 ], [ 50.3588649829126, 30.789929317228644 ], [ 50.359498347481704, 30.791613396021294 ], [ 50.361549242276837, 30.79250724124358 ], [ 50.36218260684592, 30.793647205701468 ], [ 50.363992219900467, 30.794761248816595 ], [ 50.368471012210485, 30.795642110977433 ], [ 50.377534157591974, 30.796639548091552 ], [ 50.379162809341068, 30.797883091556749 ], [ 50.380580339567132, 30.799929721815573 ], [ 50.381153383701061, 30.801458189405061 ], [ 50.382721715015009, 30.802390801756193 ], [ 50.385526615249539, 30.804981344135228 ], [ 50.386793344387733, 30.808012190067796 ], [ 50.387381468630466, 30.810110412018449 ], [ 50.38994508712441, 30.811405587880699 ], [ 50.391784860396527, 30.813192901896755 ], [ 50.392629346488647, 30.815653642147257 ], [ 50.393534153015914, 30.820937545027515 ], [ 50.395208045091366, 30.822323226343585 ], [ 50.397711343150135, 30.824097387250148 ], [ 50.398827271200439, 30.824356386100408 ], [ 50.401421049911953, 30.824602434361076 ], [ 50.403833867318021, 30.824958555726969 ], [ 50.405590699991819, 30.825586621098882 ], [ 50.406797108694839, 30.825858565655498 ], [ 50.409345647080009, 30.826480150321228 ], [ 50.412527550034234, 30.827049932729778 ], [ 50.418092110176971, 30.827749206518824 ], [ 50.420504927583025, 30.827969347213166 ], [ 50.422962985315451, 30.828189487402739 ], [ 50.424259874671201, 30.828331930785836 ], [ 50.425240081742437, 30.828824006301335 ], [ 50.426657611968494, 30.829523267168934 ], [ 50.427517178169403, 30.829626860938372 ], [ 50.428421984696662, 30.828914651515944 ], [ 50.429794274596375, 30.828072942659375 ], [ 50.431543567215769, 30.827606762271159 ], [ 50.433956384621816, 30.827205327345251 ], [ 50.435027072345768, 30.827334822666035 ], [ 50.435720757350005, 30.827904600002515 ], [ 50.437289088663938, 30.829082992401709 ], [ 50.440184469551198, 30.829704556192087 ], [ 50.443479473321339, 30.830397336091039 ], [ 50.445975231325733, 30.830241946642087 ], [ 50.450046860698464, 30.829918217815589 ], [ 50.462699071971478, 30.828804582315634 ], [ 50.467238184716635, 30.828403152398113 ], [ 50.469598221741926, 30.828124740340538 ], [ 50.473307928503743, 30.827839852748198 ], [ 50.476625552437064, 30.827283024558671 ], [ 50.478046852690341, 30.8266582076871 ], [ 50.480606701157072, 30.826143459126783 ], [ 50.481586908228287, 30.82606576099117 ], [ 50.48618634140859, 30.826043099023114 ], [ 50.492670788187375, 30.825874752807177 ], [ 50.49831074887404, 30.825829428775538 ], [ 50.50295542238073, 30.825699931424381 ], [ 50.506861170556782, 30.825052442048825 ], [ 50.514386144841922, 30.82318764825223 ], [ 50.519045898457378, 30.821957382518125 ], [ 50.520357867921923, 30.821970332765819 ], [ 50.525500185018572, 30.822837995383658 ], [ 50.528259844926737, 30.823550249882278 ], [ 50.531652869403999, 30.823407799405203 ], [ 50.534020446483709, 30.82423659921896 ], [ 50.536708475875137, 30.8239646500686 ], [ 50.540501123235302, 30.82352434981124 ], [ 50.561228732764228, 30.821821404811772 ], [ 50.563264547450601, 30.82201565861903 ], [ 50.565933726706035, 30.823932275118441 ], [ 50.582642487243007, 30.835146304808255 ], [ 50.602442670081466, 30.835366428539725 ], [ 50.620719761932385, 30.835340531656346 ], [ 50.626631164577212, 30.835334057434395 ], [ 50.632934650050551, 30.835159253276991 ], [ 50.644395532729327, 30.834472982025176 ], [ 50.658344633358098, 30.833411194193332 ], [ 50.670363480062029, 30.831598358555109 ], [ 50.678265457066885, 30.830873214713726 ], [ 50.688384210063532, 30.829604199810767 ], [ 50.69378288900959, 30.8311321952859 ], [ 50.697341794683517, 30.833721962579407 ], [ 50.701805506884739, 30.836389349844271 ], [ 50.704097683420507, 30.836609470724852 ], [ 50.705424732993833, 30.837891341116471 ], [ 50.706887503546255, 30.838849495681654 ], [ 50.707867710617457, 30.838700593910811 ], [ 50.709074119320483, 30.838098510481679 ], [ 50.712994947605331, 30.836363453236878 ], [ 50.716161770450782, 30.835690138992415 ], [ 50.718031703940483, 30.836285763372818 ], [ 50.72005243851806, 30.837269830337537 ], [ 50.721831891355031, 30.838642327937588 ], [ 50.723611344192001, 30.839108454732802 ], [ 50.724968553982904, 30.839315621470597 ], [ 50.725601918551995, 30.840221970690028 ], [ 50.726657526167159, 30.84125778788734 ], [ 50.727863934870172, 30.841309578453714 ], [ 50.729100503790789, 30.841646216453732 ], [ 50.731151398585922, 30.84247485880687 ], [ 50.73341341490412, 30.842552543660588 ], [ 50.735207947849858, 30.842539596189329 ], [ 50.737409643732889, 30.84335528346616 ], [ 50.739174016461057, 30.843432967607075 ], [ 50.740289944511389, 30.843420020254626 ], [ 50.741963836586841, 30.842694965729056 ], [ 50.742853563005312, 30.842513701241586 ], [ 50.743592488335928, 30.843238757136881 ], [ 50.74494969812681, 30.843381178186792 ], [ 50.747302195097731, 30.844779482722537 ], [ 50.751464305123179, 30.845465680271992 ], [ 50.752851675131673, 30.845038425770593 ], [ 50.757496348638341, 30.842604333528122 ], [ 50.760587770939857, 30.839872379862385 ], [ 50.76248032459273, 30.837489949198698 ], [ 50.763814914220454, 30.835677190595248 ], [ 50.766024150157875, 30.83324933526043 ], [ 50.771008126112285, 30.829507080632247 ], [ 50.772154214380159, 30.828587680875 ], [ 50.775539698803023, 30.825920076817351 ], [ 50.781028858401804, 30.822721444144459 ], [ 50.785100487774528, 30.820286785920764 ], [ 50.786751759686794, 30.819470902601957 ], [ 50.787999638688973, 30.818894599890264 ], [ 50.789858262097091, 30.818065753972057 ], [ 50.794314434243908, 30.816090740730036 ], [ 50.797149494696022, 30.814821530458541 ], [ 50.799788513733894, 30.813358032491795 ], [ 50.800874281566649, 30.812723411398828 ], [ 50.803724422127559, 30.811985173423871 ], [ 50.805534035182092, 30.811337591582081 ], [ 50.809017540312091, 30.809485483420072 ], [ 50.814174937517521, 30.80723182114016 ], [ 50.818533088957238, 30.805612778254556 ], [ 50.822212635501479, 30.804900390742787 ], [ 50.824655613125088, 30.804045518757533 ], [ 50.826857309008119, 30.802789102189781 ], [ 50.830529315497955, 30.801241226206223 ], [ 50.833228654971002, 30.800399274826823 ], [ 50.836093875640699, 30.800023632601228 ], [ 50.838861075603269, 30.799738661657653 ], [ 50.841394533879637, 30.799693325293276 ], [ 50.846099527821451, 30.799920006901321 ], [ 50.85217681166295, 30.800243836842565 ], [ 50.855464275378708, 30.800243836842565 ], [ 50.856670684081749, 30.799647988907516 ], [ 50.858714038822491, 30.798501618903792 ], [ 50.862623557025735, 30.796736700503935 ], [ 50.865745139544821, 30.795279404006195 ], [ 50.867328550967557, 30.794061734880174 ], [ 50.869326665381955, 30.792889389925779 ], [ 50.870306872453149, 30.792507241243431 ], [ 50.87106087789256, 30.792526672569018 ], [ 50.871980764528587, 30.792138045311109 ], [ 50.873383214645862, 30.791762370801933 ], [ 50.874303101281924, 30.791283059814244 ], [ 50.875615070746477, 30.791283059814244 ], [ 50.877228642386768, 30.791101698276876 ], [ 50.878450131198584, 30.79054465713028 ], [ 50.878962854897381, 30.78963783905845 ], [ 50.879520818922536, 30.788225776748565 ], [ 50.880139103382831, 30.78750030548019 ], [ 50.881579253772081, 30.78682017119533 ], [ 50.882476520244957, 30.786101166863681 ], [ 50.882959083726163, 30.784954635322396 ], [ 50.883305926228296, 30.78434573730831 ], [ 50.884210732755562, 30.784449379795724 ], [ 50.885025058630099, 30.784255050040205 ], [ 50.886306867877067, 30.784138451998423 ], [ 50.887709317994336, 30.784358692625347 ], [ 50.889232408981918, 30.784604843317418 ], [ 50.890197535944338, 30.785187829285583 ], [ 50.891811107584644, 30.785369201977144 ], [ 50.89286671519978, 30.785557051904217 ], [ 50.894585847601597, 30.786826648687384 ], [ 50.895370013258578, 30.788692148245175 ], [ 50.896365300438568, 30.789793294192435 ], [ 50.899124960346761, 30.789365791969228 ], [ 50.901009973945236, 30.787837132106873 ], [ 50.901643338514319, 30.786191852390946 ], [ 50.903679153200692, 30.78418379569813 ], [ 50.905141923753114, 30.782655053461291 ], [ 50.905941169518869, 30.780802392590974 ], [ 50.907403940071291, 30.779642841931981 ], [ 50.90848970790401, 30.778969130101252 ], [ 50.910495362372778, 30.776319583001428 ], [ 50.912938339996415, 30.773611657510678 ], [ 50.915637679469441, 30.772069790284483 ], [ 50.91740205219763, 30.772328929360764 ], [ 50.918864822750052, 30.772497369386077 ], [ 50.920930797653988, 30.771927263495048 ], [ 50.922943992177167, 30.770184532497641 ], [ 50.924512323491079, 30.768681482645523 ], [ 50.92659337850381, 30.766608271913938 ], [ 50.930031643307451, 30.763576120797726 ], [ 50.932353980060789, 30.761528716875301 ], [ 50.935143800186538, 30.760530915636743 ], [ 50.939532111843803, 30.756695115879108 ], [ 50.942925136321087, 30.753779287476263 ], [ 50.946785644170774, 30.750383856019862 ], [ 50.950103268104101, 30.749139698493231 ], [ 50.952335124204716, 30.749943218734053 ], [ 50.953730034267601, 30.752010308545685 ], [ 50.953262550895175, 30.754148630624577 ], [ 50.953232390677591, 30.756481291463167 ], [ 50.954680081121232, 30.757077406833186 ], [ 50.956746056025175, 30.75753097040311 ], [ 50.963954348025794, 30.760524436374112 ], [ 50.967181491306405, 30.761846196918608 ], [ 50.969322866754283, 30.762027613616088 ], [ 50.97176584437792, 30.761327861613228 ], [ 50.974510424177311, 30.760861357452054 ], [ 50.975535871574884, 30.761379695269369 ], [ 50.978129650286398, 30.763453018627807 ], [ 50.979999583776099, 30.764049090828092 ], [ 50.981899677483376, 30.765189392577845 ], [ 50.983196566839126, 30.766692496970222 ], [ 50.983860091625786, 30.768687961359024 ], [ 50.985096660546382, 30.771434896598073 ], [ 50.98488553902336, 30.77254919702683 ], [ 50.983196566839119, 30.776436190521355 ], [ 50.982563202270015, 30.779519760315154 ], [ 50.982080638788787, 30.78322509578048 ], [ 50.982050478571225, 30.784624276239942 ], [ 50.980723428997877, 30.78594570576081 ], [ 50.979939263340917, 30.787914861160854 ], [ 50.979215418119111, 30.788743967160698 ], [ 50.978763014855474, 30.791360786082652 ], [ 50.9779788491985, 30.794547508986998 ], [ 50.977948688980931, 30.795532003648546 ], [ 50.979260658445476, 30.797073494773826 ], [ 50.979532100403645, 30.797850707816174 ], [ 50.9803313461694, 30.799469881470664 ], [ 50.98176395650426, 30.800557950843068 ], [ 50.983377528144558, 30.801762584708783 ], [ 50.985398262722128, 30.804236570353464 ], [ 50.98692135370969, 30.805719635925762 ], [ 50.987403917190896, 30.806704016156402 ], [ 50.989824274651362, 30.80992261006881 ], [ 50.992764895865008, 30.813872849584108 ], [ 50.994061785220751, 30.81549175327827 ], [ 50.994680069681053, 30.816618494146073 ], [ 50.997077806978318, 30.818166122413039 ], [ 50.998962820576821, 30.819623071841939 ], [ 51.000048588409548, 30.820775665064584 ], [ 51.001194676677422, 30.822446253157381 ], [ 51.002280444510141, 30.823741262690199 ], [ 51.003969416694389, 30.826020437049539 ], [ 51.007226720192584, 30.828351354866975 ], [ 51.00819184715499, 30.830319641397825 ], [ 51.012474598050765, 30.837467289927424 ], [ 51.013922288494385, 30.838710304902829 ], [ 51.017631995256174, 30.83885273267402 ], [ 51.019290807222852, 30.840769013040486 ], [ 51.019622569616189, 30.843772834983934 ], [ 51.018325680260418, 30.847139075415644 ], [ 51.015189017632537, 30.851566796426209 ], [ 51.015173937523734, 30.854065390878315 ], [ 51.015943023071927, 30.854531442744143 ], [ 51.019064605591012, 30.855139895938322 ], [ 51.019969412118279, 30.855631833996501 ], [ 51.021273841528426, 30.856861668101992 ], [ 51.022125867674937, 30.857871414839988 ], [ 51.023407676921899, 30.858997658273676 ], [ 51.025247450194023, 30.860188613951543 ], [ 51.027041983139775, 30.861353664975223 ], [ 51.027976949884618, 30.862220971545266 ], [ 51.028037270319764, 30.863101214967429 ], [ 51.027795988579165, 30.863774336837267 ], [ 51.027328505206739, 30.864835788645042 ], [ 51.026408618570684, 30.867139875295212 ], [ 51.025910974980683, 30.868563721381378 ], [ 51.025993915578994, 30.869508625745038 ], [ 51.026393538461861, 30.870570014058906 ], [ 51.026823321562311, 30.871333688623686 ], [ 51.027441606022627, 30.871948506945092 ], [ 51.028391652876259, 30.872712170526075 ], [ 51.02930399945793, 30.873430526475918 ], [ 51.030125865386864, 30.87402591651561 ], [ 51.030970351478985, 30.875126084030153 ], [ 51.031483075177761, 30.877248724481863 ], [ 51.031498155286563, 30.878685362983511 ], [ 51.031317193981103, 30.879164237697314 ], [ 51.030955271370189, 30.879733707214506 ], [ 51.030940191261408, 30.880160807131201 ], [ 51.031196553110796, 30.880730270725117 ], [ 51.031241793437161, 30.881610344167139 ], [ 51.030955271370189, 30.882995149243555 ], [ 51.03089495093505, 30.884108155636049 ], [ 51.030510408160957, 30.88514996966973 ], [ 51.030065544951704, 30.88625648024151 ], [ 51.029914743863806, 30.887485921440994 ], [ 51.029959984190171, 30.888482404307958 ], [ 51.030382227236231, 30.889310641918158 ], [ 51.030698909520801, 30.889876815850467 ], [ 51.031045752022919, 30.890277988496472 ], [ 51.031769597244747, 30.890821510045885 ], [ 51.03240296181383, 30.891882662275901 ], [ 51.033051406491715, 30.892464996917447 ], [ 51.033647070788838, 30.892464996917447 ], [ 51.034468936717765, 30.892342059899111 ], [ 51.03477807894793, 30.892568522705211 ], [ 51.035049520906114, 30.89319614539756 ], [ 51.035464223897783, 30.894334914212639 ], [ 51.035875302965856, 30.894917313301608 ], [ 51.037066644585238, 30.895632254353028 ], [ 51.038195693832392, 30.896180149489652 ], [ 51.040469365419739, 30.896654543965706 ], [ 51.046114611655412, 30.89754319208134 ], [ 51.048933341499968, 30.897984172294755 ], [ 51.052912266777824, 30.89861891297544 ], [ 51.05826941079183, 30.899540949836187 ], [ 51.062754461594231, 30.900182361545394 ], [ 51.065837934020891, 30.900636692239338 ], [ 51.072627802596784, 30.903135472513771 ], [ 51.07705056102693, 30.90484582996373 ], [ 51.080725810990032, 30.9065828804668 ], [ 51.08212738936578, 30.908613853382981 ], [ 51.084089599091833, 30.90960260091412 ], [ 51.085740346956626, 30.911099064232591 ], [ 51.088232041846865, 30.914225528142854 ], [ 51.106717303313751, 30.938375354398531 ], [ 51.112615612311735, 30.946252535885542 ], [ 51.119101805572861, 30.954833550354216 ], [ 51.124295432109683, 30.961871410202473 ], [ 51.128297717027131, 30.967319719717874 ], [ 51.129777160868194, 30.96921587216287 ], [ 51.130291072939308, 30.971686155125475 ], [ 51.131521347291354, 30.976800105346953 ], [ 51.132144271013907, 30.979630685837478 ], [ 51.132440159782114, 30.980445129764853 ], [ 51.132860633294847, 30.98096583617421 ], [ 51.133405691552085, 30.981206161251009 ], [ 51.13476055064865, 30.98119280987374 ], [ 51.136313966681776, 30.981613377360635 ], [ 51.138283962954354, 30.982053969882656 ], [ 51.14046419598332, 30.982354372708595 ], [ 51.142730081024126, 30.982754908338752 ], [ 51.144209524865211, 30.98292179768843 ], [ 51.147721257351122, 30.98432365670207 ], [ 51.153522234517453, 30.986453107892807 ], [ 51.159039002735348, 30.987517815665523 ], [ 51.160218664534938, 30.987474426552804 ], [ 51.161694215102727, 30.987154014032537 ], [ 51.163866661585146, 30.986626666083271 ], [ 51.165077469570868, 30.986316263712357 ], [ 51.166377822841703, 30.985952457497568 ], [ 51.168020784159957, 30.985612013728186 ], [ 51.169794170132619, 30.985116365480497 ], [ 51.170954365565876, 30.984825984502887 ], [ 51.173239716973001, 30.984619045795629 ], [ 51.174540070243857, 30.984498887630625 ], [ 51.175805384055288, 30.984522251730127 ], [ 51.177031765134082, 30.984719177484234 ], [ 51.178008976723866, 30.984929453688217 ], [ 51.178951148854225, 30.985376706295273 ], [ 51.179714230414355, 30.985583643359252 ], [ 51.180695335277385, 30.985576967977103 ], [ 51.181583001582055, 30.985396732482375 ], [ 51.182190352211542, 30.984972843958339 ], [ 51.182844422120226, 30.984795945040982 ], [ 51.184218747583117, 30.984452159414491 ], [ 51.184736552927482, 30.984445483953156 ], [ 51.186683189560462, 30.984525589458158 ], [ 51.188092554482758, 30.984592343994279 ], [ 51.189782235080187, 30.984265246321055 ], [ 51.19104754889166, 30.983799630862254 ], [ 51.191872922824032, 30.983704504843828 ], [ 51.193829292640203, 30.983292291001508 ], [ 51.194911622608146, 30.983051971178604 ], [ 51.197041243084655, 30.982721530433817 ], [ 51.198049600860543, 30.982491222571344 ], [ 51.19883604206025, 30.982250900730907 ], [ 51.200541295750753, 30.981543282908227 ], [ 51.201802716288931, 30.98092911978976 ], [ 51.203414531421039, 30.980208140650554 ], [ 51.20495626763438, 30.98002121924382 ], [ 51.207743851292825, 30.978786193605607 ], [ 51.213825144134304, 30.976763387359817 ], [ 51.215553757464413, 30.976115813264855 ], [ 51.219415884544269, 30.974673776814711 ], [ 51.221409240456452, 30.972884553157108 ], [ 51.224492712883112, 30.970988473576764 ], [ 51.227451600565267, 30.969439535549292 ], [ 51.229460529570517, 30.968838647652511 ], [ 51.231064558156106, 30.969225886952614 ], [ 51.232216967042831, 30.969760007547876 ], [ 51.232637440555564, 30.970441006973029 ], [ 51.232107955391378, 30.972617501973701 ], [ 51.231500604761891, 30.974366673645729 ], [ 51.230394915154356, 30.977063806839773 ], [ 51.230005587827755, 30.979694105901071 ], [ 51.229600687408094, 30.98319215781553 ], [ 51.229102348430047, 30.984767574429402 ], [ 51.229258079360676, 30.986636679046203 ], [ 51.229943295455499, 30.987864927856972 ], [ 51.230784242480951, 30.990561679552265 ], [ 51.232808744579245, 30.996488925231759 ], [ 51.234506211723229, 30.998905106634496 ], [ 51.234942258329006, 31.000360125570033 ], [ 51.234677515746938, 31.002375757321353 ], [ 51.234521784816295, 31.003683892875998 ], [ 51.234802100491436, 31.004244516905178 ], [ 51.235923363192043, 31.004898574106036 ], [ 51.23726264919555, 31.005272319063351 ], [ 51.236702017845232, 31.009169857732171 ], [ 51.235946722831635, 31.011191976821941 ], [ 51.235358605935815, 31.011872168097188 ], [ 51.233910915492189, 31.015620218686983 ], [ 51.233307711140675, 31.017119397650006 ], [ 51.231829860479451, 31.018799483978007 ], [ 51.230698852320394, 31.024240175623614 ], [ 51.22852731665494, 31.026281970214846 ], [ 51.22897971991857, 31.027315773571772 ], [ 51.230638531885226, 31.029719323007647 ], [ 51.230819493190673, 31.031941906143043 ], [ 51.231784620153107, 31.035715009900677 ], [ 51.2316639792828, 31.038144189372044 ], [ 51.23208622232886, 31.038945288161635 ], [ 51.234891122563411, 31.042485547255463 ], [ 51.235253045174332, 31.043648377358195 ], [ 51.236640415182805, 31.046051514557508 ], [ 51.235464166697348, 31.04895845427497 ], [ 51.234061716580072, 31.053803156496961 ], [ 51.234061716580072, 31.060520735422905 ], [ 51.233156910052799, 31.066617819463797 ], [ 51.230563131341299, 31.070557464619114 ], [ 51.231317136780696, 31.071771617437161 ], [ 51.237469821166144, 31.07456152687158 ], [ 51.24859894145159, 31.080089438928042 ], [ 51.24920214580311, 31.080967675736957 ], [ 51.250710156681897, 31.083550678144292 ], [ 51.251011758857643, 31.084687176965112 ], [ 51.256319957150978, 31.089388004985732 ], [ 51.258129570205526, 31.091764159236099 ], [ 51.265729945034622, 31.093107176657043 ], [ 51.268022121570382, 31.093158830794099 ], [ 51.273662082257026, 31.096722898426805 ], [ 51.274958971612783, 31.096981159001515 ], [ 51.27743210945399, 31.097006985020361 ], [ 51.278638518157017, 31.098634010052582 ], [ 51.279422683813998, 31.103359972329596 ], [ 51.276708264232177, 31.109944937434758 ], [ 51.272817596164899, 31.116916755659911 ], [ 51.271731828332172, 31.120712308080144 ], [ 51.270223817453385, 31.124120429883011 ], [ 51.268293563528516, 31.126444079114727 ], [ 51.266333149386092, 31.127889876584078 ], [ 51.263980652415185, 31.131581723729749 ], [ 51.263528249151562, 31.132975810456145 ], [ 51.264794978289721, 31.137261208019051 ], [ 51.264342575026077, 31.139481277604091 ], [ 51.262955205017604, 31.142449894090273 ], [ 51.261959917837601, 31.143585687990484 ], [ 51.260904310222443, 31.145857234974859 ], [ 51.259637581084263, 31.148309412107341 ], [ 51.25731524433094, 31.150129144662547 ], [ 51.254827026380944, 31.151045450668683 ], [ 51.252278487995795, 31.15264573850618 ], [ 51.250589515811555, 31.154052420824119 ], [ 51.248749742539438, 31.154491198192822 ], [ 51.246970289702467, 31.154904163272441 ], [ 51.244889234689744, 31.155446177208667 ], [ 51.242054174237616, 31.158827241780902 ], [ 51.241089047275203, 31.163343742879462 ], [ 51.241149367710349, 31.171189038647295 ], [ 51.241028726840064, 31.172918013161134 ], [ 51.239490555743686, 31.177949923546258 ], [ 51.238314307258236, 31.179136899326689 ], [ 51.237047578120077, 31.181872047734831 ], [ 51.234936362889769, 31.185432782924071 ], [ 51.234152197232795, 31.187084092914031 ], [ 51.235177644630376, 31.19683655498131 ], [ 51.235841169417064, 31.198178084879522 ], [ 51.237349180295851, 31.201067469285285 ], [ 51.240425522488565, 31.203647202220569 ], [ 51.243139942070385, 31.209167594327965 ], [ 51.244436831426128, 31.211153824812104 ], [ 51.246427405786136, 31.213243191075961 ], [ 51.246427405786136, 31.217163852548186 ], [ 51.246487726221261, 31.221625986527897 ], [ 51.245371798170957, 31.228176946102909 ], [ 51.242868500112181, 31.240142880893949 ], [ 51.234363318755818, 31.27732044198337 ], [ 51.229899606554632, 31.295671783639271 ], [ 51.230623451776445, 31.302939164503364 ], [ 51.220972182152217, 31.32221304818793 ], [ 51.194913754166784, 31.362603252361623 ], [ 51.189665876308609, 31.406631467991375 ], [ 51.186770495421342, 31.422795711625842 ], [ 51.185141843672227, 31.428920923249436 ], [ 51.178265314064966, 31.442045029298058 ], [ 51.159746940473461, 31.492877148679419 ], [ 51.15685155958618, 31.503575129760989 ], [ 51.157816686548614, 31.530109066587098 ], [ 51.158118288724367, 31.531702919727916 ], [ 51.163969370934062, 31.534170767694004 ], [ 51.16873468531103, 31.540031645205183 ], [ 51.171735626959816, 31.543797321902048 ], [ 51.17684024378449, 31.546778910358128 ], [ 51.185270024596896, 31.549381296565876 ], [ 51.186280391885674, 31.550178062029467 ], [ 51.18819556570174, 31.552542616254112 ], [ 51.190578222890231, 31.553493561384165 ], [ 51.194876053894788, 31.553236550142604 ], [ 51.198163517610546, 31.552157095197138 ], [ 51.200154091970532, 31.552748226833195 ], [ 51.201888304481145, 31.554701504736347 ], [ 51.204617804171747, 31.55565242786275 ], [ 51.206849660272361, 31.55400758174342 ], [ 51.208719593762041, 31.552118543003829 ], [ 51.210212524532047, 31.551501705744609 ], [ 51.211253052038401, 31.551643064643354 ], [ 51.212323739762347, 31.554277441298392 ], [ 51.212474540850216, 31.557053094274444 ], [ 51.211795935954775, 31.562090179484251 ], [ 51.209790281486001, 31.566176186530011 ], [ 51.208252110389637, 31.570621764422707 ], [ 51.206352016682352, 31.577636609382456 ], [ 51.205055127326609, 31.580745584294302 ], [ 51.201435901217522, 31.584830773823487 ], [ 51.197967476196311, 31.58963513863765 ], [ 51.197846835326018, 31.59631459249097 ], [ 51.197122990104212, 31.59698251153532 ], [ 51.195946741618755, 31.597855936904999 ], [ 51.195072095309058, 31.601452308010909 ], [ 51.196157863141778, 31.604457740192576 ], [ 51.196157863141778, 31.607745623265746 ], [ 51.194619692045428, 31.615117251570982 ], [ 51.195916581401171, 31.626186439949272 ], [ 51.196368984664794, 31.635071656879951 ], [ 51.196565026079035, 31.645034416588178 ], [ 51.197288871300849, 31.651337621649841 ], [ 51.198027796631465, 31.658128172807988 ], [ 51.198306778644039, 31.661189535005743 ], [ 51.200221952460126, 31.665964288518644 ], [ 51.20302685269467, 31.672330244780213 ], [ 51.206284156192844, 31.676026406249971 ], [ 51.209993862954668, 31.67754076325377 ], [ 51.214276613850416, 31.67908076199593 ], [ 51.221605546721321, 31.684598881062811 ], [ 51.224772369566786, 31.687935259047933 ], [ 51.22863287741648, 31.691861765658249 ], [ 51.231196495910424, 31.693350201863161 ], [ 51.239400075091034, 31.699483333643148 ], [ 51.244135229250439, 31.70766876484247 ], [ 51.244014588380132, 31.720291900740705 ], [ 51.243893947509804, 31.725320150959728 ], [ 51.238766710521929, 31.737889582986465 ], [ 51.23412203701529, 31.749534024549085 ], [ 51.225918457834688, 31.761741161796873 ], [ 51.208425531640785, 31.777946469569411 ], [ 51.181522617563218, 31.802966810313112 ], [ 51.179471722768056, 31.80737543072448 ], [ 51.171991988809275, 31.815371926166907 ], [ 51.151664002163244, 31.835975088842293 ], [ 51.146114522129309, 31.852884695662333 ], [ 51.143400102547481, 31.867178581218749 ], [ 51.149130543886884, 31.876040701672899 ], [ 51.164451934415361, 31.884440999990119 ], [ 51.194974074602015, 31.902109858289911 ], [ 51.198593300711103, 31.905592015827999 ], [ 51.211260592092898, 31.974388789492682 ], [ 51.218378403440781, 32.010455782830185 ], [ 51.212587641666225, 32.049627384639351 ], [ 51.208123929465017, 32.08418265783579 ], [ 51.206012714234731, 32.103294904961537 ], [ 51.206253995975338, 32.120972727667194 ], [ 51.210114503825032, 32.134254387837466 ], [ 51.211200271657752, 32.168369170982892 ], [ 51.212708282536539, 32.191547677775297 ], [ 51.219343530403194, 32.210637433138366 ], [ 51.218499044311073, 32.21574096707716 ], [ 51.213311486888053, 32.220538027814435 ], [ 51.211984437314705, 32.23064164680062 ], [ 51.210174824260157, 32.24788664347377 ], [ 51.218468884093518, 32.265969964012605 ], [ 51.223596121081385, 32.274538516470763 ], [ 51.228843998939574, 32.28685439290485 ], [ 51.233729954186842, 32.300264811344604 ], [ 51.235780848981996, 32.306433957289762 ], [ 51.238615909434117, 32.32239021276942 ], [ 51.241692251626823, 32.337324351826759 ], [ 51.247422692966225, 32.36341495284146 ], [ 51.248387819928631, 32.369121268574361 ], [ 51.248146538188053, 32.379259280231366 ], [ 51.249533908196547, 32.391993863812722 ], [ 51.240063599877757, 32.414656980131042 ], [ 51.223596121081414, 32.458032055617061 ], [ 51.212979724494751, 32.47660771456345 ], [ 51.192712058283838, 32.51252674270485 ], [ 51.185714887806263, 32.526463124769457 ], [ 51.190057959137185, 32.531447145424117 ], [ 51.200071151372335, 32.541516057692505 ], [ 51.198382179188087, 32.560633712706718 ], [ 51.194823273514167, 32.626294182595977 ], [ 51.192591417413553, 32.651894816072847 ], [ 51.189575395655986, 32.705002900306475 ], [ 51.188248346082652, 32.730682473733886 ], [ 51.187765782601424, 32.737481754733778 ], [ 51.182698866048703, 32.753818204569399 ], [ 51.170755419888728, 32.771673256201993 ], [ 51.157967487636618, 32.790133236305948 ], [ 51.124911889173596, 32.823392098371798 ], [ 51.094269108116634, 32.860894775419482 ], [ 51.043358660848767, 32.910536087145104 ], [ 51.028093632524467, 32.926531863079099 ], [ 51.011203773007111, 32.950080528239489 ], [ 50.972114533437683, 33.100674528703323 ], [ 50.968366185763394, 33.111893270258463 ], [ 50.928382889649207, 33.156313876339787 ], [ 50.900704591285539, 33.213801111802205 ], [ 50.875846531915208, 33.289435489459642 ], [ 50.853178639625376, 33.349787681304022 ], [ 50.846084964943067, 33.367393276083206 ], [ 50.813054392903055, 33.417090470625318 ], [ 50.801213285154716, 33.609233838246418 ], [ 50.796300741930168, 33.687989696383184 ], [ 50.83661847110065, 33.769778671172979 ], [ 50.833349466032779, 33.792647499771888 ], [ 50.826554101601992, 33.804625840872191 ], [ 50.813939671122533, 33.834088745668993 ], [ 50.801953396526692, 33.868455821939349 ], [ 50.759371200303953, 33.904766232128488 ], [ 50.676942270476694, 34.029781040794646 ], [ 50.595869868705854, 34.157649901721904 ], [ 50.554326262634916, 34.237721941702304 ], [ 50.544383038886764, 34.272003184184967 ], [ 50.545064081609233, 34.293217904601782 ], [ 50.555968494137723, 34.330799969577761 ], [ 50.550146362925673, 34.341096626913625 ], [ 50.552112179683228, 34.355391727377615 ], [ 50.553687785082538, 34.366847514357659 ], [ 50.562677549019213, 34.390876410773714 ], [ 50.560940890076886, 34.39837875857576 ], [ 50.562405131930213, 34.407425639209869 ], [ 50.584096342641054, 34.442311585375712 ], [ 50.609226819100378, 34.538355163513984 ], [ 50.623622359646667, 34.633888804296063 ], [ 50.621443022934749, 34.638483647050229 ], [ 50.622192169929491, 34.643750592661981 ], [ 50.621647335751497, 34.646944215902735 ], [ 50.631045725321663, 34.655964136399596 ], [ 50.631130855661965, 34.679895781603051 ], [ 50.637107005551677, 34.690858058513705 ], [ 50.664144401633877, 34.783776019017701 ], [ 50.617339740531797, 34.84577037857489 ], [ 50.615705237997865, 34.859183533742005 ], [ 50.603256072444481, 34.87509558409937 ], [ 50.566723143557162, 34.921502230065613 ], [ 50.529927907102135, 34.968865647929157 ], [ 50.52849771738493, 34.974669575433985 ], [ 50.522232124338181, 34.984183778336316 ], [ 50.514485263370005, 34.991409369728402 ], [ 50.508611269888682, 34.99875984778069 ], [ 50.502073259752926, 35.00824336004986 ], [ 50.501392217030471, 35.013542491041818 ], [ 50.450705034920965, 35.090027362201283 ], [ 50.421161127805888, 35.134638467271408 ], [ 50.403539805196935, 35.16358090014625 ], [ 50.393948856007853, 35.175168541928471 ], [ 50.391897961212692, 35.179655227756527 ], [ 50.385684956392097, 35.185275561660056 ], [ 50.38164348723695, 35.191487057462389 ], [ 50.378506824609083, 35.194099687633106 ], [ 50.373681189796962, 35.199719022525187 ], [ 50.365176008440628, 35.214012069477029 ], [ 50.340323989158193, 35.253526635134769 ], [ 50.32488195775943, 35.27815190872748 ], [ 50.300753783698823, 35.316946144546769 ], [ 50.286518161003052, 35.340223599245562 ], [ 50.270050682206708, 35.366150626655639 ], [ 50.229877272395825, 35.434593360451494 ], [ 50.182827332977681, 35.507299176842935 ], [ 50.165997931570374, 35.534203298085586 ], [ 50.157070507167958, 35.543136613357554 ], [ 50.156346661946152, 35.546326841973041 ], [ 50.150978143217678, 35.556093060491527 ], [ 50.141990398380116, 35.563699089898435 ], [ 50.136259957040714, 35.570224978414522 ], [ 50.13420906224556, 35.5715497179484 ], [ 50.129323106998292, 35.580135461587879 ], [ 50.120757605206784, 35.584207235389449 ], [ 50.114062036904961, 35.587641100555253 ], [ 50.110684092536474, 35.590486191561183 ], [ 50.10616005990012, 35.598971810729033 ], [ 50.100128016384978, 35.606524726455454 ], [ 50.094216613740137, 35.616430716860428 ], [ 50.087340084132848, 35.624325206935559 ], [ 50.087279763697701, 35.656483518415747 ], [ 50.084082780634667, 35.659473191513094 ], [ 50.087822647614068, 35.681328711771776 ], [ 50.086374957170435, 35.691568364873653 ], [ 50.0835398967183, 35.700337166378873 ], [ 50.084384382810434, 35.711113143481192 ], [ 50.085349509772861, 35.72453209616296 ], [ 50.083358935412868, 35.746565618227429 ], [ 50.081127079312267, 35.769180357463419 ], [ 50.079558747998327, 35.787531750365069 ], [ 50.077507853203166, 35.808569467004261 ], [ 50.075125196014696, 35.833367245310264 ], [ 50.072591737738335, 35.848868034243992 ], [ 50.06643905335288, 35.875363942450292 ], [ 50.06499136290924, 35.880838007353859 ], [ 50.063423031595306, 35.882206464472496 ], [ 50.058718037653477, 35.902632762989093 ], [ 50.049911254121369, 35.940539380016546 ], [ 50.046171387141968, 35.964172965587359 ], [ 50.034951786203813, 36.014541623368558 ], [ 50.025300516579577, 36.048688102514745 ], [ 50.020173279591717, 36.063195873246734 ], [ 50.016222291089292, 36.075458339382315 ], [ 50.009225120611724, 36.089790568004233 ], [ 50.001926347958403, 36.101878307478863 ], [ 49.991038509413549, 36.122247789015823 ], [ 49.984161979806267, 36.133453623542188 ], [ 49.978371218031725, 36.142051798575416 ], [ 49.95768130877476, 36.161339459429854 ], [ 49.94471241521719, 36.174633493322702 ], [ 49.936267554295974, 36.18339755681486 ], [ 49.927279809458412, 36.188460791062646 ], [ 49.903996121489953, 36.209197161002699 ], [ 49.882401405705721, 36.228711588812516 ], [ 49.854050801184506, 36.252939686888411 ], [ 49.828293975374827, 36.274437049114852 ], [ 49.821417445767565, 36.279591645407102 ], [ 49.788603129045143, 36.298845427981192 ], [ 49.781183715521514, 36.303560907872289 ], [ 49.763751109762737, 36.317754239789622 ], [ 49.751687022732433, 36.328980695724447 ], [ 49.738235565693664, 36.342683527492568 ], [ 49.737149797860944, 36.344141133692055 ], [ 49.73666723437973, 36.346230321666731 ], [ 49.732082881308209, 36.35128300969145 ], [ 49.726201638880923, 36.35830278672605 ], [ 49.723818981692432, 36.361120235450613 ], [ 49.721949048202752, 36.361095947535389 ], [ 49.719777512537298, 36.36073162789728 ], [ 49.715766203599713, 36.365674085603821 ], [ 49.712614460863051, 36.369984818195604 ], [ 49.706733218435787, 36.383243377166337 ], [ 49.697081948811537, 36.39902442890105 ], [ 49.69472945184063, 36.402957053835664 ], [ 49.692588076392767, 36.408928437060503 ], [ 49.688576767455196, 36.413394537506974 ], [ 49.687249717881855, 36.417496327453307 ], [ 49.685802027438214, 36.422495849464298 ], [ 49.684173375689141, 36.423393787766784 ], [ 49.680222387186717, 36.43288217676244 ], [ 49.679528702182473, 36.434750597509286 ], [ 49.67729684608188, 36.439069631746833 ], [ 49.676241238466716, 36.439506374636025 ], [ 49.67450702595611, 36.444176943495073 ], [ 49.672802973663082, 36.447949587352632 ], [ 49.667494775369754, 36.457216653796721 ], [ 49.66559468166249, 36.461194845227311 ], [ 49.663091383603685, 36.467307278221902 ], [ 49.662307217946726, 36.46911423457324 ], [ 49.662970742733378, 36.471139430894482 ], [ 49.663890629369448, 36.471867033419208 ], [ 49.66405651056612, 36.472594629113878 ], [ 49.662473099143391, 36.477323834642824 ], [ 49.662307217946712, 36.479021427775116 ], [ 49.65873323216401, 36.484768716986927 ], [ 49.651374139075529, 36.490103371837158 ], [ 49.650770934724001, 36.492358365459175 ], [ 49.648720039928868, 36.495389167442603 ], [ 49.645877439422421, 36.498756249360099 ], [ 49.643555102669104, 36.501277676580152 ], [ 49.64132324656849, 36.502441384527103 ], [ 49.640297799170909, 36.503774778380219 ], [ 49.636376970886076, 36.504914205839604 ], [ 49.632486302818819, 36.507314221580536 ], [ 49.6303901676973, 36.507702095927968 ], [ 49.627705908333084, 36.50962931777196 ], [ 49.626047096366406, 36.513532098043974 ], [ 49.623423157437323, 36.514792581303254 ], [ 49.621613544382797, 36.517216529868371 ], [ 49.617451434357342, 36.518137610415351 ], [ 49.613470285637341, 36.519834309038202 ], [ 49.611117788666434, 36.520270596956287 ], [ 49.608282728214313, 36.523518440797623 ], [ 49.608222407779152, 36.52603906144828 ], [ 49.605327026891892, 36.529092780285701 ], [ 49.603095170791299, 36.53214637856729 ], [ 49.600199789904025, 36.534957521191885 ], [ 49.598269535979171, 36.537090043984321 ], [ 49.593081978556135, 36.539367901096909 ], [ 49.590850122455542, 36.541161060553186 ], [ 49.589915155710692, 36.545001674317831 ], [ 49.588361904505526, 36.545837618590468 ], [ 49.587668219501296, 36.547133920091262 ], [ 49.586265769384013, 36.54798195603923 ], [ 49.585436363400682, 36.549290336107887 ], [ 49.585315722530382, 36.549992975522443 ], [ 49.585511763944631, 36.552948836892 ], [ 49.584848239157957, 36.553893719549436 ], [ 49.583807711651581, 36.554632658192709 ], [ 49.583189427191279, 36.556498143986616 ], [ 49.581183772722483, 36.557794266691111 ], [ 49.577172463784926, 36.560204754837216 ], [ 49.576478778780675, 36.562021655994229 ], [ 49.574397723767959, 36.563547819945278 ], [ 49.573432596805524, 36.563814289924395 ], [ 49.572346828972798, 36.564855936477862 ], [ 49.572769072018886, 36.566442603653343 ], [ 49.570718177223725, 36.567847564174023 ], [ 49.568380760361627, 36.569652174244808 ], [ 49.568048997968297, 36.570645297370177 ], [ 49.567491033943135, 36.571347742601624 ], [ 49.567641835031033, 36.571614185673255 ], [ 49.568652202319811, 36.571892738810718 ], [ 49.56874268297252, 36.573479261435807 ], [ 49.567898196880414, 36.574266455220027 ], [ 49.566721948394964, 36.575453286063365 ], [ 49.565756821432529, 36.577778452797233 ], [ 49.565063136428286, 36.578311293645562 ], [ 49.563615445984667, 36.579607050364295 ], [ 49.56177567271255, 36.580842237457809 ], [ 49.561112147925883, 36.58254966942912 ], [ 49.560810545750115, 36.583034040417274 ], [ 49.56067482477102, 36.584850404555027 ], [ 49.560720065097392, 36.586255030182464 ], [ 49.56186615336528, 36.588047101632 ], [ 49.562861440545284, 36.589524318432666 ], [ 49.564791694470124, 36.591074154846098 ], [ 49.567053710788301, 36.595021253882884 ], [ 49.567144191441024, 36.596964460069117 ], [ 49.567008470461936, 36.600196975022023 ], [ 49.565922702629209, 36.602545608797513 ], [ 49.565568320072678, 36.603732004861655 ], [ 49.563909508106029, 36.608029511305837 ], [ 49.56253721820633, 36.609094771643854 ], [ 49.561632411679064, 36.611661020219465 ], [ 49.561376049829683, 36.613876156685137 ], [ 49.559294994816945, 36.617676843668463 ], [ 49.557726663503018, 36.619201907428774 ], [ 49.554808662452729, 36.621132401225374 ], [ 49.552878408527882, 36.622947868523283 ], [ 49.550586231992135, 36.624327595074305 ], [ 49.549138541548501, 36.626723903544878 ], [ 49.547117806970924, 36.627909927649455 ], [ 49.54389066369032, 36.629120137513823 ], [ 49.540271437581225, 36.631129043931416 ], [ 49.535204521028504, 36.63345253302753 ], [ 49.534850138471974, 36.633464634349856 ], [ 49.532475021337888, 36.634850223187861 ], [ 49.530552307467417, 36.636011920390686 ], [ 49.527973608864713, 36.637143348225059 ], [ 49.51642978558759, 36.643253981393016 ], [ 49.510141380223068, 36.646448258076532 ], [ 49.498997179828841, 36.650084006496051 ], [ 49.494895390238533, 36.651487444161155 ], [ 49.492180970656719, 36.653495767362863 ], [ 49.491246003911868, 36.654657183381211 ], [ 49.490220556514295, 36.656375079119961 ], [ 49.490424137982941, 36.658703855450788 ], [ 49.489127248627177, 36.66138942172941 ], [ 49.486111226869603, 36.663905542957643 ], [ 49.473066932768099, 36.671320364145039 ], [ 49.462239414658391, 36.678383738070792 ], [ 49.458122544959316, 36.680657425946137 ], [ 49.455197003854458, 36.681788197818655 ], [ 49.451660718343696, 36.68320315097138 ], [ 49.449820945071579, 36.683916664483611 ], [ 49.448131972887339, 36.684872036617982 ], [ 49.446518401247026, 36.686069258361229 ], [ 49.445055630694604, 36.686915767538196 ], [ 49.443592860142182, 36.68755064330621 ], [ 49.442597572962164, 36.688651082221625 ], [ 49.441036781702621, 36.690410542495123 ], [ 49.440508977895057, 36.690966789601092 ], [ 49.439604171367783, 36.692611322727537 ], [ 49.437598516898994, 36.696371850855712 ], [ 49.436754030806867, 36.697665623471188 ], [ 49.436331787760814, 36.699443013896698 ], [ 49.435396821015964, 36.706213648554098 ], [ 49.43301416382748, 36.710759311432312 ], [ 49.431536313166269, 36.714095850281339 ], [ 49.427962327383547, 36.721469570684334 ], [ 49.427359123032033, 36.724394686610516 ], [ 49.427570244555078, 36.731477357052746 ], [ 49.427690885425413, 36.734776739842893 ], [ 49.427027360638746, 36.737217950122357 ], [ 49.426001913241159, 36.740746691128173 ], [ 49.426861479442074, 36.743211879683557 ], [ 49.428392110484054, 36.747459310481638 ], [ 49.430201723538588, 36.751627968431947 ], [ 49.433624908233433, 36.759263879001892 ], [ 49.43386618997404, 36.761655985758203 ], [ 49.433851109865259, 36.762948658861845 ], [ 49.436218686944969, 36.766778226050519 ], [ 49.437673917442993, 36.76772048771327 ], [ 49.440343096698456, 36.767780888706994 ], [ 49.442378911384814, 36.768155373806188 ], [ 49.444686168029364, 36.769834494184423 ], [ 49.446265809424915, 36.770119880592674 ], [ 49.446635272090226, 36.770708769823642 ], [ 49.447072595245068, 36.772964626718583 ], [ 49.44732895709447, 36.775730754210564 ], [ 49.446816233395673, 36.777011111309015 ], [ 49.445428863387185, 36.778375996740465 ], [ 49.442322360976888, 36.779559683011044 ], [ 49.440437347378406, 36.782724142256086 ], [ 49.439894463462053, 36.786154171875118 ], [ 49.436697480399026, 36.78977727585184 ], [ 49.436637159963858, 36.792723940749646 ], [ 49.439924623679616, 36.794849333596304 ], [ 49.440105584985076, 36.796527869225073 ], [ 49.441824717386893, 36.796660701409309 ], [ 49.446514631219905, 36.801031959308652 ], [ 49.447268636659302, 36.803398613622512 ], [ 49.447845450820431, 36.805028664618419 ], [ 49.452060341226648, 36.806248161561939 ], [ 49.460512742202255, 36.80594630769157 ], [ 49.461839791775581, 36.805221853547678 ], [ 49.463589084394968, 36.805668601079837 ], [ 49.465851100713166, 36.806598310560865 ], [ 49.466786067458017, 36.808047185949121 ], [ 49.471430740964699, 36.810051418373739 ], [ 49.477862407362736, 36.811029368161066 ], [ 49.480757788250003, 36.811343275320873 ], [ 49.483426967505459, 36.813782048639958 ], [ 49.485161180016064, 36.814675441203853 ], [ 49.485990585999396, 36.81647426757084 ], [ 49.486473149480609, 36.820409807363575 ], [ 49.486262027957565, 36.824224431924442 ], [ 49.488101801229682, 36.825455694194495 ], [ 49.49063525950605, 36.826686936652415 ], [ 49.494465607138174, 36.827290479640553 ], [ 49.495513674698927, 36.827948336074847 ], [ 49.496478801661361, 36.830012399363632 ], [ 49.498951939502575, 36.833633428483928 ], [ 49.501979271341739, 36.838322406492082 ], [ 49.506073520877635, 36.842280959498687 ], [ 49.506752125773097, 36.843228326705322 ], [ 49.508011314856873, 36.843692954739929 ], [ 49.510409052154145, 36.848870047556638 ], [ 49.514224319677467, 36.854203655329378 ], [ 49.521809614397789, 36.865255829660235 ], [ 49.526590008883545, 36.878393288989997 ], [ 49.527087652473547, 36.885413484047525 ], [ 49.532229969570224, 36.889454025303998 ], [ 49.534974549369615, 36.895001882781948 ], [ 49.534959469260833, 36.900259914603907 ], [ 49.535698394591442, 36.90298526560413 ], [ 49.536007536821586, 36.904848336708248 ], [ 49.536678601662636, 36.906632983518392 ], [ 49.536919883403264, 36.908375385566515 ], [ 49.538246932976598, 36.917647430138075 ], [ 49.537885010365699, 36.927050953261713 ], [ 49.539242220156588, 36.929329324697527 ], [ 49.541572096964323, 36.932035555725861 ], [ 49.542039580336748, 36.934482532689948 ], [ 49.555807719660095, 36.94193146660713 ], [ 49.573753049117641, 36.954380890534438 ], [ 49.57458245510098, 36.955381094759929 ], [ 49.575381700866735, 36.958140626251378 ], [ 49.577296874682801, 36.960321669908275 ], [ 49.57652778913463, 36.966412596319337 ], [ 49.57695003218069, 36.968991001934711 ], [ 49.578277081754024, 36.97012354501922 ], [ 49.582258230474018, 36.972003047418198 ], [ 49.584731368315239, 36.976677505960268 ], [ 49.585606014624929, 36.978821877981787 ], [ 49.591125334441301, 36.981303491515185 ], [ 49.597700261872788, 36.982267203106929 ], [ 49.602948139730977, 36.985881012858513 ], [ 49.603641824735242, 36.987856489617897 ], [ 49.606657846492816, 36.991518213290121 ], [ 49.608950023028569, 36.993108117363668 ], [ 49.611181879129177, 36.995324291828965 ], [ 49.61178508348069, 36.996673235970874 ], [ 49.613413735229784, 36.997636752850582 ], [ 49.614077260016444, 36.999467401287113 ], [ 49.616007513941291, 37.001298005649602 ], [ 49.617877447430971, 37.003224909994621 ], [ 49.618540972217637, 37.004332857878914 ], [ 49.622130038109162, 37.007006317803004 ], [ 49.623502328008861, 37.008698256244372 ], [ 49.624520235352044, 37.010263717343527 ], [ 49.626250677835451, 37.012792471008893 ], [ 49.627434466375348, 37.01488013458696 ], [ 49.627747378633025, 37.020196117688641 ], [ 49.627958500156048, 37.021929902637645 ], [ 49.63356830062515, 37.026119719584138 ], [ 49.63643352129484, 37.028768335215105 ], [ 49.637247847169377, 37.030718620409218 ], [ 49.634684228675454, 37.038639634347525 ], [ 49.63281429518576, 37.045572852825543 ], [ 49.628953787336044, 37.048220789998197 ], [ 49.626450489277261, 37.052986844123488 ], [ 49.627385456022111, 37.055201272478136 ], [ 49.626450489277261, 37.05806549156398 ], [ 49.62458055578756, 37.059413321957734 ], [ 49.623977351436068, 37.060351975409368 ], [ 49.624399594482128, 37.06311973207989 ], [ 49.623555108390008, 37.064635938574909 ], [ 49.622740782515464, 37.068462420207034 ], [ 49.623072544908794, 37.069280636509532 ], [ 49.622831263168194, 37.072336836985507 ], [ 49.622831263168194, 37.073395649368507 ], [ 49.621805815770614, 37.074983840223688 ], [ 49.622197898599111, 37.075537292857497 ], [ 49.622801102950632, 37.07642762122687 ], [ 49.622740782515464, 37.077149501419342 ], [ 49.62078036837304, 37.076884812813447 ], [ 49.619996202716088, 37.077317939142013 ], [ 49.620056523151227, 37.07847293058866 ], [ 49.620931169460938, 37.079194791308069 ], [ 49.621926456640928, 37.079531657291717 ], [ 49.623012224473655, 37.08003695346072 ], [ 49.623917031000929, 37.081071597013008 ], [ 49.623977351436089, 37.082034043454406 ], [ 49.624640876222749, 37.082731809483782 ], [ 49.625636163402753, 37.083766416257191 ], [ 49.62584728492579, 37.085137849982161 ], [ 49.625515522532439, 37.086268662634303 ], [ 49.624610716005172, 37.087399458415995 ], [ 49.624806757419407, 37.08810920459748 ], [ 49.62477659720183, 37.090106081926017 ], [ 49.624376974318949, 37.092397614265828 ], [ 49.624094222279162, 37.093570418970451 ], [ 49.622405250094928, 37.09453270670965 ], [ 49.61916302670555, 37.100041568766024 ], [ 49.61705181147525, 37.102254623270888 ], [ 49.615151717767958, 37.107041335218234 ], [ 49.614608833851605, 37.107979399093793 ], [ 49.614337391893422, 37.113583487365922 ], [ 49.614307231675859, 37.115603743662476 ], [ 49.613613546671615, 37.118658076421248 ], [ 49.614669154286752, 37.120678197315847 ], [ 49.616177165165539, 37.121592043821217 ], [ 49.615815242554632, 37.123660182018838 ], [ 49.615875562989793, 37.125583980775673 ], [ 49.616720049081913, 37.126449674263796 ], [ 49.616599408211606, 37.127892474740221 ], [ 49.616840689952205, 37.129335247711644 ], [ 49.615513640378879, 37.131932169746342 ], [ 49.615573960814025, 37.132942059803248 ], [ 49.614608833851605, 37.13505797621773 ], [ 49.614729474721905, 37.135731209940985 ], [ 49.614065949935238, 37.13654869998004 ], [ 49.614246911240699, 37.139193460178063 ], [ 49.613613546671594, 37.139866657102267 ], [ 49.61114040883038, 37.141309201767086 ], [ 49.606284613800689, 37.145444344012624 ], [ 49.603992437264921, 37.146646377836333 ], [ 49.597176228092806, 37.150829306620167 ], [ 49.592154551866464, 37.153725969405876 ], [ 49.587404317598292, 37.157295563020163 ], [ 49.582337401045564, 37.16117745500042 ], [ 49.577662567321312, 37.164975026383232 ], [ 49.573802059471625, 37.168147534668343 ], [ 49.567408093345563, 37.169853904498105 ], [ 49.566623927688617, 37.170526828485102 ], [ 49.565161157136188, 37.1722091122354 ], [ 49.564316671044068, 37.175717754960978 ], [ 49.563366624190415, 37.177279769510378 ], [ 49.560999047110734, 37.180391686844821 ], [ 49.560486323411943, 37.181545106265638 ], [ 49.560109320692249, 37.184224335487521 ], [ 49.560033920148307, 37.185149428436951 ], [ 49.557394901110428, 37.190123110569147 ], [ 49.555223365444974, 37.194303633447994 ], [ 49.553685194348617, 37.197571007410268 ], [ 49.551875581294055, 37.199372807556536 ], [ 49.544727609728611, 37.205762845317885 ], [ 49.540263897527396, 37.210879290013644 ], [ 49.536704991853455, 37.214818475838122 ], [ 49.535649384238312, 37.215899314038616 ], [ 49.526179075919515, 37.222504099907233 ], [ 49.520147032404374, 37.226959001566534 ], [ 49.509711597123157, 37.238773422980465 ], [ 49.500482570544982, 37.246744709942298 ], [ 49.492957596259842, 37.253598862275702 ], [ 49.491555146142566, 37.254679144638956 ], [ 49.488524044276211, 37.262024653886911 ], [ 49.486684271004094, 37.266729244234789 ], [ 49.484226213271668, 37.267965350593833 ], [ 49.483547608376213, 37.268451386856633 ], [ 49.482605101576958, 37.269297442496871 ], [ 49.481549493961808, 37.269927477755452 ], [ 49.47762866567696, 37.270587509038556 ], [ 49.473737997609703, 37.270995525483258 ], [ 49.472787950756071, 37.271121530114904 ], [ 49.46922904508213, 37.273755578655638 ], [ 49.462623957433038, 37.275843551651207 ], [ 49.458544788005931, 37.27691751520576 ], [ 49.454876551543293, 37.277766475551921 ], [ 49.446823773450575, 37.278654423831711 ], [ 49.444260154956623, 37.279134391513487 ], [ 49.429059405298446, 37.286141571117028 ], [ 49.417115959138457, 37.291900408312969 ], [ 49.409998147790589, 37.295259526456071 ], [ 49.397029254233026, 37.306991269306771 ], [ 49.396395889663943, 37.309726013788385 ], [ 49.394073552910598, 37.313012373367854 ], [ 49.392082978550583, 37.318169509354732 ], [ 49.387377984608776, 37.322774652651582 ], [ 49.37817911824817, 37.32522102025343 ], [ 49.372569317779089, 37.330832974406228 ], [ 49.370307301460926, 37.3321519626192 ], [ 49.364305418163354, 37.335365400596636 ], [ 49.355317673325779, 37.340113363293462 ], [ 49.350431718078504, 37.344980912426351 ], [ 49.345696563919134, 37.350159830061422 ], [ 49.340825688780662, 37.356908670363417 ], [ 49.337628705717634, 37.357651844817319 ], [ 49.336542937884893, 37.357843630578643 ], [ 49.335954813642175, 37.358347065870404 ], [ 49.335170647985201, 37.359341939968751 ], [ 49.332094305792481, 37.36235045488899 ], [ 49.325112215423687, 37.370776051915648 ], [ 49.321100906486123, 37.372070369890196 ], [ 49.318808729950355, 37.375761450345571 ], [ 49.31395293492065, 37.380339096499029 ], [ 49.310484509899439, 37.384580958942621 ], [ 49.308614576409759, 37.385707288878017 ], [ 49.299053787438218, 37.388199533274374 ], [ 49.286476976709146, 37.391099059508448 ], [ 49.282556148424312, 37.392920192199085 ], [ 49.275619298381883, 37.402552289677701 ], [ 49.267114117025528, 37.414554738016442 ], [ 49.264912421142498, 37.417477198757602 ], [ 49.262921846782497, 37.418243726959062 ], [ 49.258940698062496, 37.420351639059 ], [ 49.255200831083094, 37.422579254405726 ], [ 49.253692820204314, 37.425309789265015 ], [ 49.253210256723108, 37.427130090516727 ], [ 49.252938814764924, 37.42765701156646 ], [ 49.251732406061883, 37.428998248412839 ], [ 49.247570296036443, 37.433381051252674 ], [ 49.243558987098851, 37.438098863665203 ], [ 49.237798385541879, 37.444408772188005 ], [ 49.231344098980671, 37.451639967402855 ], [ 49.226397823298242, 37.458726818181546 ], [ 49.223623083281275, 37.463275456361664 ], [ 49.222748436971592, 37.466124199350901 ], [ 49.220305459347955, 37.473472976242178 ], [ 49.213730531916426, 37.481156103851696 ], [ 49.199193307044943, 37.499511032355187 ], [ 49.185681529570999, 37.517598307814502 ], [ 49.183102830968252, 37.518543223552101 ], [ 49.179151842465835, 37.522992539359002 ], [ 49.177794632674924, 37.524547345224732 ], [ 49.177915273545231, 37.525767247141111 ], [ 49.177673991804625, 37.527226319312796 ], [ 49.176467583101619, 37.529414874060635 ], [ 49.17512545341949, 37.531663158517858 ], [ 49.172018951009164, 37.534628876901508 ], [ 49.169681534147074, 37.536793298533233 ], [ 49.165911506950103, 37.538299985896565 ], [ 49.162805004539806, 37.539424002673137 ], [ 49.15971358223829, 37.541624156680236 ], [ 49.157481726137696, 37.543238358817696 ], [ 49.152656091325568, 37.548116623961754 ], [ 49.1480114178189, 37.555481242955004 ], [ 49.146412926287383, 37.55837428702177 ], [ 49.145055716496472, 37.566718057638901 ], [ 49.140984087123741, 37.572216306783837 ], [ 49.139295114939486, 37.574391588947314 ], [ 49.135706049047997, 37.576256065943838 ], [ 49.133293231641922, 37.578000982894146 ], [ 49.129870046947069, 37.581407038575627 ], [ 49.127351668779504, 37.583068181132589 ], [ 49.1259944589886, 37.584072019098762 ], [ 49.125300773984357, 37.586928103073689 ], [ 49.12472772985042, 37.59008281322479 ], [ 49.12089738221831, 37.595077497502103 ], [ 49.117640078720122, 37.599665620161339 ], [ 49.116192388276495, 37.603632206497814 ], [ 49.113146206301344, 37.60910383691192 ], [ 49.11040162650194, 37.613953897629138 ], [ 49.108622173664969, 37.618899200325835 ], [ 49.107053842351036, 37.626041834656405 ], [ 49.103193334501348, 37.628430522424168 ], [ 49.097719255011356, 37.631917868705656 ], [ 49.095080235973462, 37.638235281322288 ], [ 49.084524159821967, 37.646641742201531 ], [ 49.081312096650166, 37.64923274642954 ], [ 49.076365820967737, 37.654581630509774 ], [ 49.072625953988329, 37.656730627223197 ], [ 49.063095325234407, 37.665182744161235 ], [ 49.056701359108338, 37.665469239736431 ], [ 49.054831425618652, 37.667044945633251 ], [ 49.051332840379864, 37.676641704595575 ], [ 49.041802211625949, 37.685282500132111 ], [ 49.032150942001699, 37.695115551062976 ], [ 49.029677804160478, 37.698504310170847 ], [ 49.026601461967758, 37.701272477310745 ], [ 49.010013342301107, 37.719931044627394 ], [ 49.008264049681721, 37.722984684926324 ], [ 49.003317773999299, 37.728853046422387 ], [ 48.998100056358702, 37.737129985294558 ], [ 48.99544595721202, 37.741852434945258 ], [ 48.993787145245363, 37.745167510017048 ], [ 48.99300297958839, 37.746288401091071 ], [ 48.992701377412637, 37.748148565834612 ], [ 48.992188653713846, 37.749364802117547 ], [ 48.993123620458704, 37.751439511995208 ], [ 48.993968106550824, 37.754134163267565 ], [ 48.992490255889606, 37.758474014749872 ], [ 48.991374327839317, 37.761883719458289 ], [ 48.986232010742668, 37.767903968114965 ], [ 48.985704206935118, 37.768476164266112 ], [ 48.986005809110871, 37.770764904596042 ], [ 48.980124566683578, 37.77889412824279 ], [ 48.979642003202379, 37.781420918873735 ], [ 48.975298931871464, 37.789548970762887 ], [ 48.9738814016454, 37.793076410104767 ], [ 48.9736401199048, 37.800345264107023 ], [ 48.975691014699954, 37.807160654456716 ], [ 48.979189599938749, 37.818216453310313 ], [ 48.977983191235715, 37.824601375952156 ], [ 48.977440307319341, 37.831938589951648 ], [ 48.975359252306617, 37.835011427090151 ], [ 48.973640119904822, 37.837369564138946 ], [ 48.9692970485739, 37.840513629609212 ], [ 48.964411093326632, 37.845062759813473 ], [ 48.962028436138162, 37.84787307698862 ], [ 48.962495919510587, 37.849897391642124 ], [ 48.958333809485126, 37.854326874547091 ], [ 48.951427119660281, 37.861470641030124 ], [ 48.945515717015432, 37.868947041699187 ], [ 48.945274435274833, 37.871470750926484 ], [ 48.941172645684532, 37.875851323941284 ], [ 48.937734380880897, 37.879755528162363 ], [ 48.932546823457862, 37.887277679592721 ], [ 48.930073685616641, 37.890848052168387 ], [ 48.928837116696045, 37.892894987690667 ], [ 48.927298945599674, 37.896798288378783 ], [ 48.925459172327564, 37.900986966189812 ], [ 48.924071802319084, 37.905651349563925 ], [ 48.923649559273017, 37.90860213329772 ], [ 48.923227316226964, 37.912361831439142 ], [ 48.922232029046967, 37.918524465304621 ], [ 48.922232029046967, 37.922807072772194 ], [ 48.921508183825146, 37.924472463882722 ], [ 48.921809786000892, 37.926090236274788 ], [ 48.9240416421015, 37.931918679902168 ], [ 48.92657510037786, 37.937009268931916 ], [ 48.931581696495428, 37.946642362664456 ], [ 48.933994513901503, 37.950947114793991 ], [ 48.934446917165126, 37.953919862668272 ], [ 48.934778679558477, 37.95572723456953 ], [ 48.937432778705137, 37.96100640833717 ], [ 48.937131176529391, 37.963360512133782 ], [ 48.932848425633637, 37.966855860368135 ], [ 48.930842771164841, 37.972669183284445 ], [ 48.929666522679383, 37.975486517729955 ], [ 48.926439379398772, 37.981429906571293 ], [ 48.923061435030313, 37.986992482431972 ], [ 48.92090497947364, 37.991140368145544 ], [ 48.917949278151198, 37.997866813155028 ], [ 48.916260305966958, 38.001740775370266 ], [ 48.915777742485758, 38.005804650742313 ], [ 48.915596781180298, 38.007527570848431 ], [ 48.913334764862121, 38.013682223720117 ], [ 48.91339508529726, 38.014965368100192 ], [ 48.912746640619375, 38.018173130774962 ], [ 48.913274444426946, 38.020739239829396 ], [ 48.913726847690612, 38.023602246188894 ], [ 48.917165112494246, 38.030040631892611 ], [ 48.916592068360302, 38.032701349304844 ], [ 48.916320626402111, 38.034031671769185 ], [ 48.916712709230602, 38.038687610120377 ], [ 48.916380946837272, 38.041965593230117 ], [ 48.914209411171797, 38.051347414932778 ], [ 48.910258422669408, 38.064931111678384 ], [ 48.907513842870024, 38.074523671837369 ], [ 48.907332881564564, 38.07544961973057 ], [ 48.907031279388789, 38.081598565993495 ], [ 48.907393201999703, 38.086251478938301 ], [ 48.908298008526977, 38.088577824369331 ], [ 48.90974569897061, 38.092090940413989 ], [ 48.912520438987578, 38.097977404998339 ], [ 48.913244284209384, 38.100042302416121 ], [ 48.913183963774237, 38.103103939461668 ], [ 48.912912521816054, 38.10476523920314 ], [ 48.910952107673651, 38.107708020303427 ], [ 48.91007746136394, 38.109606525846168 ], [ 48.90787576548091, 38.115989888836971 ], [ 48.907393201999703, 38.11862375334227 ], [ 48.906005831991216, 38.125243587891717 ], [ 48.906005831991216, 38.126050265052996 ], [ 48.906337594384553, 38.128897289669275 ], [ 48.90697095895365, 38.13126972536346 ], [ 48.907921005807282, 38.134057238771675 ], [ 48.909338536033353, 38.136370200989596 ], [ 48.911087828652732, 38.13905077318028 ], [ 48.913892728887291, 38.141802408579792 ], [ 48.913892728887298, 38.143711887670314 ], [ 48.913108563230324, 38.146154999217806 ], [ 48.912324397573343, 38.148764057126343 ], [ 48.911841834092129, 38.151301869375679 ], [ 48.910680665715468, 38.15228613727799 ], [ 48.908629770920307, 38.154349499167502 ], [ 48.90899169353122, 38.15551159683244 ], [ 48.9081472074391, 38.158144035299479 ], [ 48.905342307204549, 38.164807711489473 ], [ 48.904618461982714, 38.168056329208461 ], [ 48.903924776978492, 38.170617181274181 ], [ 48.902718368275451, 38.175074746171617 ], [ 48.901361158484541, 38.178488866807115 ], [ 48.899762666953038, 38.181215306599036 ], [ 48.899822987388198, 38.182400683382909 ], [ 48.900275390651821, 38.184534312993193 ], [ 48.899400744342131, 38.18678640979055 ], [ 48.8979681340073, 38.18992737589118 ], [ 48.893338540609413, 38.200285677647919 ], [ 48.891740049077903, 38.203911920188958 ], [ 48.890865402768206, 38.205369476592907 ], [ 48.890066157002458, 38.208130458721641 ], [ 48.889447872542135, 38.21010929564688 ], [ 48.888347024600641, 38.212656820855237 ], [ 48.887894621337011, 38.214386717368946 ], [ 48.887713660031551, 38.214967289859302 ], [ 48.889070869822461, 38.219730179084756 ], [ 48.890548720483672, 38.223284370884983 ], [ 48.891061444182462, 38.224871853790418 ], [ 48.890262198416728, 38.227454401210601 ], [ 48.8897796349355, 38.230344850128922 ], [ 48.889674074173982, 38.231440584548501 ], [ 48.889568513412485, 38.232216472991709 ], [ 48.888052962479307, 38.234046589277391 ], [ 48.885474263876581, 38.237244740176074 ], [ 48.886952114537799, 38.24300105732938 ], [ 48.887887081282628, 38.246104068037511 ], [ 48.886107628445657, 38.251196508443904 ], [ 48.883513849734172, 38.257946402733502 ], [ 48.882820164729928, 38.259864679320792 ], [ 48.883242407775981, 38.261214547299645 ], [ 48.881824877549924, 38.266471688781323 ], [ 48.879321579491155, 38.275280099959673 ], [ 48.878235811658406, 38.282288179997337 ], [ 48.877542126654177, 38.286312785009493 ], [ 48.876667480344494, 38.289988001412745 ], [ 48.876599619854943, 38.290786936874362 ], [ 48.876705180616476, 38.291769319533628 ], [ 48.877617527198154, 38.294018097243658 ], [ 48.878311212202398, 38.295225307056334 ], [ 48.880362106997545, 38.298160400075147 ], [ 48.880181145692084, 38.299722578588572 ], [ 48.878974736989065, 38.305142603811113 ], [ 48.878371532637551, 38.307012300222929 ], [ 48.877647687415717, 38.30895294678848 ], [ 48.876682560453283, 38.310917206895319 ], [ 48.876592079800588, 38.312159633108791 ], [ 48.874299903264813, 38.315969607433182 ], [ 48.873410176846335, 38.318371444883525 ], [ 48.870937039005113, 38.32492580822737 ], [ 48.870665597046973, 38.346028250873992 ], [ 48.868735343122125, 38.369678389949222 ], [ 48.868433740946351, 38.378001400459333 ], [ 48.868735343122125, 38.387079956373029 ], [ 48.869338547473646, 38.396961047479962 ], [ 48.869504428670304, 38.402279257586933 ], [ 48.868855983992418, 38.402988322706705 ], [ 48.866352685933634, 38.404016454775302 ], [ 48.865719321364537, 38.406462641248211 ], [ 48.863035062000321, 38.419531200771161 ], [ 48.861044487640306, 38.427895728549295 ], [ 48.85998888002517, 38.434180301265286 ], [ 48.859189634259415, 38.437983855870151 ], [ 48.85860151001669, 38.44014541405862 ], [ 48.858239587405784, 38.442318718783987 ], [ 48.859204714368197, 38.443310857881826 ], [ 48.859719323080853, 38.444204066683717 ] ] ] } },
{ "type": "Feature", "properties": { }, "geometry": { "type": "MultiLineString", "coordinates": [ [ [ 48.859719323080853, 38.444204066683717 ], [ 48.864381385314765, 38.447071432381748 ], [ 48.866720230359824, 38.449264143013743 ], [ 48.867556751580331, 38.455648027799249 ], [ 48.868034763706298, 38.459845709116479 ], [ 48.864219202629144, 38.461596898858431 ], [ 48.859942701287594, 38.463247790712238 ], [ 48.853455393863335, 38.465947953430515 ], [ 48.847736320212988, 38.468340587397435 ], [ 48.842034318424311, 38.470813337966582 ], [ 48.839405251731314, 38.471454902637959 ], [ 48.836520107113685, 38.472978595854222 ], [ 48.831500979790704, 38.475330901098907 ], [ 48.820489629031115, 38.477322281343504 ], [ 48.812004913794624, 38.479126504536907 ], [ 48.807873523277067, 38.479955095612596 ], [ 48.803776276482793, 38.498448907257014 ], [ 48.801283784682937, 38.511594799491945 ], [ 48.788514032174113, 38.51979640663378 ], [ 48.787762870261851, 38.520384108074268 ], [ 48.78166821565538, 38.527890236214645 ], [ 48.780285394862304, 38.52953293208023 ], [ 48.779841526459592, 38.531683070811823 ], [ 48.780046388799313, 38.53297846499305 ], [ 48.781429209592375, 38.536143402150159 ], [ 48.784544824342184, 38.542653119924736 ], [ 48.785253306600367, 38.544308831075 ], [ 48.784186315247673, 38.546184812564498 ], [ 48.782291338605319, 38.548775055321677 ], [ 48.780601224302679, 38.551592172186254 ], [ 48.780464649409538, 38.552139561233943 ], [ 48.780601224302679, 38.5543691272226 ], [ 48.780635368025969, 38.55631827197724 ], [ 48.780780478849913, 38.55788689461442 ], [ 48.781497497038906, 38.560723678409381 ], [ 48.783426617404544, 38.563159885713965 ], [ 48.786499552500224, 38.567171104655522 ], [ 48.78748972047552, 38.568666077400557 ], [ 48.784655791442809, 38.573270931903735 ], [ 48.783255898788092, 38.575966970592084 ], [ 48.783930237322998, 38.579370241282376 ], [ 48.785876429550264, 38.587330595699385 ], [ 48.785074052053048, 38.588638331480624 ], [ 48.783290042511361, 38.590760015395446 ], [ 48.781992581026508, 38.592387931613253 ], [ 48.781830398340901, 38.593281935473314 ], [ 48.781002413051219, 38.595463525026375 ], [ 48.780882910019713, 38.596524273972733 ], [ 48.78341808147367, 38.597958595104203 ], [ 48.786934884972062, 38.59970642676236 ], [ 48.79355023135863, 38.603108572432433 ], [ 48.794805013189389, 38.603795652865585 ], [ 48.794420896302412, 38.606737350051077 ], [ 48.792577135244983, 38.610325923909706 ], [ 48.791757685886139, 38.612020095293552 ], [ 48.791484536099851, 38.615661761341705 ], [ 48.791638182854612, 38.616568814236331 ], [ 48.792303985458688, 38.617862678662391 ], [ 48.791365033068345, 38.619369934593394 ], [ 48.791791829609416, 38.620343631761514 ], [ 48.789828565520494, 38.622997889784216 ], [ 48.78929933780956, 38.624385000621203 ], [ 48.790682158602621, 38.62629223421262 ], [ 48.789999284136904, 38.628119396437562 ], [ 48.790118787168403, 38.630840048064698 ], [ 48.791108955143692, 38.632613750638249 ], [ 48.792935644339465, 38.633560596452185 ], [ 48.79496719587496, 38.634640785559512 ], [ 48.79619636991324, 38.63670776872349 ], [ 48.796281729221441, 38.637347854648731 ], [ 48.796025651296794, 38.640428188217889 ], [ 48.796093938743375, 38.646948457593325 ], [ 48.794762333535232, 38.649655061822024 ], [ 48.793499015773662, 38.650308364765671 ], [ 48.790938236527246, 38.653041506361419 ], [ 48.788155523079467, 38.656507779859737 ], [ 48.787711654676748, 38.65813420422144 ], [ 48.787199498827476, 38.659160698947453 ], [ 48.784792366335829, 38.661040345959584 ], [ 48.783802198360561, 38.661773528228146 ], [ 48.782026724749713, 38.664719512211711 ], [ 48.781685287516858, 38.666105815679735 ], [ 48.781992581026437, 38.668105244563748 ], [ 48.781377994007293, 38.668398489438424 ], [ 48.780592688371712, 38.668531782166241 ], [ 48.778885502207437, 38.669704747470739 ], [ 48.779773239012869, 38.671010981670463 ], [ 48.779978101352576, 38.671704075853512 ], [ 48.777827046785582, 38.675356038216229 ], [ 48.777519753276003, 38.678421410232694 ], [ 48.77898793337728, 38.679887411311299 ], [ 48.777895334232156, 38.684045360083473 ], [ 48.776563729024019, 38.689642217310613 ], [ 48.770144709046313, 38.69721060400893 ], [ 48.76565480943426, 38.702433389778982 ], [ 48.764750000767208, 38.703392635499654 ], [ 48.762735521093362, 38.704418481267453 ], [ 48.762342868275567, 38.70583066045733 ], [ 48.75872363360731, 38.713850243468492 ], [ 48.757631034462129, 38.716008183618115 ], [ 48.75776760935527, 38.717713176674984 ], [ 48.759543082966125, 38.720004197047615 ], [ 48.764050054439828, 38.7229344648972 ], [ 48.765484090817822, 38.724426191465064 ], [ 48.765108509861662, 38.728368461770657 ], [ 48.763196461357687, 38.731484832319374 ], [ 48.765176797308243, 38.738888996566516 ], [ 48.766542546239684, 38.745253833545235 ], [ 48.769956918568248, 38.747650487040097 ], [ 48.775078477061065, 38.750952411186425 ], [ 48.777144172319865, 38.756717098130629 ], [ 48.776819806948659, 38.759046804859373 ], [ 48.776819806948637, 38.761749169389631 ], [ 48.775078477061086, 38.767606159937415 ], [ 48.775795495250094, 38.7705877158945 ], [ 48.776102788759658, 38.772211546633663 ], [ 48.768557025913545, 38.78094233061617 ], [ 48.761796568702998, 38.789352684798658 ], [ 48.760396676048295, 38.790709959109456 ], [ 48.759611370412728, 38.792439781068566 ], [ 48.761770960910532, 38.796291810678937 ], [ 48.757502995499834, 38.803236913087353 ], [ 48.755522659549293, 38.806549568319774 ], [ 48.749940160792093, 38.807879908598863 ], [ 48.746969656866234, 38.808545069422735 ], [ 48.742445613530883, 38.808039547762981 ], [ 48.741455445555609, 38.80795972822564 ], [ 48.735685156320343, 38.80907719361025 ], [ 48.732782939841066, 38.811046018543671 ], [ 48.730614813412444, 38.813693204134317 ], [ 48.727371159700311, 38.819572530751472 ], [ 48.725971267045594, 38.824307563096227 ], [ 48.725356680026458, 38.82606316922638 ], [ 48.726380991725023, 38.829122076476303 ], [ 48.72709800991403, 38.830957357737702 ], [ 48.724366512051184, 38.836436321732172 ], [ 48.721933771767077, 38.841250014816666 ], [ 48.720610702489758, 38.844600791248297 ], [ 48.719057163080244, 38.849041656517016 ], [ 48.716376880802329, 38.852378771030828 ], [ 48.712433280762838, 38.856353854506125 ], [ 48.706082548231713, 38.862894310968997 ], [ 48.699697671977312, 38.868530319293882 ], [ 48.697239323900746, 38.872491208721918 ], [ 48.694132245081761, 38.877063236162577 ], [ 48.69338108316947, 38.88017311000084 ], [ 48.69230555588598, 38.881262862647468 ], [ 48.691076381847687, 38.882777856850701 ], [ 48.689710632916267, 38.885528684796903 ], [ 48.687679081380779, 38.889767674879437 ], [ 48.686296260587682, 38.892970004352101 ], [ 48.679587018962067, 38.897261696684104 ], [ 48.674499604192505, 38.901539843897098 ], [ 48.670197495058524, 38.906535118151623 ], [ 48.665792954754679, 38.909962523226362 ], [ 48.662617588489127, 38.912991255086723 ], [ 48.662173720086415, 38.914664972510515 ], [ 48.662788307105551, 38.917600524407973 ], [ 48.663812618804123, 38.925078327360914 ], [ 48.664085768590432, 38.928850134955276 ], [ 48.663607756464437, 38.933418534730173 ], [ 48.662173720086436, 38.936711849709987 ], [ 48.659886090626287, 38.940084683133442 ], [ 48.659305647330434, 38.942952793206963 ], [ 48.657769179782584, 38.949710982644696 ], [ 48.657103377178508, 38.953415099950675 ], [ 48.65838376680172, 38.956654384362032 ], [ 48.661320127004274, 38.964380276434909 ], [ 48.661892034369302, 38.96607269184473 ], [ 48.660253135651601, 38.971355422596737 ], [ 48.658409374594164, 38.974806239977084 ], [ 48.647790676652363, 38.982503611291889 ], [ 48.64174723763081, 38.987387026787296 ], [ 48.639049883491253, 38.990783986707449 ], [ 48.637274409880405, 38.993862340816094 ], [ 48.633416169149108, 39.001796446532609 ], [ 48.628943341398703, 39.011188852949438 ], [ 48.624675375987998, 39.019293444077022 ], [ 48.622660896314144, 39.023484652150017 ], [ 48.620744579844725, 39.028269089910125 ], [ 48.618952034372228, 39.032446504619237 ], [ 48.618542309692799, 39.034435662936822 ], [ 48.603971475780654, 39.056929145711592 ], [ 48.603903188334073, 39.060799980489911 ], [ 48.606566398750353, 39.07124487278184 ], [ 48.606993195291395, 39.073882361292938 ], [ 48.616485150364802, 39.080800330078382 ], [ 48.621504277687791, 39.088592172222093 ], [ 48.621572565134358, 39.104782669269248 ], [ 48.621914002367227, 39.113750763239707 ], [ 48.618516701900319, 39.119313852087004 ], [ 48.613821939948544, 39.126558454501946 ], [ 48.613412215269101, 39.128121177800473 ], [ 48.619216648227649, 39.133444771479006 ], [ 48.621162840454929, 39.138264792717628 ], [ 48.62266516427951, 39.141786907267864 ], [ 48.627103848306639, 39.149572008888391 ], [ 48.636356797317049, 39.161645156851009 ], [ 48.641853936766026, 39.162955604189541 ], [ 48.641119846715377, 39.170195716580295 ], [ 48.638729786085364, 39.197164198959591 ], [ 48.636476300348527, 39.218924637070927 ], [ 48.635434916788306, 39.221278857723668 ], [ 48.626677051765533, 39.231805754897607 ], [ 48.625823458683385, 39.240638666170263 ], [ 48.625755171236804, 39.255340087938279 ], [ 48.625208871664235, 39.265914744189971 ], [ 48.625208871664256, 39.274241163206952 ], [ 48.625038153047825, 39.284231560057393 ], [ 48.629647555691378, 39.304736481246977 ], [ 48.635110551417078, 39.332868123026962 ], [ 48.641153990438632, 39.361094045770301 ], [ 48.643953775748052, 39.36922437562869 ], [ 48.656825959426719, 39.396670443284236 ], [ 48.657167396659588, 39.41292187039366 ], [ 48.657645408785591, 39.433336314107862 ], [ 48.67376124617639, 39.453428413190721 ], [ 48.686291992622223, 39.469640250208379 ], [ 48.69769599619962, 39.484767890961869 ], [ 48.706027064681294, 39.491777145505246 ], [ 48.711148623174147, 39.497705474627821 ], [ 48.714631282949256, 39.516936128000474 ], [ 48.719274829316092, 39.522414572753668 ], [ 48.721186877820088, 39.55190646232569 ], [ 48.745497208799449, 39.592016370056967 ], [ 48.755125738765969, 39.609695255750367 ], [ 48.795825056922403, 39.644198167833395 ], [ 48.834817188914556, 39.680891213078567 ], [ 48.841782508464817, 39.696182988490754 ], [ 48.853254799488774, 39.721241561800177 ], [ 48.856532596924197, 39.729014698745104 ], [ 48.890198308083797, 39.763720511540676 ], [ 48.897641639760032, 39.771646315241753 ], [ 48.896753902954607, 39.783192210663515 ], [ 48.896514896891617, 39.788859486845304 ], [ 48.901056012088588, 39.794500062051974 ], [ 48.906519007814282, 39.797359525821001 ], [ 48.910411392268855, 39.799956550441003 ], [ 48.916488975013664, 39.804350282901517 ], [ 48.923778659935152, 39.81157637848785 ], [ 48.927227175987007, 39.817044624668824 ], [ 48.937453221111049, 39.83250285169607 ], [ 48.941994336308021, 39.845532785334449 ], [ 48.945502603875639, 39.848259058243507 ], [ 48.947926808228885, 39.850323351521773 ], [ 48.953099582306656, 39.861541536155215 ], [ 48.961345291480136, 39.877553103607845 ], [ 48.977597703764069, 39.903541010888404 ], [ 48.985792197352609, 39.912026862140557 ], [ 48.998083937735423, 39.919568958568632 ], [ 49.000542285811996, 39.928576485190845 ], [ 48.98265097481034, 39.954230964979061 ], [ 48.953253229061438, 39.981720314241464 ], [ 48.955165277565406, 40.004007221988232 ], [ 48.958204068937825, 40.023227760308814 ], [ 48.959057662019966, 40.033267358131653 ], [ 48.956531026496826, 40.04273041757439 ], [ 48.955575002244842, 40.051408091052359 ] ] ] } }
]
}
