{
"type": "FeatureCollection",
"features": [
{"type": "Feature", "properties": {"ProjectID": "P0750"}, "geometry": {"type": "LineString", "coordinates": [[27.565267, 53.902132], [25.592319, 54.895021], [25.203607, 54.991772], [24.905594, 54.953099], [24.737152, 54.827903], [24.638678, 54.821932], [24.169631, 54.920348], [23.913081, 54.994745], [23.757596, 54.981364], [23.638391, 54.984338], [23.560648, 54.962027], [23.402572, 54.970953], [23.046634, 54.95339], [22.676975, 54.923326], [21.738882, 54.759179], [20.495033, 54.706394]]}}
]
}
