{
"type": "FeatureCollection",
"features": [
{"type": "Feature", "properties": {"ProjectID": "P0758", "name:en": "Gas Transportation System (GTS) \"Sakhalin - Khabarovsk - Vladivostok\"", "route": "pipeline", "name": "Магистральный газопровод Сахалин-Хабаровск-Владивосток", "location": "underground", "type": "route", "man_made": "pipeline", "substance": "gas", "@id": "relation/3220256"}, "geometry": {"type": "LineString", "coordinates": [[143.182026, 52.500729], [143.171759, 52.498645], [143.151048, 52.490875], [143.145367, 52.490127], [143.138256, 52.488874], [143.137598, 52.488603], [143.135647, 52.487018], [143.135121, 52.486874], [143.129435, 52.487804], [143.12612, 52.486957], [143.120371, 52.484043], [143.119489, 52.483782], [143.118687, 52.483733], [143.083191, 52.481347], [143.080981, 52.481738], [143.073085, 52.480856], [143.072186, 52.478482], [143.065357, 52.48022], [142.967611, 52.47382], [142.960893, 52.472476], [142.93517, 52.472815], [142.918321, 52.470432], [142.896287, 52.466582], [142.881499, 52.458047], [142.869464, 52.456414], [142.862448, 52.44856], [142.859873, 52.442503], [142.854057, 52.441517], [142.837206, 52.435977], [142.832017, 52.424792], [142.823494, 52.419099], [142.807048, 52.414183], [142.799752, 52.409082], [142.772026, 52.400533], [142.761348, 52.395728], [142.748493, 52.397834], [142.725145, 52.394173], [142.718778, 52.389068], [142.70254, 52.386684], [142.675234, 52.371656], [142.670469, 52.355575], [142.660215, 52.352706], [142.6468, 52.337888], [142.614794, 52.313107], [142.567968, 52.29932], [142.561545, 52.287926], [142.54498, 52.276278], [142.52498, 52.27453], [142.515223, 52.265575], [142.495192, 52.26398], [142.466495, 52.239404], [142.456948, 52.231435], [142.440274, 52.217928], [142.430308, 52.214426], [142.404095, 52.211629], [142.392119, 52.20687], [142.385105, 52.200544], [142.37376, 52.197139], [142.365425, 52.188017], [142.347448, 52.188015], [142.340676, 52.189479], [142.298774, 52.188033], [142.296778, 52.181453], [142.291004, 52.181416], [142.284339, 52.187115], [142.279652, 52.186561], [142.270052, 52.186272], [142.255585, 52.182076], [142.230209, 52.181919], [142.22418, 52.180162], [142.215446, 52.180436], [142.208483, 52.178756], [142.195686, 52.172408], [142.176279, 52.173412], [142.160617, 52.17236], [142.159341, 52.171514], [142.135838, 52.16809], [142.129397, 52.17009], [142.055791, 52.164755], [142.035675, 52.158213], [142.017399, 52.157238], [142.011502, 52.154467], [141.996826, 52.149023], [141.927028, 52.130381], [141.923237, 52.128711], [141.907552, 52.126834], [141.850041, 52.110259], [141.804979, 52.106453], [141.803392, 52.106609], [141.800762, 52.105817], [141.787856, 52.105161], [141.762355, 52.103019], [141.689969, 52.096186], [141.655071, 52.082568], [141.646028, 52.081156], [141.631933, 52.077847], [141.498756, 52.070855], [141.34806, 52.081666], [141.324859, 52.08361], [141.320231, 52.083998], [141.31025, 52.084663], [141.305092, 52.08202], [141.304674, 52.077444], [141.287374, 52.058806], [141.278643, 52.05344], [141.269502, 52.050696], [141.26723, 52.046086], [141.262981, 52.043348], [141.255952, 52.042376], [141.248401, 52.040358], [141.244485, 52.03441], [141.244056, 52.02721], [141.243627, 52.026437], [141.242125, 52.024984], [141.238837, 52.022596], [141.22955, 52.016745], [141.221525, 52.012738], [141.216483, 52.004846], [141.214315, 52.003088], [141.211226, 51.993584], [141.21247, 51.988219], [141.207883, 51.972109], [141.204674, 51.970109], [141.183798, 51.961051], [141.182211, 51.959856], [141.17346, 51.956868], [141.171565, 51.950687], [141.129435, 51.906315], [141.125954, 51.904438], [141.123291, 51.90009], [141.118949, 51.895626], [141.11374, 51.893268], [141.110644, 51.888184], [141.109719, 51.884729], [141.106015, 51.878192], [141.108008, 51.871744], [141.10467, 51.861069], [141.094386, 51.840839], [141.077607, 51.830777], [141.064814, 51.821117], [141.064213, 51.817723], [141.0489, 51.804229], [141.041345, 51.797578], [141.031832, 51.793512], [141.028578, 51.790577], [141.027022, 51.785238], [141.020482, 51.779917], [141.017843, 51.778411], [141.017435, 51.777163], [141.0139, 51.773952], [141.010333, 51.771141], [141.007731, 51.768813], [141.004356, 51.766048], [140.997673, 51.761182], [140.991128, 51.7547], [140.984626, 51.748164], [140.979949, 51.743395], [140.972688, 51.736643], [140.969965, 51.732858], [140.963114, 51.724891], [140.955596, 51.715787], [140.950715, 51.714366], [140.946302, 51.709841], [140.947606, 51.706815], [140.928907, 51.685766], [140.923172, 51.680906], [140.912958, 51.672178], [140.894375, 51.657091], [140.889621, 51.655391], [140.880374, 51.646219], [140.877059, 51.643918], [140.875385, 51.6424], [140.863439, 51.634153], [140.858897, 51.628752], [140.85681, 51.619525], [140.854894, 51.610375], [140.852308, 51.606159], [140.848203, 51.601153], [140.845881, 51.599076], [140.842941, 51.59635], [140.84226, 51.595607], [140.836881, 51.584513], [140.830923, 51.578574], [140.832073, 51.566018], [140.833815, 51.552874], [140.826855, 51.54233], [140.820192, 51.5319], [140.819292, 51.531649], [140.814191, 51.531816], [140.813594, 51.531749], [140.809368, 51.529851], [140.804873, 51.527881], [140.799798, 51.525635], [140.796513, 51.524227], [140.795972, 51.523674], [140.794367, 51.510075], [140.792261, 51.508123], [140.790302, 51.506236], [140.771598, 51.495212], [140.766345, 51.493665], [140.759286, 51.491473], [140.752157, 51.489379], [140.746194, 51.487532], [140.745626, 51.487075], [140.745484, 51.481294], [140.742957, 51.480094], [140.738585, 51.478351], [140.736032, 51.477625], [140.726612, 51.475102], [140.711945, 51.47275], [140.695627, 51.472984], [140.676068, 51.473579], [140.66064, 51.474575], [140.659803, 51.474922], [140.656988, 51.478394], [140.653373, 51.478042], [140.642792, 51.480941], [140.642323, 51.481069], [140.640206, 51.481649], [140.617321, 51.49278], [140.616061, 51.494017], [140.605863, 51.495826], [140.58699, 51.495731], [140.580723, 51.493693], [140.578619, 51.493181], [140.576571, 51.492735], [140.571241, 51.491731], [140.556161, 51.489921], [140.541999, 51.490348], [140.538934, 51.48683], [140.531016, 51.485929], [140.514236, 51.487317], [140.503186, 51.487288], [140.493625, 51.488041], [140.488138, 51.486496], [140.478152, 51.487489], [140.460491, 51.487733], [140.453399, 51.489537], [140.434023, 51.489176], [140.425612, 51.489925], [140.414861, 51.49277], [140.398436, 51.498354], [140.385239, 51.502836], [140.374628, 51.505021], [140.360219, 51.508032], [140.352143, 51.510121], [140.344366, 51.512621], [140.336746, 51.515117], [140.329139, 51.517961], [140.32642, 51.518118], [140.321273, 51.517647], [140.316274, 51.516606], [140.303592, 51.515324], [140.30002, 51.512183], [140.290804, 51.508193], [140.268874, 51.499564], [140.263649, 51.496165], [140.248641, 51.490637], [140.233125, 51.485296], [140.233045, 51.483081], [140.227064, 51.480773], [140.208692, 51.47754], [140.190638, 51.474423], [140.187597, 51.473871], [140.186611, 51.473807], [140.172775, 51.474544], [140.171031, 51.473985], [140.170578, 51.473855], [140.169876, 51.473663], [140.164061, 51.472427], [140.156111, 51.470729], [140.15418, 51.470128], [140.141702, 51.466265], [140.132207, 51.463304], [140.126574, 51.461519], [140.117895, 51.46186], [140.107059, 51.462268], [140.097939, 51.46329], [140.093401, 51.465159], [140.092631, 51.465508], [140.092013, 51.465838], [140.091619, 51.466355], [140.079106, 51.471652], [140.074117, 51.472273], [140.070931, 51.475187], [140.06017, 51.480105], [140.030127, 51.500325], [139.995191, 51.514173], [139.982536, 51.51668], [139.91142, 51.515979], [139.90037, 51.517308], [139.885542, 51.5167], [139.870726, 51.515412], [139.850936, 51.513629], [139.819469, 51.508908], [139.814799, 51.50608], [139.803349, 51.506456], [139.797502, 51.504747], [139.786714, 51.500082], [139.78129, 51.496789], [139.776216, 51.494651], [139.771862, 51.489169], [139.767378, 51.486563], [139.765479, 51.481372], [139.756295, 51.478793], [139.739762, 51.478218], [139.729902, 51.481038], [139.718873, 51.480266], [139.686681, 51.472888], [139.654368, 51.465393], [139.632318, 51.452929], [139.610613, 51.440195], [139.608811, 51.43867], [139.607266, 51.438148], [139.591696, 51.429049], [139.583508, 51.424222], [139.583351, 51.423662], [139.58461, 51.417813], [139.581456, 51.415605], [139.5605, 51.411155], [139.559676, 51.411035], [139.553559, 51.410974], [139.552906, 51.41074], [139.549804, 51.407983], [139.549387, 51.407879], [139.53044, 51.408304], [139.507845, 51.405554], [139.494896, 51.402077], [139.490143, 51.400182], [139.482439, 51.399095], [139.445366, 51.388802], [139.442303, 51.387932], [139.434181, 51.385699], [139.43343, 51.385471], [139.391727, 51.373846], [139.364562, 51.366301], [139.350512, 51.362379], [139.338933, 51.358885], [139.338489, 51.35861], [139.337198, 51.356386], [139.334086, 51.354169], [139.325552, 51.34991], [139.321261, 51.347759], [139.316816, 51.345728], [139.300385, 51.338454], [139.291512, 51.335109], [139.280843, 51.331379], [139.278906, 51.330591], [139.27532, 51.329324], [139.273692, 51.328694], [139.267212, 51.326361], [139.261536, 51.324376], [139.259208, 51.323404], [139.256161, 51.322499], [139.249627, 51.320488], [139.243329, 51.318496], [139.237398, 51.316684], [139.223837, 51.312472], [139.218944, 51.311346], [139.215726, 51.309897], [139.194869, 51.303297], [139.181136, 51.296079], [139.179033, 51.295381], [139.164216, 51.287129], [139.159635, 51.2776], [139.151267, 51.271948], [139.142641, 51.271438], [139.127234, 51.263061], [139.116677, 51.259677], [139.10127, 51.251163], [139.098652, 51.250357], [139.096916, 51.249471], [139.084771, 51.244152], [139.080951, 51.241922], [139.075029, 51.239927], [139.065775, 51.237354], [139.054413, 51.233838], [139.039563, 51.234107], [139.027289, 51.234214], [139.020037, 51.234026], [139.00772, 51.234026], [138.986777, 51.229968], [138.94751, 51.222416], [138.901219, 51.205565], [138.894338, 51.201393], [138.870986, 51.198022], [138.857597, 51.19289], [138.851047, 51.190449], [138.847307, 51.188963], [138.843504, 51.187064], [138.829959, 51.18014], [138.823136, 51.177107], [138.810545, 51.171991], [138.798223, 51.166754], [138.779963, 51.158401], [138.777601, 51.153623], [138.774794, 51.151924], [138.763772, 51.150567], [138.714916, 51.134958], [138.709824, 51.13264], [138.698694, 51.128933], [138.692407, 51.127007], [138.684693, 51.12492], [138.671357, 51.121175], [138.670287, 51.120756], [138.66811, 51.119461], [138.66619, 51.118254], [138.662823, 51.118625], [138.658239, 51.117256], [138.644549, 51.113437], [138.624872, 51.109841], [138.618173, 51.108538], [138.611339, 51.107299], [138.604472, 51.105924], [138.600117, 51.105109], [138.597857, 51.104501], [138.594054, 51.102279], [138.590384, 51.100002], [138.586157, 51.097394], [138.584011, 51.095905], [138.58339, 51.095717], [138.581352, 51.095697], [138.573797, 51.095629], [138.567253, 51.09604], [138.562645, 51.096997], [138.55363, 51.099045], [138.546219, 51.100147], [138.542619, 51.099227], [138.536247, 51.097745], [138.53011, 51.096451], [138.523501, 51.095265], [138.520428, 51.094649], [138.514419, 51.093476], [138.500651, 51.090863], [138.497218, 51.090293], [138.493785, 51.089582], [138.490378, 51.088794], [138.486819, 51.088114], [138.483056, 51.087325], [138.479097, 51.086634], [138.471175, 51.085113], [138.470654, 51.08484], [138.470124, 51.084466], [138.46727, 51.082087], [138.458505, 51.074949], [138.455859, 51.072613], [138.453276, 51.070189], [138.448024, 51.065348], [138.442741, 51.060526], [138.429879, 51.04849], [138.423452, 51.042481], [138.420245, 51.039475], [138.418641, 51.037937], [138.416914, 51.036493], [138.406424, 51.029058], [138.404906, 51.027894], [138.404358, 51.026468], [138.403797, 51.024874], [138.403117, 51.023291], [138.402816, 51.022718], [138.402387, 51.022134], [138.401261, 51.020609], [138.401062, 51.019684], [138.404748, 51.013974], [138.408307, 51.008788], [138.412392, 51.002731], [138.416047, 51.00116], [138.419722, 50.99963], [138.421254, 50.998899], [138.421468, 50.99844], [138.421275, 50.997805], [138.42046, 50.994361], [138.420331, 50.993443], [138.420549, 50.992731], [138.424679, 50.988888], [138.437854, 50.977514], [138.457252, 50.960163], [138.458518, 50.958825], [138.457005, 50.949723], [138.455621, 50.941405], [138.453239, 50.928085], [138.45133, 50.920086], [138.450815, 50.919058], [138.448583, 50.916677], [138.444893, 50.912727], [138.443347, 50.910887], [138.440944, 50.908073], [138.414452, 50.880199], [138.381821, 50.845151], [138.374707, 50.843395], [138.37284, 50.842962], [138.360738, 50.84036], [138.342349, 50.836431], [138.313201, 50.830479], [138.309189, 50.832146], [138.297323, 50.834748], [138.286379, 50.837432], [138.270994, 50.841104], [138.2652, 50.842472], [138.259707, 50.843638], [138.255545, 50.844423], [138.239769, 50.841506], [138.21505, 50.836953], [138.192802, 50.833014], [138.184088, 50.830171], [138.173825, 50.826696], [138.169478, 50.825302], [138.128919, 50.812817], [138.12811, 50.809054], [138.127159, 50.803877], [138.12559, 50.796944], [138.123129, 50.786221], [138.109713, 50.777238], [138.084925, 50.761246], [138.075965, 50.755545], [138.069474, 50.755328], [138.066363, 50.755125], [138.063488, 50.754772], [138.061256, 50.757188], [138.051965, 50.758043], [138.042695, 50.758993], [138.029241, 50.760405], [138.027316, 50.760121], [138.024942, 50.760749], [138.024054, 50.761659], [138.020964, 50.762853], [138.010921, 50.76269], [138.009363, 50.760718], [138.002712, 50.759988], [137.993412, 50.756772], [137.984936, 50.753718], [137.978799, 50.740466], [137.971001, 50.732257], [137.969619, 50.729632], [137.967238, 50.724798], [137.960142, 50.719729], [137.959063, 50.717492], [137.955732, 50.711303], [137.952213, 50.707444], [137.948883, 50.701405], [137.945175, 50.694669], [137.937193, 50.684065], [137.940626, 50.682325], [137.93479, 50.675527], [137.927615, 50.66116], [137.92346, 50.65284], [137.917538, 50.642771], [137.908869, 50.628726], [137.905178, 50.629489], [137.902002, 50.62486], [137.894449, 50.616256], [137.896681, 50.614514], [137.889569, 50.602809], [137.888915, 50.601916], [137.887734, 50.601104], [137.851465, 50.5834], [137.828188, 50.56629], [137.798681, 50.544445], [137.757289, 50.497009], [137.724459, 50.474427], [137.686973, 50.456015], [137.653735, 50.430489], [137.645581, 50.424282], [137.644379, 50.416407], [137.644722, 50.413112], [137.642984, 50.411881], [137.641161, 50.405851], [137.640796, 50.405099], [137.634037, 50.397904], [137.582817, 50.363874], [137.574459, 50.359296], [137.57315, 50.358378], [137.571917, 50.357242], [137.558452, 50.340181], [137.558409, 50.339764], [137.563012, 50.333991], [137.562014, 50.323402], [137.533035, 50.305267], [137.518916, 50.286597], [137.505419, 50.267193], [137.506385, 50.262681], [137.500484, 50.25257], [137.491804, 50.248529], [137.479112, 50.249071], [137.463909, 50.243287], [137.463298, 50.243232], [137.459929, 50.244056], [137.45936, 50.244042], [137.454865, 50.242162], [137.423816, 50.22784], [137.418172, 50.223735], [137.413688, 50.212257], [137.413741, 50.211838], [137.416831, 50.209785], [137.400298, 50.175249], [137.389441, 50.173476], [137.38877, 50.173603], [137.383904, 50.178588], [137.383239, 50.178698], [137.368176, 50.174603], [137.355108, 50.170467], [137.315369, 50.163759], [137.303181, 50.160515], [137.276573, 50.149076], [137.23383, 50.13007], [137.234259, 50.11967], [137.197351, 50.109295], [137.162783, 50.095972], [137.152762, 50.089709], [137.118709, 50.080925], [137.103581, 50.071974], [137.097573, 50.061244], [137.104697, 50.057896], [137.10607, 50.043994], [137.079935, 49.988373], [137.086887, 49.954865], [137.044015, 49.890446], [137.053049, 49.87962], [137.057984, 49.874062], [137.072468, 49.862665], [137.130543, 49.816631], [137.131294, 49.815849], [137.137527, 49.797223], [137.140274, 49.761364], [137.130403, 49.688705], [137.124224, 49.652793], [137.1171, 49.640344], [137.089376, 49.573989], [137.076931, 49.559405], [137.071781, 49.55328], [137.061825, 49.550663], [137.000027, 49.524206], [136.983204, 49.512058], [136.936169, 49.502695], [136.910591, 49.495225], [136.873341, 49.492326], [136.86638, 49.4856], [136.860793, 49.483779], [136.853183, 49.47659], [136.843572, 49.470408], [136.839372, 49.46655], [136.838479, 49.465659], [136.837989, 49.465171], [136.829563, 49.456924], [136.829488, 49.456885], [136.825672, 49.4549], [136.812247, 49.451156], [136.8115, 49.451319], [136.808778, 49.455095], [136.807999, 49.456147], [136.807332, 49.456508], [136.801746, 49.456436], [136.798217, 49.455009], [136.783107, 49.452294], [136.781301, 49.451989], [136.750639, 49.433549], [136.68537, 49.404168], [136.688857, 49.400786], [136.686784, 49.398812], [136.549236, 49.343015], [136.539311, 49.336892], [136.536615, 49.334922], [136.527163, 49.327375], [136.51298, 49.317649], [136.508701, 49.306909], [136.509383, 49.303318], [136.501626, 49.289173], [136.494389, 49.257261], [136.496031, 49.200201], [136.49738, 49.181916], [136.497016, 49.177816], [136.498021, 49.150743], [136.498829, 49.148071], [136.516289, 49.122366], [136.523563, 49.091704], [136.52144, 49.087868], [136.52373, 49.069322], [136.522489, 49.064286], [136.515589, 49.042248], [136.504583, 49.030274], [136.483373, 49.00774], [136.458759, 48.99518], [136.454587, 48.992942], [136.449165, 48.989317], [136.445179, 48.986957], [136.41422, 48.975185], [136.404948, 48.971925], [136.371067, 48.958819], [136.351129, 48.943251], [136.358332, 48.935591], [136.370846, 48.923329], [136.372674, 48.920255], [136.377622, 48.916768], [136.381736, 48.912698], [136.342333, 48.888291], [136.338856, 48.887442], [136.318079, 48.88578], [136.289469, 48.884826], [136.267832, 48.882645], [136.256539, 48.883741], [136.251197, 48.88424], [136.21165, 48.888776], [136.198518, 48.890215], [136.179101, 48.886682], [136.148578, 48.881156], [136.054366, 48.863967], [136.045022, 48.862237], [136.03282, 48.850429], [135.998311, 48.858893], [135.978876, 48.857042], [135.97296, 48.855481], [135.958524, 48.853361], [135.956614, 48.832191], [135.944618, 48.81548], [135.938817, 48.806157], [135.933963, 48.800505], [135.922111, 48.796703], [135.915631, 48.792578], [135.90243, 48.790575], [135.900772, 48.78828], [135.895387, 48.784758], [135.894877, 48.781744], [135.88515, 48.772563], [135.881635, 48.766007], [135.877664, 48.766116], [135.8745, 48.762231], [135.871614, 48.755432], [135.868811, 48.755169], [135.862737, 48.744488], [135.8032, 48.721156], [135.793724, 48.722319], [135.78433, 48.722865], [135.775505, 48.721586], [135.75014, 48.720969], [135.742638, 48.721171], [135.741218, 48.719546], [135.730209, 48.719579], [135.724264, 48.718526], [135.71734, 48.718742], [135.708172, 48.695571], [135.702956, 48.694304], [135.701263, 48.690251], [135.693069, 48.684003], [135.693082, 48.683506], [135.697091, 48.678685], [135.701301, 48.675009], [135.701301, 48.674527], [135.692918, 48.663713], [135.68803, 48.660667], [135.681419, 48.651676], [135.671991, 48.644012], [135.670759, 48.640166], [135.650339, 48.618143], [135.648256, 48.612205], [135.629658, 48.597562], [135.623266, 48.59745], [135.611719, 48.59564], [135.608067, 48.592466], [135.607132, 48.592437], [135.603352, 48.594137], [135.599678, 48.593786], [135.595578, 48.590976], [135.587085, 48.582731], [135.588678, 48.578628], [135.586554, 48.57527], [135.584855, 48.568257], [135.572006, 48.55974], [135.569925, 48.548887], [135.562322, 48.541337], [135.55423, 48.5401], [135.526196, 48.514684], [135.522172, 48.506315], [135.522147, 48.495067], [135.524486, 48.490806], [135.526255, 48.488259], [135.532747, 48.484556], [135.535262, 48.467458], [135.525338, 48.462266], [135.526547, 48.459839], [135.528625, 48.457824], [135.531137, 48.453196], [135.531354, 48.452188], [135.535479, 48.447128], [135.548039, 48.440771], [135.54593, 48.427973], [135.56133, 48.394622], [135.560475, 48.387137], [135.548392, 48.374349], [135.553194, 48.370314], [135.540826, 48.350833], [135.539905, 48.34735], [135.528586, 48.328378], [135.515472, 48.318317], [135.505619, 48.317663], [135.485768, 48.302426], [135.470196, 48.303965], [135.441723, 48.286017], [135.43883, 48.279738], [135.432347, 48.272152], [135.413931, 48.267371], [135.412137, 48.266565], [135.405192, 48.256957], [135.405776, 48.254818], [135.416041, 48.237342], [135.416037, 48.230566], [135.384783, 48.211396], [135.348425, 48.185738], [135.346791, 48.184584], [135.342637, 48.184507], [135.337864, 48.184418], [135.297868, 48.171235], [135.228887, 48.15753], [135.219161, 48.129547], [135.216487, 48.126776], [135.217916, 48.111076], [135.22623, 48.080086], [135.218062, 48.04978], [135.218301, 48.02733], [135.223316, 48.024088], [135.22024, 48.012961], [135.217816, 48.012], [135.212232, 48.005401], [135.213222, 47.993488], [135.213666, 47.986075], [135.213213, 47.981261], [135.207404, 47.969584], [135.208641, 47.961502], [135.212572, 47.953634], [135.218147, 47.947504], [135.208826, 47.942659], [135.202388, 47.927471], [135.202611, 47.881868], [135.184674, 47.871102], [135.180315, 47.865888], [135.165868, 47.849649], [135.166565, 47.841743], [135.166222, 47.84129], [135.12203, 47.819682], [135.109567, 47.809051], [135.100512, 47.801454], [135.093674, 47.789412], [135.071904, 47.761121], [135.076783, 47.718468], [135.075342, 47.704491], [135.063995, 47.69168], [135.048035, 47.682987], [135.046493, 47.679926], [135.043907, 47.678836], [135.042601, 47.676989], [135.018984, 47.674104], [135.018488, 47.674227], [135.017704, 47.674122], [135.017312, 47.673735], [135.017182, 47.673189], [135.01423, 47.6699], [134.996228, 47.664595], [134.984479, 47.653262], [134.981354, 47.65397], [134.971124, 47.643974], [134.969032, 47.641667], [134.967968, 47.640872], [134.952799, 47.626038], [134.953551, 47.62466], [134.938885, 47.610186], [134.936484, 47.610211], [134.925303, 47.602518], [134.9236, 47.602208], [134.902922, 47.585508], [134.90243, 47.584487], [134.900768, 47.583768], [134.892937, 47.577441], [134.88156, 47.56478], [134.887007, 47.56006], [134.879993, 47.544066], [134.865402, 47.530604], [134.859021, 47.526826], [134.849359, 47.517629], [134.846525, 47.513116], [134.843021, 47.513039], [134.834778, 47.510341], [134.830724, 47.505722], [134.82185, 47.500885], [134.821698, 47.498607], [134.793522, 47.480119], [134.756082, 47.451192], [134.722009, 47.436735], [134.709713, 47.427348], [134.702427, 47.424938], [134.697418, 47.426116], [134.570637, 47.37225], [134.566189, 47.368588], [134.524679, 47.30961], [134.516264, 47.28761], [134.516307, 47.278115], [134.507238, 47.263913], [134.489471, 47.239562], [134.489729, 47.23157], [134.484117, 47.223258], [134.482712, 47.215639], [134.478853, 47.214369], [134.476163, 47.209771], [134.476688, 47.205554], [134.470809, 47.186507], [134.461128, 47.181165], [134.460506, 47.180479], [134.456378, 47.178276], [134.453777, 47.169808], [134.444359, 47.142267], [134.431073, 47.136714], [134.428947, 47.131204], [134.426077, 47.129006], [134.420962, 47.121263], [134.420962, 47.118808], [134.419532, 47.113053], [134.422703, 47.107735], [134.418267, 47.093894], [134.424797, 47.077889], [134.422475, 47.071212], [134.420755, 47.068854], [134.42075, 47.065686], [134.420648, 47.065323], [134.416793, 47.063247], [134.413085, 47.057841], [134.405623, 47.055073], [134.392233, 47.038195], [134.389166, 47.038251], [134.384979, 47.036048], [134.372088, 47.002337], [134.371716, 46.995683], [134.367616, 46.989288], [134.365933, 46.985061], [134.359357, 46.972476], [134.348405, 46.965844], [134.341872, 46.96194], [134.332147, 46.956853], [134.328415, 46.9515], [134.321127, 46.935415], [134.315009, 46.924778], [134.309245, 46.916344], [134.308809, 46.912799], [134.309859, 46.910546], [134.30893, 46.902881], [134.307507, 46.900732], [134.312167, 46.892832], [134.314161, 46.886808], [134.310188, 46.875421], [134.310408, 46.87134], [134.310019, 46.867363], [134.316047, 46.863718], [134.311902, 46.854679], [134.307556, 46.813497], [134.321522, 46.804527], [134.31289, 46.797836], [134.312547, 46.788541], [134.320179, 46.777639], [134.319031, 46.77379], [134.314694, 46.772718], [134.310597, 46.76871], [134.318557, 46.75277], [134.309639, 46.746373], [134.308524, 46.742387], [134.30279, 46.736595], [134.302273, 46.733709], [134.310018, 46.725625], [134.316812, 46.722011], [134.318225, 46.719731], [134.31178, 46.715492], [134.314028, 46.712281], [134.316089, 46.710585], [134.31785, 46.702285], [134.298428, 46.683779], [134.295985, 46.676898], [134.29377, 46.676806], [134.292009, 46.673309], [134.261738, 46.646296], [134.247981, 46.633036], [134.24192, 46.620383], [134.237761, 46.617695], [134.194221, 46.607735], [134.184072, 46.603902], [134.167571, 46.598359], [134.130814, 46.59103], [134.120665, 46.589747], [134.103584, 46.583834], [134.043674, 46.528162], [134.034469, 46.522641], [134.030457, 46.518388], [134.027689, 46.511995], [133.99812, 46.483235], [133.998152, 46.477155], [133.990095, 46.464881], [133.990974, 46.463625], [133.989108, 46.460684], [133.997583, 46.428444], [133.997841, 46.427956], [134.013548, 46.41289], [134.013419, 46.407786], [134.01829, 46.401867], [134.017003, 46.396644], [134.013548, 46.390724], [134.016252, 46.377698], [134.010672, 46.359605], [134.014513, 46.354526], [134.009857, 46.34755], [134.009514, 46.341625], [134.001607, 46.33704], [134.009814, 46.324705], [134.022903, 46.310597], [133.996982, 46.244689], [133.972778, 46.195874], [133.964989, 46.190363], [133.959678, 46.185721], [133.956685, 46.183203], [133.954389, 46.18012], [133.94881, 46.177275], [133.945549, 46.173397], [133.934013, 46.163264], [133.918872, 46.147157], [133.913494, 46.11573], [133.917016, 46.106296], [133.916215, 46.105482], [133.916768, 46.104095], [133.89839, 46.086093], [133.872381, 46.062494], [133.867752, 46.058984], [133.867824, 46.056893], [133.880946, 46.042597], [133.881806, 46.032562], [133.883684, 46.030347], [133.88615, 46.028792], [133.889611, 46.024268], [133.890448, 46.022556], [133.906896, 46.003937], [133.907892, 46.002428], [133.922529, 45.987166], [133.922077, 45.98583], [133.927755, 45.981884], [133.927574, 45.975014], [133.936104, 45.960704], [133.933276, 45.957275], [133.92866, 45.955199], [133.922167, 45.954208], [133.91253, 45.950496], [133.911262, 45.946154], [133.895018, 45.941073], [133.887598, 45.936951], [133.879566, 45.913597], [133.870596, 45.906662], [133.868302, 45.905565], [133.860135, 45.903785], [133.850037, 45.88353], [133.849599, 45.879266], [133.845393, 45.859185], [133.841186, 45.848145], [133.839436, 45.845262], [133.835196, 45.842402], [133.823761, 45.828708], [133.818982, 45.822235], [133.817602, 45.818108], [133.808247, 45.809359], [133.802829, 45.802649], [133.791648, 45.786876], [133.788223, 45.78039], [133.765914, 45.774246], [133.746113, 45.768276], [133.746085, 45.764302], [133.74366, 45.757782], [133.740975, 45.754818], [133.740096, 45.750048], [133.72846, 45.734414], [133.72138, 45.729191], [133.71902, 45.724008], [133.724252, 45.716825], [133.71809, 45.706164], [133.681348, 45.688612], [133.665154, 45.68779], [133.65289, 45.681916], [133.641677, 45.665441], [133.639425, 45.654438], [133.639716, 45.649586], [133.641064, 45.644126], [133.643484, 45.637401], [133.643361, 45.634981], [133.640206, 45.619064], [133.642013, 45.611586], [133.644188, 45.609208], [133.643698, 45.604986], [133.645352, 45.597806], [133.638, 45.562537], [133.638208, 45.560363], [133.639906, 45.550112], [133.633307, 45.543488], [133.630405, 45.534265], [133.624507, 45.508705], [133.61937, 45.50291], [133.617911, 45.498137], [133.614323, 45.494685], [133.620008, 45.487823], [133.605477, 45.450364], [133.59981, 45.426694], [133.595933, 45.425044], [133.596834, 45.422815], [133.620221, 45.396545], [133.620446, 45.39398], [133.627475, 45.386023], [133.625473, 45.380594], [133.623372, 45.376764], [133.622197, 45.375938], [133.621346, 45.374251], [133.621497, 45.373145], [133.620771, 45.371932], [133.615115, 45.351644], [133.617764, 45.345121], [133.618133, 45.34058], [133.621312, 45.337071], [133.640662, 45.290354], [133.642006, 45.288314], [133.658561, 45.252341], [133.662381, 45.23655], [133.661886, 45.234134], [133.663619, 45.231942], [133.664362, 45.227258], [133.67363, 45.21936], [133.694744, 45.169674], [133.691398, 45.158899], [133.691241, 45.15574], [133.68952, 45.152842], [133.68457, 45.136666], [133.670222, 45.121218], [133.6694, 45.101526], [133.67257, 45.097466], [133.674136, 45.096803], [133.676014, 45.09335], [133.6685, 45.084315], [133.667718, 45.081883], [133.664939, 45.08028], [133.654412, 45.067374], [133.653395, 45.065135], [133.651164, 45.063311], [133.63778, 45.047056], [133.632458, 45.038705], [133.62467, 45.035387], [133.622909, 45.031432], [133.623105, 45.024075], [133.618683, 45.017021], [133.608312, 45.017989], [133.600006, 45.015977], [133.570023, 45.003795], [133.554401, 44.992037], [133.532804, 44.985552], [133.527304, 44.974415], [133.508327, 44.961009], [133.505911, 44.957467], [133.504863, 44.956705], [133.502797, 44.953141], [133.49977, 44.945643], [133.479367, 44.939236], [133.461671, 44.928357], [133.455617, 44.929223], [133.40736, 44.901398], [133.405847, 44.900883], [133.39988, 44.89711], [133.344085, 44.897254], [133.337254, 44.888658], [133.314986, 44.856017], [133.299674, 44.852983], [133.277859, 44.84163], [133.259007, 44.839033], [133.256866, 44.833283], [133.167955, 44.762819], [133.139965, 44.75633], [133.107695, 44.743556], [133.098434, 44.742854], [133.083863, 44.736948], [133.069168, 44.726831], [133.069662, 44.715366], [133.058054, 44.688772], [133.054721, 44.686929], [133.055626, 44.684763], [133.03591, 44.660585], [133.02492, 44.638974], [133.01677, 44.627111], [133.018375, 44.608184], [132.968941, 44.566499], [132.967541, 44.553126], [132.958691, 44.54239], [132.956839, 44.513515], [132.939469, 44.503358], [132.937576, 44.502801], [132.9363, 44.502037], [132.935147, 44.500746], [132.925433, 44.495138], [132.903577, 44.466475], [132.869619, 44.431126], [132.867766, 44.429656], [132.867396, 44.428745], [132.858002, 44.419134], [132.835013, 44.378167], [132.832267, 44.374449], [132.833465, 44.372745], [132.800929, 44.357509], [132.770721, 44.340347], [132.763926, 44.327809], [132.738485, 44.319086], [132.73687, 44.316579], [132.731688, 44.308737], [132.729413, 44.307297], [132.718685, 44.30719], [132.705338, 44.299374], [132.70007, 44.292708], [132.695392, 44.290051], [132.68314, 44.284491], [132.674021, 44.273883], [132.661478, 44.264894], [132.657337, 44.258955], [132.652278, 44.240972], [132.656404, 44.236621], [132.635214, 44.216509], [132.636373, 44.214002], [132.624711, 44.202259], [132.603425, 44.186059], [132.587546, 44.163374], [132.586307, 44.160472], [132.583866, 44.157775], [132.582573, 44.156539], [132.582284, 44.155808], [132.582783, 44.153325], [132.582654, 44.152806], [132.578558, 44.149198], [132.57847, 44.134351], [132.569752, 44.116074], [132.567227, 44.110777], [132.568615, 44.107956], [132.567091, 44.104551], [132.562858, 44.101755], [132.560589, 44.097304], [132.560724, 44.095771], [132.552088, 44.079278], [132.546331, 44.065287], [132.546161, 44.063073], [132.536069, 44.05268], [132.522755, 44.03701], [132.513056, 44.028927], [132.508979, 44.023866], [132.505674, 44.023558], [132.479238, 44.003002], [132.477007, 43.99794], [132.469883, 43.995284], [132.467566, 43.990283], [132.458467, 43.98139], [132.395038, 43.972558], [132.390146, 43.971631], [132.385082, 43.971878], [132.380361, 43.97336]]}},
{"type": "Feature", "properties": {"ProjectID": "P0758"}, "geometry": {"type": "LineString", "coordinates": [[132.380361, 43.97336], [132.373709, 43.969376], [132.373183, 43.968277], [132.363281, 43.947597], [132.392464, 43.909519], [132.395554, 43.892697], [132.334785, 43.874633], [132.269897, 43.812977], [132.258224, 43.776052], [132.209473, 43.748529], [132.17514, 43.741833], [132.142868, 43.718264], [132.133255, 43.697169], [132.156601, 43.664643], [132.19574, 43.647504], [132.205009, 43.624396], [132.170334, 43.593571], [132.186813, 43.517186], [132.1772, 43.495772], [132.147331, 43.464881], [132.080383, 43.344656], [132.096863, 43.267706], [132.005539, 43.224692], [132.00341, 43.15261]]}}
]
}
