{
"type": "FeatureCollection",
"features": [
{"type": "Feature", "id": "way/177862161", "properties": {"ProjectID": "P0753", "@id": "way/177862161", "description:en": "NS1 comprises of 2 pipelines, each with gas transport capacity of 27.5 bcma (i.e. 55 bcma in total).", "diameter": "1153", "location": "underwater", "man_made": "pipeline", "name": "Nord Stream 1", "name:en": "Nord Stream 1", "operator": "Nord Stream AG", "pressure": "220", "seamark:name": "Nord Stream", "seamark:pipeline_submarine:category": "supply", "seamark:pipeline_submarine:product": "gas", "seamark:type": "pipeline_submarine", "start_date": "2011", "submarine": "yes", "substance": "gas", "usage": "transmission", "website": "https://www.nord-stream.com/", "wikidata": "Q154125", "wikipedia": "en:Nord Stream 1"}, "geometry": {"type": "LineString", "coordinates": [[28.074451, 60.52778], [28.088093, 60.505259], [28.088943, 60.497082], [28.084167, 60.483083], [28.07895, 60.4763], [28.070883, 60.47045], [28.045092, 60.457556], [28.03874, 60.453155], [28.033934, 60.448541], [28.030929, 60.443164], [28.030329, 60.437024], [28.034534, 60.417581], [28.034019, 60.411945], [28.029857, 60.405164], [28.022904, 60.399822], [27.996599, 60.386517], [27.979903, 60.369411], [27.950592, 60.35481], [27.862787, 60.290173], [27.85738, 60.283791], [27.854118, 60.278303], [27.850513, 60.266981], [27.846018, 60.260542], [27.837295, 60.253058], [27.827511, 60.246627], [27.815087, 60.241611], [27.755349, 60.226505], [27.736198, 60.218422], [27.721875, 60.205916], [27.71312, 60.201408], [27.612162, 60.174349], [27.52573, 60.149409], [27.498844, 60.144405], [27.483247, 60.142968], [27.450628, 60.142787], [27.402155, 60.143951], [27.297571, 60.135169], [27.239914, 60.13502], [27.188587, 60.14018], [27.170863, 60.140052], [27.135163, 60.136662], [27.099495, 60.135586], [27.068864, 60.129698], [27.041618, 60.126616], [27.030573, 60.125995], [27.020466, 60.126556], [26.993258, 60.129388], [26.953883, 60.12957], [26.938444, 60.127523], [26.870477, 60.105462], [26.80281, 60.096483], [26.769099, 60.094898], [26.756786, 60.093162], [26.672723, 60.067892], [26.657231, 60.064251], [26.568611, 60.057848], [26.538366, 60.048218], [26.512982, 60.035815], [26.492559, 60.029999], [26.444628, 60.023429], [26.383924, 60.018207], [26.363025, 60.01632], [26.330023, 60.010003], [26.282795, 60.003149], [26.247411, 59.994989], [26.239943, 59.993761], [26.220127, 59.991523], [26.210654, 59.990922], [26.189497, 59.989049], [26.185999, 59.988942], [26.180162, 59.988888], [26.163018, 59.989575], [26.156302, 59.989522], [26.138299, 59.987923], [26.133986, 59.987311], [26.130209, 59.986602], [26.124458, 59.9851], [26.095276, 59.976286], [26.08959, 59.97474], [26.082079, 59.973258], [26.067939, 59.971519], [26.061845, 59.970456], [26.054506, 59.968641], [26.048348, 59.966525], [26.044593, 59.964925], [26.04116, 59.963045], [26.03528, 59.959007], [26.032619, 59.956149], [26.030152, 59.952797], [26.028929, 59.950218], [26.027491, 59.945942], [26.026719, 59.943953], [26.025946, 59.942782], [26.023693, 59.939783], [26.021955, 59.938085], [26.018929, 59.935656], [26.015861, 59.933635], [26.01202, 59.931657], [26.006055, 59.929141], [26.002729, 59.928033], [25.999081, 59.92698], [25.992923, 59.925657], [25.984318, 59.924356], [25.975156, 59.922979], [25.969148, 59.921861], [25.960028, 59.919559], [25.954878, 59.918172], [25.950608, 59.916656], [25.946016, 59.91473], [25.940781, 59.911665], [25.937583, 59.909416], [25.930073, 59.90323], [25.926211, 59.900184], [25.919945, 59.896568], [25.914345, 59.89419], [25.906878, 59.890961], [25.902565, 59.88954], [25.895333, 59.887807], [25.889046, 59.886741], [25.884712, 59.886278], [25.880549, 59.88602], [25.875442, 59.885815], [25.863018, 59.886009], [25.853512, 59.885987], [25.848899, 59.886138], [25.825853, 59.88785], [25.814373, 59.888668], [25.804267, 59.889873], [25.79886, 59.890541], [25.789762, 59.890928], [25.783539, 59.890778], [25.777359, 59.89025], [25.771415, 59.889432], [25.763905, 59.887753], [25.757554, 59.886752], [25.745752, 59.885223], [25.737748, 59.884695], [25.729551, 59.884642], [25.725539, 59.884814], [25.70966, 59.88631], [25.682774, 59.887914], [25.674813, 59.888108], [25.668869, 59.88786], [25.637755, 59.885804], [25.618808, 59.885514], [25.59763, 59.885148], [25.553556, 59.884491], [25.545101, 59.8849], [25.538685, 59.88574], [25.53448, 59.88659], [25.506048, 59.893738], [25.496693, 59.895664], [25.489912, 59.896719], [25.484161, 59.897332], [25.474505, 59.89801], [25.462789, 59.898086], [25.452275, 59.897677], [25.446181, 59.89716], [25.438521, 59.896127], [25.422792, 59.893791], [25.400283, 59.89039], [25.392559, 59.889755], [25.388503, 59.889637], [25.382559, 59.889766], [25.357089, 59.891671], [25.344965, 59.892597], [25.336425, 59.892963], [25.328636, 59.892704], [25.306363, 59.890702], [25.298338, 59.890541], [25.292888, 59.890842], [25.285978, 59.89152], [25.271344, 59.894287], [25.258856, 59.89674], [25.251667, 59.897731], [25.244372, 59.898269], [25.184634, 59.899302], [25.17766, 59.899183], [25.154142, 59.898387], [25.148349, 59.898376], [25.140646, 59.89899], [25.102215, 59.903574], [25.0967, 59.904058], [25.060608, 59.904801], [25.054214, 59.904596], [25.046425, 59.903725], [25.009153, 59.898054], [25.002919, 59.896913], [24.996997, 59.895557], [24.987416, 59.892747], [24.972825, 59.887742], [24.966624, 59.885578], [24.957365, 59.882763], [24.940875, 59.878127], [24.933686, 59.876114], [24.923901, 59.873841], [24.869335, 59.863625], [24.839015, 59.857947], [24.823051, 59.854951], [24.817193, 59.854019], [24.811302, 59.853485], [24.801239, 59.853275], [24.795263, 59.852958], [24.7911, 59.852537], [24.785296, 59.851648], [24.779084, 59.850209], [24.777367, 59.849816], [24.773762, 59.848668], [24.765598, 59.846098], [24.758323, 59.843839], [24.750373, 59.841694], [24.744408, 59.840492], [24.726856, 59.837603], [24.721513, 59.836401], [24.703306, 59.831646], [24.699476, 59.830449], [24.690142, 59.826798], [24.67349, 59.820273], [24.667718, 59.818244], [24.661925, 59.816734], [24.649984, 59.814301], [24.637999, 59.810913], [24.621295, 59.805928], [24.617422, 59.804466], [24.613581, 59.802717], [24.605062, 59.797839], [24.6012, 59.796036], [24.597251, 59.794557], [24.586759, 59.791092], [24.575322, 59.785833], [24.56764, 59.782972], [24.561868, 59.781449], [24.554057, 59.780142], [24.546268, 59.77944], [24.506507, 59.777885], [24.485865, 59.777042], [24.475393, 59.776308], [24.467454, 59.775141], [24.46166, 59.774147], [24.435632, 59.768379], [24.426556, 59.766034], [24.419153, 59.763376], [24.413874, 59.760653], [24.403596, 59.754601], [24.40012, 59.752796], [24.396386, 59.75112], [24.390764, 59.749175], [24.38452, 59.747596], [24.378898, 59.746526], [24.372461, 59.745715], [24.359157, 59.744721], [24.352763, 59.743791], [24.322743, 59.736795], [24.306457, 59.732902], [24.300084, 59.730879], [24.272489, 59.720029], [24.260023, 59.716069], [24.212429, 59.700927], [24.193375, 59.695719], [24.168484, 59.690641], [24.161983, 59.68906], [24.158249, 59.687879], [24.152863, 59.685703], [24.147026, 59.682583], [24.142242, 59.679908], [24.136083, 59.677297], [24.129345, 59.675141], [24.12117, 59.673408], [24.115248, 59.672617], [24.069285, 59.669995], [24.060938, 59.66916], [24.053192, 59.667751], [24.042506, 59.665107], [24.024396, 59.660436], [24.014204, 59.658539], [23.966331, 59.652143], [23.826835, 59.633437], [23.813167, 59.631592], [23.801966, 59.630551], [23.741391, 59.625723], [23.731134, 59.624551], [23.601444, 59.605829], [23.56812, 59.600976], [23.563507, 59.600107], [23.546791, 59.595525], [23.537478, 59.592908], [23.516493, 59.587379], [23.506343, 59.584805], [23.4957, 59.58261], [23.479757, 59.5811], [23.461368, 59.579655], [23.432443, 59.575341], [23.425298, 59.573657], [23.414247, 59.570908], [23.404977, 59.56931], [23.382554, 59.567593], [23.352492, 59.566126], [23.345604, 59.565615], [23.342063, 59.56518], [23.327858, 59.563223], [23.270159, 59.555222], [23.161797, 59.540214], [23.156197, 59.539126], [23.14285, 59.535983], [23.129826, 59.532479], [23.1218, 59.53051], [23.114119, 59.528943], [23.107617, 59.528007], [23.082404, 59.524547], [23.01743, 59.515763], [23.007533, 59.5152], [22.960975, 59.508121], [22.92057, 59.502731], [22.886474, 59.498015], [22.721443, 59.475387], [22.709167, 59.475067], [22.703133, 59.474283], [22.662735, 59.470733], [22.65471, 59.470079], [22.648217, 59.46995], [22.620935, 59.464312], [22.614906, 59.463254], [22.60834, 59.462295], [22.603433, 59.462083], [22.594414, 59.460932], [22.577033, 59.459885], [22.572449, 59.460104], [22.543774, 59.457726], [22.534032, 59.456789], [22.52944, 59.456178], [22.518434, 59.45498], [22.505922, 59.450812], [22.451334, 59.434471], [22.433089, 59.429874], [22.414976, 59.427787], [22.37242, 59.428511], [22.350455, 59.425796], [22.28543, 59.409258], [22.264783, 59.406417], [22.21335, 59.4054], [22.195367, 59.403667], [22.190833, 59.402983], [22.09965, 59.386583], [22.015917, 59.375833], [22.006333, 59.373283], [22.001817, 59.371733], [21.9751, 59.3592], [21.959667, 59.3548], [21.948167, 59.353217], [21.91205, 59.348633], [21.849933, 59.338517], [21.8274, 59.3333], [21.7813, 59.327417], [21.768333, 59.324617], [21.75165, 59.31935], [21.740317, 59.316633], [21.65745, 59.304083], [21.59355, 59.29235], [21.5717, 59.289517], [21.5506, 59.288267], [21.5318, 59.284967], [21.490883, 59.274933], [21.410033, 59.257233], [21.402567, 59.256067], [21.377567, 59.253117], [21.366983, 59.251483], [21.357083, 59.24905], [21.333133, 59.243067], [21.3207, 59.241133], [21.311533, 59.240383], [21.291217, 59.237767], [21.217983, 59.22395], [21.162867, 59.224967], [21.145067, 59.2238], [21.137, 59.222083], [21.128433, 59.219517], [21.098083, 59.205417], [21.0887, 59.200267], [21.080433, 59.192967], [21.078067, 59.1894], [21.0701, 59.166217], [21.06265, 59.1514], [21.053883, 59.142917], [21.04695, 59.1388], [21.0127, 59.121817], [20.99015, 59.112967], [20.91345, 59.072117], [20.85625, 59.043367], [20.838333, 59.036217], [20.832083, 59.032617], [20.829433, 59.031067], [20.825617, 59.028033], [20.803517, 59.008833], [20.794767, 59.003717], [20.785083, 58.999317], [20.76095, 58.99], [20.75295, 58.986517], [20.7401, 58.980333], [20.648117, 58.93735], [20.5362, 58.8964], [20.525733, 58.89155], [20.517533, 58.88685], [20.503717, 58.878067], [20.4853, 58.86495], [20.471833, 58.85265], [20.456933, 58.836767], [20.450483, 58.83195], [20.448483, 58.830533], [20.417267, 58.811833], [20.3857, 58.788267], [20.355217, 58.75435], [20.345017, 58.734833], [20.3441, 58.729833], [20.342583, 58.718883], [20.340933, 58.713983], [20.335033, 58.703067], [20.329133, 58.696267], [20.3146, 58.684483], [20.289867, 58.667983], [20.279117, 58.65595], [20.22195, 58.5712], [20.219217, 58.565083], [20.205567, 58.520283], [20.165333, 58.45685], [20.152267, 58.4463], [20.147883, 58.44405], [20.113283, 58.42875], [20.098195, 58.418337], [20.087753, 58.405839], [20.06075, 58.36925], [20.037467, 58.336188], [20.035367, 58.331867], [20.034353, 58.325513], [20.031971, 58.317792], [20.026842, 58.309806], [20.015621, 58.298881], [19.996935, 58.277022], [19.962358, 58.2145], [19.815803, 57.991769], [19.772478, 57.925486], [19.737946, 57.892299], [19.653677, 57.794016], [19.623725, 57.728345], [19.548891, 57.636088], [19.485323, 57.520485], [19.473461, 57.510081], [19.453448, 57.498492], [19.441357, 57.490174], [19.42835, 57.477077], [19.414611, 57.446729], [19.370832, 57.382618], [19.2355, 57.184667], [19.185673, 57.111302], [19.102057, 56.987284], [18.979527, 56.802679], [18.972199, 56.778498], [18.959833, 56.762], [18.955254, 56.755256], [18.925302, 56.706667], [18.918432, 56.691932], [18.89709, 56.659576], [18.891412, 56.653333], [18.88042, 56.644571], [18.874191, 56.637771], [18.863566, 56.617416], [18.86036, 56.60552], [18.825737, 56.551891], [18.81502, 56.537752], [18.804944, 56.527094], [18.761402, 56.50029], [18.600333, 56.365], [18.581014, 56.348594], [18.575585, 56.344887], [18.545333, 56.334167], [18.519833, 56.329167], [18.4385, 56.313667], [18.3885, 56.304], [18.179833, 56.2635], [18.124667, 56.252667], [17.943833, 56.192167], [17.89846, 56.176636], [17.853577, 56.164614], [17.793215, 56.139666], [17.441382, 56.015368], [17.426833, 56.010333], [17.326833, 55.976], [17.160494, 55.918882], [16.992, 55.8565], [16.860554, 55.808892], [16.6665, 55.7385], [16.534167, 55.690167], [16.372705, 55.660753], [16.153183, 55.620727], [15.781333, 55.552833], [15.73794, 55.545574], [15.717641, 55.541661], [15.700286, 55.535451], [15.694333, 55.532667], [15.420667, 55.372833], [15.3745, 55.240667], [15.369533, 55.220917], [15.31215, 55.103536], [15.269993, 55.017081], [15.236645, 54.956316], [15.23019, 54.948735], [15.215315, 54.934262], [15.204104, 54.926442], [15.14625, 54.910083], [14.805087, 54.826162], [14.788733, 54.817667], [14.641896, 54.710197], [14.522103, 54.622309], [14.5016, 54.60935], [14.4876, 54.60455], [14.232933, 54.545358], [14.213372, 54.54031], [14.189417, 54.539128], [14.121128, 54.541099], [14.1076, 54.539517], [14.100333, 54.537891], [14.091051, 54.534738], [14.082218, 54.530539], [14.040007, 54.498838], [14.034467, 54.4951], [13.878467, 54.36449], [13.8605, 54.35045], [13.834139, 54.332605], [13.718213, 54.242399], [13.712901, 54.237335], [13.709105, 54.232386], [13.707457, 54.227911], [13.706535, 54.222392], [13.70583, 54.219365], [13.703946, 54.215598], [13.700753, 54.21225], [13.697277, 54.210106], [13.690592, 54.207313], [13.68096, 54.204234], [13.648684, 54.196264], [13.637749, 54.191917], [13.632744, 54.187899], [13.629845, 54.1823], [13.629582, 54.176503], [13.631097, 54.171497], [13.636037, 54.165306], [13.64269, 54.160036], [13.65048, 54.156275], [13.654361, 54.154097]]}},
{"type": "Feature", "id": "way/578554427", "properties": {"ProjectID": "P0753", "@id": "way/578554427", "flow_direction": "forward", "layer": "-1", "location": "underground", "man_made": "pipeline", "name": "Газопровод подключения Северного потока 1", "pressure": "220", "substance": "gas", "usage": "transmission"}, "geometry": {"type": "LineString", "coordinates": [[28.06163, 60.552689], [28.061519, 60.55131], [28.061094, 60.551317], [28.061088, 60.550487], [28.061532, 60.550485], [28.061456, 60.548355], [28.061043, 60.548358], [28.061, 60.547416], [28.061449, 60.547412], [28.061393, 60.54623], [28.062726, 60.544996], [28.0624, 60.54491], [28.063218, 60.544111], [28.063887, 60.544285], [28.065797, 60.542517], [28.065461, 60.542428], [28.066427, 60.541488], [28.066715, 60.540996], [28.067367, 60.541089]]}},
{"type": "Feature", "id": "way/586046892", "properties": {"ProjectID": "P0753", "@id": "way/586046892", "flow_direction": "forward", "layer": "-1", "location": "underground", "man_made": "pipeline", "name": "Газопровод подключения Северного потока 1", "pressure": "220", "substance": "gas", "usage": "transmission"}, "geometry": {"type": "LineString", "coordinates": [[28.060984, 60.552772], [28.060865, 60.5516], [28.060454, 60.551599], [28.060409, 60.550131], [28.060858, 60.550128], [28.060838, 60.548648], [28.060328, 60.548652], [28.060285, 60.547066], [28.060684, 60.547021], [28.060726, 60.546106], [28.06177, 60.545127], [28.061421, 60.545028], [28.06295, 60.543637], [28.063677, 60.54383], [28.064927, 60.54265], [28.064491, 60.542538], [28.065786, 60.54137], [28.066142, 60.540827], [28.065669, 60.540752]]}},
{"type": "Feature", "id": "way/586046893", "properties": {"ProjectID": "P0753", "@id": "way/586046893", "flow_direction": "forward", "layer": "-1", "location": "underground", "man_made": "pipeline", "name": "Газопровод подключения Северного потока 1", "pressure": "220", "substance": "gas", "usage": "transmission"}, "geometry": {"type": "LineString", "coordinates": [[28.060634, 60.552808], [28.060671, 60.552808], [28.06057, 60.551761], [28.060111, 60.551762], [28.06007, 60.549954], [28.060501, 60.549953], [28.060487, 60.548812], [28.060016, 60.548815], [28.05996, 60.546923], [28.060412, 60.54687], [28.060441, 60.546048], [28.061348, 60.545189], [28.06096, 60.545076], [28.062808, 60.543428], [28.063491, 60.543613], [28.06447, 60.542705], [28.064041, 60.542589], [28.065478, 60.541301], [28.065785, 60.540844], [28.065531, 60.540806]]}},
{"type": "Feature", "id": "way/586046894", "properties": {"ProjectID": "P0753", "@id": "way/586046894", "flow_direction": "forward", "layer": "-1", "location": "underground", "man_made": "pipeline", "name": "Газопровод подключения Северного потока 1", "pressure": "220", "substance": "gas", "usage": "transmission"}, "geometry": {"type": "LineString", "coordinates": [[28.061312, 60.552733], [28.061193, 60.551446], [28.060803, 60.551448], [28.060782, 60.550322], [28.06119, 60.55032], [28.061155, 60.548501], [28.060671, 60.548503], [28.060626, 60.547227], [28.061056, 60.54723], [28.061088, 60.54618], [28.062276, 60.545062], [28.061931, 60.544974], [28.063087, 60.543902], [28.063774, 60.544081], [28.065403, 60.542594], [28.064984, 60.542482], [28.066121, 60.541437], [28.066449, 60.540895], [28.067329, 60.541022]]}},
{"type": "Feature", "id": "way/1284953130", "properties": {"ProjectID": "P0753", "@id": "way/1284953130", "flow_direction": "forward", "location": "overground", "man_made": "pipeline", "name": "Газопровод подключения Северного потока 1", "pressure": "220", "substance": "gas", "usage": "transmission"}, "geometry": {"type": "LineString", "coordinates": [[28.060621, 60.552716], [28.06163, 60.552689]]}},
{"type": "Feature", "id": "way/1284953131", "properties": {"ProjectID": "P0753", "@id": "way/1284953131", "flow_direction": "forward", "location": "overground", "man_made": "pipeline", "name": "Газопровод подключения Северного потока 1", "pressure": "220", "substance": "gas", "usage": "transmission"}, "geometry": {"type": "LineString", "coordinates": [[28.060626, 60.55275], [28.061312, 60.552733]]}},
{"type": "Feature", "id": "way/1284953132", "properties": {"ProjectID": "P0753", "@id": "way/1284953132", "flow_direction": "forward", "location": "overground", "man_made": "pipeline", "name": "Газопровод подключения Северного потока 1", "pressure": "220", "substance": "gas", "usage": "transmission"}, "geometry": {"type": "LineString", "coordinates": [[28.060631, 60.552782], [28.060984, 60.552772]]}},
{"type": "Feature", "id": "way/1284953134", "properties": {"ProjectID": "P0753", "@id": "way/1284953134", "flow_direction": "forward", "location": "overground", "man_made": "pipeline", "name": "Газопровод подключения Северного потока 1", "pressure": "220", "substance": "gas", "usage": "transmission"}, "geometry": {"type": "LineString", "coordinates": [[28.067329, 60.541022], [28.067552, 60.540623], [28.066919, 60.540534]]}},
{"type": "Feature", "id": "way/1284953135", "properties": {"ProjectID": "P0753", "@id": "way/1284953135", "flow_direction": "forward", "location": "overground", "man_made": "pipeline", "name": "Газопровод подключения Северного потока 1", "pressure": "220", "substance": "gas", "usage": "transmission"}, "geometry": {"type": "LineString", "coordinates": [[28.067367, 60.541089], [28.067674, 60.540557], [28.066966, 60.540456]]}},
{"type": "Feature", "id": "way/1284953136", "properties": {"ProjectID": "P0753", "@id": "way/1284953136", "flow_direction": "forward", "location": "overground", "man_made": "pipeline", "name": "Газопровод подключения Северного потока 1", "pressure": "220", "substance": "gas", "usage": "transmission"}, "geometry": {"type": "LineString", "coordinates": [[28.065531, 60.540806], [28.065844, 60.54029], [28.066613, 60.540404]]}},
{"type": "Feature", "id": "way/1284953137", "properties": {"ProjectID": "P0753", "@id": "way/1284953137", "flow_direction": "forward", "location": "overground", "man_made": "pipeline", "name": "Газопровод подключения Северного потока 1", "pressure": "220", "substance": "gas", "usage": "transmission"}, "geometry": {"type": "LineString", "coordinates": [[28.065669, 60.540752], [28.065891, 60.540384], [28.066564, 60.540484]]}},
{"type": "Feature", "id": "way/540717775", "properties": {"ProjectID": "P0753", "@id": "way/540717775", "diameter": "1200", "layer": "-1", "location": "underground", "man_made": "pipeline", "name": "Северный поток 1A", "name:en": "Nord Stream 1A", "operator": "Nord Stream AG", "pressure": "220", "source": "Nord Stream AG", "substance": "gas", "usage": "transmission"}, "geometry": {"type": "LineString", "coordinates": [[28.067065, 60.540291], [28.067682, 60.539119], [28.073622, 60.529022], [28.074451, 60.52778]]}},
{"type": "Feature", "id": "way/1284953139", "properties": {"ProjectID": "P0753", "@id": "way/1284953139", "diameter": "1200", "layer": "-1", "location": "underground", "man_made": "pipeline", "name": "Северный поток 1B", "name:en": "Nord Stream 1B", "operator": "Nord Stream AG", "pressure": "220", "source": "Nord Stream AG", "substance": "gas", "usage": "transmission"}, "geometry": {"type": "LineString", "coordinates": [[28.06671, 60.540241], [28.067364, 60.539081], [28.073279, 60.528965], [28.074451, 60.52778]]}}
]
}
