{
"type": "FeatureCollection",
"features": [
{"type": "Feature", "properties": {"ProjectID": "P0752", "wikidata": "Q21644350", "@id": "relation/16489915", "route": "pipeline", "type": "route", "name": "Nord Stream 2", "wikipedia": "en:Nord Stream 2"}, "geometry": {"type": "LineString", "coordinates": [[28.156517, 59.546137], [28.121929, 59.5449], [28.088522, 59.543719], [28.065467, 59.543017], [27.95538, 59.539259], [27.941279, 59.540018], [27.911217, 59.5453], [27.748867, 59.59295], [27.616251, 59.622249], [27.49295, 59.649467], [27.475233, 59.65235], [27.33695, 59.675033], [27.260483, 59.700967], [27.247417, 59.704867], [27.151333, 59.726767], [27.12945, 59.733383], [27.097417, 59.750817], [26.970767, 59.852333], [26.964133, 59.856817], [26.956017, 59.860683], [26.947983, 59.86395], [26.940233, 59.866417], [26.80405, 59.898867], [26.7306, 59.912233], [26.712883, 59.917683], [26.6642, 59.937117], [26.657767, 59.938883], [26.637233, 59.94285], [26.59295, 59.945417], [26.57805, 59.947417], [26.556, 59.953383], [26.51365, 59.973533], [26.5043, 59.977017], [26.485183, 59.9818], [26.4745, 59.983517], [26.44105, 59.987467], [26.4173, 59.995283], [26.395433, 60.00755], [26.389967, 60.010133], [26.376733, 60.015167], [26.355515, 60.023547], [26.344764, 60.02686], [26.332018, 60.029604], [26.318006, 60.03148], [26.304595, 60.032058], [26.287537, 60.03164], [26.277666, 60.032026], [26.26492, 60.033923], [26.255586, 60.035467], [26.247304, 60.036238], [26.239664, 60.036153], [26.234, 60.035681], [26.222885, 60.034084], [26.216533, 60.032851], [26.210074, 60.031319], [26.188982, 60.024812], [26.181986, 60.023139], [26.172223, 60.021349], [26.165786, 60.020277], [26.157503, 60.018111], [26.152182, 60.016138], [26.146624, 60.013607], [26.139865, 60.01055], [26.127183, 60.006464], [26.112292, 60.001529], [26.104696, 59.998385], [26.098237, 59.994973], [26.095705, 59.993396], [26.089675, 59.990337], [26.082208, 59.987761], [26.076157, 59.986259], [26.064699, 59.984198], [26.056266, 59.982116], [26.048241, 59.978927], [26.03292, 59.971508], [26.025324, 59.968029], [26.020582, 59.966214], [26.010904, 59.96325], [26.003952, 59.960468], [25.998116, 59.957245], [25.993695, 59.953839], [25.988781, 59.948585], [25.981057, 59.94002], [25.976958, 59.936569], [25.97213, 59.933645], [25.967174, 59.931302], [25.945566, 59.922743], [25.940587, 59.920431], [25.931318, 59.914547], [25.927649, 59.912686], [25.923743, 59.911202], [25.918958, 59.909642], [25.91104, 59.907921], [25.901813, 59.906791], [25.889733, 59.90579], [25.880871, 59.905392], [25.871365, 59.905328], [25.807765, 59.906178], [25.786607, 59.907361], [25.778646, 59.907673], [25.769784, 59.907426], [25.760214, 59.906576], [25.751975, 59.905177], [25.731718, 59.900152], [25.727191, 59.899108], [25.718543, 59.897741], [25.711849, 59.897236], [25.704467, 59.897128], [25.69803, 59.897483], [25.691721, 59.89815], [25.684726, 59.899442], [25.678697, 59.901034], [25.662775, 59.906328], [25.655394, 59.907878], [25.649171, 59.908792], [25.641146, 59.909384], [25.633378, 59.909395], [25.621147, 59.908469], [25.609903, 59.907684], [25.60411, 59.907684], [25.598037, 59.907921], [25.588725, 59.908706], [25.580635, 59.908738], [25.573576, 59.9082], [25.567117, 59.907404], [25.561109, 59.906985], [25.555122, 59.906683], [25.50137, 59.905489], [25.462274, 59.903961], [25.456846, 59.903864], [25.451138, 59.903972], [25.432534, 59.904919], [25.426762, 59.904983], [25.420239, 59.904618], [25.405777, 59.903294], [25.396764, 59.902487], [25.390112, 59.902433], [25.379941, 59.902982], [25.370393, 59.903692], [25.363419, 59.904026], [25.307651, 59.906608], [25.300913, 59.907243], [25.292523, 59.908276], [25.284197, 59.909825], [25.279455, 59.910546], [25.272868, 59.911084], [25.198109, 59.91274], [25.185256, 59.912902], [25.178454, 59.912643], [25.16573, 59.911665], [25.159936, 59.911417], [25.15279, 59.91132], [25.127277, 59.911923], [25.118587, 59.911826], [25.110197, 59.911288], [25.100241, 59.910406], [25.087752, 59.910212], [25.055802, 59.910868], [25.043979, 59.910632], [25.036404, 59.910083], [25.009367, 59.906662], [25.003531, 59.905554], [24.994175, 59.903391], [24.983897, 59.900206], [24.974027, 59.896299], [24.965336, 59.892866], [24.958255, 59.890433], [24.93978, 59.885126], [24.92624, 59.881164], [24.919074, 59.879613], [24.913001, 59.878752], [24.901607, 59.877546], [24.89017, 59.87648], [24.882982, 59.875457], [24.876008, 59.873949], [24.871287, 59.8727], [24.860022, 59.869544], [24.85101, 59.867702], [24.843135, 59.866452], [24.826698, 59.864772], [24.810777, 59.863059], [24.805176, 59.86196], [24.79625, 59.859708], [24.78801, 59.857995], [24.780371, 59.856907], [24.775393, 59.856131], [24.755437, 59.851519], [24.74473, 59.849029], [24.736297, 59.847747], [24.729281, 59.847165], [24.72441, 59.847122], [24.718659, 59.847316], [24.71117, 59.848102], [24.702845, 59.848415], [24.696085, 59.848124], [24.687953, 59.847262], [24.682331, 59.846184], [24.660509, 59.840406], [24.65317, 59.83798], [24.635983, 59.831877], [24.630532, 59.83012], [24.618022, 59.827078], [24.613044, 59.825773], [24.604526, 59.822958], [24.599569, 59.82079], [24.58575, 59.813854], [24.582381, 59.812322], [24.575751, 59.810012], [24.571309, 59.808933], [24.558391, 59.80643], [24.552641, 59.805038], [24.545581, 59.802642], [24.537127, 59.798907], [24.531827, 59.796716], [24.524381, 59.794071], [24.516163, 59.791847], [24.510305, 59.790552], [24.502537, 59.789202], [24.41853, 59.77459], [24.410634, 59.773057], [24.403231, 59.771112], [24.381173, 59.763949], [24.374413, 59.762058], [24.368942, 59.760837], [24.359973, 59.759281], [24.352226, 59.757476], [24.341648, 59.754666], [24.334867, 59.753369], [24.318216, 59.751272], [24.310792, 59.749867], [24.304504, 59.747975], [24.300106, 59.746159], [24.290364, 59.740753], [24.284913, 59.738287], [24.278219, 59.736103], [24.261911, 59.732155], [24.254701, 59.730825], [24.245131, 59.729819], [24.23526, 59.729646], [24.226999, 59.729992], [24.219768, 59.730252], [24.21037, 59.730219], [24.182775, 59.729613], [24.175673, 59.729062], [24.168463, 59.728262], [24.161274, 59.727147], [24.152927, 59.725654], [24.14649, 59.723902], [24.140503, 59.721814], [24.132628, 59.718676], [24.127092, 59.715614], [24.118896, 59.709749], [24.115505, 59.707779], [24.110055, 59.705214], [24.101472, 59.702031], [24.097953, 59.700429], [24.083673, 59.693029], [24.079478, 59.691274], [24.075133, 59.689861], [24.070101, 59.68861], [24.047023, 59.683515], [24.041144, 59.68216], [24.035777, 59.681148], [24.030275, 59.680281], [24.022636, 59.679301], [23.956633, 59.671717], [23.947341, 59.670385], [23.941398, 59.669214], [23.934381, 59.667481], [23.92657, 59.665129], [23.913202, 59.660187], [23.891444, 59.652198], [23.88093, 59.648641], [23.872755, 59.646462], [23.864965, 59.644933], [23.854387, 59.643436], [23.842993, 59.641951], [23.831384, 59.640964], [23.823166, 59.640552], [23.816578, 59.639955], [23.808403, 59.638968], [23.755853, 59.634337], [23.748472, 59.633404], [23.674142, 59.623455], [23.668606, 59.623086], [23.653328, 59.622804], [23.647299, 59.622544], [23.639874, 59.621882], [23.634145, 59.621144], [23.625648, 59.619679], [23.617988, 59.617737], [23.599298, 59.612994], [23.594159, 59.611984], [23.590661, 59.611393], [23.585951, 59.610731], [23.564816, 59.60799], [23.552833, 59.605583], [23.548767, 59.604433], [23.536833, 59.600267], [23.530433, 59.598617], [23.5231, 59.59695], [23.51185, 59.595283], [23.5001, 59.59445], [23.490717, 59.593083], [23.4674, 59.589667], [23.45575, 59.589433], [23.441283, 59.589483], [23.428033, 59.587933], [23.408, 59.583617], [23.399483, 59.582717], [23.383067, 59.58235], [23.364233, 59.580683], [23.3574, 59.579767], [23.114817, 59.542183], [23.10905, 59.541233], [23.082133, 59.529267], [23.0476, 59.52835], [23.003433, 59.520467], [22.931333, 59.51075], [22.915867, 59.509233], [22.899917, 59.50645], [22.758767, 59.487267], [22.739667, 59.48605], [22.733033, 59.485283], [22.706083, 59.480717], [22.6958, 59.479833], [22.685617, 59.479533], [22.64175, 59.481067], [22.637067, 59.480983], [22.6301, 59.480867], [22.573667, 59.47925], [22.568983, 59.479033], [22.56455, 59.478567], [22.486683, 59.466917], [22.410533, 59.457633], [22.382783, 59.452883], [22.352933, 59.446533], [22.349233, 59.446017], [22.328483, 59.4444], [22.309367, 59.4406], [22.2505, 59.423167], [22.103333, 59.405333], [22.0035, 59.3875], [21.917833, 59.367], [21.8455, 59.361], [21.763333, 59.343611], [21.718, 59.334], [21.549, 59.291333], [21.457, 59.283333], [21.400667, 59.265833], [21.3415, 59.255167], [21.210333, 59.243667], [21.1565, 59.244], [21.115333, 59.234333], [21.087, 59.221833], [21.060667, 59.196], [21.031833, 59.18], [21.016667, 59.155333], [21.003167, 59.145167], [20.836833, 59.093667], [20.799833, 59.075], [20.7615, 59.045], [20.627667, 58.984167], [20.510333, 58.9195], [20.5, 58.915], [20.430833, 58.885833], [20.243833, 58.699667], [20.1595, 58.593333], [20.1185, 58.558833], [20.112222, 58.55], [20.108, 58.544167], [20.09555, 58.497867], [20.1, 58.48715], [20.114867, 58.464383], [20.136117, 58.431933], [20.13915, 58.422267], [20.13815, 58.373717], [20.104417, 58.28585], [20.077033, 58.237617], [20.063696, 58.208765], [20.051217, 58.18175], [19.962533, 57.990917], [19.952433, 57.968317], [19.947383, 57.9616], [19.72675, 57.725017], [19.724417, 57.72165], [19.713767, 57.698233], [19.709533, 57.693367], [19.6681, 57.649217], [19.621433, 57.61095], [19.617633, 57.60665], [19.447477, 57.38253], [19.245738, 57.11185], [19.173307, 57.013659], [19.0, 56.775667], [18.979517, 56.748567], [18.945583, 56.715033], [18.8983, 56.646917], [18.891117, 56.6385], [18.88775, 56.632567], [18.877483, 56.60895], [18.8433, 56.5594], [18.84055, 56.555017], [18.835783, 56.542733], [18.829483, 56.534083], [18.821833, 56.527733], [18.779883, 56.50145], [18.7609, 56.4861], [18.589467, 56.344283], [18.55995, 56.3316], [18.550983, 56.32945], [18.48265, 56.316367], [18.114867, 56.24505], [17.900883, 56.171467], [17.86205, 56.160617], [17.805817, 56.138167], [17.489233, 56.026117], [17.445933, 56.003317], [17.345567, 55.976367], [17.303433, 55.9614], [16.872188, 55.805967], [16.472217, 55.66125], [16.396483, 55.642533], [16.007717, 55.578583], [15.790383, 55.542633], [15.76985, 55.540217], [15.738867, 55.528983], [15.730467, 55.5222], [15.724117, 55.512217], [15.722767, 55.50515], [15.724722, 55.483333], [15.728677, 55.447298], [15.731797, 55.418841], [15.738933, 55.33675], [15.732513, 55.324623], [15.638464, 55.194294], [15.575278, 55.108333], [15.557222, 55.083333], [15.496751, 54.997567], [15.437778, 54.916667], [15.41, 54.876667], [15.391116, 54.8517], [15.390833, 54.850833], [15.383333, 54.84575], [15.255633, 54.786783], [14.816667, 54.68365], [14.79885, 54.681567], [14.580737, 54.672065], [14.570274, 54.670456], [14.555511, 54.666287], [14.542122, 54.659535], [14.506217, 54.633317], [14.48425, 54.617967], [14.470539, 54.610454], [14.233475, 54.553947], [14.211159, 54.550064], [14.187298, 54.548372], [14.113397, 54.550562], [14.097862, 54.549119], [14.088078, 54.547525], [14.055633, 54.531641], [14.047653, 54.523562], [13.882717, 54.390483], [13.876667, 54.387733], [13.854633, 54.382467], [13.850163, 54.380749], [13.844007, 54.377742], [13.839399, 54.374112], [13.833744, 54.365266], [13.823173, 54.339597], [13.814567, 54.321417], [13.806743, 54.312972], [13.75972, 54.276839], [13.72545, 54.251433], [13.702567, 54.2363], [13.699282, 54.235201], [13.663142, 54.226052], [13.656178, 54.223167], [13.655181, 54.222783], [13.649791, 54.218995], [13.615733, 54.1871], [13.61122, 54.178738], [13.61123, 54.17372], [13.6118, 54.1719], [13.614899, 54.166567], [13.617537, 54.163852], [13.622435, 54.160388], [13.623633, 54.1597], [13.642563, 54.1486], [13.644934, 54.147167], [13.647206, 54.145836], [13.648006, 54.145368], [13.648399, 54.145139]]}},
{"type": "Feature", "properties": {"ProjectID": "P0752", "@id": "relation/11093828", "source": "aerial imagery", "diameter": "1153", "fixme": "route, how much lines, how diameter", "name": "Nord Stream 2 onshore", "man_made": "pipeline", "type": "route", "substance": "gas", "description": "from kompressor station Volkhov to Nord Stream 2 offshore", "nota": "uncomplead!, part 1 , KS Volkhov -> Pcheva unsafe"}, "geometry": {"type": "LineString", "coordinates": [[32.390926, 59.779744], [32.390163, 59.778544], [32.387223, 59.777323], [32.386601, 59.776535], [32.377567, 59.778932], [32.364263, 59.726855], [32.362075, 59.7248], [32.351239, 59.716209], [32.349544, 59.709987], [32.345488, 59.704391], [32.337264, 59.693862], [32.322029, 59.686553], [32.307192, 59.676549], [32.266138, 59.663053], [32.252469, 59.655244], [32.241568, 59.644358], [32.230657, 59.6331], [32.234155, 59.621828], [32.234724, 59.618122], [32.235893, 59.614763], [32.240292, 59.602165], [32.216222, 59.587235], [32.204533, 59.588824], [32.176466, 59.587523], [32.172754, 59.586782], [32.168205, 59.585054], [32.156038, 59.580676], [32.150202, 59.579677], [32.122039, 59.580676], [32.118949, 59.581366], [32.112823, 59.581747], [32.10721, 59.581417], [32.080841, 59.575789], [32.067512, 59.572303], [32.059178, 59.575439], [32.03639, 59.580264], [32.006938, 59.585877], [31.997241, 59.578423], [31.995449, 59.575809], [31.994419, 59.573831], [31.987123, 59.57244], [31.974249, 59.570114], [31.972361, 59.567658], [31.968198, 59.561658], [31.96764, 59.559114], [31.964636, 59.556266], [31.959658, 59.548915], [31.954594, 59.541302], [31.931503, 59.507031], [31.930462, 59.504388], [31.929145, 59.498331], [31.920175, 59.494236], [31.916184, 59.491338], [31.912579, 59.488506], [31.900735, 59.487308], [31.8858, 59.485739], [31.873269, 59.480334], [31.871123, 59.475278], [31.870565, 59.474057], [31.853914, 59.46876], [31.833744, 59.46235], [31.826856, 59.461128], [31.798146, 59.459624], [31.794562, 59.459138], [31.786365, 59.458086], [31.785668, 59.458064], [31.781795, 59.458201], [31.781398, 59.458146], [31.779907, 59.457754], [31.774328, 59.456516], [31.769157, 59.455843], [31.750617, 59.453397], [31.750231, 59.450703], [31.749287, 59.442937], [31.748686, 59.436129], [31.732979, 59.428665], [31.716671, 59.421025], [31.703625, 59.41478], [31.680107, 59.412378], [31.650152, 59.40919], [31.628008, 59.409146], [31.623373, 59.40967], [31.584749, 59.409583], [31.579256, 59.405171], [31.569815, 59.397787], [31.561918, 59.391582], [31.555996, 59.386731], [31.550674, 59.382578], [31.540975, 59.374709], [31.531963, 59.3678], [31.523294, 59.360758], [31.515055, 59.35424], [31.505699, 59.346758], [31.498318, 59.333452], [31.503038, 59.321937], [31.507502, 59.31068], [31.51351, 59.295608], [31.508462, 59.284901], [31.503878, 59.281952], [31.488962, 59.272372], [31.466646, 59.260967], [31.444674, 59.260266], [31.43167, 59.259805], [31.428623, 59.258379], [31.426177, 59.257173], [31.417208, 59.252829], [31.415019, 59.251753], [31.412573, 59.250547], [31.409054, 59.248857], [31.404762, 59.246707], [31.401372, 59.240606], [31.403775, 59.238323], [31.393175, 59.22739], [31.385665, 59.227346], [31.37455, 59.217903], [31.368799, 59.215092], [31.359916, 59.207447], [31.359744, 59.205316], [31.350002, 59.194834], [31.34953, 59.193472], [31.344724, 59.191845], [31.344938, 59.18934], [31.336956, 59.18081], [31.329832, 59.173135], [31.325498, 59.168715], [31.324811, 59.167395], [31.323438, 59.166449], [31.321378, 59.164096], [31.315413, 59.157826], [31.308589, 59.150652], [31.300006, 59.149464], [31.296186, 59.148716], [31.28859, 59.147329], [31.282453, 59.138943], [31.282196, 59.13749], [31.280093, 59.135399], [31.269107, 59.130995], [31.257734, 59.126195], [31.242757, 59.122297], [31.22735, 59.118244], [31.211429, 59.114036], [31.197653, 59.110379], [31.183534, 59.111151], [31.181281, 59.110963], [31.153267, 59.112265], [31.141047, 59.114103], [31.118174, 59.117429], [31.101651, 59.119786], [31.084743, 59.11994], [31.080151, 59.120513], [31.069207, 59.120072], [31.062169, 59.123288], [31.057878, 59.125358], [31.04938, 59.129322], [31.043973, 59.131876], [31.041183, 59.132272], [31.033373, 59.134364], [31.024918, 59.136477], [31.019211, 59.14099], [31.013203, 59.145547], [31.008139, 59.149508], [31.004662, 59.151841], [30.997796, 59.15655], [30.991187, 59.160928], [30.987024, 59.16062], [30.98402, 59.162512], [30.979643, 59.165525], [30.973978, 59.169177], [30.969429, 59.172454], [30.965395, 59.172784], [30.959644, 59.173135], [30.958571, 59.174081], [30.954409, 59.17716], [30.952263, 59.178567], [30.953636, 59.182964], [30.946426, 59.187625], [30.940247, 59.192329], [30.938272, 59.192768], [30.936985, 59.19356], [30.936985, 59.194439], [30.92926, 59.19945], [30.921879, 59.204547], [30.915699, 59.208678], [30.90884, 59.213541], [30.90703, 59.214082], [30.903425, 59.216234], [30.902824, 59.217552], [30.893984, 59.22335], [30.891237, 59.224667], [30.89055, 59.225765], [30.879564, 59.23323], [30.869994, 59.239793], [30.856819, 59.24844], [30.845489, 59.256141], [30.842872, 59.25601], [30.828238, 59.255308], [30.806608, 59.254299], [30.792017, 59.255439], [30.782061, 59.253465], [30.770979, 59.253372], [30.768886, 59.253355], [30.760775, 59.253443], [30.749788, 59.253662], [30.744832, 59.253597], [30.741355, 59.253509], [30.729017, 59.253048], [30.717151, 59.252565], [30.710306, 59.252214], [30.704169, 59.251896], [30.702131, 59.252686], [30.694556, 59.253739], [30.685179, 59.25511], [30.675931, 59.256448], [30.665631, 59.257962], [30.656168, 59.259443], [30.653455, 59.259812], [30.642829, 59.261535], [30.511909, 59.259629], [30.50487, 59.259081], [30.497274, 59.25884], [30.482512, 59.25794], [30.470152, 59.257304], [30.466016, 59.257035], [30.459681, 59.256679], [30.419597, 59.27167], [30.329647, 59.273995], [30.311966, 59.273337], [30.301838, 59.272898], [30.288877, 59.272547], [30.271454, 59.271846], [30.265885, 59.271621], [30.252571, 59.269433], [30.249567, 59.267635], [30.239954, 59.266363], [30.233517, 59.266407], [30.221243, 59.263731], [30.216522, 59.262985], [30.214458, 59.262046], [30.208969, 59.260309], [30.201759, 59.25794], [30.19515, 59.255747], [30.19196, 59.254709], [30.187597, 59.253289], [30.175924, 59.249471], [30.168028, 59.247058], [30.160732, 59.244644], [30.15584, 59.243195], [30.15275, 59.242186], [30.151119, 59.238762], [30.149059, 59.235557], [30.139961, 59.233274], [30.132065, 59.231122], [30.126743, 59.22963], [30.120392, 59.225985], [30.113525, 59.2219], [30.109835, 59.220407], [30.106316, 59.218255], [30.103655, 59.215795], [30.098247, 59.212939], [30.089149, 59.207535], [30.087433, 59.205646], [30.082798, 59.203185], [30.074558, 59.198175], [30.066318, 59.19334], [30.059195, 59.188988], [30.053015, 59.185383], [30.045376, 59.181293], [30.037651, 59.17738], [30.03469, 59.175598], [30.029411, 59.172981], [30.027566, 59.171442], [30.025721, 59.169815], [30.019627, 59.168979], [30.009542, 59.167329], [30.003834, 59.166405], [29.998984, 59.166911], [29.996367, 59.167175], [29.757843, 59.23143], [29.707718, 59.237181], [29.674759, 59.241176], [29.655962, 59.243239], [29.640083, 59.244776], [29.607816, 59.247996], [29.503784, 59.259037], [29.485588, 59.262854], [29.325771, 59.274214], [29.284361, 59.274065], [29.233589, 59.272811], [29.157886, 59.270662], [29.145441, 59.264828], [29.098663, 59.274608], [29.090166, 59.276319], [29.084158, 59.277941], [29.070425, 59.282019], [29.056778, 59.286184], [29.045019, 59.289559], [29.037208, 59.291926], [29.022016, 59.296397], [29.007597, 59.300428], [28.992834, 59.304854], [28.985538, 59.307877], [28.968887, 59.314842], [28.955927, 59.320448], [28.94434, 59.325221], [28.93507, 59.325571], [28.920221, 59.326272], [28.901167, 59.327191], [28.894215, 59.326929], [28.889065, 59.326666], [28.876705, 59.327279], [28.864946, 59.327892], [28.845699, 59.328636], [28.839712, 59.328855], [28.836215, 59.328997], [28.834755, 59.329983], [28.833661, 59.331022], [28.831429, 59.331198], [28.827224, 59.331526], [28.817782, 59.332401], [28.809843, 59.333233], [28.802247, 59.334043], [28.796368, 59.334568], [28.78624, 59.336932], [28.781562, 59.337994], [28.773365, 59.339843], [28.762722, 59.342316], [28.758817, 59.343738], [28.75534, 59.344942], [28.75401, 59.346605], [28.751736, 59.347633], [28.747187, 59.349558], [28.736544, 59.350258], [28.732159, 59.351908], [28.721781, 59.357127], [28.717833, 59.357652], [28.715086, 59.362464], [28.709164, 59.363208], [28.699036, 59.3678], [28.686617, 59.383558], [28.681999, 59.389627], [28.675341, 59.397821], [28.67496, 59.40563], [28.674188, 59.412138], [28.652515, 59.412916], [28.636655, 59.416745], [28.630371, 59.417946], [28.623633, 59.419846], [28.621702, 59.424081], [28.618827, 59.431371], [28.615479, 59.439817], [28.596811, 59.443766], [28.586383, 59.444922], [28.579044, 59.447453], [28.556685, 59.448915], [28.55072, 59.449656], [28.546901, 59.450354], [28.537889, 59.452754], [28.5151, 59.459035], [28.498426, 59.463556], [28.492484, 59.465119], [28.480425, 59.468416], [28.435382, 59.480943], [28.428583, 59.485989], [28.349743, 59.512135], [28.342441, 59.514566], [28.335222, 59.517087], [28.332694, 59.519775], [28.32222, 59.522054], [28.303606, 59.524187], [28.298228, 59.525149], [28.291643, 59.527431], [28.284542, 59.530857], [28.280482, 59.534362], [28.266191, 59.547436], [28.264046, 59.550046], [28.261642, 59.551351], [28.256578, 59.556005], [28.255582, 59.557915], [28.25182, 59.562712], [28.239745, 59.565087], [28.235078, 59.56506], [28.235249, 59.570962], [28.239713, 59.571049], [28.239799, 59.573657], [28.233833, 59.573755], [28.221731, 59.573712], [28.221517, 59.572549], [28.22789, 59.567484], [28.231988, 59.562049], [28.221838, 59.556603], [28.215165, 59.555483], [28.203513, 59.553374], [28.167879, 59.54764], [28.158858, 59.546226], [28.157244, 59.546151], [28.156517, 59.546137]]}}
]
}
