{
"type": "FeatureCollection",
"features": [
{"type": "Feature", "properties": {"ProjectID": "P0768", "name:en": "Urengoy–Pomary–Uzhgorod pipeline", "wikipedia": "en:Urengoy–Pomary–Uzhhorod pipeline", "route": "pipeline", "type": "route", "note": "\"Прогресс\" до Ямала", "wikidata": "Q2426237", "substance": "gas", "name": "Уренгой — Помары — Ужгород", "@id": "relation/8198213", "name:ru": "Уренгой — Помары — Ужгород", "wikipedia:ru": "Газопровод «Уренгой — Помары — Ужгород»", "wikipedia:uk": "Газопровід Уренгой — Помари — Ужгород", "name:uk": "Уренгой - Помари - Ужгород"}, "geometry": {"type": "LineString", "coordinates": [[24.045958, 48.85557], [24.045163, 48.856061], [24.043686, 48.856096], [24.041154, 48.855722], [24.039255, 48.854713], [24.036874, 48.853117], [24.033312, 48.852468], [24.032003, 48.852066], [24.027593, 48.850124], [24.022175, 48.850054], [24.020051, 48.850527], [24.01945, 48.850371], [24.018924, 48.848754], [24.017197, 48.846057], [24.01489, 48.84545], [24.011137, 48.84558], [24.00532, 48.845567], [23.995868, 48.843403], [23.989087, 48.840931], [23.984002, 48.838622], [23.982256, 48.838094], [23.977135, 48.839321], [23.975075, 48.838876], [23.973552, 48.839074], [23.958905, 48.840953], [23.952381, 48.846961], [23.950009, 48.846983], [23.946939, 48.846394], [23.943482, 48.844707], [23.908985, 48.845519], [23.90086, 48.851588], [23.898885, 48.853114], [23.896129, 48.855612], [23.896154, 48.855684], [23.896377, 48.855779], [23.896387, 48.855823], [23.887174, 48.864037], [23.883462, 48.872337], [23.877647, 48.877093], [23.863592, 48.887789], [23.861285, 48.889319], [23.849666, 48.890406], [23.84855, 48.890667], [23.847885, 48.89109], [23.847091, 48.891013], [23.841008, 48.888268], [23.822742, 48.881242], [23.821567, 48.880938], [23.820452, 48.880952], [23.819293, 48.881298], [23.817512, 48.882363], [23.812216, 48.886608], [23.811741, 48.88712], [23.811171, 48.887704], [23.802502, 48.886843], [23.79644, 48.888353], [23.789231, 48.889051], [23.787609, 48.888618], [23.787001, 48.888289], [23.786999, 48.888209], [23.785722, 48.887506], [23.773234, 48.886928], [23.767269, 48.889891], [23.7611, 48.893093], [23.753933, 48.894765], [23.752286, 48.896527], [23.751808, 48.897068], [23.751808, 48.897105], [23.751822, 48.897137], [23.751862, 48.897165], [23.752246, 48.897313], [23.752278, 48.897341], [23.752281, 48.897373], [23.752262, 48.897414], [23.750851, 48.898874], [23.742757, 48.900016], [23.738581, 48.899179], [23.736982, 48.898519], [23.734677, 48.89679], [23.731316, 48.895133], [23.72893, 48.894438], [23.725215, 48.891978], [23.723779, 48.888769], [23.72123, 48.887682], [23.720021, 48.88684], [23.719645, 48.886578], [23.718926, 48.886077], [23.718817, 48.885667], [23.713096, 48.883118], [23.712086, 48.882292], [23.71237, 48.881537], [23.712084, 48.880863], [23.71141, 48.880558], [23.709841, 48.87969], [23.70672, 48.8784], [23.705312, 48.877368], [23.703332, 48.875656], [23.701121, 48.873885], [23.699517, 48.873416], [23.696361, 48.871094], [23.695273, 48.87066], [23.691261, 48.869616], [23.690084, 48.868138], [23.688979, 48.86652], [23.688105, 48.865816], [23.686571, 48.86469], [23.684307, 48.861804], [23.681186, 48.857276], [23.679154, 48.856865], [23.678066, 48.856337], [23.675855, 48.854988], [23.673965, 48.854002], [23.671433, 48.853615], [23.66981, 48.852876], [23.667617, 48.852184], [23.665869, 48.851527], [23.662678, 48.849896], [23.660467, 48.848734], [23.658951, 48.848852], [23.657025, 48.848558], [23.655438, 48.847922], [23.652072, 48.846545], [23.65098, 48.846868], [23.649252, 48.846521], [23.648961, 48.845419], [23.648178, 48.844078], [23.64796, 48.842916], [23.642356, 48.839444], [23.639881, 48.838114], [23.638426, 48.837911], [23.633885, 48.834766], [23.631929, 48.834539], [23.631088, 48.834587], [23.626801, 48.835958], [23.626399, 48.836282], [23.626621, 48.838481], [23.623572, 48.840536], [23.622035, 48.842215], [23.622102, 48.84267], [23.624215, 48.846568], [23.621996, 48.846712], [23.615573, 48.849059], [23.611697, 48.849334], [23.60733, 48.84864], [23.60643, 48.84819], [23.60613, 48.84804], [23.605935, 48.847942], [23.602749, 48.847196], [23.600917, 48.847095], [23.600153, 48.846909], [23.598582, 48.846191], [23.596836, 48.84586], [23.593302, 48.846119], [23.59208, 48.846162], [23.588196, 48.847038], [23.587432, 48.846966], [23.58512, 48.846463], [23.582676, 48.846377], [23.580691, 48.846234], [23.576829, 48.845645], [23.57517, 48.845645], [23.573272, 48.845099], [23.569607, 48.844023], [23.567469, 48.842759], [23.565374, 48.843161], [23.564043, 48.843936], [23.561621, 48.844023], [23.558196, 48.844008], [23.555665, 48.844223], [23.553984, 48.844999], [23.552457, 48.846363], [23.544624, 48.847181], [23.53706, 48.847868], [23.5308, 48.847385], [23.528144, 48.846244], [23.526825, 48.845718], [23.524776, 48.845253], [23.524126, 48.843692], [23.521954, 48.843494], [23.517169, 48.841468], [23.512931, 48.840211], [23.506783, 48.838128], [23.50365, 48.837358], [23.501625, 48.837732], [23.499262, 48.838138], [23.498332, 48.838093], [23.496337, 48.837373], [23.492646, 48.836229], [23.490442, 48.834852], [23.489233, 48.834749], [23.488649, 48.8347], [23.488103, 48.834654], [23.484241, 48.833962], [23.478812, 48.831815], [23.477353, 48.829272], [23.479349, 48.826687], [23.479364, 48.825211], [23.476317, 48.822809], [23.475915, 48.82163], [23.47445, 48.821029], [23.472712, 48.818726], [23.471838, 48.816939], [23.471667, 48.815017], [23.47113, 48.813718], [23.469622, 48.810672], [23.467654, 48.809224], [23.463363, 48.810312], [23.459457, 48.809535], [23.455509, 48.810778], [23.452863, 48.810305], [23.450402, 48.809337], [23.447721, 48.809866], [23.441841, 48.811047], [23.439026, 48.81094], [23.436094, 48.808158], [23.434008, 48.806157], [23.428805, 48.8048], [23.428192, 48.805025], [23.426117, 48.805786], [23.422229, 48.803165], [23.418954, 48.800486], [23.416735, 48.799756], [23.416445, 48.798068], [23.415626, 48.797181], [23.413962, 48.796172], [23.412562, 48.794693], [23.411136, 48.793458], [23.410133, 48.791544], [23.407941, 48.789178], [23.406911, 48.785315], [23.399859, 48.784427], [23.388001, 48.784601], [23.385817, 48.785095], [23.384303, 48.785437], [23.38087, 48.784044], [23.379376, 48.783678], [23.374182, 48.784072], [23.366794, 48.783132], [23.36518, 48.78211], [23.363552, 48.780728], [23.36204, 48.779504], [23.359978, 48.778463], [23.360045, 48.776589], [23.359488, 48.772749], [23.359633, 48.772095], [23.359747, 48.771385], [23.359621, 48.770773], [23.359438, 48.770222], [23.35898, 48.769504], [23.357833, 48.768643], [23.356928, 48.767842], [23.356263, 48.767004], [23.355564, 48.765954], [23.355071, 48.764813], [23.354349, 48.763536], [23.348, 48.761412], [23.346827, 48.760595], [23.342729, 48.759379], [23.3412, 48.757639], [23.340132, 48.756938], [23.338469, 48.756337], [23.335937, 48.755538], [23.327966, 48.754321], [23.325015, 48.7536], [23.320724, 48.753451], [23.317602, 48.753642], [23.316346, 48.756641], [23.315113, 48.758099], [23.31287, 48.760029], [23.310199, 48.761196], [23.307688, 48.761232], [23.304212, 48.76336], [23.302946, 48.764789], [23.301272, 48.766019], [23.298848, 48.766755], [23.297217, 48.766656], [23.296316, 48.766741], [23.295747, 48.767363], [23.295133, 48.768493], [23.294513, 48.769633], [23.29314, 48.770934], [23.291241, 48.772115], [23.290608, 48.773579], [23.285759, 48.775813], [23.282229, 48.775509], [23.281016, 48.774519], [23.279793, 48.767519], [23.278506, 48.766281], [23.277336, 48.765786], [23.272798, 48.765751], [23.270298, 48.763898], [23.268861, 48.761603], [23.263797, 48.76155], [23.26134, 48.760836], [23.259526, 48.760744], [23.257531, 48.761161], [23.255729, 48.762151], [23.253905, 48.762646], [23.252939, 48.762759], [23.251866, 48.762469], [23.249119, 48.760574], [23.247575, 48.759824], [23.245203, 48.759817], [23.243197, 48.759082], [23.240118, 48.758742], [23.236626, 48.759732], [23.230947, 48.760722], [23.227271, 48.758459], [23.226191, 48.757874], [23.224165, 48.755876], [23.221684, 48.752771], [23.213435, 48.750684], [23.208811, 48.749682], [23.204813, 48.748568], [23.202694, 48.746198], [23.201073, 48.743001], [23.197342, 48.740277], [23.188926, 48.739871], [23.189317, 48.73661], [23.188171, 48.736686], [23.187818, 48.739817], [23.183368, 48.739602], [23.178399, 48.737723], [23.175508, 48.736545], [23.17061, 48.732014], [23.163168, 48.732064], [23.160536, 48.731766], [23.158303, 48.731367], [23.156319, 48.731441], [23.149471, 48.731878], [23.140549, 48.735195], [23.136441, 48.733596], [23.1308, 48.735022], [23.124849, 48.736367], [23.123251, 48.73873], [23.119558, 48.739915], [23.108494, 48.740753], [23.103227, 48.743214], [23.097267, 48.743562], [23.087688, 48.742424], [23.084749, 48.743382], [23.071159, 48.741618], [23.069392, 48.74165], [23.064571, 48.743012], [23.060839, 48.743512], [23.05537, 48.745182], [23.054423, 48.745323], [23.049611, 48.745538], [23.048455, 48.74495], [23.047719, 48.744361], [23.047431, 48.744131], [23.045202, 48.742347], [23.040948, 48.738616], [23.039811, 48.738262], [23.038947, 48.737817], [23.034275, 48.736607], [23.034178, 48.736897], [23.032172, 48.736713], [23.029401, 48.736469], [23.028143, 48.736273], [23.027375, 48.736154], [23.025469, 48.735857], [23.014043, 48.739244], [23.0115, 48.741433], [23.01041, 48.741901], [23.009138, 48.741901], [23.007461, 48.742807], [23.004588, 48.74436], [22.997885, 48.744991], [22.98686, 48.739671], [22.977219, 48.733718], [22.97033, 48.725062], [22.96723, 48.724385], [22.961608, 48.722467], [22.957231, 48.720471], [22.956158, 48.71994], [22.954935, 48.718579], [22.953926, 48.716557], [22.950729, 48.712698], [22.94838, 48.709923], [22.947382, 48.709769], [22.9417, 48.710642], [22.938191, 48.710395], [22.93277, 48.710276], [22.929635, 48.710803], [22.923338, 48.709732], [22.921494, 48.70971], [22.921219, 48.709707], [22.917674, 48.710022], [22.915399, 48.709952], [22.914037, 48.709959], [22.910356, 48.710865], [22.906666, 48.710794], [22.903297, 48.710759], [22.899113, 48.710214], [22.895046, 48.708805], [22.891077, 48.707916], [22.879414, 48.708182], [22.872108, 48.706185], [22.864566, 48.705378], [22.859148, 48.70137], [22.858322, 48.699784], [22.857957, 48.698056], [22.856948, 48.696711], [22.855532, 48.695578], [22.851713, 48.695422], [22.848451, 48.694841], [22.847743, 48.693489], [22.845973, 48.691775], [22.843913, 48.688651], [22.843226, 48.688071], [22.841681, 48.687455], [22.836006, 48.682553], [22.823152, 48.681965], [22.820245, 48.680123], [22.818764, 48.67927], [22.817295, 48.678473], [22.810847, 48.675285], [22.805536, 48.672472], [22.8003, 48.670828], [22.764949, 48.653686], [22.730048, 48.636014], [22.717474, 48.635064], [22.71507, 48.634667], [22.71359, 48.634284], [22.712388, 48.633745], [22.706466, 48.627066], [22.705543, 48.626255], [22.704325, 48.625186], [22.702193, 48.623314], [22.70196, 48.623109], [22.699717, 48.621066], [22.686381, 48.618208], [22.67577, 48.615995], [22.672155, 48.613491], [22.67002, 48.610803], [22.65765, 48.606639], [22.654839, 48.600622], [22.649388, 48.59628], [22.641148, 48.593669], [22.634346, 48.592718], [22.624712, 48.588914], [22.612588, 48.580504], [22.609541, 48.578069], [22.593877, 48.576323], [22.58567, 48.571084], [22.580906, 48.569622], [22.580284, 48.569331], [22.577548, 48.567172], [22.571433, 48.564716], [22.566444, 48.562879], [22.565899, 48.562377], [22.565084, 48.561625], [22.564526, 48.56111], [22.563428, 48.560097], [22.562956, 48.559356], [22.56233, 48.558409], [22.562319, 48.558393], [22.561991, 48.557753], [22.561391, 48.557109], [22.560974, 48.556615], [22.560118, 48.555603], [22.559577, 48.555038], [22.559101, 48.554586], [22.55816, 48.553622], [22.557674, 48.553226], [22.556764, 48.552363], [22.556265, 48.551974], [22.555744, 48.551421], [22.555521, 48.551184], [22.555091, 48.550777], [22.554972, 48.550664], [22.554567, 48.55028], [22.551243, 48.546897], [22.550114, 48.545748], [22.549846, 48.545476], [22.548668, 48.544277], [22.545179, 48.540726], [22.54505, 48.540658], [22.538388, 48.537125], [22.537069, 48.533573], [22.536976, 48.533325], [22.536802, 48.532855], [22.536524, 48.532106], [22.536486, 48.532009], [22.536427, 48.531856], [22.536372, 48.531713], [22.536324, 48.531588], [22.536221, 48.531323], [22.536012, 48.53078], [22.535716, 48.530013], [22.530309, 48.523533], [22.527852, 48.516704], [22.525773, 48.512011], [22.521245, 48.501759], [22.50316, 48.50538], [22.293727, 48.518978], [22.287247, 48.523426], [22.270049, 48.535413], [22.250662, 48.540904], [22.189032, 48.543273], [22.170764, 48.537284]]}},
{"type": "Feature", "properties": {"ProjectID": "P0768", "name:en": "Urengoy–Pomary–Uzhgorod pipeline", "wikipedia": "en:Urengoy–Pomary–Uzhhorod pipeline", "route": "pipeline", "type": "route", "note": "\"Прогресс\" до Ямала", "wikidata": "Q2426237", "substance": "gas", "name": "Уренгой — Помары — Ужгород", "@id": "relation/8198213", "name:ru": "Уренгой — Помары — Ужгород", "wikipedia:ru": "Газопровод «Уренгой — Помары — Ужгород»", "wikipedia:uk": "Газопровід Уренгой — Помари — Ужгород", "name:uk": "Уренгой - Помари - Ужгород"}, "geometry": {"type": "LineString", "coordinates": [[64.561147, 61.785336], [64.559409, 61.784224], [64.558237, 61.783359], [64.552364, 61.777919], [64.544796, 61.77097], [64.544442, 61.770556], [64.544293, 61.770204], [64.544227, 61.769812], [64.544077, 61.768337], [64.543895, 61.767874], [64.543459, 61.767415], [64.526791, 61.75163], [64.525982, 61.751084], [64.524859, 61.750538], [64.49835, 61.738272], [64.497459, 61.737656], [64.489556, 61.730197], [64.481613, 61.722738], [64.453829, 61.698409], [64.452968, 61.697769], [64.451586, 61.697114], [64.420562, 61.684354], [64.418949, 61.683632], [64.418022, 61.683041], [64.417384, 61.682283], [64.403755, 61.661386], [64.397, 61.651185], [64.393834, 61.646386], [64.390694, 61.641156], [64.389978, 61.640304], [64.378591, 61.630625], [64.37807, 61.630273], [64.337236, 61.612641], [64.296864, 61.595485], [64.285646, 61.590973], [64.274119, 61.586375], [64.266246, 61.583776], [64.26397, 61.582884], [64.236074, 61.568574], [64.197334, 61.55122], [64.148173, 61.529469], [64.135808, 61.523269], [64.117195, 61.514079], [64.095124, 61.502876], [64.094307, 61.502549], [64.0935, 61.502353], [64.09268, 61.502253], [64.063646, 61.500381], [64.057547, 61.500081], [64.050817, 61.499964], [64.012526, 61.499648], [64.005406, 61.499407], [63.953292, 61.49619], [63.952678, 61.496135], [63.951984, 61.49603], [63.951098, 61.495819], [63.920848, 61.486818], [63.859381, 61.468146], [63.810279, 61.459029], [63.744921, 61.446773], [63.718341, 61.441872], [63.710078, 61.440312], [63.693018, 61.43666], [63.692541, 61.436585], [63.691978, 61.436508], [63.691245, 61.436465], [63.616541, 61.436025], [63.568026, 61.43571], [63.550849, 61.435549], [63.537123, 61.43546], [63.535843, 61.435391], [63.534805, 61.435315], [63.511943, 61.43239], [63.46149, 61.425956], [63.43423, 61.42258], [63.430556, 61.422111], [63.428765, 61.421845], [63.413163, 61.418927], [63.396885, 61.416016], [63.373808, 61.411085], [63.362603, 61.409107], [63.345946, 61.405602], [63.315554, 61.398591], [63.297328, 61.394637], [63.296828, 61.394428], [63.288828, 61.38679], [63.249296, 61.350333], [63.23664, 61.34582], [63.219028, 61.339843], [63.205017, 61.334905], [63.181195, 61.323326], [63.163333, 61.318], [63.148198, 61.313664], [63.144846, 61.312213], [63.12486, 61.303943], [63.107838, 61.297028], [63.09359, 61.291321], [63.083593, 61.287284], [63.072596, 61.282351], [63.042951, 61.269857], [63.041636, 61.269341], [63.040725, 61.268807], [63.014727, 61.247373], [63.001006, 61.239057], [62.957779, 61.229878], [62.907902, 61.218587], [62.903827, 61.218042], [62.889459, 61.216762], [62.882458, 61.2162], [62.868074, 61.216229], [62.866519, 61.216341], [62.844732, 61.219377], [62.812006, 61.220659], [62.81035, 61.220599], [62.800101, 61.21909], [62.799324, 61.218933], [62.798848, 61.218735], [62.798539, 61.218487], [62.792694, 61.207048], [62.792316, 61.206767], [62.791648, 61.206454], [62.761247, 61.198381], [62.759814, 61.197837], [62.742309, 61.186823], [62.7276, 61.182451], [62.712325, 61.17957], [62.697462, 61.176895], [62.677659, 61.173493], [62.65692, 61.169139], [62.627976, 61.162542], [62.601568, 61.156331], [62.596491, 61.154428], [62.57872, 61.15155], [62.545699, 61.143001], [62.429102, 61.113895], [62.427437, 61.113582], [62.425758, 61.113438], [62.42311, 61.113444], [62.341581, 61.117174], [62.340616, 61.117152], [62.33973, 61.117026], [62.328421, 61.11404], [62.318941, 61.111075], [62.303925, 61.105942], [62.29325, 61.102235], [62.265362, 61.095088], [62.250149, 61.092319], [62.222616, 61.08815], [62.170762, 61.080249], [62.132239, 61.07448], [62.108549, 61.071451], [62.047323, 61.063445], [61.996, 61.054474], [61.983995, 61.052375], [61.973857, 61.048609], [61.959891, 61.045664], [61.958905, 61.045503], [61.95781, 61.04547], [61.956394, 61.045555], [61.891174, 61.052605], [61.889733, 61.052681], [61.888443, 61.052552], [61.887587, 61.052269], [61.884234, 61.050365], [61.880254, 61.047616], [61.866469, 61.037906], [61.842922, 61.021627], [61.839088, 61.019412], [61.835583, 61.017715], [61.745852, 60.978044], [61.69646, 60.954308], [61.649388, 60.939658], [61.602421, 60.924796], [61.60144, 60.924531], [61.567946, 60.921704], [61.566412, 60.921666], [61.56449, 60.921712], [61.555304, 60.922517], [61.553754, 60.922543], [61.495782, 60.917263], [61.480858, 60.908212], [61.478015, 60.90483], [61.450794, 60.889012], [61.435457, 60.887072], [61.422931, 60.885351], [61.402891, 60.885642], [61.401771, 60.885581], [61.400661, 60.885382], [61.329961, 60.870383], [61.261705, 60.854768], [61.259918, 60.854311], [61.258876, 60.85388], [61.248297, 60.849431], [61.245075, 60.84825], [61.242083, 60.84746], [61.199374, 60.836807], [61.147871, 60.823166], [61.107003, 60.812415], [61.053472, 60.798639], [61.052064, 60.798406], [61.05037, 60.798373], [61.044541, 60.798367], [61.043769, 60.798345], [61.043101, 60.798271], [61.042526, 60.798152], [61.04193, 60.79796], [61.026383, 60.790758], [61.02525, 60.790386], [61.024077, 60.790122], [61.001779, 60.786046], [61.000234, 60.785759], [60.998982, 60.785458], [60.997403, 60.784983], [60.995801, 60.784351], [60.960361, 60.768626], [60.958419, 60.767945], [60.955514, 60.767297], [60.939747, 60.765039], [60.89949, 60.75934], [60.894012, 60.758579], [60.8848, 60.756747], [60.875588, 60.754977], [60.872765, 60.754639], [60.871049, 60.75439], [60.869717, 60.754109], [60.8677, 60.753541], [60.862423, 60.751919], [60.851003, 60.749142], [60.817344, 60.7412], [60.814622, 60.740468], [60.813005, 60.7398], [60.793357, 60.729723], [60.792492, 60.729403], [60.791357, 60.729064], [60.780559, 60.726643], [60.774944, 60.725612], [60.765515, 60.723309], [60.762635, 60.722533], [60.755907, 60.720257], [60.749988, 60.718307], [60.745468, 60.716774], [60.73733, 60.713877], [60.674864, 60.698794], [60.61041, 60.684381], [60.574795, 60.679819], [60.558961, 60.68176], [60.541554, 60.684563], [60.533857, 60.685811], [60.532702, 60.686051], [60.525336, 60.688601], [60.524913, 60.688662], [60.524531, 60.688657], [60.524218, 60.688578], [60.521042, 60.687184], [60.517999, 60.685834], [60.512105, 60.683105], [60.505915, 60.680506], [60.496899, 60.676326], [60.488098, 60.672274], [60.477368, 60.66776], [60.468802, 60.664989], [60.462956, 60.662793], [60.458921, 60.660403], [60.449375, 60.65702], [60.444884, 60.655341], [60.443576, 60.652402], [60.410868, 60.643279], [60.403802, 60.64116], [60.399304, 60.640039], [60.396301, 60.639811], [60.387718, 60.639751], [60.378016, 60.640097], [60.357956, 60.641596], [60.342816, 60.63394], [60.320135, 60.621801], [60.311425, 60.600299], [60.305022, 60.584485], [60.289461, 60.547277], [60.292319, 60.542706], [60.281522, 60.510824], [60.279162, 60.508344], [60.272102, 60.487715], [60.258262, 60.449119], [60.269845, 60.42753], [60.252292, 60.405567], [60.25867, 60.373765], [60.264678, 60.360388], [60.270626, 60.34067], [60.27557, 60.32466], [60.279985, 60.315678], [60.259082, 60.289814], [60.251795, 60.265709], [60.229251, 60.191877], [60.218764, 60.157996], [60.215368, 60.147015], [60.204635, 60.113069], [60.194078, 60.079994], [60.183203, 60.046562], [60.17292, 60.013558], [60.160248, 59.974515], [60.154141, 59.955342], [60.194885, 59.889525], [60.195219, 59.883599], [60.195661, 59.875859], [60.198253, 59.871522], [60.207503, 59.864198], [60.213237, 59.859533], [60.218854, 59.85154], [60.226707, 59.839403], [60.229926, 59.834066], [60.230613, 59.832966], [60.231321, 59.832632], [60.238906, 59.830977], [60.24014, 59.830432], [60.241298, 59.829555], [60.241857, 59.828782], [60.244775, 59.823509], [60.247017, 59.818412], [60.248197, 59.816017], [60.2532, 59.808056], [60.275859, 59.799638], [60.276725, 59.797978], [60.278246, 59.795436], [60.290778, 59.777468], [60.294297, 59.772758], [60.309963, 59.756179], [60.331762, 59.734539], [60.33833, 59.727937], [60.350175, 59.716122], [60.350175, 59.710971], [60.35073, 59.70617], [60.351419, 59.702616], [60.366695, 59.692573], [60.392918, 59.678228], [60.371847, 59.667307], [60.360861, 59.660869], [60.358758, 59.659179], [60.358369, 59.65799], [60.351677, 59.653867], [60.3509, 59.64296], [60.350642, 59.636188], [60.33833, 59.626884], [60.32052, 59.618507], [60.303998, 59.611474], [60.290436, 59.606133], [60.289964, 59.605786], [60.280478, 59.584135], [60.27919, 59.582614], [60.253055, 59.566027], [60.251596, 59.564462], [60.248249, 59.557375], [60.230052, 59.515905], [60.212715, 59.476302], [60.198209, 59.444071], [60.198081, 59.443181], [60.199668, 59.439358], [60.197737, 59.43777], [60.195248, 59.435631], [60.182931, 59.407835], [60.167654, 59.371998], [60.162289, 59.359909], [60.153363, 59.339694], [60.144565, 59.31909], [60.143106, 59.316418], [60.139201, 59.310663], [60.128129, 59.294845], [60.102422, 59.258467], [60.099719, 59.254588], [60.086717, 59.227565], [60.078692, 59.210721], [60.065987, 59.203804], [60.038309, 59.188944], [60.023761, 59.181337], [60.002474, 59.169858], [59.978654, 59.157055], [59.955995, 59.144556], [59.923465, 59.131964], [59.919646, 59.130229], [59.895356, 59.111551], [59.865186, 59.088516], [59.86304, 59.087502], [59.853556, 59.086294], [59.847333, 59.086356], [59.805405, 59.077782], [59.787552, 59.067372], [59.768712, 59.061521], [59.702883, 59.04104], [59.662928, 59.021165], [59.646361, 59.012709], [59.630527, 59.007511], [59.615419, 59.00318], [59.594476, 58.997035], [59.55272, 58.976056], [59.521048, 58.955701], [59.476847, 58.926869], [59.455218, 58.912114], [59.437664, 58.898975], [59.421227, 58.886848], [59.409642, 58.877905], [59.396594, 58.868015], [59.383292, 58.857825], [59.363379, 58.844262], [59.352178, 58.836534], [59.341063, 58.825295], [59.333362, 58.817472], [59.327416, 58.81143], [59.318061, 58.801939], [59.311538, 58.798827], [59.309733, 58.79712], [59.307942, 58.796346], [59.305911, 58.795469], [59.302008, 58.793784], [59.298835, 58.793224], [59.280081, 58.785152], [59.272055, 58.781815], [59.271283, 58.781126], [59.268064, 58.773384], [59.265232, 58.763148], [59.247122, 58.75222], [59.233253, 58.743071], [59.226992, 58.739087], [59.225578, 58.738748], [59.199569, 58.73784], [59.162535, 58.73661], [59.149111, 58.73594], [59.147437, 58.735739], [59.146802, 58.735318], [59.143838, 58.731994], [59.136102, 58.722653], [59.130064, 58.719885], [59.115858, 58.713916], [59.115297, 58.71332], [59.11292, 58.701463], [59.112375, 58.697962], [59.112053, 58.696467], [59.104489, 58.688144], [59.099902, 58.683203], [59.089086, 58.670794], [59.075117, 58.655736], [59.060738, 58.639128], [59.029067, 58.624653], [59.00804, 58.61486], [58.98375, 58.60384], [58.966711, 58.592866], [58.943922, 58.578281], [58.926201, 58.566618], [58.906629, 58.558184], [58.881566, 58.543989], [58.863413, 58.533529], [58.855088, 58.528824], [58.838954, 58.521291], [58.82432, 58.514623], [58.819363, 58.510286], [58.816616, 58.508974], [58.812175, 58.506665], [58.799343, 58.499614], [58.796897, 58.498302], [58.796253, 58.497461], [58.796467, 58.496474], [58.800223, 58.490565], [58.800394, 58.490038], [58.800158, 58.489466], [58.799474, 58.489056], [58.788226, 58.485377], [58.740718, 58.470092], [58.709347, 58.459884], [58.701365, 58.45701], [58.679607, 58.447822], [58.667161, 58.4436], [58.633516, 58.433627], [58.624332, 58.429044], [58.577919, 58.416461], [58.572662, 58.414913], [58.568415, 58.413874], [58.558931, 58.412076], [58.556783, 58.411181], [58.547685, 58.403402], [58.545883, 58.402278], [58.543265, 58.401581], [58.526058, 58.398631], [58.52241, 58.397889], [58.516872, 58.396139], [58.503227, 58.391524], [58.482155, 58.384461], [58.476466, 58.382704], [58.463634, 58.378317], [58.449365, 58.373704], [58.444687, 58.371982], [58.438403, 58.370082], [58.436597, 58.369405], [58.435782, 58.368865], [58.431773, 58.364556], [58.426979, 58.361103], [58.416851, 58.35356], [58.407096, 58.345541], [58.405937, 58.345226], [58.40392, 58.345136], [58.401088, 58.345249], [58.378901, 58.345564], [58.367228, 58.345992], [58.364009, 58.345834], [58.351448, 58.344462], [58.32072, 58.341309], [58.289735, 58.337615], [58.258836, 58.33392], [58.255746, 58.333425], [58.246335, 58.329637], [58.2427, 58.328648], [58.215063, 58.325403], [58.175096, 58.320533], [58.172662, 58.319904], [58.141077, 58.299434], [58.104856, 58.275747], [58.074901, 58.2562], [58.054559, 58.243011], [58.050868, 58.241114], [58.04798, 58.238853], [58.041599, 58.226338], [58.037479, 58.21454], [58.033702, 58.195999], [58.026694, 58.163187], [58.022059, 58.142354], [58.013189, 58.12985], [58.002889, 58.115572], [58.003748, 58.088859], [58.004292, 58.064802], [58.005292, 58.039735], [57.983693, 58.017145], [57.962549, 57.9945], [57.954652, 57.985993], [57.94095, 57.982396], [57.918633, 57.971381], [57.917003, 57.971245], [57.906931, 57.972704], [57.905214, 57.972522], [57.900266, 57.970744], [57.89706, 57.969153], [57.887876, 57.949892], [57.880439, 57.934264], [57.867277, 57.919636], [57.846021, 57.895694], [57.823276, 57.870551], [57.821816, 57.86877], [57.819756, 57.860324], [57.817838, 57.85238], [57.816581, 57.851465], [57.808844, 57.849363], [57.793892, 57.845301], [57.775953, 57.840139], [57.742822, 57.829629], [57.700967, 57.816234], [57.676076, 57.808142], [57.657794, 57.799087], [57.631616, 57.786278], [57.598657, 57.770397], [57.549532, 57.746406], [57.522709, 57.73273], [57.520293, 57.732155], [57.509363, 57.730325], [57.498677, 57.727117], [57.496917, 57.72636], [57.485532, 57.712377], [57.47885, 57.703553], [57.477131, 57.702501], [57.476189, 57.701925], [57.45695, 57.692359], [57.452629, 57.690045], [57.446406, 57.685296], [57.440226, 57.680317], [57.439411, 57.67862], [57.439239, 57.677128], [57.435793, 57.67373], [57.433746, 57.672791], [57.42954, 57.672263], [57.426952, 57.671274], [57.420987, 57.66728], [57.419743, 57.665513], [57.415507, 57.649605], [57.412318, 57.639359], [57.411215, 57.634721], [57.409799, 57.626381], [57.409756, 57.617349], [57.41043, 57.612635], [57.414636, 57.601967], [57.416824, 57.593873], [57.418326, 57.585822], [57.419571, 57.577885], [57.421564, 57.571711], [57.422607, 57.570498], [57.429154, 57.566749], [57.443475, 57.558783], [57.444483, 57.557816], [57.445591, 57.556229], [57.450985, 57.548812], [57.451565, 57.54426], [57.452517, 57.540412], [57.452843, 57.538059], [57.452578, 57.536916], [57.450955, 57.529904], [57.442329, 57.522669], [57.436492, 57.517553], [57.425163, 57.507595], [57.417395, 57.500932], [57.406409, 57.491223], [57.398984, 57.484765], [57.398212, 57.483612], [57.392921, 57.469073], [57.3882, 57.457925], [57.384994, 57.449269], [57.380518, 57.437558], [57.378029, 57.429727], [57.372965, 57.416233], [57.368429, 57.412236], [57.361378, 57.40664], [57.36009, 57.405161], [57.358202, 57.398409], [57.357013, 57.396192], [57.354125, 57.391495], [57.352007, 57.384267], [57.351482, 57.382475], [57.351406, 57.382217], [57.344126, 57.376922], [57.341735, 57.376485], [57.331073, 57.375981], [57.329494, 57.375906], [57.327003, 57.375789], [57.324054, 57.375305], [57.320793, 57.3735], [57.308047, 57.366165], [57.307262, 57.36519], [57.308948, 57.354985], [57.310867, 57.344448], [57.31241, 57.333855], [57.314427, 57.325654], [57.317044, 57.313488], [57.320265, 57.298268], [57.32284, 57.286204], [57.316229, 57.277873], [57.314772, 57.277024], [57.312023, 57.275947], [57.31035, 57.274694], [57.306017, 57.269576], [57.300479, 57.262373], [57.299793, 57.261723], [57.296104, 57.260038], [57.284731, 57.25528], [57.272737, 57.250266], [57.262456, 57.246019], [57.249367, 57.240342], [57.237479, 57.235275], [57.22409, 57.229495], [57.19774, 57.21774], [57.195422, 57.216903], [57.191474, 57.216206], [57.160403, 57.213055], [57.154653, 57.212497], [57.150876, 57.211651], [57.122638, 57.199341], [57.102573, 57.191025], [57.088306, 57.18511], [57.053201, 57.169376], [57.032258, 57.16058], [57.024877, 57.158169], [57.016465, 57.154119], [57.014234, 57.153607], [56.999986, 57.153141], [56.99681, 57.152527], [56.981275, 57.144845], [56.960933, 57.135586], [56.949775, 57.13227], [56.947028, 57.132], [56.927545, 57.13227], [56.920249, 57.132037], [56.886518, 57.13213], [56.867892, 57.132317], [56.860253, 57.132559], [56.849954, 57.129997], [56.826694, 57.130043], [56.795451, 57.13009], [56.784894, 57.130127], [56.77056, 57.127388], [56.766441, 57.126456], [56.759145, 57.123708], [56.75657, 57.123335], [56.749189, 57.122999], [56.747043, 57.122729], [56.741979, 57.121275], [56.73125, 57.118582], [56.719234, 57.116476], [56.705501, 57.11382], [56.689837, 57.109881], [56.683957, 57.109019], [56.666965, 57.108702], [56.65924, 57.109984], [56.645765, 57.109611], [56.631901, 57.10853], [56.628146, 57.108397], [56.626882, 57.108353], [56.622548, 57.108725], [56.618815, 57.109322], [56.614735, 57.109975], [56.612162, 57.109821], [56.599071, 57.105523], [56.583666, 57.101104], [56.572294, 57.098283], [56.554181, 57.095127], [56.547057, 57.093681], [56.531481, 57.088864], [56.521608, 57.08601], [56.508562, 57.081299], [56.487364, 57.073845], [56.480624, 57.071479], [56.464791, 57.063439], [56.460328, 57.061806], [56.442861, 57.056789], [56.440544, 57.055995], [56.429298, 57.04742], [56.419856, 57.039342], [56.413204, 57.032664], [56.409642, 57.028927], [56.408097, 57.026778], [56.405608, 57.018906], [56.40501, 57.018005], [56.398057, 57.012094], [56.396896, 57.011407], [56.395654, 57.011066], [56.382606, 57.009864], [56.380031, 57.009607], [56.377801, 57.008869], [56.367371, 57.001942], [56.366043, 57.000386], [56.364925, 56.997758], [56.364281, 56.99666], [56.363423, 56.995935], [56.362178, 56.995421], [56.360376, 56.994986], [56.352565, 56.993106], [56.327502, 56.986756], [56.316259, 56.983951], [56.31334, 56.982632], [56.306131, 56.976841], [56.279952, 56.970376], [56.273086, 56.962797], [56.262014, 56.958922], [56.230001, 56.947735], [56.203823, 56.938723], [56.18524, 56.931933], [56.176655, 56.92902], [56.160564, 56.923198], [56.159105, 56.92294], [56.155715, 56.922893], [56.149835, 56.92376], [56.141595, 56.925469], [56.138847, 56.925273], [56.120178, 56.917543], [56.104471, 56.911148], [56.093831, 56.90694], [56.083314, 56.898283], [56.079196, 56.89562], [56.061901, 56.886267], [56.053833, 56.881812], [56.052374, 56.881168], [56.051001, 56.880921], [56.049563, 56.88091], [56.036968, 56.881999], [56.007957, 56.884498], [55.988731, 56.88575], [55.956888, 56.890063], [55.92513, 56.893125], [55.883931, 56.896641], [55.855865, 56.898], [55.849342, 56.898516], [55.832433, 56.902734], [55.828056, 56.903423], [55.818614, 56.904126], [55.801276, 56.905453], [55.795097, 56.905968], [55.791492, 56.906095], [55.788573, 56.905767], [55.781192, 56.902486], [55.77527, 56.899486], [55.767631, 56.895844], [55.75613, 56.890954], [55.746087, 56.888094], [55.732526, 56.884462], [55.711412, 56.879081], [55.690984, 56.873604], [55.68253, 56.871835], [55.675148, 56.869805], [55.670642, 56.86888], [55.655879, 56.8676], [55.642018, 56.866404], [55.639614, 56.8676], [55.637297, 56.868304], [55.633649, 56.868445], [55.613994, 56.868162], [55.5873, 56.86766], [55.584811, 56.867379], [55.553226, 56.856901], [55.543269, 56.853663], [55.53503, 56.850721], [55.531682, 56.848608], [55.52679, 56.847951], [55.516833, 56.84667], [55.493316, 56.844243], [55.470485, 56.841131], [55.451001, 56.837577], [55.418214, 56.831834], [55.40182, 56.82911], [55.371093, 56.826495], [55.338649, 56.820154], [55.312728, 56.817133], [55.28449, 56.813281], [55.276508, 56.81245], [55.266895, 56.810758], [55.224065, 56.805026], [55.20235, 56.802159], [55.197887, 56.80144], [55.179347, 56.795753], [55.145015, 56.784659], [55.13626, 56.782167], [55.12845, 56.780817], [55.110254, 56.77715], [55.108194, 56.776383], [55.106134, 56.773608], [55.103559, 56.772682], [55.099096, 56.77113], [55.096692, 56.769187], [55.094203, 56.76826], [55.088453, 56.767555], [55.080385, 56.764497], [55.063648, 56.755779], [55.050086, 56.74938], [55.037727, 56.744673], [55.024423, 56.736906], [54.998759, 56.722277], [54.99627, 56.720911], [54.993524, 56.720063], [54.96211, 56.71328], [54.920053, 56.703764], [54.909238, 56.701361], [54.872932, 56.691228], [54.829587, 56.678783], [54.793281, 56.668031], [54.754142, 56.655484], [54.708909, 56.639911], [54.674835, 56.627544], [54.67329, 56.627544], [54.618615, 56.640761], [54.613895, 56.641044], [54.58497, 56.638104], [54.567374, 56.636843], [54.55141, 56.63664], [54.547719, 56.636452], [54.535875, 56.634153], [54.524974, 56.632925], [54.506402, 56.629925], [54.495963, 56.628238], [54.488576, 56.627252], [54.460344, 56.623483], [54.438457, 56.621769], [54.421462, 56.620494], [54.41039, 56.619233], [54.403781, 56.618525], [54.394769, 56.618288], [54.366187, 56.615597], [54.340696, 56.613457], [54.337765, 56.613209], [54.307222, 56.610623], [54.262976, 56.606587], [54.25942, 56.60672], [54.237204, 56.610298], [54.222078, 56.612467], [54.21624, 56.613175], [54.210832, 56.612702], [54.204653, 56.61138], [54.177337, 56.593644], [54.168239, 56.588162], [54.160342, 56.583861], [54.145429, 56.573337], [54.115968, 56.551941], [54.099317, 56.539876], [54.097858, 56.539639], [54.022262, 56.541409], [53.985183, 56.542403], [53.938899, 56.543283], [53.907657, 56.536184], [53.873775, 56.528583], [53.870771, 56.528353], [53.847833, 56.529321], [53.834293, 56.529577], [53.828714, 56.529908], [53.820732, 56.530571], [53.80863, 56.530808], [53.78331, 56.530808], [53.76061, 56.531754], [53.735547, 56.533127], [53.70439, 56.534996], [53.684392, 56.536298], [53.668084, 56.537221], [53.665123, 56.537221], [53.647871, 56.533813], [53.645744, 56.533581], [53.643837, 56.533671], [53.636389, 56.534646], [53.609419, 56.538854], [53.606629, 56.539114], [53.604526, 56.53909], [53.596673, 56.537173], [53.593173, 56.536871], [53.589678, 56.537031], [53.567619, 56.539161], [53.54252, 56.54146], [53.539467, 56.54174], [53.522858, 56.543231], [53.518052, 56.543396], [53.505778, 56.542497], [53.473592, 56.540131], [53.459344, 56.539398], [53.434687, 56.539734], [53.414068, 56.540391], [53.39613, 56.540652], [53.386216, 56.54103], [53.365445, 56.542734], [53.358621, 56.543136], [53.343644, 56.542947], [53.336863, 56.542971], [53.320727, 56.544059], [53.297486, 56.545554], [53.291416, 56.54581], [53.282189, 56.546259], [53.26468, 56.548104], [53.245067, 56.549737], [53.240862, 56.550541], [53.234959, 56.552012], [53.231249, 56.552481], [53.22906, 56.552528], [53.227429, 56.552268], [53.224597, 56.551936], [53.22217, 56.551989], [53.219275, 56.552244], [53.208804, 56.553167], [53.194899, 56.554396], [53.193073, 56.554898], [53.181486, 56.564003], [53.179072, 56.565606], [53.177605, 56.566032], [53.175416, 56.566339], [53.163314, 56.567356], [53.141856, 56.569484], [53.129368, 56.570619], [53.123317, 56.571683], [53.117652, 56.572274], [53.110399, 56.572392], [53.091946, 56.573905], [53.089242, 56.574449], [53.073683, 56.580363], [53.071861, 56.580736], [53.070102, 56.580807], [53.067098, 56.580453], [53.063769, 56.580008], [53.059802, 56.579578], [53.053727, 56.579394], [53.05038, 56.578448], [53.044996, 56.576931], [53.03122, 56.573125], [53.017015, 56.56998], [53.004355, 56.567072], [53.002939, 56.567214], [52.998519, 56.568585], [52.99736, 56.568727], [52.995257, 56.568609], [52.990665, 56.567923], [52.981396, 56.566008], [52.966246, 56.563714], [52.949293, 56.562556], [52.939571, 56.561476], [52.913931, 56.55863], [52.885092, 56.555366], [52.868698, 56.554467], [52.853849, 56.55513], [52.839408, 56.556104], [52.83488, 56.555792], [52.815118, 56.54792], [52.806986, 56.545431], [52.799947, 56.544674], [52.791536, 56.54439], [52.78467, 56.544106], [52.756689, 56.540368], [52.732399, 56.537434], [52.690256, 56.533079], [52.681587, 56.532701], [52.67369, 56.532654], [52.640903, 56.5336], [52.618244, 56.534073], [52.596958, 56.534736], [52.578848, 56.535067], [52.548893, 56.535777], [52.53413, 56.536203], [52.502372, 56.537055], [52.493618, 56.538494], [52.492514, 56.538542], [52.491488, 56.538454], [52.49042, 56.538219], [52.487266, 56.536913], [52.483073, 56.53529], [52.475336, 56.533032], [52.454565, 56.528062], [52.448793, 56.52738], [52.444179, 56.527257], [52.4386, 56.528204], [52.430875, 56.529435], [52.414654, 56.529719], [52.395406, 56.529984], [52.388647, 56.531044], [52.382467, 56.531754], [52.362039, 56.531612], [52.340152, 56.531565], [52.331827, 56.531991], [52.325389, 56.531281], [52.321527, 56.530003], [52.302388, 56.518924], [52.299985, 56.51748], [52.29741, 56.516628], [52.292818, 56.515823], [52.28676, 56.51519], [52.282647, 56.513953], [52.278784, 56.51175], [52.275394, 56.510069], [52.267326, 56.507796], [52.264886, 56.507214], [52.257327, 56.505522], [52.229305, 56.499035], [52.2093, 56.494316], [52.2005, 56.492121], [52.193898, 56.490623], [52.189649, 56.490338], [52.184542, 56.490623], [52.152613, 56.494129], [52.109606, 56.498446], [52.09201, 56.50027], [52.086732, 56.500862], [52.080638, 56.50091], [52.072104, 56.499791], [52.064766, 56.498464], [52.054803, 56.495959], [52.046054, 56.493655], [52.04245, 56.49375], [52.02391, 56.495171], [52.015664, 56.496433], [51.988591, 56.499719], [51.983527, 56.500217], [51.978199, 56.500247], [51.972319, 56.500057], [51.96408, 56.499015], [51.933101, 56.494271], [51.929196, 56.493489], [51.919626, 56.490386], [51.907861, 56.486577], [51.899535, 56.484918], [51.871941, 56.480605], [51.854309, 56.477021], [51.836235, 56.474111], [51.825341, 56.47311], [51.82233, 56.472405], [51.817316, 56.469127], [51.796324, 56.464179], [51.787361, 56.462181], [51.771482, 56.458838], [51.754181, 56.455666], [51.739296, 56.453028], [51.728517, 56.449856], [51.717967, 56.448522], [51.705858, 56.449073], [51.685566, 56.449565], [51.681268, 56.450117], [51.666211, 56.454498], [51.662048, 56.454972], [51.657836, 56.455097], [51.654023, 56.454403], [51.648315, 56.452032], [51.644024, 56.448379], [51.63964, 56.445088], [51.636213, 56.444299], [51.629469, 56.443665], [51.603297, 56.443493], [51.598698, 56.443499], [51.592218, 56.442835], [51.548445, 56.436619], [51.543387, 56.435949], [51.539089, 56.435029], [51.535791, 56.434477], [51.531886, 56.434264], [51.526987, 56.434009], [51.517123, 56.431203], [51.490043, 56.423395], [51.485402, 56.422167], [51.480166, 56.421502], [51.47571, 56.421093], [51.472319, 56.420381], [51.44893, 56.409817], [51.424812, 56.399487], [51.408976, 56.391982], [51.405322, 56.390919], [51.388377, 56.389725], [51.380431, 56.388614], [51.372921, 56.38688], [51.359194, 56.383049], [51.355804, 56.381718], [51.349839, 56.377441], [51.348116, 56.376616], [51.343573, 56.375398], [51.341427, 56.374471], [51.333617, 56.369456], [51.331385, 56.368696], [51.327137, 56.368078], [51.321495, 56.367217], [51.306235, 56.366721], [51.254736, 56.36482], [51.251475, 56.36463], [51.213147, 56.355888], [51.157576, 56.34028], [51.14719, 56.338806], [51.138989, 56.338836], [51.135213, 56.339098], [51.124827, 56.341168], [51.112081, 56.344378], [51.093456, 56.349706], [51.071155, 56.355839], [51.065847, 56.35661], [51.059173, 56.35631], [51.053802, 56.354604], [51.04376, 56.349658], [51.019691, 56.33669], [51.015915, 56.335239], [50.995094, 56.332397], [50.957028, 56.326679], [50.950466, 56.32534], [50.91583, 56.316922], [50.883776, 56.308822], [50.860516, 56.302299], [50.814378, 56.291114], [50.805155, 56.288868], [50.801894, 56.287581], [50.790564, 56.279482], [50.778758, 56.270673], [50.75812, 56.256747], [50.747134, 56.251598], [50.718037, 56.241106], [50.706752, 56.237959], [50.687784, 56.232211], [50.661771, 56.224416], [50.650484, 56.220932], [50.62899, 56.214627], [50.614092, 56.210289], [50.612976, 56.21017], [50.588214, 56.211196], [50.586755, 56.21153], [50.574695, 56.216661], [50.572378, 56.217305], [50.570018, 56.217711], [50.561392, 56.217759], [50.559295, 56.217538], [50.556978, 56.216727], [50.549637, 56.213862], [50.51582, 56.202023], [50.511582, 56.200537], [50.497272, 56.19552], [50.458618, 56.186419], [50.449833, 56.185786], [50.446216, 56.185067], [50.437667, 56.178724], [50.425526, 56.170546], [50.418981, 56.167165], [50.413849, 56.165149], [50.40136, 56.161187], [50.389172, 56.158128], [50.379441, 56.154466], [50.366751, 56.144981], [50.351112, 56.143971], [50.34651, 56.147524], [50.333666, 56.157243], [50.317735, 56.158046], [50.308305, 56.158004], [50.298132, 56.158738], [50.287944, 56.159705], [50.277804, 56.162566], [50.268374, 56.165154], [50.251593, 56.164216], [50.220222, 56.163141], [50.193957, 56.162591], [50.191425, 56.162806], [50.174793, 56.167375], [50.156363, 56.171934], [50.138058, 56.177115], [50.13102, 56.178412], [50.125336, 56.17879], [50.118512, 56.17867], [50.101837, 56.177481], [50.096539, 56.176927], [50.090703, 56.17492], [50.072035, 56.167155], [50.05753, 56.161922], [50.04105, 56.156162], [50.023841, 56.149971], [50.013455, 56.145214], [50.002684, 56.140169], [49.991054, 56.134], [49.975733, 56.126968], [49.963159, 56.120677], [49.960541, 56.120199], [49.956206, 56.120079], [49.938268, 56.120199], [49.931272, 56.120199], [49.926337, 56.119935], [49.910435, 56.117643], [49.895887, 56.115347], [49.877218, 56.112212], [49.857306, 56.108814], [49.846214, 56.106105], [49.84218, 56.105076], [49.838337, 56.103406], [49.830527, 56.10015], [49.813961, 56.095267], [49.810571, 56.093855], [49.804906, 56.089928], [49.802374, 56.08945], [49.777955, 56.088372], [49.772572, 56.088415], [49.746479, 56.08978], [49.717917, 56.09079], [49.683694, 56.092797], [49.655647, 56.09419], [49.647645, 56.094137], [49.641251, 56.09385], [49.612927, 56.091887], [49.609064, 56.091719], [49.603957, 56.091983], [49.599237, 56.092054], [49.593142, 56.091169], [49.588765, 56.090594], [49.566106, 56.089229], [49.546107, 56.088272], [49.541835, 56.087678], [49.517526, 56.080657], [49.501194, 56.071129], [49.487785, 56.062836], [49.473366, 56.056174], [49.471778, 56.055887], [49.465984, 56.055551], [49.463881, 56.055695], [49.451393, 56.059146], [49.448604, 56.059314], [49.432916, 56.058216], [49.410666, 56.057085], [49.397062, 56.056606], [49.391741, 56.05659], [49.357323, 56.060344], [49.354681, 56.060133], [49.34451, 56.05582], [49.341058, 56.053874], [49.33462, 56.047523], [49.320201, 56.041578], [49.318141, 56.040547], [49.31653, 56.03921], [49.304496, 56.021411], [49.302584, 56.020428], [49.285845, 56.016068], [49.271707, 56.012969], [49.263166, 56.009106], [49.253553, 56.004092], [49.244217, 56.001193], [49.241041, 56.000713], [49.223618, 55.999681], [49.201302, 55.998169], [49.197354, 55.998265], [49.19259, 55.998937], [49.175982, 56.003089], [49.170532, 56.005104], [49.159854, 56.009868], [49.157571, 56.010886], [49.154009, 56.01211], [49.135598, 56.0159], [49.129419, 56.0165], [49.110259, 56.016399], [49.090003, 56.015152], [49.068717, 56.014192], [49.064082, 56.01412], [49.048628, 56.015226], [49.03902, 56.016327], [49.036206, 56.016092], [49.022431, 56.012518], [49.017066, 56.011102], [49.012498, 56.007691], [49.007005, 56.001908], [49.00093, 55.999081], [48.991856, 55.996268], [48.985547, 55.99538], [48.969516, 55.995769], [48.967308, 55.995308], [48.949326, 55.988587], [48.932332, 55.985203], [48.92847, 55.985131], [48.920378, 55.986048], [48.900703, 55.988155], [48.898729, 55.988155], [48.89182, 55.985971], [48.884587, 55.982254], [48.881692, 55.980713], [48.876843, 55.976727], [48.874495, 55.975483], [48.871669, 55.974691], [48.857722, 55.972385], [48.851221, 55.971305], [48.850244, 55.971156], [48.841268, 55.969696], [48.838007, 55.969166], [48.826383, 55.966953], [48.808307, 55.963447], [48.806513, 55.963254], [48.804711, 55.963278], [48.802994, 55.963422], [48.792094, 55.965007], [48.772009, 55.968274], [48.75256, 55.971181], [48.734716, 55.973918], [48.723678, 55.97548], [48.702873, 55.97776], [48.700341, 55.978192], [48.698066, 55.978984], [48.688324, 55.982682], [48.65791, 55.99382], [48.64186, 55.999196], [48.628771, 56.003], [48.627204, 56.003336], [48.625123, 56.003336], [48.62378, 56.003132], [48.62214, 56.002652], [48.620926, 56.001908], [48.620003, 56.000648], [48.618943, 55.999208], [48.612899, 55.995677], [48.610683, 55.994717], [48.607593, 55.994057], [48.604261, 55.993691], [48.592594, 55.993557], [48.580241, 55.993716], [48.579243, 55.993794], [48.578165, 55.994092], [48.577659, 55.995117], [48.577638, 55.996761], [48.577831, 55.998093], [48.577788, 55.998417], [48.569055, 56.01093], [48.551309, 56.035765], [48.543456, 56.046409], [48.543101, 56.046895], [48.523315, 56.055743], [48.512385, 56.060452], [48.49421, 56.068406], [48.484876, 56.07267], [48.464813, 56.081723], [48.461509, 56.083256], [48.460208, 56.083601], [48.457741, 56.08378], [48.439352, 56.08475], [48.436263, 56.084924], [48.406822, 56.086582], [48.380815, 56.087994], [48.352405, 56.089647], [48.328072, 56.090939], [48.32554, 56.091083], [48.323394, 56.090748], [48.292109, 56.078081], [48.281337, 56.073027], [48.279449, 56.071518], [48.2762, 56.069041], [48.272123, 56.066693], [48.269548, 56.065639], [48.243907, 56.056031], [48.219638, 56.046996], [48.201227, 56.040081], [48.19097, 56.034626], [48.184125, 56.031006], [48.171401, 56.024315], [48.170435, 56.023979], [48.162174, 56.022336], [48.161101, 56.022036], [48.151982, 56.017515], [48.14227, 56.012595], [48.130288, 56.006516], [48.124259, 56.0036], [48.116555, 56.001824], [48.115654, 56.001441], [48.112285, 55.997721], [48.111671, 55.997334], [48.094761, 55.988933], [48.087797, 55.985349], [48.079318, 55.980991], [48.076275, 55.979242], [48.074603, 55.977956], [48.073173, 55.976489], [48.070914, 55.975233], [48.069169, 55.973706], [48.067593, 55.971766], [48.064418, 55.968045], [48.062447, 55.966128], [48.060333, 55.96454], [48.059348, 55.964083], [48.057132, 55.961944], [48.029241, 55.932496], [47.978256, 55.933462], [47.937458, 55.930859], [47.886729, 55.917698], [47.881336, 55.914502], [47.881941, 55.910092], [47.861648, 55.887238], [47.857162, 55.885521], [47.854385, 55.884385], [47.839236, 55.880582], [47.822242, 55.879451], [47.792716, 55.877195], [47.762561, 55.874426], [47.743515, 55.873107], [47.711724, 55.871664], [47.710605, 55.87157], [47.709348, 55.87126], [47.698138, 55.866925], [47.694862, 55.865904], [47.691691, 55.865121], [47.674173, 55.861391], [47.673282, 55.861296], [47.629009, 55.862435], [47.611098, 55.85961], [47.601571, 55.855684], [47.597022, 55.853227], [47.577296, 55.842416], [47.573805, 55.840626], [47.553564, 55.830367], [47.546526, 55.828486], [47.542835, 55.825666], [47.532964, 55.824148], [47.511592, 55.818723], [47.494583, 55.81399], [47.486215, 55.807865], [47.476273, 55.800491], [47.471595, 55.799768], [47.434259, 55.796439], [47.42476, 55.794694], [47.409611, 55.796769], [47.382718, 55.788018], [47.354808, 55.77942], [47.338886, 55.778189], [47.320018, 55.776917], [47.294956, 55.770448], [47.255272, 55.760908], [47.230091, 55.75985], [47.196566, 55.757374], [47.180497, 55.752112], [47.164315, 55.747215], [47.157784, 55.745013], [47.149589, 55.741516], [47.140224, 55.737708], [47.125024, 55.72739], [47.102118, 55.727697], [47.084339, 55.724656], [47.05673, 55.708269], [47.028226, 55.703655], [47.015165, 55.701176], [46.97916, 55.689821], [46.958699, 55.68311], [46.941975, 55.657199], [46.936332, 55.6554], [46.930877, 55.656652], [46.915561, 55.651524], [46.904922, 55.643934], [46.886666, 55.62825], [46.869131, 55.623779], [46.864766, 55.623438], [46.838747, 55.625475], [46.837009, 55.624988], [46.810766, 55.607444], [46.729377, 55.582866], [46.699101, 55.573491], [46.682109, 55.559782], [46.666874, 55.547596], [46.647348, 55.543371], [46.592628, 55.517923], [46.552805, 55.499375], [46.539971, 55.496415], [46.535079, 55.495484], [46.526582, 55.489114], [46.524779, 55.486828], [46.524178, 55.482792], [46.484782, 55.451652], [46.482207, 55.449121], [46.479632, 55.44474], [46.474826, 55.443279], [46.461522, 55.433492], [46.452432, 55.427471], [46.445042, 55.425548], [46.379168, 55.427169], [46.35801, 55.423557], [46.291105, 55.425318], [46.27969, 55.425464], [46.260335, 55.421316], [46.232011, 55.406115], [46.222226, 55.403191], [46.210982, 55.397489], [46.174676, 55.378768], [46.14515, 55.363111], [46.141459, 55.360574], [46.118113, 55.344032], [46.101291, 55.332219], [46.096742, 55.326457], [46.084082, 55.309322], [46.048782, 55.286297], [46.024431, 55.275106], [46.006662, 55.266775], [45.981085, 55.254401], [45.965163, 55.249917], [45.953404, 55.243606], [45.945222, 55.23905], [45.93495, 55.233329], [45.932633, 55.232008], [45.931036, 55.230573], [45.927397, 55.22442], [45.917355, 55.208654], [45.891262, 55.193077], [45.873101, 55.182233], [45.865118, 55.180126], [45.858389, 55.172936], [45.839592, 55.157247], [45.821139, 55.148125], [45.803543, 55.138019], [45.764233, 55.115838], [45.73913, 55.102902], [45.708746, 55.086596], [45.679864, 55.075075], [45.678233, 55.074338], [45.668491, 55.063182], [45.652913, 55.054972], [45.601071, 55.045114], [45.580633, 55.045221], [45.579525, 55.045137], [45.558583, 55.03717], [45.546429, 55.029925], [45.541193, 55.025891], [45.519221, 55.013786], [45.495531, 55.003105], [45.492699, 55.001825], [45.477387, 54.993766], [45.442883, 54.977662], [45.439192, 54.975888], [45.43636, 54.974164], [45.433527, 54.971701], [45.420309, 54.95682], [45.408671, 54.944088], [45.407177, 54.942723], [45.401538, 54.93935], [45.374081, 54.924462], [45.350958, 54.913131], [45.34598, 54.912638], [45.338169, 54.912342], [45.333569, 54.911587], [45.303751, 54.905286], [45.289675, 54.902177], [45.28195, 54.901486], [45.275084, 54.901042], [45.270878, 54.899709], [45.262982, 54.895267], [45.228735, 54.886234], [45.178095, 54.871519], [45.171486, 54.870383], [45.158389, 54.869034], [45.125223, 54.866431], [45.12282, 54.866184], [45.120194, 54.864984], [45.099938, 54.850706], [45.098015, 54.849436], [45.095526, 54.848596], [45.08145, 54.845532], [45.079647, 54.844939], [45.071751, 54.840639], [45.03759, 54.821556], [45.002005, 54.803489], [44.986352, 54.795811], [44.972318, 54.792075], [44.971202, 54.791679], [44.970516, 54.790887], [44.9694, 54.78678], [44.968627, 54.786136], [44.955066, 54.779826], [44.937428, 54.771657], [44.921549, 54.766285], [44.911293, 54.75487], [44.893129, 54.752699], [44.871768, 54.753087], [44.86901, 54.75312], [44.867691, 54.75279], [44.862841, 54.749322], [44.857294, 54.745813], [44.855331, 54.745285], [44.845407, 54.743832], [44.805721, 54.738447], [44.789885, 54.736292], [44.764608, 54.732897], [44.762634, 54.732352], [44.748386, 54.720679], [44.724729, 54.701728], [44.693111, 54.688271], [44.673746, 54.679869], [44.672383, 54.679538], [44.659079, 54.679091], [44.656247, 54.678818], [44.652717, 54.67812], [44.630727, 54.673198], [44.6129, 54.668817], [44.581435, 54.661803], [44.577315, 54.661107], [44.532906, 54.656292], [44.530503, 54.655611], [44.516083, 54.648759], [44.485476, 54.634191], [44.467932, 54.622877], [44.463761, 54.612873], [44.462525, 54.612043], [44.450165, 54.606923], [44.42227, 54.592753], [44.4084, 54.584482], [44.388882, 54.577981], [44.371287, 54.570568], [44.295241, 54.541948], [44.230902, 54.517478], [44.20838, 54.509222], [44.198939, 54.505833], [44.179157, 54.494197], [44.16331, 54.484932], [44.134782, 54.467718], [44.115599, 54.456743], [44.100922, 54.445939], [44.099506, 54.445415], [44.089292, 54.443793], [44.084346, 54.442878], [44.083574, 54.442604], [44.051653, 54.424571], [44.0401, 54.418314], [44.038817, 54.416333], [44.028685, 54.400681], [44.014933, 54.379386], [44.014186, 54.378695], [44.013194, 54.378234], [44.007175, 54.376886], [43.993185, 54.373574], [43.982699, 54.371248], [43.975081, 54.369596], [43.96184, 54.36679], [43.960923, 54.366583], [43.960403, 54.366245], [43.957013, 54.360563], [43.95118, 54.358891], [43.937069, 54.358105], [43.885348, 54.35754], [43.854929, 54.355204], [43.844115, 54.355104], [43.836137, 54.354134], [43.798672, 54.347111], [43.769184, 54.340146], [43.727753, 54.326886], [43.723376, 54.325415], [43.721359, 54.324765], [43.716641, 54.323404], [43.715587, 54.3231], [43.698957, 54.317731], [43.693469, 54.316095], [43.693158, 54.316004], [43.69267, 54.315897], [43.692208, 54.31586], [43.691592, 54.315857], [43.675954, 54.315922], [43.670117, 54.315989], [43.668777, 54.316004], [43.659904, 54.315985], [43.659228, 54.315922], [43.658488, 54.315722], [43.648821, 54.313037], [43.642041, 54.311197], [43.641579, 54.310966], [43.641107, 54.310578], [43.640742, 54.310033], [43.636676, 54.296467], [43.63614, 54.294689], [43.634605, 54.288305], [43.632041, 54.278299], [43.631891, 54.277836], [43.631633, 54.277479], [43.631204, 54.277184], [43.630507, 54.276846], [43.614274, 54.269829], [43.598579, 54.262977], [43.543066, 54.247124], [43.527917, 54.242635], [43.503538, 54.235952], [43.501478, 54.235325], [43.499462, 54.234548], [43.489763, 54.230058], [43.458005, 54.215129], [43.43732, 54.206772], [43.399855, 54.192362], [43.371059, 54.181338], [43.326985, 54.165035], [43.305312, 54.156693], [43.302995, 54.15604], [43.30042, 54.155688], [43.295871, 54.155638], [43.294629, 54.155574], [43.293127, 54.155372], [43.288024, 54.154097], [43.257254, 54.146684], [43.234614, 54.140665], [43.23285, 54.140526], [43.21783, 54.144814], [43.214403, 54.145569], [43.210794, 54.145905], [43.18157, 54.147811], [43.176594, 54.147826], [43.15359, 54.1459], [43.143213, 54.144729], [43.13165, 54.143142], [43.022006, 54.122074], [42.992666, 54.1009], [42.967932, 54.066907], [42.930365, 54.047899], [42.925123, 54.04568], [42.921337, 54.044188], [42.918587, 54.04313], [42.915634, 54.042091], [42.91095, 54.040531], [42.906987, 54.039192], [42.902487, 54.037686], [42.899843, 54.036638], [42.894541, 54.034641], [42.892349, 54.033646], [42.891683, 54.033452], [42.890765, 54.03325], [42.887825, 54.032936], [42.879755, 54.031455], [42.871459, 54.030103], [42.850859, 54.027701], [42.843821, 54.026693], [42.717307, 53.983109], [42.714903, 53.982706], [42.70838, 53.982201], [42.70632, 53.981696], [42.703402, 53.980182], [42.693961, 53.975134], [42.628483, 53.951819], [42.577489, 53.933286], [42.525304, 53.914333], [42.429366, 53.879028], [42.428897, 53.878939], [42.428488, 53.878914], [42.416684, 53.879218], [42.404797, 53.879366], [42.394052, 53.879296], [42.392996, 53.879158], [42.392148, 53.878784], [42.355102, 53.855599], [42.294076, 53.840459], [42.225498, 53.841827], [42.195772, 53.830247], [42.187629, 53.827322], [42.186797, 53.82716], [42.173563, 53.827129], [42.171342, 53.82711], [42.164771, 53.827186], [42.142133, 53.827087], [42.141194, 53.826996], [42.12602, 53.818424], [42.095979, 53.797847], [42.070916, 53.790901], [42.04448, 53.766759], [42.004054, 53.752349], [41.978563, 53.751994], [41.946156, 53.733896], [41.902477, 53.70273], [41.858884, 53.692237], [41.770938, 53.663646], [41.758575, 53.656783], [41.74905, 53.651496], [41.748202, 53.650729], [41.747734, 53.649909], [41.747243, 53.641803], [41.74702, 53.64126], [41.74615, 53.640758], [41.709051, 53.630203], [41.707288, 53.629594], [41.705838, 53.628959], [41.697374, 53.625187], [41.69529, 53.624187], [41.690279, 53.621427], [41.689277, 53.620971], [41.687943, 53.620572], [41.680861, 53.62017], [41.675578, 53.619567], [41.663306, 53.618716], [41.647342, 53.612097], [41.553014, 53.599009], [41.539572, 53.595002], [41.52208, 53.590375], [41.498285, 53.584917], [41.493942, 53.583634], [41.447271, 53.573483], [41.359981, 53.556559], [41.339896, 53.547482], [41.32007, 53.538914], [41.280587, 53.526262], [41.253379, 53.51524], [41.226772, 53.510494], [41.200679, 53.497425], [41.185315, 53.48951], [41.157592, 53.483433], [41.136735, 53.481696], [41.115621, 53.478632], [41.083434, 53.475873], [41.044725, 53.476844], [41.040176, 53.473217], [41.027559, 53.460341], [41.011508, 53.451857], [41.001828, 53.442017], [40.989918, 53.429544], [40.982537, 53.42243], [40.980812, 53.420905], [40.978717, 53.419729], [40.976007, 53.418668], [40.971376, 53.417447], [40.932172, 53.406774], [40.897219, 53.398089], [40.892145, 53.396833], [40.889312, 53.395875], [40.867159, 53.386368], [40.844841, 53.376743], [40.82557, 53.368406], [40.819191, 53.365808], [40.798794, 53.360099], [40.796058, 53.359489], [40.769081, 53.354319], [40.746386, 53.352865], [40.744591, 53.353024], [40.715554, 53.359725], [40.713978, 53.359909], [40.677235, 53.358691], [40.673183, 53.358594], [40.668789, 53.358491], [40.665784, 53.357956], [40.656305, 53.353987], [40.641757, 53.34713], [40.640915, 53.346529], [40.636158, 53.340808], [40.629415, 53.325585], [40.62884, 53.319581], [40.629158, 53.309898], [40.628926, 53.30892], [40.628444, 53.308215], [40.62672, 53.306832], [40.625496, 53.30628], [40.593869, 53.298339], [40.572322, 53.281935], [40.571438, 53.28166], [40.547847, 53.278738], [40.547296, 53.27867], [40.526451, 53.277175], [40.52488, 53.276888], [40.500434, 53.268802], [40.493875, 53.263775], [40.491539, 53.262368], [40.486572, 53.260489], [40.443924, 53.246573], [40.413514, 53.236824], [40.393896, 53.239474], [40.390994, 53.240793], [40.389362, 53.24111], [40.387625, 53.240856], [40.344983, 53.233224], [40.338843, 53.231824], [40.337131, 53.22797], [40.334279, 53.226798], [40.329877, 53.222577], [40.322092, 53.218404], [40.31119, 53.214072], [40.306737, 53.212333], [40.30581, 53.209972], [40.305198, 53.204797], [40.296693, 53.200892], [40.294148, 53.198993], [40.287141, 53.19532], [40.284414, 53.190686], [40.282958, 53.188574], [40.281894, 53.187208], [40.280425, 53.185549], [40.278139, 53.183153], [40.276051, 53.180887], [40.275085, 53.18009], [40.274463, 53.179723], [40.273832, 53.179557], [40.272918, 53.17944], [40.271537, 53.179384], [40.262428, 53.179204], [40.253501, 53.179223], [40.252565, 53.179314], [40.251374, 53.179524], [40.248928, 53.180058], [40.239787, 53.182231], [40.236815, 53.182636], [40.223136, 53.185445], [40.211796, 53.187875], [40.206477, 53.188925], [40.19685, 53.19089], [40.18754, 53.19282], [40.183364, 53.193751], [40.182793, 53.193771], [40.182179, 53.193706], [40.17839, 53.193308], [40.169213, 53.192561], [40.161091, 53.191906], [40.150633, 53.191155], [40.137498, 53.190228], [40.125954, 53.189437], [40.118862, 53.189103], [40.109818, 53.188743], [40.099993, 53.188404], [40.091281, 53.188057], [40.080391, 53.187755], [40.076301, 53.187567], [40.060543, 53.186295], [40.048098, 53.184919], [40.023808, 53.182406], [40.00783, 53.180857], [40.00136, 53.180603], [39.964123, 53.179788], [39.963063, 53.179571], [39.940196, 53.168748], [39.913447, 53.163885], [39.796117, 53.163512], [39.781848, 53.159048], [39.752944, 53.160071], [39.740231, 53.154371], [39.709868, 53.15291], [39.637137, 53.113156], [39.608319, 53.097331], [39.595166, 53.091623], [39.579405, 53.07945], [39.571348, 53.072231], [39.519978, 53.053069], [39.498585, 53.051599], [39.459468, 53.015405], [39.462107, 52.985019], [39.449597, 52.96229], [39.402991, 52.937248], [39.406059, 52.928479], [39.387899, 52.918812], [39.381771, 52.91553], [39.37494, 52.912431], [39.291078, 52.892887], [39.287274, 52.892224], [39.277157, 52.891561], [39.268799, 52.891722], [39.25886, 52.891188], [39.249482, 52.890603], [39.237145, 52.887559], [39.191657, 52.865855], [39.176248, 52.859286], [39.16009, 52.851435], [39.09797, 52.831488], [39.040485, 52.818431], [39.015594, 52.811882], [38.936887, 52.802698], [38.904958, 52.797146], [38.85552, 52.792695], [38.804077, 52.785788], [38.795353, 52.784572], [38.790201, 52.784087], [38.788141, 52.783788], [38.78724, 52.783542], [38.786392, 52.782756], [38.785008, 52.781257], [38.78106, 52.777046], [38.776919, 52.77236], [38.774751, 52.769361], [38.773781, 52.768005], [38.75968, 52.746088], [38.758994, 52.745516], [38.757706, 52.74523], [38.756805, 52.745282], [38.742811, 52.745429], [38.723821, 52.746117], [38.718972, 52.744792], [38.709659, 52.741973], [38.701935, 52.739635], [38.684575, 52.734685], [38.675434, 52.732073], [38.654599, 52.726564], [38.650458, 52.725433], [38.633055, 52.721131], [38.618571, 52.71822], [38.605246, 52.715412], [38.595376, 52.713307], [38.592779, 52.713319], [38.580484, 52.71432], [38.561022, 52.71614], [38.539607, 52.714112], [38.531797, 52.71098], [38.520252, 52.706351], [38.517184, 52.705246], [38.514695, 52.705116], [38.50461, 52.708458], [38.499632, 52.710213], [38.496284, 52.709888], [38.487336, 52.705792], [38.475835, 52.700344], [38.468861, 52.697107], [38.466737, 52.696378], [38.455772, 52.693348], [38.449936, 52.691853], [38.435731, 52.688276], [38.42998, 52.686975], [38.423135, 52.686156], [38.417213, 52.685154], [38.414466, 52.68414], [38.410818, 52.682605], [38.402707, 52.678897], [38.399896, 52.677063], [38.395583, 52.673992], [38.392858, 52.671715], [38.378748, 52.6671], [38.375834, 52.666241], [38.374772, 52.665843], [38.369131, 52.66203], [38.362501, 52.657563], [38.353609, 52.653232], [38.343939, 52.648671], [38.338895, 52.646386], [38.333537, 52.644068], [38.329822, 52.641851], [38.325309, 52.638094], [38.322541, 52.635607], [38.321082, 52.634265], [38.317865, 52.631644], [38.317158, 52.631266], [38.314369, 52.630406], [38.314038, 52.629851], [38.314904, 52.622096], [38.315398, 52.614228], [38.314797, 52.613355], [38.3119, 52.610397], [38.310656, 52.609642], [38.308683, 52.608899], [38.301237, 52.605902], [38.301945, 52.603178], [38.299606, 52.597001], [38.298555, 52.595697], [38.289242, 52.590249], [38.28362, 52.583183], [38.271046, 52.566021], [38.266497, 52.560308], [38.263793, 52.55783], [38.25388, 52.548123], [38.248258, 52.543269], [38.245039, 52.540606], [38.23268, 52.536561], [38.211479, 52.529695], [38.205214, 52.527463], [38.191438, 52.518154], [38.18573, 52.514341], [38.174057, 52.50836], [38.163929, 52.503462], [38.146119, 52.494122], [38.131663, 52.482991], [38.130326, 52.48184], [38.128223, 52.474547], [38.110414, 52.455261], [38.104534, 52.447994], [38.100414, 52.431538], [38.080974, 52.412224], [38.064881, 52.397392], [38.047414, 52.386576], [38.027587, 52.3756], [37.996388, 52.359353], [37.975788, 52.348134], [37.9527, 52.336126], [37.93828, 52.325793], [37.918955, 52.311805], [37.910953, 52.305177], [37.901491, 52.2974], [37.895822, 52.29385], [37.893305, 52.292339], [37.876997, 52.280053], [37.869015, 52.274369], [37.853007, 52.267632], [37.836871, 52.261211], [37.807045, 52.248377], [37.786403, 52.23876], [37.77666, 52.232991], [37.775141, 52.232098], [37.773784, 52.231206], [37.762664, 52.223209], [37.76185, 52.222797], [37.761061, 52.222472], [37.760849, 52.222385], [37.757513, 52.221316], [37.754774, 52.220439], [37.734313, 52.213815], [37.732983, 52.213299], [37.731534, 52.212423], [37.730159, 52.211512], [37.728136, 52.210115], [37.724947, 52.207639], [37.724402, 52.207031], [37.724031, 52.206417], [37.723832, 52.205924], [37.721855, 52.201315], [37.721267, 52.200321], [37.720678, 52.199525], [37.719044, 52.197644], [37.703404, 52.18309], [37.691369, 52.17234], [37.688824, 52.170708], [37.673707, 52.163772], [37.660099, 52.15746], [37.656198, 52.155479], [37.629676, 52.142194], [37.624445, 52.139515], [37.621436, 52.137703], [37.618818, 52.135227], [37.609034, 52.123556], [37.599335, 52.113306], [37.590194, 52.104529], [37.58116, 52.09492], [37.575302, 52.087708], [37.562921, 52.070116], [37.559629, 52.065219], [37.558332, 52.062992], [37.555261, 52.057228], [37.551612, 52.051922], [37.536594, 52.035519], [37.53078, 52.028828], [37.527689, 52.025419], [37.527283, 52.025141], [37.526551, 52.024922], [37.525609, 52.024825], [37.521101, 52.024554], [37.520042, 52.024327], [37.51887, 52.023916], [37.505265, 52.016348], [37.494679, 52.00848], [37.485975, 52.002347], [37.477639, 51.996428], [37.459496, 51.983546], [37.448928, 51.9758], [37.445581, 51.973248], [37.440528, 51.969535], [37.431215, 51.963057], [37.413684, 51.949992], [37.398653, 51.939819], [37.389855, 51.93335], [37.379309, 51.925849], [37.36201, 51.912972], [37.338651, 51.892801], [37.33687, 51.87736], [37.333545, 51.87536], [37.319448, 51.874546], [37.292017, 51.872589], [37.257862, 51.869171], [37.25493, 51.868878], [37.244202, 51.867804], [37.232119, 51.86625], [37.211552, 51.8647], [37.194214, 51.864064], [37.181554, 51.861043], [37.167563, 51.858233], [37.161899, 51.855503], [37.140441, 51.850812], [37.130957, 51.847471], [37.129159, 51.84479], [37.126923, 51.843521], [37.121558, 51.841479], [37.104692, 51.836733], [37.080492, 51.82933], [37.049336, 51.814608], [37.029065, 51.805483], [37.02222, 51.802164], [37.01101, 51.797956], [36.99658, 51.793028], [36.983628, 51.788711], [36.968097, 51.783185], [36.947302, 51.775495], [36.935754, 51.77237], [36.930137, 51.770714], [36.92135, 51.768509], [36.894364, 51.763432], [36.874151, 51.759049], [36.861835, 51.755303], [36.855397, 51.753417], [36.829691, 51.750149], [36.810894, 51.746775], [36.800809, 51.744145], [36.789651, 51.739919], [36.77918, 51.737049], [36.765189, 51.734099], [36.753173, 51.733488], [36.741028, 51.732744], [36.732921, 51.730889], [36.729298, 51.730634], [36.710515, 51.72243], [36.69867, 51.717512], [36.68807, 51.714188], [36.671977, 51.710758], [36.648073, 51.705678], [36.622414, 51.700089], [36.611814, 51.697482], [36.597304, 51.69488], [36.590652, 51.693443], [36.58894, 51.692881], [36.587863, 51.692193], [36.57207, 51.680752], [36.553745, 51.667339], [36.546669, 51.663902], [36.537094, 51.660152], [36.519585, 51.652271], [36.498689, 51.643054], [36.491818, 51.641247], [36.487784, 51.639862], [36.480618, 51.637412], [36.473714, 51.63587], [36.471756, 51.634249], [36.474466, 51.625326], [36.471305, 51.621002], [36.467593, 51.617187], [36.44341, 51.61482], [36.414399, 51.613008], [36.398778, 51.611648], [36.385517, 51.606691], [36.365261, 51.599068], [36.359553, 51.598988], [36.35685, 51.598135], [36.351957, 51.595469], [36.33359, 51.582404], [36.315994, 51.569442], [36.299129, 51.55789], [36.268187, 51.544868], [36.235232, 51.530503], [36.227202, 51.530614], [36.205401, 51.532215], [36.194201, 51.536914], [36.19257, 51.537181], [36.191282, 51.537127], [36.189909, 51.536674], [36.169996, 51.52725], [36.162962, 51.524335], [36.147599, 51.52025], [36.129355, 51.515768], [36.118283, 51.51323], [36.110902, 51.510746], [36.098585, 51.50706], [36.079265, 51.501302], [36.063094, 51.496482], [36.059773, 51.495663], [36.05552, 51.495345], [36.050181, 51.492376], [36.035955, 51.488555], [36.011081, 51.481304], [35.981984, 51.479566], [35.957651, 51.478069], [35.953617, 51.478043], [35.936794, 51.478176], [35.907354, 51.478791], [35.893536, 51.478978], [35.890064, 51.480257], [35.863495, 51.482693], [35.854186, 51.483838], [35.841265, 51.490977], [35.840149, 51.491164], [35.838819, 51.491111], [35.83457, 51.489962], [35.833111, 51.489775], [35.831995, 51.489882], [35.820708, 51.491191], [35.809362, 51.491949], [35.799508, 51.495126], [35.784745, 51.496134], [35.76518, 51.489557], [35.757194, 51.49087], [35.737624, 51.488092], [35.7275, 51.488595], [35.725136, 51.487557], [35.717111, 51.480555], [35.704923, 51.475022], [35.693765, 51.469516], [35.673917, 51.460818], [35.663991, 51.460117], [35.659314, 51.454887], [35.642266, 51.450879], [35.621367, 51.444941], [35.607337, 51.436859], [35.593901, 51.425786], [35.586219, 51.418721], [35.578069, 51.408278], [35.568251, 51.396554], [35.565298, 51.394772], [35.563401, 51.391673], [35.558972, 51.388357], [35.544739, 51.377406], [35.535854, 51.373493], [35.517211, 51.365164], [35.508499, 51.355892], [35.499272, 51.350585], [35.492753, 51.346882], [35.489874, 51.344045], [35.478029, 51.332489], [35.477504, 51.331879], [35.477332, 51.331477], [35.477339, 51.331213], [35.477453, 51.330963], [35.481758, 51.326618], [35.482004, 51.32628], [35.482121, 51.326023], [35.482178, 51.325676], [35.482106, 51.325182], [35.480562, 51.314585], [35.47901, 51.310784], [35.477892, 51.309951], [35.472427, 51.306992], [35.46512, 51.303098], [35.456872, 51.298263], [35.45537, 51.29786], [35.45404, 51.297941], [35.448589, 51.299202], [35.447044, 51.299148], [35.445199, 51.298182], [35.440607, 51.296116], [35.434942, 51.294291], [35.416403, 51.289058], [35.390353, 51.282079], [35.37877, 51.27872], [35.372329, 51.276254], [35.36087, 51.271367], [35.359368, 51.269998], [35.336065, 51.250286], [35.327639, 51.243252], [35.292682, 51.232846], [35.269718, 51.224868], [35.255942, 51.223282], [35.242815, 51.217741], [35.222769, 51.208712], [35.211868, 51.205056], [35.190239, 51.19957], [35.174618, 51.195725], [35.154662, 51.194138], [35.14359, 51.186688], [35.136266, 51.18205], [35.13073, 51.178543], [35.124872, 51.174833], [35.120128, 51.173476], [35.055227, 51.164787], [35.026517, 51.151706], [34.998064, 51.135309], [34.995665, 51.13439], [34.986691, 51.133721], [34.983992, 51.132936], [34.981499, 51.131862], [34.969015, 51.124748], [34.953733, 51.121978], [34.932103, 51.117156], [34.911375, 51.112926], [34.874339, 51.105571], [34.85949, 51.102528], [34.855596, 51.102757], [34.838149, 51.103791], [34.820672, 51.104875], [34.791931, 51.105439], [34.757157, 51.104765], [34.738337, 51.102732], [34.736497, 51.098545], [34.726366, 51.093947], [34.70943, 51.086695], [34.687284, 51.078014], [34.655488, 51.066158], [34.649115, 51.063366], [34.631305, 51.051627], [34.623769, 51.045489], [34.623137, 51.039921], [34.629075, 51.039773], [34.629036, 51.037339], [34.622853, 51.037428], [34.622812, 51.036574], [34.621823, 51.016078], [34.613369, 51.013602], [34.597104, 51.007959], [34.583674, 51.00363], [34.576421, 51.001929], [34.571658, 51.001604], [34.570756, 51.001064], [34.562302, 50.993988], [34.554275, 50.987351], [34.546037, 50.980589], [34.536767, 50.975833], [34.529343, 50.97278], [34.505482, 50.96132], [34.487372, 50.952616], [34.457329, 50.942025], [34.452823, 50.933127], [34.446302, 50.926682], [34.439135, 50.919351], [34.427119, 50.906877], [34.423256, 50.902763], [34.416089, 50.900165], [34.393173, 50.891612], [34.380639, 50.886828], [34.368239, 50.882001], [34.342704, 50.872658], [34.321689, 50.859384], [34.315311, 50.853599], [34.299445, 50.83752], [34.296783, 50.818797], [34.287, 50.809841], [34.279533, 50.804526], [34.27258, 50.803034], [34.260135, 50.800403], [34.245329, 50.795873], [34.24284, 50.795195], [34.240609, 50.794788], [34.221726, 50.792591], [34.217649, 50.792102], [34.213786, 50.791261], [34.193571, 50.785979], [34.176751, 50.781277], [34.160398, 50.776156], [34.148947, 50.772916], [34.144272, 50.770571], [34.130531, 50.763202], [34.118058, 50.756642], [34.118745, 50.751467], [34.105787, 50.736336], [34.094003, 50.732084], [34.070322, 50.723335], [34.040324, 50.712494], [34.03629, 50.711298], [34.035389, 50.711244], [34.014146, 50.711515], [34.013651, 50.71142], [34.013372, 50.711284], [34.013157, 50.711076], [34.009409, 50.706214], [34.001249, 50.695996], [33.991657, 50.685461], [33.986695, 50.682759], [33.985928, 50.681804], [33.985477, 50.680988], [33.984597, 50.67971], [33.984018, 50.679125], [33.971465, 50.668695], [33.954637, 50.663232], [33.945716, 50.660303], [33.94423, 50.659722], [33.937777, 50.656834], [33.937342, 50.65673], [33.936811, 50.656698], [33.914195, 50.658916], [33.909404, 50.659355], [33.909066, 50.659228], [33.904469, 50.653356], [33.895784, 50.642317], [33.887459, 50.631988], [33.881944, 50.625591], [33.880356, 50.624297], [33.877524, 50.622201], [33.871274, 50.617753], [33.867074, 50.614863], [33.858201, 50.608656], [33.857739, 50.608334], [33.857377, 50.608141], [33.843019, 50.60255], [33.8376, 50.598095], [33.825061, 50.594901], [33.798905, 50.597179], [33.777377, 50.586935], [33.772587, 50.584085], [33.763937, 50.575649], [33.754586, 50.572308], [33.742373, 50.563303], [33.72122, 50.52756], [33.700464, 50.513837], [33.599143, 50.496606], [33.56608, 50.495222], [33.547927, 50.491725], [33.520347, 50.49238], [33.49242, 50.499081], [33.489072, 50.498444], [33.47768, 50.494419], [33.473414, 50.494419], [33.457796, 50.490055], [33.435606, 50.47535], [33.42009, 50.461732], [33.403758, 50.457664], [33.39419, 50.451969], [33.393489, 50.451543], [33.397089, 50.449148], [33.395009, 50.447871], [33.391373, 50.450292], [33.382636, 50.445091], [33.362756, 50.438818], [33.359468, 50.43479], [33.359079, 50.417523], [33.347611, 50.406015], [33.326897, 50.393021], [33.32882, 50.389329], [33.326211, 50.364134], [33.322668, 50.338742], [33.274057, 50.303312], [33.269404, 50.30253], [33.26454, 50.301714], [33.251405, 50.297689], [33.192015, 50.289882], [33.139766, 50.277899], [33.127752, 50.268477], [33.052289, 50.252153], [33.038752, 50.242449], [33.020743, 50.239022], [32.991673, 50.220026], [32.98423, 50.214903], [32.983513, 50.213898], [32.982472, 50.206666], [32.970233, 50.197904], [32.963465, 50.191818], [32.963508, 50.179468], [32.96685, 50.174481], [32.967291, 50.156537], [32.926554, 50.136387], [32.926877, 50.130788], [32.927229, 50.12953], [32.928667, 50.124063], [32.926398, 50.120782], [32.905083, 50.11507], [32.900448, 50.109667], [32.880871, 50.072234], [32.827707, 50.056827], [32.8224, 50.050683], [32.807519, 50.04756], [32.790424, 50.042199], [32.78842, 50.039049], [32.77674, 50.020679], [32.774932, 50.009692], [32.738022, 49.998577], [32.705505, 49.982802], [32.697801, 49.981355], [32.6918, 49.980228], [32.685384, 49.97828], [32.685159, 49.978188], [32.675455, 49.974196], [32.626891, 49.961647], [32.575324, 49.94343], [32.561208, 49.93745], [32.560086, 49.936649], [32.526861, 49.91292], [32.400545, 49.888036], [32.396064, 49.886786], [32.359193, 49.875038], [32.323636, 49.862963], [32.267993, 49.843174], [32.248127, 49.842866], [32.236076, 49.842521], [32.207917, 49.824934], [32.207267, 49.824786], [32.189465, 49.825689], [32.155332, 49.814297], [32.121369, 49.802738], [32.119775, 49.793316], [32.11559, 49.793716], [32.115061, 49.791057], [32.119317, 49.790611], [32.115337, 49.767081], [32.110558, 49.758508], [32.101604, 49.738121], [32.100827, 49.73675], [32.099901, 49.736295], [32.076411, 49.733636], [32.002301, 49.724379], [31.939342, 49.71967], [31.93085, 49.71499], [31.873337, 49.703], [31.870096, 49.700157], [31.852151, 49.696692], [31.849505, 49.695045], [31.766852, 49.674172], [31.627039, 49.671762], [31.622729, 49.670794], [31.610704, 49.668238], [31.572589, 49.639415], [31.52673, 49.608381], [31.508115, 49.595932], [31.483906, 49.57844], [31.44751, 49.564224], [31.43279, 49.556563], [31.423914, 49.552417], [31.395202, 49.546728], [31.389967, 49.544837], [31.294594, 49.523201], [31.293427, 49.523113], [31.285011, 49.523951], [31.256821, 49.525906], [31.229641, 49.516552], [31.167658, 49.524606], [31.156804, 49.526547], [31.147633, 49.527255], [31.090858, 49.508492], [31.05565, 49.518582], [31.042988, 49.521174], [31.036135, 49.519691], [31.03189, 49.517087], [31.022933, 49.513175], [31.022674, 49.513124], [31.022193, 49.51303], [30.972548, 49.503272], [30.970044, 49.501467], [30.940805, 49.500244], [30.928198, 49.497392], [30.926011, 49.497182], [30.894069, 49.496219], [30.880014, 49.500645], [30.871154, 49.503436], [30.869534, 49.505982], [30.8686, 49.506382], [30.858998, 49.507091], [30.851893, 49.506335], [30.844141, 49.509447], [30.790208, 49.509757], [30.774334, 49.506427], [30.768812, 49.507424], [30.768381, 49.506425], [30.764216, 49.504704], [30.765573, 49.508063], [30.760787, 49.50899], [30.752954, 49.506771], [30.744143, 49.504274], [30.737566, 49.505916], [30.724751, 49.506023], [30.694592, 49.509416], [30.674085, 49.510764], [30.614686, 49.502825], [30.604655, 49.503678], [30.596955, 49.501573], [30.560975, 49.487212], [30.559075, 49.487212], [30.554365, 49.48912], [30.526738, 49.48779], [30.524015, 49.486924], [30.522469, 49.486432], [30.44434, 49.482657], [30.413347, 49.478222], [30.311312, 49.434926], [30.298062, 49.430925], [30.285052, 49.432394], [30.212584, 49.433098], [30.171365, 49.414003], [30.148376, 49.405808], [30.137896, 49.400623], [30.126827, 49.395333], [30.118969, 49.379886], [30.114584, 49.377983], [30.103064, 49.377648], [30.102006, 49.377394], [30.093337, 49.372588], [30.092802, 49.364061], [30.071185, 49.348453], [30.060604, 49.342216], [30.037829, 49.336725], [30.002544, 49.332073], [29.993375, 49.328238], [29.967913, 49.323229], [29.94306, 49.316397], [29.936518, 49.312354], [29.906946, 49.311688], [29.842562, 49.295697], [29.825655, 49.279523], [29.817963, 49.276872], [29.806838, 49.275058], [29.795687, 49.277014], [29.776483, 49.274048], [29.769308, 49.277587], [29.76847, 49.277654], [29.739844, 49.270642], [29.688677, 49.265059], [29.644077, 49.247252], [29.625647, 49.242547], [29.599912, 49.24092], [29.595994, 49.241078], [29.578241, 49.249573], [29.577612, 49.249636], [29.567671, 49.24692], [29.566704, 49.246747], [29.565809, 49.24681], [29.552603, 49.250709], [29.525299, 49.247892], [29.519687, 49.24265], [29.457675, 49.225135], [29.436294, 49.225227], [29.425553, 49.223864], [29.419687, 49.221061], [29.4189, 49.220882], [29.410909, 49.220397], [29.405821, 49.217505], [29.394953, 49.21625], [29.387481, 49.216422], [29.367403, 49.211824], [29.354601, 49.206953], [29.33864, 49.199468], [29.302809, 49.1907], [29.27941, 49.194466], [29.268532, 49.191989], [29.270305, 49.188627], [29.267623, 49.188026], [29.265898, 49.191382], [29.249595, 49.187566], [29.243708, 49.186637], [29.202624, 49.190435], [29.159966, 49.185277], [29.149475, 49.185162], [29.128287, 49.178221], [29.082297, 49.170291], [29.077874, 49.167739], [29.010205, 49.155693], [28.959657, 49.132511], [28.954462, 49.131723], [28.939608, 49.121447], [28.914818, 49.117908], [28.912043, 49.118477], [28.905719, 49.118946], [28.90468, 49.11884], [28.898216, 49.117718], [28.879809, 49.112195], [28.848452, 49.114426], [28.82338, 49.100485], [28.816209, 49.095893], [28.807893, 49.092453], [28.802186, 49.088989], [28.767281, 49.08291], [28.737631, 49.079524], [28.73151, 49.078204], [28.724418, 49.073464], [28.716013, 49.073785], [28.7063, 49.075163], [28.702231, 49.074624], [28.691744, 49.080658], [28.677155, 49.083096], [28.661355, 49.080392], [28.646601, 49.071517], [28.642918, 49.066501], [28.632015, 49.062897], [28.627466, 49.053983], [28.613477, 49.049481], [28.589121, 49.044818], [28.581996, 49.045554], [28.537082, 49.04187], [28.529989, 49.042144], [28.49934, 49.038396], [28.489425, 49.037787], [28.488232, 49.036563], [28.48319, 49.035396], [28.469316, 49.01104], [28.452291, 49.007919], [28.419961, 49.005008], [28.386651, 48.995338], [28.367735, 48.988585], [28.362935, 48.987225], [28.325204, 48.979173], [28.313719, 48.981331], [28.302612, 48.982465], [28.284224, 48.981137], [28.264952, 48.979576], [28.228388, 48.982662], [28.226135, 48.983906], [28.188357, 48.992455], [28.163003, 48.992648], [28.149699, 48.995638], [28.050425, 48.998344], [28.03696, 49.000588], [28.025566, 49.000895], [28.012597, 49.001596], [27.991002, 48.99434], [27.983413, 48.994158], [27.950078, 48.995346], [27.940846, 48.995453], [27.935846, 48.996766], [27.924232, 49.004311], [27.914475, 49.008411], [27.907354, 49.01357], [27.86299, 49.0106], [27.859748, 49.010087], [27.859128, 49.009993], [27.854976, 49.009331], [27.852816, 49.008509], [27.850619, 49.007646], [27.84118, 49.003938], [27.83995, 49.003581], [27.838793, 49.003625], [27.837356, 49.004067], [27.833172, 49.00554], [27.832275, 49.00563], [27.823967, 49.006462], [27.816788, 49.009234], [27.816252, 49.00944], [27.810277, 49.011581], [27.798824, 49.016603], [27.773358, 49.0202], [27.761879, 49.017328], [27.760204, 49.015459], [27.756345, 49.010383], [27.755161, 49.008912], [27.754534, 49.008588], [27.753912, 49.008271], [27.753264, 49.008032], [27.752598, 49.007785], [27.749263, 49.00799], [27.743801, 49.008403], [27.732017, 49.009335], [27.731535, 49.006052], [27.729993, 49.006124], [27.730404, 49.008715], [27.730345, 49.008937], [27.730278, 49.009705], [27.728227, 49.009911], [27.725379, 49.009956], [27.72168, 49.009807], [27.713863, 49.010148], [27.703072, 49.01062], [27.702115, 49.010545], [27.701266, 49.010376], [27.680452, 49.001771], [27.676469, 49.000124], [27.671298, 48.997986], [27.654143, 48.994796], [27.651959, 48.994389], [27.650123, 48.993749], [27.646636, 48.993396], [27.642827, 48.992925], [27.640157, 48.992595], [27.638935, 48.992445], [27.63723, 48.992237], [27.636765, 48.99218], [27.636245, 48.992116], [27.634449, 48.991896], [27.634038, 48.991846], [27.628411, 48.991369], [27.624993, 48.991186], [27.620641, 48.990821], [27.620209, 48.990784], [27.617868, 48.990939], [27.615848, 48.991251], [27.593004, 48.996687], [27.592445, 48.996821], [27.580837, 48.999583], [27.57091, 49.00323], [27.569078, 49.003937], [27.560101, 49.0072], [27.548385, 49.011504], [27.532518, 49.016837], [27.528718, 49.016684], [27.523847, 49.016397], [27.518646, 49.015924], [27.512649, 49.015517], [27.504197, 49.015036], [27.500136, 49.01492], [27.485733, 49.015678], [27.483693, 49.015785], [27.470829, 49.015698], [27.470516, 49.015702], [27.467361, 49.015742], [27.460351, 49.015831], [27.450581, 49.016314], [27.408395, 49.017463], [27.389702, 49.013939], [27.388622, 49.013752], [27.384628, 49.013947], [27.362858, 49.015011], [27.343273, 49.016689], [27.305996, 49.02237], [27.280786, 49.02255], [27.265601, 49.022027], [27.252381, 49.017644], [27.247971, 49.014445], [27.247583, 49.014194], [27.243599, 49.011459], [27.219465, 49.00887], [27.211736, 49.009098], [27.183733, 49.005172], [27.171498, 49.006223], [27.164938, 49.006633], [27.148765, 49.009061], [27.136931, 49.011409], [27.120338, 49.011819], [27.098879, 49.017241], [27.09626, 49.017698], [27.094313, 49.017572], [27.089893, 49.015687], [27.085134, 49.014073], [27.073315, 49.016015], [27.022319, 48.999902], [27.014192, 49.000581], [26.973509, 49.009645], [26.967862, 49.010165], [26.958658, 49.011631], [26.936691, 49.003044], [26.92988, 49.002087], [26.913338, 48.998831], [26.902452, 48.991847], [26.848048, 48.987384], [26.820509, 48.982906], [26.800372, 48.976218], [26.783407, 48.979799], [26.754584, 48.976107], [26.751028, 48.977542], [26.749658, 48.979529], [26.699418, 49.002238], [26.691839, 49.008525], [26.652214, 49.021631], [26.641, 49.02914], [26.63699, 49.035357], [26.606506, 49.050482], [26.583295, 49.049213], [26.563007, 49.043377], [26.550035, 49.040043], [26.492794, 49.042702], [26.46776, 49.039238], [26.453465, 49.040549], [26.426308, 49.03974], [26.401496, 49.037636], [26.387276, 49.037442], [26.361303, 49.041455], [26.35402, 49.049482], [26.347347, 49.049817], [26.342416, 49.050064], [26.277041, 49.062344], [26.210212, 49.047784], [26.195714, 49.038972], [26.195286, 49.039016], [26.186445, 49.039929], [26.169021, 49.033289], [26.152607, 49.027493], [26.141276, 49.023961], [26.135204, 49.019866], [26.13917, 49.017712], [26.137439, 49.016287], [26.13344, 49.018454], [26.127366, 49.013594], [26.124973, 49.013189], [26.114588, 49.015891], [26.099911, 49.016228], [26.09283, 49.014146], [26.082272, 49.001759], [26.07708, 48.99962], [26.073003, 48.997198], [26.061244, 48.994326], [25.994596, 48.987821], [25.987344, 48.979773], [25.986056, 48.976893], [25.982011, 48.976591], [25.980681, 48.976795], [25.969448, 48.958496], [25.967817, 48.953987], [25.960221, 48.943841], [25.958033, 48.938655], [25.936832, 48.932015], [25.931318, 48.923627], [25.916748, 48.922076], [25.894647, 48.920102], [25.878124, 48.914349], [25.834426, 48.905887], [25.831497, 48.906691], [25.812936, 48.913052], [25.811348, 48.913291], [25.810382, 48.912784], [25.80931, 48.912544], [25.807893, 48.912601], [25.804739, 48.912248], [25.798774, 48.913235], [25.77045, 48.903998], [25.751867, 48.891104], [25.733435, 48.886392], [25.724165, 48.884007], [25.708651, 48.877671], [25.670414, 48.857318], [25.658784, 48.852489], [25.637498, 48.834894], [25.632691, 48.83334], [25.59337, 48.824843], [25.586579, 48.826376], [25.586042, 48.826404], [25.585549, 48.826334], [25.580184, 48.824285], [25.57879, 48.823607], [25.576708, 48.822858], [25.575936, 48.822816], [25.573747, 48.82331], [25.57261, 48.823409], [25.566087, 48.823099], [25.565379, 48.822957], [25.564156, 48.822548], [25.555658, 48.819086], [25.545616, 48.815314], [25.53463, 48.811357], [25.516648, 48.806185], [25.515597, 48.803715], [25.517678, 48.799825], [25.517936, 48.788234], [25.516133, 48.782805], [25.512679, 48.780373], [25.501006, 48.772893], [25.492358, 48.767391], [25.485449, 48.763035], [25.479355, 48.760404], [25.460515, 48.756642], [25.452704, 48.755142], [25.432749, 48.753076], [25.429831, 48.752992], [25.407557, 48.758396], [25.380478, 48.760829], [25.359364, 48.759612], [25.356231, 48.758848], [25.335095, 48.747311], [25.278747, 48.738602], [25.263834, 48.739097], [25.244608, 48.735503], [25.237312, 48.731342], [25.225468, 48.732616], [25.209782, 48.740328], [25.194526, 48.741149], [25.163069, 48.734682], [25.140753, 48.728341], [25.12893, 48.72728], [25.10539, 48.737909], [25.078354, 48.733267], [25.062454, 48.732205], [25.044365, 48.734144], [25.015955, 48.738418], [24.996471, 48.7492], [24.935102, 48.756868], [24.89562, 48.762186], [24.880686, 48.761677], [24.859743, 48.766034], [24.85425, 48.765694], [24.843178, 48.766147], [24.829874, 48.769428], [24.819145, 48.781702], [24.816549, 48.782041], [24.803696, 48.782225], [24.75812, 48.782268], [24.755201, 48.781999], [24.747841, 48.780203], [24.733658, 48.780366], [24.728664, 48.780518], [24.722908, 48.784742], [24.719474, 48.786919], [24.716771, 48.787428], [24.70808, 48.790242], [24.69409, 48.794002], [24.691901, 48.794991], [24.687427, 48.80851], [24.68703, 48.808891], [24.684595, 48.810305], [24.680803, 48.810928], [24.680722, 48.810942], [24.680683, 48.810938], [24.680653, 48.810923], [24.680636, 48.810906], [24.680594, 48.810794], [24.68057, 48.81076], [24.68053, 48.810744], [24.680492, 48.810741], [24.674046, 48.811764], [24.673995, 48.811786], [24.673976, 48.811808], [24.67397, 48.811836], [24.674008, 48.811927], [24.674016, 48.811958], [24.673992, 48.81199], [24.673949, 48.81201], [24.667501, 48.813033], [24.667454, 48.813046], [24.667427, 48.813076], [24.667425, 48.813108], [24.667475, 48.813228], [24.667457, 48.813261], [24.667425, 48.813283], [24.653643, 48.815154], [24.640425, 48.811413], [24.620855, 48.801548], [24.600921, 48.78611], [24.588883, 48.786566], [24.582564, 48.787511], [24.580262, 48.787283], [24.576953, 48.786475], [24.574206, 48.785802], [24.562866, 48.784191], [24.552469, 48.778436], [24.522858, 48.77594], [24.508814, 48.777064], [24.498407, 48.773197], [24.497623, 48.77272], [24.497244, 48.772557], [24.494466, 48.773614], [24.484148, 48.777602], [24.481938, 48.777347], [24.440374, 48.776272], [24.428058, 48.779016], [24.409508, 48.783484], [24.394551, 48.78506], [24.385357, 48.791987], [24.366839, 48.797422], [24.339566, 48.79656], [24.335082, 48.796489], [24.331477, 48.795641], [24.325662, 48.795387], [24.320061, 48.799217], [24.315298, 48.801394], [24.314632, 48.801945], [24.313517, 48.804744], [24.312422, 48.805655], [24.29532, 48.817476], [24.282038, 48.826899], [24.275891, 48.831567], [24.264979, 48.835812], [24.224682, 48.846898], [24.224659, 48.846915], [24.224659, 48.846941], [24.224943, 48.847283], [24.224948, 48.847307], [24.224934, 48.847328], [24.224909, 48.847347], [24.224838, 48.847369], [24.214765, 48.850024], [24.214725, 48.850024], [24.214685, 48.850011], [24.214663, 48.849985], [24.214575, 48.849781], [24.214558, 48.849753], [24.214529, 48.849737], [24.214487, 48.849729], [24.214325, 48.849757], [24.21179, 48.850302], [24.199689, 48.859059], [24.145139, 48.857262], [24.133759, 48.850734], [24.131985, 48.851557], [24.130429, 48.852051], [24.129088, 48.852652], [24.127457, 48.853216], [24.123144, 48.853294], [24.121052, 48.853435], [24.119808, 48.853534], [24.119486, 48.853506], [24.11793, 48.852842], [24.112834, 48.852313], [24.108875, 48.8516], [24.106708, 48.851783], [24.096665, 48.851684], [24.091923, 48.851783], [24.087696, 48.84982], [24.084628, 48.848564], [24.080143, 48.848084], [24.078233, 48.848281], [24.077032, 48.849199], [24.075851, 48.849623], [24.067247, 48.848423], [24.063331, 48.847538], [24.057698, 48.848832], [24.053471, 48.850442], [24.046742, 48.85509]]}},
{"type": "Feature", "properties": {"ProjectID": "P0768"}, "geometry": {"type": "LineString", "coordinates": [[76.51694, 66.48333], [76.306915, 66.438166], [76.191559, 66.426086], [76.113281, 66.394211], [76.021271, 66.392011], [75.741119, 66.355136], [75.614777, 66.347975], [75.379944, 66.304965], [75.29068, 66.252758], [75.263901, 66.223154], [75.204163, 66.202105], [75.184937, 66.171332], [75.08194, 66.109116], [75.043488, 66.062076], [74.906158, 66.021925], [74.761276, 65.997637], [74.68083, 65.9575], [74.583435, 65.917069], [74.395294, 65.872199], [74.251099, 65.826688], [73.929749, 65.71877], [73.89267, 65.697019], [73.606339, 65.579475], [73.46944, 65.425], [73.418198, 65.358822], [73.313141, 65.300068], [73.230743, 65.277678], [73.094788, 65.134857], [72.960205, 65.08891], [72.825623, 64.931107], [72.721252, 64.90491], [72.68692, 64.860024], [72.34889, 64.70639], [72.291412, 64.669744], [72.033234, 64.421258], [71.647339, 64.37319], [71.475677, 64.387441], [71.250458, 64.355959], [71.173553, 64.319681], [71.08806, 64.30139], [71.006012, 64.265473], [70.878296, 64.254737], [70.75058, 64.301822], [70.630074, 64.327863], [70.141525, 64.310456], [70.076294, 64.237731], [69.945145, 64.201298], [69.53944, 64.03361], [69.45488, 64.0157], [69.270172, 64.006974], [69.179535, 63.99102], [68.903503, 63.91202], [68.577347, 63.924095], [68.489456, 63.903866], [68.426971, 63.920775], [68.212738, 63.911718], [67.886581, 63.851262], [67.83194, 63.815], [67.759552, 63.810986], [67.505493, 63.760333], [67.373657, 63.696508], [67.322159, 63.663019], [67.193069, 63.62888], [66.998062, 63.386908], [66.93556, 63.24972], [66.522217, 63.011678], [66.414757, 62.906009], [66.352272, 62.866265], [66.285324, 62.792423], [66.225243, 62.756769], [66.226616, 62.733972], [66.078987, 62.641975], [66.017876, 62.587809], [65.94944, 62.56278], [65.849648, 62.543044], [65.796089, 62.52024], [65.78373, 62.50265], [65.670776, 62.452676], [65.639191, 62.366175], [65.606918, 62.346423], [65.581512, 62.342279], [65.476456, 62.287407], [65.425644, 62.197866], [65.064468, 62.015085], [64.874268, 61.982848], [64.82363, 61.9484], [64.750671, 61.909543], [64.708786, 61.842219], [64.561387, 61.785456], [64.561147, 61.785336]]}}
]
}
