{
"type": "FeatureCollection",
"features": [
{"type": "Feature", "id": "way/274282005", "properties": {"ProjectID": "P0767", "@id": "way/274282005", "diameter": "1420 mm", "flow_direction": "forward", "layer": "-1", "location": "underground", "man_made": "pipeline", "name": "Ухта — Торжок (Ухта — Грязовец)", "operator": "ООО «Газпром трансгаз Ухта»", "place:destination": "Грязовец", "place:origin": "Ухта", "substance": "gas", "usage": "transmission"}, "geometry": {"type": "LineString", "coordinates": [[52.033842, 62.901527], [52.031027, 62.900102], [52.031001, 62.899044], [52.017216, 62.891588], [52.013898, 62.889545], [51.998931, 62.885454], [51.98708, 62.885083], [51.985562, 62.884694], [51.977893, 62.879776], [51.952364, 62.861589], [51.95061, 62.860652], [51.949035, 62.859203], [51.945289, 62.856511], [51.947495, 62.854601], [51.94294, 62.851234], [51.941399, 62.850259], [51.941398, 62.849675], [51.938495, 62.847602], [51.937454, 62.847483], [51.937078, 62.847216], [51.936361, 62.847001], [51.934869, 62.845902], [51.930483, 62.844263], [51.916336, 62.840613], [51.907253, 62.837992], [51.903035, 62.837159], [51.901492, 62.837256], [51.885225, 62.832971], [51.883951, 62.832227], [51.881828, 62.832091], [51.87465, 62.830207], [51.871012, 62.83118], [51.840686, 62.823221], [51.828586, 62.81982], [51.809346, 62.815032], [51.803838, 62.814412], [51.799606, 62.812415], [51.791663, 62.810291], [51.786481, 62.809712], [51.782339, 62.807785], [51.773525, 62.805361], [51.740383, 62.796635], [51.730858, 62.794103], [51.721995, 62.79159], [51.711278, 62.788868], [51.702562, 62.786482], [51.694549, 62.784483], [51.671359, 62.78118], [51.662878, 62.779787], [51.645188, 62.777254], [51.640515, 62.777536], [51.638241, 62.778189], [51.635393, 62.778127], [51.624973, 62.778538], [51.621583, 62.777556], [51.611838, 62.774935], [51.608064, 62.773831], [51.602672, 62.772432], [51.596469, 62.770653], [51.593579, 62.770247], [51.592452, 62.7695], [51.582171, 62.766618], [51.575595, 62.764871], [51.563116, 62.761263], [51.552138, 62.758308], [51.549448, 62.757747], [51.544981, 62.756215], [51.527356, 62.751409], [51.525148, 62.750744], [51.504266, 62.745059], [51.486627, 62.738165], [51.452987, 62.725351], [51.425357, 62.714644], [51.423894, 62.714463], [51.422908, 62.714112], [51.422397, 62.713756], [51.39839, 62.706198], [51.380047, 62.700545], [51.339359, 62.687867], [51.283838, 62.678868], [51.280171, 62.679791], [51.276448, 62.679518], [51.274282, 62.679745], [51.270433, 62.68114], [51.263358, 62.680762], [51.257973, 62.681159], [51.227479, 62.677045], [51.216911, 62.675737], [51.20613, 62.674197], [51.163692, 62.668784], [51.14599, 62.666305], [51.127038, 62.660945], [51.119054, 62.658935], [51.106058, 62.65506], [51.10016, 62.653468], [51.097667, 62.653352], [51.096798, 62.652619], [51.085984, 62.649601], [51.063065, 62.642961], [51.049862, 62.639345], [51.049067, 62.638924], [51.040354, 62.628661], [51.036076, 62.626977], [51.035507, 62.626388], [51.034466, 62.621724], [51.031985, 62.618751], [51.010484, 62.607933], [50.998876, 62.604917], [50.998135, 62.604497], [50.997073, 62.603337], [50.995936, 62.602823], [50.993658, 62.600019], [50.993469, 62.598797], [50.992557, 62.597763], [50.974612, 62.586378], [50.959676, 62.58351], [50.944363, 62.580136], [50.922383, 62.575717], [50.921529, 62.575368], [50.89905, 62.559034], [50.883123, 62.547748], [50.885766, 62.545874], [50.88512, 62.544664], [50.882002, 62.543739], [50.86216, 62.529381], [50.861741, 62.528636], [50.85988, 62.528131], [50.859999, 62.525575], [50.857648, 62.524066], [50.8573, 62.52366], [50.857241, 62.52299], [50.857643, 62.521414], [50.857487, 62.521208], [50.849878, 62.518432], [50.820645, 62.511031], [50.811782, 62.513499], [50.809317, 62.515051], [50.789545, 62.508474], [50.779298, 62.504957], [50.768991, 62.501675], [50.764947, 62.501438], [50.761727, 62.499557], [50.760469, 62.49818], [50.753576, 62.495642], [50.71814, 62.483399], [50.714903, 62.482765], [50.707829, 62.4828], [50.689066, 62.480197], [50.666458, 62.475731], [50.655147, 62.473853], [50.622144, 62.467461], [50.612464, 62.465672], [50.595069, 62.461624], [50.563367, 62.455428], [50.548972, 62.453319], [50.539914, 62.450772], [50.523712, 62.449688], [50.470623, 62.444524], [50.468135, 62.443674], [50.466175, 62.44352], [50.464537, 62.442958], [50.46348, 62.442047], [50.422869, 62.427686], [50.400065, 62.423767], [50.371526, 62.42034], [50.345861, 62.41621], [50.319658, 62.408041], [50.290493, 62.399221], [50.28854, 62.399043], [50.284506, 62.3978], [50.284313, 62.397278], [50.275964, 62.394692], [50.238662, 62.383803], [50.231208, 62.382381], [50.229302, 62.382117], [50.227806, 62.381368], [50.220807, 62.378507], [50.201772, 62.372977], [50.199695, 62.372936], [50.197811, 62.372395], [50.196887, 62.371625], [50.190544, 62.369792], [50.188874, 62.369791], [50.186815, 62.368761], [50.181238, 62.367173], [50.179797, 62.366849], [50.177318, 62.366103], [50.180374, 62.363817], [50.182064, 62.363076], [50.188496, 62.358186], [50.188325, 62.357477], [50.170566, 62.345722], [50.16651, 62.343431], [50.16582, 62.342991], [50.16333, 62.341403], [50.161939, 62.341282], [50.160837, 62.340542]]}},
{"type": "Feature", "id": "way/302171090", "properties": {"ProjectID": "P0767", "@id": "way/302171090", "diameter": "1420 mm", "flow_direction": "forward", "layer": "-1", "location": "underground", "man_made": "pipeline", "name": "Ухта — Торжок (Ухта — Грязовец)", "operator": "ООО «Газпром трансгаз Ухта»", "place:destination": "Грязовец", "place:origin": "Ухта", "substance": "gas", "usage": "transmission"}, "geometry": {"type": "LineString", "coordinates": [[48.493118, 61.758292], [48.490499, 61.757425], [48.486478, 61.754887], [48.486048, 61.753839], [48.482144, 61.751797], [48.479569, 61.750342], [48.476811, 61.749812], [48.47428, 61.748791], [48.472066, 61.7475], [48.470665, 61.745917], [48.461345, 61.741301], [48.45823, 61.740302], [48.457661, 61.739987], [48.456581, 61.738757], [48.453645, 61.737127], [48.450311, 61.734225], [48.414178, 61.715663], [48.406636, 61.712064], [48.402065, 61.709532], [48.382619, 61.699502], [48.376998, 61.697276], [48.325482, 61.670905], [48.319014, 61.66704], [48.307462, 61.659743], [48.303532, 61.655445], [48.286488, 61.640294], [48.262903, 61.618694], [48.264323, 61.616745], [48.265733, 61.615959], [48.267863, 61.612056], [48.272794, 61.610759], [48.278482, 61.602725], [48.274914, 61.593759], [48.27102, 61.590214], [48.270188, 61.581921], [48.254142, 61.576853], [48.247791, 61.565537], [48.246866, 61.56507], [48.243951, 61.559774], [48.229963, 61.555236], [48.201751, 61.54648], [48.144297, 61.528254], [48.140501, 61.527249], [48.139842, 61.526783], [48.112427, 61.517568], [48.097696, 61.512789], [48.094062, 61.511953], [48.089406, 61.510039], [48.077639, 61.506088], [48.072484, 61.504126], [48.057572, 61.499036], [48.05084, 61.496545], [48.034545, 61.491073], [48.030317, 61.49039], [48.028517, 61.489021], [48.009308, 61.482529], [47.981662, 61.473576], [47.955692, 61.465412], [47.938324, 61.460049], [47.905862, 61.45311], [47.895214, 61.451422], [47.893766, 61.450467], [47.84512, 61.439354], [47.815026, 61.425596], [47.810547, 61.424241], [47.807983, 61.423112], [47.805076, 61.42097], [47.778118, 61.408802], [47.719991, 61.381141], [47.709564, 61.377327], [47.685643, 61.369115], [47.671926, 61.36422], [47.674205, 61.362661], [47.657391, 61.344392], [47.647423, 61.339419], [47.631467, 61.333589], [47.626351, 61.33244], [47.556889, 61.30559], [47.546515, 61.287063], [47.544667, 61.284813], [47.540143, 61.283349], [47.534448, 61.282348], [47.521921, 61.279663], [47.501151, 61.289245], [47.499442, 61.289194], [47.492419, 61.288946], [47.436265, 61.282695], [47.431576, 61.281705], [47.425042, 61.277502], [47.417555, 61.277907], [47.413915, 61.279191], [47.409933, 61.278943], [47.375994, 61.273889], [47.338188, 61.264685], [47.337234, 61.264074], [47.334609, 61.26349], [47.333012, 61.263477], [47.299831, 61.255401], [47.276908, 61.250033], [47.269048, 61.246805], [47.264181, 61.247655], [47.248552, 61.24631], [47.218019, 61.241598], [47.216506, 61.24085], [47.209972, 61.239869], [47.207773, 61.240065], [47.186219, 61.236746], [47.177314, 61.235259], [47.13583, 61.229124], [47.132657, 61.226256], [47.114243, 61.221641], [47.089714, 61.222148], [47.058382, 61.217581], [47.056927, 61.217068], [47.050155, 61.216623], [47.045603, 61.215987], [47.044393, 61.215755], [47.037675, 61.214849], [47.036097, 61.214566], [47.031737, 61.213949], [47.030151, 61.213792], [47.027298, 61.21342], [47.023759, 61.212858], [47.01712, 61.211955], [47.012278, 61.210748], [47.009886, 61.210445], [47.004924, 61.21024], [46.984279, 61.20734], [46.971637, 61.205626], [46.965407, 61.204558], [46.962764, 61.204199], [46.947279, 61.197206], [46.928808, 61.199803], [46.853898, 61.191198], [46.829003, 61.18092], [46.799442, 61.173526], [46.726207, 61.130792], [46.712079, 61.126094], [46.703174, 61.123872], [46.689109, 61.118457], [46.67785, 61.116093], [46.668291, 61.108641], [46.651926, 61.108778], [46.644578, 61.106801], [46.641039, 61.107725], [46.632517, 61.107807], [46.608948, 61.111006], [46.597242, 61.118894], [46.542697, 61.135441], [46.536884, 61.138086], [46.528114, 61.134], [46.520645, 61.130037], [46.498585, 61.11964], [46.495854, 61.117568], [46.492922, 61.115391], [46.49026, 61.113665], [46.485685, 61.109794], [46.484283, 61.108717], [46.481276, 61.107913], [46.478822, 61.106105]]}},
{"type": "Feature", "id": "way/1248808304", "properties": {"ProjectID": "P0767", "@id": "way/1248808304", "diameter": "1420 mm", "flow_direction": "forward", "layer": "-1", "location": "underground", "man_made": "pipeline", "name": "Ухта — Торжок (Ухта — Грязовец)", "operator": "ООО «Газпром трансгаз Ухта»", "place:destination": "Грязовец", "place:origin": "Ухта", "substance": "gas", "usage": "transmission"}, "geometry": {"type": "LineString", "coordinates": [[53.724167, 63.670335], [53.723313, 63.670881], [53.721687, 63.670392], [53.720487, 63.671173], [53.71024, 63.668028], [53.707225, 63.664967], [53.688889, 63.661757], [53.68318, 63.658558], [53.68488, 63.656952], [53.690512, 63.65242], [53.673531, 63.645117], [53.651237, 63.635888], [53.607652, 63.621585], [53.596161, 63.614696], [53.593382, 63.613299], [53.54721, 63.592406], [53.539235, 63.588662], [53.475184, 63.567457], [53.473032, 63.56735], [53.470413, 63.566468], [53.469733, 63.565721], [53.464205, 63.563858], [53.443962, 63.560419], [53.416006, 63.555888], [53.41336, 63.555344], [53.400169, 63.553072], [53.397161, 63.552778], [53.388391, 63.552331], [53.375989, 63.550017], [53.36011, 63.545355], [53.344481, 63.541021], [53.311586, 63.531619], [53.296037, 63.528142], [53.278893, 63.525681], [53.251586, 63.512659], [53.216336, 63.502991], [53.19288, 63.497411], [53.173451, 63.493145], [53.15389, 63.488675], [53.132396, 63.479518], [53.127428, 63.478502], [53.119489, 63.477744], [53.110896, 63.476051], [53.105647, 63.473923], [53.094441, 63.464836], [53.092701, 63.463041], [53.083134, 63.455664], [53.072032, 63.433339], [53.070796, 63.432299], [53.070715, 63.430917], [53.065397, 63.420609], [53.062332, 63.414814], [53.001906, 63.390956], [52.975087, 63.380141], [52.938639, 63.365392], [52.920951, 63.362302], [52.918474, 63.362162], [52.907233, 63.360233], [52.90528, 63.359541], [52.885304, 63.356055], [52.88389, 63.355055], [52.868601, 63.328553], [52.850721, 63.298036], [52.835172, 63.290312], [52.83126, 63.288193], [52.826759, 63.285906], [52.801606, 63.273104], [52.784901, 63.265087], [52.759997, 63.25345], [52.730931, 63.245599], [52.708463, 63.239726], [52.678447, 63.232121], [52.670838, 63.230228], [52.654275, 63.222327], [52.64748, 63.218822], [52.631653, 63.21324], [52.631072, 63.211013], [52.605213, 63.197872], [52.569063, 63.189112], [52.567393, 63.188193], [52.55908, 63.175076], [52.523764, 63.157699], [52.519445, 63.156639], [52.516684, 63.155209], [52.514269, 63.153038], [52.504861, 63.148342], [52.49029, 63.141563], [52.47925, 63.137153], [52.475126, 63.135406], [52.459299, 63.125479], [52.451995, 63.121282], [52.419628, 63.105392], [52.400725, 63.10015], [52.396535, 63.098832], [52.389715, 63.09689], [52.38425, 63.095013], [52.373845, 63.090739], [52.366922, 63.088186], [52.356893, 63.083949], [52.331349, 63.07365], [52.321104, 63.069717], [52.316312, 63.065588], [52.31133, 63.060472], [52.304499, 63.054134], [52.301101, 63.050952], [52.259054, 63.033728], [52.249543, 63.032789], [52.244444, 63.029404], [52.243931, 63.027494], [52.226547, 63.020549], [52.225137, 63.01957], [52.224913, 63.018795], [52.232505, 63.012004], [52.232801, 63.010102], [52.233097, 63.009722], [52.236222, 63.008507], [52.240183, 63.005001], [52.235644, 62.99178], [52.232041, 62.986911], [52.232513, 62.985835], [52.232395, 62.984504], [52.230537, 62.982556], [52.224688, 62.980226], [52.217189, 62.978299], [52.196801, 62.971175], [52.195007, 62.970942], [52.192372, 62.969647], [52.190029, 62.968861], [52.184131, 62.967313], [52.18203, 62.966943], [52.17582, 62.965421], [52.127471, 62.955466], [52.113514, 62.949238], [52.107955, 62.94694], [52.087076, 62.931238], [52.079092, 62.92493], [52.077361, 62.923928], [52.055145, 62.912318], [52.046443, 62.907623], [52.039443, 62.903839], [52.037992, 62.903806], [52.034972, 62.902098], [52.033842, 62.901527]]}},
{"type": "Feature", "id": "way/1250040927", "properties": {"ProjectID": "P0767", "@id": "way/1250040927", "diameter": "1420 mm", "flow_direction": "forward", "layer": "-1", "location": "underground", "man_made": "pipeline", "name": "Ухта — Торжок (Ухта — Грязовец)", "operator": "ООО «Газпром трансгаз Ухта»", "place:destination": "Грязовец", "place:origin": "Ухта", "substance": "gas", "usage": "transmission"}, "geometry": {"type": "LineString", "coordinates": [[50.160837, 62.340542], [50.159735, 62.339803], [50.159955, 62.339187], [50.157276, 62.33791], [50.154408, 62.335747], [50.153992, 62.335171], [50.145387, 62.329586], [50.143327, 62.328661], [50.136619, 62.324231], [50.13179, 62.321951], [50.131794, 62.320418], [50.122126, 62.314074], [50.121362, 62.313735], [50.120261, 62.313701], [50.097973, 62.316019], [50.095615, 62.316173], [50.078947, 62.313121], [50.074513, 62.312673], [50.07273, 62.312], [50.05129, 62.308165], [50.02937, 62.304107], [50.027747, 62.303078], [50.027934, 62.302551], [50.027596, 62.302126], [50.003232, 62.286841], [50.002283, 62.28659], [49.986035, 62.286656], [49.968057, 62.279772], [49.912424, 62.251775], [49.891542, 62.241559], [49.890656, 62.241404], [49.890258, 62.240943], [49.887574, 62.239614], [49.884217, 62.238698], [49.883437, 62.237553], [49.878817, 62.235311], [49.873356, 62.232929], [49.862388, 62.227191], [49.849744, 62.220992], [49.835841, 62.209741], [49.827711, 62.203184], [49.826932, 62.202804], [49.825468, 62.201605], [49.823492, 62.200001], [49.818546, 62.195815], [49.788562, 62.186026], [49.748396, 62.176465], [49.739597, 62.1739], [49.736345, 62.173587], [49.734361, 62.172319], [49.720382, 62.168215], [49.674578, 62.154733], [49.65961, 62.150199], [49.637105, 62.143382], [49.600922, 62.132398], [49.60071, 62.130451], [49.600459, 62.126467], [49.599841, 62.126039], [49.586855, 62.120634], [49.586106, 62.120607], [49.552921, 62.126056], [49.540767, 62.12244], [49.536136, 62.121872], [49.528601, 62.120146], [49.527094, 62.119321], [49.520725, 62.116441], [49.515697, 62.114993], [49.515046, 62.114705], [49.510862, 62.111289], [49.510031, 62.111097], [49.50202, 62.110983], [49.473329, 62.102367], [49.46096, 62.069089], [49.459124, 62.063696], [49.457427, 62.063095], [49.453329, 62.050069], [49.452122, 62.049369], [49.44444, 62.026295], [49.433649, 62.024005], [49.432371, 62.022542], [49.422787, 62.02045], [49.412637, 62.018284], [49.405092, 62.016694], [49.396475, 62.014816], [49.388853, 62.013189], [49.344503, 62.001155], [49.324023, 62.001219], [49.322103, 62.002148], [49.315167, 62.002139], [49.313353, 62.001283], [49.279887, 62.001416], [49.257274, 61.991602], [49.256361, 61.991458], [49.246578, 61.991973], [49.242854, 61.992429], [49.239751, 61.992269], [49.236357, 61.992423], [49.213232, 61.980773], [49.212537, 61.980585], [49.211632, 61.980664], [49.197519, 61.983694], [49.194783, 61.984858], [49.192867, 61.984252], [49.188537, 61.982079], [49.179632, 61.978737], [49.178162, 61.977845], [49.174858, 61.976882], [49.169483, 61.976073], [49.167109, 61.976119], [49.164466, 61.975771], [49.161669, 61.97487], [49.135504, 61.97055], [49.133186, 61.970061], [49.131201, 61.96937], [49.130093, 61.968207], [49.128916, 61.964954], [49.116279, 61.936252], [49.114844, 61.933585], [49.11381, 61.931036], [49.113635, 61.93048], [49.112797, 61.929912], [49.110074, 61.9291], [49.101901, 61.925796], [49.048367, 61.90521], [49.038005, 61.901657], [49.033713, 61.8997], [49.021136, 61.89499], [49.016909, 61.894275], [49.00896, 61.89366], [49.005398, 61.892795], [49.003845, 61.891712], [49.001883, 61.891079], [48.985519, 61.887288], [48.978061, 61.885785], [48.975029, 61.88575], [48.972564, 61.885216], [48.970383, 61.884083], [48.864102, 61.861492], [48.860706, 61.86087], [48.859317, 61.860424], [48.846314, 61.857626], [48.839794, 61.856841], [48.836775, 61.855434], [48.835222, 61.854934], [48.833602, 61.854642], [48.828172, 61.852901], [48.798375, 61.844362], [48.793023, 61.843053], [48.778171, 61.839754], [48.776227, 61.83947], [48.773674, 61.838706], [48.767335, 61.837191], [48.762309, 61.836155], [48.759542, 61.835904], [48.758098, 61.835477], [48.750108, 61.834139], [48.743055, 61.832854], [48.679119, 61.818618], [48.650677, 61.811418], [48.623946, 61.804746], [48.602595, 61.799152], [48.596382, 61.797707], [48.586723, 61.795117], [48.573925, 61.791966], [48.568932, 61.790543], [48.564216, 61.790382], [48.560915, 61.789352], [48.559663, 61.788253], [48.551548, 61.786177], [48.54706, 61.7859], [48.543369, 61.784524], [48.513309, 61.767975], [48.511658, 61.767367], [48.509381, 61.766244], [48.504332, 61.764586], [48.503495, 61.764032], [48.501698, 61.762085], [48.496761, 61.759463], [48.496275, 61.759205], [48.495253, 61.758999], [48.493118, 61.758292]]}},
{"type": "Feature", "id": "way/1254573005", "properties": {"ProjectID": "P0767", "@id": "way/1254573005", "diameter": "1420 mm", "flow_direction": "forward", "layer": "-1", "location": "underground", "man_made": "pipeline", "name": "Ухта — Торжок (Ухта — Грязовец)", "operator": "ООО «Газпром трансгаз Ухта»", "place:destination": "Грязовец", "place:origin": "Ухта", "substance": "gas", "usage": "transmission"}, "geometry": {"type": "LineString", "coordinates": [[46.478822, 61.106105], [46.477049, 61.104799], [46.476815, 61.103477], [46.471478, 61.099873], [46.469753, 61.099826], [46.468483, 61.099486], [46.467239, 61.098426], [46.467239, 61.096484], [46.463295, 61.092993], [46.460818, 61.091135], [46.452616, 61.087711], [46.452247, 61.08481], [46.448537, 61.082462], [46.446171, 61.079381], [46.44553, 61.079077], [46.441377, 61.078224], [46.435079, 61.07835], [46.431517, 61.075649], [46.411962, 61.066392], [46.401279, 61.060781], [46.400182, 61.059633], [46.393484, 61.056053], [46.358257, 61.04766], [46.355274, 61.047577], [46.351774, 61.046503], [46.34979, 61.046139], [46.348077, 61.04559], [46.345489, 61.044564], [46.334598, 61.041796], [46.331712, 61.041261], [46.328525, 61.040368], [46.320543, 61.038612], [46.315415, 61.03696], [46.313355, 61.035817], [46.305254, 61.033074], [46.302647, 61.032372], [46.294512, 61.02933], [46.283597, 61.025586], [46.27431, 61.022205], [46.269582, 61.020744], [46.257322, 61.018638], [46.254151, 61.017938], [46.239327, 61.015575], [46.233619, 61.01426], [46.216944, 61.011297], [46.206666, 61.010824], [46.20315, 61.011069], [46.19418, 61.010307], [46.185475, 61.009928], [46.178321, 61.009906], [46.172184, 61.009349], [46.15831, 61.003945], [46.131579, 60.993811], [46.125115, 60.991623], [46.122864, 60.990622], [46.118371, 60.989014], [46.115737, 60.987791], [46.082067, 60.974913], [46.075725, 60.973312], [46.066376, 60.97111], [46.056634, 60.969524], [46.051651, 60.965504], [46.034488, 60.962874], [46.029609, 60.960413], [46.008512, 60.950351], [46.004039, 60.948191], [46.000706, 60.947023], [45.997376, 60.947261], [45.99124, 60.945039], [45.983425, 60.943538], [45.979717, 60.942468], [45.974057, 60.940608], [45.967838, 60.938018], [45.918971, 60.919064], [45.90988, 60.915721], [45.907892, 60.915236], [45.905425, 60.914162], [45.901541, 60.911914], [45.897593, 60.910302], [45.880231, 60.904694], [45.862923, 60.904646], [45.861357, 60.905021], [45.844631, 60.90499], [45.843279, 60.904641], [45.834216, 60.904666], [45.819861, 60.899501], [45.819437, 60.897954], [45.819191, 60.895736], [45.816282, 60.888644], [45.812203, 60.886311], [45.806362, 60.884069], [45.795997, 60.880332], [45.77318, 60.874346], [45.747968, 60.8681], [45.742148, 60.866784], [45.738276, 60.866619], [45.734435, 60.86454], [45.728907, 60.862399], [45.725601, 60.862099], [45.723546, 60.86114], [45.72236, 60.859825], [45.711303, 60.855411], [45.707604, 60.854959], [45.706861, 60.854563], [45.704769, 60.852791], [45.703173, 60.852143], [45.675662, 60.845147], [45.658212, 60.84081], [45.648818, 60.83847], [45.647813, 60.838488], [45.645133, 60.837873], [45.644165, 60.83717], [45.616814, 60.830295], [45.610064, 60.828987], [45.606096, 60.827167], [45.603544, 60.82694], [45.598666, 60.825537], [45.595991, 60.823348], [45.583445, 60.818824], [45.578293, 60.816824], [45.574368, 60.815692], [45.570763, 60.81426], [45.561077, 60.8108], [45.546594, 60.805172], [45.537661, 60.802016], [45.531415, 60.799588], [45.515806, 60.79433], [45.505939, 60.790793], [45.50063, 60.789239], [45.49658, 60.786985], [45.495114, 60.78673], [45.48852, 60.78714], [45.479979, 60.781962], [45.47926, 60.777667], [45.478541, 60.776761], [45.460564, 60.766555], [45.455354, 60.763789], [45.438404, 60.754014], [45.435228, 60.752342], [45.43103, 60.750987], [45.42494, 60.747667], [45.421908, 60.745928], [45.421105, 60.743426], [45.412322, 60.738033], [45.409797, 60.737138], [45.406841, 60.736388], [45.402625, 60.736115], [45.401917, 60.735921], [45.396601, 60.73387], [45.394083, 60.732316], [45.384662, 60.729578], [45.381936, 60.729171], [45.378907, 60.729258], [45.373886, 60.728607], [45.372325, 60.728023], [45.364956, 60.72722], [45.363371, 60.726882], [45.357421, 60.72356], [45.356357, 60.723099], [45.350689, 60.719656], [45.343889, 60.715556], [45.341046, 60.714076], [45.338675, 60.712402], [45.327908, 60.706267], [45.324851, 60.704779], [45.321013, 60.702217], [45.307964, 60.692642], [45.301531, 60.688559], [45.295775, 60.684562], [45.291375, 60.680878], [45.287756, 60.678339], [45.286014, 60.677507], [45.247376, 60.662638], [45.24316, 60.661392], [45.234631, 60.658189], [45.229625, 60.656121], [45.223891, 60.653571], [45.20803, 60.647535], [45.204039, 60.646158], [45.19083, 60.642159], [45.177802, 60.637901], [45.155929, 60.631356], [45.150007, 60.62978], [45.149388, 60.629447], [45.126846, 60.622796], [45.122415, 60.621424], [45.121247, 60.621406], [45.119734, 60.620947], [45.119333, 60.620608], [45.114771, 60.619207], [45.093804, 60.61223], [45.070066, 60.604122], [45.067219, 60.603663], [45.059097, 60.603263], [45.050507, 60.602126], [45.045257, 60.60287], [45.041511, 60.601049], [45.015921, 60.598152], [45.009648, 60.597262], [44.999165, 60.596198], [44.972316, 60.592884], [44.966622, 60.590591], [44.959227, 60.58941], [44.950243, 60.587577], [44.948123, 60.584363], [44.94261, 60.581979], [44.93466, 60.578959], [44.92766, 60.576676], [44.914584, 60.571941], [44.901595, 60.567472], [44.895851, 60.565268], [44.883219, 60.561016], [44.86127, 60.553201], [44.854874, 60.550662], [44.845273, 60.547481], [44.840789, 60.546777], [44.839104, 60.545886], [44.832567, 60.54444], [44.822764, 60.54205], [44.821937, 60.54208], [44.820667, 60.541772], [44.82006, 60.541336], [44.77278, 60.529511], [44.770632, 60.529428], [44.765757, 60.527751], [44.755562, 60.525791], [44.750531, 60.524952], [44.743407, 60.524107], [44.736785, 60.522334], [44.72752, 60.520724], [44.714641, 60.518315], [44.710023, 60.517619], [44.699452, 60.515498], [44.66037, 60.508052], [44.658398, 60.508064], [44.65544, 60.507445], [44.654122, 60.506862], [44.65231, 60.506547], [44.63297, 60.50493], [44.625087, 60.504137], [44.60993, 60.502416], [44.59981, 60.501511], [44.581492, 60.49982], [44.554285, 60.497083], [44.540081, 60.495805], [44.536487, 60.495349], [44.469303, 60.488931], [44.465857, 60.48872], [44.464044, 60.489032], [44.458954, 60.488802], [44.456582, 60.487841], [44.454038, 60.487544], [44.445112, 60.486715], [44.438883, 60.486297], [44.429949, 60.4846], [44.422176, 60.483366], [44.405814, 60.480442], [44.403972, 60.480477], [44.398628, 60.481307], [44.392532, 60.479665], [44.387366, 60.479256], [44.386804, 60.479064], [44.378329, 60.47839], [44.374634, 60.477894], [44.371123, 60.477294], [44.366466, 60.476771], [44.363323, 60.477001], [44.356499, 60.47569], [44.355452, 60.474574], [44.354085, 60.474271], [44.336875, 60.469641], [44.334774, 60.469637], [44.333486, 60.469257], [44.332414, 60.468355], [44.327543, 60.467048], [44.29957, 60.460086], [44.287533, 60.45709], [44.286238, 60.457111], [44.2843, 60.456645], [44.278999, 60.455622]]}},
{"type": "Feature", "id": "way/1255331246", "properties": {"ProjectID": "P0767", "@id": "way/1255331246", "diameter": "1420 mm", "flow_direction": "forward", "layer": "-1", "location": "underground", "man_made": "pipeline", "name": "Ухта — Торжок (Ухта — Грязовец)", "operator": "ООО «Газпром трансгаз Ухта»", "place:destination": "Грязовец", "place:origin": "Ухта", "substance": "gas", "usage": "transmission"}, "geometry": {"type": "LineString", "coordinates": [[44.278999, 60.455622], [44.277531, 60.455339], [44.276928, 60.454901], [44.270496, 60.453649], [44.267266, 60.453888], [44.264688, 60.453411], [44.262981, 60.452405], [44.252077, 60.45054], [44.249191, 60.452356], [44.245516, 60.453251], [44.241271, 60.453632], [44.237775, 60.45307], [44.235262, 60.451318], [44.231904, 60.450656], [44.229278, 60.449349], [44.227115, 60.446165], [44.212082, 60.43974], [44.207728, 60.438086], [44.204818, 60.437178], [44.202565, 60.436124], [44.199454, 60.435002], [44.19749, 60.4347], [44.195114, 60.434195], [44.194708, 60.43383], [44.19413, 60.432827], [44.170974, 60.423686], [44.138626, 60.412532], [44.133444, 60.410938], [44.127626, 60.408624], [44.123883, 60.407769], [44.121903, 60.408152], [44.109668, 60.406473], [44.105717, 60.40568], [44.074612, 60.381951], [44.068318, 60.37919], [44.064757, 60.377486], [44.062155, 60.376417], [44.058068, 60.374475], [44.047807, 60.372127], [44.045785, 60.369318], [44.043397, 60.368056], [44.032213, 60.363205], [44.028688, 60.361819], [44.025319, 60.360972], [44.013574, 60.358585], [44.005502, 60.357269], [43.995925, 60.354929], [43.993282, 60.354701], [43.98543, 60.352643], [43.973647, 60.350155], [43.971807, 60.349896], [43.952244, 60.34553], [43.93452, 60.341772], [43.919241, 60.338478], [43.912331, 60.337085], [43.911206, 60.337109], [43.905396, 60.335657], [43.85571, 60.325028], [43.851733, 60.324306], [43.846643, 60.322865], [43.835501, 60.320587], [43.809522, 60.314765], [43.798796, 60.312525], [43.792405, 60.313367], [43.786266, 60.311797], [43.784851, 60.311527], [43.78403, 60.309304], [43.778463, 60.308095], [43.772332, 60.30588], [43.767706, 60.305223], [43.764779, 60.303431], [43.757483, 60.301014], [43.724578, 60.290435], [43.721235, 60.289745], [43.718395, 60.28838], [43.708034, 60.284932], [43.704879, 60.284957], [43.702476, 60.283876], [43.7001, 60.283137], [43.698986, 60.281992], [43.692748, 60.280089], [43.674965, 60.274078], [43.671015, 60.27295], [43.666591, 60.271267], [43.662203, 60.269892], [43.658851, 60.268945], [43.654884, 60.267475], [43.647257, 60.264999], [43.640277, 60.264914], [43.637834, 60.261632], [43.627017, 60.258089], [43.611416, 60.252927], [43.608978, 60.252762], [43.605112, 60.250807], [43.596257, 60.247893], [43.590635, 60.246221], [43.580983, 60.242983], [43.57285, 60.241006], [43.571638, 60.241027], [43.567604, 60.239568], [43.563962, 60.238752], [43.552796, 60.235697], [43.54582, 60.234009], [43.538247, 60.232003], [43.534849, 60.231195], [43.519206, 60.228179], [43.516424, 60.228027], [43.510959, 60.22743], [43.509296, 60.226368], [43.507392, 60.225806], [43.504497, 60.225282], [43.502603, 60.224391], [43.492583, 60.221387], [43.485158, 60.219521], [43.45634, 60.213484], [43.45435, 60.213271], [43.449961, 60.212009], [43.445216, 60.210989], [43.441415, 60.210344], [43.428602, 60.207702], [43.425388, 60.206781], [43.415431, 60.204662], [43.38573, 60.198606], [43.379533, 60.198146], [43.37859, 60.196912], [43.360489, 60.193146], [43.341718, 60.189178], [43.334972, 60.187893], [43.3292, 60.187786], [43.326904, 60.186474], [43.308739, 60.183008], [43.293241, 60.176121], [43.290586, 60.175852], [43.289437, 60.174231], [43.286034, 60.172717], [43.27476, 60.167484], [43.273158, 60.167277], [43.271825, 60.166679], [43.271272, 60.165975], [43.262034, 60.161653], [43.259866, 60.16059], [43.248084, 60.155391], [43.245376, 60.155763], [43.243545, 60.15442], [43.239666, 60.152839], [43.236548, 60.150936], [43.233541, 60.148587], [43.232, 60.147716], [43.227179, 60.145558], [43.211411, 60.140237], [43.205805, 60.138709], [43.202266, 60.137562], [43.199977, 60.136418], [43.193314, 60.134155], [43.191821, 60.133924], [43.1894, 60.133114], [43.188524, 60.132633], [43.167222, 60.125447], [43.165368, 60.125355], [43.16288, 60.123914], [43.155085, 60.121447], [43.15299, 60.120636], [43.147284, 60.118767], [43.109519, 60.109155], [43.100092, 60.108781], [43.098392, 60.1068], [43.035269, 60.089495], [43.032935, 60.089782], [43.029471, 60.087934], [43.018136, 60.084797], [43.01365, 60.083672], [43.010814, 60.083396], [43.009003, 60.082129], [42.999756, 60.079794], [42.988707, 60.076729], [42.976256, 60.073397], [42.972306, 60.073444], [42.963426, 60.071033], [42.954335, 60.068411], [42.949124, 60.066906], [42.946154, 60.064459], [42.91929, 60.056609], [42.914901, 60.054977], [42.909444, 60.05304], [42.88697, 60.044602], [42.881081, 60.042527], [42.873361, 60.042522], [42.8667, 60.041705], [42.863434, 60.040695], [42.807937, 60.025741], [42.801985, 60.024815], [42.800399, 60.024547], [42.794594, 60.022101], [42.782903, 60.01879], [42.778708, 60.01849], [42.772089, 60.016061], [42.768334, 60.015112], [42.762755, 60.016195], [42.757562, 60.016522], [42.745717, 60.014512], [42.721833, 60.01163], [42.720404, 60.011756], [42.705982, 60.009713], [42.699191, 60.008801], [42.693936, 60.006867], [42.687748, 60.004162], [42.683105, 60.002768], [42.680853, 60.002666], [42.678075, 60.001163], [42.677121, 60.000337], [42.669078, 59.997334], [42.664398, 59.995428], [42.662428, 59.99448], [42.642447, 59.98677], [42.639555, 59.985605], [42.632613, 59.982605], [42.626412, 59.980533], [42.624279, 59.979456], [42.618314, 59.976866], [42.610944, 59.974171], [42.605251, 59.971661], [42.578564, 59.961055], [42.577063, 59.960538], [42.567564, 59.956618], [42.560401, 59.954641], [42.55866, 59.953103], [42.52309, 59.938943], [42.514705, 59.935956], [42.508163, 59.933084], [42.504735, 59.931736], [42.498286, 59.929412], [42.489463, 59.927374], [42.480436, 59.925161], [42.476419, 59.92458], [42.471918, 59.923204], [42.47033, 59.923045], [42.459053, 59.918546], [42.457888, 59.917977], [42.455393, 59.916924], [42.434586, 59.90858], [42.42431, 59.904738], [42.386994, 59.889798], [42.385655, 59.889471], [42.38027, 59.887288], [42.379198, 59.886719], [42.373522, 59.884422], [42.363676, 59.882228], [42.361998, 59.879819], [42.35582, 59.877393], [42.353314, 59.876597], [42.34918, 59.87507], [42.346703, 59.87389], [42.334932, 59.869322], [42.322895, 59.864474], [42.310437, 59.859235], [42.301249, 59.854188], [42.299438, 59.853448], [42.297116, 59.852737], [42.29134, 59.850235], [42.290165, 59.848549], [42.288891, 59.847376], [42.282761, 59.843899], [42.281331, 59.843415], [42.276461, 59.840748], [42.275059, 59.839411], [42.263847, 59.833251], [42.249232, 59.821212], [42.240379, 59.81364], [42.23678, 59.81123], [42.233687, 59.807728], [42.214163, 59.791589], [42.209378, 59.787973], [42.201015, 59.782218], [42.189414, 59.773369], [42.18456, 59.771184], [42.179031, 59.766825], [42.168494, 59.76052], [42.161653, 59.756803], [42.157929, 59.754167], [42.154778, 59.751935], [42.150154, 59.749549], [42.148613, 59.746618], [42.148557, 59.743771], [42.146932, 59.741418], [42.146857, 59.738255], [42.130961, 59.730083], [42.129644, 59.729673], [42.128317, 59.729], [42.127318, 59.728232], [42.114844, 59.72167], [42.101656, 59.714926], [42.094753, 59.711968], [42.09039, 59.709066], [42.087149, 59.706044], [42.083945, 59.702196], [42.081911, 59.700785], [42.08217, 59.699678], [42.081073, 59.69836], [42.072582, 59.694977], [42.068416, 59.694013], [42.062846, 59.69188], [42.06059, 59.690412], [42.057287, 59.689199], [42.042979, 59.687115], [42.03593, 59.685498], [42.030877, 59.684571], [42.026773, 59.683706], [42.008321, 59.681345], [42.005052, 59.680963], [41.997944, 59.677724], [41.997085, 59.676149], [41.993778, 59.673489], [41.99276, 59.673178], [41.990967, 59.671881], [41.990024, 59.670678], [41.989883, 59.670009], [41.987624, 59.668207], [41.986741, 59.667487], [41.985144, 59.666575], [41.982734, 59.665583], [41.981122, 59.665505], [41.979492, 59.664947]]}},
{"type": "Feature", "id": "way/1257451546", "properties": {"ProjectID": "P0767", "@id": "way/1257451546", "diameter": "1420 mm", "flow_direction": "forward", "layer": "-1", "location": "underground", "man_made": "pipeline", "name": "Ухта — Торжок (Ухта — Грязовец)", "operator": "ООО «Газпром трансгаз Ухта»", "place:destination": "Грязовец", "place:origin": "Ухта", "substance": "gas", "usage": "transmission"}, "geometry": {"type": "LineString", "coordinates": [[41.979492, 59.664947], [41.977862, 59.664389], [41.97598, 59.662639], [41.972288, 59.660306], [41.969011, 59.659184], [41.967837, 59.658173], [41.965018, 59.656842], [41.963529, 59.656514], [41.96248, 59.655964], [41.962033, 59.655263], [41.954687, 59.651649], [41.947219, 59.648082], [41.938619, 59.643623], [41.933606, 59.641306], [41.928626, 59.6386], [41.92172, 59.638533], [41.918703, 59.636877], [41.918313, 59.635849], [41.91641, 59.632113], [41.90591, 59.626926], [41.897283, 59.622663], [41.890431, 59.619104], [41.887239, 59.617315], [41.872524, 59.609972], [41.864414, 59.605483], [41.858331, 59.602652], [41.843879, 59.595078], [41.838124, 59.592184], [41.832283, 59.589414], [41.826034, 59.587306], [41.823262, 59.585752], [41.81583, 59.582152], [41.814474, 59.580611], [41.799476, 59.573147], [41.795421, 59.572891], [41.792032, 59.570756], [41.791077, 59.56972], [41.790073, 59.568235], [41.769382, 59.559329], [41.759608, 59.554469], [41.749062, 59.549342], [41.745467, 59.54776], [41.743592, 59.547457], [41.74235, 59.546934], [41.741702, 59.545889], [41.733982, 59.541938], [41.716697, 59.533562], [41.706518, 59.528257], [41.696707, 59.523569], [41.680937, 59.515749], [41.674028, 59.51284], [41.668323, 59.510104], [41.659008, 59.505355], [41.651462, 59.50167], [41.644667, 59.498595], [41.631544, 59.491861], [41.624253, 59.48908], [41.617514, 59.488763], [41.613296, 59.483876], [41.604986, 59.479778], [41.58821, 59.472588], [41.581528, 59.469582], [41.573996, 59.466374], [41.557575, 59.457994], [41.542498, 59.45703], [41.532928, 59.453325], [41.530988, 59.446208], [41.520894, 59.440422], [41.505662, 59.431395], [41.50082, 59.428749], [41.48451, 59.419249], [41.476232, 59.415033], [41.47054, 59.413163], [41.468491, 59.411318], [41.462876, 59.408795], [41.461002, 59.408577], [41.455794, 59.407483], [41.454719, 59.406967], [41.452704, 59.395826], [41.453962, 59.3925], [41.453707, 59.388384], [41.452348, 59.385818], [41.450366, 59.38364], [41.445676, 59.377249], [41.444067, 59.374615], [41.441781, 59.372691], [41.429169, 59.369554], [41.412717, 59.365047], [41.406928, 59.363729], [41.392926, 59.359553], [41.369167, 59.353245], [41.364695, 59.35225], [41.345832, 59.347267], [41.334936, 59.344606], [41.32757, 59.342433], [41.314855, 59.339044], [41.306304, 59.337753], [41.296472, 59.333676], [41.290532, 59.330979], [41.284592, 59.328423], [41.266436, 59.321065], [41.255753, 59.316868], [41.252807, 59.31668], [41.249159, 59.315321], [41.239593, 59.313276], [41.238804, 59.312427], [41.23804, 59.311182], [41.236561, 59.310276], [41.234268, 59.308735], [41.220626, 59.303522], [41.218361, 59.30303], [41.21548, 59.301621], [41.206498, 59.298711], [41.195266, 59.29226], [41.192604, 59.29121], [41.189814, 59.289201], [41.188224, 59.2876], [41.176482, 59.280691], [41.165586, 59.274487], [41.143695, 59.262006], [41.140361, 59.259929], [41.137889, 59.257957], [41.135247, 59.256116], [41.133384, 59.255388], [41.130831, 59.254682], [41.124286, 59.250022], [41.121643, 59.248547], [41.117379, 59.245102], [41.115378, 59.24371], [41.105697, 59.236735], [41.103538, 59.236044], [41.102846, 59.235493], [41.102384, 59.234328], [41.099753, 59.232405], [41.09661, 59.231522], [41.095768, 59.230884], [41.095067, 59.229182], [41.092588, 59.227222], [41.083966, 59.221292], [41.072068, 59.212536], [41.069425, 59.210704], [41.068027, 59.210043], [41.063802, 59.206957], [41.062116, 59.206031], [41.055961, 59.205107], [41.054709, 59.204824], [41.053489, 59.202893], [41.045466, 59.200803], [41.015358, 59.193575], [41.008652, 59.192834], [41.005038, 59.19116], [40.998013, 59.189521], [40.992432, 59.188852], [40.989417, 59.188105], [40.985308, 59.186517], [40.960524, 59.180674], [40.955085, 59.180256], [40.952529, 59.178675], [40.941678, 59.176172], [40.935336, 59.175638], [40.92366, 59.171954], [40.920778, 59.168942], [40.920247, 59.168723], [40.894456, 59.163509], [40.887299, 59.163885], [40.886997, 59.163808], [40.884206, 59.161452], [40.883757, 59.161266], [40.870892, 59.15861], [40.869894, 59.158548], [40.864075, 59.158951], [40.863743, 59.158875], [40.860189, 59.156476], [40.859694, 59.156298], [40.849905, 59.154403], [40.844603, 59.153242], [40.841244, 59.152612], [40.828759, 59.150037], [40.827986, 59.147278], [40.827567, 59.146712], [40.799224, 59.130294], [40.79601, 59.128231], [40.789927, 59.124788], [40.789124, 59.124596], [40.785032, 59.124253], [40.783002, 59.122948], [40.777938, 59.117695], [40.770113, 59.113228], [40.767581, 59.112397], [40.766626, 59.111025], [40.745674, 59.098775], [40.736154, 59.093402], [40.731158, 59.090302], [40.721026, 59.084394], [40.707299, 59.076537], [40.697847, 59.071076], [40.69207, 59.067572], [40.689254, 59.066299], [40.686947, 59.0646], [40.679093, 59.0602], [40.673744, 59.05694], [40.638375, 59.031329], [40.634172, 59.028379], [40.628194, 59.023962], [40.624817, 59.021596], [40.622093, 59.020013], [40.621456, 59.019048], [40.615569, 59.0149], [40.603994, 59.010973], [40.600197, 59.009835], [40.598555, 59.008951], [40.589461, 59.005813], [40.584231, 59.002871], [40.579604, 59.000608], [40.570868, 58.997861], [40.564394, 58.991028], [40.560134, 58.987672], [40.549344, 58.981895], [40.545406, 58.981546], [40.541512, 58.97991], [40.542145, 58.978118], [40.538331, 58.97597], [40.506105, 58.959699], [40.499527, 58.953719], [40.493278, 58.948571], [40.489867, 58.947563], [40.489738, 58.94546], [40.486087, 58.941958], [40.483871, 58.940974], [40.48383, 58.940152], [40.478945, 58.937607], [40.45063, 58.924663], [40.416485, 58.914704], [40.4139, 58.914369], [40.408955, 58.911329], [40.406451, 58.909617], [40.395944, 58.903148], [40.392136, 58.900692], [40.391355, 58.899666], [40.390626, 58.898228], [40.389619, 58.897376], [40.389935, 58.89688], [40.374876, 58.869798], [40.367696, 58.857568], [40.365793, 58.855049], [40.364931, 58.850936], [40.360594, 58.843306], [40.358109, 58.840406], [40.354299, 58.837429], [40.353355, 58.834331], [40.346876, 58.82623], [40.344768, 58.825101], [40.344317, 58.823246], [40.342982, 58.821843], [40.340604, 58.82066], [40.339525, 58.820459], [40.298396, 58.819317], [40.29316, 58.819051], [40.291143, 58.819359], [40.286647, 58.81887], [40.267488, 58.818139], [40.258143, 58.816878], [40.257247, 58.81662], [40.251927, 58.81346], [40.249017, 58.813284], [40.247991, 58.812917], [40.245606, 58.810648], [40.244503, 58.810085], [40.23104, 58.805439], [40.23122, 58.804536], [40.233047, 58.800283], [40.232531, 58.789062], [40.226451, 58.785374], [40.225855, 58.784564], [40.224119, 58.780847], [40.223668, 58.777614], [40.226057, 58.774126], [40.225342, 58.771889], [40.225447, 58.771573], [40.221911, 58.762635], [40.222856, 58.761939], [40.222181, 58.760324]]}}
]
}
