{
"type": "FeatureCollection",
"features": [
{"type": "Feature", "properties": {"ProjectID": "P0774"}, "geometry": {"type": "LineString", "coordinates": [[74.901217, 67.909871], [76.51694, 66.48333], [76.306915, 66.438166], [76.191559, 66.426086], [76.113281, 66.394211], [76.021271, 66.392011], [75.741119, 66.355136], [75.614777, 66.347975], [75.379944, 66.304965], [75.29068, 66.252758], [75.263901, 66.223154], [75.204163, 66.202105], [75.184937, 66.171332], [75.08194, 66.109116], [75.043488, 66.062076], [74.906158, 66.021925], [74.761276, 65.997637], [74.68083, 65.9575], [74.583435, 65.917069], [74.395294, 65.872199], [74.251099, 65.826688], [73.929749, 65.71877], [73.89267, 65.697019], [73.606339, 65.579475], [73.46944, 65.425], [73.418198, 65.358822], [73.313141, 65.300068], [73.230743, 65.277678], [73.094788, 65.134857], [72.960205, 65.08891], [72.825623, 64.931107], [72.721252, 64.90491], [72.68692, 64.860024], [72.34889, 64.70639], [72.291412, 64.669744], [72.033234, 64.421258], [71.647339, 64.37319], [71.475677, 64.387441], [71.250458, 64.355959], [71.173553, 64.319681], [71.08806, 64.30139], [71.006012, 64.265473], [70.878296, 64.254737], [70.75058, 64.301822], [70.630074, 64.327863], [70.141525, 64.310456], [70.076294, 64.237731], [69.945145, 64.201298], [69.53944, 64.03361], [69.45488, 64.0157], [69.270172, 64.006974], [69.179535, 63.99102], [68.903503, 63.91202], [68.577347, 63.924095], [68.489456, 63.903866], [68.426971, 63.920775], [68.212738, 63.911718], [67.886581, 63.851262], [67.83194, 63.815], [67.759552, 63.810986], [67.505493, 63.760333], [67.373657, 63.696508], [67.322159, 63.663019], [67.193069, 63.62888], [66.998062, 63.386908], [66.93556, 63.24972], [66.522217, 63.011678], [66.414757, 62.906009], [66.352272, 62.866265], [66.285324, 62.792423], [66.225243, 62.756769], [66.226616, 62.733972], [66.078987, 62.641975], [66.017876, 62.587809], [65.94944, 62.56278], [65.849648, 62.543044], [65.796089, 62.52024], [65.78373, 62.50265], [65.670776, 62.452676], [65.639191, 62.366175], [65.606918, 62.346423], [65.581512, 62.342279], [65.476456, 62.287407], [65.425644, 62.197866], [65.064468, 62.015085], [64.874268, 61.982848], [64.82363, 61.9484], [64.750671, 61.909543], [64.708786, 61.842219], [64.559784, 61.783189], [64.526825, 61.750869], [64.497986, 61.737704], [64.452667, 61.697198], [64.417648, 61.683684], [64.37542, 61.629897], [64.093552, 61.502226], [63.951759, 61.495673], [63.858891, 61.468135], [63.692036, 61.436552], [63.538742, 61.43532], [63.34534, 61.40031], [63.296356, 61.394418], [63.281899, 61.266833], [63.117791, 61.201223], [63.069039, 61.169192], [62.945443, 61.146553], [62.876091, 61.150024], [62.832833, 61.129025], [62.8088, 61.115128], [62.49363, 61.044059], [62.405052, 61.047376], [62.324028, 61.022492], [62.06351, 60.98759], [61.95942, 60.983301], [61.758919, 60.882444], [61.667595, 60.855094], [61.564598, 60.848753], [61.526146, 60.821709], [60.64312, 60.61024], [60.589562, 60.618309], [60.41164, 60.54671], [60.32795, 60.448414], [60.339623, 60.428088], [60.322457, 60.406054], [60.345116, 60.316068], [60.328636, 60.294299], [60.222893, 59.959135], [60.3246, 59.81799], [60.564843, 59.607349], [60.514031, 59.331088], [60.525017, 59.247628], [60.508538, 59.206876], [60.531884, 59.092088], [60.566216, 59.077977], [60.586815, 58.985406], [60.460472, 58.831099], [59.69917, 58.93444], [59.300042, 58.668994], [59.213524, 58.664005], [59.127007, 58.56765], [58.864708, 58.430152], [58.870201, 58.417952], [58.50927, 58.28623], [58.115578, 58.168356], [58.092232, 58.075344], [58.071633, 58.046341], [58.073693, 57.969006], [58.025627, 57.916628], [57.967949, 57.899516], [57.885552, 57.780598], [57.567635, 57.657619], [57.543602, 57.630478], [57.480431, 57.558126], [57.52369, 57.490786], [57.4476, 57.51843], [57.397385, 57.483725], [57.360306, 57.406502], [57.307434, 57.362831], [57.320824, 57.284424], [57.298851, 57.261037], [57.195511, 57.217378], [57.152596, 57.212172], [57.015266, 57.153934], [56.994667, 57.151327], [56.948318, 57.131954], [56.784554, 57.131023], [56.687737, 57.109402], [56.598473, 57.106233], [56.338577, 56.989703], [56.272659, 56.963134], [56.155243, 56.921184], [56.136017, 56.923995], [56.090012, 56.905441], [56.03199, 56.8774], [55.789604, 56.905909], [55.754585, 56.890628], [55.669613, 56.868492], [55.587902, 56.868117], [55.528507, 56.848127], [55.195313, 56.80069], [55.148964, 56.785648], [55.107079, 56.775586], [54.995155, 56.719957], [54.676208, 56.627343], [54.616127, 56.640749], [54.264908, 56.606374], [54.24375, 56.61374], [54.208946, 56.612042], [54.098396, 56.539612], [53.938065, 56.543208], [53.871117, 56.527874], [53.663578, 56.536962], [53.44368, 56.54018], [53.195114, 56.554752], [53.181381, 56.567239], [53.088684, 56.573859], [53.066711, 56.581234], [52.949982, 56.56232], [52.68837, 56.532607], [52.493019, 56.537908], [52.444611, 56.526927], [52.325821, 56.531471], [52.298698, 56.517458], [52.22866, 56.49415], [52.189178, 56.490363], [52.077942, 56.501165], [52.045326, 56.493585], [51.975975, 56.500408], [51.698227, 56.449211], [51.654968, 56.453764], [51.525192, 56.434407], [51.403656, 56.390724], [51.377563, 56.388063], [51.327438, 56.367532], [51.247101, 56.363729], [50.908241, 56.27653], [50.843353, 56.284344], [50.754433, 56.252601], [50.614529, 56.210475], [50.55685, 56.21711], [50.44158, 56.182827], [50.36948, 56.1574], [50.331459, 56.157788], [50.281076, 56.161038], [50.269661, 56.16534], [50.189924, 56.162902], [50.129328, 56.178193], [50.094566, 56.17676], [49.959898, 56.11996], [49.842567, 56.104933], [49.798794, 56.089326], [49.643955, 56.094162], [49.54422, 56.088224], [49.515123, 56.079748], [49.471264, 56.055983], [49.448433, 56.059626], [49.355221, 56.06044], [49.317884, 56.038966], [49.306469, 56.021125], [49.242611, 56.000541], [49.197893, 55.998525], [49.153519, 56.012346], [49.130602, 56.01652], [49.027863, 56.015033], [48.985376, 55.995597], [48.965979, 55.995357], [48.929501, 55.985035], [48.898859, 55.988108], [48.873024, 55.975143], [48.803973, 55.962606], [48.700075, 55.978121], [48.627119, 56.002797], [48.60083, 55.98833], [48.46344, 55.996173], [48.437176, 55.994349], [48.417263, 56.002509], [48.396835, 56.002125], [48.391342, 55.980137], [48.282166, 55.97351], [48.198395, 55.961405], [48.057976, 55.964191], [48.029137, 55.932279], [47.935066, 55.930741], [47.882538, 55.917468], [47.861938, 55.88648], [47.708817, 55.871651], [47.673111, 55.861248], [47.612343, 55.861056], [47.4757, 55.800316], [47.412186, 55.796456], [47.264557, 55.761316], [47.14917, 55.7475], [47.125854, 55.727303], [46.955566, 55.68223], [46.94046, 55.658609], [46.913681, 55.652411], [46.880035, 55.626445], [46.83815, 55.626833], [46.812057, 55.608608], [46.700821, 55.574851], [46.665802, 55.547281], [46.552505, 55.498305], [46.532593, 55.494805], [46.523666, 55.482745], [46.448822, 55.428624], [46.273727, 55.423948], [46.099319, 55.329926], [46.083527, 55.308437], [45.95833, 55.23861], [45.917358, 55.208263], [45.681152, 55.074829], [45.65094, 55.053596], [45.580902, 55.045729], [45.435333, 54.975249], [45.348816, 54.913725], [45.12085, 54.866729], [45.078278, 54.845385], [44.921722, 54.766236], [44.910736, 54.755935], [44.868851, 54.753161], [44.856491, 54.744442], [44.763107, 54.731757], [44.671097, 54.680183], [44.62655, 54.66754], [44.535828, 54.656357], [44.468536, 54.624171], [44.463043, 54.611846], [44.199371, 54.506333], [44.101868, 54.44569], [44.055176, 54.427319], [44.013977, 54.379358], [43.959732, 54.367358], [43.954239, 54.358557], [43.845062, 54.356956], [43.692627, 54.315322], [43.641815, 54.311717], [43.629456, 54.276451], [43.302612, 54.156001], [43.26528, 54.13972], [43.233948, 54.140719], [43.175583, 54.147556], [43.021088, 54.121005], [42.992935, 54.101281], [42.966156, 54.066239], [42.892685, 54.034393], [42.841187, 54.026327], [42.427826, 53.878845], [42.392807, 53.878036], [42.355042, 53.854552], [42.290497, 53.839564], [42.224579, 53.841589], [42.18544, 53.827813], [42.140808, 53.828218], [42.09549, 53.799029], [42.069397, 53.790106], [42.044678, 53.766572], [42.004166, 53.753177], [41.978073, 53.751959], [41.901169, 53.703617], [41.75889, 53.65278], [41.687622, 53.621023], [41.364212, 53.557442], [41.254349, 53.515409], [41.228256, 53.510918], [41.184311, 53.48968], [41.044235, 53.476605], [40.977631, 53.419763], [40.744171, 53.352191], [40.711899, 53.359977], [40.669327, 53.359568], [40.642548, 53.347272], [40.628128, 53.326362], [40.626755, 53.307083], [40.595856, 53.298056], [40.569763, 53.281227], [40.503845, 53.26973], [40.44694, 53.24222], [40.412521, 53.237277], [40.389175, 53.240153], [40.33905, 53.232345], [40.273132, 53.179704], [40.182495, 53.194516], [39.865265, 53.079178], [39.755402, 52.998256], [39.711456, 52.982137], [39.666824, 52.977175], [39.591293, 52.984617], [39.453278, 52.946155], [39.293289, 52.89192], [39.250031, 52.89192], [39.194412, 52.866643], [39.023438, 52.814383], [38.80727, 52.7916], [38.757706, 52.745437], [38.72406, 52.745022], [38.593597, 52.712587], [38.539352, 52.712171], [38.512573, 52.706763], [38.497467, 52.710923], [38.338852, 52.646396], [38.266754, 52.56216], [38.242722, 52.540032], [38.207016, 52.527501], [38.146591, 52.495741], [38.106766, 52.484035], [38.099213, 52.429222], [37.898026, 52.295882], [37.723618, 52.208027], [37.692719, 52.171826], [37.621307, 52.137281], [37.56, 52.05694], [37.339096, 51.89302], [37.336349, 51.876491], [37.191467, 51.863348], [36.940842, 51.773364], [36.729355, 51.730856], [36.687469, 51.714267], [36.590652, 51.69299], [36.546707, 51.663186], [36.473236, 51.635493], [36.467056, 51.617164], [36.399765, 51.612047], [36.356506, 51.598401], [36.235657, 51.53096], [36.192398, 51.536513], [36.0875, 51.49722], [36.008377, 51.480955], [35.855255, 51.483093], [35.784531, 51.495065], [35.726852, 51.488652], [35.659561, 51.454863], [35.620422, 51.445021], [35.560684, 51.388923], [35.4776, 51.332328], [35.478973, 51.310443], [35.455627, 51.297135], [35.440521, 51.297564], [35.359497, 51.272226], [35.327911, 51.241716], [35.255127, 51.223228], [35.156937, 51.193976], [35.098572, 51.165567], [35.062866, 51.16815], [34.994202, 51.133693], [34.859619, 51.10266], [34.73877, 51.099641], [34.63028, 51.03972], [34.621353, 51.01721], [34.570541, 51.000793], [34.547195, 50.980912], [34.457932, 50.941989], [34.423599, 50.903466], [34.343262, 50.873145], [34.29863, 50.838034], [34.295883, 50.816782], [34.280777, 50.804199], [34.118729, 50.756007], [34.104996, 50.736021], [34.037704, 50.712113], [34.012299, 50.711678], [33.971786, 50.668178], [33.936768, 50.655991], [33.907928, 50.658603], [33.834457, 50.597186], [33.801498, 50.597186], [33.743134, 50.563177], [33.701935, 50.513863], [33.594818, 50.496831], [33.493195, 50.499015], [33.454742, 50.489842], [33.3975, 50.44833], [33.362045, 50.436516], [33.359299, 50.414206], [33.327026, 50.393199], [33.322906, 50.340202], [33.272781, 50.302937], [33.138199, 50.277054], [32.983704, 50.216019], [32.963104, 50.190968], [32.968597, 50.155786], [32.926025, 50.136425], [32.927399, 50.121459], [32.904053, 50.115295], [32.880707, 50.071684], [32.790756, 50.042148], [32.774963, 50.009063], [32.56073, 49.935754], [32.529831, 49.913651], [32.267532, 49.843296], [32.235947, 49.843739], [32.205048, 49.826467], [32.119904, 49.803871], [32.11556, 49.79139], [32.099991, 49.736463], [31.941376, 49.719596], [31.764221, 49.674294], [31.631012, 49.671627], [31.602859, 49.664072], [31.482697, 49.578219], [31.423645, 49.552835], [31.293869, 49.523871], [31.258163, 49.5261], [31.228638, 49.517631], [31.147614, 49.527437], [31.093369, 49.507823], [31.041183, 49.521197], [30.971146, 49.502026], [30.894241, 49.496229], [30.83107, 49.509606], [30.76583, 49.50306], [30.738373, 49.504701], [30.674515, 49.510498], [30.604477, 49.503364], [30.559845, 49.487308], [30.419769, 49.480171], [30.297546, 49.431073], [30.213776, 49.433306], [30.125885, 49.395781], [30.113525, 49.379244], [30.093613, 49.372985], [30.092239, 49.3627], [30.05722, 49.341231], [29.8423, 49.295128], [29.805222, 49.275869], [29.768829, 49.277661], [29.598541, 49.239569], [29.548416, 49.250327], [29.304657, 49.191128], [29.26917, 49.18889], [29.238224, 49.185743], [29.200459, 49.190679], [29.137201, 49.181591], [29.089522, 49.182278], [27.73, 49.005], [26.13944, 49.01722], [24.57056, 48.79083], [23.19194, 48.73528], [22.288048, 48.621871]]}}
]
}
