{
"type": "FeatureCollection",
"features": [
{"type": "Feature", "properties": {"ProjectID": "P0793"}, "geometry": {"type": "LineString", "coordinates": [[40.63611, 46.5425], [40.616455, 46.568774], [40.618858, 46.581282], [40.524101, 46.635058], [40.520668, 46.643308], [40.182495, 46.92729], [40.175629, 46.943231], [39.710083, 47.424371], [39.66751, 47.73424], [39.545288, 47.82883], [39.462891, 47.997274], [39.523315, 48.162421], [39.402466, 48.60749], [39.325562, 48.680081], [39.281616, 48.987427], [39.15113, 49.52606], [39.100342, 49.709385], [39.022064, 49.808745], [38.998718, 49.839754], [39.006958, 49.872513], [38.956146, 49.973306], [38.991852, 50.165463], [38.965759, 50.189209], [38.958893, 50.238422], [38.978119, 50.346337], [38.94104, 50.393637], [38.94928, 50.537872], [38.9328, 50.581493], [38.997345, 50.767734], [38.99924, 50.83566], [39.012451, 50.864478], [39.002838, 51.000361], [39.019318, 51.047222], [39.005241, 51.138217], [38.987389, 51.164275], [39.003868, 51.19333], [38.991508, 51.255899], [38.976402, 51.287688], [38.932457, 51.328252], [38.900528, 51.392137], [38.963013, 51.465558], [38.980179, 51.596055], [38.998375, 51.623985], [39.002838, 51.65062], [38.987389, 51.667019], [38.983955, 51.681071], [38.946533, 51.733407], [38.867569, 51.799274], [38.792725, 51.849353], [38.792038, 51.863772], [38.788605, 51.903613], [38.743286, 51.956115], [38.648529, 52.075286], [38.622437, 52.114517], [38.601151, 52.125901], [38.580551, 52.161297], [38.535233, 52.213076], [38.516006, 52.24504], [38.524246, 52.292103], [38.494034, 52.336598], [38.481674, 52.412053], [38.467941, 52.435083], [38.473434, 52.456428], [38.461075, 52.538361], [38.328552, 52.654728], [38.303146, 52.742112], [38.289413, 52.798195], [38.29422, 52.804007], [38.283234, 52.856693], [38.235168, 52.928361], [38.204956, 52.957325], [38.154144, 53.040387], [38.114319, 53.062263], [37.98209, 53.15146], [37.985916, 53.205621], [37.933731, 53.253712], [37.890472, 53.330463], [37.806015, 53.41076], [37.75383, 53.444717], [37.650833, 53.577015], [37.494965, 53.749523], [37.469559, 53.820922], [37.460632, 53.822949], [37.441406, 53.861436], [37.376175, 53.884512], [37.34291, 53.91179], [37.610321, 54.1986], [37.466125, 54.437304], [37.428017, 54.567882], [37.432137, 54.617412], [37.423553, 54.630332], [37.443123, 54.642055], [37.424583, 54.679786], [37.43454, 54.717878], [37.41394, 54.769603], [37.41394, 54.805038], [37.423553, 54.836686], [37.481575, 54.89517], [37.492218, 54.896157], [37.506981, 54.922012], [37.50156, 54.9684], [37.476254, 54.987169], [37.450161, 54.986972], [37.433681, 55.001251], [37.431965, 55.061461], [37.439518, 55.104203], [37.43454, 55.111568], [37.447758, 55.164946], [37.48312, 55.205619], [37.486897, 55.205814], [37.486038, 55.22119], [37.541656, 55.384572], [37.591095, 55.53718], [37.624054, 55.634973], [37.617188, 55.749531]]}}
]
}
