{
"type": "FeatureCollection",
"features": [
{"type": "Feature", "properties": {"ProjectID": "P0790"}, "geometry": {"type": "LineString", "coordinates": [[45.41893, 52.2602], [45.427056, 52.170415], [45.011635, 52.138027], [44.978676, 52.111511], [44.954644, 52.113616], [44.889412, 52.092982], [44.799462, 52.092982], [44.782982, 52.083714], [44.750023, 52.0854], [44.675865, 52.031444], [44.549523, 51.985868], [44.405327, 51.933483], [44.39635, 51.89374], [44.358635, 51.882729], [44.313317, 51.833613], [44.236412, 51.789532], [44.199333, 51.79038], [44.175988, 51.774263], [44.148522, 51.775111], [44.033165, 51.759837], [43.990593, 51.69019], [43.899956, 51.675738], [43.853264, 51.640012], [43.802452, 51.651924], [43.78048, 51.631502], [43.750267, 51.637459], [43.728295, 51.617031], [43.500328, 51.51475], [43.493462, 51.480605], [43.390465, 51.455834], [43.21158, 51.37451], [43.224297, 51.353189], [43.027916, 51.27777], [42.728539, 51.178163], [42.661248, 51.083509], [42.501946, 51.074894], [42.34951, 51.059384], [42.128411, 51.087816], [42.03228, 51.06714], [41.933403, 50.973121], [41.85361, 50.9266], [41.824913, 50.907453], [41.804314, 50.862469], [41.800194, 50.799245], [41.732903, 50.748951], [41.712303, 50.686441], [41.688958, 50.670801], [41.683464, 50.649069], [41.658745, 50.629067], [41.653252, 50.552459], [41.554375, 50.505388], [41.489144, 50.456087], [41.491204, 50.404987], [41.454125, 50.388378], [41.342888, 50.370889], [41.327782, 50.360393], [41.197319, 50.288604], [41.13578, 50.26008], [41.009178, 50.139428], [40.948754, 50.156124], [40.884209, 50.140307], [40.837517, 50.080506], [40.814171, 50.024155], [40.707054, 49.955388], [40.705681, 49.945682], [40.579338, 49.905955], [40.561486, 49.910371], [40.418663, 49.899773], [40.341759, 49.860892], [40.26104, 49.84781], [40.157738, 49.820211], [40.112419, 49.830827], [39.938011, 49.755138], [39.948785, 49.688203], [39.8872, 49.674006], [39.859047, 49.630503], [39.675713, 49.631835], [39.527397, 49.624285], [39.443627, 49.584294], [39.325524, 49.53804], [39.15113, 49.52606]]}}
]
}
