{"type": "FeatureCollection", "crs": {"type": "name", "properties": {"name": "urn:ogc:def:crs:OGC:1.3:CRS84"}}, "features": [{"type": "Feature", "properties": {"gem_project_id": "P0919", "gem_pipeline_name": "Dahej-Vijaipur Gas Pipeline (DVPL-I)", "gem_segment_name": "", "gem_status": "operating", "gem_owner": "GAIL (India) Ltd [100.%]", "gem_wiki": "https://www.gem.wiki/Dahej-Vijaipur_Gas_Pipeline_(DVPL-I)", "gem_route_accuracy": "very low (straight line/schematic) -- GEM's own geometry for this project; our digitized route (used here) is more detailed", "geometry_source": "our digitized PNGRB map route, clipped to DVPL-I's real Dahej-Vijaipur extent (GEM start/end locations)", "note": "Originally shared segments with P0925/P3298/P3299 in our digitization; segments extending northeast past Vijaipur (~77.2E) were dropped here since those belong to HVJ's unique continuation toward Jagdishpur, not DVPL-I.", "_geometry_note": "Geometry recovered on 2026-08-28: the row carrying this pipeline's real attributes had empty/lost coordinates in the source export, but the actual route geometry survived in separate anonymous (unlabeled) rows in the same file. Those were merged back together and reattached to this pipeline's attributes. Verify against source maps."}, "geometry": {"type": "LineString", "coordinates": [[77.160468, 24.483252], [77.10094496253464, 24.354730452960567], [76.99010741666308, 24.258664800702007], [76.9012918750241, 24.17029982712585], [76.59447454936218, 23.993386433640346], [76.38454690548822, 23.853157261617152], [76.26343480325325, 23.705383499440508], [75.98083989803831, 23.579644044888248], [75.59328117088643, 23.564843232591052], [75.47216906865145, 23.50562331348343], [74.66475505375166, 23.179439067674604], [74.40638256898372, 23.075485608371444], [74.18623753298809, 22.91231351702177], [74.0753428228748, 22.911967811316174], [73.91527226943728, 22.804341271192225], [73.72486424640157, 22.716550764610762], [73.68015017689652, 22.5561585647833], [73.68092393339334, 22.53403677506839], [73.54910299436862, 22.412226495656157], [73.41377018635555, 22.11612871960316], [73.22755810723002, 21.94173204887337], [73.15222886864301, 21.800539756115437], [72.90010347699732, 21.800539756115437]]}}]}