{
"type": "FeatureCollection",
"features": [
{"type": "Feature", "properties": {"ProjectID": "P0916", "gem_project_id": "P0916", "gem_pipeline_name": "Dadri-Bawana-Nangal Gas Pipeline", "gem_segment_name": "", "gem_status": "operating", "gem_owner": "GAIL (India) Ltd [100.%]", "gem_wiki": "https://www.gem.wiki/Dadri-Bawana-Nangal_Gas_Pipeline", "confirmed_color_class": "GAIL", "match_confidence": "owner_and_empirical_agree", "source_segments_merged": 54, "n_parts_before_snap": 54, "n_parts_after_snap": 26, "snap_tolerance_km_approx": 6.7, "shares_route_with": [], "route_ambiguity_note": null}, "geometry": {"type": "MultiLineString", "coordinates": [[[76.06272, 30.6496], [76.20194, 30.53288], [76.06638, 30.6643], [76.07005, 30.66793], [76.07005, 30.68638], [76.07371, 30.69001], [76.07371, 30.70846], [76.07738, 30.71209], [76.07738, 30.73792], [76.08104, 30.74155], [76.08104, 30.76], [76.08471, 30.76363], [76.08471, 30.78208], [76.08837, 30.78571], [76.08838, 30.79678], [76.09204, 30.80041], [76.09204, 30.80779], [76.09571, 30.81142], [76.09571, 30.8188], [76.09937, 30.82243], [76.09937, 30.82981], [76.10304, 30.83343], [76.10304, 30.84081], [76.1067, 30.84444], [76.1067, 30.85182], [76.11037, 30.85545], [76.11037, 30.85914], [76.11403, 30.86277], [76.11404, 30.87383], [76.1177, 30.87746], [76.11771, 30.90698], [76.12137, 30.91061], [76.12138, 30.92537], [76.12504, 30.92899], [76.12505, 30.94006], [76.12871, 30.94369], [76.12871, 30.94738], [76.13238, 30.95101], [76.13238, 30.9547], [76.13971, 30.96195], [76.13971, 30.96564], [76.14337, 30.96927], [76.14338, 30.97296], [76.14704, 30.97658], [76.14704, 30.98396], [76.15437, 30.99122], [76.15438, 30.9986], [76.15804, 31.00222], [76.15804, 31.00591], [76.16171, 31.00954], [76.16171, 31.01692], [76.16538, 31.02054], [76.16538, 31.02423], [76.16904, 31.02786], [76.16905, 31.03524], [76.17271, 31.03886], [76.17271, 31.04255], [76.17638, 31.04618], [76.17639, 31.06463], [76.18005, 31.06825], [76.18006, 31.08301], [76.18373, 31.08664], [76.18374, 31.10508], [76.1874, 31.10871], [76.18741, 31.12715], [76.19108, 31.13078], [76.1911, 31.16029], [76.19476, 31.16392], [76.1911, 31.16767], [76.19112, 31.1898], [76.19478, 31.19343], [76.19479, 31.19712], [76.19845, 31.20074], [76.20211, 31.20068], [76.20578, 31.20431], [76.20944, 31.20424], [76.21311, 31.20787], [76.21311, 31.21156], [76.21861, 31.21515], [76.23509, 31.21487], [76.23876, 31.21849], [76.24975, 31.21831], [76.27174, 31.24006], [76.27175, 31.25113], [76.27542, 31.25475], [76.27544, 31.28057]], [[76.19484, 31.26352], [76.1985, 31.26345], [76.21314, 31.24845], [76.21313, 31.24107], [76.21679, 31.23732], [76.21678, 31.21887]], [[77.30979, 29.88581], [77.29877, 29.89702], [77.2951, 29.89707], [77.23998, 29.95309], [77.23631, 29.95314], [77.22896, 29.96061], [77.22529, 29.96066], [77.22162, 29.9644], [77.21428, 29.9645], [77.21061, 29.96823], [77.20694, 29.96828], [77.20326, 29.97202], [77.19593, 29.97212], [77.19225, 29.97585], [77.18858, 29.9759], [77.18124, 29.98338], [77.17757, 29.98343], [77.17022, 29.9909], [77.16655, 29.99095], [77.1592, 29.99842], [77.15554, 29.99847], [77.15186, 30.00221], [77.14819, 30.00226], [77.14085, 30.00973], [77.13718, 30.00978], [77.1335, 30.01352], [77.12617, 30.01362], [77.12249, 30.01736], [77.11883, 30.01741], [77.11515, 30.02114], [77.11148, 30.0212], [77.10781, 30.02493], [77.10414, 30.02498], [77.10047, 30.02872], [77.0968, 30.02877], [77.09313, 30.03251], [77.08946, 30.03256], [77.08579, 30.0363], [77.08212, 30.03635], [77.07845, 30.04009], [77.07111, 30.04019], [77.06744, 30.04392], [77.0601, 30.04403], [77.05643, 30.04776], [77.05276, 30.04782], [77.04909, 30.05155], [77.04542, 30.0516], [77.04175, 30.05534], [77.03441, 30.05545], [77.03074, 30.05918], [77.0234, 30.05929], [77.01973, 30.06303], [77.01239, 30.06313], [77.00872, 30.06687], [77.00138, 30.06697], [76.99771, 30.07071], [76.99038, 30.07081], [76.9867, 30.07455], [76.98304, 30.0746], [76.97936, 30.07834], [76.9757, 30.07839], [76.97202, 30.08213], [76.96469, 30.08224], [76.96102, 30.08598], [76.95368, 30.08608], [76.95001, 30.08982], [76.94634, 30.08987], [76.94267, 30.09361], [76.93533, 30.09372], [76.92799, 30.1012], [76.92432, 30.10125], [76.92065, 30.10499], [76.91699, 30.10504], [76.91331, 30.10878], [76.90965, 30.10883], [76.90598, 30.11257], [76.90231, 30.11263], [76.89864, 30.11637], [76.89497, 30.11642], [76.8913, 30.12016], [76.88763, 30.12021], [76.88396, 30.12395], [76.87662, 30.12406], [76.87295, 30.1278], [76.86929, 30.12785], [76.86562, 30.13159], [76.86195, 30.13164], [76.85828, 30.13539], [76.85461, 30.13544], [76.85094, 30.13918], [76.84727, 30.13923], [76.8436, 30.14297], [76.83993, 30.14303], [76.83626, 30.14677], [76.8326, 30.14682], [76.82893, 30.15056], [76.82526, 30.15062], [76.82159, 30.15436], [76.81425, 30.15446], [76.81058, 30.15821], [76.80325, 30.15831], [76.79958, 30.16205], [76.79225, 30.16216], [76.78858, 30.1659], [76.78491, 30.16596], [76.78124, 30.1697], [76.77391, 30.16981], [76.77024, 30.17355], [76.76657, 30.1736], [76.7629, 30.17735], [76.75556, 30.17745], [76.75189, 30.1812], [76.74823, 30.18125], [76.74456, 30.18499], [76.74089, 30.18505], [76.72988, 30.19628], [76.72622, 30.19633], [76.71888, 30.20382], [76.71521, 30.20387], [76.7042, 30.2151], [76.70054, 30.21515], [76.6932, 30.22264], [76.68953, 30.2227], [76.67485, 30.23767], [76.67119, 30.23772], [76.66018, 30.24896], [76.65652, 30.24901], [76.65285, 30.25275], [76.64918, 30.25281], [76.64551, 30.25655], [76.64185, 30.25661], [76.63818, 30.26035], [76.63451, 30.26041], [76.63084, 30.26415], [76.62718, 30.26421], [76.61984, 30.2717], [76.61617, 30.27175], [76.6125, 30.2755], [76.60884, 30.27555], [76.60517, 30.2793], [76.6015, 30.27935], [76.59417, 30.28684], [76.5905, 30.2869], [76.58317, 30.29439], [76.5795, 30.29444], [76.57583, 30.29819], [76.57217, 30.29825], [76.5685, 30.30199], [76.56483, 30.30205], [76.56116, 30.30579], [76.5575, 30.30585], [76.55383, 30.30959], [76.55016, 30.30965], [76.53549, 30.32463], [76.53183, 30.32469], [76.52083, 30.33593], [76.51716, 30.33598], [76.50983, 30.34347], [76.50616, 30.34353], [76.50249, 30.34728], [76.49883, 30.34733], [76.49516, 30.35108], [76.48783, 30.35119], [76.48416, 30.35494], [76.4805, 30.355], [76.47683, 30.35874], [76.47316, 30.3588], [76.46583, 30.3663], [76.4585, 30.36641], [76.45483, 30.37016], [76.45117, 30.37021], [76.44383, 30.37771], [76.44017, 30.37777], [76.43284, 30.38526], [76.42551, 30.38537], [76.41817, 30.39287], [76.41084, 30.39299], [76.40718, 30.39673], [76.40351, 30.39679], [76.39985, 30.40054], [76.39618, 30.4006], [76.38885, 30.40809], [76.38518, 30.40815], [76.38152, 30.4119], [76.37785, 30.41196], [76.37052, 30.41945], [76.36686, 30.41951], [76.35952, 30.42701], [76.35219, 30.42712], [76.34486, 30.43462], [76.3412, 30.43468], [76.33387, 30.44218], [76.3302, 30.44223], [76.31921, 30.45348], [76.31554, 30.45354], [76.30821, 30.46104], [76.30455, 30.4611], [76.30088, 30.46485], [76.29722, 30.4649], [76.28989, 30.4724], [76.28622, 30.47246], [76.27889, 30.47996], [76.27523, 30.48002], [76.27156, 30.48377], [76.2679, 30.48383], [76.26423, 30.48758], [76.26057, 30.48764], [76.24591, 30.50264], [76.24224, 30.5027], [76.23125, 30.51395], [76.22759, 30.51401], [76.21293, 30.52901], [76.2056, 30.52913], [76.20194, 30.53288]], [[77.30045, 29.04522], [77.30059, 28.9899], [77.30427, 28.98616], [77.30434, 28.96034], [77.30802, 28.95661], [77.3081, 28.9271], [77.31178, 28.92337], [77.31183, 28.90493], [77.30817, 28.90129], [77.30818, 28.8976], [77.31009, 28.8736], [77.3193, 28.86058], [77.30466, 28.846], [77.30478, 28.80174], [77.30112, 28.79809], [77.2993, 28.79258], [77.29381, 28.78711], [77.27913, 28.78728], [77.27547, 28.78364], [77.26446, 28.78377], [77.25897, 28.78014], [77.25344, 28.7839], [77.23509, 28.78412], [77.23141, 28.78785], [77.22407, 28.78794], [77.22039, 28.79167], [77.21672, 28.79172], [77.21304, 28.79545], [77.20202, 28.79558], [77.19834, 28.79932], [77.191, 28.79941], [77.18732, 28.80314], [77.17631, 28.80327], [77.17263, 28.80701], [77.16162, 28.80714], [77.15794, 28.81087], [77.14326, 28.81105], [77.13957, 28.81479], [77.1359, 28.81483], [77.12118, 28.82977], [77.11751, 28.82981], [77.11383, 28.83355], [77.11016, 28.83359], [77.10648, 28.83733], [77.04776, 28.83806], [77.0441, 28.83441], [77.03677, 28.8345]], [[77.21391, 28.51137], [77.21022, 28.5151], [77.20655, 28.51514], [77.20287, 28.51887], [77.1992, 28.51892], [77.19552, 28.52265], [77.19185, 28.52269], [77.17711, 28.53762]], [[77.22811, 28.66246], [77.22812, 28.65877], [77.23181, 28.65504], [77.23182, 28.65135], [77.23918, 28.64389]], [[77.2724, 28.58447], [77.26873, 28.58451], [77.26507, 28.58087], [77.2614, 28.58091], [77.25774, 28.57726], [77.2504, 28.57735], [77.24308, 28.57006], [77.24312, 28.55899], [77.23946, 28.55534], [77.2395, 28.54427], [77.23584, 28.54063], [77.23587, 28.52956], [77.23221, 28.52591], [77.23222, 28.52222], [77.21942, 28.50945], [77.22127, 28.5039], [77.2213, 28.49652], [77.22866, 28.48906], [77.2287, 28.47799], [77.23423, 28.47239], [77.24708, 28.47039], [77.25076, 28.46666], [77.2581, 28.46658], [77.26916, 28.45538], [77.27283, 28.45534], [77.28388, 28.44415], [77.30958, 28.44385], [77.31324, 28.4475], [77.33159, 28.44729], [77.33525, 28.45094], [77.33892, 28.4509], [77.34258, 28.45455], [77.34257, 28.45824], [77.35355, 28.46918], [77.35722, 28.46914], [77.36088, 28.47278], [77.36455, 28.47274], [77.36821, 28.47639], [77.37188, 28.47635], [77.37554, 28.48], [77.38288, 28.47991], [77.38654, 28.48356], [77.39022, 28.48352], [77.39753, 28.49082], [77.40488, 28.49073], [77.41586, 28.50168], [77.41584, 28.50537], [77.4195, 28.50901], [77.41949, 28.5127], [77.42499, 28.51633], [77.46905, 28.51769], [77.47085, 28.52688], [77.46717, 28.53061], [77.46714, 28.53799], [77.46346, 28.54172], [77.46345, 28.54541], [77.45976, 28.54914], [77.45973, 28.5602], [77.45604, 28.56393], [77.45595, 28.59344], [77.45226, 28.59717], [77.45225, 28.60086], [77.44857, 28.60459], [77.44855, 28.60828], [77.44487, 28.61201], [77.44486, 28.6157], [77.43749, 28.62316], [77.43382, 28.6232], [77.41172, 28.64558], [77.41171, 28.64927], [77.40802, 28.653], [77.40801, 28.65669], [77.40433, 28.66042], [77.40432, 28.6641], [77.3859, 28.68276], [77.38588, 28.69014], [77.3822, 28.69387], [77.37486, 28.69395], [77.37117, 28.69768], [77.3675, 28.69772], [77.36014, 28.70519], [77.35646, 28.70523], [77.35278, 28.70896], [77.34911, 28.709], [77.34359, 28.71276], [77.33809, 28.71282], [77.3344, 28.71655], [77.32706, 28.71664], [77.32338, 28.72037], [77.32328, 28.75357]], [[77.28937, 29.07117], [77.28939, 29.0638], [77.29307, 29.06006], [77.29308, 29.05637], [77.30227, 29.04888], [77.31509, 29.0598]], [[77.29023, 28.75764], [77.32143, 28.75912], [77.32325, 28.76463], [77.31588, 28.7721], [77.31587, 28.77578], [77.31219, 28.77952], [77.31218, 28.78321], [77.30482, 28.79067]], [[77.33677, 29.20336], [77.3331, 29.2034], [77.32577, 29.19612], [77.32027, 29.19434], [77.30045, 29.04522], [77.31489, 29.14093], [77.31308, 29.13173], [77.30026, 29.11898], [77.31308, 29.13173]], [[77.31842, 29.1999], [77.32384, 29.23671], [77.32925, 29.28089], [77.33474, 29.28451], [77.34394, 29.27702], [77.34761, 29.27698]], [[77.31859, 29.12983], [77.32227, 29.12609], [77.32228, 29.1224], [77.32596, 29.11867]], [[77.33181, 29.88921], [77.3208, 29.88936], [77.3153, 29.8839], [77.31347, 29.87839], [77.31715, 29.87466], [77.31716, 29.86729], [77.32083, 29.86355], [77.32084, 29.85986], [77.32451, 29.85613], [77.33186, 29.84681], [77.34289, 29.83746], [77.35023, 29.83736], [77.35391, 29.83363], [77.36492, 29.83349], [77.36859, 29.82975], [77.37593, 29.82966], [77.37961, 29.82593], [77.38328, 29.82588], [77.39063, 29.81841], [77.3943, 29.81837], [77.40165, 29.8109], [77.40532, 29.81085], [77.41267, 29.80339], [77.41268, 29.79601], [77.41636, 29.79228], [77.41822, 29.77567], [77.45677, 29.77334], [77.46044, 29.76961], [77.49348, 29.76919], [77.5155, 29.76892], [77.51917, 29.77256], [77.57056, 29.77192], [77.57424, 29.76819], [77.60361, 29.76783], [77.60729, 29.7641], [77.62931, 29.76383], [77.63299, 29.7601], [77.64768, 29.75992], [77.65136, 29.75619], [77.6587, 29.7561], [77.66605, 29.74864], [77.66607, 29.74127], [77.66975, 29.73754], [77.6881, 29.73732], [77.69178, 29.73359], [77.69913, 29.7335]], [[77.37278, 29.5274], [77.37286, 29.48684], [77.36919, 29.4832], [77.36922, 29.46845], [77.35823, 29.45753], [77.35826, 29.44646], [77.35459, 29.44282], [77.35462, 29.42807], [77.35096, 29.42443], [77.35098, 29.41337], [77.34732, 29.40973], [77.34735, 29.39498], [77.34369, 29.39134], [77.34376, 29.35815], [77.3401, 29.35451], [77.34015, 29.3287], [77.33649, 29.32505], [77.33654, 29.30293], [77.33288, 29.29929], [77.3329, 29.28822]], [[77.34542, 28.71642], [77.34529, 28.75884], [77.34893, 28.76802], [77.35259, 28.77167], [77.36544, 28.77152], [77.37094, 28.77514], [77.3893, 28.77493], [77.39662, 28.78222], [77.39661, 28.78591], [77.40027, 28.78955], [77.40026, 28.79324], [77.40392, 28.79689], [77.40391, 28.80058], [77.40757, 28.80422], [77.40756, 28.80791], [77.4222, 28.82249], [77.42954, 28.82241], [77.4332, 28.82605], [77.45891, 28.82576], [77.46257, 28.82941], [77.48092, 28.82919], [77.48459, 28.83284], [77.49193, 28.83276], [77.49559, 28.8364], [77.49926, 28.83636], [77.50292, 28.84001], [77.5066, 28.83997], [77.51392, 28.84726], [77.51759, 28.84722], [77.52125, 28.85086], [77.53227, 28.85074], [77.53593, 28.85438], [77.54695, 28.85426], [77.55061, 28.8579]], [[77.35442, 29.53131], [77.37093, 29.53295], [77.37276, 29.53846], [77.37642, 29.5421], [77.37639, 29.55685], [77.37272, 29.56058], [77.37271, 29.56427], [77.37637, 29.56791], [77.37635, 29.58266], [77.38001, 29.5863], [77.37999, 29.59736], [77.38365, 29.601], [77.38364, 29.60837], [77.3873, 29.61201], [77.3873, 29.6157], [77.38362, 29.61943], [77.38356, 29.65261], [77.39272, 29.66171], [77.39453, 29.67459], [77.3982, 29.67823], [77.39817, 29.69298], [77.39266, 29.69674], [77.3835, 29.68948], [77.37983, 29.68953]], [[77.36729, 28.76781], [77.36731, 28.76043], [77.36365, 28.75678]], [[77.37172, 28.52431], [77.37907, 28.52422], [77.38638, 28.53152], [77.38637, 28.53521], [77.39186, 28.54068], [77.40471, 28.54238], [77.40839, 28.53865], [77.41206, 28.53861], [77.41943, 28.53115], [77.41944, 28.52746], [77.42313, 28.52373], [77.42314, 28.52004]], [[77.39001, 28.54623], [77.38998, 28.55361], [77.3863, 28.55734], [77.38625, 28.5721], [77.38257, 28.57583], [77.38256, 28.57952], [77.37887, 28.58325], [77.37886, 28.58693]], [[77.41273, 29.77021], [77.41274, 29.76284], [77.40907, 29.7592], [77.40908, 29.75182], [77.40542, 29.74818], [77.40543, 29.74081], [77.40177, 29.73717], [77.40179, 29.72611], [77.39812, 29.72247], [77.39814, 29.71141], [77.39448, 29.70777], [77.39449, 29.7004]], [[77.40923, 29.66335], [77.40557, 29.65971], [77.39823, 29.6598]], [[77.4058, 28.2288], [77.40579, 28.23249], [77.4021, 28.23622], [77.40208, 28.2436], [77.40573, 28.24725], [77.42774, 28.25439], [77.44972, 28.26891], [77.45338, 28.27256], [77.45335, 28.27993], [77.45701, 28.28358], [77.457, 28.28727], [77.46431, 28.29457], [77.4643, 28.29826], [77.4826, 28.31651], [77.48258, 28.32019], [77.48624, 28.32384], [77.48622, 28.33122], [77.48987, 28.33487], [77.48985, 28.34225], [77.49351, 28.3459], [77.49349, 28.34959]], [[77.47456, 28.51578], [77.4893, 28.50086], [77.49664, 28.50078], [77.50033, 28.49705], [77.51134, 28.49693], [77.51503, 28.4932], [77.5187, 28.49316], [77.52607, 28.4857], [77.52608, 28.48202], [77.52977, 28.47829], [77.52978, 28.4746], [77.53531, 28.46901], [77.54082, 28.4671], [77.54451, 28.46337], [77.54818, 28.46334], [77.55187, 28.45961], [77.55921, 28.45953], [77.57027, 28.44834], [77.57032, 28.43359], [77.57769, 28.42614], [77.57956, 28.4169], [77.58875, 28.41495], [77.59243, 28.41123], [77.60345, 28.41111], [77.60714, 28.40738], [77.61448, 28.4073], [77.61817, 28.40358], [77.62552, 28.4035], [77.6292, 28.39977], [77.64757, 28.39958], [77.65125, 28.39585], [77.68798, 28.39547], [77.69167, 28.39174], [77.71371, 28.39151], [77.7174, 28.38778], [77.73577, 28.38759], [77.73945, 28.38387], [77.76149, 28.38364], [77.76518, 28.37992], [77.79457, 28.37962], [77.79826, 28.37589], [77.81295, 28.37574], [77.81664, 28.37202], [77.82399, 28.37195], [77.82768, 28.36822], [77.83135, 28.36818], [77.84241, 28.35701], [77.84243, 28.35332], [77.84611, 28.3496], [77.84614, 28.34223], [77.88302, 28.30499], [77.8867, 28.30495], [77.90514, 28.28634], [77.90881, 28.2863], [77.91619, 28.27885], [77.91986, 28.27882], [77.92355, 28.2751], [77.9309, 28.27502], [77.94566, 28.26013], [77.94933, 28.2601], [77.95302, 28.25638], [77.95669, 28.25634], [77.96038, 28.25262], [77.96773, 28.25255], [77.97142, 28.24882], [77.9751, 28.24879], [77.97879, 28.24507], [78.1405, 28.24355], [78.14419, 28.23983], [78.14786, 28.2398], [78.15524, 28.23236], [78.15892, 28.23232], [78.19582, 28.19513], [78.19584, 28.19144], [78.2106, 28.17657], [78.21062, 28.17288], [78.23645, 28.14685], [78.24381, 28.14679], [78.2475, 28.14307], [78.25116, 28.14672], [78.26219, 28.14662], [78.26585, 28.15028], [78.26952, 28.15024], [78.28051, 28.1612], [78.28786, 28.16114], [78.29152, 28.16479], [78.31726, 28.16457], [78.32092, 28.16822], [78.32827, 28.16816], [78.33926, 28.17912], [78.33923, 28.18649], [78.34289, 28.19014], [78.34286, 28.19752], [78.35385, 28.20848], [78.36488, 28.20838], [78.36854, 28.21203], [78.38692, 28.21188], [78.39058, 28.21553], [78.45677, 28.21497], [78.46046, 28.21125], [78.5524, 28.21049], [78.61124, 28.21001], [78.6149, 28.21367], [78.71789, 28.21285]], [[77.49349, 28.34959], [77.48981, 28.35332], [77.48614, 28.35335], [77.48245, 28.35708], [77.47878, 28.35712], [77.47512, 28.35347]], [[77.49349, 28.34959], [77.49715, 28.35324], [77.50083, 28.3532], [77.50814, 28.36049], [77.50812, 28.36787], [77.51178, 28.37152], [77.51176, 28.37521], [77.51542, 28.37886], [77.51539, 28.38992], [77.51904, 28.39357], [77.51899, 28.40833], [77.52448, 28.4138], [77.52616, 28.45989], [77.52982, 28.46353]], [[77.53, 28.4119], [77.55571, 28.41162], [77.55939, 28.40789], [77.57408, 28.40773], [77.57777, 28.40401], [77.57778, 28.40032], [77.58147, 28.39659]]]}}
]
}
