{
"type": "FeatureCollection",
"features": [
{"type": "Feature", "properties": {"ProjectID": "P0912", "PipelineName": "Chainsa-Jhajjar-Hissar Gas Pipeline", "SegmentName": "", "Wiki": "https://www.gem.wiki/Chainsa-Jhajjar-Hissar_Gas_Pipeline", "Status": "operating", "LastUpdated": "2023-07-12", "Fuel": "Gas", "OtherEnglishNames": "", "OtherLanguagePrimaryPipelineName": "", "OtherLanguageSegmentName": "", "CountriesOrAreas": "India", "Owner": "GAIL (India) Ltd [100.%]", "Parent": "GAIL Ltd [100.00%]", "ParentEntityIDs": "E100000000513", "StartYear1": "2023", "StartYear2": "", "StartYear3": "", "ShelvedYear": "", "CancelledYear": "", "StopYear": "", "Capacity": "35.0", "CapacityUnits": "MMSCMD", "CapacityBcm/y": "12.78", "CapacityBOEd": "205905.0", "LengthKnownKm": "455.0", "LengthEstimateKm": "185.36", "LengthMergedKm": "455.0", "Diameter": "", "DiameterUnits": "", "FuelSource": "", "StartLocation": "Chainsa", "StartPrefecture/District": "", "StartState/Province": "Haryana", "StartCountryOrArea": "India", "StartRegion": "Asia", "StartSubRegion": "Southern Asia", "EndLocation": "Hissar", "EndPrefecture/District": "", "EndState/Province": "Haryana", "EndCountryOrArea": "India", "EndRegion": "Asia", "EndSubRegion": "Southern Asia", "ProjectLevelCost": "", "ProjectLevelCostUnits": "", "CostUSD": "--", "FIDStatus": "", "FIDYear": "", "PCI3": "", "PCI4": "", "PCI5": "", "PCI6": "", "RouteAccuracy": "very low (straight line/schematic)", "RouteType": "Mapped route (at any accuracy)", "RouteCreator": "WA", "PipelineStatus": "operating", "CapacityMapScale": "205905.0"}, "geometry": {"type": "LineString", "coordinates": [[75.855618, 29.097827], [76.354209, 28.825206], [76.595844, 28.710369], [76.869626, 28.519754], [76.903791, 28.415873], [76.79554, 28.298628], [76.957624, 28.167777], [76.803867, 28.115175], [76.637327, 28.151891], [76.696091, 28.013036], [76.404171, 27.990247]]}}
]
}
