{
"type": "FeatureCollection",
"features": [
{"type": "Feature", "properties": {"ProjectID": "P0925"}, "geometry": {"type": "LineString", "coordinates": [[72.645373, 21.177933], [72.995619, 21.574189], [73.667443, 22.047882], [74.17302, 22.339386], [74.521458, 22.421371], [74.705925, 22.471473], [74.838012, 22.562568], [75.350489, 23.084555], [75.490216, 23.229271], [76.01918, 23.448841], [76.203818, 23.523695], [76.438359, 23.728294], [76.657929, 24.002757], [77.160418, 24.483139], [78.496306, 25.324883], [79.295204, 26.153371], [79.894998, 26.661958], [80.542835, 26.750347]]}}
]
}
