{
"type": "FeatureCollection",
"features": [
{"type": "Feature", "properties": {"ProjectID": "P0935", "PipelineName": "Kukrahati-Itinda Gas Pipeline", "SegmentName": "", "Wiki": "https://www.gem.wiki/Kukrahati-Itinda_Gas_Pipeline", "Status": "cancelled", "LastUpdated": "2025-07-15", "Fuel": "Gas", "OtherEnglishNames": "", "OtherLanguagePrimaryPipelineName": "", "OtherLanguageSegmentName": "", "CountriesOrAreas": "India", "Owner": "H-Energy [100.%]", "Parent": "unknown [unknown %]", "ParentEntityIDs": "E100001014939", "StartYear1": "2024", "StartYear2": "", "StartYear3": "", "ShelvedYear": "", "CancelledYear": "", "StopYear": "", "Capacity": "18.0", "CapacityUnits": "MMSCMD", "CapacityBcm/y": "6.57", "CapacityBOEd": "105894.0", "LengthKnownKm": "125.0", "LengthEstimateKm": "98.06", "LengthMergedKm": "125.0", "Diameter": "", "DiameterUnits": "", "FuelSource": "", "StartLocation": "Kukrahati", "StartPrefecture/District": "", "StartState/Province": "West Bengal", "StartCountryOrArea": "India", "StartRegion": "Asia", "StartSubRegion": "Southern Asia", "EndLocation": "Itinda", "EndPrefecture/District": "", "EndState/Province": "West Bengal", "EndCountryOrArea": "India", "EndRegion": "Asia", "EndSubRegion": "Southern Asia", "ProjectLevelCost": "", "ProjectLevelCostUnits": "", "CostUSD": "27300000.0", "FIDStatus": "", "FIDYear": "", "PCI3": "", "PCI4": "", "PCI5": "", "PCI6": "", "RouteAccuracy": "very low (straight line/schematic)", "RouteType": "Mapped route (at any accuracy)", "RouteCreator": "WA", "PipelineStatus": "cancelled", "CapacityMapScale": "105894.0"}, "geometry": {"type": "LineString", "coordinates": [[88.144296, 22.07161], [87.88619, 22.198995], [87.964247, 22.424065], [88.110125, 22.61454], [88.41098, 22.75266], [88.747106, 22.644625]]}}
]
}
