{
"type": "FeatureCollection",
"features": [
{"type": "Feature", "properties": {"ProjectID": "P0937", "PipelineName": "Low Pressure Gujarat Gas Grid Network", "SegmentName": "", "Wiki": "https://www.gem.wiki/Low_Pressure_Gujarat_Gas_Grid_Network", "Status": "operating", "LastUpdated": "2023-07-20", "Fuel": "Gas", "OtherEnglishNames": "", "OtherLanguagePrimaryPipelineName": "", "OtherLanguageSegmentName": "", "CountriesOrAreas": "India", "Owner": "Gujarat State Petronet [100.%]", "Parent": "unknown [unknown %]", "ParentEntityIDs": "E100000153049", "StartYear1": "2000", "StartYear2": "", "StartYear3": "", "ShelvedYear": "", "CancelledYear": "", "StopYear": "", "Capacity": "12.0", "CapacityUnits": "MMSCMD", "CapacityBcm/y": "4.38", "CapacityBOEd": "70596.0", "LengthKnownKm": "58.0", "LengthEstimateKm": "158.43", "LengthMergedKm": "58.0", "Diameter": "", "DiameterUnits": "", "FuelSource": "", "StartLocation": "Eklera", "StartPrefecture/District": "", "StartState/Province": "Gujarat", "StartCountryOrArea": "India", "StartRegion": "Asia", "StartSubRegion": "Southern Asia", "EndLocation": "Hazira", "EndPrefecture/District": "", "EndState/Province": "Gujarat", "EndCountryOrArea": "India", "EndRegion": "Asia", "EndSubRegion": "Southern Asia", "ProjectLevelCost": "", "ProjectLevelCostUnits": "", "CostUSD": "--", "FIDStatus": "", "FIDYear": "", "PCI3": "", "PCI4": "", "PCI5": "", "PCI6": "", "RouteAccuracy": "medium", "RouteType": "Mapped route (at any accuracy)", "RouteCreator": "WA", "PipelineStatus": "operating", "CapacityMapScale": "70596.0"}, "geometry": {"type": "LineString", "coordinates": [[72.88075, 21.351888], [73.00428, 21.24666], [73.099575, 21.167684], [73.175149, 21.096551], [73.233694, 20.986558], [73.19487, 20.874476], [73.205458, 20.762309], [73.198399, 20.702893], [73.152229, 20.646807], [73.141928, 20.537727], [73.117848, 20.38921]]}}
]
}
