{
"type": "FeatureCollection",
"features": [
{"type": "Feature", "properties": {"ProjectID": "P0934", "PipelineName": "Kochi-Koottanad-Bangalore-Mangalore Gas Pipeline", "SegmentName": "Phase I", "Wiki": "https://www.gem.wiki/Kochi-Koottanad-Bangalore-Mangalore_Gas_Pipeline", "Status": "operating", "LastUpdated": "2023-07-14", "Fuel": "Gas", "OtherEnglishNames": "KKBMPL", "OtherLanguagePrimaryPipelineName": "", "OtherLanguageSegmentName": "", "CountriesOrAreas": "India", "Owner": "GAIL (India) Ltd [100.%]", "Parent": "GAIL Ltd [100.00%]", "ParentEntityIDs": "E100000000513", "StartYear1": "2019", "StartYear2": "", "StartYear3": "", "ShelvedYear": "", "CancelledYear": "", "StopYear": "", "Capacity": "16.0", "CapacityUnits": "MMSCMD", "CapacityBcm/y": "5.84", "CapacityBOEd": "94128.0", "LengthKnownKm": "444.0", "LengthEstimateKm": "375.14", "LengthMergedKm": "444.0", "Diameter": "", "DiameterUnits": "", "FuelSource": "", "StartLocation": "Kochi", "StartPrefecture/District": "", "StartState/Province": "Kerala", "StartCountryOrArea": "India", "StartRegion": "Asia", "StartSubRegion": "Southern Asia", "EndLocation": "Kochi", "EndPrefecture/District": "", "EndState/Province": "Kerala", "EndCountryOrArea": "India", "EndRegion": "Asia", "EndSubRegion": "Southern Asia", "ProjectLevelCost": "", "ProjectLevelCostUnits": "", "CostUSD": "--", "FIDStatus": "", "FIDYear": "", "PCI3": "", "PCI4": "", "PCI5": "", "PCI6": "", "RouteAccuracy": "high", "RouteType": "Mapped route (at any accuracy)", "RouteCreator": "WA", "PipelineStatus": "operating", "CapacityMapScale": "94128.0", "SourceNote": "Kochi-Mangaluru line per GAIL/PIB coverage (444 km); Koottanad is a waypoint, not the segment boundary. Phase II (Koottanad->Coimbatore->Bengaluru, 542.45km) is a separate branch = P2746, no geometry shared with this file."}, "geometry": {"type": "LineString", "coordinates": [[74.856, 12.9141], [75.124908, 13.075797], [75.277937, 13.085113], [75.30663, 12.749512], [75.402274, 12.590878], [75.52661, 12.394782], [75.717896, 12.179842], [75.861361, 12.011507], [75.976133, 11.749442], [76.138727, 11.608948], [76.30132, 11.430886], [76.36827, 11.215189], [76.406528, 10.783313], [76.502171, 10.567141], [76.549993, 10.30377], [76.540428, 10.124928], [76.2673, 9.9312]]}}
]
}
