{
"type": "FeatureCollection",
"features": [
{"type": "Feature", "properties": {"ProjectID": "P0943", "PipelineName": "Mumbai Regional Natural Gas Pipeline Network", "SegmentName": "", "Wiki": "https://www.gem.wiki/Mumbai_Regional_Natural_Gas_Pipeline_Network", "Status": "operating", "LastUpdated": "2023-07-20", "Fuel": "Gas", "OtherEnglishNames": "", "OtherLanguagePrimaryPipelineName": "", "OtherLanguageSegmentName": "", "CountriesOrAreas": "India", "Owner": "GAIL (India) Ltd [100.%]", "Parent": "GAIL Ltd [100.00%]", "ParentEntityIDs": "E100000000513", "StartYear1": "", "StartYear2": "", "StartYear3": "", "ShelvedYear": "", "CancelledYear": "", "StopYear": "", "Capacity": "7.04", "CapacityUnits": "MMSCMD", "CapacityBcm/y": "2.57", "CapacityBOEd": "41416.32", "LengthKnownKm": "128.68", "LengthEstimateKm": "49.89", "LengthMergedKm": "128.68", "Diameter": "", "DiameterUnits": "", "FuelSource": "", "StartLocation": "Uran", "StartPrefecture/District": "", "StartState/Province": "Maharashtra", "StartCountryOrArea": "India", "StartRegion": "Asia", "StartSubRegion": "Southern Asia", "EndLocation": "Trombay", "EndPrefecture/District": "", "EndState/Province": "Maharashtra", "EndCountryOrArea": "India", "EndRegion": "Asia", "EndSubRegion": "Southern Asia", "ProjectLevelCost": "", "ProjectLevelCostUnits": "", "CostUSD": "--", "FIDStatus": "", "FIDYear": "", "PCI3": "", "PCI4": "", "PCI5": "", "PCI6": "", "RouteAccuracy": "low", "RouteType": "Mapped route (at any accuracy)", "RouteCreator": "WA", "PipelineStatus": "operating", "CapacityMapScale": "41416.32"}, "geometry": {"type": "LineString", "coordinates": [[73.21913, 18.685249], [73.260727, 18.793577], [73.312723, 18.877237], [73.395917, 18.744345], [73.510309, 18.690174], [73.561085, 18.795881], [73.588304, 18.877237], [73.676698, 18.891996], [73.817088, 18.936266], [73.93148, 18.921511], [74.122163, 18.73032]]}}
]
}
