{
"type": "FeatureCollection",
"features": [
{"type": "Feature", "properties": {"ProjectID": "P0968"}, "geometry": {"type": "LineString", "coordinates": [[112.656, -7.162], [112.604, -7.179], [112.517, -7.159], [112.42, -7.118], [112.347, -7.097], [112.273, -7.1], [112.166, -7.112], [112.128, -7.137], [112.071, -7.143], [111.988, -7.179], [111.93, -7.197], [111.886, -7.176], [111.831, -7.163], [111.805, -7.143], [111.755, -7.133], [111.703, -7.146], [111.643, -7.17], [111.587, -7.154], [111.433, -7.221], [111.291, -7.21], [111.098, -7.219], [110.953, -7.205], [110.831, -7.177], [110.659, -7.129], [110.422, -6.997]]}}
]
}
