{
"type": "FeatureCollection",
"features": [
{"type": "Feature", "properties": {"ProjectID": "P0967"}, "geometry": {"type": "LineString", "coordinates": [[112.660127, -7.157029], [112.635659, -7.139486], [112.608599, -7.131197], [112.563619, -7.133238], [112.537183, -7.143452], [112.516928, -7.153664], [112.493068, -7.206126], [112.526399, -7.235394], [112.561092, -7.240137], [112.590977, -7.246244], [112.619484, -7.237361], [112.650573, -7.224039], [112.657949, -7.203938], [112.659745, -7.163231], [112.660127, -7.157029]]}}
]
}
