{
"type": "FeatureCollection",
"features": [
{"type": "Feature", "properties": {"ProjectID": "P0982", "id": 0, "name": "sswj1"}, "geometry": {"type": "MultiLineString", "coordinates": [[[106.113807, -6.002369], [106.195049, -5.928277], [106.195135, -5.625296], [106.118831, -5.542008], [105.836563, -5.298412], [105.831878, -5.291755], [105.830676, -5.290793], [105.829174, -5.290238], [105.826535, -5.290067], [105.823939, -5.290451], [105.821943, -5.290259], [105.821192, -5.290344], [105.817437, -5.291605], [105.816193, -5.291691], [105.810571, -5.290686], [105.809648, -5.290409], [105.808532, -5.28981], [105.803168, -5.285452], [105.802159, -5.284426], [105.795937, -5.27276], [105.788748, -5.259555], [105.787459, -5.258438], [105.787422, -5.258381], [105.787379, -5.258301], [105.78728, -5.258231], [105.787175, -5.258142], [105.785347, -5.256817], [105.78377, -5.255559], [105.783694, -5.255484], [105.781962, -5.253459], [105.781925, -5.253401], [105.77405, -5.243316], [105.773234, -5.242439], [105.772011, -5.241798], [105.766261, -5.239747], [105.758557, -5.237845], [105.757549, -5.237439], [105.756776, -5.236649], [105.756133, -5.23558], [105.755081, -5.232738], [105.754389, -5.231425], [105.751669, -5.226264], [105.747356, -5.214233], [105.744309, -5.205408], [105.742056, -5.197138], [105.737464, -5.190706], [105.734932, -5.187992], [105.733538, -5.186795], [105.729783, -5.184722], [105.72562, -5.182008], [105.72474, -5.181281], [105.72386, -5.180256], [105.723302, -5.178952], [105.723152, -5.177264], [105.724804, -5.16239], [105.723646, -5.154355], [105.723345, -5.153222], [105.72253, -5.151897], [105.71929, -5.148285], [105.716093, -5.144973], [105.715299, -5.14384], [105.714612, -5.142537], [105.71135, -5.125525], [105.709248, -5.115886], [105.706973, -5.106332], [105.705471, -5.099344], [105.704184, -5.092141], [105.703089, -5.090453], [105.701695, -5.089469], [105.697317, -5.088444], [105.693626, -5.088294], [105.691845, -5.087952], [105.690579, -5.087375], [105.688863, -5.085879], [105.688026, -5.085024], [105.687382, -5.083741], [105.687318, -5.082673], [105.687661, -5.081241], [105.689421, -5.077565], [105.689936, -5.075213], [105.690064, -5.073546], [105.689721, -5.072221], [105.688777, -5.070426], [105.687489, -5.069186], [105.685601, -5.06863], [105.681868, -5.06769], [105.679421, -5.067562], [105.67749, -5.068032], [105.676417, -5.068759], [105.674701, -5.069143], [105.672812, -5.069101], [105.67101, -5.068545], [105.664401, -5.062133], [105.659594, -5.06038], [105.658007, -5.060594], [105.652556, -5.061791], [105.630798, -5.062731], [105.626936, -5.062603], [105.624189, -5.061705], [105.621572, -5.06038], [105.618911, -5.058243], [105.609727, -5.053968], [105.596466, -5.045546], [105.594363, -5.044649], [105.565567, -5.036697], [105.552692, -5.035158], [105.546212, -5.032807], [105.544238, -5.032593], [105.537887, -5.033021], [105.530763, -5.031952], [105.527587, -5.032208], [105.521793, -5.031567], [105.519733, -5.031995], [105.518146, -5.031866], [105.513639, -5.030584], [105.507417, -5.030285], [105.500894, -5.02943], [105.494928, -5.027933], [105.49201, -5.027549], [105.489221, -5.027762], [105.483942, -5.029045], [105.478276, -5.02887], [105.45536, -5.023274], [105.44579, -5.01917], [105.443215, -5.018656], [105.439567, -5.018314], [105.429139, -5.018186], [105.422959, -5.017331], [105.421543, -5.017374], [105.418668, -5.018143], [105.417509, -5.018357], [105.416565, -5.018058], [105.415578, -5.017374], [105.415106, -5.016391], [105.413604, -5.009807], [105.413175, -5.009037], [105.412273, -5.00861], [105.406137, -5.007156], [105.404892, -5.006387], [105.387383, -4.993091], [105.385709, -4.991851], [105.38455, -4.991424], [105.38146, -4.991039], [105.380387, -4.990697], [105.379443, -4.990098], [105.378585, -4.989072], [105.377598, -4.987277], [105.377083, -4.985609], [105.376782, -4.984669], [105.376096, -4.98407], [105.373135, -4.981975], [105.36438, -4.975007], [105.352278, -4.962736], [105.344252, -4.957862], [105.342236, -4.957263], [105.33936, -4.955596], [105.332435, -4.95039], [105.332004, -4.950156], [105.33156, -4.949812], [105.331121, -4.949364], [105.330534, -4.948648], [105.33042, -4.948635], [105.32949, -4.946789], [105.328503, -4.943154], [105.326958, -4.939007], [105.325327, -4.935629], [105.320349, -4.920964], [105.316873, -4.913524], [105.313182, -4.903518], [105.312409, -4.902321], [105.303354, -4.895394], [105.295672, -4.890135], [105.27709, -4.875939], [105.259752, -4.861144], [105.255804, -4.858492], [105.233831, -4.840362], [105.232329, -4.837197], [105.230956, -4.8357], [105.226407, -4.833947], [105.223532, -4.832921], [105.222244, -4.83198], [105.216966, -4.825908], [105.206108, -4.816714], [105.203748, -4.80598], [105.200272, -4.772665], [105.199113, -4.767833], [105.192547, -4.726219], [105.193834, -4.664714], [105.19392, -4.662105], [105.194693, -4.659966], [105.196237, -4.656502], [105.196409, -4.655048], [105.195465, -4.643285], [105.194778, -4.641616], [105.193019, -4.639478], [105.192161, -4.638023], [105.190916, -4.636826], [105.180015, -4.623009], [105.17714, -4.620785], [105.17581, -4.618347], [105.166583, -4.607353], [105.154138, -4.591868], [105.153022, -4.589601], [105.151648, -4.588702], [105.139976, -4.584553], [105.135898, -4.582756], [105.134439, -4.581644], [105.132465, -4.578735], [105.129805, -4.576596], [105.125513, -4.570393], [105.118647, -4.564917], [105.116587, -4.562137], [105.115256, -4.560811], [105.113754, -4.560297], [105.111995, -4.560426], [105.110536, -4.561196], [105.107446, -4.564019], [105.105987, -4.564746], [105.101566, -4.56526], [105.099378, -4.565174], [105.087748, -4.563078], [105.083064, -4.561805], [105.081267, -4.560853], [105.080151, -4.55957], [105.079121, -4.55773], [105.077748, -4.556404], [105.076032, -4.555634], [105.075715, -4.555582], [105.071451, -4.554885], [105.070281, -4.554693], [105.070197, -4.554673], [105.058093, -4.551827], [105.054102, -4.550586], [105.04539, -4.54926], [105.043373, -4.549346], [105.031743, -4.547977], [105.020585, -4.546779], [105.009255, -4.545025], [105.003719, -4.543613], [105.001874, -4.542971], [105.000887, -4.541987], [104.997711, -4.53788], [104.995909, -4.535784], [104.994063, -4.534159], [104.991488, -4.532704], [104.982347, -4.528982], [104.97973, -4.527527], [104.977112, -4.525303], [104.954839, -4.506051], [104.939046, -4.491868], [104.937995, -4.490136], [104.933488, -4.485836], [104.929583, -4.483376], [104.928446, -4.482905], [104.926622, -4.482648], [104.925442, -4.482113], [104.923768, -4.480937], [104.922953, -4.480017], [104.922051, -4.478156], [104.920614, -4.475396], [104.919477, -4.474177], [104.917631, -4.473193], [104.915013, -4.472295], [104.912374, -4.47069], [104.907482, -4.468123], [104.906452, -4.468016], [104.905507, -4.467738], [104.904563, -4.466839], [104.903576, -4.465107], [104.902911, -4.463502], [104.902439, -4.462689], [104.899714, -4.460486], [104.898984, -4.459823], [104.897697, -4.457534], [104.896538, -4.453661], [104.895766, -4.451971], [104.89495, -4.451223], [104.893427, -4.450517], [104.891882, -4.449939], [104.890315, -4.449618], [104.88862, -4.449682], [104.887676, -4.449447], [104.886582, -4.448805], [104.883835, -4.446645], [104.882205, -4.445618], [104.881411, -4.444848], [104.871712, -4.437445], [104.866733, -4.432846], [104.865017, -4.431905], [104.863987, -4.431049], [104.862313, -4.429102], [104.861391, -4.428503], [104.857249, -4.426706], [104.856284, -4.426364], [104.855447, -4.425636], [104.854867, -4.424802], [104.845469, -4.40835], [104.843903, -4.406339], [104.842443, -4.404734], [104.837594, -4.400049], [104.832895, -4.395128], [104.831393, -4.393481], [104.830105, -4.391726], [104.829376, -4.389801], [104.828153, -4.388154], [104.826908, -4.387062], [104.826007, -4.386763], [104.824097, -4.386549], [104.823325, -4.386185], [104.822617, -4.385757], [104.821501, -4.384538], [104.820492, -4.382955], [104.819913, -4.381307], [104.818969, -4.38043], [104.808583, -4.372022], [104.807424, -4.37061], [104.806223, -4.369454], [104.803154, -4.366951], [104.798563, -4.361238], [104.793777, -4.3585], [104.791288, -4.356617], [104.781525, -4.348016], [104.777427, -4.343822], [104.768307, -4.336548], [104.760754, -4.329358], [104.757707, -4.32632], [104.7523, -4.322276], [104.750497, -4.320821], [104.74612, -4.316628], [104.744167, -4.315194], [104.743438, -4.314445], [104.742494, -4.313011], [104.741421, -4.310594], [104.740756, -4.309631], [104.740069, -4.307983], [104.739318, -4.306806], [104.738181, -4.305587], [104.735112, -4.30349], [104.726315, -4.299039], [104.723332, -4.296557], [104.71977, -4.294588], [104.716165, -4.292192], [104.715206, -4.291691], [104.715144, -4.291673], [104.715071, -4.291636], [104.713955, -4.291315], [104.713118, -4.290887], [104.712238, -4.290181], [104.707711, -4.285345], [104.704814, -4.281621], [104.703526, -4.280295], [104.70123, -4.278626], [104.699063, -4.276593], [104.697947, -4.275181], [104.697454, -4.274475], [104.692669, -4.270901], [104.688678, -4.267563], [104.687927, -4.267156], [104.686918, -4.266878], [104.685738, -4.266194], [104.683163, -4.263711], [104.681597, -4.26247], [104.679966, -4.261379], [104.679279, -4.260651], [104.677734, -4.258148], [104.676919, -4.256201], [104.662564, -4.222369], [104.657779, -4.213916], [104.655354, -4.208395], [104.653766, -4.20358], [104.651041, -4.19502], [104.648509, -4.187958], [104.647994, -4.187209], [104.637716, -4.178199], [104.636471, -4.1776], [104.633038, -4.176401], [104.620893, -4.173298], [104.618082, -4.172592], [104.60274, -4.167413], [104.600058, -4.165744], [104.598384, -4.164481], [104.596818, -4.162855], [104.595702, -4.161399], [104.593706, -4.158275], [104.59259, -4.157141], [104.591818, -4.155835], [104.590702, -4.153524], [104.589844, -4.15179], [104.589157, -4.150913], [104.587762, -4.14995], [104.58596, -4.1495], [104.584029, -4.148858], [104.583106, -4.148815], [104.581647, -4.148901], [104.578299, -4.149672], [104.573579, -4.149457], [104.571905, -4.149243], [104.570618, -4.14873], [104.569502, -4.148045], [104.568729, -4.14659], [104.567356, -4.143165], [104.565124, -4.138714], [104.560919, -4.135546], [104.550576, -4.127285], [104.520235, -4.101945], [104.501867, -4.08692], [104.468951, -4.065003], [104.462557, -4.055714], [104.459875, -4.050491], [104.452837, -4.037456], [104.447794, -4.033218], [104.426701, -4.015816], [104.423869, -4.013675], [104.412732, -4.003893], [104.399343, -3.994175], [104.393313, -3.988053], [104.379323, -3.977158], [104.377692, -3.975788], [104.376104, -3.973733], [104.37546, -3.973197], [104.368014, -3.969366], [104.344239, -3.963779], [104.325592, -3.960097], [104.323576, -3.959562], [104.318833, -3.958063], [104.312074, -3.95588], [104.309607, -3.954831], [104.306602, -3.953204], [104.299221, -3.950164], [104.298191, -3.949693], [104.279094, -3.937919], [104.250598, -3.921907], [104.245598, -3.919723], [104.243624, -3.918717], [104.241543, -3.917283], [104.23856, -3.914799], [104.236994, -3.913644], [104.22663, -3.907285], [104.219248, -3.902404], [104.19822, -3.890502], [104.171076, -3.874317], [104.170196, -3.873546], [104.169702, -3.872604], [104.169338, -3.871319], [104.167624, -3.856511], [104.167192, -3.852779], [104.16717, -3.85066], [104.165862, -3.83805], [104.165368, -3.836059], [104.164402, -3.828501], [104.164081, -3.823684], [104.164081, -3.822699], [104.164917, -3.819123], [104.167922, -3.813236], [104.168458, -3.812037], [104.168608, -3.810581], [104.168351, -3.809082], [104.167836, -3.808033], [104.161913, -3.799405], [104.16127, -3.798548], [104.160948, -3.797649], [104.159961, -3.791183], [104.156871, -3.774482], [104.156828, -3.772705], [104.157407, -3.767652], [104.161205, -3.754506], [104.163802, -3.745448], [104.170153, -3.724015], [104.170969, -3.721981], [104.171677, -3.719904], [104.172513, -3.716628], [104.175561, -3.705493], [104.176118, -3.704016], [104.176977, -3.700226], [104.178779, -3.69378], [104.180152, -3.689305], [104.181354, -3.686778], [104.184337, -3.679305], [104.185174, -3.676371], [104.187126, -3.669604], [104.18895, -3.665043], [104.189358, -3.663287], [104.189615, -3.661553], [104.189529, -3.659904], [104.189765, -3.657698], [104.19219, -3.650846], [104.193864, -3.646756], [104.194593, -3.643501], [104.195344, -3.639025], [104.195902, -3.636627], [104.19807, -3.629753], [104.200752, -3.619988], [104.201953, -3.616219], [104.202018, -3.614869], [104.202382, -3.612664], [104.205709, -3.601249], [104.205945, -3.600114], [104.20603, -3.598444], [104.206674, -3.597502], [104.207511, -3.594439], [104.208884, -3.592833], [104.209034, -3.592233], [104.208841, -3.591827], [104.208519, -3.591013], [104.208584, -3.590199], [104.209764, -3.58673], [104.211009, -3.583667], [104.211223, -3.581568], [104.211159, -3.579149], [104.213669, -3.574159], [104.213991, -3.573109], [104.213948, -3.571996], [104.214163, -3.570368], [104.216394, -3.562658], [104.216502, -3.561695], [104.216845, -3.56118], [104.217832, -3.560902], [104.218218, -3.560602], [104.218154, -3.559767], [104.217896, -3.557004], [104.219205, -3.5524], [104.220107, -3.550622], [104.220235, -3.54953], [104.220128, -3.547902], [104.220064, -3.545311], [104.219828, -3.543148], [104.21957, -3.528627], [104.219828, -3.525843], [104.219677, -3.514792], [104.220686, -3.508345], [104.220686, -3.504126], [104.219935, -3.498472], [104.219527, -3.491275], [104.218991, -3.489712], [104.217532, -3.486906], [104.217167, -3.485107], [104.216781, -3.483693], [104.215322, -3.480759], [104.21354, -3.478253], [104.210343, -3.47474], [104.199979, -3.459448], [104.196181, -3.455078], [104.193971, -3.453086], [104.18983, -3.450666], [104.184508, -3.44529], [104.183071, -3.443384], [104.182298, -3.441799], [104.181762, -3.440385], [104.181547, -3.439014], [104.181547, -3.437622], [104.181719, -3.43593], [104.182255, -3.434581], [104.182878, -3.432696], [104.183714, -3.427641], [104.185109, -3.422179], [104.185774, -3.418602], [104.186075, -3.417252], [104.187083, -3.415175], [104.189508, -3.408984], [104.190517, -3.405664], [104.192169, -3.402044], [104.198198, -3.3866], [104.199207, -3.384865], [104.200044, -3.382402], [104.200323, -3.381053], [104.20043, -3.379617], [104.200602, -3.378568], [104.200988, -3.37739], [104.201696, -3.375719], [104.204271, -3.370856], [104.205623, -3.368993], [104.205966, -3.368072], [104.206374, -3.365566], [104.206824, -3.364302], [104.214077, -3.347079], [104.21633, -3.344123], [104.216845, -3.343159], [104.217124, -3.341853], [104.217403, -3.340032], [104.217939, -3.337054], [104.218304, -3.335491], [104.218776, -3.333777], [104.219463, -3.332106], [104.220386, -3.330349], [104.222145, -3.327629], [104.222853, -3.326001], [104.223282, -3.324501], [104.223711, -3.32328], [104.22442, -3.321631], [104.225836, -3.318889], [104.230428, -3.309635], [104.240405, -3.288234], [104.240792, -3.287356], [104.241006, -3.286135], [104.241285, -3.285235], [104.241779, -3.284271], [104.242551, -3.283264], [104.243109, -3.282557], [104.243989, -3.280757], [104.244461, -3.279237], [104.244976, -3.277094], [104.245276, -3.275016], [104.245577, -3.273581], [104.255147, -3.248195], [104.263322, -3.227285], [104.264095, -3.224479], [104.270275, -3.20809], [104.27094, -3.206462], [104.272313, -3.204812], [104.272635, -3.204169], [104.272463, -3.203441], [104.272034, -3.202712], [104.271197, -3.201555], [104.270897, -3.19982], [104.271004, -3.198834], [104.271584, -3.197613], [104.27227, -3.196778], [104.274309, -3.195835], [104.274995, -3.195407], [104.275553, -3.194635], [104.275897, -3.193521], [104.278643, -3.173125], [104.279008, -3.171947], [104.279437, -3.168712], [104.280446, -3.161748], [104.281111, -3.159842], [104.281411, -3.157421], [104.282377, -3.153735], [104.282613, -3.147479], [104.283407, -3.144544], [104.283578, -3.143044], [104.28375, -3.140666], [104.285381, -3.130532], [104.286926, -3.118683], [104.288793, -3.107413], [104.289415, -3.103621], [104.289329, -3.102485], [104.288063, -3.098864], [104.287977, -3.097771], [104.28817, -3.096829], [104.291196, -3.088579], [104.291754, -3.086673], [104.295423, -3.06426], [104.295316, -3.06306], [104.294801, -3.061903], [104.293642, -3.060125], [104.290488, -3.057296], [104.28669, -3.053268], [104.2839, -3.049775], [104.27978, -3.043411], [104.269738, -3.029055], [104.265275, -3.021984], [104.263237, -3.019627], [104.260919, -3.016434], [104.250362, -3.00122], [104.240577, -2.984442], [104.230084, -2.966784], [104.226673, -2.96162], [104.211956, -2.938103], [104.211592, -2.937285], [104.208906, -2.931364], [104.208607, -2.930823], [104.208293, -2.930195], [104.208157, -2.92998], [104.207468, -2.92924], [104.205482, -2.927664], [104.204649, -2.927111], [104.203816, -2.926604], [104.203689, -2.92649], [104.203539, -2.926401], [104.20284, -2.925849], [104.202706, -2.925702], [104.20176, -2.924719], [104.199271, -2.922897], [104.194894, -2.918954], [104.194078, -2.917647], [104.193392, -2.91619], [104.185281, -2.890109], [104.183221, -2.884752], [104.178371, -2.868593], [104.171001, -2.844933], [104.169316, -2.840454], [104.159532, -2.809657], [104.1576, -2.804041], [104.157407, -2.802734], [104.157429, -2.801255], [104.157751, -2.799755], [104.165668, -2.783145], [104.184079, -2.739915], [104.189057, -2.72877], [104.194443, -2.717582], [104.197297, -2.713724], [104.198263, -2.71188], [104.198949, -2.709716], [104.199271, -2.706865], [104.199872, -2.700263], [104.199593, -2.691025], [104.199765, -2.682452], [104.199657, -2.68033], [104.198906, -2.672763], [104.197834, -2.66479], [104.197018, -2.655144], [104.196932, -2.65135], [104.197147, -2.648306], [104.19704, -2.644727], [104.196417, -2.640054], [104.19528, -2.634417], [104.194872, -2.632895], [104.194121, -2.631673], [104.193327, -2.630666], [104.188156, -2.6258], [104.163823, -2.601128], [104.159253, -2.596498], [104.1576, -2.595061], [104.15627, -2.593647], [104.154725, -2.59161], [104.15318, -2.589188], [104.151764, -2.586401], [104.145648, -2.572147], [104.131722, -2.539285], [104.127002, -2.52758], [104.126186, -2.526165], [104.124641, -2.524708], [104.116745, -2.520142], [104.107003, -2.513946], [104.100845, -2.510345], [104.092755, -2.50655], [104.024734, -2.416447], [104.001303, -2.38639], [103.993278, -2.376914], [103.99126, -2.374127], [103.990102, -2.37134], [103.989844, -2.368767], [103.989887, -2.366323], [103.990617, -2.362292], [103.990746, -2.360234], [103.99023, -2.357533], [103.988986, -2.355217], [103.982592, -2.347027], [103.971863, -2.331076], [103.964267, -2.320399], [103.961263, -2.31654], [103.960061, -2.315425], [103.958731, -2.314696], [103.947744, -2.310365], [103.946671, -2.309722], [103.945942, -2.308821], [103.94414, -2.306356], [103.94282, -2.304833], [103.941371, -2.303826], [103.939741, -2.303054], [103.93856, -2.302722], [103.936943, -2.302672], [103.93599, -2.302474], [103.935593, -2.302186], [103.935316, -2.30173], [103.935177, -2.301095], [103.934968, -2.300043], [103.934919, -2.29798], [103.934889, -2.295906], [103.934869, -2.294279], [103.934929, -2.292414], [103.935157, -2.290172], [103.935172, -2.289474], [103.934387, -2.288743]]]}}
]
}
