{
"type": "FeatureCollection",
"features": [
{"type": "Feature", "properties": {"ProjectID": "P1004", "id": null, "Name": null, "Type": null}, "geometry": {"type": "MultiLineString", "coordinates": [[[140.69899, 35.869928], [140.686917, 35.896374], [140.662014, 35.921277], [140.641639, 35.952971], [140.614473, 35.993721], [140.600889, 36.02768], [140.587306, 36.043527], [140.564667, 36.084277], [140.542028, 36.072957], [140.530709, 36.091068], [140.521653, 36.113707], [140.519389, 36.136346], [140.505806, 36.170305], [140.503542, 36.195207], [140.517125, 36.215582], [140.5375, 36.238221], [140.542028, 36.258596], [140.539764, 36.294818], [140.539764, 36.315193], [140.562403, 36.324249], [140.594098, 36.35368], [140.607681, 36.367263], [140.594098, 36.387638], [140.58957, 36.398957], [140.557875, 36.405749], [140.591834, 36.478193]]]}}
]
}
