{
"type": "FeatureCollection",
"features": [
{"type": "Feature", "properties": {"ProjectID": "P1036", "id": null, "Name": null, "Type": null}, "geometry": {"type": "MultiLineString", "coordinates": [[[139.825295, 35.870362], [139.808526, 35.848814], [139.786223, 35.848814], [139.75591, 35.852261], [139.72712, 35.849929], [139.710393, 35.846583], [139.698126, 35.849929], [139.679169, 35.841008], [139.647945, 35.841008], [139.64683, 35.829856], [139.61003, 35.825396], [139.589957, 35.805323], [139.574345, 35.804208], [139.553158, 35.803093], [139.543121, 35.791941], [139.53197, 35.786365], [139.523049, 35.781905], [139.505206, 35.776329], [139.494055, 35.772984]]]}}
]
}
