{
"type": "FeatureCollection",
"features": [
{"type": "Feature", "properties": {"ProjectID": "P1047", "id": null, "Name": null, "Type": null}, "geometry": {"type": "MultiLineString", "coordinates": [[[138.229056, 37.126105], [138.223645, 37.15599], [138.188128, 37.161136], [138.142924, 37.145696], [138.120322, 37.145696], [138.110636, 37.11223], [138.091263, 37.096779], [138.058974, 37.081325], [138.026686, 37.104505], [137.997626, 37.055562], [137.968566, 37.050408], [137.936278, 37.050408], [137.907218, 37.019478], [137.855557, 37.042677]]]}}
]
}
