{
"type": "FeatureCollection",
"features": [
{"type": "Feature", "properties": {"ProjectID": "P1058", "id": null, "Name": null, "Type": null}, "geometry": {"type": "MultiLineString", "coordinates": [[[138.279486, 37.191297], [138.255193, 37.153507], [138.212004, 37.14271], [138.185012, 37.14271], [138.093236, 37.094123], [138.068943, 37.094123], [138.047349, 37.077927], [137.987965, 37.072529], [137.942077, 37.06983], [137.912385, 37.045536], [137.901588, 37.040138], [137.863798, 37.02934], [137.809813, 37.010446], [137.780121, 36.99425], [137.580374, 36.929467]]]}},
{"type": "Feature", "properties": {"ProjectID": "P1058", "id": null, "Name": null, "Type": null}, "geometry": {"type": "MultiLineString", "coordinates": [[[137.580374, 36.929467], [137.539139, 36.903081], [137.495786, 36.870133], [137.442029, 36.830249], [137.400411, 36.785162], [137.351856, 36.753949], [137.301567, 36.724469], [137.268619, 36.724469], [137.240874, 36.729671], [137.207926, 36.729671], [137.185383, 36.736608], [137.169776, 36.755683]]]}}
]
}
