{
"type": "FeatureCollection",
"features": [
{"type": "Feature", "properties": {"ProjectID": "P1056", "id": null, "Name": null, "Type": null}, "geometry": {"type": "MultiLineString", "coordinates": [[[139.958032, 36.413377], [139.915798, 36.414885], [139.911273, 36.368126], [139.902222, 36.331925], [139.905239, 36.307791], [139.866021, 36.321366], [139.813228, 36.342483], [139.798145, 36.340975], [139.777027, 36.3455], [139.772502, 36.337958], [139.719709, 36.339467], [139.712167, 36.339467], [139.685016, 36.342483], [139.651832, 36.324383], [139.614123, 36.316841]]]}}
]
}
