{
"type": "FeatureCollection",
"features": [
{"type": "Feature", "properties": {"ProjectID": "P1057", "id": null, "Name": null, "Type": null}, "geometry": {"type": "MultiLineString", "coordinates": [[[139.81326, 35.753677], [139.798637, 35.816944], [139.715771, 35.903855], [139.62803, 35.967004], [139.598784, 36.010389], [139.472047, 36.093149], [139.379432, 36.140401], [139.267319, 36.195492], [139.218574, 36.219091], [139.164955, 36.219091], [139.062591, 36.250545], [139.004097, 36.203359], [138.940729, 36.211226], [138.901733, 36.238752], [138.84324, 36.242683], [138.774997, 36.23482], [138.726252, 36.254476], [138.687257, 36.289845], [138.643386, 36.301631], [138.589767, 36.313416], [138.56052, 36.336979], [138.487403, 36.336979], [138.394788, 36.352684], [138.302173, 36.368385], [138.238805, 36.395856], [138.194934, 36.43116], [138.160813, 36.466449], [138.141315, 36.486047], [138.116943, 36.517393], [138.126692, 36.556559], [138.165688, 36.59179], [138.199809, 36.638741], [138.209558, 36.748181], [138.199809, 36.826256], [138.185186, 36.876963], [138.19006, 36.931533], [138.209558, 36.997743], [138.268052, 37.044445], [138.282675, 37.129992]]]}},
{"type": "Feature", "properties": {"ProjectID": "P1057", "id": null, "Name": null, "Type": null}, "geometry": {"type": "MultiLineString", "coordinates": [[[138.282675, 37.129992], [138.277417, 37.201001]]]}},
{"type": "Feature", "properties": {"ProjectID": "P1057", "id": null, "Name": null, "Type": null}, "geometry": {"type": "MultiLineString", "coordinates": [[[138.277417, 37.201001], [138.277417, 37.201001]]]}}
]
}
