{
"type": "FeatureCollection",
"features": [
{"type": "Feature", "properties": {"ProjectID": "P1066", "full_id": "w36202377", "osm_id": "36202377", "osm_type": "way", "man_made": "pipeline", "dist:yellow": null, "oneway": null, "size": null, "pressure": null, "width": null, "material": null, "ele": null, "waterway": null, "name:zh": null, "name:fr": null, "tunnel": null, "operator": null, "diameter": null, "mapillary": null, "image": null, "bridge": null, "seamark:cable_submarine:category": null, "communication": null, "seamark:pipeline_submarine:category": null, "type": null, "seamark:type": null, "seamark:pipeline_submarine:product": null, "submarine": null, "ref": null, "official_name": null, "usage": null, "name:en": null, "name": null, "substance": "gas", "location": "underground", "layer": "-1"}, "geometry": {"type": "LineString", "coordinates": [[114.831599, 3.804174], [114.811994, 3.804193], [114.809143, 3.805215], [114.807214, 3.804197], [114.803556, 3.8042], [114.80229, 3.803481], [114.800549, 3.804203], [114.79359, 3.80421], [114.786151, 3.805628], [114.779679, 3.806619], [114.770421, 3.806889], [114.742234, 3.806902], [114.724876, 3.806792], [114.724116, 3.806437], [114.722056, 3.806774], [114.714961, 3.806729], [114.71424, 3.806208], [114.712292, 3.806537], [114.710184, 3.80617], [114.70743, 3.805987], [114.706027, 3.80563], [114.696522, 3.8052], [114.687741, 3.802295], [114.666098, 3.795102], [114.661556, 3.794088], [114.656328, 3.791859], [114.649964, 3.789746], [114.648039, 3.788547], [114.638697, 3.785312], [114.63642, 3.78525], [114.63437, 3.78567], [114.633421, 3.786192], [114.631242, 3.78631], [114.60155, 3.792369], [114.600013, 3.792783], [114.599805, 3.792836], [114.595508, 3.792527], [114.592263, 3.792879], [114.591411, 3.792679], [114.588609, 3.792855], [114.585744, 3.793594], [114.583455, 3.793346], [114.58041, 3.793507], [114.57713, 3.792935], [114.568216, 3.79344], [114.564191, 3.793133], [114.563494, 3.793412], [114.561545, 3.793719], [114.559769, 3.794602], [114.551462, 3.795042], [114.548985, 3.794375], [114.546176, 3.795322], [114.535444, 3.806276], [114.535341, 3.806765], [114.532607, 3.819812], [114.528656, 3.823621], [114.487587, 3.820294], [114.446188, 3.809522], [114.442417, 3.809505], [114.438648, 3.809125], [114.431531, 3.808552], [114.427414, 3.808225], [114.422126, 3.805283], [114.419652, 3.803892], [114.417565, 3.80212], [114.41417, 3.800859], [114.41227, 3.80098], [114.410797, 3.799606], [114.409108, 3.798979], [114.395767, 3.791082], [114.391915, 3.788751], [114.391311, 3.788283], [114.390335, 3.788562], [114.384958, 3.786371], [114.382619, 3.784857], [114.378934, 3.781004], [114.364205, 3.770028], [114.350896, 3.769797], [114.345852, 3.76971], [114.344422, 3.770161], [114.341469, 3.771094], [114.340337, 3.771074], [114.338707, 3.771073], [114.336525, 3.771265], [114.332915, 3.77145], [114.304523, 3.760252], [114.296485, 3.751036], [114.290675, 3.746441], [114.276663, 3.744436], [114.272606, 3.741907], [114.26554, 3.736435], [114.26324, 3.732355], [114.261814, 3.727098], [114.253298, 3.719582], [114.245001, 3.715945], [114.240037, 3.713768], [114.237517, 3.71173]]}},
{"type": "Feature", "properties": {"ProjectID": "P1066", "full_id": "w36202378", "osm_id": "36202378", "osm_type": "way", "man_made": "pipeline", "dist:yellow": null, "oneway": null, "size": null, "pressure": null, "width": null, "material": null, "ele": null, "waterway": null, "name:zh": null, "name:fr": null, "tunnel": null, "operator": null, "diameter": null, "mapillary": null, "image": null, "bridge": null, "seamark:cable_submarine:category": null, "communication": null, "seamark:pipeline_submarine:category": null, "type": null, "seamark:type": null, "seamark:pipeline_submarine:product": null, "submarine": null, "ref": null, "official_name": null, "usage": null, "name:en": null, "name": null, "substance": null, "location": "underground", "layer": "-1"}, "geometry": {"type": "LineString", "coordinates": [[115.396298, 4.127943], [115.354909, 4.114374], [115.336297, 4.108272], [115.318271, 4.091163], [115.311855, 4.089802], [115.306674, 4.073779], [115.3022, 4.059947], [115.300642, 4.056672], [115.296249, 4.053502], [115.290853, 4.049607], [115.285156, 4.046329], [115.283961, 4.044042], [115.279331, 4.042352], [115.278635, 4.040929], [115.277239, 4.040605], [115.275113, 4.038935], [115.274603, 4.038023], [115.272694, 4.037284], [115.271639, 4.036357], [115.269908, 4.036158], [115.269325, 4.036092], [115.266825, 4.03496], [115.266189, 4.034775], [115.265725, 4.034868], [115.265019, 4.035175], [115.264644, 4.035497], [115.264365, 4.035663], [115.264075, 4.035786], [115.26379, 4.035819], [115.261743, 4.035094], [115.260283, 4.034849], [115.257594, 4.033218], [115.252741, 4.02977], [115.238714, 4.025765], [115.233724, 4.025696], [115.228404, 4.02522], [115.22518, 4.025984], [115.22113, 4.024315], [115.219499, 4.024158], [115.21613, 4.025495], [115.214511, 4.024526], [115.213826, 4.023629], [115.211311, 4.022255], [115.208365, 4.020291], [115.206174, 4.019396], [115.205907, 4.017984], [115.20311, 4.017932], [115.201423, 4.016141], [115.199132, 4.015137], [115.194568, 4.01415], [115.192575, 4.012497], [115.18966, 4.011391], [115.18607, 4.009638], [115.179924, 4.007737], [115.175669, 4.006068], [115.17379, 4.006006], [115.17115, 4.004746], [115.167978, 4.001278], [115.162796, 3.99774], [115.157646, 3.996902], [115.145243, 3.987334], [115.143664, 3.98452], [115.139524, 3.982744], [115.135185, 3.977225], [115.134622, 3.975894], [115.129985, 3.971278], [115.127529, 3.969849], [115.125193, 3.9695], [115.123008, 3.966238], [115.120869, 3.964873], [115.118915, 3.964481], [115.116791, 3.961673], [115.114896, 3.960186], [115.110324, 3.958888], [115.109122, 3.957919], [115.108673, 3.957002], [115.107304, 3.954517], [115.10444, 3.952297], [115.103623, 3.950052], [115.099202, 3.94755], [115.099082, 3.946163], [115.099617, 3.943955], [115.098511, 3.941743], [115.097405, 3.939802], [115.095064, 3.937043], [115.093758, 3.936956], [115.093117, 3.936506], [115.092142, 3.93687], [115.090124, 3.935904], [115.088039, 3.93249], [115.08712, 3.931307], [115.086869, 3.930255], [115.086077, 3.929543], [115.084992, 3.928208], [115.08509, 3.927917], [115.084828, 3.926977], [115.082349, 3.924957], [115.079364, 3.921286], [115.077696, 3.920214], [115.077444, 3.917341], [115.076627, 3.916693], [115.076283, 3.916024], [115.075162, 3.91603], [115.074309, 3.914914], [115.073985, 3.913631], [115.072583, 3.912657], [115.071774, 3.9116], [115.07143, 3.9106], [115.070454, 3.909873], [115.069118, 3.908126], [115.062288, 3.899119], [115.060082, 3.897934], [115.058724, 3.89603], [115.058644, 3.894314], [115.057023, 3.893072], [115.055979, 3.889615], [115.055296, 3.888869], [115.053812, 3.888], [115.048551, 3.882246], [115.048227, 3.881148], [115.04704, 3.87913], [115.045521, 3.878932], [115.038121, 3.870839], [115.03717, 3.86975], [115.036522, 3.868508], [115.035123, 3.868245], [115.034654, 3.865868], [115.033178, 3.865177], [115.031935, 3.864882], [115.029591, 3.862256], [115.029149, 3.861126], [115.028216, 3.860986], [115.027948, 3.859185], [115.027007, 3.858107], [115.026545, 3.855502], [115.025628, 3.854809], [115.023633, 3.854674], [115.023272, 3.854307], [115.020866, 3.853558], [115.01976, 3.85203], [115.019472, 3.850863], [115.017618, 3.849421], [115.017853, 3.8474], [115.01831, 3.846396], [115.0182, 3.844445], [115.016929, 3.844027], [115.016518, 3.84276], [115.01431, 3.841743], [115.013304, 3.839316], [115.012207, 3.838124], [115.011805, 3.836834], [115.010719, 3.835533], [115.009101, 3.834708], [115.00856, 3.833969], [115.007763, 3.834019], [115.006717, 3.833837], [115.00636, 3.833589], [115.005307, 3.832146], [115.000496, 3.829971], [114.998421, 3.827704], [114.997445, 3.825167], [114.993851, 3.82327], [114.993775, 3.823231], [114.992246, 3.821492], [114.990169, 3.820796], [114.988244, 3.819607], [114.988382, 3.818219], [114.986405, 3.816969], [114.985493, 3.815062], [114.983384, 3.814904], [114.981896, 3.812942], [114.979148, 3.812169], [114.976912, 3.810343], [114.975512, 3.810888], [114.974182, 3.810249], [114.971391, 3.809448], [114.96828, 3.807962], [114.965899, 3.807214], [114.965362, 3.807127], [114.962028, 3.80548], [114.955761, 3.807588], [114.951673, 3.806916], [114.948722, 3.805327], [114.944984, 3.805131], [114.940821, 3.807922], [114.939665, 3.809606], [114.936907, 3.809461], [114.936427, 3.810203], [114.934849, 3.81041], [114.934072, 3.812244], [114.931049, 3.813683], [114.930502, 3.814606], [114.928151, 3.81514], [114.925423, 3.816837], [114.922222, 3.817262], [114.920372, 3.818394], [114.916444, 3.819413], [114.911878, 3.821894], [114.909729, 3.820299], [114.906379, 3.820283], [114.902885, 3.821349], [114.901075, 3.821137], [114.899128, 3.819426], [114.888267, 3.814452], [114.886087, 3.814393], [114.884516, 3.814755], [114.883295, 3.814102], [114.882048, 3.814397], [114.880485, 3.81417], [114.87787, 3.814067], [114.871593, 3.813819], [114.869519, 3.813684], [114.868991, 3.814056], [114.868404, 3.813934], [114.867247, 3.814299], [114.864972, 3.814014], [114.864065, 3.814184], [114.86339, 3.81358], [114.862997, 3.812797], [114.86194, 3.812673], [114.861473, 3.812009], [114.859226, 3.811652], [114.857986, 3.811542], [114.854291, 3.810545], [114.847547, 3.810112], [114.842609, 3.809484], [114.838013, 3.806776], [114.83706, 3.80575], [114.835181, 3.805108], [114.831599, 3.804174]]}},
{"type": "Feature", "properties": {"ProjectID": "P1066", "full_id": "w752988669", "osm_id": "752988669", "osm_type": "way", "man_made": "pipeline", "dist:yellow": null, "oneway": null, "size": null, "pressure": null, "width": null, "material": null, "ele": null, "waterway": null, "name:zh": null, "name:fr": null, "tunnel": null, "operator": null, "diameter": null, "mapillary": null, "image": null, "bridge": null, "seamark:cable_submarine:category": null, "communication": null, "seamark:pipeline_submarine:category": null, "type": null, "seamark:type": null, "seamark:pipeline_submarine:product": null, "submarine": null, "ref": null, "official_name": null, "usage": null, "name:en": null, "name": null, "substance": "gas", "location": "underground", "layer": "-1"}, "geometry": {"type": "LineString", "coordinates": [[114.237517, 3.71173], [114.237039, 3.711315], [114.208294, 3.687798], [114.183767, 3.666661], [114.173424, 3.656555], [114.157526, 3.645292], [114.153245, 3.641916], [114.127948, 3.621964], [114.120506, 3.614916], [114.103841, 3.601879], [114.097429, 3.597892], [114.082691, 3.586267], [114.071595, 3.577513], [114.070081, 3.577348], [114.063077, 3.576891], [114.061199, 3.576275], [114.042299, 3.575261], [114.037545, 3.576628], [114.033962, 3.577704], [114.029091, 3.579571], [114.026685, 3.580319], [114.022435, 3.581112], [114.021746, 3.581114], [114.013089, 3.580152], [114.012063, 3.579996], [114.011345, 3.5794], [114.003798, 3.578734], [113.994964, 3.575353], [113.986882, 3.573624], [113.982121, 3.572044], [113.980913, 3.572379], [113.978881, 3.572216], [113.978075, 3.572696], [113.959101, 3.565112], [113.950731, 3.566282], [113.935019, 3.565201], [113.929456, 3.56425], [113.921656, 3.559159], [113.913176, 3.554393], [113.894933, 3.553214], [113.883153, 3.553037], [113.879013, 3.551705], [113.86282, 3.542051], [113.858541, 3.541008], [113.857234, 3.540178], [113.85698, 3.538478], [113.845074, 3.5309], [113.819715, 3.514759], [113.800112, 3.513795], [113.790809, 3.514067], [113.773119, 3.506393], [113.76734, 3.503886], [113.744806, 3.48733], [113.726487, 3.47302], [113.714825, 3.468864], [113.699434, 3.463621], [113.680921, 3.463816], [113.650613, 3.464181], [113.615552, 3.454216], [113.579837, 3.452157], [113.558559, 3.43696], [113.550911, 3.433288], [113.541545, 3.425562], [113.534388, 3.418018], [113.527475, 3.415575], [113.512229, 3.413516], [113.49669, 3.409301], [113.491562, 3.405534], [113.488933, 3.402798], [113.484786, 3.400556], [113.48172, 3.403036], [113.481497, 3.404269], [113.47893, 3.405066], [113.47703, 3.406756], [113.475189, 3.406716], [113.470908, 3.404709], [113.408399, 3.365395], [113.408, 3.365231], [113.395166, 3.365577], [113.381676, 3.367591], [113.370161, 3.363433], [113.366315, 3.360955], [113.335291, 3.358388], [113.325924, 3.356349], [113.311887, 3.356452], [113.294539, 3.357451], [113.275521, 3.357426], [113.268439, 3.359592], [113.263184, 3.359585], [113.251431, 3.357962], [113.240734, 3.356484], [113.180704, 3.308403], [113.17764, 3.305091], [113.172642, 3.297741], [113.166902, 3.297644], [113.162715, 3.298165], [113.152773, 3.297665], [113.150729, 3.29658], [113.148565, 3.294792], [113.142469, 3.292404], [113.136769, 3.288464], [113.129105, 3.284724], [113.116297, 3.28525], [113.108556, 3.284301], [113.102933, 3.284211], [113.097392, 3.287016], [113.093836, 3.293541]]}},
{"type": "Feature", "properties": {"ProjectID": "P1066", "full_id": null, "osm_id": null, "osm_type": null, "man_made": null, "dist:yellow": null, "oneway": null, "size": null, "pressure": null, "width": null, "material": null, "ele": null, "waterway": null, "name:zh": null, "name:fr": null, "tunnel": null, "operator": null, "diameter": null, "mapillary": null, "image": null, "bridge": null, "seamark:cable_submarine:category": null, "communication": null, "seamark:pipeline_submarine:category": null, "type": null, "seamark:type": null, "seamark:pipeline_submarine:product": null, "submarine": null, "ref": null, "official_name": null, "usage": null, "name:en": null, "name": null, "substance": null, "location": null, "layer": null}, "geometry": {"type": "LineString", "coordinates": [[115.396298, 4.127943], [115.396769, 4.128868], [115.397307, 4.129353], [115.398029, 4.130073], [115.399792, 4.131011], [115.401219, 4.131028], [115.402982, 4.131664], [115.404056, 4.13215], [115.405517, 4.132401], [115.411327, 4.135131], [115.414332, 4.136253], [115.417002, 4.136655], [115.418832, 4.13848], [115.422022, 4.140959], [115.42449, 4.142851], [115.425179, 4.143772], [115.425917, 4.144911], [115.426354, 4.147624], [115.427093, 4.150889], [115.428033, 4.154724], [115.428335, 4.155629], [115.430417, 4.156751], [115.431609, 4.157454], [115.432214, 4.158409], [115.432701, 4.159598], [115.433675, 4.16087], [115.43438, 4.161724], [115.434951, 4.162026], [115.43537, 4.162143], [115.436865, 4.164353], [115.438359, 4.166748], [115.439887, 4.169528], [115.441465, 4.171002], [115.442674, 4.172526], [115.443631, 4.173815], [115.445059, 4.173899], [115.446066, 4.174133], [115.44793, 4.17482], [115.450986, 4.176176], [115.452077, 4.177013], [115.452799, 4.177717], [115.453471, 4.179509], [115.454008, 4.180111], [115.45478, 4.180714], [115.455116, 4.180949], [115.455989, 4.182908], [115.456594, 4.184281], [115.456829, 4.184415], [115.457836, 4.184817], [115.458205, 4.185185], [115.458541, 4.185771], [115.458743, 4.18768], [115.458793, 4.188534], [115.45881, 4.19041], [115.458793, 4.193977], [115.45886, 4.195216], [115.459196, 4.19612], [115.459733, 4.197577], [115.460321, 4.198364], [115.460808, 4.199268], [115.461345, 4.200005], [115.461597, 4.200876], [115.462, 4.203003], [115.462336, 4.204459], [115.462705, 4.20538], [115.463125, 4.206419], [115.464183, 4.208261], [115.465022, 4.209868], [115.466164, 4.211844], [115.466634, 4.212664], [115.46697, 4.213703], [115.467339, 4.214808], [115.467591, 4.216365], [115.468116, 4.218973], [115.468687, 4.221033], [115.470601, 4.228049], [115.471138, 4.230125], [115.472549, 4.23555], [115.473791, 4.239938], [115.474328, 4.24193], [115.474967, 4.244442], [115.47542, 4.246166], [115.475974, 4.247841], [115.476377, 4.249331], [115.476797, 4.251525], [115.477401, 4.25479], [115.477871, 4.25695], [115.478274, 4.259227], [115.478627, 4.260935], [115.478929, 4.262124], [115.479114, 4.262425], [115.47945, 4.262927], [115.480692, 4.264317], [115.481968, 4.265506], [115.482808, 4.266494], [115.483446, 4.267164], [115.483765, 4.267415], [115.484537, 4.267532], [115.486132, 4.267649], [115.487459, 4.267699], [115.488147, 4.267833], [115.489154, 4.268637], [115.491572, 4.270228], [115.493318, 4.271534], [115.495283, 4.27299], [115.495955, 4.273459], [115.496962, 4.273978], [115.497315, 4.274564], [115.498121, 4.276339], [115.498557, 4.277327], [115.498943, 4.277612], [115.499917, 4.278399], [115.501563, 4.27947], [115.501714, 4.279906], [115.5021, 4.281697], [115.502251, 4.282668], [115.502049, 4.283388], [115.501747, 4.284694], [115.501663, 4.285665], [115.501462, 4.286469], [115.501596, 4.287156], [115.501848, 4.288127], [115.502033, 4.289098], [115.502133, 4.289483], [115.501949, 4.290253], [115.501395, 4.291559], [115.501025, 4.29248], [115.500824, 4.294071], [115.500471, 4.298508], [115.500186, 4.301203], [115.499833, 4.304016], [115.499682, 4.305489], [115.499648, 4.30646], [115.499464, 4.307013], [115.498641, 4.308453], [115.497399, 4.310998], [115.495636, 4.314296], [115.494141, 4.317109], [115.491421, 4.322132], [115.490649, 4.323672], [115.487929, 4.328176], [115.486132, 4.331156], [115.48541, 4.332613], [115.484235, 4.334722], [115.483798, 4.33561], [115.48316, 4.338556], [115.482892, 4.339594], [115.482589, 4.340666], [115.480994, 4.342675], [115.479953, 4.343914], [115.479382, 4.344801], [115.478812, 4.346174], [115.477989, 4.347497], [115.477754, 4.3482], [115.477703, 4.349539], [115.477418, 4.351983], [115.477082, 4.355667], [115.476763, 4.359718], [115.476746, 4.361878], [115.476612, 4.363937], [115.47641, 4.365996], [115.476024, 4.371354], [115.475672, 4.374216], [115.475453, 4.376008], [115.475134, 4.378904], [115.474866, 4.381633], [115.474647, 4.383391], [115.474278, 4.387392], [115.47411, 4.388564], [115.473909, 4.389334], [115.473623, 4.390338], [115.47317, 4.391627], [115.472767, 4.392615], [115.472801, 4.393519], [115.472884, 4.395193], [115.472935, 4.396449], [115.473019, 4.397972], [115.47275, 4.399579], [115.472213, 4.402074], [115.472163, 4.402861], [115.472129, 4.4042], [115.472381, 4.406075], [115.472565, 4.407381], [115.472582, 4.408268], [115.47233, 4.409122], [115.471457, 4.411198], [115.470886, 4.412604], [115.4705, 4.414044], [115.470316, 4.415048], [115.47008, 4.415483], [115.46956, 4.415785], [115.469392, 4.416237], [115.469073, 4.417944], [115.468888, 4.419116], [115.468855, 4.419786], [115.468502, 4.42074], [115.468082, 4.422196], [115.467965, 4.423502], [115.467889, 4.42464], [115.467738, 4.426323], [115.467688, 4.428214], [115.467646, 4.430943], [115.467545, 4.432366], [115.467461, 4.434969], [115.467428, 4.436141], [115.46736, 4.437514], [115.467327, 4.438451], [115.468334, 4.44128], [115.469829, 4.445365], [115.470735, 4.447859]]}},
{"type": "Feature", "properties": {"ProjectID": "P1066", "full_id": null, "osm_id": null, "osm_type": null, "man_made": null, "dist:yellow": null, "oneway": null, "size": null, "pressure": null, "width": null, "material": null, "ele": null, "waterway": null, "name:zh": null, "name:fr": null, "tunnel": null, "operator": null, "diameter": null, "mapillary": null, "image": null, "bridge": null, "seamark:cable_submarine:category": null, "communication": null, "seamark:pipeline_submarine:category": null, "type": null, "seamark:type": null, "seamark:pipeline_submarine:product": null, "submarine": null, "ref": null, "official_name": null, "usage": null, "name:en": null, "name": null, "substance": null, "location": null, "layer": null}, "geometry": {"type": "LineString", "coordinates": [[115.470735, 4.447859], [115.473909, 4.456346], [115.474866, 4.458087], [115.475521, 4.459074], [115.476091, 4.459911], [115.476881, 4.462288], [115.477267, 4.463393], [115.478207, 4.464582], [115.478677, 4.465703], [115.479601, 4.466758], [115.480172, 4.468549], [115.480776, 4.470457], [115.481347, 4.472232], [115.481347, 4.472717], [115.481112, 4.473002], [115.480742, 4.473571], [115.480339, 4.474207], [115.479953, 4.474843], [115.47992, 4.475077], [115.480071, 4.475546], [115.480692, 4.476567], [115.481481, 4.478275], [115.482606, 4.480333], [115.48274, 4.480735], [115.483043, 4.480953], [115.483295, 4.481154], [115.483933, 4.481756], [115.484403, 4.482359], [115.484873, 4.483966], [115.485444, 4.486343], [115.486183, 4.489071], [115.486753, 4.491649], [115.487156, 4.494344], [115.487543, 4.496436], [115.48808, 4.498579], [115.488197, 4.499248], [115.488063, 4.500002], [115.48813, 4.500755], [115.488181, 4.501374], [115.489087, 4.502747], [115.489406, 4.503919], [115.489675, 4.505174], [115.48996, 4.507065], [115.490414, 4.510497], [115.491085, 4.515686], [115.491388, 4.519117], [115.491589, 4.52069], [115.492042, 4.522548], [115.49263, 4.524256], [115.492731, 4.524774], [115.491774, 4.526867], [115.490246, 4.530549], [115.488113, 4.534968], [115.486569, 4.538282], [115.483379, 4.544843], [115.482371, 4.54727], [115.481464, 4.548559], [115.480339, 4.549798], [115.480121, 4.550936], [115.479886, 4.552057], [115.479399, 4.553095], [115.477838, 4.556392], [115.47673, 4.558668], [115.476327, 4.559656], [115.476175, 4.560409], [115.476377, 4.560811], [115.476478, 4.562351], [115.476394, 4.562685], [115.475831, 4.563104], [115.474245, 4.564259], [115.473842, 4.564677], [115.473388, 4.565623], [115.472683, 4.567037], [115.471424, 4.569665], [115.471021, 4.570502], [115.46961, 4.573338], [115.469039, 4.573958], [115.467554, 4.576351], [115.466403, 4.578142], [115.465824, 4.579155], [115.464766, 4.580318], [115.463398, 4.582125], [115.46302, 4.582594], [115.462365, 4.582929], [115.461349, 4.583448], [115.460552, 4.583966], [115.460292, 4.584251], [115.459981, 4.58564], [115.458571, 4.587071], [115.456665, 4.589012], [115.455355, 4.59041], [115.454348, 4.591414], [115.453668, 4.591992], [115.453332, 4.592427], [115.453105, 4.592619], [115.452854, 4.592912], [115.451132, 4.595305], [115.449269, 4.597749], [115.447993, 4.599439], [115.447078, 4.600669], [115.446356, 4.601531], [115.445894, 4.601891], [115.443862, 4.603866], [115.442729, 4.604962], [115.442208, 4.605381], [115.440857, 4.606661], [115.439572, 4.607791], [115.438985, 4.608268], [115.438422, 4.608619], [115.43744, 4.609138], [115.436265, 4.609724], [115.435081, 4.610259], [115.433595, 4.611096], [115.432974, 4.611364], [115.432436, 4.611565], [115.432243, 4.612092], [115.43205, 4.613381], [115.431891, 4.613606], [115.431605, 4.613866], [115.431101, 4.614309], [115.430455, 4.615598], [115.429926, 4.616761], [115.429658, 4.617322], [115.429339, 4.617698], [115.428335, 4.618855], [115.427152, 4.62001], [115.425867, 4.621508], [115.424566, 4.622905], [115.422425, 4.625014], [115.421275, 4.626269], [115.420217, 4.627148], [115.418857, 4.62847], [115.418152, 4.628914], [115.417044, 4.629708], [115.416397, 4.629976], [115.416053, 4.630328], [115.415692, 4.630687], [115.415365, 4.631123], [115.414668, 4.632294], [115.413459, 4.634177], [115.412577, 4.635591], [115.41084, 4.638185], [115.410269, 4.639365], [115.410059, 4.639959], [115.409857, 4.641156], [115.409513, 4.642837], [115.408959, 4.645783], [115.408766, 4.646235], [115.408153, 4.646954], [115.406726, 4.648703], [115.405693, 4.649925], [115.40472, 4.651239], [115.40435, 4.651515], [115.403821, 4.651732], [115.403276, 4.652134], [115.402789, 4.652653], [115.402209, 4.653531], [115.400522, 4.655941], [115.400001, 4.656544], [115.39964, 4.657104], [115.399363, 4.657841], [115.398423, 4.660727], [115.397953, 4.662108], [115.397726, 4.662853], [115.39734, 4.663991], [115.397013, 4.66507], [115.396769, 4.665472], [115.395082, 4.666618], [115.392236, 4.668835], [115.390909, 4.669823], [115.390355, 4.670191], [115.39002, 4.670777], [115.389684, 4.672132], [115.389314, 4.67322], [115.389155, 4.675027], [115.389062, 4.676542], [115.388844, 4.677939], [115.38876, 4.678926], [115.388626, 4.679713], [115.388492, 4.680399], [115.388055, 4.681813], [115.38787, 4.682516], [115.387728, 4.683102], [115.387728, 4.683746], [115.387854, 4.684683], [115.388013, 4.685411], [115.388458, 4.687888], [115.388618, 4.688682], [115.388659, 4.689427], [115.388995, 4.691352], [115.389247, 4.692933], [115.389381, 4.693535], [115.390011, 4.694339], [115.390599, 4.695041], [115.390834, 4.697075], [115.390951, 4.698815], [115.391153, 4.700354], [115.391455, 4.701643], [115.392026, 4.703986], [115.392429, 4.705659], [115.392748, 4.707148], [115.393302, 4.709106], [115.393671, 4.710679], [115.39399, 4.711817], [115.394142, 4.71262], [115.394377, 4.71339], [115.394377, 4.714202], [115.394284, 4.715758], [115.394427, 4.716728], [115.394729, 4.717381], [115.395258, 4.718552], [115.395762, 4.719925], [115.396324, 4.721138], [115.396517, 4.721573], [115.396702, 4.72174], [115.397424, 4.722209], [115.398306, 4.722811], [115.398809, 4.723221], [115.399271, 4.72374], [115.399926, 4.724694], [115.400933, 4.726091], [115.401697, 4.726919], [115.402201, 4.727597], [115.402982, 4.728291], [115.403603, 4.728902], [115.404997, 4.730257], [115.406289, 4.731705], [115.407062, 4.732617], [115.40754, 4.733278], [115.408094, 4.733755], [115.408246, 4.733964], [115.408246, 4.734834], [115.408271, 4.736357], [115.408439, 4.737235], [115.408607, 4.738022], [115.408724, 4.738942], [115.409051, 4.740172], [115.409219, 4.740908], [115.40937, 4.741485], [115.409899, 4.742372], [115.409975, 4.742816], [115.409841, 4.743937], [115.409815, 4.744874], [115.410411, 4.745568], [115.411595, 4.747225], [115.41178, 4.747601], [115.41199, 4.749082], [115.412225, 4.750488], [115.412443, 4.751433], [115.412586, 4.75232], [115.412577, 4.753023], [115.412401, 4.754035], [115.412174, 4.755206], [115.411914, 4.756118], [115.41173, 4.757298], [115.412342, 4.758662], [115.413828, 4.762067], [115.414248, 4.76302], [115.414836, 4.764417], [115.415037, 4.76548], [115.415432, 4.767814], [115.415717, 4.769203], [115.416221, 4.772215], [115.416506, 4.772842], [115.416817, 4.773411], [115.417321, 4.776072], [115.417539, 4.777034], [115.419453, 4.779267], [115.420301, 4.780363], [115.422475, 4.783467], [115.423642, 4.785048], [115.423491, 4.78642], [115.423206, 4.788319], [115.423105, 4.789557], [115.422761, 4.792586], [115.422543, 4.794234], [115.422156, 4.797539], [115.421963, 4.798944], [115.421888, 4.800132], [115.421779, 4.800492], [115.421359, 4.800768], [115.420973, 4.801077], [115.42078, 4.801353], [115.420503, 4.801947], [115.420091, 4.802625], [115.419797, 4.803177], [115.419344, 4.804323], [115.419042, 4.805252], [115.418874, 4.806055], [115.418899, 4.806883]]}},
{"type": "Feature", "properties": {"ProjectID": "P1066", "full_id": null, "osm_id": null, "osm_type": null, "man_made": null, "dist:yellow": null, "oneway": null, "size": null, "pressure": null, "width": null, "material": null, "ele": null, "waterway": null, "name:zh": null, "name:fr": null, "tunnel": null, "operator": null, "diameter": null, "mapillary": null, "image": null, "bridge": null, "seamark:cable_submarine:category": null, "communication": null, "seamark:pipeline_submarine:category": null, "type": null, "seamark:type": null, "seamark:pipeline_submarine:product": null, "submarine": null, "ref": null, "official_name": null, "usage": null, "name:en": null, "name": null, "substance": null, "location": null, "layer": null}, "geometry": {"type": "LineString", "coordinates": [[115.418899, 4.806883], [115.419017, 4.808255], [115.420393, 4.808874], [115.423197, 4.81028], [115.424322, 4.810848], [115.425078, 4.811166], [115.425296, 4.811635], [115.425934, 4.813626], [115.426572, 4.815383], [115.427026, 4.816905], [115.427059, 4.817323], [115.426891, 4.818561], [115.426824, 4.820603], [115.42648, 4.822468], [115.426438, 4.823313], [115.426178, 4.825639], [115.426035, 4.826676], [115.426094, 4.827303], [115.426178, 4.82783], [115.427286, 4.83172], [115.427689, 4.833268], [115.428109, 4.834832], [115.428235, 4.835878], [115.42836, 4.837074], [115.428444, 4.839383], [115.428638, 4.841516], [115.428881, 4.843064], [115.430577, 4.8439], [115.431198, 4.844143], [115.431744, 4.844419], [115.431928, 4.845239], [115.43234, 4.846677], [115.432676, 4.847782], [115.433305, 4.849998], [115.433767, 4.851546], [115.434363, 4.853587], [115.434674, 4.854675], [115.434825, 4.855628], [115.435102, 4.857218], [115.434766, 4.857653], [115.434481, 4.858113], [115.434363, 4.858389], [115.434447, 4.858681], [115.434942, 4.859802], [115.435303, 4.861183], [115.435689, 4.862571], [115.435958, 4.863784], [115.436176, 4.864688], [115.436462, 4.865332], [115.436772, 4.865817], [115.437696, 4.8674], [115.438771, 4.869315], [115.439383, 4.870353], [115.439358, 4.870754], [115.439123, 4.871741], [115.43898, 4.872285], [115.439106, 4.87318], [115.439325, 4.873648], [115.43966, 4.874192], [115.440617, 4.87451], [115.441549, 4.874811], [115.442078, 4.875037], [115.442263, 4.875171], [115.442825, 4.876083], [115.443757, 4.877705], [115.444211, 4.878458], [115.445747, 4.881026], [115.446293, 4.88198], [115.448056, 4.885041], [115.449432, 4.887233], [115.449668, 4.887668], [115.450087, 4.88909], [115.450885, 4.892151], [115.451976, 4.896124], [115.453319, 4.901135], [115.454512, 4.905551], [115.454881, 4.905869], [115.46059, 4.909399], [115.461077, 4.909148], [115.462386, 4.908345], [115.463528, 4.908529], [115.469287, 4.909332], [115.471352, 4.909566], [115.473737, 4.9096], [115.479093, 4.909784], [115.483358, 4.909851], [115.486262, 4.909901], [115.487203, 4.910787], [115.48962, 4.912862], [115.492424, 4.915287], [115.497025, 4.919436], [115.498838, 4.920992], [115.500098, 4.921694], [115.502045, 4.92305], [115.502851, 4.923066], [115.505454, 4.922966], [115.507166, 4.922966], [115.508342, 4.922849], [115.508997, 4.922932], [115.510424, 4.923735], [115.511918, 4.924622], [115.516049, 4.927014], [115.521556, 4.930209], [115.529901, 4.935044], [115.534484, 4.937737], [115.543669, 4.94299], [115.547547, 4.945231], [115.549629, 4.946502], [115.551661, 4.94764], [115.5524, 4.948075], [115.552736, 4.948259], [115.552769, 4.948995], [115.552786, 4.951404], [115.55282, 4.958563], [115.552904, 4.965823], [115.55292, 4.968533], [115.552937, 4.975709], [115.55292, 4.978368], [115.552987, 4.979941], [115.553248, 4.980877], [115.553512, 4.981643], [115.554028, 4.983236], [115.554507, 4.983725], [115.556131, 4.985013], [115.556476, 4.986096], [115.557009, 4.988112], [115.558528, 4.989759], [115.559124, 4.99134], [115.560812, 4.994602], [115.562373, 4.997621], [115.563549, 4.999728], [115.56469, 5.00207], [115.565538, 5.003601], [115.566218, 5.004027], [115.567033, 5.004496], [115.567847, 5.004947], [115.56804, 5.006026], [115.568216, 5.007866], [115.568687, 5.010274], [115.568955, 5.011805], [115.569148, 5.012976], [115.568863, 5.01382], [115.56898, 5.015911], [115.569123, 5.017743], [115.569173, 5.018403], [115.56956, 5.01944], [115.569602, 5.020009], [115.569568, 5.021172], [115.569534, 5.024425], [115.56956, 5.025002], [115.569492, 5.026072], [115.569459, 5.02823]]}},
{"type": "Feature", "properties": {"ProjectID": "P1066", "full_id": null, "osm_id": null, "osm_type": null, "man_made": null, "dist:yellow": null, "oneway": null, "size": null, "pressure": null, "width": null, "material": null, "ele": null, "waterway": null, "name:zh": null, "name:fr": null, "tunnel": null, "operator": null, "diameter": null, "mapillary": null, "image": null, "bridge": null, "seamark:cable_submarine:category": null, "communication": null, "seamark:pipeline_submarine:category": null, "type": null, "seamark:type": null, "seamark:pipeline_submarine:product": null, "submarine": null, "ref": null, "official_name": null, "usage": null, "name:en": null, "name": null, "substance": null, "location": null, "layer": null}, "geometry": {"type": "LineString", "coordinates": [[115.569459, 5.02823], [115.569299, 5.034803], [115.567939, 5.036827], [115.565689, 5.040473], [115.562801, 5.044922], [115.564766, 5.047849], [115.567201, 5.051612], [115.569937, 5.056011], [115.573161, 5.061831], [115.574907, 5.065042], [115.578668, 5.07195], [115.580566, 5.075512], [115.583403, 5.083138], [115.585737, 5.088139], [115.588373, 5.089728], [115.592084, 5.095665], [115.593847, 5.09814], [115.594216, 5.09916], [115.594888, 5.099628], [115.595157, 5.100381], [115.595644, 5.100649], [115.597541, 5.103057], [115.598246, 5.104278], [115.598834, 5.104796], [115.598481, 5.107255], [115.598414, 5.108258], [115.598565, 5.108693], [115.599321, 5.111753], [115.600211, 5.114697], [115.598632, 5.117473], [115.599153, 5.119279], [115.599808, 5.120199], [115.600781, 5.126286], [115.600933, 5.127022], [115.600513, 5.128761], [115.601554, 5.130868], [115.602074, 5.137507], [115.602326, 5.141136], [115.602528, 5.143042], [115.603166, 5.143628], [115.602578, 5.144999], [115.603015, 5.149598], [115.603334, 5.153126], [115.603434, 5.154514], [115.601, 5.156504], [115.600009, 5.167457], [115.603904, 5.171086], [115.6055, 5.171939], [115.607212, 5.172474], [115.608136, 5.172758], [115.608169, 5.176069], [115.608388, 5.176872], [115.608639, 5.17846], [115.609815, 5.180082], [115.611007, 5.180835], [115.611678, 5.181587], [115.613089, 5.182424], [115.614684, 5.183878], [115.616984, 5.185283], [115.618428, 5.186119], [115.620158, 5.185668], [115.621098, 5.186905], [115.622911, 5.18754], [115.6259, 5.18933], [115.628368, 5.190985], [115.630736, 5.192523], [115.633237, 5.194112], [115.63448, 5.194262], [115.636696, 5.196035], [115.641146, 5.199663], [115.644017, 5.202021], [115.644705, 5.20213], [115.645293, 5.201988], [115.645763, 5.202239], [115.646032, 5.203225], [115.647064, 5.203334], [115.647274, 5.204128], [115.648088, 5.204488], [115.648592, 5.20468], [115.649146, 5.20483], [115.649239, 5.205131], [115.649768, 5.205583], [115.651237, 5.206778], [115.652572, 5.207924], [115.65378, 5.209604], [115.655862, 5.213157], [115.656484, 5.21396], [115.658163, 5.215415], [115.659783, 5.216886], [115.661605, 5.218868], [115.662075, 5.219653], [115.663586, 5.221117], [115.669295, 5.227278], [115.669866, 5.228365], [115.670134, 5.229], [115.671662, 5.229853], [115.674836, 5.233665], [115.680612, 5.240504], [115.684154, 5.244684], [115.685565, 5.246072], [115.686639, 5.246908], [115.686858, 5.252509], [115.687395, 5.25383], [115.688453, 5.2548], [115.689191, 5.255452], [115.689678, 5.255953], [115.689796, 5.256956], [115.690065, 5.258511], [115.689964, 5.259314], [115.689863, 5.261404], [115.69119, 5.264698], [115.69213, 5.267005], [115.692969, 5.269045], [115.695186, 5.274428], [115.696227, 5.276903], [115.699014, 5.283641], [115.700458, 5.286934], [115.702103, 5.291148], [115.702338, 5.291482], [115.703262, 5.291866], [115.705982, 5.293271], [115.713168, 5.297183], [115.716107, 5.298755], [115.72111, 5.301262], [115.722134, 5.302048], [115.72378, 5.302784], [115.725979, 5.303871], [115.727037, 5.304573], [115.730462, 5.306378], [115.732947, 5.307582], [115.735953, 5.309287], [115.739445, 5.311043], [115.742149, 5.312464], [115.74277, 5.312898], [115.743458, 5.313433], [115.744247, 5.313734], [115.748529, 5.315924], [115.750997, 5.317078], [115.751383, 5.317513], [115.751988, 5.318131], [115.752827, 5.318449], [115.754825, 5.318884], [115.755967, 5.319569], [115.757327, 5.320539], [115.759443, 5.321843], [115.7604, 5.323966], [115.762599, 5.326223], [115.763338, 5.326791], [115.764253, 5.328672], [115.764555, 5.332433], [115.764933, 5.336178], [115.765168, 5.338769], [115.764614, 5.341494], [115.764463, 5.342782], [115.764199, 5.346359], [115.764138, 5.347832], [115.763976, 5.3487], [115.762901, 5.350121]]}},
{"type": "Feature", "properties": {"ProjectID": "P1066", "full_id": null, "osm_id": null, "osm_type": null, "man_made": null, "dist:yellow": null, "oneway": null, "size": null, "pressure": null, "width": null, "material": null, "ele": null, "waterway": null, "name:zh": null, "name:fr": null, "tunnel": null, "operator": null, "diameter": null, "mapillary": null, "image": null, "bridge": null, "seamark:cable_submarine:category": null, "communication": null, "seamark:pipeline_submarine:category": null, "type": null, "seamark:type": null, "seamark:pipeline_submarine:product": null, "submarine": null, "ref": null, "official_name": null, "usage": null, "name:en": null, "name": null, "substance": null, "location": null, "layer": null}, "geometry": {"type": "LineString", "coordinates": [[115.762901, 5.350121], [115.761865, 5.3516], [115.763174, 5.354007], [115.766365, 5.359691], [115.768379, 5.363135], [115.771435, 5.368484], [115.773618, 5.369454], [115.776069, 5.370825], [115.778118, 5.375004], [115.780435, 5.379417], [115.780603, 5.379852], [115.780536, 5.380721], [115.780704, 5.381323], [115.782618, 5.385101], [115.783289, 5.387541], [115.783256, 5.389346], [115.7848, 5.391921], [115.785405, 5.392924], [115.785497, 5.394788], [115.78616, 5.395665], [115.786387, 5.396091], [115.786933, 5.397395], [115.787159, 5.397905], [115.787428, 5.399535], [115.787579, 5.400755], [115.787655, 5.402795], [115.788612, 5.403981], [115.789065, 5.404959], [115.789401, 5.405812], [115.789854, 5.406088], [115.790492, 5.406731], [115.791181, 5.407767], [115.791433, 5.408135], [115.791517, 5.40979], [115.791962, 5.410475], [115.792516, 5.411445], [115.79291, 5.412122], [115.793078, 5.412807], [115.79291, 5.41422], [115.792532, 5.415657], [115.792356, 5.416418], [115.792314, 5.41722], [115.792734, 5.41839], [115.793364, 5.419945], [115.793909, 5.421717], [115.794354, 5.423313], [115.794883, 5.424366], [115.795294, 5.425787], [115.796, 5.42816], [115.796696, 5.429222], [115.797343, 5.430325], [115.797679, 5.43157], [115.798233, 5.432515], [115.798585, 5.432765], [115.799358, 5.435264], [115.79987, 5.436484], [115.801205, 5.440412], [115.801557, 5.441181], [115.802422, 5.443321], [115.802825, 5.444156], [115.803404, 5.445126], [115.804412, 5.447006], [115.804899, 5.448277], [115.805142, 5.44943], [115.805688, 5.451636], [115.805814, 5.452597], [115.806309, 5.453717], [115.806964, 5.455079], [115.807778, 5.45635], [115.808181, 5.457302], [115.810658, 5.461556], [115.811632, 5.463261], [115.813076, 5.465818], [115.813831, 5.467089], [115.813949, 5.46769], [115.813965, 5.469211], [115.815023, 5.470281], [115.814654, 5.472571], [115.816702, 5.473774], [115.818952, 5.474125], [115.819322, 5.475312], [115.821756, 5.477552], [115.822612, 5.478571], [115.822931, 5.478972], [115.82367, 5.480359], [115.825181, 5.481914], [115.827062, 5.483853], [115.829916, 5.486777], [115.831864, 5.486443], [115.835172, 5.489017], [115.837875, 5.491106], [115.841737, 5.494198], [115.845464, 5.497056], [115.848822, 5.499764], [115.851274, 5.501736], [115.853104, 5.50319], [115.85396, 5.504092], [115.857318, 5.510293], [115.861785, 5.518599], [115.864857, 5.523964]]}},
{"type": "Feature", "properties": {"ProjectID": "P1066", "full_id": null, "osm_id": null, "osm_type": null, "man_made": null, "dist:yellow": null, "oneway": null, "size": null, "pressure": null, "width": null, "material": null, "ele": null, "waterway": null, "name:zh": null, "name:fr": null, "tunnel": null, "operator": null, "diameter": null, "mapillary": null, "image": null, "bridge": null, "seamark:cable_submarine:category": null, "communication": null, "seamark:pipeline_submarine:category": null, "type": null, "seamark:type": null, "seamark:pipeline_submarine:product": null, "submarine": null, "ref": null, "official_name": null, "usage": null, "name:en": null, "name": null, "substance": null, "location": null, "layer": null}, "geometry": {"type": "LineString", "coordinates": [[115.864857, 5.523964], [115.865495, 5.525886], [115.866377, 5.528668], [115.86683, 5.530122], [115.867065, 5.531509], [115.868207, 5.534158], [115.868811, 5.535612], [115.869642, 5.538052], [115.870029, 5.539364], [115.871196, 5.540835], [115.873252, 5.543475], [115.874965, 5.545765], [115.876468, 5.547879], [115.877223, 5.548414], [115.879868, 5.549901], [115.880456, 5.550302], [115.881681, 5.552876], [115.882571, 5.554781], [115.88373, 5.557471], [115.884091, 5.558182], [115.885509, 5.560028], [115.886744, 5.5618], [115.888397, 5.563863], [115.89126, 5.567699], [115.892486, 5.570289], [115.89346, 5.572177], [115.89529, 5.57323], [115.896045, 5.574199], [115.897489, 5.576221], [115.899958, 5.579346], [115.903349, 5.583975], [115.905347, 5.586616], [115.905834, 5.587401], [115.905985, 5.588754], [115.905969, 5.591879], [115.906002, 5.599315], [115.906036, 5.602624], [115.904877, 5.606635], [115.905969, 5.61011], [115.905952, 5.615842], [115.905801, 5.617279], [115.905532, 5.619251], [115.904827, 5.620521], [115.904911, 5.622559], [115.905012, 5.623311], [115.904709, 5.625884], [115.904373, 5.628307], [115.904323, 5.62936], [115.904105, 5.631081], [115.900864, 5.634824], [115.900579, 5.634991], [115.895743, 5.635325], [115.891714, 5.63708], [115.890391, 5.637059]]}}
]
}
