{
"type": "FeatureCollection",
"features": [
{"type": "Feature", "properties": {"ProjectID": "P1127"}, "geometry": {"type": "LineString", "coordinates": [[107.051392, 10.439876], [107.206131, 10.287662], [107.36087, 10.116333], [107.41245, 10.052854], [107.457582, 10.027459], [107.470477, 9.957613], [107.586531, 9.805169], [107.696138, 9.601802], [107.760613, 9.404674], [107.760613, 9.404674], [107.850877, 9.131052], [107.947589, 8.908181], [107.960484, 8.359985], [108.031406, 8.155806], [108.102328, 7.919593], [108.147461, 7.715192], [108.22483, 7.363648]]}}
]
}
