{
"type": "FeatureCollection",
"features": [
{"type": "Feature", "properties": {"ProjectID": "P1138"}, "geometry": {"type": "MultiLineString", "coordinates": [[[142.243398, -36.758499], [142.321819, -36.841229], [142.35506, -36.841198], [142.385933, -36.846458], [142.56627, -36.927168], [142.676758, -36.971438], [142.737107, -36.99699], [142.754667, -36.995751], [142.895402, -37.104868], [143.009494, -37.165219], [143.027192, -37.169068], [143.027346, -37.169102], [143.086034, -37.176966], [143.150661, -37.197466], [143.184668, -37.19069], [143.196898, -37.192397], [143.220572, -37.195125], [143.231392, -37.192188], [143.262576, -37.192521], [143.313054, -37.201326], [143.320959, -37.199667], [143.328907, -37.199922], [143.333371, -37.200064], [143.348827, -37.196869], [143.368546, -37.193619], [143.369137, -37.187658], [143.400016, -37.168555], [143.474822, -37.166211], [143.500415, -37.163032], [143.516866, -37.165304], [143.52497, -37.162109], [143.539662, -37.163783], [143.552655, -37.161829], [143.567008, -37.158367], [143.58599, -37.150332], [143.59482, -37.151059], [143.635975, -37.14231], [143.657348, -37.153313], [143.680912, -37.154922], [143.710747, -37.148192], [143.774757, -37.101743], [143.790411, -37.094606], [143.809241, -37.043642]], [[143.027192, -37.169068], [143.027088, -37.169173], [142.953424, -37.245371], [142.938162, -37.256899], [142.932294, -37.266977]]]}}
]
}
