{
"type": "FeatureCollection",
"features": [
{"type": "Feature", "properties": {"ProjectID": "P1148"}, "geometry": {"type": "MultiLineString", "coordinates": [[[115.755682, -33.265797], [115.755533, -33.244712], [115.763415, -33.243848], [115.773057, -33.206573], [115.783805, -33.184415], [115.78977, -33.056021], [115.801979, -33.014379], [115.822789, -32.911076], [115.823429, -32.830294], [115.827667, -32.822066], [115.829633, -32.797408], [115.843083, -32.788893], [115.865315, -32.700855], [115.889899, -32.687406], [115.890309, -32.648988], [115.902816, -32.606428], [115.910765, -32.564758], [115.911711, -32.422623], [115.901764, -32.402867], [115.875644, -32.381662], [115.875375, -32.359078], [115.840864, -32.326105], [115.837568, -32.31093], [115.827399, -32.293935], [115.803444, -32.291107], [115.802475, -32.272353], [115.794651, -32.267682], [115.792442, -32.232935], [115.804449, -32.222908], [115.82626, -32.223103], [115.833254, -32.21126], [115.842476, -32.201824], [115.881965, -32.178977], [115.924407, -32.155337], [115.941632, -32.140922], [115.95382, -32.137583], [116.007324, -32.092377], [116.018414, -32.075887], [116.016558, -32.057853], [116.01142, -32.037094], [116.000178, -32.016763], [115.997122, -32.009549], [115.997254, -31.998675], [115.979284, -31.980038], [115.988127, -31.944685], [115.993754, -31.927217], [115.98937, -31.917526], [115.988823, -31.908363], [115.988657, -31.896675], [115.983318, -31.891189], [115.981916, -31.867619], [115.981187, -31.845954], [115.977557, -31.831163], [115.974219, -31.827394], [115.973579, -31.813268], [115.970152, -31.805377], [115.969993, -31.795176], [115.956519, -31.780173], [115.952963, -31.777101], [115.948139, -31.717512], [115.955129, -31.70694], [115.957136, -31.653275], [115.975941, -31.619147], [115.976664, -31.614027], [115.9756, -31.608422], [115.940431, -31.512749], [115.930975, -31.476123], [115.900525, -31.40739], [115.897223, -31.400568], [115.883079, -31.368109], [115.835237, -31.261603], [115.809363, -31.201074], [115.802881, -31.188903], [115.79439, -31.141311], [115.781582, -31.117035], [115.770005, -31.093711], [115.758254, -31.075504], [115.728798, -31.021269], [115.698079, -30.937389], [115.694889, -30.927822], [115.664591, -30.858753], [115.626327, -30.771652], [115.605046, -30.711421], [115.594033, -30.698509], [115.553945, -30.607207], [115.502397, -30.41792], [115.491877, -30.387096], [115.473108, -30.354677], [115.473108, -30.354677], [115.471604, -30.345319], [115.443294, -30.287917], [115.441552, -30.277717], [115.440438, -30.275324], [115.432188, -30.265775], [115.427127, -30.25393], [115.424316, -30.241893], [115.404956, -30.220488], [115.401807, -30.210943], [115.383447, -30.129349], [115.354587, -30.038367], [115.355376, -29.995723], [115.350867, -29.973567], [115.358726, -29.902705], [115.357329, -29.70579], [115.318693, -29.625949], [115.292494, -29.586412], [115.234488, -29.523476], [115.186304, -29.470021], [115.154087, -29.432004], [115.14323, -29.416933], [115.125557, -29.351245], [115.121028, -29.329612], [115.121153, -29.303552], [115.120973, -29.276459], [115.130093, -29.250155], [115.129414, -29.203396], [115.138768, -29.134914], [115.138914, -29.060133], [115.140914, -29.029279], [115.141561, -28.810094], [115.138702, -28.724287], [115.134914, -28.647273], [115.132893, -28.616226], [115.130395, -28.595862], [115.128069, -28.586982], [115.122055, -28.581449], [115.120947, -28.580069], [115.121586, -28.468473], [115.117156, -28.425367], [115.119606, -28.364714], [115.116875, -28.10689], [115.125733, -28.044433], [115.144762, -27.942666], [115.156387, -27.799188], [115.173163, -27.715601], [115.180237, -27.543335], [115.183017, -27.522732], [115.190749, -26.801386], [115.214196, -26.29652], [115.218762, -26.203317], [115.241297, -25.83799], [115.262788, -25.432947], [115.272799, -25.340891], [115.273284, -25.289378], [115.275947, -25.274054], [115.2744, -25.259804], [115.278719, -25.145327], [115.279135, -25.128703], [115.278916, -25.072834], [115.285375, -25.045546], [115.282654, -25.016469], [115.286389, -24.893374], [115.305143, -24.749429], [115.289299, -24.725044], [115.304674, -24.665616], [115.276238, -24.503016], [115.272136, -24.462465], [115.272897, -24.419404], [115.278135, -24.412022], [115.296862, -24.403149], [115.300562, -24.393336], [115.299183, -24.311775], [115.282258, -24.260088], [115.272638, -24.200142], [115.25487, -24.154602], [115.214659, -24.094542], [115.184967, -24.014936], [115.191002, -23.998383], [115.177279, -23.925774], [115.174648, -23.894316], [115.1712, -23.855182], [115.164579, -23.837459], [115.164292, -23.821521], [115.161928, -23.708922], [115.151135, -23.661493], [115.138353, -23.627746], [115.108379, -23.561586], [115.094969, -23.530629], [115.097114, -23.519473], [115.065455, -23.447365], [115.045451, -23.315487], [115.047598, -23.275437], [115.032467, -23.117094], [115.024484, -23.020828], [115.032394, -23.009372], [115.064836, -22.870641], [115.102754, -22.729715], [115.172055, -22.591262], [115.233847, -22.487412], [115.270797, -22.431441], [115.302494, -22.37769], [115.365259, -22.264822], [115.411464, -22.201783], [115.459571, -22.120736], [115.507555, -22.041958], [115.538389, -21.998914], [115.567105, -21.964223], [115.570062, -21.950122], [115.604138, -21.901234], [115.646893, -21.845557], [115.688681, -21.796433], [115.723211, -21.742613], [115.889805, -21.526458], [115.97001, -21.426887], [116.000186, -21.379798], [116.055683, -21.309477], [116.088302, -21.257684], [116.127936, -21.226412], [116.189221, -21.186286], [116.240876, -21.140016], [116.259644, -21.116503], [116.28234, -21.070979], [116.294928, -21.031751], [116.329192, -20.984155], [116.365122, -20.944149], [116.401863, -20.918203], [116.437918, -20.896021], [116.47305, -20.881517], [116.575213, -20.850613], [116.638109, -20.831897], [116.674668, -20.80109], [116.695067, -20.790757], [116.722717, -20.769049], [116.728422, -20.764628], [116.742571, -20.7443], [116.751095, -20.726841], [116.760732, -20.717183], [116.760719, -20.715298], [116.748328, -20.702302], [116.736461, -20.688101], [116.733579, -20.676791], [116.735619, -20.666293], [116.744904, -20.658567], [116.758394, -20.645161], [116.769056, -20.634309], [116.770844, -20.631653], [116.768939, -20.627525], [116.770727, -20.619655], [116.777121, -20.611612], [116.778996, -20.607051], [116.781417, -20.601472], [116.782584, -20.598709], [116.78245, -20.59389]], [[116.071467, -33.242427], [115.947004, -33.156504], [115.935698, -33.159688], [115.920772, -33.153907], [115.905431, -33.139756], [115.892815, -33.122674], [115.880201, -33.122745], [115.875794, -33.119111], [115.815232, -33.118893], [115.802561, -33.124801], [115.798537, -33.122182], [115.793475, -33.121661], [115.789405, -33.121766], [115.78686, -33.121452]], [[115.279135, -25.128703], [115.264195, -25.126049], [115.241676, -25.122048], [115.021552, -25.082748], [114.976671, -25.07912], [114.969099, -25.082752], [114.948364, -25.085286], [114.908415, -25.080835], [114.878206, -25.086932], [114.846243, -25.068723], [114.751433, -25.024808], [114.683944, -25.0038], [114.614141, -24.976538], [114.280011, -24.920824], [114.065676, -24.906276], [113.960439, -24.898914], [113.86238, -24.898558], [113.781503, -24.895294], [113.737419, -24.893361], [113.728864, -24.900906], [113.723668, -24.9002], [113.722066, -24.897818], [113.71763, -24.892597], [113.708621, -24.898379], [113.684041, -24.897983], [113.67912, -24.896764], [113.676386, -24.891414], [113.682948, -24.874435], [113.682947, -24.870697], [113.680646, -24.868206], [113.676837, -24.869666], [113.674968, -24.86854]]]}}
]
}
