{
"type": "FeatureCollection",
"features": [
{"type": "Feature", "properties": {"ProjectID": "P1144"}, "geometry": {"type": "LineString", "coordinates": [[148.890693, -25.707502], [148.891017, -25.707959], [148.892276, -25.709195], [148.893164, -25.712016], [148.892742, -25.713374], [148.892761, -25.713414], [148.893979, -25.714133], [148.893995, -25.714149], [148.901516, -25.722237], [148.901785, -25.722442], [148.909345, -25.723961], [148.909693, -25.723998], [148.910149, -25.72402], [148.911931, -25.723712], [148.912342, -25.72358], [148.912991, -25.72304], [148.913296, -25.722931], [148.913611, -25.722989], [148.914205, -25.723395], [148.914437, -25.723488], [148.914694, -25.723529], [148.914964, -25.723531], [148.915611, -25.7233], [148.916175, -25.723127], [148.916379, -25.723113], [148.91784, -25.724712], [148.91789, -25.724746], [148.918369, -25.724965], [148.918447, -25.725022], [148.919514, -25.725899], [148.919509, -25.725916], [148.918528, -25.728231], [148.918246, -25.72996], [148.918257, -25.729994], [148.918513, -25.73031], [148.918551, -25.730328], [148.921757, -25.73029], [148.921794, -25.730294], [148.921829, -25.730307], [148.922547, -25.730981], [148.922578, -25.731015], [148.922599, -25.731059], [148.922822, -25.731995], [148.922843, -25.732083], [148.922873, -25.732148], [148.923585, -25.73362], [148.924446, -25.735895], [148.924515, -25.736073], [148.924682, -25.736328], [148.926563, -25.739204], [148.926597, -25.73924], [148.926727, -25.739347], [148.927631, -25.740104], [148.928521, -25.7411], [148.928932, -25.742019], [148.92902, -25.742331], [148.92905, -25.743341], [148.929073, -25.74453], [148.9291, -25.744669], [148.92947, -25.745509], [148.929483, -25.745576], [148.929464, -25.745742], [148.929418, -25.746138], [148.92943, -25.746222], [148.929475, -25.746327], [148.929634, -25.746705], [148.929711, -25.746927], [148.929795, -25.747223], [148.929845, -25.74737], [148.930242, -25.748004], [148.930253, -25.748093], [148.930225, -25.748235], [148.930043, -25.748533], [148.929767, -25.748992], [148.929355, -25.750176], [148.930919, -25.754109], [148.931065, -25.75446], [148.931782, -25.756288], [148.928716, -25.762638], [148.925532, -25.768052], [148.920808, -25.772113], [148.91967, -25.775738], [148.921104, -25.780447], [148.9211, -25.780564], [148.91908, -25.789337], [148.915555, -25.795934], [148.912488, -25.800166], [148.911835, -25.804865], [148.909312, -25.810903], [148.904708, -25.816015], [148.904691, -25.816063], [148.90441, -25.817848], [148.904386, -25.817852], [148.90041, -25.817774], [148.900309, -25.817785], [148.895828, -25.818539], [148.895739, -25.818553], [148.895304, -25.818598], [148.895173, -25.81861], [148.894948, -25.818611], [148.890939, -25.818661], [148.8909, -25.818684], [148.889271, -25.822249], [148.889219, -25.822319], [148.882122, -25.831794], [148.882092, -25.831823], [148.877104, -25.835466], [148.877068, -25.835501], [148.877045, -25.835571], [148.876166, -25.839386], [148.876156, -25.839415], [148.876131, -25.83945], [148.875238, -25.840506], [148.875161, -25.840608], [148.874592, -25.84208], [148.874576, -25.842107], [148.874508, -25.842202], [148.87368, -25.843377], [148.873599, -25.843523], [148.870501, -25.84916], [148.870444, -25.849233], [148.864214, -25.857211], [148.863584, -25.858157], [148.862233, -25.860217], [148.86145, -25.861098], [148.856795, -25.866328], [148.855441, -25.867849], [148.855334, -25.86798], [148.852942, -25.871536], [148.852854, -25.871635], [148.84531, -25.880149], [148.845125, -25.880361], [148.844748, -25.880963], [148.842264, -25.88492], [148.842062, -25.885151], [148.835659, -25.892454], [148.835615, -25.892519], [148.83432, -25.896639], [148.834144, -25.896997], [148.832899, -25.899506], [148.832852, -25.899555], [148.830819, -25.90173], [148.830412, -25.902235], [148.827407, -25.906153], [148.827218, -25.906393], [148.82614, -25.907398], [148.823386, -25.909021], [148.815635, -25.915002], [148.809456, -25.921278], [148.807822, -25.923], [148.807759, -25.936008], [148.80774, -25.936233], [148.806468, -25.950244], [148.806484, -25.950392], [148.806971, -25.953622], [148.806971, -25.95367], [148.806942, -25.953873], [148.80626, -25.958682], [148.806283, -25.958793], [148.809402, -25.966795], [148.814589, -25.980074], [148.815037, -25.981124], [148.835997, -26.015852], [148.836776, -26.017126], [148.837352, -26.017685], [148.838742, -26.018372], [148.839289, -26.018757], [148.843852, -26.02326], [148.843859, -26.023424], [148.843645, -26.02871], [148.843804, -26.029286], [148.845025, -26.03043], [148.845447, -26.030714], [148.847233, -26.031372], [148.847328, -26.031627], [148.847741, -26.032858], [148.848103, -26.033589], [148.850495, -26.03772], [148.851818, -26.039967], [148.852534, -26.040864], [148.854896, -26.043832], [148.855523, -26.052507], [148.855497, -26.05259], [148.855018, -26.054268], [148.855117, -26.054873], [148.877952, -26.087846], [148.878898, -26.089907], [148.899379, -26.134595], [148.900071, -26.136279], [148.901993, -26.141154], [148.909661, -26.1606], [148.925896, -26.188238], [148.926081, -26.18879], [148.930101, -26.200816], [148.930077, -26.201688], [148.930612, -26.203815], [148.93154, -26.207193], [148.936215, -26.219944], [148.94775, -26.25139], [148.948293, -26.252219], [148.949011, -26.254828], [148.958082, -26.279551], [148.959263, -26.282763], [148.959489, -26.283374], [148.960463, -26.28446], [148.998472, -26.323987], [149.002389, -26.331508], [149.003688, -26.332557], [149.004205, -26.332735], [149.004832, -26.334144], [149.005681, -26.335523], [149.007089, -26.337225], [149.007506, -26.337756], [149.010685, -26.357842], [149.010936, -26.358787], [149.011679, -26.360011], [149.012358, -26.361464], [149.031429, -26.403088], [149.058305, -26.451786], [149.058621, -26.45216], [149.059484, -26.452652], [149.060179, -26.454834], [149.060796, -26.456299], [149.069182, -26.471338], [149.086423, -26.491391], [149.094231, -26.504277], [149.094415, -26.504606], [149.11312, -26.520896], [149.119084, -26.534178], [149.131701, -26.580558], [149.132164, -26.581938], [149.133033, -26.583987], [149.132691, -26.586223], [149.13259, -26.587006], [149.133162, -26.58747], [149.147309, -26.599054], [149.151586, -26.607631], [149.164718, -26.629507], [149.172387, -26.653845], [149.17292, -26.661324], [149.181313, -26.683685], [149.180042, -26.693313], [149.180075, -26.693354], [149.18198, -26.693559], [149.181991, -26.693592], [149.181954, -26.693867]]}}
]
}
