{
"type": "FeatureCollection",
"features": [
{"type": "Feature", "properties": {"ProjectID": "P1150"}, "geometry": {"type": "LineString", "coordinates": [[149.186142, -26.693663], [149.186127, -26.693768], [149.187485, -26.693966], [149.187424, -26.694401], [149.187439, -26.694395], [149.187408, -26.694429], [149.186646, -26.695509], [149.186237, -26.698562], [149.18605, -26.699961], [149.185568, -26.703517], [149.184895, -26.708472], [149.184509, -26.711313], [149.184215, -26.713426], [149.183526, -26.718378], [149.183243, -26.720415], [149.182858, -26.723333], [149.182204, -26.72829], [149.181702, -26.732096], [149.181312, -26.73319], [149.181244, -26.733379], [149.179584, -26.737882], [149.177855, -26.742573], [149.177017, -26.744844], [149.176134, -26.747268], [149.175842, -26.748068], [149.174617, -26.752031], [149.173965, -26.754139], [149.173355, -26.754883], [149.172714, -26.756599], [149.172424, -26.757376], [149.170991, -26.761292], [149.170471, -26.762712], [149.169434, -26.765566], [149.16927, -26.765986], [149.169159, -26.766272], [149.169052, -26.767338], [149.168777, -26.769632], [149.168627, -26.770935], [149.168053, -26.775902], [149.16803, -26.776106], [149.167725, -26.778908], [149.167498, -26.780871], [149.167099, -26.78434], [149.16693, -26.785839], [149.166519, -26.789486], [149.166369, -26.790807], [149.165805, -26.795775], [149.165695, -26.796747], [149.165227, -26.800742], [149.165207, -26.800913], [149.164703, -26.805067], [149.164629, -26.805706], [149.16423, -26.809158], [149.164062, -26.810674], [149.163508, -26.815643], [149.163315, -26.817375], [149.163055, -26.819767], [149.162948, -26.820611], [149.162315, -26.825571], [149.162292, -26.825745], [149.162125, -26.826935], [149.161774, -26.829849], [149.161678, -26.83053], [149.161179, -26.834091], [149.160994, -26.835483], [149.160645, -26.838121], [149.16031, -26.840436], [149.160263, -26.840761], [149.16011, -26.841381], [149.159333, -26.845338], [149.159119, -26.846428], [149.158523, -26.850272], [149.158096, -26.85302], [149.158553, -26.855191], [149.159515, -26.859766], [149.159538, -26.86009], [149.159668, -26.861979], [149.15991, -26.865076], [149.160299, -26.870061], [149.160385, -26.871162], [149.160095, -26.873146], [149.159797, -26.875013], [149.159393, -26.877548], [149.159012, -26.879951], [149.158661, -26.88216], [149.15822, -26.884888], [149.157425, -26.889799], [149.157421, -26.889824], [149.156639, -26.894762], [149.156036, -26.898567], [149.155856, -26.899701], [149.15507, -26.904638], [149.154999, -26.905088], [149.154289, -26.909577], [149.154236, -26.909912], [149.153671, -26.913063], [149.153447, -26.914505], [149.152681, -26.919446], [149.152145, -26.922895], [149.151722, -26.924344], [149.150318, -26.929143], [149.150085, -26.929939], [149.149826, -26.932859], [149.149709, -26.934093], [149.149384, -26.93754], [149.149241, -26.939071], [149.148776, -26.944049], [149.148666, -26.945229], [149.148328, -26.949029], [149.148254, -26.949854], [149.147878, -26.954009], [149.147598, -26.957096], [149.147425, -26.958988], [149.14697, -26.963968], [149.146606, -26.967941], [149.146515, -26.968947], [149.146062, -26.973926], [149.145609, -26.978906], [149.145508, -26.980013], [149.145136, -26.983883], [149.144714, -26.988272], [149.144657, -26.98886], [149.144168, -26.993836], [149.14386, -26.996969], [149.14369, -26.998813], [149.143356, -27.002432], [149.14323, -27.003792], [149.143036, -27.00588], [149.142694, -27.008763], [149.142578, -27.009737], [149.142071, -27.013724], [149.141617, -27.017294], [149.141739, -27.017406], [149.142529, -27.018356], [149.144272, -27.020449], [149.144348, -27.020575], [149.144086, -27.022688], [149.14347, -27.02765], [149.143448, -27.027832], [149.142854, -27.032612], [149.142563, -27.034956], [149.142239, -27.037574], [149.141663, -27.04224], [149.141625, -27.042536], [149.141003, -27.047497], [149.140762, -27.049414], [149.140385, -27.052459], [149.139847, -27.056801], [149.139768, -27.05742], [149.139526, -27.059332], [149.139161, -27.062383], [149.13913, -27.062643], [149.138573, -27.067349], [149.138397, -27.06884], [149.137976, -27.072313], [149.137558, -27.075754], [149.137497, -27.07658], [149.137413, -27.07728], [149.137314, -27.078108], [149.137405, -27.079611], [149.137582, -27.082266], [149.137833, -27.086044], [149.137914, -27.087255], [149.13797, -27.088085], [149.13829, -27.09091], [149.13844, -27.092226], [149.138901, -27.096291], [149.139003, -27.097194], [149.13942, -27.100878], [149.139568, -27.102162], [149.139999, -27.105898], [149.140125, -27.107131], [149.14035, -27.109346], [149.140396, -27.110117], [149.140675, -27.112099], [149.141235, -27.116079], [149.141509, -27.117021], [149.141754, -27.117861], [149.143878, -27.121397], [149.146453, -27.125683], [149.148361, -27.128859], [149.149049, -27.129956], [149.151707, -27.134191], [149.151794, -27.134331], [149.152595, -27.139099], [149.152802, -27.140326], [149.152969, -27.141516], [149.153564, -27.143078], [149.153871, -27.143906], [149.155607, -27.148595], [149.155823, -27.149178], [149.157339, -27.153285], [149.158386, -27.156124], [149.158586, -27.158088], [149.158615, -27.158373], [149.15892, -27.161337], [149.158231, -27.162928], [149.15802, -27.163416], [149.157623, -27.164354], [149.157516, -27.164858], [149.157043, -27.166552], [149.156739, -27.167688], [149.15593, -27.170706], [149.155434, -27.172514], [149.155426, -27.172544], [149.154526, -27.175655], [149.153973, -27.177295], [149.153, -27.18018], [149.152367, -27.18203], [149.151794, -27.183706], [149.15079, -27.186775], [149.149658, -27.190229], [149.149237, -27.191527], [149.147694, -27.196283], [149.146683, -27.1994], [149.146444, -27.201107], [149.145767, -27.205936], [149.145751, -27.206058], [149.145093, -27.211015], [149.145004, -27.211679], [149.144394, -27.215966], [149.144333, -27.216396], [149.144102, -27.220956], [149.143849, -27.225949], [149.143677, -27.229343], [149.143591, -27.230943], [149.143322, -27.235935], [149.143173, -27.238699], [149.143069, -27.240929], [149.142836, -27.245924], [149.142776, -27.247194], [149.142731, -27.249033], [149.142715, -27.249933], [149.142677, -27.250921], [149.142639, -27.251905], [149.142548, -27.255419], [149.1425, -27.255917], [149.142026, -27.260894], [149.141552, -27.265871], [149.141078, -27.270849], [149.140604, -27.275826], [149.14013, -27.280804], [149.139656, -27.285781], [149.139182, -27.290759], [149.138809, -27.29467], [149.138713, -27.295737], [149.138263, -27.300717], [149.137814, -27.305696], [149.137619, -27.307852], [149.137014, -27.310622], [149.135946, -27.315507], [149.135712, -27.31658], [149.135498, -27.317547], [149.135208, -27.319565], [149.135081, -27.320428], [149.134888, -27.321737], [149.134842, -27.32238], [149.13472, -27.325027], [149.134711, -27.325409], [149.134674, -27.327063], [149.134561, -27.330407], [149.134415, -27.334713], [149.134398, -27.335404], [149.134384, -27.336002], [149.133896, -27.339956], [149.133847, -27.340371], [149.133286, -27.345121], [149.133307, -27.345337], [149.133806, -27.350312], [149.133865, -27.350906], [149.133113, -27.355245], [149.132385, -27.359438], [149.132263, -27.360172], [149.13144, -27.365104], [149.130618, -27.370036], [149.130249, -27.372246], [149.130157, -27.372807], [149.129776, -27.374367], [149.12963, -27.374933], [149.128382, -27.379775], [149.12822, -27.380405], [149.127594, -27.383036], [149.127869, -27.384035], [149.12771, -27.384623], [149.126801, -27.387989], [149.126451, -27.389461], [149.125295, -27.394326], [149.124139, -27.39919], [149.123413, -27.402246], [149.123158, -27.404088], [149.122473, -27.40904], [149.121787, -27.413993], [149.121582, -27.415478], [149.121109, -27.418947], [149.120433, -27.423901], [149.120056, -27.426661], [149.119756, -27.428855], [149.119078, -27.433809], [149.1184, -27.438763], [149.117722, -27.443717], [149.117401, -27.446062], [149.117047, -27.448671], [149.116375, -27.453625], [149.115703, -27.45858], [149.115031, -27.463535], [149.114868, -27.464737], [149.114352, -27.468488], [149.11367, -27.473442], [149.112988, -27.478395], [149.112306, -27.483348], [149.111624, -27.488301], [149.110942, -27.493255], [149.110382, -27.497324], [149.110262, -27.498208], [149.109588, -27.503163], [149.108932, -27.507977], [149.108913, -27.508117], [149.108237, -27.513071], [149.10759, -27.517815], [149.10756, -27.518025], [149.107117, -27.521204], [149.106858, -27.522975], [149.106827, -27.52319], [149.106644, -27.524054], [149.106689, -27.524158], [149.10643, -27.525145], [149.106339, -27.52762], [149.106326, -27.527909], [149.106111, -27.532904], [149.105911, -27.537558], [149.105896, -27.5379], [149.10567, -27.542894], [149.105444, -27.547889], [149.105438, -27.548016], [149.1052, -27.552883], [149.104955, -27.557877], [149.104874, -27.55953], [149.105302, -27.562848], [149.105835, -27.566975], [149.105948, -27.567806], [149.106624, -27.57276], [149.107193, -27.576927], [149.107307, -27.577713], [149.108027, -27.582661], [149.108673, -27.587109], [149.108742, -27.58761], [149.109426, -27.592563], [149.109879, -27.59584], [149.110135, -27.597512], [149.110229, -27.598125], [149.110168, -27.598297], [149.110859, -27.602437], [149.111681, -27.607369], [149.112503, -27.612301]]}}
]
}
