{
"type": "FeatureCollection",
"features": [
{"type": "Feature", "properties": {"ProjectID": "P1168"}, "geometry": {"type": "MultiLineString", "coordinates": [[[118.537533, -28.292648], [118.538255, -28.291703], [118.538232, -28.291133], [118.537787, -28.29041], [118.53577, -28.287199], [118.535178, -28.28697], [118.534777, -28.286597], [118.533486, -28.285106], [118.532827, -28.284695], [118.532468, -28.284322], [118.531679, -28.284039], [118.529719, -28.28374], [118.528581, -28.283316], [118.518116, -28.276926], [118.517179, -28.276169], [118.516286, -28.275177], [118.512837, -28.269799], [118.513618, -28.266111], [118.513361, -28.265158], [118.512918, -28.264], [118.511424, -28.262303], [118.506713, -28.260438], [118.505881, -28.259144], [118.505204, -28.257862], [118.504793, -28.256658], [118.50458, -28.255231], [118.505103, -28.2403], [118.505339, -28.239003], [118.504894, -28.238487], [118.500529, -28.237514], [118.477642, -28.226437], [118.475971, -28.226073], [118.468583, -28.226368], [118.420866, -28.232838], [118.390741, -28.232026], [118.389234, -28.231975], [118.386839, -28.229928], [118.384301, -28.229127], [118.383718, -28.226844], [118.372719, -28.216573], [118.313945, -28.199967], [118.21678, -28.183455], [118.150171, -28.159541], [118.097433, -28.15272], [118.072039, -28.154555], [118.062048, -28.152554], [118.056576, -28.148658], [118.052548, -28.148559], [118.046269, -28.150614], [118.035646, -28.149646], [117.978208, -28.152507], [117.952749, -28.162085], [117.917831, -28.169648], [117.872373, -28.174852], [117.834802, -28.190907], [117.766666, -28.217311], [117.719283, -28.214212], [117.665426, -28.222031], [117.658824, -28.227581], [117.656635, -28.228654], [117.655671, -28.228999], [117.654469, -28.229251], [117.650429, -28.229854], [117.649933, -28.230117], [117.645662, -28.230762], [117.524067, -28.248752], [117.424594, -28.263196], [117.423365, -28.263171], [117.377323, -28.269426], [117.3759, -28.269833], [117.333866, -28.275482], [117.332496, -28.275458], [117.327983, -28.276071], [117.327269, -28.276406], [117.232002, -28.289118], [117.230954, -28.289051], [117.20556, -28.292448], [117.204325, -28.292831], [117.155859, -28.299239], [117.135154, -28.299336], [116.886129, -28.340559], [116.822255, -28.350941], [116.798427, -28.35098], [116.781344, -28.351036], [116.731722, -28.351365], [116.715252, -28.351453], [116.686617, -28.347132], [116.68301, -28.348497], [116.68184, -28.348219], [116.680781, -28.346459], [116.673036, -28.345267], [116.671871, -28.345231], [116.642817, -28.348129], [116.642241, -28.347987], [116.581216, -28.354125], [116.489172, -28.363295], [116.488657, -28.363547], [116.486278, -28.363817], [116.436259, -28.378403], [116.381162, -28.394401], [116.368633, -28.396063], [116.365146, -28.39656], [116.363719, -28.397024], [116.350071, -28.403018], [116.349012, -28.403678], [116.347937, -28.404573], [116.346995, -28.405196], [116.345694, -28.405689], [116.344655, -28.405838], [116.337788, -28.405372], [116.336079, -28.405382], [116.334923, -28.405568], [116.333495, -28.406023], [116.331722, -28.406998], [116.327544, -28.409896], [116.320423, -28.414631], [116.318759, -28.415169], [116.314809, -28.416083], [116.311301, -28.416628], [116.309879, -28.41656], [116.305642, -28.416028], [116.301349, -28.416127], [116.292022, -28.416381], [116.289338, -28.416009], [116.288709, -28.415711], [116.282035, -28.414645], [116.280326, -28.414141], [116.269564, -28.409734], [116.268379, -28.409249], [116.266972, -28.408814], [116.264989, -28.408588], [116.25025, -28.409021], [116.24636, -28.409051], [116.236427, -28.407575], [116.23343, -28.407869], [116.229548, -28.410163], [116.225948, -28.410775], [116.037659, -28.434358], [115.934421, -28.463136], [115.932268, -28.463335], [115.823794, -28.471814], [115.810138, -28.483709], [115.785524, -28.483691], [115.768663, -28.489044], [115.757757, -28.492005], [115.751534, -28.492039], [115.743341, -28.488424], [115.742969, -28.487613], [115.741997, -28.487243], [115.738614, -28.487579], [115.713472, -28.496461], [115.710761, -28.497388], [115.699788, -28.498653], [115.696838, -28.49875], [115.693817, -28.499924], [115.689688, -28.503764], [115.656538, -28.512443], [115.647038, -28.514985], [115.621906, -28.521501], [115.613011, -28.522059], [115.591287, -28.51681], [115.564585, -28.515617], [115.539121, -28.517003], [115.522029, -28.517198], [115.512024, -28.51866], [115.490721, -28.518583], [115.479958, -28.518016], [115.473386, -28.520826], [115.470125, -28.521894], [115.46363, -28.524758], [115.434237, -28.536986], [115.426178, -28.543138], [115.417921, -28.550042], [115.409154, -28.555462], [115.381613, -28.555516], [115.37326, -28.555959], [115.355431, -28.560456], [115.341077, -28.562754], [115.331731, -28.562833], [115.320299, -28.564394], [115.3159, -28.566174], [115.298398, -28.568743], [115.297472, -28.569315], [115.296923, -28.569469], [115.291767, -28.573563], [115.277427, -28.581898], [115.277247, -28.58212], [115.265019, -28.58802], [115.244604, -28.594782], [115.220796, -28.603937], [115.178308, -28.604069], [115.176847, -28.603899], [115.147141, -28.604066], [115.146855, -28.604396], [115.142561, -28.611056], [115.136296, -28.623471], [115.134404, -28.623559], [115.133373, -28.623594]], [[117.872373, -28.174852], [117.857093, -28.141713], [117.856924, -28.139429], [117.856717, -28.137215], [117.855833, -28.135558], [117.854057, -28.133713], [117.852877, -28.132474], [117.851808, -28.13069], [117.850456, -28.127822], [117.836542, -28.09825], [117.835979, -28.096496], [117.835905, -28.096167], [117.835783, -28.095509], [117.835673, -28.094521], [117.83567, -28.093839], [117.835576, -28.093246], [117.835144, -28.092906], [117.834955, -28.09264], [117.834063, -28.08857], [117.833595, -28.087603], [117.833401, -28.087481], [117.833045, -28.087477]]]}}
]
}
