{
"type": "FeatureCollection",
"features": [
{"type": "Feature", "properties": {"ProjectID": "P1164"}, "geometry": {"type": "LineString", "coordinates": [[121.627642, -31.190878], [121.627741, -31.191294], [121.628507, -31.19433], [121.62866, -31.194967], [121.629363, -31.19759], [121.629727, -31.198517], [121.630162, -31.19937], [121.630665, -31.200173], [121.631071, -31.200722], [121.631631, -31.201372], [121.631983, -31.201745], [121.632739, -31.202457], [121.634934, -31.204467], [121.636645, -31.206038], [121.636633, -31.206082], [121.636455, -31.206184], [121.634888, -31.206957], [121.635125, -31.207358], [121.635126, -31.2074], [121.635108, -31.207415], [121.634647, -31.207641], [121.633149, -31.208884], [121.630258, -31.211752], [121.629467, -31.212622], [121.628531, -31.213649], [121.627271, -31.215031], [121.625949, -31.216479], [121.622112, -31.220679], [121.618062, -31.223581], [121.617236, -31.224662], [121.615915, -31.227207], [121.615116, -31.228261], [121.596763, -31.24612], [121.584547, -31.257626], [121.580778, -31.261126], [121.577692, -31.26398], [121.576604, -31.265082], [121.575621, -31.266456], [121.574509, -31.268195], [121.573539, -31.270128], [121.571517, -31.273241], [121.568281, -31.276411], [121.565023, -31.278841], [121.560159, -31.282389], [121.552953, -31.28764], [121.539363, -31.300319], [121.538101, -31.30153], [121.537606, -31.302222], [121.536902, -31.303729], [121.535963, -31.306419], [121.535084, -31.30892], [121.534398, -31.310256], [121.533387, -31.311618], [121.531702, -31.313852], [121.530645, -31.314791], [121.529448, -31.315436], [121.525476, -31.316804], [121.520203, -31.318599], [121.515687, -31.320155], [121.514093, -31.320704], [121.512762, -31.321168], [121.514149, -31.323253], [121.514591, -31.325856], [121.516034, -31.335304], [121.518465, -31.342139], [121.519038, -31.343346], [121.519824, -31.345322], [121.520519, -31.347984], [121.521371, -31.350691], [121.522148, -31.352733], [121.522855, -31.354196], [121.523907, -31.356013], [121.525248, -31.35764], [121.527172, -31.36013], [121.528635, -31.364596], [121.532044, -31.37155], [121.531858, -31.372657], [121.532484, -31.373902], [121.535987, -31.378217], [121.536943, -31.379059], [121.538698, -31.379547], [121.546226, -31.385118], [121.548396, -31.387801], [121.550411, -31.391709], [121.551877, -31.395708], [121.55384, -31.401066], [121.556001, -31.407011], [121.556065, -31.411922], [121.557594, -31.417143], [121.558364, -31.419985], [121.559355, -31.422774], [121.563503, -31.43365], [121.564132, -31.440448], [121.564295, -31.441149], [121.56458, -31.442747], [121.564695, -31.444049], [121.565614, -31.456267], [121.56546, -31.458536], [121.564924, -31.460188], [121.564745, -31.461854], [121.565166, -31.463172], [121.566327, -31.465574], [121.566777, -31.466815], [121.567525, -31.467387], [121.567908, -31.468166], [121.56823, -31.470855], [121.568087, -31.472749], [121.568995, -31.475445], [121.570348, -31.476845], [121.574107, -31.48101], [121.574703, -31.482207], [121.575974, -31.485739], [121.57704, -31.488236], [121.577966, -31.492902], [121.57862, -31.494543], [121.579909, -31.49648], [121.581598, -31.497662], [121.584521, -31.498567], [121.586009, -31.499451], [121.587778, -31.500559], [121.58851, -31.501], [121.589265, -31.501257], [121.592801, -31.503772], [121.598524, -31.512869], [121.599185, -31.514535], [121.599963, -31.516503], [121.600725, -31.518519], [121.602121, -31.520329], [121.604923, -31.524107], [121.606165, -31.525931], [121.606831, -31.527105], [121.607711, -31.528744], [121.60881, -31.52967], [121.610997, -31.53162], [121.613858, -31.539005], [121.613379, -31.545541], [121.603787, -31.55816], [121.60333, -31.560659], [121.619815, -31.610303], [121.626831, -31.615785], [121.632018, -31.624218], [121.632901, -31.628531], [121.632737, -31.629127], [121.633318, -31.632046], [121.633771, -31.63298], [121.634583, -31.636793], [121.635449, -31.64102], [121.637401, -31.644183], [121.641289, -31.646834], [121.641871, -31.65144], [121.648701, -31.662612], [121.679401, -31.69632], [121.679324, -31.697207], [121.690209, -31.709174], [121.690502, -31.709903], [121.691658, -31.710853], [121.692481, -31.714416], [121.693529, -31.717985], [121.697045, -31.723947], [121.697727, -31.724598], [121.698107, -31.725875], [121.699302, -31.727041], [121.701092, -31.727982], [121.710432, -31.736426], [121.712557, -31.738352], [121.713892, -31.740044], [121.714605, -31.741373], [121.715106, -31.742826], [121.71482, -31.747191], [121.714414, -31.748916], [121.713188, -31.750587], [121.712013, -31.751917], [121.711627, -31.751938], [121.709999, -31.754871], [121.694022, -31.776162], [121.693119, -31.778752], [121.674127, -31.799417], [121.645831, -31.844241], [121.644147, -31.850435], [121.646448, -31.909115], [121.648135, -31.968595], [121.678069, -32.027122], [121.675832, -32.034935], [121.67963, -32.042045], [121.679526, -32.042931], [121.679799, -32.04425], [121.680565, -32.046239], [121.682021, -32.052163], [121.681851, -32.056432], [121.681368, -32.060463], [121.680153, -32.06053], [121.680577, -32.065051], [121.679432, -32.073667], [121.679866, -32.076925], [121.693711, -32.100683], [121.697958, -32.113429], [121.698029, -32.113852], [121.696883, -32.116804], [121.700934, -32.129561], [121.701976, -32.132346], [121.707065, -32.141016], [121.713658, -32.150586], [121.718034, -32.154873], [121.724565, -32.154298], [121.733061, -32.152114], [121.733669, -32.152098], [121.733666, -32.151036], [121.736603, -32.150999], [121.73945, -32.150725], [121.742616, -32.151024], [121.742816, -32.150079], [121.743071, -32.149352], [121.743481, -32.148977], [121.744152, -32.14858], [121.744789, -32.148273], [121.745595, -32.148074], [121.746912, -32.148046], [121.748716, -32.148565], [121.760129, -32.152021], [121.760318, -32.15223], [121.764109, -32.153308], [121.764852, -32.154169], [121.765803, -32.155837], [121.76683, -32.156673], [121.771698, -32.160024], [121.772489, -32.160604], [121.772885, -32.161077], [121.773286, -32.161967], [121.773678, -32.161839], [121.78149, -32.183901], [121.781751, -32.183988], [121.782272, -32.185645], [121.782293, -32.188002], [121.782254, -32.197485], [121.782426, -32.204181], [121.782138, -32.205312], [121.781345, -32.206374], [121.780347, -32.206981], [121.77589, -32.207121], [121.774509, -32.207576], [121.773296, -32.208363], [121.772325, -32.209581], [121.771961, -32.210719], [121.77185, -32.212016], [121.768966, -32.236768], [121.769804, -32.237015], [121.767887, -32.251532], [121.76797, -32.253221], [121.768354, -32.25459], [121.769282, -32.256252], [121.770408, -32.257781], [121.771155, -32.25939], [121.771535, -32.261305], [121.771458, -32.26294], [121.770042, -32.26777], [121.763602, -32.289945], [121.762664, -32.294134], [121.759975, -32.301784], [121.75962, -32.303369], [121.759496, -32.304898], [121.759516, -32.33029], [121.759593, -32.361357], [121.759613, -32.390671], [121.759509, -32.393139], [121.75866, -32.395416], [121.756876, -32.397583], [121.700339, -32.445877], [121.698439, -32.447749], [121.694026, -32.453271], [121.692069, -32.454979], [121.686669, -32.457979], [121.684621, -32.459351], [121.614826, -32.518711], [121.601085, -32.547906], [121.601735, -32.549114], [121.600378, -32.55203], [121.598911, -32.552526], [121.580731, -32.591231], [121.579844, -32.592427], [121.57211, -32.599593], [121.568374, -32.603042], [121.56088, -32.608228], [121.557167, -32.611657], [121.554298, -32.61622], [121.545602, -32.631074], [121.544747, -32.632785], [121.544494, -32.634415], [121.54385, -32.643692], [121.536104, -32.744053], [121.53621, -32.745323], [121.536709, -32.746933], [121.597877, -32.878665], [121.641603, -32.973443], [121.643973, -32.97827], [121.64589, -32.980558], [121.647585, -32.982529], [121.648557, -32.984266], [121.648606, -32.985792], [121.647932, -32.987445], [121.647219, -32.98869], [121.646865, -32.989826], [121.64681, -32.990838], [121.652389, -33.004371], [121.673254, -33.044793], [121.674068, -33.046392], [121.674942, -33.047458], [121.680238, -33.051608], [121.680886, -33.052417], [121.681177, -33.053182], [121.681393, -33.054287], [121.681244, -33.055236], [121.679468, -33.060499], [121.679347, -33.061405], [121.679519, -33.06231], [121.680825, -33.066195], [121.681501, -33.066724], [121.682876, -33.070791], [121.682661, -33.071473], [121.683699, -33.07496], [121.684017, -33.075231], [121.692348, -33.098982], [121.699445, -33.119588], [121.699564, -33.123458], [121.699915, -33.125868], [121.705774, -33.142288], [121.706384, -33.142798], [121.707821, -33.14683], [121.707569, -33.147607], [121.719435, -33.180986], [121.719891, -33.184171], [121.716976, -33.199896], [121.716875, -33.201484], [121.716933, -33.215016], [121.716386, -33.215033], [121.71641, -33.245315], [121.716862, -33.245282], [121.716835, -33.35], [121.715803, -33.352144], [121.715489, -33.352899], [121.715363, -33.353644], [121.715382, -33.354377], [121.724213, -33.406935], [121.723435, -33.410427], [121.725486, -33.422455], [121.723557, -33.427915], [121.723213, -33.429234], [121.723249, -33.43052], [121.72557, -33.440604], [121.726295, -33.441574], [121.727226, -33.445489], [121.726887, -33.446229], [121.727812, -33.449384], [121.732664, -33.45723], [121.739712, -33.469085], [121.756626, -33.502378], [121.764491, -33.517814], [121.76384, -33.518031], [121.771119, -33.532339], [121.779999, -33.548342], [121.783959, -33.558293], [121.783949, -33.559121], [121.78609, -33.561753], [121.786497, -33.565754], [121.796831, -33.5956], [121.802971, -33.622406], [121.812425, -33.646872], [121.813899, -33.64983], [121.815013, -33.651254], [121.825578, -33.663125], [121.836106, -33.674881], [121.845549, -33.682466], [121.84643, -33.683336], [121.852429, -33.691915], [121.853266, -33.693202], [121.853743, -33.695062], [121.853798, -33.696676], [121.853208, -33.702305], [121.853262, -33.703575], [121.855127, -33.712301], [121.856826, -33.720528], [121.858654, -33.723893], [121.860707, -33.727042], [121.862395, -33.730426], [121.864167, -33.741122], [121.86383, -33.741701], [121.864146, -33.743522], [121.865129, -33.747017], [121.866624, -33.750031], [121.866922, -33.751419], [121.867106, -33.754482], [121.866975, -33.756315], [121.866286, -33.757374], [121.864157, -33.759264], [121.863267, -33.760252], [121.862924, -33.76149], [121.862474, -33.762861], [121.862882, -33.766369], [121.862668, -33.769333], [121.862483, -33.771202], [121.862867, -33.77362], [121.863482, -33.776282], [121.863536, -33.777563], [121.863375, -33.778196], [121.863048, -33.778973], [121.86187, -33.780582], [121.861509, -33.781507], [121.861444, -33.782141], [121.861381, -33.782604], [121.861531, -33.783573], [121.862261, -33.785499], [121.862684, -33.787057], [121.849148, -33.787067], [121.848903, -33.787023], [121.848399, -33.787426], [121.848405, -33.80248], [121.833222, -33.802504], [121.832957, -33.802505], [121.832895, -33.802512], [121.839326, -33.817285], [121.83935, -33.817493], [121.839259, -33.817808], [121.839092, -33.818417], [121.842518, -33.819914], [121.847774, -33.823143], [121.848486, -33.823758], [121.852209, -33.826148], [121.853563, -33.827397], [121.854328, -33.828376], [121.855207, -33.829966], [121.855884, -33.831102], [121.856834, -33.832314], [121.858148, -33.833489], [121.860567, -33.835033], [121.861266, -33.83536], [121.862203, -33.835951], [121.8631, -33.836537], [121.864145, -33.837263], [121.865267, -33.837864], [121.865946, -33.83812], [121.867465, -33.838415], [121.869358, -33.838503], [121.870522, -33.838406], [121.873731, -33.838334], [121.878742, -33.838437], [121.887581, -33.838663], [121.887636, -33.839362], [121.887613, -33.840167], [121.887616, -33.841144], [121.887613, -33.841631], [121.887665, -33.842067], [121.88767, -33.843298], [121.887677, -33.844208], [121.887458, -33.845301], [121.886749, -33.8464], [121.885926, -33.847288], [121.88415, -33.848332], [121.883338, -33.849035], [121.883027, -33.849714], [121.882863, -33.853972], [121.882809, -33.854422], [121.882699, -33.854806], [121.882362, -33.855676], [121.882254, -33.856129], [121.882247, -33.857261], [121.882193, -33.857517], [121.882209, -33.859614], [121.882178, -33.864929], [121.882268, -33.865272], [121.88235, -33.867197], [121.882862, -33.868398], [121.88317, -33.868801], [121.884228, -33.869372], [121.885468, -33.869733], [121.890843, -33.86964], [121.89253, -33.869705], [121.892631, -33.869742], [121.892716, -33.870533], [121.893116, -33.870557], [121.893522, -33.870751], [121.893864, -33.871184], [121.893986, -33.871755], [121.894203, -33.872032], [121.894716, -33.872234], [121.895443, -33.872412], [121.896199, -33.872715], [121.897292, -33.873381], [121.897555, -33.873668], [121.897743, -33.874044], [121.897948, -33.874489], [121.898181, -33.874739], [121.898752, -33.875184], [121.899178, -33.875519], [121.899345, -33.875645], [121.899399, -33.875678], [121.89947, -33.875731]]}}
]
}
