{
"type": "FeatureCollection",
"features": [
{"type": "Feature", "properties": {"ProjectID": "P1176", "id": 1, "Name": "Papua New Guinea to Queensland Pipeline"}, "geometry": {"type": "MultiLineString", "coordinates": [[[142.770041, -5.895462], [142.840823, -5.92964], [142.91792, -5.987151], [142.946562, -6.008977], [142.947958, -6.032579], [142.973087, -6.052015], [143.088958, -6.063121], [143.100126, -6.07145], [143.101522, -6.125588], [143.118275, -6.15196], [143.121067, -6.182495], [143.140611, -6.192211], [143.178305, -6.21858], [143.256483, -6.299068], [143.259275, -6.308781], [143.222978, -6.336532], [143.21181, -6.351794], [143.21181, -6.403128], [143.214602, -6.418389], [143.259275, -6.45307], [143.263463, -6.464167], [143.263463, -6.498845], [143.29278, -6.530747], [143.312324, -6.555712], [143.326285, -6.562646], [143.341641, -6.564033], [143.347225, -6.570968], [143.351414, -6.584836], [143.377938, -6.613959], [143.41982, -6.650013], [143.470077, -6.684678], [143.531503, -6.702703], [143.578968, -6.716568], [143.584552, -6.729046], [143.588741, -6.745682], [143.597117, -6.759546], [143.613869, -6.767864], [143.63481, -6.772023], [143.644582, -6.781727], [143.651562, -6.80252], [143.661335, -6.823313], [143.680879, -6.834402], [143.706008, -6.842719], [143.721364, -6.852422], [143.738117, -6.874598], [143.766038, -6.902317], [143.781394, -6.918948], [143.807919, -6.934193], [143.837236, -6.941122], [143.873533, -6.959137], [143.893077, -6.979923], [143.918206, -7.017335], [143.937751, -7.065828], [143.992196, -7.165569], [144.020117, -7.207121], [144.05083, -7.248669], [144.081543, -7.297138], [144.088523, -7.320677], [144.11784, -7.486806], [144.123424, -7.65287], [144.126216, -7.670857], [144.167391, -7.709285], [144.169723, -7.723152], [144.169723, -7.802875], [144.174388, -7.815584], [144.586021, -8.193183], [144.593018, -8.1978], [144.500649, -8.290144], [144.401523, -8.425983], [144.298029, -8.648412], [144.241837, -8.92937], [144.073262, -9.210329], [143.876591, -9.350808], [143.579146, -9.411558], [143.539441, -9.435096], [143.444123, -9.540444], [143.379681, -9.663192], [143.314674, -9.800342], [143.330582, -9.966993], [143.314674, -9.997013], [143.278414, -10.006886], [143.20229, -9.997013], [143.091223, -10.01916], [142.977524, -10.053205], [142.867208, -10.111221], [142.780853, -10.193684], [142.668469, -10.418451], [142.624781, -10.510152], [142.584888, -10.568457], [142.556086, -10.587026], [142.526583, -10.60835], [142.465209, -10.626763], [142.443702, -10.643217], [142.431453, -10.675862], [142.387511, -10.867984], [142.330186, -11.083998], [142.331319, -11.120847], [142.339392, -11.163785], [142.387511, -11.345614], [142.471798, -11.823243], [142.556086, -12.244681], [142.584182, -12.413256], [142.664674, -12.716545], [142.676949, -12.851568], [142.696565, -12.918982], [142.716842, -12.96511], [142.921332, -13.312324], [143.118003, -13.508995], [143.174195, -13.67757], [143.174195, -13.846145], [143.161803, -13.974711], [143.174195, -14.01472], [143.455153, -14.464254], [143.567537, -14.717116], [143.595632, -14.885692], [143.595632, -15.082362], [143.623728, -15.616184], [143.637451, -15.806724], [143.651824, -15.840951], [143.677344, -15.880372], [143.797024, -15.978571], [143.820399, -16.009526], [143.839985, -16.049151], [143.960878, -16.430964], [143.978077, -16.558555], [143.988974, -16.599539], [144.101358, -16.740018], [144.288015, -16.939073], [144.315633, -16.957485], [144.453725, -17.01579], [144.4947, -17.049072], [144.578987, -17.189552], [144.747562, -17.442414], [144.888042, -17.723373], [144.972329, -17.920044], [145.009159, -18.074491], [145.028521, -18.116715], [145.140904, -18.257194], [145.281384, -18.481961], [145.50615, -18.734824], [145.64663, -18.903399], [145.787109, -18.987686], [145.83157, -19.016581], [145.954318, -19.151604], [145.98378, -19.184357], [146.000348, -19.209909], [146.015692, -19.305039], [146.039972, -19.352932], [146.126165, -19.421649], [146.180451, -19.43722], [146.489505, -19.493412], [146.714272, -19.549603], [146.967135, -19.633891], [147.107614, -19.718178], [147.304285, -19.886754], [147.47286, -20.139616], [147.669531, -20.336287], [148.036244, -20.580283], [148.188743, -20.732783], [148.332412, -20.978139], [148.433078, -21.078805], [148.567299, -21.196249], [148.785409, -21.431136], [149.003518, -21.749912], [149.171295, -22.051909], [149.322293, -22.437795], [149.348297, -22.484209], [149.372847, -22.527171], [149.415808, -22.563995], [149.471045, -22.606957], [149.523625, -22.639127], [149.926289, -22.857237], [150.211509, -22.991458], [150.496729, -23.125679], [150.538952, -23.153185], [150.578845, -23.177735], [150.615669, -23.214559], [150.643287, -23.26059], [150.664506, -23.293456], [150.695455, -23.389475], [150.714839, -23.427677], [150.738417, -23.453917], [150.798727, -23.494788], [151.016837, -23.629009], [151.287354, -23.863356]]]}}
]
}
