{
"type": "FeatureCollection",
"features": [
{"type": "Feature", "properties": {"ProjectID": "P1186"}, "geometry": {"type": "MultiLineString", "coordinates": [[[141.10836, -37.243141], [141.10816, -37.243122], [141.105984, -37.244207], [141.105638, -37.246871], [141.105273, -37.247271], [141.105522, -37.247769], [141.105438, -37.248414], [141.105103, -37.249587], [141.105414, -37.250311], [141.101921, -37.271213], [141.102093, -37.271485], [141.101113, -37.277373], [141.10105, -37.277534], [141.100993, -37.277876], [141.101003, -37.278038], [141.099761, -37.285498], [141.099544, -37.28563], [141.091039, -37.284776], [141.08993, -37.284667], [141.081596, -37.283839], [141.081337, -37.283819], [141.072236, -37.282932], [141.071815, -37.283175], [141.071607, -37.283615], [141.071523, -37.284525], [141.07134, -37.285304], [141.070341, -37.291683], [141.072225, -37.293584], [141.071938, -37.296033], [141.070848, -37.296939], [141.070431, -37.302003], [141.070082, -37.305137], [141.067684, -37.308989], [141.06642, -37.3171], [141.064537, -37.317415], [141.064218, -37.318324], [141.062901, -37.319019], [141.062689, -37.319095], [141.062398, -37.319248], [141.062304, -37.319258], [141.06111, -37.319122], [141.058335, -37.318885], [141.058248, -37.318904], [141.04474, -37.317693], [141.044183, -37.317801], [141.04107, -37.317492], [141.040686, -37.31708], [141.038639, -37.316677], [141.032076, -37.315965], [141.025819, -37.312354], [141.025216, -37.312418], [141.010466, -37.326972], [141.010359, -37.32704], [141.0103, -37.32709], [141.01025, -37.32717], [141.005716, -37.330997], [141.003863, -37.330996], [141.003873, -37.332592], [141.003035, -37.333057], [141.002489, -37.333372], [140.997469, -37.336163], [140.996913, -37.33641], [140.987178, -37.341824], [140.986832, -37.342097], [140.985997, -37.342481], [140.985086, -37.342988], [140.982702, -37.342509], [140.981446, -37.340856], [140.98074, -37.341193], [140.97417, -37.342653], [140.973845, -37.34264], [140.973116, -37.342862]], [[140.842437, -37.411567], [140.836352, -37.415006], [140.835416, -37.415336], [140.827734, -37.419063], [140.815077, -37.425593], [140.800484, -37.432634], [140.800281, -37.432644], [140.799295, -37.432281], [140.799104, -37.432339]], [[140.973116, -37.342862], [140.967884, -37.344271], [140.951587, -37.346812], [140.951338, -37.346185], [140.949717, -37.346441], [140.949101, -37.346578], [140.943706, -37.347428], [140.926533, -37.355247], [140.926157, -37.356472], [140.926208, -37.357597], [140.924387, -37.361589], [140.918881, -37.364592], [140.914669, -37.366139], [140.908668, -37.368651], [140.906225, -37.369185], [140.903393, -37.369317], [140.899345, -37.370319], [140.895336, -37.369605], [140.894949, -37.369706], [140.893819, -37.371341], [140.893041, -37.374749], [140.892878, -37.374847], [140.89131, -37.374881], [140.889629, -37.376014], [140.887244, -37.379252], [140.885743, -37.382147], [140.884357, -37.38319], [140.882461, -37.384163], [140.881988, -37.385106], [140.880216, -37.386292], [140.877677, -37.389632], [140.874868, -37.394629], [140.874657, -37.39525], [140.865581, -37.401869], [140.854911, -37.401417], [140.850847, -37.405157], [140.843302, -37.411223], [140.842437, -37.411567]], [[140.842437, -37.411567], [140.837249, -37.411276], [140.836307, -37.411114], [140.831661, -37.410887], [140.830253, -37.411147], [140.829945, -37.411435], [140.820334, -37.413209], [140.818921, -37.413282], [140.814806, -37.416113], [140.808416, -37.424469], [140.804687, -37.426231], [140.804041, -37.426074], [140.803849, -37.426129], [140.800024, -37.430652], [140.799104, -37.432339]], [[140.799104, -37.432339], [140.797751, -37.434712], [140.797074, -37.435148], [140.796444, -37.436098], [140.795746, -37.436666], [140.794955, -37.437813], [140.794387, -37.439888], [140.79372, -37.440549], [140.79312, -37.44188], [140.792577, -37.442686], [140.791816, -37.444343], [140.78959, -37.44626], [140.789359, -37.446523], [140.788236, -37.448977], [140.787688, -37.45049], [140.787703, -37.451166], [140.78772, -37.451972], [140.786937, -37.452579], [140.786648, -37.452559], [140.786166, -37.452526], [140.782893, -37.453778], [140.782478, -37.454388], [140.782091, -37.455319], [140.782056, -37.455461], [140.782028, -37.455497]]]}}
]
}
