{
"type": "FeatureCollection",
"features": [
{"type": "Feature", "properties": {"ProjectID": "P1198"}, "geometry": {"type": "LineString", "coordinates": [[146.151187, -32.688097], [146.251803, -32.659914], [146.30774, -32.641505], [146.356597, -32.612474], [146.387044, -32.567157], [146.452558, -32.517902], [146.510161, -32.47758], [146.577364, -32.444939], [146.646487, -32.414217], [146.69833, -32.375815], [146.732892, -32.356614], [146.782814, -32.312452], [146.802015, -32.283651], [146.863458, -32.235648], [147.132272, -32.07052], [147.187955, -32.039798], [147.205236, -32.018677], [147.230197, -31.989876], [147.2878, -31.970675], [147.351163, -31.943794], [147.443328, -31.886191], [147.508611, -31.849709], [147.560453, -31.817067], [147.618056, -31.755624], [147.68334, -31.66538], [147.712141, -31.611617], [147.742863, -31.578975], [147.763984, -31.559774], [147.763984, -31.546334], [147.792785, -31.506012], [147.817746, -31.48297], [147.823507, -31.46761], [147.825427, -31.448409], [147.835027, -31.396566], [147.861909, -31.333203], [147.877269, -31.298641], [147.89263, -31.27944], [147.919511, -31.258319], [147.961754, -31.219917], [147.994395, -31.179595], [148.028957, -31.143113], [148.069279, -31.100871], [148.100001, -31.043268], [148.101921, -31.006786], [148.113441, -30.962624], [148.130722, -30.916542], [148.159524, -30.858939], [148.203686, -30.810937], [148.226727, -30.768695], [148.263209, -30.739893], [148.29777, -30.722612], [148.336172, -30.699571], [148.351533, -30.67269], [148.374574, -30.641968], [148.451378, -30.572845], [148.505141, -30.532523], [148.532022, -30.509481], [148.564664, -30.47876], [148.614586, -30.444198], [148.651068, -30.419237], [148.676029, -30.400036], [148.697151, -30.390435], [148.725952, -30.384675], [148.777795, -30.382755], [148.837318, -30.388515], [148.898761, -30.394276], [148.941003, -30.398116], [148.969804, -30.396196], [149.019727, -30.392356], [149.056209, -30.386595], [149.094611, -30.388515], [149.152213, -30.392356], [149.227097, -30.401956], [149.27702, -30.409636], [149.332703, -30.417317], [149.401826, -30.419237], [149.447908, -30.419237], [149.53393, -30.408639], [149.592009, -30.397853], [149.645939, -30.382918], [149.729864, -30.336045]]}}
]
}
