{
"type": "FeatureCollection",
"features": [
{"type": "Feature", "properties": {"ProjectID": "P1202"}, "geometry": {"type": "LineString", "coordinates": [[142.95694, -38.674885], [142.955994, -38.676064], [142.954132, -38.677834], [142.951996, -38.679401], [142.774948, -38.793751], [142.773834, -38.794422], [142.771469, -38.795601], [142.768936, -38.796543], [142.766281, -38.797241], [142.764908, -38.797493], [142.762131, -38.797798], [142.759338, -38.79784], [142.757935, -38.797756], [142.755173, -38.797398], [142.698349, -38.787174]]}}
]
}
