{
"type": "FeatureCollection",
"features": [
{"type": "Feature", "id": 1, "properties": {"ProjectID": "P1206", "id": 1, "Name": "Maui Pipeline"}, "geometry": {"type": "LineString", "coordinates": [[175.149283, -37.543707], [175.178391, -37.638398], [175.17745, -37.715132], [175.206847, -37.795003], [175.252336, -37.870964], [175.294169, -38.081316], [175.210746, -38.184243], [175.169156, -38.248575], [175.089874, -38.359746], [174.984598, -38.457517], [174.918314, -38.506352], [174.826035, -38.581576], [174.746754, -38.62525], [174.67527, -38.66484], [174.650375, -38.71658], [174.630029, -38.749909], [174.619856, -38.803839], [174.627995, -38.868817], [174.516091, -38.985945], [174.371634, -39.014406], [174.284703, -39.017995], [174.198623, -39.058509], [174.099051, -39.092664], [173.995663, -39.120848], [173.92541, -39.170662], [173.873278, -39.242572], [173.813888, -39.401418]]}}
]
}
