{
"type": "FeatureCollection",
"features": [
{"type": "Feature", "properties": {"ProjectID": "P1268"}, "geometry": {"type": "MultiLineString", "coordinates": [[[-100.16837, 20.463511], [-100.170614, 20.477978], [-100.184873, 20.508801], [-100.209004, 20.536537], [-100.22436, 20.549889], [-100.244104, 20.580698], [-100.266041, 20.621767], [-100.273719, 20.632033], [-100.274816, 20.654614], [-100.294559, 20.67514], [-100.296753, 20.684376], [-100.305528, 20.694637], [-100.31869, 20.697715], [-100.337337, 20.72439], [-100.343918, 20.735675], [-100.355983, 20.745933], [-100.37463, 20.760292], [-100.398761, 20.78388], [-100.396567, 20.794135], [-100.394374, 20.802338], [-100.398761, 20.814642], [-100.402052, 20.823869], [-100.400955, 20.859747], [-100.39547, 20.873071], [-100.399858, 20.883319], [-100.404245, 20.904839], [-100.429473, 20.954014], [-100.429473, 20.966306], [-100.426183, 20.989861], [-100.462379, 21.034914], [-100.488704, 21.051293], [-100.505157, 21.053341], [-100.54574, 21.094281], [-100.552322, 21.108607], [-100.557806, 21.133163], [-100.564387, 21.149532], [-100.587421, 21.179195], [-100.60168, 21.198627], [-100.59839, 21.279393], [-100.596196, 21.290636], [-100.600584, 21.301877], [-100.599487, 21.328445], [-100.610455, 21.352965], [-100.611552, 21.398928], [-100.618133, 21.415267], [-100.623618, 21.432625], [-100.640071, 21.458148], [-100.660911, 21.486729], [-100.664201, 21.502037], [-100.672976, 21.50816], [-100.682848, 21.522446], [-100.686139, 21.535711], [-100.699301, 21.544893], [-100.694914, 21.558155], [-100.704785, 21.567336], [-100.703688, 21.580596], [-100.715754, 21.593856], [-100.716851, 21.611192], [-100.734401, 21.642801], [-100.734401, 21.657074], [-100.746466, 21.671346], [-100.74866, 21.70498], [-100.745369, 21.718227], [-100.754144, 21.724341], [-100.754144, 21.762038], [-100.755241, 21.777317], [-100.761822, 21.793614], [-100.768403, 21.802779], [-100.772791, 21.823146], [-100.788772, 21.833923], [-100.79875, 21.85288], [-100.794759, 21.872836], [-100.808229, 21.883811], [-100.839112, 21.89685], [-100.859744, 21.896687]]]}}
]
}
