{
"type": "FeatureCollection",
"features": [
{"type": "Feature", "properties": {"ProjectID": "P1271"}, "geometry": {"type": "LineString", "coordinates": [[-97.611449, 21.4644], [-97.702, 21.46925], [-97.7599, 21.4488], [-97.8178, 21.43932], [-97.8484, 21.44031], [-97.9545, 21.41087], [-98.1089, 21.42734], [-98.2183, 21.41233], [-98.260983, 21.40535], [-98.3775, 21.40383], [-98.4526, 21.39834], [-98.4822, 21.39559], [-98.5444, 21.38463], [-98.5878, 21.36864], [-98.6254, 21.33115], [-98.6548, 21.31369], [-98.7015, 21.30472], [-98.713658, 21.305], [-98.75612, 21.31021]]}}
]
}
