{
"type": "FeatureCollection",
"features": [
{"type": "Feature", "properties": {"ProjectID": "P1275", "id": 1}, "geometry": {"type": "MultiLineString", "coordinates": [[[-42.839, -25.398], [-42.839195, -25.399806], [-42.924059, -25.137568], [-42.69813, -24.993856], [-42.732564, -24.901252], [-42.764229, -24.805587], [-42.722296, -24.727635], [-42.701841, -24.642327], [-42.683764, -24.576357], [-42.647727, -24.504051], [-42.631383, -24.456437], [-42.655062, -24.416353], [-42.703994, -24.389301], [-42.747792, -24.364578], [-42.795774, -24.335068], [-42.847846, -24.27337], [-42.841324, -24.245083], [-42.790574, -24.188339], [-42.732678, -24.131989], [-42.68639, -24.079332], [-42.642616, -24.030764], [-42.608879, -23.997679], [-42.613956, -23.94231], [-42.608662, -23.902575], [-42.491837, -23.823631], [-42.33494, -23.710606], [-42.182143, -23.40571], [-41.46573, -22.752727], [-41.572553, -22.479923], [-41.625831, -22.423317], [-41.664717, -22.336325], [-41.71687, -22.286138]]]}}
]
}
