{
"type": "FeatureCollection",
"features": [
{"type": "Feature", "properties": {"ProjectID": "P1290", "TAG": "122064745", "SHAPE.LEN": 335975.593726277, "LOCALIDAD": "TGP", "OBJECTID": 276185, "ASSETGROUP": 3, "ASSETTYPE": 3, "ASSOCIATIONSTATUS": 0, "ISCONNECTED": 0, "FROMDEVICETERMINAL": 0, "TODEVICETERMINAL": 0, "CREATIONDATE": null, "CREATOR": null, "LASTUPDATE": null, "UPDATEDBY": null, "GLOBALID": "{00000000-0000-0000-0000-000000000000}", "REGULATORYTYPE": 3, "PINCHABLE": 2, "PIGGABLE": 2, "WARNINGTAPE": 0, "TRACERWIRE": 2, "SEAMTYPE": null, "LONGSEAMTYPE": null, "GIRTHWELDTYPE": null, "LONGITUDINALSEAMORIENTATION": null, "PIPESURFACEAREA": null, "INSTALLATIONDATE": null, "INSTALLATIONMETHOD": 0, "ASSETID": "TGP", "OWNEDBY": 0, "MAINTBY": 0, "LIFECYCLESTATUS": 3, "NOMINALDIAMETER": null, "OPERATINGPRESSURE": null, "MAOPDESIGN": null, "MAOPTEST": null, "MAOPRECORD": null, "MEASUREDLENGTH": 335975.59372628, "LENGTHSOURCE": 0, "WALLTHICKNESS": null, "OUTSIDEDIAMETER": null, "BARCODE": null, "MANUFACTURER": null, "MANUFACTURERLOTNO": null, "MANUFACTUREDATE": null, "MANUFACTURECOMPONENT": null, "MATERIAL": null, "SYSTEMSUBNETWORKNAME": "Red Interna", "PRESSURESUBNETWORKNAME": " ", "ISOLATIONSUBNETWORKNAME": " ", "CPSUBNETWORKNAME": " ", "PIPEVOLUME": null, "COMMODITY": 1, "ACTUALINTERNALDIAMETER": null, "COVERTYPE": "0", "ORIGINALCOVERDEPTH": null, "DEPTHUNITS": 4, "PRIMARYCOATINGAPPDATE": null, "SECONDARYCOATINGTYPE": null, "SECONDARYCOATINGAPPDATE": null, "TERTIARYCOATINGTYPE": null, "TERTIARYCOATINGAPPDATE": null, "SMYS": null, "PORCENTAJE_MYS": null, "DATERETIRED": null, "CRITICALINDICATOR": 2, "STUBBED": null, "DESIGNCLASS": null, "SPATIALACCURACY": 6, "PIPETESTDATE": null, "PIPETESTDURATION": null, "PIPETESTPRESSURE": null, "PIPETESTTYPE": null, "DESIGNPRESSUREENTERED": null, "DESIGNPRESSURESTANDARD": null, "DESIGNPRESSUREUNITS": 1, "DESIGNFACTOR": null, "COLOR": null, "DEPTH": null, "WIRESIZE": null, "GAUGE": null, "WIREMATERIAL": null, "SERVICESUMMARYID": null, "WORKORDERID": null, "PROJECTNUMBER": null, "LEGACYID": "276185", "ASSETUNITCODE": null, "PRESSUREUNITS": 1, "MAOPUNITS": 1, "LENGTHUNITS": 3, "DIAMETERUNITS": null, "PIPESURFACEAREAUNITS": 3, "PIPEVOLUMEUNITS": 3, "COMMENTS": "TGP", "EVENTID": null, "FROMDATE": null, "TODATE": null, "ENGROUTEID": null, "ENGROUTENAME": null, "ENGFROMM": null, "ENGTOROUTEID": null, "ENGTOROUTENAME": null, "ENGTOM": null, "CONTINROUTEID": null, "CONTINROUTENAME": null, "CONTINFROMM": null, "CONTINTOM": null, "FROMREFMETHOD": null, "FROMREFLOCATION": null, "FROMREFOFFSET": null, "TOREFMETHOD": null, "TOREFLOCATION": null, "TOREFOFFSET": null, "LOCATIONERROR": null, "DEPARTAMENTO": null, "PROVINCIA": null, "DISTRITO": null, "ENABLED": 1, "FJUNCTION": null, "TJUNCTION": null, "CODIGOTRAMO": "122064745", "TRAMOPADRE": null, "ETAPA": null, "FECHARETIRO": null, "PROYECTO": null, "LONGITUDREAL": null, "CALIFICACION": null, "CARACTERISTICA": null, "CODIGOPROYECTO": null, "CODIGOVNR": null, "CODIGOVNRADAPTADO": null, "CONTRATISTA": null, "DIAMETRO": null, "ESTADO": null, "ESTADOVNR": null, "MATERIALVNR": null, "PRESION": null, "PROPIETARIO": null, "PROFUNDIDAD": null, "RED": null, "PRESIONPR": null, "PRESIONPRUEBA": null, "TIPOELEMENTO": "TUB", "TIPOGASODUCTO": null, "TIPOPAVIMENTO": null, "TIPOSUELO": null, "OSINERG": null, "SECTOR_MANTENIMIENTO": null, "SECTORCOMERCIAL": null, "ZONAGASIFICACION": null, "MAPO": null, "MAPOAJUSTADA": null, "PRIMARYCOATINGTYPE": null, "CODIGO": null, "INSERVICEDATE": null, "FECHACONSTRUCCION": null, "CODIGOVNR_C": null, "SECTORHANNA": null, "NOMBREMALLA": null, "CODIGOMALLA": null, "CODIGOVALVULA": null, "VNR_OBSER": null, "PROFUNDIDADACOMETIDA": null, "L_REAL": null, "L_HZ": null, "L_VE": null, "CODPROYECTOINTERNO": null, "DENOMINACIONPROYECTO": null, "TAGACOMETIDA": null, "TIPOPROYECTO": null, "NOMBREPROYECTO": null, "AÑO": null}, "geometry": {"type": "LineString", "coordinates": [[-73.528253, -12.923385], [-73.528442, -12.923677], [-73.528664, -12.924049], [-73.528784, -12.92424], [-73.529107, -12.924751], [-73.529281, -12.925019], [-73.529587, -12.925492], [-73.530252, -12.926524], [-73.530385, -12.926728], [-73.53053, -12.926959], [-73.530614, -12.927074], [-73.530743, -12.927264], [-73.530926, -12.927402], [-73.531098, -12.927531], [-73.533399, -12.929213], [-73.533636, -12.929375], [-73.533922, -12.929571], [-73.53417, -12.929741], [-73.534393, -12.929778], [-73.535888, -12.929473], [-73.536622, -12.929275], [-73.536851, -12.929238], [-73.537743, -12.929028], [-73.53859, -12.928843], [-73.539316, -12.928523], [-73.540023, -12.92797], [-73.540728, -12.927672], [-73.541513, -12.927543], [-73.542117, -12.927253], [-73.542472, -12.927023], [-73.542776, -12.926827], [-73.543843, -12.926506], [-73.544471, -12.92647], [-73.545736, -12.926963], [-73.546507, -12.927414], [-73.547246, -12.927565], [-73.548349, -12.92765], [-73.550466, -12.927714], [-73.550904, -12.927638], [-73.55207, -12.9269], [-73.552778, -12.926512], [-73.553286, -12.926658], [-73.553893, -12.926508], [-73.554214, -12.92632], [-73.554586, -12.926293], [-73.555163, -12.926454], [-73.555645, -12.926592], [-73.556485, -12.927215], [-73.556753, -12.927522], [-73.55774, -12.928344], [-73.558571, -12.928919], [-73.560828, -12.929636], [-73.561447, -12.929716], [-73.562424, -12.929868], [-73.56353, -12.929772], [-73.564363, -12.92982], [-73.565186, -12.929861], [-73.568356, -12.930619], [-73.56881, -12.930719], [-73.569036, -12.930696], [-73.569905, -12.930463], [-73.570703, -12.930516], [-73.571109, -12.930982], [-73.571615, -12.93112], [-73.572438, -12.931521], [-73.572705, -12.931491], [-73.573229, -12.931328], [-73.573629, -12.931288], [-73.574741, -12.931601], [-73.575797, -12.931668], [-73.576022, -12.931686], [-73.576478, -12.931584], [-73.577626, -12.931498], [-73.578144, -12.931382], [-73.578613, -12.931386], [-73.578913, -12.931366], [-73.579416, -12.931319], [-73.579663, -12.931315], [-73.579976, -12.931252], [-73.580782, -12.931107], [-73.581162, -12.931166], [-73.581398, -12.931247], [-73.582148, -12.931828], [-73.582393, -12.932071], [-73.583143, -12.932711], [-73.583433, -12.932978], [-73.584553, -12.9337], [-73.586226, -12.934207], [-73.586429, -12.934569], [-73.586162, -12.935644], [-73.586111, -12.936479], [-73.585938, -12.936938], [-73.585937, -12.937182], [-73.586047, -12.937881], [-73.586236, -12.938449], [-73.586356, -12.9395], [-73.586302, -12.939762], [-73.586509, -12.93985], [-73.587123, -12.940015], [-73.58773, -12.941541], [-73.588108, -12.942174], [-73.588557, -12.942925], [-73.588885, -12.943537], [-73.589177, -12.943828], [-73.589693, -12.944436], [-73.590877, -12.9449], [-73.591939, -12.944866], [-73.592959, -12.944927], [-73.593532, -12.945041], [-73.593734, -12.945152], [-73.594061, -12.945536], [-73.59457, -12.945951], [-73.595422, -12.94618], [-73.595899, -12.946527], [-73.596213, -12.947064], [-73.597503, -12.947602], [-73.598189, -12.948203], [-73.598729, -12.949261], [-73.5989, -12.949733], [-73.599174, -12.950116], [-73.599833, -12.950672], [-73.599937, -12.950908], [-73.59987, -12.951526], [-73.600085, -12.952469], [-73.60031, -12.952871], [-73.600474, -12.953865], [-73.600684, -12.954754], [-73.60089, -12.955408], [-73.600927, -12.955683], [-73.600514, -12.956616], [-73.600473, -12.957001], [-73.600994, -12.957371], [-73.602151, -12.95804], [-73.602639, -12.958276], [-73.603089, -12.958482], [-73.603593, -12.958378], [-73.604472, -12.958298], [-73.605467, -12.958169], [-73.606366, -12.958069], [-73.606718, -12.958099], [-73.607437, -12.95809], [-73.60877, -12.958036], [-73.609081, -12.957931], [-73.609338, -12.957905], [-73.609606, -12.95797], [-73.609949, -12.958236], [-73.610232, -12.958268], [-73.610488, -12.958145], [-73.610674, -12.957996], [-73.610803, -12.958013], [-73.611158, -12.958249], [-73.611327, -12.958244], [-73.611576, -12.958174], [-73.611599, -12.958036], [-73.611366, -12.957713], [-73.611397, -12.957551], [-73.611961, -12.957001], [-73.61195, -12.956368], [-73.612205, -12.956108], [-73.612533, -12.955967], [-73.612862, -12.95568], [-73.612909, -12.955526], [-73.61296, -12.95525], [-73.613123, -12.955126], [-73.613398, -12.955058], [-73.613757, -12.955095], [-73.614271, -12.954905], [-73.615107, -12.954326], [-73.615283, -12.954124], [-73.615465, -12.954016], [-73.615817, -12.954026], [-73.616224, -12.953996], [-73.61692, -12.954281], [-73.617384, -12.954555], [-73.61805, -12.954593], [-73.618577, -12.954291], [-73.619071, -12.954627], [-73.619868, -12.954641], [-73.62029, -12.954768], [-73.620505, -12.955359], [-73.620623, -12.956107], [-73.620971, -12.956451], [-73.621593, -12.956142], [-73.621922, -12.956109], [-73.622306, -12.956236], [-73.622904, -12.956106], [-73.623731, -12.955859], [-73.624677, -12.95592], [-73.624907, -12.956445], [-73.625254, -12.956907], [-73.625363, -12.957215], [-73.625925, -12.957242], [-73.626667, -12.956806], [-73.627328, -12.957085], [-73.628347, -12.957384], [-73.628789, -12.95735], [-73.629161, -12.957253], [-73.630472, -12.957892], [-73.63097, -12.958464], [-73.634305, -12.95909], [-73.634325, -12.959443], [-73.634435, -12.9599], [-73.634911, -12.960309], [-73.634869, -12.960481], [-73.634431, -12.960745], [-73.634326, -12.960945], [-73.634372, -12.961249], [-73.635085, -12.96148], [-73.635795, -12.961513], [-73.636051, -12.961793], [-73.636813, -12.961513], [-73.637041, -12.961289], [-73.638052, -12.961391], [-73.638901, -12.962144], [-73.639136, -12.962727], [-73.63943, -12.96335], [-73.639833, -12.963842], [-73.639959, -12.964134], [-73.640273, -12.964693], [-73.640363, -12.965035], [-73.640511, -12.965338], [-73.640604, -12.965857], [-73.640854, -12.966648], [-73.641353, -12.96706], [-73.641946, -12.96775], [-73.642178, -12.968217], [-73.642948, -12.968601], [-73.64366, -12.969306], [-73.644088, -12.969441], [-73.644307, -12.969383], [-73.644667, -12.969186], [-73.644965, -12.96928], [-73.645477, -12.969872], [-73.645645, -12.970137], [-73.645983, -12.970433], [-73.646468, -12.97069], [-73.647767, -12.970895], [-73.648162, -12.970892], [-73.64879, -12.971238], [-73.649449, -12.971635], [-73.650479, -12.971737], [-73.651038, -12.97214], [-73.651153, -12.972373], [-73.650962, -12.972681], [-73.650178, -12.973334], [-73.649856, -12.973937], [-73.64948, -12.97436], [-73.649024, -12.976732], [-73.649026, -12.976895], [-73.649236, -12.977074], [-73.649715, -12.976997], [-73.65052, -12.976639], [-73.651311, -12.976928], [-73.652015, -12.977247], [-73.653102, -12.977647], [-73.65362, -12.977685], [-73.654199, -12.977332], [-73.654639, -12.97743], [-73.655107, -12.977804], [-73.655332, -12.978048], [-73.65571, -12.978425], [-73.655679, -12.978778], [-73.655108, -12.979312], [-73.65498, -12.979697], [-73.655097, -12.980616], [-73.65485, -12.981213], [-73.654925, -12.9819], [-73.655235, -12.982488], [-73.655466, -12.98284], [-73.655659, -12.983796], [-73.655499, -12.984745], [-73.655513, -12.984981], [-73.655612, -12.985414], [-73.655538, -12.985913], [-73.655608, -12.986607], [-73.655404, -12.986882], [-73.654574, -12.987572], [-73.654541, -12.987662], [-73.654592, -12.987709], [-73.654768, -12.987802], [-73.655453, -12.987624], [-73.65602, -12.987531], [-73.656275, -12.987391], [-73.656546, -12.987191], [-73.65668, -12.987241], [-73.656978, -12.987693], [-73.657446, -12.988591], [-73.657978, -12.989509], [-73.65853, -12.989665], [-73.658959, -12.990504], [-73.658951, -12.991168], [-73.659037, -12.991944], [-73.658802, -12.992213], [-73.658539, -12.992972], [-73.658122, -12.99339], [-73.658074, -12.993749], [-73.658231, -12.993984], [-73.658542, -12.994158], [-73.658788, -12.99442], [-73.659673, -12.994906], [-73.660286, -12.995212], [-73.660361, -12.995561], [-73.660342, -12.995817], [-73.660457, -12.996532], [-73.660545, -12.996716], [-73.660977, -12.997118], [-73.661014, -12.997691], [-73.661223, -12.997988], [-73.661745, -12.998425], [-73.662613, -12.998754], [-73.662799, -12.998992], [-73.663155, -12.99919], [-73.663568, -12.999342], [-73.664378, -12.999458], [-73.664668, -12.999456], [-73.664887, -12.999381], [-73.665061, -12.999423], [-73.665374, -12.999582], [-73.666056, -13.000662], [-73.665855, -13.001318], [-73.665963, -13.002716], [-73.66608, -13.003309], [-73.666229, -13.003559], [-73.666816, -13.004258], [-73.666029, -13.004845], [-73.665458, -13.004997], [-73.665312, -13.005247], [-73.665381, -13.005631], [-73.665819, -13.006432], [-73.666028, -13.006826], [-73.666277, -13.007315], [-73.666443, -13.00749], [-73.666702, -13.007754], [-73.666996, -13.007827], [-73.667259, -13.007781], [-73.667484, -13.007811], [-73.667657, -13.008328], [-73.668214, -13.008484], [-73.668717, -13.008978], [-73.668669, -13.009446], [-73.668493, -13.009951], [-73.668388, -13.010121], [-73.667983, -13.010368], [-73.667785, -13.010625], [-73.667632, -13.010788], [-73.667417, -13.010966], [-73.667253, -13.011141], [-73.666769, -13.011889], [-73.666643, -13.012418], [-73.66672, -13.012851], [-73.666971, -13.013113], [-73.667358, -13.013338], [-73.667629, -13.01347], [-73.667743, -13.013574], [-73.667836, -13.013821], [-73.668028, -13.014123], [-73.668264, -13.014327], [-73.668396, -13.014451], [-73.668747, -13.014529], [-73.668931, -13.014668], [-73.669249, -13.015025], [-73.669364, -13.01504], [-73.670006, -13.014967], [-73.671095, -13.01557], [-73.671252, -13.015815], [-73.671504, -13.016067], [-73.671662, -13.016326], [-73.67194, -13.016511], [-73.672156, -13.016727], [-73.672233, -13.017006], [-73.67226, -13.017524], [-73.672344, -13.017972], [-73.672508, -13.01843], [-73.672708, -13.018636], [-73.673021, -13.0189], [-73.673232, -13.019548], [-73.673605, -13.020167], [-73.674035, -13.020818], [-73.67439, -13.02095], [-73.674719, -13.021076], [-73.67501, -13.021386], [-73.675004, -13.021568], [-73.674527, -13.022485], [-73.674506, -13.022753], [-73.67466, -13.023158], [-73.674586, -13.023416], [-73.674193, -13.023964], [-73.674166, -13.024669], [-73.674002, -13.025738], [-73.674214, -13.026694], [-73.674588, -13.027117], [-73.675497, -13.027623], [-73.675892, -13.02799], [-73.676311, -13.028093], [-73.676519, -13.02829], [-73.676868, -13.029073], [-73.677295, -13.029545], [-73.677633, -13.030129], [-73.678272, -13.03102], [-73.678434, -13.031855], [-73.678563, -13.032561], [-73.678456, -13.033148], [-73.678508, -13.033408], [-73.67905, -13.03386], [-73.679358, -13.034695], [-73.679399, -13.035242], [-73.679644, -13.035927], [-73.679957, -13.03658], [-73.680644, -13.038466], [-73.680875, -13.038785], [-73.681117, -13.039247], [-73.681571, -13.039644], [-73.681827, -13.040003], [-73.682104, -13.040238], [-73.682511, -13.040418], [-73.683673, -13.04114], [-73.6844, -13.041295], [-73.684833, -13.041357], [-73.685137, -13.041549], [-73.686206, -13.042108], [-73.686463, -13.04233], [-73.686817, -13.0427], [-73.687345, -13.042921], [-73.687595, -13.042977], [-73.68817, -13.043309], [-73.688389, -13.043649], [-73.68905, -13.044541], [-73.689241, -13.044948], [-73.689517, -13.045569], [-73.689979, -13.046118], [-73.6912, -13.046778], [-73.692539, -13.047447], [-73.69287, -13.047683], [-73.693378, -13.048263], [-73.694183, -13.04875], [-73.694902, -13.04888], [-73.695053, -13.048964], [-73.69518, -13.049107], [-73.69545, -13.049742], [-73.695436, -13.050163], [-73.695527, -13.050544], [-73.696692, -13.05131], [-73.699105, -13.053248], [-73.700639, -13.054207], [-73.703212, -13.054722], [-73.704666, -13.05504], [-73.705768, -13.05506], [-73.706968, -13.05541], [-73.707309, -13.055552], [-73.708492, -13.05637], [-73.7092, -13.057266], [-73.709591, -13.057867], [-73.709492, -13.058408], [-73.709258, -13.058777], [-73.709059, -13.059259], [-73.709358, -13.061344], [-73.70937, -13.061733], [-73.710066, -13.062279], [-73.710588, -13.062467], [-73.711105, -13.062975], [-73.711432, -13.06396], [-73.711572, -13.06408], [-73.711999, -13.064194], [-73.712149, -13.064317], [-73.712215, -13.064485], [-73.712159, -13.06507], [-73.712263, -13.065532], [-73.712271, -13.065857], [-73.712289, -13.065989], [-73.712316, -13.066065], [-73.712476, -13.066083], [-73.712636, -13.065996], [-73.712737, -13.065844], [-73.712777, -13.06569], [-73.712843, -13.06512], [-73.713075, -13.064844], [-73.713765, -13.064411], [-73.713965, -13.063989], [-73.714077, -13.063487], [-73.714385, -13.063169], [-73.714734, -13.063015], [-73.71522, -13.063048], [-73.716061, -13.063385], [-73.716272, -13.063724], [-73.716303, -13.064707], [-73.716719, -13.065037], [-73.71722, -13.065556], [-73.717257, -13.066069], [-73.717348, -13.066454], [-73.717162, -13.06748], [-73.717686, -13.068018], [-73.718092, -13.06825], [-73.718295, -13.068796], [-73.718673, -13.06912], [-73.718993, -13.069837], [-73.719353, -13.070404], [-73.719908, -13.070381], [-73.720611, -13.070503], [-73.721106, -13.070367], [-73.721276, -13.070305], [-73.721588, -13.070248], [-73.722274, -13.07034], [-73.722608, -13.070535], [-73.722882, -13.070871], [-73.723476, -13.070973], [-73.723731, -13.071302], [-73.723726, -13.072226], [-73.724029, -13.072537], [-73.724615, -13.072806], [-73.725506, -13.07371], [-73.726414, -13.07369], [-73.726916, -13.073573], [-73.727199, -13.073613], [-73.728327, -13.074063], [-73.728587, -13.074085], [-73.728832, -13.074394], [-73.729428, -13.074799], [-73.73026, -13.074469], [-73.730531, -13.074688], [-73.730789, -13.074899], [-73.730954, -13.07499], [-73.731233, -13.075098], [-73.731467, -13.075324], [-73.731242, -13.075738], [-73.731114, -13.076003], [-73.730913, -13.076255], [-73.730547, -13.076492], [-73.730418, -13.076687], [-73.730256, -13.076881], [-73.730132, -13.077145], [-73.730071, -13.077334], [-73.729958, -13.077595], [-73.729826, -13.077811], [-73.729686, -13.078061], [-73.729606, -13.078241], [-73.72949, -13.078432], [-73.729393, -13.078628], [-73.729339, -13.078743], [-73.729309, -13.078921], [-73.729521, -13.079233], [-73.730187, -13.079138], [-73.73054, -13.0789], [-73.730932, -13.078084], [-73.731052, -13.077941], [-73.731154, -13.077854], [-73.731379, -13.077606], [-73.731486, -13.077526], [-73.731596, -13.077474], [-73.731787, -13.077394], [-73.731886, -13.077347], [-73.732237, -13.077178], [-73.73238, -13.077098], [-73.732619, -13.076875], [-73.732986, -13.076601], [-73.733141, -13.076472], [-73.733458, -13.076085], [-73.73356, -13.075956], [-73.733746, -13.075759], [-73.734029, -13.075519], [-73.734354, -13.075342], [-73.734603, -13.075248], [-73.734848, -13.075125], [-73.735116, -13.074895], [-73.7353, -13.074755], [-73.735459, -13.074591], [-73.735572, -13.074516], [-73.735729, -13.074467], [-73.73627, -13.074544], [-73.73672, -13.074348], [-73.737112, -13.07434], [-73.738019, -13.074445], [-73.738648, -13.074744], [-73.739269, -13.075156], [-73.739497, -13.075134], [-73.739852, -13.075313], [-73.740061, -13.075652], [-73.7407, -13.076035], [-73.741369, -13.076069], [-73.741784, -13.076024], [-73.742757, -13.076734], [-73.743319, -13.076734], [-73.743721, -13.07669], [-73.744052, -13.076715], [-73.744259, -13.077206], [-73.744635, -13.077467], [-73.74512, -13.077687], [-73.746597, -13.077679], [-73.746972, -13.07784], [-73.747668, -13.077907], [-73.749078, -13.077932], [-73.749768, -13.077487], [-73.751295, -13.077423], [-73.754125, -13.077245], [-73.755508, -13.077697], [-73.756317, -13.077666], [-73.75648, -13.077674], [-73.756965, -13.077727], [-73.757981, -13.078182], [-73.758966, -13.078145], [-73.760102, -13.077687], [-73.761405, -13.077172], [-73.762121, -13.076934], [-73.76502, -13.076357], [-73.767318, -13.076383], [-73.768889, -13.076557], [-73.770108, -13.076945], [-73.770895, -13.077633], [-73.771462, -13.077774], [-73.771892, -13.077848], [-73.773479, -13.078525], [-73.77497, -13.078865], [-73.775443, -13.078678], [-73.775655, -13.078465], [-73.775782, -13.078057], [-73.776434, -13.077803], [-73.777216, -13.076754], [-73.778121, -13.075794], [-73.778739, -13.075236], [-73.779715, -13.075238], [-73.780556, -13.075481], [-73.782163, -13.076041], [-73.782623, -13.076769], [-73.783084, -13.077136], [-73.783429, -13.077185], [-73.785069, -13.076767], [-73.786313, -13.075803], [-73.78686, -13.075637], [-73.787523, -13.075286], [-73.789299, -13.074643], [-73.791014, -13.073302], [-73.79193, -13.072007], [-73.79384, -13.070695], [-73.794685, -13.069898], [-73.795289, -13.069561], [-73.79584, -13.069317], [-73.797138, -13.068574], [-73.797425, -13.068262], [-73.797774, -13.067527], [-73.797605, -13.066027], [-73.797671, -13.065505], [-73.798151, -13.064679], [-73.798526, -13.064593], [-73.800651, -13.064653], [-73.801792, -13.065546], [-73.802247, -13.065639], [-73.803044, -13.065536], [-73.805444, -13.064512], [-73.806101, -13.06458], [-73.806672, -13.064488], [-73.807797, -13.064463], [-73.809602, -13.065727], [-73.81009, -13.066731], [-73.810366, -13.067744], [-73.810564, -13.068094], [-73.810986, -13.0682], [-73.811617, -13.068657], [-73.811973, -13.068982], [-73.812783, -13.070023], [-73.813175, -13.070189], [-73.813946, -13.070189], [-73.815211, -13.070354], [-73.815859, -13.070808], [-73.816533, -13.071854], [-73.817395, -13.072739], [-73.818581, -13.073607], [-73.81927, -13.074024], [-73.819959, -13.074541], [-73.82069, -13.075544], [-73.820858, -13.075904], [-73.820594, -13.077777], [-73.820862, -13.078304], [-73.821459, -13.078825], [-73.822123, -13.079063], [-73.824461, -13.078351], [-73.825719, -13.078371], [-73.826789, -13.078629], [-73.82805, -13.079052], [-73.829107, -13.079147], [-73.829578, -13.079223], [-73.830278, -13.079533], [-73.831196, -13.080494], [-73.831501, -13.08089], [-73.831916, -13.08103], [-73.832354, -13.080874], [-73.832911, -13.080473], [-73.833606, -13.080148], [-73.835224, -13.079985], [-73.836443, -13.080127], [-73.837527, -13.080183], [-73.838374, -13.080285], [-73.840213, -13.079924], [-73.840546, -13.08009], [-73.841021, -13.080416], [-73.841244, -13.08086], [-73.841354, -13.081478], [-73.840798, -13.082402], [-73.840851, -13.083166], [-73.841964, -13.08357], [-73.84266, -13.084005], [-73.843039, -13.084145], [-73.843884, -13.083989], [-73.844918, -13.083386], [-73.845313, -13.08327], [-73.846823, -13.084126], [-73.848542, -13.085288], [-73.849647, -13.085588], [-73.852023, -13.086229], [-73.85315, -13.086997], [-73.85338, -13.087045], [-73.854539, -13.086896], [-73.856629, -13.086883], [-73.857207, -13.086635], [-73.857837, -13.086666], [-73.858547, -13.086848], [-73.860143, -13.086773], [-73.860482, -13.086865], [-73.861661, -13.087643], [-73.862587, -13.08809], [-73.862814, -13.0883], [-73.863472, -13.089379], [-73.863736, -13.090188], [-73.863967, -13.090801], [-73.86426, -13.091531], [-73.864405, -13.091919], [-73.864539, -13.092245], [-73.865561, -13.093211], [-73.865643, -13.093497], [-73.865831, -13.094366], [-73.866543, -13.094729], [-73.866968, -13.095045], [-73.868068, -13.095658], [-73.868725, -13.09601], [-73.869278, -13.096065], [-73.869606, -13.096078], [-73.870036, -13.096094], [-73.870317, -13.096126], [-73.870514, -13.096194], [-73.871132, -13.096686], [-73.871635, -13.096951], [-73.872177, -13.097989], [-73.87235, -13.098309], [-73.872414, -13.099291], [-73.872234, -13.100037], [-73.872389, -13.101493], [-73.872272, -13.103089], [-73.8723, -13.106372], [-73.872489, -13.107812], [-73.872934, -13.108462], [-73.873907, -13.109793], [-73.874847, -13.110883], [-73.875247, -13.111876], [-73.875389, -13.112392], [-73.875808, -13.114002], [-73.875963, -13.115212], [-73.876204, -13.115767], [-73.878061, -13.117775], [-73.878502, -13.118753], [-73.879227, -13.119068], [-73.880172, -13.119401], [-73.881277, -13.11916], [-73.881985, -13.11862], [-73.882967, -13.118232], [-73.883403, -13.117881], [-73.885154, -13.116373], [-73.885511, -13.116308], [-73.886685, -13.116363], [-73.887132, -13.116404], [-73.889152, -13.118232], [-73.890682, -13.118712], [-73.891411, -13.119256], [-73.892087, -13.119792], [-73.892377, -13.119799], [-73.893192, -13.119647], [-73.896558, -13.119092], [-73.897752, -13.119598], [-73.899117, -13.120291], [-73.899676, -13.120899], [-73.900419, -13.121675], [-73.901551, -13.122507], [-73.902061, -13.123282], [-73.902873, -13.124281], [-73.90555, -13.12826], [-73.906175, -13.128792], [-73.907029, -13.129388], [-73.907821, -13.130278], [-73.908189, -13.130962], [-73.909088, -13.132549], [-73.909501, -13.133594], [-73.910021, -13.133967], [-73.910889, -13.134822], [-73.911398, -13.13573], [-73.912107, -13.137108], [-73.912459, -13.137887], [-73.91346, -13.139168], [-73.914642, -13.139774], [-73.915537, -13.13995], [-73.915893, -13.140142], [-73.916489, -13.140849], [-73.916489, -13.14235], [-73.91695, -13.142837], [-73.918387, -13.14416], [-73.919101, -13.145457], [-73.920204, -13.14684], [-73.920732, -13.147474], [-73.921353, -13.148548], [-73.921296, -13.149531], [-73.921073, -13.150987], [-73.921317, -13.153167], [-73.921687, -13.153784], [-73.922211, -13.154654], [-73.923174, -13.156319], [-73.923416, -13.1568], [-73.923658, -13.157503], [-73.923762, -13.157916], [-73.923798, -13.158255], [-73.923779, -13.158868], [-73.923995, -13.159627], [-73.924475, -13.161332], [-73.924318, -13.16245], [-73.924256, -13.163398], [-73.924392, -13.164455], [-73.924441, -13.167565], [-73.92451, -13.16885], [-73.924635, -13.170241], [-73.924949, -13.170491], [-73.925421, -13.170671], [-73.926566, -13.171376], [-73.933618, -13.17227], [-73.944195, -13.174675], [-73.949299, -13.175342], [-73.950415, -13.175842], [-73.959482, -13.179559], [-73.967549, -13.184885], [-73.969308, -13.186375], [-73.970688, -13.187551], [-73.973978, -13.192057], [-73.974687, -13.194355], [-73.973782, -13.19611], [-73.974227, -13.198098], [-73.975849, -13.200653], [-73.977773, -13.203798], [-73.978386, -13.205184], [-73.979119, -13.206677], [-73.979885, -13.208101], [-73.980347, -13.211068], [-73.981023, -13.216546], [-73.982467, -13.222672], [-73.984417, -13.228301], [-73.985179, -13.229692], [-73.98603, -13.231201], [-73.986052, -13.231307], [-73.985577, -13.233615], [-73.985663, -13.233826], [-73.986647, -13.234688], [-73.98786, -13.235834], [-73.989147, -13.236973], [-73.990522, -13.237114], [-73.992021, -13.238474], [-73.993389, -13.239252], [-73.995656, -13.241336], [-73.997577, -13.244007], [-73.998319, -13.247395], [-73.998304, -13.247931], [-73.998368, -13.24857], [-73.998438, -13.249148], [-73.998715, -13.251931], [-73.998826, -13.252874], [-73.998888, -13.254136], [-74.000093, -13.254784], [-74.00009, -13.25526], [-74.000319, -13.255423], [-74.001304, -13.255646], [-74.001892, -13.255838], [-74.003675, -13.256852], [-74.005956, -13.258182], [-74.006536, -13.258361], [-74.007035, -13.258514], [-74.007419, -13.258635], [-74.007899, -13.258778], [-74.008303, -13.258905], [-74.008615, -13.259001], [-74.008978, -13.2591], [-74.00939, -13.259222], [-74.009718, -13.259322], [-74.009872, -13.259365], [-74.010085, -13.259427], [-74.010369, -13.25952], [-74.010439, -13.259546], [-74.010424, -13.259655], [-74.010415, -13.259776], [-74.010392, -13.260173], [-74.010374, -13.260421], [-74.010352, -13.260649], [-74.010321, -13.260888], [-74.010262, -13.261202], [-74.010229, -13.2614], [-74.010207, -13.261632], [-74.010111, -13.262027], [-74.010042, -13.262329], [-74.010115, -13.26251], [-74.010191, -13.262667], [-74.010232, -13.262745], [-74.010335, -13.262996], [-74.010433, -13.263218], [-74.010577, -13.263402], [-74.010734, -13.263602], [-74.010898, -13.263796], [-74.010977, -13.263895], [-74.011197, -13.264154], [-74.011434, -13.264422], [-74.011667, -13.26459], [-74.011924, -13.26476], [-74.012207, -13.264942], [-74.012292, -13.26499], [-74.012449, -13.265088], [-74.01264, -13.265239], [-74.012861, -13.265527], [-74.013202, -13.265852], [-74.013349, -13.266018], [-74.013719, -13.266378], [-74.014177, -13.266831], [-74.014297, -13.266941], [-74.014467, -13.26705], [-74.014804, -13.267253], [-74.015001, -13.267372], [-74.015113, -13.267448], [-74.015345, -13.267579], [-74.015494, -13.267667], [-74.016584, -13.268309], [-74.016954, -13.268446], [-74.017326, -13.268583], [-74.017941, -13.268811], [-74.018548, -13.269036], [-74.018981, -13.269197], [-74.019208, -13.269282], [-74.019523, -13.269334], [-74.019716, -13.269306], [-74.019913, -13.269273], [-74.020113, -13.269231], [-74.020276, -13.269194], [-74.020577, -13.269127], [-74.021006, -13.26901], [-74.021459, -13.26856], [-74.021744, -13.268269], [-74.021962, -13.268061], [-74.022064, -13.267964], [-74.022193, -13.26786], [-74.022479, -13.267616], [-74.02274, -13.267386], [-74.022819, -13.267312], [-74.022996, -13.267147], [-74.02314, -13.267014], [-74.023332, -13.266823], [-74.023547, -13.266628], [-74.023839, -13.266337], [-74.023956, -13.266116], [-74.024103, -13.265838], [-74.024303, -13.26546], [-74.024364, -13.265165], [-74.024411, -13.264885], [-74.024443, -13.264733], [-74.024214, -13.264215], [-74.02419, -13.263898], [-74.024186, -13.263607], [-74.024196, -13.263328], [-74.024198, -13.262975], [-74.024164, -13.26272], [-74.024157, -13.262584], [-74.024186, -13.262335], [-74.024201, -13.262194], [-74.024586, -13.261431], [-74.024783, -13.261399], [-74.024887, -13.261387], [-74.025038, -13.26137], [-74.025184, -13.261353], [-74.025328, -13.261337], [-74.025438, -13.261324], [-74.027203, -13.26081], [-74.027484, -13.260693], [-74.028162, -13.260371], [-74.030188, -13.260303], [-74.030711, -13.260332], [-74.033079, -13.260016], [-74.037055, -13.259245], [-74.039791, -13.260715], [-74.044312, -13.263245], [-74.047523, -13.263503], [-74.050503, -13.263839], [-74.051863, -13.264786], [-74.056194, -13.266976], [-74.058616, -13.268921], [-74.059259, -13.26932], [-74.060287, -13.270019], [-74.060497, -13.270039], [-74.061059, -13.269927], [-74.061216, -13.269958], [-74.063336, -13.271807], [-74.06593, -13.274774], [-74.066215, -13.275227], [-74.066333, -13.275688], [-74.066703, -13.277365], [-74.066682, -13.278146], [-74.066759, -13.27865], [-74.066724, -13.281339], [-74.067417, -13.283039], [-74.067497, -13.283448], [-74.067696, -13.283958], [-74.068618, -13.28831], [-74.070843, -13.290451], [-74.071149, -13.290619], [-74.075817, -13.29008], [-74.076413, -13.290213], [-74.078835, -13.291453], [-74.080122, -13.292011], [-74.082193, -13.293091], [-74.085712, -13.295341], [-74.087277, -13.296178], [-74.087861, -13.29661], [-74.089921, -13.297817], [-74.091414, -13.299783], [-74.091598, -13.300503], [-74.096567, -13.306519], [-74.097947, -13.308107], [-74.098473, -13.309493], [-74.100989, -13.313426], [-74.102074, -13.318888], [-74.10331, -13.324427], [-74.109254, -13.334296], [-74.10957, -13.334489], [-74.111484, -13.335124], [-74.115286, -13.344975], [-74.11555, -13.345272], [-74.118967, -13.346312], [-74.126962, -13.348697], [-74.128608, -13.350602], [-74.131429, -13.350879], [-74.133498, -13.349771], [-74.135457, -13.349008], [-74.140373, -13.347084], [-74.143221, -13.347447], [-74.143999, -13.347486], [-74.144588, -13.347632], [-74.146294, -13.347878], [-74.148922, -13.347438], [-74.153794, -13.346558], [-74.155425, -13.345836], [-74.156811, -13.345436], [-74.157993, -13.344821], [-74.160443, -13.342608], [-74.161975, -13.341972], [-74.164244, -13.341809], [-74.164939, -13.341828], [-74.166293, -13.341201], [-74.173151, -13.341207], [-74.175889, -13.341857], [-74.176843, -13.342209], [-74.179093, -13.342832], [-74.181104, -13.344077], [-74.188935, -13.344551], [-74.189519, -13.344511], [-74.196268, -13.34449], [-74.196706, -13.344554], [-74.20262, -13.344525], [-74.203815, -13.345374], [-74.208538, -13.344798], [-74.21333, -13.348299], [-74.221336, -13.349729], [-74.221629, -13.349638], [-74.226299, -13.346245], [-74.228988, -13.341263], [-74.229209, -13.341027], [-74.237785, -13.337564], [-74.243584, -13.335983], [-74.246341, -13.335986], [-74.247115, -13.335251], [-74.255467, -13.327283], [-74.258329, -13.324698], [-74.264135, -13.315848], [-74.272968, -13.302472], [-74.278494, -13.292877], [-74.281555, -13.287843], [-74.284113, -13.283809], [-74.284732, -13.282866], [-74.288842, -13.27756], [-74.295223, -13.270425], [-74.297457, -13.26762], [-74.300453, -13.264339], [-74.303099, -13.260545], [-74.309661, -13.254633], [-74.309986, -13.254549], [-74.317095, -13.255756], [-74.318031, -13.255533], [-74.318669, -13.255363], [-74.318948, -13.255279], [-74.319237, -13.255079], [-74.31954, -13.254748], [-74.319812, -13.25468], [-74.320556, -13.254982], [-74.321235, -13.255267], [-74.322179, -13.255714], [-74.324873, -13.257404], [-74.325305, -13.258205], [-74.325386, -13.259247], [-74.325576, -13.259561], [-74.327358, -13.261151], [-74.330471, -13.262048], [-74.331683, -13.262063], [-74.333219, -13.262576], [-74.333524, -13.262521], [-74.335603, -13.260873], [-74.336723, -13.260075], [-74.338025, -13.259595], [-74.339661, -13.260145], [-74.339998, -13.260045], [-74.341064, -13.258889], [-74.341691, -13.258441], [-74.342014, -13.258437], [-74.342673, -13.258754], [-74.34363, -13.259834], [-74.343974, -13.260023], [-74.345521, -13.260513], [-74.346401, -13.261726], [-74.347283, -13.262402], [-74.347903, -13.262456], [-74.348589, -13.262359], [-74.34976, -13.262196], [-74.350418, -13.261393], [-74.352419, -13.260364], [-74.352735, -13.260466], [-74.352953, -13.260616], [-74.357189, -13.262428], [-74.360343, -13.262907], [-74.363819, -13.262866], [-74.365143, -13.263034], [-74.365751, -13.263581], [-74.36686, -13.263681], [-74.368622, -13.263778], [-74.369172, -13.26369], [-74.36992, -13.263502], [-74.370216, -13.263606], [-74.371312, -13.264813], [-74.372021, -13.266171], [-74.373419, -13.26736], [-74.374518, -13.268187], [-74.375415, -13.269761], [-74.375857, -13.269981], [-74.377001, -13.270265], [-74.377527, -13.270472], [-74.377986, -13.27057], [-74.378772, -13.271152], [-74.379593, -13.271888], [-74.38101, -13.272817], [-74.382178, -13.273815], [-74.383106, -13.275435], [-74.386559, -13.278351], [-74.389924, -13.280881], [-74.396144, -13.281325], [-74.396483, -13.281241], [-74.403677, -13.277979], [-74.404612, -13.277799], [-74.406559, -13.277851], [-74.409562, -13.278265], [-74.41911, -13.278818], [-74.42956, -13.279466], [-74.439472, -13.280203], [-74.446324, -13.278418], [-74.446725, -13.278402], [-74.45033, -13.280002], [-74.454981, -13.281111], [-74.458357, -13.282963], [-74.459337, -13.282965], [-74.459781, -13.283265], [-74.461371, -13.283694], [-74.463622, -13.284457], [-74.466691, -13.284973], [-74.471541, -13.285633], [-74.474574, -13.286], [-74.475166, -13.286075], [-74.479355, -13.284928], [-74.480315, -13.284666], [-74.486637, -13.283471], [-74.491926, -13.283213], [-74.495504, -13.283784], [-74.500081, -13.282772], [-74.501753, -13.28152], [-74.504653, -13.280795], [-74.509772, -13.280929], [-74.514703, -13.28184], [-74.51991, -13.280374], [-74.523507, -13.280052], [-74.526939, -13.280212], [-74.528974, -13.279838], [-74.532919, -13.281606], [-74.537781, -13.283782], [-74.542885, -13.284823], [-74.548202, -13.285253], [-74.556152, -13.287474], [-74.558558, -13.288062], [-74.561077, -13.290277], [-74.56997, -13.296687], [-74.572383, -13.297614], [-74.578141, -13.30199], [-74.581889, -13.302398], [-74.585121, -13.30375], [-74.590155, -13.304799], [-74.590826, -13.304736], [-74.596395, -13.303354], [-74.597263, -13.303632], [-74.600183, -13.305242], [-74.601545, -13.305583], [-74.602716, -13.30677], [-74.603772, -13.307728], [-74.605567, -13.309632], [-74.605908, -13.309702], [-74.608901, -13.30916], [-74.616429, -13.307598], [-74.61857, -13.30738], [-74.620033, -13.306956], [-74.621753, -13.304776], [-74.622069, -13.304476], [-74.622943, -13.303751], [-74.625218, -13.303184], [-74.626171, -13.303627], [-74.626964, -13.303908], [-74.628683, -13.305864], [-74.629373, -13.306103], [-74.629712, -13.306063], [-74.631298, -13.3053], [-74.633036, -13.304869], [-74.635492, -13.305478], [-74.637255, -13.305931], [-74.637734, -13.305968], [-74.639625, -13.305454], [-74.63994, -13.305551], [-74.641384, -13.306559], [-74.641914, -13.306788], [-74.644056, -13.306937], [-74.64441, -13.306887], [-74.649475, -13.303627], [-74.651375, -13.301939], [-74.655003, -13.300834], [-74.65597, -13.30013], [-74.662378, -13.297119], [-74.665105, -13.295468], [-74.665769, -13.295324], [-74.666305, -13.294905], [-74.666688, -13.294511], [-74.67112, -13.291803], [-74.672359, -13.291867], [-74.673348, -13.292126], [-74.674555, -13.291529], [-74.675957, -13.290287], [-74.678389, -13.289734], [-74.680449, -13.289238], [-74.684842, -13.28955], [-74.687228, -13.29033], [-74.688045, -13.292525], [-74.689804, -13.294381], [-74.691962, -13.296783], [-74.692034, -13.297073], [-74.691621, -13.298739], [-74.691839, -13.299192], [-74.692387, -13.299728], [-74.692918, -13.300117], [-74.693346, -13.300504], [-74.69908, -13.30278], [-74.701469, -13.303798], [-74.701841, -13.303834], [-74.703244, -13.303604], [-74.704742, -13.30407], [-74.707965, -13.30605], [-74.709921, -13.306071], [-74.711526, -13.30691], [-74.711897, -13.306906], [-74.715244, -13.306555], [-74.716355, -13.307151], [-74.718758, -13.309279], [-74.719223, -13.309457], [-74.720893, -13.310432], [-74.72146, -13.311006], [-74.721682, -13.311252], [-74.722193, -13.313477], [-74.722309, -13.314155], [-74.722698, -13.316047], [-74.722017, -13.317294], [-74.722077, -13.317979], [-74.726412, -13.323228], [-74.727435, -13.324496], [-74.729037, -13.327216], [-74.729997, -13.32818], [-74.730146, -13.328417], [-74.731344, -13.332162], [-74.732288, -13.334242], [-74.732398, -13.334485], [-74.73248, -13.334612], [-74.732646, -13.334795], [-74.732938, -13.334963], [-74.733359, -13.335148], [-74.733717, -13.335304], [-74.73446, -13.335627], [-74.735236, -13.335964], [-74.73578, -13.336199], [-74.736187, -13.336377], [-74.736511, -13.336519], [-74.736716, -13.336642], [-74.737089, -13.336875], [-74.73739, -13.337072], [-74.737478, -13.337139], [-74.737609, -13.337285], [-74.737697, -13.337472], [-74.737722, -13.337647], [-74.737723, -13.337787], [-74.737711, -13.337967], [-74.737632, -13.339254], [-74.737611, -13.339352], [-74.737569, -13.339611], [-74.73752, -13.339797], [-74.737424, -13.340173], [-74.73726, -13.340811], [-74.737122, -13.341381], [-74.737134, -13.341586], [-74.737206, -13.341764], [-74.737305, -13.341897], [-74.737429, -13.341985], [-74.737831, -13.342264], [-74.738097, -13.342446], [-74.738812, -13.342939], [-74.739442, -13.343521], [-74.739772, -13.344381], [-74.740823, -13.345775], [-74.741766, -13.346131], [-74.743531, -13.347348], [-74.744142, -13.3478], [-74.747562, -13.349416], [-74.751256, -13.349983], [-74.75262, -13.349348], [-74.753059, -13.349033], [-74.753554, -13.348803], [-74.754182, -13.348645], [-74.754588, -13.348716], [-74.756481, -13.349369], [-74.757479, -13.35017], [-74.758459, -13.352244], [-74.759083, -13.352669], [-74.759577, -13.35272], [-74.760063, -13.352882], [-74.760634, -13.352983], [-74.763533, -13.352886], [-74.767237, -13.35424], [-74.767417, -13.354293], [-74.771642, -13.354969], [-74.774836, -13.354992], [-74.779108, -13.352843], [-74.783016, -13.350977], [-74.785351, -13.350989], [-74.788085, -13.350424], [-74.78914, -13.350463], [-74.789336, -13.350522], [-74.790315, -13.351493], [-74.791348, -13.35241], [-74.793921, -13.353803], [-74.795494, -13.354671], [-74.796323, -13.354963], [-74.80187, -13.35798], [-74.810493, -13.359357], [-74.810853, -13.359363], [-74.819887, -13.357715], [-74.821861, -13.357648], [-74.824185, -13.357992], [-74.828855, -13.358776], [-74.829096, -13.358953], [-74.829447, -13.359784], [-74.829617, -13.360471], [-74.828851, -13.363812], [-74.828606, -13.365743], [-74.827665, -13.368321], [-74.827448, -13.369828], [-74.827033, -13.370819], [-74.82712, -13.371112], [-74.827379, -13.371291], [-74.827797, -13.371352], [-74.828129, -13.371455], [-74.831245, -13.373443], [-74.833704, -13.374383], [-74.835602, -13.374677], [-74.83811, -13.374664], [-74.840852, -13.376781], [-74.841932, -13.37697], [-74.843631, -13.377234], [-74.845125, -13.3776], [-74.846106, -13.378126], [-74.847252, -13.378471], [-74.853596, -13.379913], [-74.859581, -13.382214], [-74.86104, -13.382341], [-74.863722, -13.382951], [-74.866573, -13.382745], [-74.866851, -13.382836], [-74.867636, -13.383717], [-74.871395, -13.385395], [-74.872271, -13.384814], [-74.873665, -13.384437], [-74.875175, -13.383693], [-74.879429, -13.384167], [-74.882278, -13.385421], [-74.883676, -13.386293], [-74.885179, -13.388139], [-74.885561, -13.390568], [-74.885671, -13.390804], [-74.888774, -13.392493], [-74.889397, -13.39315], [-74.891207, -13.394464], [-74.892331, -13.395553], [-74.89262, -13.396044], [-74.893737, -13.396959], [-74.894707, -13.397478], [-74.894813, -13.397686], [-74.89489, -13.39898], [-74.8948, -13.40064], [-74.895829, -13.403256], [-74.895886, -13.403451], [-74.896081, -13.405114], [-74.895761, -13.408071], [-74.895671, -13.409679], [-74.895251, -13.41176], [-74.896005, -13.413952], [-74.896185, -13.414235], [-74.896423, -13.414407], [-74.896664, -13.414465], [-74.896956, -13.414333], [-74.897119, -13.414069], [-74.897385, -13.413818], [-74.897609, -13.413788], [-74.898173, -13.414027], [-74.89879, -13.414545], [-74.901006, -13.416671], [-74.901313, -13.417146], [-74.902036, -13.417712], [-74.902948, -13.418134], [-74.908345, -13.421949], [-74.913283, -13.429393], [-74.918166, -13.435549], [-74.918207, -13.43575], [-74.918075, -13.438032], [-74.919246, -13.440768], [-74.921205, -13.442294], [-74.922421, -13.443888], [-74.922759, -13.444052], [-74.923897, -13.444612], [-74.92407, -13.444735], [-74.924145, -13.444879], [-74.924168, -13.445378], [-74.924339, -13.445668], [-74.92525, -13.446263], [-74.925663, -13.446647], [-74.926123, -13.447242], [-74.926536, -13.448062], [-74.926567, -13.448407], [-74.926613, -13.448534], [-74.926733, -13.448669], [-74.927968, -13.449478], [-74.928554, -13.450105], [-74.930203, -13.450622], [-74.935247, -13.452268], [-74.935545, -13.45243], [-74.937522, -13.454115], [-74.937937, -13.45432], [-74.938403, -13.454349], [-74.93912, -13.454391], [-74.94096, -13.45419], [-74.941607, -13.453768], [-74.941894, -13.453764], [-74.94301, -13.454802], [-74.944436, -13.456659], [-74.948575, -13.462539], [-74.94903, -13.464758], [-74.949915, -13.466365], [-74.951848, -13.470637], [-74.952035, -13.470862], [-74.952811, -13.471486], [-74.953059, -13.471592], [-74.955305, -13.471762], [-74.957494, -13.471462], [-74.959472, -13.471388], [-74.959765, -13.471427], [-74.96111, -13.471616], [-74.961535, -13.47172], [-74.961977, -13.472363], [-74.962895, -13.47336], [-74.963322, -13.474035], [-74.963468, -13.474182], [-74.963874, -13.474368], [-74.965282, -13.475442], [-74.96562, -13.475453], [-74.966602, -13.474765], [-74.969025, -13.474055], [-74.96984, -13.47407], [-74.971422, -13.473801], [-74.973849, -13.474613], [-74.974365, -13.474752], [-74.977545, -13.475892], [-74.978772, -13.47595], [-74.982706, -13.476962], [-74.988387, -13.478269], [-74.993029, -13.479453], [-74.993274, -13.479431], [-74.993486, -13.479433], [-74.993624, -13.479457], [-74.993739, -13.479522], [-74.996282, -13.482006], [-75.006419, -13.487004], [-75.00823, -13.487389], [-75.016372, -13.48791], [-75.027337, -13.490566], [-75.029139, -13.490823], [-75.033656, -13.492128], [-75.048084, -13.49447], [-75.050516, -13.494873], [-75.051982, -13.496229], [-75.058174, -13.497618], [-75.063888, -13.498418], [-75.064245, -13.49832], [-75.067815, -13.495292], [-75.068099, -13.495289], [-75.069172, -13.495682], [-75.069382, -13.495615], [-75.073441, -13.492828], [-75.075113, -13.491678], [-75.081174, -13.48922], [-75.083219, -13.489951], [-75.096569, -13.496486], [-75.098109, -13.500996], [-75.099243, -13.501592], [-75.100063, -13.504966], [-75.100568, -13.505999], [-75.102757, -13.507483], [-75.102739, -13.508815], [-75.10236, -13.511236], [-75.101739, -13.514178], [-75.101627, -13.514645], [-75.101568, -13.51505], [-75.101625, -13.515222], [-75.102783, -13.516023], [-75.104117, -13.517103], [-75.105932, -13.518503], [-75.106758, -13.519081], [-75.107685, -13.519058], [-75.109954, -13.521075], [-75.112212, -13.522281], [-75.114435, -13.523489], [-75.115827, -13.524219], [-75.116721, -13.524466], [-75.118736, -13.525136], [-75.11992, -13.525444], [-75.12145, -13.525898], [-75.124285, -13.526783], [-75.126081, -13.528077], [-75.127398, -13.529212], [-75.131503, -13.531319], [-75.132082, -13.532153], [-75.133046, -13.532783], [-75.133874, -13.532944], [-75.13492, -13.533142], [-75.136312, -13.533976], [-75.137426, -13.535511], [-75.1385, -13.536005], [-75.14009, -13.537374], [-75.142328, -13.537961], [-75.143201, -13.538632], [-75.144494, -13.539307], [-75.145243, -13.539832], [-75.146456, -13.540266], [-75.14724, -13.540528], [-75.15008, -13.539977], [-75.151128, -13.540189], [-75.152078, -13.540095], [-75.154706, -13.540184], [-75.157052, -13.539778], [-75.157424, -13.5398], [-75.158037, -13.540226], [-75.159574, -13.540935], [-75.16027, -13.541332], [-75.163258, -13.541208], [-75.164849, -13.541357], [-75.166053, -13.541925], [-75.168651, -13.544319], [-75.169909, -13.545968], [-75.171955, -13.548888], [-75.175451, -13.553515], [-75.178588, -13.55654], [-75.180636, -13.557992], [-75.180895, -13.55803], [-75.181889, -13.557499], [-75.182121, -13.557545], [-75.185126, -13.559728], [-75.186947, -13.56191], [-75.189331, -13.5648], [-75.190608, -13.567143], [-75.191761, -13.569305], [-75.192616, -13.569948], [-75.193296, -13.570818], [-75.194052, -13.571672], [-75.195646, -13.573792], [-75.197475, -13.575695], [-75.199308, -13.577603], [-75.200633, -13.57871], [-75.204592, -13.579737], [-75.209092, -13.58577], [-75.215248, -13.591704], [-75.216893, -13.59353], [-75.220987, -13.597478], [-75.224179, -13.59964], [-75.225565, -13.600763], [-75.22792, -13.602919], [-75.230532, -13.603818], [-75.231386, -13.604104], [-75.232717, -13.604608], [-75.233486, -13.608016], [-75.235786, -13.610298], [-75.239427, -13.613793], [-75.240666, -13.615104], [-75.243362, -13.617725], [-75.24499, -13.618839], [-75.246286, -13.619877], [-75.247598, -13.620567], [-75.251042, -13.621453], [-75.257621, -13.62593], [-75.258695, -13.627318], [-75.259968, -13.628032], [-75.261391, -13.628874], [-75.263554, -13.630065], [-75.268608, -13.63313], [-75.269892, -13.634998], [-75.272281, -13.635572], [-75.273608, -13.636254], [-75.278728, -13.639914], [-75.285987, -13.642055], [-75.288579, -13.643568], [-75.290114, -13.64378], [-75.293637, -13.643888], [-75.29734, -13.644853], [-75.29906, -13.645145], [-75.301694, -13.644817], [-75.303104, -13.64454], [-75.303377, -13.644557], [-75.306124, -13.646562], [-75.309146, -13.647572], [-75.314849, -13.649941], [-75.316915, -13.649435], [-75.321601, -13.648426], [-75.325042, -13.649945], [-75.326793, -13.650347], [-75.329151, -13.651177], [-75.330783, -13.653165], [-75.331971, -13.653609], [-75.33238, -13.653611], [-75.343529, -13.652394], [-75.344777, -13.652438], [-75.345028, -13.652302], [-75.347235, -13.648461], [-75.347442, -13.648336], [-75.34867, -13.647558], [-75.349701, -13.647178], [-75.350266, -13.647105], [-75.35363, -13.647521], [-75.353888, -13.647603], [-75.354354, -13.647926], [-75.355167, -13.649356], [-75.356066, -13.650106], [-75.357868, -13.650494], [-75.360415, -13.650797], [-75.363445, -13.650742], [-75.366592, -13.650198], [-75.367823, -13.64977], [-75.369458, -13.650427], [-75.371284, -13.650416], [-75.372741, -13.65065], [-75.375468, -13.651682], [-75.376756, -13.652516], [-75.378448, -13.653062], [-75.379914, -13.653503], [-75.381041, -13.653772], [-75.381759, -13.653538], [-75.38838, -13.650971], [-75.38899, -13.650517], [-75.391436, -13.649805], [-75.392162, -13.649789], [-75.392625, -13.649761], [-75.393086, -13.649733], [-75.39358, -13.649717], [-75.3945, -13.649429], [-75.402732, -13.649624], [-75.403551, -13.649761], [-75.404745, -13.649716], [-75.411157, -13.649094], [-75.412083, -13.649006], [-75.415485, -13.648952], [-75.417107, -13.648805], [-75.418465, -13.648586], [-75.421251, -13.647766], [-75.422579, -13.647372], [-75.425729, -13.646497], [-75.427088, -13.646027], [-75.430476, -13.645464], [-75.436006, -13.645955], [-75.437942, -13.64607], [-75.439181, -13.646248], [-75.440427, -13.646499], [-75.444981, -13.646394], [-75.448875, -13.646824], [-75.452831, -13.647166], [-75.453679, -13.646853], [-75.454526, -13.646712], [-75.456646, -13.646031], [-75.457715, -13.645849], [-75.460766, -13.646068], [-75.463737, -13.645649], [-75.466722, -13.646239], [-75.467376, -13.646221], [-75.468551, -13.646315], [-75.469546, -13.646293], [-75.470509, -13.646758], [-75.471615, -13.647472], [-75.47231, -13.648685], [-75.473922, -13.649724], [-75.474821, -13.649948], [-75.478082, -13.65045], [-75.479486, -13.650554], [-75.485228, -13.651479], [-75.490235, -13.653653], [-75.496885, -13.651814], [-75.498543, -13.651269], [-75.503268, -13.650708], [-75.50434, -13.650324], [-75.508411, -13.649657], [-75.509799, -13.649639], [-75.512067, -13.649277], [-75.513125, -13.649505], [-75.514828, -13.649654], [-75.515446, -13.649708], [-75.518243, -13.648521], [-75.518888, -13.647778], [-75.518929, -13.646888], [-75.519396, -13.646047], [-75.520403, -13.64595], [-75.520743, -13.645706], [-75.523165, -13.645392], [-75.524635, -13.644426], [-75.526154, -13.643641], [-75.526878, -13.643272], [-75.527232, -13.64309], [-75.527824, -13.642788], [-75.528815, -13.642354], [-75.529901, -13.642034], [-75.530677, -13.641796], [-75.530931, -13.641766], [-75.532367, -13.641771], [-75.533311, -13.641781], [-75.534053, -13.641686], [-75.536958, -13.640875], [-75.537549, -13.640721], [-75.537848, -13.640723], [-75.539168, -13.64079], [-75.539809, -13.640878], [-75.54137, -13.641229], [-75.542255, -13.641289], [-75.543502, -13.641575], [-75.545634, -13.641128], [-75.545858, -13.641108], [-75.547066, -13.641706], [-75.548439, -13.641831], [-75.549059, -13.641126], [-75.550144, -13.640818], [-75.550697, -13.640736], [-75.55144, -13.640217], [-75.551707, -13.640152], [-75.552752, -13.640482], [-75.553894, -13.64093], [-75.554398, -13.640795], [-75.555207, -13.639906], [-75.555762, -13.639517], [-75.556505, -13.639358], [-75.557147, -13.639343], [-75.557963, -13.638721], [-75.558491, -13.638418], [-75.559496, -13.638559], [-75.560266, -13.637815], [-75.561694, -13.637335], [-75.56287, -13.636376], [-75.564916, -13.635672], [-75.565402, -13.635526], [-75.56622, -13.635272], [-75.566841, -13.63533], [-75.567853, -13.635106], [-75.568198, -13.635297], [-75.568376, -13.636673], [-75.568872, -13.637152], [-75.569692, -13.637641], [-75.572122, -13.638272], [-75.573419, -13.638248], [-75.574119, -13.637808], [-75.574641, -13.636811], [-75.576093, -13.636265], [-75.577539, -13.636626], [-75.578293, -13.636488], [-75.579929, -13.636555], [-75.581906, -13.636303], [-75.582416, -13.635522], [-75.583147, -13.633895], [-75.584369, -13.633222], [-75.585571, -13.6333], [-75.58681, -13.633004], [-75.588213, -13.632259], [-75.591812, -13.631069], [-75.592266, -13.631155], [-75.593493, -13.632012], [-75.594814, -13.632407], [-75.595646, -13.632933], [-75.596959, -13.632643], [-75.598554, -13.630533], [-75.599124, -13.628341], [-75.60128, -13.626202], [-75.60182, -13.62592], [-75.603334, -13.623582], [-75.60449, -13.623143], [-75.607291, -13.618608], [-75.607447, -13.617522], [-75.607877, -13.616528], [-75.608701, -13.615531], [-75.610142, -13.614639], [-75.610723, -13.613535], [-75.610524, -13.612308], [-75.611705, -13.608253], [-75.61278, -13.606477], [-75.613245, -13.60541], [-75.61401, -13.604187], [-75.615635, -13.603161], [-75.616407, -13.602759], [-75.616926, -13.60241], [-75.617791, -13.601905], [-75.618538, -13.601438], [-75.619031, -13.601373], [-75.619407, -13.601529], [-75.620355, -13.601685], [-75.621103, -13.603226], [-75.622056, -13.603912], [-75.622794, -13.604867], [-75.622657, -13.605721], [-75.622685, -13.606842], [-75.622859, -13.607069], [-75.623494, -13.607116], [-75.624142, -13.606821], [-75.62474, -13.606759], [-75.625142, -13.606504], [-75.625919, -13.606663], [-75.626892, -13.60702], [-75.628096, -13.606997], [-75.630224, -13.606952], [-75.631761, -13.606926], [-75.633371, -13.607729], [-75.637909, -13.609216], [-75.6408, -13.610208], [-75.642919, -13.610962], [-75.643701, -13.610929], [-75.645068, -13.611231], [-75.647592, -13.612327], [-75.649812, -13.613296], [-75.649967, -13.613534], [-75.651235, -13.614438], [-75.65492, -13.61686], [-75.655682, -13.617457], [-75.657945, -13.618365], [-75.658512, -13.618476], [-75.660306, -13.62006], [-75.661547, -13.621005], [-75.662239, -13.621505], [-75.662734, -13.621758], [-75.663564, -13.621848], [-75.665329, -13.621039], [-75.666018, -13.62091], [-75.667639, -13.62089], [-75.668743, -13.620526], [-75.669551, -13.620561], [-75.670125, -13.621039], [-75.670873, -13.621459], [-75.671425, -13.621828], [-75.671972, -13.622184], [-75.672721, -13.623086], [-75.673102, -13.623929], [-75.674386, -13.625076], [-75.675189, -13.625666], [-75.675882, -13.625938], [-75.676342, -13.626103], [-75.678967, -13.627623], [-75.679395, -13.627707], [-75.68051, -13.62797], [-75.681542, -13.627974], [-75.682914, -13.627796], [-75.684621, -13.628147], [-75.685205, -13.628172], [-75.686072, -13.628859], [-75.68684, -13.630122], [-75.687625, -13.631015], [-75.688637, -13.631802], [-75.690127, -13.63282], [-75.691597, -13.632753], [-75.692884, -13.633246], [-75.694053, -13.633562], [-75.694666, -13.633548], [-75.697408, -13.634128], [-75.698965, -13.63528], [-75.699837, -13.635546], [-75.700887, -13.636471], [-75.701483, -13.636785], [-75.701759, -13.637329], [-75.70454, -13.638317], [-75.705122, -13.63802], [-75.706186, -13.638353], [-75.707244, -13.638602], [-75.70816, -13.640005], [-75.714335, -13.640078], [-75.717598, -13.640531], [-75.718021, -13.64095], [-75.718678, -13.640792], [-75.718943, -13.640869], [-75.719396, -13.642021], [-75.719906, -13.643091], [-75.720403, -13.644021], [-75.720928, -13.644946], [-75.721897, -13.646462], [-75.722605, -13.647201], [-75.723446, -13.647964], [-75.723869, -13.648064], [-75.72707, -13.646122], [-75.727915, -13.645893], [-75.72855, -13.645146], [-75.729097, -13.64508], [-75.73028, -13.644589], [-75.730928, -13.644909], [-75.731495, -13.645714], [-75.73284, -13.6464], [-75.733325, -13.64688], [-75.733959, -13.647531], [-75.734964, -13.647408], [-75.737336, -13.647373], [-75.73852, -13.64761], [-75.740119, -13.648775], [-75.741167, -13.64982], [-75.742852, -13.650935], [-75.743083, -13.651188], [-75.744058, -13.652493], [-75.744162, -13.653454], [-75.744858, -13.654383], [-75.745205, -13.655218], [-75.745615, -13.655437], [-75.746726, -13.655794], [-75.747409, -13.656322], [-75.747974, -13.656426], [-75.748761, -13.65485], [-75.750332, -13.654204], [-75.751825, -13.654107], [-75.752314, -13.654253], [-75.753945, -13.655017], [-75.754975, -13.656803], [-75.755518, -13.658265], [-75.756176, -13.658961], [-75.75711, -13.660204], [-75.758101, -13.660583], [-75.758318, -13.660739], [-75.758812, -13.662495], [-75.759174, -13.662613], [-75.760773, -13.662209], [-75.761742, -13.661468], [-75.762576, -13.661434], [-75.764289, -13.661546], [-75.765422, -13.661872], [-75.765906, -13.66235], [-75.76657, -13.663197], [-75.766997, -13.663736], [-75.767136, -13.664113], [-75.768887, -13.667086], [-75.769461, -13.667908], [-75.770531, -13.668828], [-75.771919, -13.671969], [-75.773526, -13.673982], [-75.775012, -13.674892], [-75.782642, -13.675852], [-75.784221, -13.677241], [-75.785038, -13.677586], [-75.785289, -13.678211], [-75.786368, -13.678837], [-75.787072, -13.679414], [-75.787271, -13.679649], [-75.78719, -13.680537], [-75.787856, -13.681237], [-75.789417, -13.681781], [-75.790514, -13.682222], [-75.791871, -13.683067], [-75.794934, -13.684419], [-75.796083, -13.68485], [-75.797062, -13.685374], [-75.79891, -13.685872], [-75.801035, -13.686423], [-75.802033, -13.686251], [-75.803098, -13.686393], [-75.804629, -13.6873], [-75.805436, -13.687766], [-75.806032, -13.688001], [-75.806516, -13.688418], [-75.806767, -13.688501], [-75.807803, -13.688442], [-75.808848, -13.688637], [-75.809462, -13.689025], [-75.809805, -13.689317], [-75.810255, -13.689505], [-75.810915, -13.690081], [-75.81158, -13.69204], [-75.811295, -13.693711], [-75.811485, -13.694365], [-75.81218, -13.695644], [-75.812467, -13.696104], [-75.812702, -13.696308], [-75.813347, -13.696581], [-75.813795, -13.696869], [-75.815196, -13.697986], [-75.815275, -13.698212], [-75.815096, -13.699099], [-75.814781, -13.700398], [-75.814313, -13.702926], [-75.814481, -13.703315], [-75.816942, -13.704483], [-75.817157, -13.705208], [-75.817261, -13.705414], [-75.818088, -13.706196], [-75.81968, -13.707048], [-75.822699, -13.708159], [-75.825268, -13.710004], [-75.827431, -13.711706], [-75.829752, -13.713114], [-75.831592, -13.713476], [-75.831984, -13.713842], [-75.834373, -13.715047], [-75.839486, -13.71728], [-75.840693, -13.717478], [-75.84208, -13.718124], [-75.845232, -13.720166], [-75.847192, -13.723289], [-75.850698, -13.724295], [-75.852603, -13.725062], [-75.855651, -13.725287], [-75.856887, -13.725416], [-75.858879, -13.725403], [-75.859773, -13.725881], [-75.861304, -13.72812], [-75.863494, -13.730072], [-75.869345, -13.733356], [-75.872015, -13.734965], [-75.878252, -13.738847], [-75.878876, -13.739098], [-75.882226, -13.739337], [-75.883493, -13.739318], [-75.885199, -13.73949], [-75.887501, -13.73965], [-75.891463, -13.739924], [-75.891797, -13.739866]]}},
{"type": "Feature", "properties": {"ProjectID": "P1290", "TAG": "122064743", "SHAPE.LEN": 166142.51364414502, "LOCALIDAD": "TGP", "OBJECTID": 276186, "ASSETGROUP": 3, "ASSETTYPE": 3, "ASSOCIATIONSTATUS": 0, "ISCONNECTED": 0, "FROMDEVICETERMINAL": 0, "TODEVICETERMINAL": 0, "CREATIONDATE": null, "CREATOR": null, "LASTUPDATE": null, "UPDATEDBY": null, "GLOBALID": "{00000000-0000-0000-0000-000000000000}", "REGULATORYTYPE": 3, "PINCHABLE": 2, "PIGGABLE": 2, "WARNINGTAPE": 0, "TRACERWIRE": 2, "SEAMTYPE": null, "LONGSEAMTYPE": null, "GIRTHWELDTYPE": null, "LONGITUDINALSEAMORIENTATION": null, "PIPESURFACEAREA": null, "INSTALLATIONDATE": null, "INSTALLATIONMETHOD": 0, "ASSETID": "TGP", "OWNEDBY": 0, "MAINTBY": 0, "LIFECYCLESTATUS": 3, "NOMINALDIAMETER": null, "OPERATINGPRESSURE": null, "MAOPDESIGN": null, "MAOPTEST": null, "MAOPRECORD": null, "MEASUREDLENGTH": 166142.51364415, "LENGTHSOURCE": 0, "WALLTHICKNESS": null, "OUTSIDEDIAMETER": null, "BARCODE": null, "MANUFACTURER": null, "MANUFACTURERLOTNO": null, "MANUFACTUREDATE": null, "MANUFACTURECOMPONENT": null, "MATERIAL": null, "SYSTEMSUBNETWORKNAME": "Red Interna", "PRESSURESUBNETWORKNAME": " ", "ISOLATIONSUBNETWORKNAME": " ", "CPSUBNETWORKNAME": " ", "PIPEVOLUME": null, "COMMODITY": 1, "ACTUALINTERNALDIAMETER": null, "COVERTYPE": "0", "ORIGINALCOVERDEPTH": null, "DEPTHUNITS": 4, "PRIMARYCOATINGAPPDATE": null, "SECONDARYCOATINGTYPE": null, "SECONDARYCOATINGAPPDATE": null, "TERTIARYCOATINGTYPE": null, "TERTIARYCOATINGAPPDATE": null, "SMYS": null, "PORCENTAJE_MYS": null, "DATERETIRED": null, "CRITICALINDICATOR": 2, "STUBBED": null, "DESIGNCLASS": null, "SPATIALACCURACY": 6, "PIPETESTDATE": null, "PIPETESTDURATION": null, "PIPETESTPRESSURE": null, "PIPETESTTYPE": null, "DESIGNPRESSUREENTERED": null, "DESIGNPRESSURESTANDARD": null, "DESIGNPRESSUREUNITS": 1, "DESIGNFACTOR": null, "COLOR": null, "DEPTH": null, "WIRESIZE": null, "GAUGE": null, "WIREMATERIAL": null, "SERVICESUMMARYID": null, "WORKORDERID": null, "PROJECTNUMBER": null, "LEGACYID": "276186", "ASSETUNITCODE": null, "PRESSUREUNITS": 1, "MAOPUNITS": 1, "LENGTHUNITS": 3, "DIAMETERUNITS": null, "PIPESURFACEAREAUNITS": 3, "PIPEVOLUMEUNITS": 3, "COMMENTS": "TGP", "EVENTID": null, "FROMDATE": null, "TODATE": null, "ENGROUTEID": null, "ENGROUTENAME": null, "ENGFROMM": null, "ENGTOROUTEID": null, "ENGTOROUTENAME": null, "ENGTOM": null, "CONTINROUTEID": null, "CONTINROUTENAME": null, "CONTINFROMM": null, "CONTINTOM": null, "FROMREFMETHOD": null, "FROMREFLOCATION": null, "FROMREFOFFSET": null, "TOREFMETHOD": null, "TOREFLOCATION": null, "TOREFOFFSET": null, "LOCATIONERROR": null, "DEPARTAMENTO": null, "PROVINCIA": null, "DISTRITO": null, "ENABLED": 1, "FJUNCTION": null, "TJUNCTION": null, "CODIGOTRAMO": "122064743", "TRAMOPADRE": null, "ETAPA": null, "FECHARETIRO": null, "PROYECTO": null, "LONGITUDREAL": null, "CALIFICACION": null, "CARACTERISTICA": null, "CODIGOPROYECTO": null, "CODIGOVNR": null, "CODIGOVNRADAPTADO": null, "CONTRATISTA": null, "DIAMETRO": null, "ESTADO": null, "ESTADOVNR": null, "MATERIALVNR": null, "PRESION": null, "PROPIETARIO": null, "PROFUNDIDAD": null, "RED": null, "PRESIONPR": null, "PRESIONPRUEBA": null, "TIPOELEMENTO": "TUB", "TIPOGASODUCTO": null, "TIPOPAVIMENTO": null, "TIPOSUELO": null, "OSINERG": null, "SECTOR_MANTENIMIENTO": null, "SECTORCOMERCIAL": null, "ZONAGASIFICACION": null, "MAPO": null, "MAPOAJUSTADA": null, "PRIMARYCOATINGTYPE": null, "CODIGO": null, "INSERVICEDATE": null, "FECHACONSTRUCCION": null, "CODIGOVNR_C": null, "SECTORHANNA": null, "NOMBREMALLA": null, "CODIGOMALLA": null, "CODIGOVALVULA": null, "VNR_OBSER": null, "PROFUNDIDADACOMETIDA": null, "L_REAL": null, "L_HZ": null, "L_VE": null, "CODPROYECTOINTERNO": null, "DENOMINACIONPROYECTO": null, "TAGACOMETIDA": null, "TIPOPROYECTO": null, "NOMBREPROYECTO": null, "AÑO": null}, "geometry": {"type": "LineString", "coordinates": [[-73.528253, -12.923385], [-73.525621, -12.919998], [-73.516964, -12.92065], [-73.507959, -12.919947], [-73.502199, -12.914782], [-73.497892, -12.909554], [-73.49789, -12.909443], [-73.493136, -12.897079], [-73.496149, -12.891089], [-73.494244, -12.889461], [-73.491651, -12.8874], [-73.491432, -12.887073], [-73.484106, -12.872312], [-73.480262, -12.867119], [-73.480526, -12.8631], [-73.477995, -12.859587], [-73.47598, -12.849858], [-73.475451, -12.846001], [-73.472023, -12.843006], [-73.466491, -12.841416], [-73.453809, -12.843404], [-73.449306, -12.84318], [-73.445387, -12.842093], [-73.441204, -12.837066], [-73.433885, -12.826019], [-73.426582, -12.820405], [-73.419573, -12.815786], [-73.413609, -12.809891], [-73.41027, -12.804153], [-73.408406, -12.802667], [-73.39283, -12.793303], [-73.384706, -12.788416], [-73.380743, -12.790573], [-73.375744, -12.791563], [-73.372822, -12.787938], [-73.371087, -12.785677], [-73.367733, -12.785313], [-73.365734, -12.781499], [-73.367035, -12.774633], [-73.366128, -12.771501], [-73.361011, -12.766769], [-73.357912, -12.76387], [-73.354776, -12.760369], [-73.351463, -12.757045], [-73.349026, -12.75526], [-73.345868, -12.753746], [-73.342668, -12.755149], [-73.340386, -12.754735], [-73.337068, -12.75172], [-73.333709, -12.744902], [-73.331688, -12.739293], [-73.32447, -12.734866], [-73.318161, -12.732042], [-73.316762, -12.727915], [-73.315608, -12.721442], [-73.311733, -12.718206], [-73.307592, -12.714794], [-73.296964, -12.708286], [-73.292441, -12.703052], [-73.288024, -12.695994], [-73.283752, -12.69358], [-73.278481, -12.685529], [-73.276546, -12.682597], [-73.275006, -12.682], [-73.270563, -12.681838], [-73.266424, -12.682586], [-73.262199, -12.681182], [-73.255938, -12.677549], [-73.251295, -12.674423], [-73.25024, -12.671398], [-73.239847, -12.658186], [-73.23642, -12.652559], [-73.231809, -12.647168], [-73.23053, -12.645096], [-73.224866, -12.641328], [-73.219502, -12.639207], [-73.215042, -12.632489], [-73.216182, -12.629846], [-73.213595, -12.62545], [-73.209063, -12.61665], [-73.202091, -12.611167], [-73.196248, -12.605378], [-73.188744, -12.602705], [-73.18457, -12.598397], [-73.181357, -12.59129], [-73.171786, -12.585501], [-73.168815, -12.580953], [-73.16058, -12.570572], [-73.153441, -12.561718], [-73.153186, -12.558427], [-73.149901, -12.555745], [-73.142265, -12.547867], [-73.134459, -12.543276], [-73.130613, -12.540477], [-73.130035, -12.537207], [-73.125814, -12.528994], [-73.122494, -12.52317], [-73.117972, -12.51933], [-73.116348, -12.517446], [-73.118325, -12.514413], [-73.116907, -12.511215], [-73.113855, -12.509827], [-73.111928, -12.509098], [-73.109285, -12.509936], [-73.104841, -12.509985], [-73.101337, -12.509696], [-73.099878, -12.509074], [-73.098093, -12.508898], [-73.096933, -12.508894], [-73.092889, -12.505636], [-73.08901, -12.505142], [-73.087699, -12.50456], [-73.085732, -12.503252], [-73.083355, -12.503337], [-73.081167, -12.501537], [-73.079941, -12.498543], [-73.079193, -12.498237], [-73.078934, -12.497438], [-73.078433, -12.496304], [-73.079388, -12.495123], [-73.0779, -12.49162], [-73.076128, -12.486363], [-73.075583, -12.483866], [-73.074602, -12.483], [-73.074404, -12.480627], [-73.075053, -12.47983], [-73.073993, -12.47754], [-73.073615, -12.473498], [-73.071193, -12.467966], [-73.068361, -12.466041], [-73.065099, -12.464583], [-73.061886, -12.462285], [-73.058825, -12.459609], [-73.049382, -12.456522], [-73.04696, -12.454813], [-73.042536, -12.449922], [-73.040002, -12.448748], [-73.037044, -12.449808], [-73.032927, -12.448792], [-73.030349, -12.446671], [-73.025913, -12.444404], [-73.023604, -12.442308], [-73.024197, -12.43846], [-73.024131, -12.436143], [-73.025066, -12.4341], [-73.026521, -12.432638], [-73.027845, -12.431965], [-73.028327, -12.428853], [-73.027479, -12.426829], [-73.028731, -12.424891], [-73.030149, -12.422463], [-73.031113, -12.419396], [-73.030265, -12.418074], [-73.029452, -12.416079], [-73.029283, -12.414654], [-73.026562, -12.415264], [-73.023926, -12.414098], [-73.022981, -12.412205], [-73.021964, -12.40922], [-73.021762, -12.40639], [-73.022089, -12.403948], [-73.025335, -12.401672], [-73.028152, -12.401017], [-73.029894, -12.400258], [-73.032423, -12.393382], [-73.034043, -12.390646], [-73.036305, -12.389639], [-73.038864, -12.387918], [-73.040156, -12.385189], [-73.040389, -12.382821], [-73.043653, -12.37653], [-73.040651, -12.372868], [-73.039069, -12.37182], [-73.03909, -12.370019], [-73.037524, -12.368042], [-73.037356, -12.365489], [-73.03754, -12.363757], [-73.036631, -12.361398], [-73.036193, -12.358115], [-73.037632, -12.351546], [-73.037261, -12.349681], [-73.040269, -12.342077], [-73.039209, -12.340234], [-73.038979, -12.336434], [-73.040316, -12.334012], [-73.040313, -12.331047], [-73.043056, -12.326365], [-73.044647, -12.322713], [-73.043961, -12.319325], [-73.043958, -12.319168], [-73.042751, -12.315095], [-73.041888, -12.310559], [-73.036867, -12.305354], [-73.036863, -12.305051], [-73.037128, -12.299846], [-73.036255, -12.298496], [-73.036005, -12.296852], [-73.037557, -12.293856], [-73.038744, -12.292016], [-73.036318, -12.287979], [-73.030748, -12.285413], [-73.023225, -12.282032], [-73.021255, -12.280938], [-73.019925, -12.279118], [-73.018907, -12.278667], [-73.017227, -12.279114], [-73.015779, -12.279639], [-73.014509, -12.278269], [-73.013629, -12.275426], [-73.013643, -12.275193], [-73.013091, -12.270424], [-73.011249, -12.264041], [-73.010977, -12.258708], [-73.01098, -12.258389], [-73.010214, -12.2553], [-73.008132, -12.251329], [-73.006875, -12.247427], [-73.008945, -12.243008], [-73.010428, -12.240419], [-73.010519, -12.238292], [-73.008049, -12.23644], [-73.007291, -12.235188], [-73.007297, -12.22965], [-73.008324, -12.228271], [-73.0083, -12.222827], [-73.008624, -12.218894], [-73.009221, -12.217061], [-73.007988, -12.215269], [-73.006367, -12.213623], [-73.006376, -12.213388], [-73.006467, -12.213073], [-73.007629, -12.2089], [-73.007825, -12.208566], [-73.007841, -12.208401], [-73.008396, -12.206948], [-73.01042, -12.204857], [-73.011053, -12.203003], [-73.009668, -12.201513], [-73.007389, -12.200205], [-73.005731, -12.199692], [-73.005501, -12.19803], [-73.005988, -12.196529], [-73.005336, -12.195062], [-73.00247, -12.193666], [-73.001353, -12.189917], [-72.999969, -12.185393], [-72.996926, -12.18503], [-72.994956, -12.185687], [-72.99426, -12.184541], [-72.994561, -12.18125], [-72.995859, -12.176547], [-72.994727, -12.172906], [-72.992559, -12.171872], [-72.993177, -12.169407], [-72.993177, -12.169327], [-72.993984, -12.167479], [-72.993602, -12.165701], [-72.992319, -12.163992], [-72.993085, -12.161208], [-72.993089, -12.160882], [-72.992669, -12.157312], [-72.990961, -12.154747], [-72.991204, -12.152492], [-72.990844, -12.150559], [-72.990531, -12.149228], [-72.988591, -12.148904], [-72.987929, -12.146801], [-72.987861, -12.144529], [-72.987867, -12.144366], [-72.986999, -12.142575], [-72.988178, -12.138983], [-72.988259, -12.138502], [-72.9871, -12.135066], [-72.98686, -12.133367], [-72.982631, -12.131489], [-72.980048, -12.128632], [-72.976258, -12.12442], [-72.975264, -12.120023], [-72.975799, -12.117105], [-72.978645, -12.114955], [-72.981208, -12.114164], [-72.985049, -12.113603], [-72.986716, -12.109481], [-72.985575, -12.106145], [-72.983702, -12.103591], [-72.986525, -12.101164], [-72.988073, -12.097652], [-72.989566, -12.096856], [-72.991498, -12.096858], [-72.992738, -12.094765], [-72.992235, -12.093302], [-72.990806, -12.091857], [-72.989712, -12.089876], [-72.989233, -12.087576], [-72.989509, -12.086388], [-72.991657, -12.085518], [-72.993617, -12.084963], [-72.995172, -12.083215], [-72.995526, -12.079914], [-72.9946, -12.075924], [-72.994383, -12.074239], [-72.996334, -12.071922], [-72.997488, -12.070037], [-72.990402, -12.063542], [-72.99003, -12.063363], [-72.989108, -12.062113], [-72.988463, -12.061254], [-72.988627, -12.060206], [-72.988631, -12.060098], [-72.988701, -12.059231], [-72.989247, -12.058406], [-72.988772, -12.057518], [-72.988224, -12.056651], [-72.986785, -12.055799], [-72.985883, -12.054706], [-72.98549, -12.053428], [-72.984522, -12.051924], [-72.984166, -12.050166], [-72.984098, -12.049005], [-72.984805, -12.046109], [-72.985322, -12.044316], [-72.987287, -12.040788], [-72.987194, -12.038994], [-72.987806, -12.035967], [-72.987849, -12.035928], [-72.989189, -12.034687], [-72.98995, -12.033456], [-72.990506, -12.027363], [-72.990795, -12.024771], [-72.99087, -12.021798], [-72.990445, -12.013939], [-72.990016, -12.011083], [-72.989653, -12.009274], [-72.989168, -12.006361], [-72.988418, -12.003117], [-72.988645, -12.000871], [-72.986956, -11.997385], [-72.9867, -11.99659], [-72.985536, -11.995839], [-72.985171, -11.993473], [-72.985149, -11.993308], [-72.983847, -11.989389], [-72.981988, -11.986205], [-72.976712, -11.981888], [-72.973245, -11.977994], [-72.971065, -11.977598], [-72.970014, -11.977353], [-72.968894, -11.977541], [-72.966925, -11.977237], [-72.965043, -11.97632], [-72.959406, -11.968664], [-72.958255, -11.966927], [-72.955552, -11.966136], [-72.953386, -11.964706], [-72.94969, -11.963792], [-72.943944, -11.960896], [-72.940541, -11.958493], [-72.937692, -11.955412], [-72.934659, -11.951736], [-72.932209, -11.949721], [-72.930115, -11.948564], [-72.928299, -11.947265], [-72.927041, -11.946731], [-72.925459, -11.94674], [-72.922432, -11.946921], [-72.9209, -11.946869], [-72.920456, -11.945798], [-72.922135, -11.943003], [-72.924605, -11.935438], [-72.925638, -11.932758], [-72.92638, -11.931045], [-72.926666, -11.929589], [-72.927605, -11.927986], [-72.927644, -11.927911], [-72.930374, -11.919817], [-72.930376, -11.919738], [-72.932196, -11.913452], [-72.934555, -11.907963], [-72.934558, -11.905294], [-72.934265, -11.904171], [-72.934167, -11.902842], [-72.934209, -11.901611], [-72.934138, -11.899853], [-72.934254, -11.897822], [-72.937326, -11.887171], [-72.94004, -11.879109], [-72.940434, -11.872524], [-72.939699, -11.870141], [-72.939214, -11.868006], [-72.939012, -11.863505], [-72.939444, -11.859483], [-72.94078, -11.854545], [-72.941537, -11.851721], [-72.942458, -11.849083], [-72.943442, -11.845011], [-72.944218, -11.843094], [-72.94336, -11.842865]]}},
{"type": "Feature", "properties": {"ProjectID": "P1290", "TAG": "122064744", "SHAPE.LEN": 210224.152028238, "LOCALIDAD": "TGP", "OBJECTID": 276187, "ASSETGROUP": 3, "ASSETTYPE": 3, "ASSOCIATIONSTATUS": 0, "ISCONNECTED": 0, "FROMDEVICETERMINAL": 0, "TODEVICETERMINAL": 0, "CREATIONDATE": null, "CREATOR": null, "LASTUPDATE": null, "UPDATEDBY": null, "GLOBALID": "{00000000-0000-0000-0000-000000000000}", "REGULATORYTYPE": 3, "PINCHABLE": 2, "PIGGABLE": 2, "WARNINGTAPE": 0, "TRACERWIRE": 2, "SEAMTYPE": null, "LONGSEAMTYPE": null, "GIRTHWELDTYPE": null, "LONGITUDINALSEAMORIENTATION": null, "PIPESURFACEAREA": null, "INSTALLATIONDATE": null, "INSTALLATIONMETHOD": 0, "ASSETID": "TGP", "OWNEDBY": 0, "MAINTBY": 0, "LIFECYCLESTATUS": 3, "NOMINALDIAMETER": null, "OPERATINGPRESSURE": null, "MAOPDESIGN": null, "MAOPTEST": null, "MAOPRECORD": null, "MEASUREDLENGTH": 210224.15202824, "LENGTHSOURCE": 0, "WALLTHICKNESS": null, "OUTSIDEDIAMETER": null, "BARCODE": null, "MANUFACTURER": null, "MANUFACTURERLOTNO": null, "MANUFACTUREDATE": null, "MANUFACTURECOMPONENT": null, "MATERIAL": null, "SYSTEMSUBNETWORKNAME": "Red Interna", "PRESSURESUBNETWORKNAME": " ", "ISOLATIONSUBNETWORKNAME": " ", "CPSUBNETWORKNAME": " ", "PIPEVOLUME": null, "COMMODITY": 1, "ACTUALINTERNALDIAMETER": null, "COVERTYPE": "0", "ORIGINALCOVERDEPTH": null, "DEPTHUNITS": 4, "PRIMARYCOATINGAPPDATE": null, "SECONDARYCOATINGTYPE": null, "SECONDARYCOATINGAPPDATE": null, "TERTIARYCOATINGTYPE": null, "TERTIARYCOATINGAPPDATE": null, "SMYS": null, "PORCENTAJE_MYS": null, "DATERETIRED": null, "CRITICALINDICATOR": 2, "STUBBED": null, "DESIGNCLASS": null, "SPATIALACCURACY": 6, "PIPETESTDATE": null, "PIPETESTDURATION": null, "PIPETESTPRESSURE": null, "PIPETESTTYPE": null, "DESIGNPRESSUREENTERED": null, "DESIGNPRESSURESTANDARD": null, "DESIGNPRESSUREUNITS": 1, "DESIGNFACTOR": null, "COLOR": null, "DEPTH": null, "WIRESIZE": null, "GAUGE": null, "WIREMATERIAL": null, "SERVICESUMMARYID": null, "WORKORDERID": null, "PROJECTNUMBER": null, "LEGACYID": "276187", "ASSETUNITCODE": null, "PRESSUREUNITS": 1, "MAOPUNITS": 1, "LENGTHUNITS": 3, "DIAMETERUNITS": null, "PIPESURFACEAREAUNITS": 3, "PIPEVOLUMEUNITS": 3, "COMMENTS": "TGP", "EVENTID": null, "FROMDATE": null, "TODATE": null, "ENGROUTEID": null, "ENGROUTENAME": null, "ENGFROMM": null, "ENGTOROUTEID": null, "ENGTOROUTENAME": null, "ENGTOM": null, "CONTINROUTEID": null, "CONTINROUTENAME": null, "CONTINFROMM": null, "CONTINTOM": null, "FROMREFMETHOD": null, "FROMREFLOCATION": null, "FROMREFOFFSET": null, "TOREFMETHOD": null, "TOREFLOCATION": null, "TOREFOFFSET": null, "LOCATIONERROR": null, "DEPARTAMENTO": "11", "PROVINCIA": "1102", "DISTRITO": "110207", "ENABLED": 1, "FJUNCTION": null, "TJUNCTION": null, "CODIGOTRAMO": "122064744", "TRAMOPADRE": "122064745", "ETAPA": null, "FECHARETIRO": null, "PROYECTO": null, "LONGITUDREAL": null, "CALIFICACION": null, "CARACTERISTICA": null, "CODIGOPROYECTO": null, "CODIGOVNR": null, "CODIGOVNRADAPTADO": null, "CONTRATISTA": null, "DIAMETRO": null, "ESTADO": null, "ESTADOVNR": null, "MATERIALVNR": null, "PRESION": null, "PROPIETARIO": null, "PROFUNDIDAD": null, "RED": null, "PRESIONPR": null, "PRESIONPRUEBA": null, "TIPOELEMENTO": "TUB", "TIPOGASODUCTO": null, "TIPOPAVIMENTO": null, "TIPOSUELO": null, "OSINERG": null, "SECTOR_MANTENIMIENTO": null, "SECTORCOMERCIAL": null, "ZONAGASIFICACION": null, "MAPO": null, "MAPOAJUSTADA": null, "PRIMARYCOATINGTYPE": null, "CODIGO": null, "INSERVICEDATE": null, "FECHACONSTRUCCION": null, "CODIGOVNR_C": null, "SECTORHANNA": null, "NOMBREMALLA": null, "CODIGOMALLA": null, "CODIGOVALVULA": null, "VNR_OBSER": null, "PROFUNDIDADACOMETIDA": null, "L_REAL": null, "L_HZ": null, "L_VE": null, "CODPROYECTOINTERNO": null, "DENOMINACIONPROYECTO": null, "TAGACOMETIDA": null, "TIPOPROYECTO": null, "NOMBREPROYECTO": null, "AÑO": null}, "geometry": {"type": "LineString", "coordinates": [[-75.891797, -13.739866], [-75.891848, -13.739814], [-75.89238, -13.739405], [-75.894078, -13.738097], [-75.89493, -13.73635], [-75.897313, -13.73158], [-75.900668, -13.72467], [-75.900725, -13.723588], [-75.900819, -13.722455], [-75.902055, -13.721268], [-75.906054, -13.71392], [-75.910006, -13.704701], [-75.912148, -13.703726], [-75.914404, -13.701921], [-75.915621, -13.701538], [-75.918495, -13.700661], [-75.921347, -13.700783], [-75.923833, -13.69919], [-75.927972, -13.697806], [-75.929155, -13.696948], [-75.929818, -13.695897], [-75.932114, -13.694458], [-75.940992, -13.694474], [-75.941253, -13.694471], [-75.941514, -13.69446], [-75.941775, -13.694443], [-75.942035, -13.694418], [-75.942294, -13.694386], [-75.942552, -13.694347], [-75.942809, -13.694301], [-75.943064, -13.694248], [-75.943318, -13.694188], [-75.94357, -13.69412], [-75.94382, -13.694046], [-75.944067, -13.693965], [-75.944312, -13.693877], [-75.944555, -13.693783], [-75.944795, -13.693681], [-75.945032, -13.693574], [-75.945265, -13.693459], [-75.945495, -13.693338], [-75.945722, -13.693211], [-75.945944, -13.693078], [-75.946163, -13.692939], [-75.946378, -13.692794], [-75.946589, -13.692642], [-75.946795, -13.692485], [-75.946996, -13.692323], [-75.947193, -13.692155], [-75.947384, -13.691981], [-75.947571, -13.691803], [-75.947752, -13.691619], [-75.947928, -13.69143], [-75.948099, -13.691237], [-75.948263, -13.691039], [-75.948422, -13.690836], [-75.948575, -13.690629], [-75.948723, -13.690418], [-75.948863, -13.690203], [-75.948998, -13.689985], [-75.949126, -13.689762], [-75.949248, -13.689536], [-75.949363, -13.689307], [-75.949472, -13.689075], [-75.949574, -13.68884], [-75.949669, -13.688602], [-75.949757, -13.688361], [-75.949838, -13.688119], [-75.955334, -13.670843], [-75.955995, -13.668852], [-75.96095, -13.664004], [-75.963168, -13.661792], [-75.965303, -13.659822], [-75.965896, -13.65899], [-75.966615, -13.658764], [-75.968727, -13.657059], [-75.970837, -13.657029], [-75.97473, -13.655432], [-75.975136, -13.654708], [-75.985867, -13.646732], [-75.988478, -13.645913], [-75.997614, -13.63459], [-75.99837, -13.630509], [-75.998954, -13.625255], [-76.000715, -13.621528], [-76.002504, -13.614474], [-76.003458, -13.609616], [-76.005335, -13.603979], [-76.007334, -13.598142], [-76.009188, -13.593354], [-76.010511, -13.590073], [-76.011629, -13.587394], [-76.01325, -13.583768], [-76.014197, -13.581679], [-76.01488, -13.580116], [-76.020072, -13.567656], [-76.02282, -13.562218], [-76.024348, -13.558363], [-76.024617, -13.55462], [-76.026358, -13.548395], [-76.030152, -13.53788], [-76.033073, -13.530133], [-76.03491, -13.524543], [-76.036503, -13.519238], [-76.037185, -13.517377], [-76.038051, -13.515808], [-76.038119, -13.514449], [-76.039084, -13.510096], [-76.040769, -13.507324], [-76.042661, -13.50566], [-76.043024, -13.50486], [-76.042849, -13.50301], [-76.044812, -13.497064], [-76.047924, -13.487434], [-76.048219, -13.486023], [-76.048467, -13.485587], [-76.049755, -13.481205], [-76.051076, -13.477877], [-76.051623, -13.476416], [-76.051764, -13.476181], [-76.053851, -13.472644], [-76.054732, -13.470777], [-76.056117, -13.468341], [-76.058603, -13.46382], [-76.06003, -13.460853], [-76.064638, -13.454947], [-76.064658, -13.454922], [-76.067139, -13.450703], [-76.067161, -13.450666], [-76.06906, -13.447984], [-76.071759, -13.44648], [-76.071544, -13.443403], [-76.071544, -13.443402], [-76.07174, -13.442254], [-76.071674, -13.441942], [-76.071436, -13.440995], [-76.069696, -13.439475], [-76.069014, -13.438907], [-76.069014, -13.438482], [-76.069637, -13.437419], [-76.070442, -13.436841], [-76.071198, -13.431824], [-76.0852, -13.414936], [-76.088391, -13.415287], [-76.094888, -13.404822], [-76.096434, -13.402198], [-76.099102, -13.397764], [-76.101099, -13.39438], [-76.102744, -13.391582], [-76.105637, -13.386697], [-76.108057, -13.382583], [-76.111328, -13.37694], [-76.112869, -13.374233], [-76.114022, -13.372207], [-76.11739, -13.366195], [-76.117417, -13.366124], [-76.118732, -13.360913], [-76.119523, -13.357706], [-76.119983, -13.355099], [-76.120809, -13.351279], [-76.123207, -13.346341], [-76.127012, -13.343318], [-76.130481, -13.340646], [-76.133794, -13.338487], [-76.141397, -13.333516], [-76.14463, -13.331419], [-76.150093, -13.327842], [-76.153489, -13.32562], [-76.157543, -13.322964], [-76.160854, -13.320768], [-76.166406, -13.317092], [-76.170687, -13.314417], [-76.177617, -13.309914], [-76.182174, -13.30698], [-76.187402, -13.303239], [-76.189266, -13.301344], [-76.196259, -13.298052], [-76.199592, -13.295355], [-76.202286, -13.293202], [-76.204374, -13.291635], [-76.206813, -13.290268], [-76.211016, -13.287911], [-76.213472, -13.286535], [-76.215966, -13.2847], [-76.21748, -13.283502], [-76.221954, -13.280477], [-76.225621, -13.277267], [-76.234889, -13.269729], [-76.238821, -13.266729], [-76.246345, -13.261568], [-76.250134, -13.258981], [-76.255243, -13.255645], [-76.260137, -13.251559], [-76.26675, -13.245026], [-76.270385, -13.243095], [-76.273637, -13.241253], [-76.279714, -13.236804], [-76.284077, -13.23225], [-76.288717, -13.229964], [-76.294145, -13.225861], [-76.298312, -13.223092], [-76.302379, -13.217919], [-76.303182, -13.216486], [-76.307819, -13.213264], [-76.310114, -13.210114], [-76.311838, -13.209005], [-76.314919, -13.207066], [-76.31749, -13.205762], [-76.321724, -13.202403], [-76.323191, -13.20102], [-76.32664, -13.196781], [-76.328595, -13.195013], [-76.333939, -13.189936], [-76.336904, -13.187819], [-76.341139, -13.18484], [-76.342994, -13.181201], [-76.346348, -13.175558], [-76.351599, -13.170224], [-76.353867, -13.168159], [-76.358371, -13.16449], [-76.360546, -13.161888], [-76.362235, -13.159696], [-76.363246, -13.155278], [-76.36375, -13.153105], [-76.363769, -13.148524], [-76.365386, -13.145829], [-76.367961, -13.145362], [-76.371497, -13.143134], [-76.372036, -13.142598], [-76.37564, -13.134773], [-76.375528, -13.133996], [-76.375658, -13.133644], [-76.382195, -13.132446], [-76.38704, -13.131199], [-76.389226, -13.11759], [-76.394707, -13.112312], [-76.398723, -13.108207], [-76.397999, -13.097317], [-76.396715, -13.09503], [-76.396938, -13.094214], [-76.396879, -13.09348], [-76.397675, -13.092152], [-76.394624, -13.086184], [-76.396005, -13.082222], [-76.396658, -13.080997], [-76.396377, -13.080082], [-76.396348, -13.079999], [-76.398802, -13.07759], [-76.398313, -13.076572], [-76.398044, -13.075274], [-76.39854, -13.074787], [-76.400354, -13.073977], [-76.401003, -13.073321], [-76.402018, -13.072496], [-76.404567, -13.071857], [-76.405779, -13.070539], [-76.411488, -13.063296], [-76.412115, -13.059994], [-76.411942, -13.058028], [-76.41159, -13.057438], [-76.411762, -13.056766], [-76.410822, -13.050168], [-76.422266, -13.033298], [-76.423221, -13.032215], [-76.423384, -13.031649], [-76.424826, -13.029547], [-76.425428, -13.027902], [-76.426128, -13.027605], [-76.428393, -13.024265], [-76.431311, -13.021697], [-76.432011, -13.020777], [-76.43406, -13.020869], [-76.436776, -13.020055], [-76.437917, -13.019722], [-76.438895, -13.018572], [-76.439883, -13.018516], [-76.440441, -13.018156], [-76.441262, -13.01753], [-76.441731, -13.017238], [-76.445064, -13.016372], [-76.447814, -13.017682], [-76.448926, -13.017689], [-76.449264, -13.017608], [-76.449897, -13.014467], [-76.449559, -13.012581], [-76.449935, -13.012218], [-76.451846, -13.008793], [-76.453252, -13.005571], [-76.45518, -13.003149], [-76.454928, -13.001737], [-76.45483, -13.000771], [-76.456993, -12.997985], [-76.457621, -12.997665], [-76.458428, -12.997549], [-76.459128, -12.99705], [-76.459701, -12.996024], [-76.462698, -12.992687], [-76.465703, -12.990861], [-76.467105, -12.989869], [-76.471199, -12.989787], [-76.472331, -12.989521], [-76.474846, -12.989436], [-76.479002, -12.988218], [-76.485334, -12.985943], [-76.488445, -12.978425], [-76.492308, -12.97808], [-76.493101, -12.977138], [-76.493969, -12.97533], [-76.494839, -12.971839], [-76.495678, -12.969168], [-76.496323, -12.965681], [-76.497335, -12.963762], [-76.497341, -12.959475], [-76.497461, -12.955095], [-76.496007, -12.949078], [-76.495844, -12.94854], [-76.495448, -12.947274], [-76.494866, -12.945395], [-76.49386, -12.944312], [-76.493092, -12.942823], [-76.49283, -12.941218], [-76.492726, -12.939734], [-76.49204, -12.937452], [-76.491898, -12.936632], [-76.492563, -12.935224], [-76.495089, -12.923543], [-76.496255, -12.918146], [-76.497076, -12.914348], [-76.498427, -12.90913], [-76.500148, -12.904942], [-76.5025, -12.898668], [-76.503589, -12.895167], [-76.504414, -12.889344], [-76.505655, -12.880507], [-76.506263, -12.875248], [-76.506787, -12.870692], [-76.506892, -12.866123], [-76.50698, -12.865468], [-76.508289, -12.858564], [-76.509688, -12.851053], [-76.509793, -12.849647], [-76.510495, -12.845968], [-76.511793, -12.842344], [-76.512973, -12.838772], [-76.514796, -12.835578], [-76.516207, -12.83311], [-76.518742, -12.828672], [-76.521331, -12.82412], [-76.525441, -12.816947], [-76.52721, -12.813841], [-76.529467, -12.810501], [-76.529653, -12.809349], [-76.530403, -12.804716], [-76.531973, -12.803577], [-76.53218, -12.802685], [-76.534085, -12.800954], [-76.536109, -12.799129], [-76.538876, -12.797275], [-76.540875, -12.797211], [-76.542413, -12.795126], [-76.543294, -12.793933], [-76.545511, -12.790978], [-76.552357, -12.789785], [-76.557282, -12.78952], [-76.55873, -12.789604], [-76.560169, -12.788258], [-76.562379, -12.787755], [-76.56569, -12.785912], [-76.566502, -12.783931], [-76.567513, -12.782698], [-76.56748, -12.782392], [-76.566063, -12.780971], [-76.565597, -12.779983], [-76.565696, -12.779248], [-76.56561, -12.776791], [-76.565892, -12.776405], [-76.567242, -12.774578], [-76.568801, -12.774123], [-76.574041, -12.768229], [-76.583254, -12.766424], [-76.583928, -12.765833], [-76.584814, -12.766159], [-76.590038, -12.765272], [-76.590236, -12.764453], [-76.590931, -12.760387], [-76.595229, -12.754907], [-76.595953, -12.753242], [-76.599205, -12.748753], [-76.606606, -12.739434], [-76.607458, -12.737972], [-76.609688, -12.735954], [-76.610468, -12.732696], [-76.612328, -12.724987], [-76.612711, -12.723277], [-76.613131, -12.721035], [-76.61527, -12.719001], [-76.615827, -12.718655], [-76.617047, -12.719095], [-76.618064, -12.719171], [-76.619227, -12.719301], [-76.619644, -12.718486], [-76.622092, -12.716734], [-76.627332, -12.711919], [-76.627562, -12.711479], [-76.6289, -12.710133], [-76.630745, -12.70899], [-76.631705, -12.708961], [-76.635602, -12.704368], [-76.63571, -12.704188], [-76.638658, -12.69946], [-76.639391, -12.698283], [-76.639904, -12.697517], [-76.642361, -12.693848], [-76.645509, -12.689147], [-76.6457, -12.687649], [-76.645485, -12.686562], [-76.645765, -12.6852], [-76.645819, -12.683036], [-76.645962, -12.681732], [-76.646573, -12.67556], [-76.648355, -12.673493], [-76.648385, -12.673115], [-76.649487, -12.671846], [-76.649717, -12.66982], [-76.650512, -12.668748], [-76.653231, -12.667], [-76.653784, -12.66588], [-76.652875, -12.662741], [-76.653299, -12.661977], [-76.654048, -12.659982], [-76.656322, -12.658888], [-76.656628, -12.65803], [-76.655889, -12.656624], [-76.65632, -12.654729], [-76.656288, -12.65381], [-76.656935, -12.652669], [-76.657781, -12.649553], [-76.658863, -12.648623], [-76.661336, -12.645251], [-76.662543, -12.642812], [-76.663001, -12.6406], [-76.665692, -12.638922], [-76.666689, -12.636497], [-76.666782, -12.633072], [-76.665618, -12.627215], [-76.665652, -12.625751], [-76.666249, -12.624135], [-76.665271, -12.62233], [-76.664584, -12.620021], [-76.656547, -12.602704], [-76.65196, -12.595857], [-76.651338, -12.595018], [-76.651387, -12.592411], [-76.650461, -12.591554], [-76.650368, -12.591168], [-76.651673, -12.589951], [-76.652338, -12.589485], [-76.652605, -12.588154], [-76.652439, -12.586534], [-76.65257, -12.586063], [-76.653504, -12.582998], [-76.654026, -12.581342], [-76.654258, -12.580868], [-76.654528, -12.580056], [-76.654562, -12.579473], [-76.65469, -12.579057], [-76.65459, -12.578681], [-76.654806, -12.577998], [-76.655139, -12.577348], [-76.655881, -12.576024], [-76.660655, -12.573556], [-76.661231, -12.572813], [-76.663018, -12.571822], [-76.664496, -12.57159], [-76.669129, -12.570451], [-76.680001, -12.569951], [-76.685701, -12.568882], [-76.692211, -12.565111], [-76.695581, -12.5554], [-76.695532, -12.554578], [-76.696066, -12.553315], [-76.696213, -12.552781], [-76.696882, -12.551777], [-76.700074, -12.54265], [-76.703082, -12.540401], [-76.703984, -12.539318], [-76.704598, -12.538377], [-76.705161, -12.53559], [-76.706204, -12.533178], [-76.710561, -12.527022], [-76.710905, -12.526403], [-76.711397, -12.525231], [-76.711588, -12.524595], [-76.711679, -12.524291], [-76.712142, -12.523969], [-76.71259, -12.523445], [-76.713318, -12.523248], [-76.714965, -12.522245], [-76.716236, -12.520627], [-76.718814, -12.516723], [-76.720955, -12.50833], [-76.721533, -12.507235], [-76.722997, -12.506339], [-76.724463, -12.504293], [-76.726666, -12.504301], [-76.726881, -12.504126], [-76.727442, -12.496687], [-76.727574, -12.495585], [-76.728731, -12.485959], [-76.728734, -12.482724], [-76.729089, -12.479417], [-76.730398, -12.477117], [-76.729597, -12.475159], [-76.72918, -12.474263], [-76.728526, -12.47331], [-76.728062, -12.472247], [-76.727702, -12.468274], [-76.727358, -12.465036], [-76.726747, -12.454324], [-76.7276, -12.45402], [-76.727908, -12.450547], [-76.726793, -12.448967], [-76.727558, -12.447117], [-76.728106, -12.444458], [-76.728183, -12.443088], [-76.727317, -12.441661], [-76.727254, -12.441104], [-76.727353, -12.44042], [-76.727047, -12.438847], [-76.72768, -12.438172], [-76.728123, -12.437226], [-76.728235, -12.436666], [-76.728201, -12.436299], [-76.728038, -12.435556], [-76.727819, -12.434568], [-76.726673, -12.433541], [-76.725806, -12.433148], [-76.724454, -12.431667], [-76.724712, -12.430404], [-76.725235, -12.428827], [-76.725799, -12.426808], [-76.725812, -12.425908], [-76.726263, -12.424929], [-76.72722, -12.42185], [-76.732367, -12.411593], [-76.735251, -12.405077], [-76.742447, -12.402306], [-76.749794, -12.396708], [-76.756861, -12.38764], [-76.759429, -12.374249], [-76.760155, -12.368404], [-76.760604, -12.36574], [-76.764708, -12.355709], [-76.767855, -12.34928], [-76.769431, -12.346863], [-76.769668, -12.346496], [-76.769966, -12.346034], [-76.771588, -12.344436], [-76.786608, -12.333967], [-76.789421, -12.331717], [-76.794804, -12.326876], [-76.799226, -12.322758], [-76.808813, -12.315487], [-76.810848, -12.313939], [-76.814067, -12.310701], [-76.818786, -12.307923], [-76.822266, -12.30387], [-76.823119, -12.302745], [-76.827078, -12.298772], [-76.828171, -12.296927], [-76.829179, -12.294129], [-76.829757, -12.293578]]}}
]
}
