{
"type": "FeatureCollection",
"features": [
{"type": "Feature", "properties": {"ProjectID": "P1325"}, "geometry": {"type": "MultiLineString", "coordinates": [[[7.078789, 53.445872], [7.212716, 53.449285], [7.268166, 53.412119], [7.264701, 53.370785], [7.254304, 53.348034], [7.264701, 53.323201], [7.316889, 53.317877]], [[7.059785, 53.379569], [7.078789, 53.445872], [7.143459, 53.491366], [7.293373, 53.535065], [7.519715, 53.549039], [7.657872, 53.547292], [7.769573, 53.561262], [7.943555, 53.553405]]]}}
]
}
