{
"type": "FeatureCollection",
"features": [
{"type": "Feature", "properties": {"ProjectID": "P1329"}, "geometry": {"type": "LineString", "coordinates": [[22.075603, 48.553314], [22.086221, 48.583326], [22.073785, 48.613286], [22.034216, 48.616677], [21.996343, 48.618373], [21.969775, 48.646071], [21.965818, 48.658507], [21.942077, 48.66416], [21.898551, 48.6749], [21.833545, 48.711643], [21.841459, 48.744428], [21.85446, 48.777779], [21.870287, 48.797564], [21.894029, 48.809435], [21.900812, 48.856917], [21.952817, 48.883485], [21.958459, 48.943307], [21.963024, 48.976782], [21.950851, 49.039167], [21.987369, 49.069598], [22.011715, 49.101552], [22.022366, 49.150242], [22.04519, 49.170023], [22.014758, 49.211106], [22.037582, 49.243059], [22.0741, 49.276534], [22.086272, 49.323703], [22.14105, 49.373915], [22.142571, 49.395218], [22.080186, 49.449995], [22.147136, 49.551941], [22.077769, 49.609414]]}}
]
}
