{
"type": "FeatureCollection",
"features": [
{"type": "Feature", "properties": {"ProjectID": "P1321"}, "geometry": {"type": "MultiLineString", "coordinates": [[[17.791247, 43.338923], [17.785142, 43.339633], [17.777816, 43.338745], [17.771222, 43.335903], [17.765361, 43.340166], [17.762186, 43.34212], [17.757546, 43.343008], [17.753151, 43.341764], [17.748511, 43.340521], [17.743871, 43.338923], [17.741429, 43.337324], [17.736544, 43.334837], [17.732637, 43.333416], [17.725311, 43.333772], [17.71774, 43.336081], [17.709681, 43.339455], [17.702355, 43.342475], [17.693808, 43.347092], [17.68868, 43.349934], [17.684772, 43.35242], [17.682574, 43.354551], [17.676225, 43.357924], [17.672073, 43.361653], [17.670852, 43.363428], [17.630314, 43.365381], [17.60516, 43.372127], [17.595636, 43.372837], [17.590263, 43.37621], [17.583914, 43.379938], [17.560958, 43.378518], [17.537514, 43.37905], [17.517978, 43.376033], [17.50479, 43.378695], [17.492092, 43.385795], [17.482079, 43.390764], [17.459612, 43.398039], [17.446669, 43.402298], [17.435924, 43.408153], [17.421027, 43.412056], [17.409305, 43.415781], [17.406374, 43.421457], [17.405153, 43.428729], [17.404421, 43.436177], [17.404176, 43.440788], [17.401246, 43.44522], [17.384151, 43.451958], [17.363149, 43.456567], [17.350939, 43.460644], [17.337263, 43.466493], [17.328472, 43.472519], [17.322611, 43.486341], [17.321634, 43.499451], [17.312598, 43.515392], [17.308738, 43.535845]]]}},
{"type": "Feature", "properties": {"ProjectID": "P1321"}, "geometry": {"type": "MultiLineString", "coordinates": [[[17.308738, 43.535845], [17.273764, 43.549461], [17.270019, 43.555975], [17.275262, 43.569905], [17.263381, 43.594228], [17.255116, 43.620411], [17.224121, 43.649947], [17.216373, 43.675359], [17.222055, 43.703747], [17.238586, 43.723163], [17.236003, 43.740334], [17.218439, 43.763469], [17.216373, 43.793307], [17.204491, 43.812321], [17.19106, 43.829094], [17.17143, 43.844743], [17.181245, 43.860762], [17.184345, 43.876403], [17.205008, 43.893902], [17.206558, 43.927024], [17.220505, 43.942648], [17.238069, 43.966448], [17.278362, 43.984664], [17.279912, 44.01402], [17.293859, 44.02145], [17.353782, 44.032221], [17.380644, 44.055614], [17.444183, 44.052644], [17.447799, 44.082709], [17.436435, 44.096808], [17.401307, 44.119063], [17.387876, 44.132783], [17.392009, 44.139827], [17.404407, 44.147982], [17.408539, 44.172071], [17.416805, 44.18726], [17.433335, 44.19652], [17.450899, 44.204297], [17.504623, 44.209481], [17.521153, 44.20837], [17.545432, 44.215405], [17.561446, 44.229102], [17.576427, 44.238726], [17.613235, 44.241699]]]}}
]
}
