{
"type": "FeatureCollection",
"features": [
{"type": "Feature", "properties": {"ProjectID": "P1333", "OBJECTID": 43639158, "LICENCE_NO": "60496", "IS_NEB": "N", "LINE_NO": "6", "LIC_LI_NO": "60496-6", "PLLICSEGID": "343196", "COMP_NAME": "ATCO Gas And Pipelines Ltd.", "BA_CODE": "0144", "PL_SPEC_ID": "1", "SEG_LENGTH": "12.46", "SEG_STATUS": "Operating", "FROM_FAC": "Pipeline", "FROM_LOC": "12-32-051-04W5", "TO_FAC": "Consumer", "TO_LOC": "08-36-051-04W5", "H2S_R_VOLM": null, "H2S_R_LEVL": null, "H2S_CONT": "0", "PIPTECHSTD": null, "OUT_DIAMET": "508", "WALL_THICK": "7.3", "PIPE_TYPE": "Z245.1", "PIPE_GRADE": "4832", "PIP_MATERL": "Steel", "PIPE_MAOP": "9930", "BIDIRE_IND": null, "HDD_IND": null, "LINER_GRD": null, "LINER_TYPE": null, "EXT_COAT": "FBE", "PIPE_ENVIR": "Creek Crossing", "CLASS_LOC": "Class 1", "STRESSLEVL": "72", "JOINTMETHD": "Welded", "INT_COAT": "Uncoated", "FLD_CTR_NM": "Drayton Valley", "SUBSTANCE1": "Natural Gas", "SUBSTANCE2": null, "SUBSTANCE3": null, "ORIG_LICNO": "60496", "ORIGPSPPID": "1", "ORIGLIN_NO": "6", "LICAPPDATE": "2020-10-26", "ORG_ISSUED": "2018-10-26", "PERMT_APPR": "2018-10-26", "PERMT_EXPI": "2020-10-26", "LAST_OCCYR": "2018", "TEMPSURFPL": null, "GEOM_SRCE": "ROW centre line", "SHAPE_LEN": "12441.46247704916", "layer": "P1333", "path": "/Users/isabelmahon/Documents/finalpipelineroutes/P1333.geojson"}, "geometry": {"type": "MultiLineString", "coordinates": [[[-114.565131, 53.44695], [-114.559885, 53.446954], [-114.555368, 53.44454], [-114.555385, 53.439574], [-114.555414, 53.432086], [-114.555436, 53.425782], [-114.555662, 53.425415], [-114.555666, 53.424616], [-114.529641, 53.424616], [-114.525323, 53.423927], [-114.511924, 53.423971], [-114.510747, 53.424468], [-114.493265, 53.42448], [-114.481848, 53.424487], [-114.481562, 53.424425], [-114.479168, 53.424426], [-114.478882, 53.424488], [-114.4687, 53.424493], [-114.459262, 53.424496], [-114.45926, 53.426248], [-114.458326, 53.427323], [-114.457766, 53.428321], [-114.457396, 53.429656], [-114.456569, 53.430549], [-114.456169, 53.430796], [-114.448436, 53.431847], [-114.442273, 53.437953], [-114.442256, 53.443145], [-114.44619, 53.44453], [-114.446902, 53.444548], [-114.447279, 53.44473], [-114.447396, 53.444789]]]}},
{"type": "Feature", "properties": {"ProjectID": "P1333", "OBJECTID": 43639159, "LICENCE_NO": "60496", "IS_NEB": "N", "LINE_NO": "5", "LIC_LI_NO": "60496-5", "PLLICSEGID": "343195", "COMP_NAME": "ATCO Gas And Pipelines Ltd.", "BA_CODE": "0144", "PL_SPEC_ID": "1", "SEG_LENGTH": "37.25", "SEG_STATUS": "Operating", "FROM_FAC": "Pipeline", "FROM_LOC": "08-20-050-07W5", "TO_FAC": "Pipeline", "TO_LOC": "12-32-051-04W5", "H2S_R_VOLM": null, "H2S_R_LEVL": null, "H2S_CONT": "0", "PIPTECHSTD": null, "OUT_DIAMET": "508", "WALL_THICK": "7.3", "PIPE_TYPE": "Z245.1", "PIPE_GRADE": "4832", "PIP_MATERL": "Steel", "PIPE_MAOP": "9930", "BIDIRE_IND": null, "HDD_IND": null, "LINER_GRD": null, "LINER_TYPE": null, "EXT_COAT": "FBE", "PIPE_ENVIR": "Creek Crossing", "CLASS_LOC": "Class 1", "STRESSLEVL": "72", "JOINTMETHD": "Welded", "INT_COAT": "Uncoated", "FLD_CTR_NM": "Drayton Valley", "SUBSTANCE1": "Natural Gas", "SUBSTANCE2": null, "SUBSTANCE3": null, "ORIG_LICNO": "60496", "ORIGPSPPID": "1", "ORIGLIN_NO": "5", "LICAPPDATE": "2020-10-26", "ORG_ISSUED": "2018-10-26", "PERMT_APPR": "2018-10-26", "PERMT_EXPI": "2020-10-26", "LAST_OCCYR": "2018", "TEMPSURFPL": null, "GEOM_SRCE": "ROW centre line", "SHAPE_LEN": "37219.26770503903", "layer": "P1333", "path": "/Users/isabelmahon/Documents/finalpipelineroutes/P1333.geojson"}, "geometry": {"type": "MultiLineString", "coordinates": [[[-114.978778, 53.327461], [-114.975579, 53.327463], [-114.95304, 53.327522], [-114.950033, 53.327523], [-114.949133, 53.327548], [-114.941886, 53.327549], [-114.939516, 53.33046], [-114.929643, 53.335311], [-114.928707, 53.33589], [-114.915073, 53.335883], [-114.909792, 53.337379], [-114.909788, 53.338281], [-114.904636, 53.345121], [-114.90382, 53.345119], [-114.887987, 53.345128], [-114.88429, 53.345934], [-114.867003, 53.345927], [-114.866999, 53.351726], [-114.860541, 53.352246], [-114.856874, 53.352248], [-114.855647, 53.352103], [-114.854228, 53.352103], [-114.852931, 53.352384], [-114.831751, 53.352387], [-114.831176, 53.352262], [-114.829933, 53.352262], [-114.829353, 53.352388], [-114.822662, 53.352392], [-114.821631, 53.352617], [-114.806339, 53.352624], [-114.802804, 53.352625], [-114.797194, 53.357232], [-114.782801, 53.366309], [-114.782797, 53.367039], [-114.78278, 53.369865], [-114.76801, 53.374002], [-114.763423, 53.374001], [-114.738807, 53.373838], [-114.723242, 53.373948], [-114.715122, 53.380219], [-114.705422, 53.380236], [-114.702394, 53.380969], [-114.702416, 53.386819], [-114.697665, 53.389152], [-114.686505, 53.389171], [-114.686525, 53.39551], [-114.686563, 53.407528], [-114.688888, 53.408476], [-114.688885, 53.410535], [-114.688747, 53.41769], [-114.688942, 53.425593], [-114.680284, 53.429696], [-114.667996, 53.435199], [-114.666555, 53.436199], [-114.659183, 53.439689], [-114.653167, 53.439694], [-114.653148, 53.446979], [-114.64277, 53.447865], [-114.607966, 53.447948], [-114.605976, 53.447268], [-114.603297, 53.447268], [-114.60236, 53.446946], [-114.591621, 53.446949], [-114.567079, 53.446949], [-114.565131, 53.44695]]]}},
{"type": "Feature", "properties": {"ProjectID": "P1333", "OBJECTID": 43639160, "LICENCE_NO": "60496", "IS_NEB": "N", "LINE_NO": "4", "LIC_LI_NO": "60496-4", "PLLICSEGID": "343194", "COMP_NAME": "ATCO Gas And Pipelines Ltd.", "BA_CODE": "0144", "PL_SPEC_ID": "1", "SEG_LENGTH": "31.01", "SEG_STATUS": "Operating", "FROM_FAC": "Pipeline", "FROM_LOC": "15-35-049-10W5", "TO_FAC": "Pipeline", "TO_LOC": "08-20-050-07W5", "H2S_R_VOLM": null, "H2S_R_LEVL": null, "H2S_CONT": "0", "PIPTECHSTD": null, "OUT_DIAMET": "508", "WALL_THICK": "7.3", "PIPE_TYPE": "Z245.1", "PIPE_GRADE": "4832", "PIP_MATERL": "Steel", "PIPE_MAOP": "9930", "BIDIRE_IND": null, "HDD_IND": null, "LINER_GRD": null, "LINER_TYPE": null, "EXT_COAT": "FBE", "PIPE_ENVIR": "River Crossing", "CLASS_LOC": "Class 1", "STRESSLEVL": "72", "JOINTMETHD": "Welded", "INT_COAT": "Uncoated", "FLD_CTR_NM": "Drayton Valley", "SUBSTANCE1": "Natural Gas", "SUBSTANCE2": null, "SUBSTANCE3": null, "ORIG_LICNO": "60496", "ORIGPSPPID": "1", "ORIGLIN_NO": "4", "LICAPPDATE": "2020-10-26", "ORG_ISSUED": "2018-10-26", "PERMT_APPR": "2018-10-26", "PERMT_EXPI": "2020-10-26", "LAST_OCCYR": "2018", "TEMPSURFPL": null, "GEOM_SRCE": "ROW centre line", "SHAPE_LEN": "30999.212400489665", "layer": "P1333", "path": "/Users/isabelmahon/Documents/finalpipelineroutes/P1333.geojson"}, "geometry": {"type": "MultiLineString", "coordinates": [[[-115.353907, 53.278418], [-115.347999, 53.27829], [-115.347996, 53.280295], [-115.334102, 53.280284], [-115.333884, 53.280237], [-115.318151, 53.280235], [-115.316701, 53.280235], [-115.31633, 53.280079], [-115.304391, 53.280068], [-115.304396, 53.282102], [-115.296801, 53.282107], [-115.292755, 53.283162], [-115.292759, 53.287077], [-115.292759, 53.292513], [-115.285369, 53.292521], [-115.285374, 53.294304], [-115.28004, 53.294311], [-115.269416, 53.294323], [-115.263774, 53.294329], [-115.253902, 53.294319], [-115.245608, 53.298187], [-115.240614, 53.298233], [-115.238937, 53.298255], [-115.233794, 53.298262], [-115.232767, 53.297832], [-115.231047, 53.297833], [-115.230276, 53.298156], [-115.219891, 53.298205], [-115.218874, 53.298432], [-115.213136, 53.298434], [-115.213138, 53.301433], [-115.200681, 53.30759], [-115.195425, 53.307594], [-115.194849, 53.30772], [-115.181832, 53.307732], [-115.181216, 53.308267], [-115.171064, 53.308275], [-115.171056, 53.305691], [-115.157723, 53.302697], [-115.150315, 53.300892], [-115.148562, 53.300331], [-115.148561, 53.298971], [-115.143708, 53.298066], [-115.14054, 53.293946], [-115.133965, 53.29393], [-115.130183, 53.294012], [-115.111012, 53.293982], [-115.102968, 53.29397], [-115.102966, 53.294427], [-115.098544, 53.294422], [-115.084975, 53.294404], [-115.084976, 53.294033], [-115.077328, 53.294026], [-115.071808, 53.29403], [-115.070323, 53.294355], [-115.055793, 53.294366], [-115.055794, 53.294853], [-115.049679, 53.295736], [-115.042606, 53.296759], [-115.042175, 53.296683], [-115.039675, 53.297044], [-115.039348, 53.29723], [-115.034363, 53.297951], [-115.028604, 53.298989], [-115.025679, 53.299055], [-115.022491, 53.299127], [-115.018098, 53.300787], [-115.015773, 53.301666], [-115.015131, 53.30175], [-115.014072, 53.30215], [-115.013152, 53.302497], [-115.013151, 53.308687], [-115.013152, 53.321244], [-115.002878, 53.325078], [-115.000177, 53.325078], [-114.999856, 53.325153], [-114.995721, 53.327452], [-114.978778, 53.327461]]]}},
{"type": "Feature", "properties": {"ProjectID": "P1333", "OBJECTID": 43639161, "LICENCE_NO": "60496", "IS_NEB": "N", "LINE_NO": "3", "LIC_LI_NO": "60496-3", "PLLICSEGID": "343193", "COMP_NAME": "ATCO Gas And Pipelines Ltd.", "BA_CODE": "0144", "PL_SPEC_ID": "1", "SEG_LENGTH": "8.07", "SEG_STATUS": "Operating", "FROM_FAC": "Pipeline", "FROM_LOC": "02-31-049-10W5", "TO_FAC": "Pipeline", "TO_LOC": "15-35-049-10W5", "H2S_R_VOLM": null, "H2S_R_LEVL": null, "H2S_CONT": "0", "PIPTECHSTD": null, "OUT_DIAMET": "508", "WALL_THICK": "7.3", "PIPE_TYPE": "Z245.1", "PIPE_GRADE": "4832", "PIP_MATERL": "Steel", "PIPE_MAOP": "9930", "BIDIRE_IND": null, "HDD_IND": null, "LINER_GRD": null, "LINER_TYPE": null, "EXT_COAT": "FBE", "PIPE_ENVIR": "Creek Crossing", "CLASS_LOC": "Class 1", "STRESSLEVL": "72", "JOINTMETHD": "Welded", "INT_COAT": "Uncoated", "FLD_CTR_NM": "Drayton Valley", "SUBSTANCE1": "Natural Gas", "SUBSTANCE2": null, "SUBSTANCE3": null, "ORIG_LICNO": "60496", "ORIGPSPPID": "1", "ORIGLIN_NO": "3", "LICAPPDATE": "2020-10-26", "ORG_ISSUED": "2018-10-26", "PERMT_APPR": "2018-10-26", "PERMT_EXPI": "2020-10-26", "LAST_OCCYR": "2018", "TEMPSURFPL": null, "GEOM_SRCE": "ROW centre line", "SHAPE_LEN": "8066.500201545101", "layer": "P1333", "path": "/Users/isabelmahon/Documents/finalpipelineroutes/P1333.geojson"}, "geometry": {"type": "MultiLineString", "coordinates": [[[-115.450489, 53.265366], [-115.441326, 53.265368], [-115.440718, 53.265413], [-115.437078, 53.265413], [-115.435429, 53.266382], [-115.433451, 53.26637], [-115.432303, 53.265333], [-115.424617, 53.265333], [-115.423218, 53.266163], [-115.418688, 53.266151], [-115.417435, 53.265278], [-115.415704, 53.265278], [-115.397702, 53.265278], [-115.397452, 53.27814], [-115.395024, 53.278615], [-115.393609, 53.279015], [-115.389758, 53.278617], [-115.379044, 53.278615], [-115.37076, 53.278613], [-115.369224, 53.278674], [-115.366073, 53.278677], [-115.358348, 53.278513], [-115.358041, 53.278572], [-115.356621, 53.278542], [-115.356322, 53.27847], [-115.354551, 53.278432], [-115.353907, 53.278418]]]}},
{"type": "Feature", "properties": {"ProjectID": "P1333", "OBJECTID": 54730603, "LICENCE_NO": "60496", "IS_NEB": "N", "LINE_NO": "7", "LIC_LI_NO": "60496-7", "PLLICSEGID": "350034", "COMP_NAME": "ATCO Gas And Pipelines Ltd.", "BA_CODE": "0144", "PL_SPEC_ID": "1", "SEG_LENGTH": "0.91", "SEG_STATUS": "Operating", "FROM_FAC": "Pipeline", "FROM_LOC": "04-31-049-10W5", "TO_FAC": "Pipeline", "TO_LOC": "02-31-049-10W5", "H2S_R_VOLM": null, "H2S_R_LEVL": null, "H2S_CONT": "0", "PIPTECHSTD": null, "OUT_DIAMET": "508", "WALL_THICK": "7.3", "PIPE_TYPE": "Z245.1", "PIPE_GRADE": "4832", "PIP_MATERL": "Steel", "PIPE_MAOP": "9930", "BIDIRE_IND": null, "HDD_IND": null, "LINER_GRD": null, "LINER_TYPE": null, "EXT_COAT": "FBE", "PIPE_ENVIR": null, "CLASS_LOC": "Class 1", "STRESSLEVL": "72", "JOINTMETHD": "Welded", "INT_COAT": "Uncoated", "FLD_CTR_NM": "Drayton Valley", "SUBSTANCE1": "Natural Gas", "SUBSTANCE2": null, "SUBSTANCE3": null, "ORIG_LICNO": "60496", "ORIGPSPPID": "1", "ORIGLIN_NO": "2", "LICAPPDATE": "2020-10-26", "ORG_ISSUED": "2018-10-26", "PERMT_APPR": "2021-07-15", "PERMT_EXPI": "2020-10-26", "LAST_OCCYR": "2018", "TEMPSURFPL": null, "GEOM_SRCE": "as-built", "SHAPE_LEN": "937.601213060624", "layer": "P1333", "path": "/Users/isabelmahon/Documents/finalpipelineroutes/P1333.geojson"}, "geometry": {"type": "MultiLineString", "coordinates": [[[-115.464199, 53.265435], [-115.463718, 53.265435], [-115.463281, 53.265389], [-115.451241, 53.265393], [-115.451114, 53.265365], [-115.450489, 53.265366], [-115.450151, 53.265366]]]}},
{"type": "Feature", "properties": {"ProjectID": "P1333", "OBJECTID": 44770867, "LICENCE_NO": "62455", "IS_NEB": "N", "LINE_NO": "1", "LIC_LI_NO": "62455-1", "PLLICSEGID": "344170", "COMP_NAME": "ATCO Gas And Pipelines Ltd.", "BA_CODE": "0144", "PL_SPEC_ID": "1", "SEG_LENGTH": "10.87", "SEG_STATUS": "Operating", "FROM_FAC": "Pipeline", "FROM_LOC": "14-21-051-04W5", "TO_FAC": "Pipeline", "TO_LOC": "06-20-052-04W5", "H2S_R_VOLM": null, "H2S_R_LEVL": null, "H2S_CONT": "0", "PIPTECHSTD": "Z662", "OUT_DIAMET": "508", "WALL_THICK": "7.3", "PIPE_TYPE": "Z245.1", "PIPE_GRADE": "4832", "PIP_MATERL": "Steel", "PIPE_MAOP": "9930", "BIDIRE_IND": null, "HDD_IND": null, "LINER_GRD": null, "LINER_TYPE": null, "EXT_COAT": null, "PIPE_ENVIR": null, "CLASS_LOC": "Class 1", "STRESSLEVL": "72", "JOINTMETHD": "Welded", "INT_COAT": "Uncoated", "FLD_CTR_NM": "Drayton Valley", "SUBSTANCE1": "Natural Gas", "SUBSTANCE2": null, "SUBSTANCE3": null, "ORIG_LICNO": "60789", "ORIGPSPPID": "1", "ORIGLIN_NO": "1", "LICAPPDATE": "2021-01-29", "ORG_ISSUED": "2019-01-29", "PERMT_APPR": "2019-01-29", "PERMT_EXPI": "2021-01-29", "LAST_OCCYR": "2018", "TEMPSURFPL": null, "GEOM_SRCE": "ROW centre line", "SHAPE_LEN": "18250.839074177948", "layer": "Reprojected", "path": "MultiLineString?crs=EPSG:4326&field=OBJECTID:integer(0,0)&field=LICENCE_NO:string(0,0)&field=IS_NEB:string(0,0)&field=LINE_NO:string(0,0)&field=LIC_LI_NO:string(0,0)&field=PLLICSEGID:string(0,0)&field=COMP_NAME:string(0,0)&field=BA_CODE:string(0,0)&field=PL_SPEC_ID:string(0,0)&field=SEG_LENGTH:string(0,0)&field=SEG_STATUS:string(0,0)&field=FROM_FAC:string(0,0)&field=FROM_LOC:string(0,0)&field=TO_FAC:string(0,0)&field=TO_LOC:string(0,0)&field=H2S_R_VOLM:string(0,0)&field=H2S_R_LEVL:string(0,0)&field=H2S_CONT:string(0,0)&field=PIPTECHSTD:string(0,0)&field=OUT_DIAMET:string(0,0)&field=WALL_THICK:string(0,0)&field=PIPE_TYPE:string(0,0)&field=PIPE_GRADE:string(0,0)&field=PIP_MATERL:string(0,0)&field=PIPE_MAOP:string(0,0)&field=BIDIRE_IND:string(0,0)&field=HDD_IND:string(0,0)&field=LINER_GRD:string(0,0)&field=LINER_TYPE:string(0,0)&field=EXT_COAT:string(0,0)&field=PIPE_ENVIR:string(0,0)&field=CLASS_LOC:string(0,0)&field=STRESSLEVL:string(0,0)&field=JOINTMETHD:string(0,0)&field=INT_COAT:string(0,0)&field=FLD_CTR_NM:string(0,0)&field=SUBSTANCE1:string(0,0)&field=SUBSTANCE2:string(0,0)&field=SUBSTANCE3:string(0,0)&field=ORIG_LICNO:string(0,0)&field=ORIGPSPPID:string(0,0)&field=ORIGLIN_NO:string(0,0)&field=LICAPPDATE:date(0,0)&field=ORG_ISSUED:date(0,0)&field=PERMT_APPR:date(0,0)&field=PERMT_EXPI:date(0,0)&field=LAST_OCCYR:string(0,0)&field=TEMPSURFPL:string(0,0)&field=GEOM_SRCE:string(0,0)&field=SHAPE_LEN:string(0,0)&uid={1d357fa5-efff-4bde-ac41-b038c22e3048}"}, "geometry": {"type": "MultiLineString", "coordinates": [[[-114.530763, 53.424727], [-114.529969, 53.424727], [-114.529969, 53.424963], [-114.529936, 53.436328], [-114.530311, 53.436553], [-114.530302, 53.439588], [-114.53028, 53.447563], [-114.52761, 53.447558], [-114.525335, 53.447641], [-114.5216, 53.457921], [-114.527384, 53.46312], [-114.526574, 53.464261], [-114.532445, 53.466384], [-114.543063, 53.47403], [-114.552896, 53.476065], [-114.560462, 53.486777], [-114.565517, 53.491502], [-114.566811, 53.49205], [-114.566353, 53.493784], [-114.56614, 53.494665], [-114.565851, 53.495098], [-114.565166, 53.495713], [-114.564538, 53.496139], [-114.56289, 53.497508], [-114.562459, 53.498081], [-114.562331, 53.498383], [-114.562244, 53.498964], [-114.562264, 53.500235], [-114.562455, 53.500777], [-114.562626, 53.501045], [-114.561063, 53.501521], [-114.561088, 53.502892], [-114.560914, 53.50315], [-114.559988, 53.503714], [-114.55956, 53.503823], [-114.557582, 53.503836], [-114.557582, 53.504055]]]}},
{"type": "Feature", "properties": {"ProjectID": "P1333", "OBJECTID": 44770868, "LICENCE_NO": "60789", "IS_NEB": "N", "LINE_NO": "2", "LIC_LI_NO": "60789-2", "PLLICSEGID": "344171", "COMP_NAME": "Transalta Corporation", "BA_CODE": "A0XL", "PL_SPEC_ID": "2", "SEG_LENGTH": "0.23", "SEG_STATUS": "Operating", "FROM_FAC": "Pipeline", "FROM_LOC": "06-20-052-04W5", "TO_FAC": "Consumer", "TO_LOC": "11-20-052-04W5", "H2S_R_VOLM": null, "H2S_R_LEVL": null, "H2S_CONT": "0", "PIPTECHSTD": null, "OUT_DIAMET": "762", "WALL_THICK": "9.5", "PIPE_TYPE": "Z245.1", "PIPE_GRADE": "4832", "PIP_MATERL": "Steel", "PIPE_MAOP": "1960", "BIDIRE_IND": null, "HDD_IND": null, "LINER_GRD": null, "LINER_TYPE": null, "EXT_COAT": "FBE", "PIPE_ENVIR": null, "CLASS_LOC": "Class 1", "STRESSLEVL": "16", "JOINTMETHD": "Welded", "INT_COAT": "Uncoated", "FLD_CTR_NM": "Drayton Valley", "SUBSTANCE1": "Natural Gas", "SUBSTANCE2": null, "SUBSTANCE3": null, "ORIG_LICNO": "60789", "ORIGPSPPID": "2", "ORIGLIN_NO": "2", "LICAPPDATE": "2021-01-29", "ORG_ISSUED": "2019-01-29", "PERMT_APPR": "2019-01-29", "PERMT_EXPI": "2021-01-29", "LAST_OCCYR": "2018", "TEMPSURFPL": "Surfce Line Crossing", "GEOM_SRCE": "ROW centre line", "SHAPE_LEN": "380.6934383315472", "layer": "Reprojected", "path": "MultiLineString?crs=EPSG:4326&field=OBJECTID:integer(0,0)&field=LICENCE_NO:string(0,0)&field=IS_NEB:string(0,0)&field=LINE_NO:string(0,0)&field=LIC_LI_NO:string(0,0)&field=PLLICSEGID:string(0,0)&field=COMP_NAME:string(0,0)&field=BA_CODE:string(0,0)&field=PL_SPEC_ID:string(0,0)&field=SEG_LENGTH:string(0,0)&field=SEG_STATUS:string(0,0)&field=FROM_FAC:string(0,0)&field=FROM_LOC:string(0,0)&field=TO_FAC:string(0,0)&field=TO_LOC:string(0,0)&field=H2S_R_VOLM:string(0,0)&field=H2S_R_LEVL:string(0,0)&field=H2S_CONT:string(0,0)&field=PIPTECHSTD:string(0,0)&field=OUT_DIAMET:string(0,0)&field=WALL_THICK:string(0,0)&field=PIPE_TYPE:string(0,0)&field=PIPE_GRADE:string(0,0)&field=PIP_MATERL:string(0,0)&field=PIPE_MAOP:string(0,0)&field=BIDIRE_IND:string(0,0)&field=HDD_IND:string(0,0)&field=LINER_GRD:string(0,0)&field=LINER_TYPE:string(0,0)&field=EXT_COAT:string(0,0)&field=PIPE_ENVIR:string(0,0)&field=CLASS_LOC:string(0,0)&field=STRESSLEVL:string(0,0)&field=JOINTMETHD:string(0,0)&field=INT_COAT:string(0,0)&field=FLD_CTR_NM:string(0,0)&field=SUBSTANCE1:string(0,0)&field=SUBSTANCE2:string(0,0)&field=SUBSTANCE3:string(0,0)&field=ORIG_LICNO:string(0,0)&field=ORIGPSPPID:string(0,0)&field=ORIGLIN_NO:string(0,0)&field=LICAPPDATE:date(0,0)&field=ORG_ISSUED:date(0,0)&field=PERMT_APPR:date(0,0)&field=PERMT_EXPI:date(0,0)&field=LAST_OCCYR:string(0,0)&field=TEMPSURFPL:string(0,0)&field=GEOM_SRCE:string(0,0)&field=SHAPE_LEN:string(0,0)&uid={1d357fa5-efff-4bde-ac41-b038c22e3048}"}, "geometry": {"type": "MultiLineString", "coordinates": [[[-114.557212, 53.504052], [-114.557788, 53.504056], [-114.557748, 53.504975], [-114.557701, 53.505013], [-114.557708, 53.505345], [-114.557866, 53.505344], [-114.557872, 53.505642]]]}}
]
}
