{
"type": "FeatureCollection",
"features": [
{"type": "Feature", "properties": {"ProjectID": "P1332", "id": 1, "Name": "brigden-cluden", "Type": "mainline"}, "geometry": {"type": "MultiLineString", "coordinates": [[[-4.1094, 54.788964], [-4.097374, 54.848878], [-4.070127, 54.865661], [-4.030179, 54.877934], [-3.997678, 54.903441], [-3.938559, 54.905592], [-3.915478, 54.911532], [-3.902283, 54.926699], [-3.847442, 54.956069], [-3.840432, 54.983761], [-3.802497, 54.998191], [-3.786003, 55.022309], [-3.739821, 55.049011], [-3.679207, 55.051373], [-3.664363, 55.06507], [-3.666013, 55.082068], [-3.698413, 55.099839], [-3.678764, 55.126379], [-3.649349, 55.134023], [-3.628198, 55.151947], [-3.546358, 55.177193], [-3.479655, 55.20081], [-3.467922, 55.214646], [-3.462447, 55.238735], [-3.46856, 55.277035], [-3.438452, 55.277305]]]}}
]
}
