{
"type": "FeatureCollection",
"features": [
{"type": "Feature", "properties": {"ProjectID": "P1361"}, "geometry": {"type": "MultiLineString", "coordinates": [[[144.73599, -23.795652], [144.922217, -23.845198], [144.961513, -23.852032], [144.993975, -23.862283], [145.036687, -23.881077], [145.077692, -23.906705], [145.106736, -23.934041], [145.137489, -23.959668], [145.166534, -23.993839], [145.279295, -24.113434], [145.310049, -24.137353], [145.34251, -24.162981], [145.373263, -24.180066], [145.412789, -24.205024], [145.442245, -24.235819], [145.475049, -24.264606], [145.562748, -24.350966], [145.589526, -24.373728], [145.694631, -24.490213], [145.722749, -24.521008], [145.754883, -24.559837], [145.779652, -24.584607], [145.827854, -24.616072], [145.862665, -24.637494], [145.904172, -24.674315], [145.922247, -24.690382], [145.951703, -24.709126], [146.019319, -24.762683], [146.064172, -24.804189], [146.121746, -24.870466], [146.137813, -24.880508], [146.1666, -24.904608], [146.242248, -24.972224], [146.323922, -25.043856], [146.349362, -25.061262], [146.374801, -25.080676], [146.416977, -25.118835], [146.447772, -25.148961], [146.488609, -25.193145], [146.503337, -25.197162], [146.518065, -25.209212], [146.567605, -25.252727], [146.761079, -25.415405], [146.791874, -25.441514], [146.83338, -25.480343], [146.87087, -25.517163], [146.921749, -25.563356], [146.941163, -25.580092], [146.999406, -25.622937], [147.016143, -25.63231], [147.038235, -25.648377], [147.058988, -25.665113], [147.078402, -25.679841], [147.0938, -25.687875], [147.103842, -25.695239], [147.109867, -25.698586], [147.119239, -25.699925], [147.137984, -25.702603], [147.146687, -25.705281], [147.160076, -25.710636], [147.170787, -25.713984], [147.187524, -25.716662], [147.203591, -25.719339], [147.211624, -25.722017], [147.219658, -25.728712], [147.239742, -25.750804], [147.263842, -25.766871], [147.309365, -25.79298], [147.368278, -25.825783], [147.37832, -25.833147], [147.386353, -25.835825], [147.433215, -25.84252], [147.456646, -25.847206], [147.502839, -25.856578], [147.531626, -25.865281], [147.542337, -25.869298], [147.561751, -25.870637], [147.591207, -25.869298], [147.725769, -25.868629], [147.742505, -25.865281], [147.767275, -25.862604], [147.786689, -25.861934], [147.808112, -25.864612], [147.830204, -25.86662], [147.849618, -25.86662], [147.88443, -25.862604], [147.916564, -25.857248], [147.953385, -25.850553], [147.99556, -25.844528], [148.016314, -25.840511], [148.051126, -25.835156], [148.075226, -25.833817], [148.134808, -25.828461], [148.180331, -25.821097], [148.23121, -25.811725], [148.251963, -25.804361], [148.259327, -25.801683], [148.272047, -25.800344], [148.284767, -25.803691], [148.300834, -25.808377], [148.353051, -25.812394], [148.385185, -25.816411], [148.414642, -25.821767], [148.430039, -25.826453], [148.442759, -25.833147], [148.479579, -25.853231], [148.51506, -25.870637], [148.541839, -25.881348], [148.569956, -25.887373], [148.595395, -25.89139], [148.640249, -25.895407], [148.677739, -25.898754], [148.707864, -25.900763], [148.733973, -25.90411], [148.759413, -25.911474], [148.795639, -25.931355]], [[144.73599, -23.795652], [144.73858, -23.737232], [144.744894, -23.663568], [144.753313, -23.604637], [144.755417, -23.554124], [144.755417, -23.520449], [144.753313, -23.478356], [144.749103, -23.423634], [144.740685, -23.362598], [144.736475, -23.303666], [144.734371, -23.227898], [144.732266, -23.173176], [144.734371, -23.152129], [144.728056, -23.133187], [144.721742, -23.103721], [144.721742, -23.091093]]]}}
]
}
