{"type": "FeatureCollection", "crs": {"type": "name", "properties": {"name": "urn:ogc:def:crs:OGC:1.3:CRS84"}}, "features": [{"type": "Feature", "properties": {"PipelineName": "PLL-DGEN-Sugen Gas Pipeline", "SegmentName": "", "Wiki": "https://www.gem.wiki/PLL-DGEN-Sugen_Gas_Pipeline", "ProjectID": "P1435", "Status": "construction", "LastUpdated": "2025-07-16", "Fuel": "Gas", "OtherEnglishNames": "", "OtherLanguagePrimaryPipelineName": "", "OtherLanguageSegmentName": "", "CountriesOrAreas": "India", "Owner": "Torrent Energy [100.%]", "Parent": "unknown [unknown %]", "ParentEntityIDs": "E100001016068", "StartYear1": "", "StartYear2": "", "StartYear3": "", "ShelvedYear": "", "CancelledYear": "", "StopYear": "", "Capacity": "6.5", "CapacityUnits": "MMSCMD", "CapacityBcm/y": "2.37", "CapacityBOEd": "38239.5", "LengthKnownKm": "90.0", "LengthEstimateKm": "59.82", "LengthMergedKm": "90.0", "Diameter": "", "DiameterUnits": "", "FuelSource": "Dahaj LNG Terminal", "StartLocation": "Dahaj", "StartPrefecture/District": "", "StartState/Province": "Gujarat", "StartCountryOrArea": "India", "StartRegion": "Asia", "StartSubRegion": "Southern Asia", "EndLocation": "Surat", "EndPrefecture/District": "", "EndState/Province": "Gujarat", "EndCountryOrArea": "India", "EndRegion": "Asia", "EndSubRegion": "Southern Asia", "ProjectLevelCost": "", "ProjectLevelCostUnits": "", "CostUSD": "--", "FIDStatus": "", "FIDYear": "", "PCI3": "", "PCI4": "", "PCI5": "", "PCI6": "", "RouteAccuracy": "very low (straight line/schematic)", "RouteType": "Mapped route (at any accuracy)", "RouteCreator": "WA", "PipelineStatus": "construction", "CapacityMapScale": "38239.5"}, "geometry": {"type": "LineString", "coordinates": [[72.71346020983604, 21.77397308386157], [72.921801, 21.623021], [73.01526434535515, 21.501528713030606], [72.98146981241197, 21.33945447884471], [72.898704, 21.243202]]}}]}