{
"type": "FeatureCollection",
"features": [
{"type": "Feature", "properties": {"ProjectID": "P1455"}, "geometry": {"type": "LineString", "coordinates": [[37.34291, 53.91179], [37.151642, 53.922134], [36.985474, 53.906765], [36.763, 53.932645], [36.644897, 53.897056], [36.469116, 53.827407], [36.33728, 53.778746], [36.177979, 53.771442], [35.991211, 53.725154], [35.822296, 53.634054], [35.680847, 53.546836], [35.370483, 53.425901], [35.115738, 53.37145], [34.991455, 53.333333], [34.940643, 53.300928], [34.770355, 53.250836], [34.61174, 53.274247], [34.466171, 53.26973], [34.162674, 53.298056], [33.95874, 53.107217], [33.634644, 52.241256], [33.475342, 51.8731], [31.322021, 51.464275], [30.521393, 50.428643]]}}
]
}
