{
"type": "FeatureCollection",
"features": [
{"type": "Feature", "properties": {"ProjectID": "P1456"}, "geometry": {"type": "LineString", "coordinates": [[30.157471, 59.791653], [30.346298, 59.725254], [30.655975, 59.651786], [30.787125, 59.585804], [30.823517, 59.524917], [30.938873, 59.487634], [31.609039, 59.120997], [31.59668, 59.074448], [31.537628, 59.012284], [31.473083, 58.852121], [31.28333, 58.58003], [31.521149, 58.441983], [31.80542, 58.360673], [32.111664, 58.359233], [32.216034, 58.331125], [32.509918, 58.245946], [32.967224, 58.024828], [33.27965, 57.95168], [33.592072, 57.914848], [33.932648, 57.761334], [34.045258, 57.713685], [34.29657, 57.67552], [34.553375, 57.563732], [34.841766, 57.35246], [35.02667, 56.96417], [35.20736, 56.93305], [35.230713, 56.91916], [35.247536, 56.881404], [35.232773, 56.83853], [35.283242, 56.812369], [35.294915, 56.76904], [35.314484, 56.755654], [35.325814, 56.726981], [35.356369, 56.713014], [35.353966, 56.673161], [35.416451, 56.65615], [35.45662, 56.629482], [35.470696, 56.60999], [35.599099, 56.549937], [35.688706, 56.524239], [35.705185, 56.489978], [35.705357, 56.434204], [35.703469, 56.378539], [35.720806, 56.372539], [35.747071, 56.300566], [35.800629, 56.193548], [35.88515, 56.10573], [35.948601, 56.065885], [35.980873, 56.024966], [35.966111, 55.961101], [36.047135, 55.837883], [36.060524, 55.763648], [36.09211, 55.681711], [36.080437, 55.61864], [36.118889, 55.603877], [36.158028, 55.574916], [36.181717, 55.537956], [36.289864, 55.43643], [36.354752, 55.389183], [36.416207, 55.356545], [36.439209, 55.335424], [36.470452, 55.305288], [36.544953, 55.246123], [36.614304, 55.218224], [36.640396, 55.213515], [36.75415, 55.18288], [36.807938, 55.131265], [36.830597, 55.102154], [36.925698, 55.025934], [36.96827, 55.008385], [37.012558, 54.989053], [37.050667, 54.981948], [37.095642, 54.977014], [37.18731, 54.961616], [37.351418, 54.972277], [37.50156, 54.9684]]}}
]
}
