{
"type": "FeatureCollection",
"features": [
{"type": "Feature", "properties": {"ProjectID": "P1475"}, "geometry": {"type": "MultiLineString", "coordinates": [[[40.16485, 44.72364], [40.15842, 44.71938], [40.14941, 44.72608], [40.12367, 44.71602], [40.10565, 44.71572], [40.09964, 44.70871], [40.08249, 44.70627], [40.04216, 44.67455], [40.03187, 44.65258], [40.01771, 44.63061], [40.02028, 44.61442], [40.01513, 44.59518], [39.98425, 44.54201], [39.97824, 44.53772], [39.96838, 44.5102], [39.96666, 44.50286], [39.95765, 44.49582], [39.94736, 44.49306], [39.93963, 44.48082], [39.92633, 44.48144], [39.91261, 44.46766], [39.91003, 44.45235], [39.90017, 44.43857], [39.89716, 44.42295], [39.87915, 44.39322], [39.87786, 44.38832], [39.86199, 44.37053], [39.86199, 44.36225], [39.85255, 44.35336], [39.85469, 44.34201], [39.85427, 44.33065], [39.85898, 44.31838], [39.85512, 44.30579], [39.81737, 44.27969], [39.81137, 44.27939], [39.79035, 44.25819], [39.78134, 44.25819], [39.75045, 44.22807], [39.75045, 44.20963], [39.7393, 44.20501], [39.732, 44.19302], [39.72214, 44.18748], [39.71356, 44.16718], [39.71056, 44.16102], [39.70884, 44.15179], [39.68696, 44.12901], [39.68868, 44.11915], [39.69726, 44.1133], [39.70026, 44.10807], [39.69897, 44.09852], [39.71141, 44.08896], [39.71613, 44.07941], [39.71828, 44.0677], [39.71742, 44.05445], [39.72428, 44.04705], [39.72257, 44.03841], [39.7157, 44.02916], [39.71485, 44.01929], [39.70541, 44.00818], [39.69425, 43.98781], [39.69425, 43.98226], [39.67366, 43.98102], [39.6402, 43.96312], [39.60503, 43.9662], [39.58958, 43.95262], [39.56384, 43.93779], [39.55698, 43.92605], [39.5321, 43.91678], [39.52009, 43.91493], [39.4892, 43.88649], [39.46132, 43.88495], [39.43729, 43.8701]], [[39.43729, 43.8701], [39.41295, 43.87049], [39.38496, 43.89662], [39.3723, 43.89785], [39.35772, 43.91454], [39.34206, 43.94019]], [[39.43729, 43.8701], [39.42655, 43.85494], [39.43696, 43.84782], [39.45819, 43.83467], [39.46398, 43.82121], [39.47599, 43.81115], [39.48779, 43.80047], [39.50002, 43.78251], [39.50259, 43.76423], [39.50688, 43.75927], [39.5249, 43.75927], [39.54806, 43.74626], [39.56823, 43.74068], [39.58732, 43.72642], [39.59461, 43.72456], [39.59933, 43.71433], [39.62163, 43.7103], [39.6285, 43.70379], [39.63922, 43.701], [39.64866, 43.68797], [39.66368, 43.6768], [39.67783, 43.67866], [39.68856, 43.67153], [39.69499, 43.67029], [39.70357, 43.66346], [39.71944, 43.65508], [39.74046, 43.65756], [39.74733, 43.64794], [39.76921, 43.63956], [39.79537, 43.61441], [39.81983, 43.61254], [39.83527, 43.5908], [39.8683, 43.55537], [39.88975, 43.52209], [39.90948, 43.51805], [39.92321, 43.50249], [39.92364, 43.48755], [39.93351, 43.47417]]]}}
]
}
