{
"type": "FeatureCollection",
"features": [
{"type": "Feature", "properties": {"ProjectID": "P1472", "id": 1, "Name": "P1472"}, "geometry": {"type": "MultiLineString", "coordinates": [[[44.812073, 41.683142], [44.833253, 41.292821], [44.836279, 41.244409], [44.848382, 41.135482], [44.863511, 41.068916], [44.890742, 40.920654], [44.94218, 40.884346], [44.917974, 40.826856], [44.866536, 40.811728], [44.766687, 40.787522], [44.669863, 40.751213], [44.597245, 40.693724], [44.606323, 40.648338], [44.663812, 40.584797], [44.718275, 40.545462], [44.727352, 40.509153], [44.697095, 40.47587], [44.660786, 40.436536], [44.633554, 40.391149], [44.697095, 40.348789], [44.760635, 40.318532], [44.793919, 40.306429], [44.818125, 40.306429], [44.860485, 40.288274], [44.890742, 40.27012], [44.845356, 40.218682], [44.851408, 40.103704], [44.893768, 40.049241]]]}}
]
}
