{
"type": "FeatureCollection",
"features": [
{"type": "Feature", "properties": {"ProjectID": "P1476", "@id": "way/1303683153", "@relations": [{"role": "", "rel": "8203643", "reltags": {"name": "Макат – Северный Кавказ", "type": "pipeline"}}]}, "geometry": {"type": "LineString", "coordinates": [[45.891674, 43.580142], [45.889957, 43.581288], [45.886481, 43.583748], [45.884654, 43.584581], [45.839961, 43.603811], [45.772712, 43.633093], [45.678234, 43.674701], [45.587661, 43.726514], [45.561118, 43.732096], [45.540347, 43.735569], [45.49269, 43.749149], [45.422244, 43.769885], [45.381303, 43.778934], [45.36639, 43.783454], [45.365247, 43.784062], [45.364233, 43.78436], [45.338859, 43.791451], [45.291395, 43.800589], [45.249585, 43.80343], [45.224576, 43.80508], [45.139432, 43.803872], [45.110298, 43.806199], [45.096323, 43.808099], [45.092209, 43.808506], [45.086373, 43.808266], [45.065054, 43.807724], [44.977169, 43.80957], [44.922666, 43.8105]]}},
{"type": "Feature", "properties": {"ProjectID": "P1476", "@id": "way/83540662", "@relations": [{"role": "", "rel": "8203643", "reltags": {"name": "Макат – Северный Кавказ", "type": "pipeline"}}]}, "geometry": {"type": "LineString", "coordinates": [[46.64128, 44.963447], [46.640012, 44.960223], [46.640144, 44.96], [46.6399, 44.959345], [46.633997, 44.945396], [46.627007, 44.927955], [46.616793, 44.903734], [46.606575, 44.891091], [46.59446, 44.876072], [46.594382, 44.87567], [46.600242, 44.859414], [46.59959, 44.848554], [46.598704, 44.839986], [46.596992, 44.81714], [46.596532, 44.811626], [46.595024, 44.790747], [46.593754, 44.776121], [46.593499, 44.771784], [46.592329, 44.751033], [46.591756, 44.742722], [46.590964, 44.733442], [46.590584, 44.730131], [46.589584, 44.721529], [46.588833, 44.714768], [46.587048, 44.706162], [46.583572, 44.69023], [46.579802, 44.673574], [46.579625, 44.672004], [46.579823, 44.669888], [46.582158, 44.656331], [46.582338, 44.653894], [46.58225, 44.651444], [46.581527, 44.644733], [46.580323, 44.635965], [46.579467, 44.628913], [46.578261, 44.619284], [46.577371, 44.613186], [46.576685, 44.607015], [46.576508, 44.605422], [46.57564, 44.598517], [46.575087, 44.59568], [46.573272, 44.589631], [46.57123, 44.58278], [46.569856, 44.578979], [46.569114, 44.576896], [46.56758, 44.574279], [46.566894, 44.573843], [46.565047, 44.572925], [46.564023, 44.571263], [46.563294, 44.569922], [46.562221, 44.568132], [46.556542, 44.56083], [46.551052, 44.553452], [46.537376, 44.534781], [46.533528, 44.524711], [46.531707, 44.521445], [46.524608, 44.513818], [46.509535, 44.496975], [46.507868, 44.495526], [46.504565, 44.492988], [46.500687, 44.48987], [46.496336, 44.486174], [46.493552, 44.484128], [46.489674, 44.481107], [46.485869, 44.478198], [46.481186, 44.474623], [46.479888, 44.473591], [46.475734, 44.470289], [46.47081, 44.466437], [46.467838, 44.464186], [46.462691, 44.460102], [46.454227, 44.453415], [46.447907, 44.448415], [46.441875, 44.443635], [46.438124, 44.440586], [46.436706, 44.43957], [46.434965, 44.438126], [46.430613, 44.432365], [46.428582, 44.429406], [46.421927, 44.421326], [46.410765, 44.407764], [46.409301, 44.405563], [46.407791, 44.403435], [46.402602, 44.397536], [46.400971, 44.395705], [46.399293, 44.393792], [46.395139, 44.388582], [46.393569, 44.385177], [46.387861, 44.372399], [46.377866, 44.349759], [46.371294, 44.334356], [46.363956, 44.317748], [46.361331, 44.312114], [46.355215, 44.298201], [46.350224, 44.286258], [46.344006, 44.272745], [46.338718, 44.260655], [46.337118, 44.258089], [46.330389, 44.248311], [46.322312, 44.236551], [46.317467, 44.230272], [46.315888, 44.227904], [46.311931, 44.221343], [46.30365, 44.208845], [46.301395, 44.205481], [46.300889, 44.204987], [46.297163, 44.199874], [46.285201, 44.182291], [46.282716, 44.1782], [46.276275, 44.169291], [46.26384, 44.152794], [46.249051, 44.134733], [46.235328, 44.11848], [46.220478, 44.101311], [46.21085, 44.090264], [46.202918, 44.080947], [46.199753, 44.077369], [46.197763, 44.074991], [46.188946, 44.064654], [46.184294, 44.059172], [46.17993, 44.054065], [46.172806, 44.045698], [46.165302, 44.036897], [46.157654, 44.028045], [46.148507, 44.017209], [46.147945, 44.016368], [46.14549, 44.008851], [46.14328, 44.003011], [46.140806, 43.995705], [46.139162, 43.991002], [46.137873, 43.988283], [46.136798, 43.985953], [46.136152, 43.984758], [46.135546, 43.982912], [46.134959, 43.980942], [46.132587, 43.972217], [46.130409, 43.965987], [46.129742, 43.963732], [46.127534, 43.960497], [46.122704, 43.954214], [46.115973, 43.945472], [46.105553, 43.9316], [46.104427, 43.929991], [46.102843, 43.928984], [46.102566, 43.927543], [46.09718, 43.92063], [46.092475, 43.914556], [46.090837, 43.912339], [46.089376, 43.909901], [46.087539, 43.907665], [46.085155, 43.904637], [46.083364, 43.902267], [46.079486, 43.897542], [46.076405, 43.893578], [46.074864, 43.891663], [46.07383, 43.89019], [46.072658, 43.88854], [46.071592, 43.887119], [46.070897, 43.886178], [46.070025, 43.885244], [46.069088, 43.884083], [46.068107, 43.882847], [46.064893, 43.878275], [46.062644, 43.875595], [46.06052, 43.873015], [46.058432, 43.870232], [46.0559, 43.866914], [46.049261, 43.85836], [46.046377, 43.854505], [46.042729, 43.849303], [46.041109, 43.84748], [46.039479, 43.845053], [46.038317, 43.843284], [46.035616, 43.839779], [46.031977, 43.835073], [46.025441, 43.826813], [46.021866, 43.821436], [46.013869, 43.805573], [46.003925, 43.784788], [45.993231, 43.763905], [45.984105, 43.745166], [45.967464, 43.711554], [45.957961, 43.692395], [45.952701, 43.682239], [45.951566, 43.679866], [45.945734, 43.648985], [45.936349, 43.627234], [45.910464, 43.582105], [45.909183, 43.581174], [45.907308, 43.580471], [45.897511, 43.57784], [45.89601, 43.577672], [45.894815, 43.577954], [45.891674, 43.580142]]}},
{"type": "Feature", "properties": {"ProjectID": "P1476", "@id": "way/312556396", "@relations": [{"role": "", "rel": "8203643", "reltags": {"name": "Макат – Северный Кавказ", "type": "pipeline"}}]}, "geometry": {"type": "LineString", "coordinates": [[47.028348, 45.947891], [47.026315, 45.945103], [47.0229, 45.940575], [47.013309, 45.927995], [47.007968, 45.920767], [46.994192, 45.902733], [46.979577, 45.883351], [46.967585, 45.867482], [46.959645, 45.856902], [46.958444, 45.84375], [46.956469, 45.821085], [46.956255, 45.820038], [46.951491, 45.800025], [46.946728, 45.780665], [46.943724, 45.768991], [46.952521, 45.745307], [46.955588, 45.736115], [46.949989, 45.712863], [46.947391, 45.700998], [46.943337, 45.684988], [46.93486, 45.663311], [46.926472, 45.641949], [46.917779, 45.619925], [46.909797, 45.599601], [46.900914, 45.576355], [46.897463, 45.567189], [46.878752, 45.539723], [46.865706, 45.521564], [46.858398, 45.509397], [46.845862, 45.488519], [46.836678, 45.469742], [46.82219, 45.432917], [46.795067, 45.358301], [46.80056, 45.336585], [46.771893, 45.264622], [46.751379, 45.215846], [46.729922, 45.15971], [46.707091, 45.102366], [46.690096, 45.060852], [46.660227, 45.011905], [46.644795, 44.972878], [46.64128, 44.963447]]}},
{"type": "Feature", "properties": {"ProjectID": "P1476", "@id": "way/312553140", "@relations": [{"role": "", "rel": "8203643", "reltags": {"name": "Макат – Северный Кавказ", "type": "pipeline"}}]}, "geometry": {"type": "LineString", "coordinates": [[47.519609, 46.869476], [47.505999, 46.866292], [47.497073, 46.8606], [47.459396, 46.820445], [47.42824, 46.786604], [47.418729, 46.771695], [47.394697, 46.745882], [47.362777, 46.71172], [47.334513, 46.681067], [47.326556, 46.668438], [47.326162, 46.667811], [47.324917, 46.665835], [47.323875, 46.664798], [47.32241, 46.66334], [47.312304, 46.65504], [47.310439, 46.653508], [47.301897, 46.646491], [47.301323, 46.645874], [47.298673, 46.643027], [47.297971, 46.642273], [47.278808, 46.621679], [47.258037, 46.599391], [47.236923, 46.576741], [47.216924, 46.55532], [47.197612, 46.523439], [47.179846, 46.494434], [47.167823, 46.475204], [47.161152, 46.463839], [47.152895, 46.450928], [47.150577, 46.449272], [47.118065, 46.428118], [47.076523, 46.401075], [47.060901, 46.390953], [47.054962, 46.381045], [47.03977, 46.355697], [47.030071, 46.339937], [47.020716, 46.316348], [47.018656, 46.29091], [47.01275, 46.214726], [47.010862, 46.192331], [47.009596, 46.173017], [47.008527, 46.15332], [47.00621, 46.124416], [47.00612, 46.116571], [47.006897, 46.114778], [47.01687, 46.095993], [47.031015, 46.069718], [47.034706, 46.063108], [47.034963, 46.062036], [47.029942, 46.025799], [47.043031, 46.005608], [47.037882, 45.97764], [47.037727, 45.969668], [47.037236, 45.959833], [47.036944, 45.959244], [47.03186, 45.952579], [47.028348, 45.947891]]}},
{"type": "Feature", "properties": {"ProjectID": "P1476", "@id": "way/312553147", "@relations": [{"role": "", "rel": "8203643", "reltags": {"name": "Макат – Северный Кавказ", "type": "pipeline"}}]}, "geometry": {"type": "LineString", "coordinates": [[49.059578, 46.692195], [49.049904, 46.692284], [49.033784, 46.692386], [49.005504, 46.692667], [49.004818, 46.692726], [48.996621, 46.695846], [48.983815, 46.701438], [48.981042, 46.702349], [48.955508, 46.710765], [48.923278, 46.721593], [48.902464, 46.728212], [48.894789, 46.730734], [48.893152, 46.731272], [48.883968, 46.734713], [48.875129, 46.73942], [48.854571, 46.74683], [48.831997, 46.754652], [48.811698, 46.762207], [48.797536, 46.767675], [48.769126, 46.778492], [48.753248, 46.784193], [48.737105, 46.79035], [48.706539, 46.801911], [48.68394, 46.810193], [48.65613, 46.820649], [48.637119, 46.827696], [48.604975, 46.839645], [48.581329, 46.848422], [48.542559, 46.862686], [48.485756, 46.883601], [48.446618, 46.898148], [48.396922, 46.914977], [48.350144, 46.93227], [48.322678, 46.93655], [48.277703, 46.943289], [48.215991, 46.952604], [48.185971, 46.957081], [48.160072, 46.964263], [48.132246, 46.972084], [48.130074, 46.972492], [48.120032, 46.974279], [48.085957, 46.9852], [48.062997, 46.992577], [48.032613, 46.995972], [48.002143, 46.999338], [47.97618, 47.002294], [47.956782, 47.004372], [47.944894, 47.005631], [47.921806, 47.00288], [47.904468, 47.000772], [47.902837, 47.000099], [47.888375, 46.993616], [47.855287, 46.978817], [47.834087, 46.96933], [47.826839, 46.966256], [47.816921, 46.968173], [47.804862, 46.965464], [47.804458, 46.965275], [47.791665, 46.952938], [47.777653, 46.948299], [47.774392, 46.947244], [47.769628, 46.945955], [47.754264, 46.94326], [47.752247, 46.942586], [47.750788, 46.941883], [47.740832, 46.936315], [47.733493, 46.931363], [47.730601, 46.926939], [47.730704, 46.926058], [47.73212, 46.92345], [47.73182, 46.91961], [47.731176, 46.91876], [47.721949, 46.911255], [47.715168, 46.910347], [47.706414, 46.90891], [47.703968, 46.909848], [47.698389, 46.910669], [47.693711, 46.910815], [47.685814, 46.910405], [47.665387, 46.908148], [47.663498, 46.908324], [47.646204, 46.912897], [47.622343, 46.918789], [47.618952, 46.921632], [47.611528, 46.921984], [47.592602, 46.924241], [47.583194, 46.924623], [47.562304, 46.925471], [47.54428, 46.926409], [47.543164, 46.925705], [47.538958, 46.904892], [47.537585, 46.882897], [47.538701, 46.880668], [47.538872, 46.879142], [47.535611, 46.874038], [47.531834, 46.872335], [47.519609, 46.869476]]}},
{"type": "Feature", "properties": {"ProjectID": "P1476", "@id": "way/312519493", "@relations": [{"role": "", "rel": "8203643", "reltags": {"name": "Макат – Северный Кавказ", "type": "pipeline"}}]}, "geometry": {"type": "LineString", "coordinates": [[49.059578, 46.692195], [49.102123, 46.691631], [49.147892, 46.691041], [49.175765, 46.690721], [49.238143, 46.689774], [49.28949, 46.688913], [49.290993, 46.68896], [49.314575, 46.6926], [49.339916, 46.696462], [49.362919, 46.70002], [49.390133, 46.704181], [49.476198, 46.712336], [49.489792, 46.713503], [49.542579, 46.718479], [49.614904, 46.725106], [49.667521, 46.730007], [49.689852, 46.732014], [49.705301, 46.733331], [49.725454, 46.73528], [49.73972, 46.736609], [49.77575, 46.741982], [49.84333, 46.751873], [49.878143, 46.759871], [49.91542, 46.768298], [50.023616, 46.814025], [50.21525, 46.919743], [50.357932, 46.997617], [50.369717, 47.004403], [50.381467, 47.010411], [50.453014, 47.064839]]}},
{"type": "Feature", "properties": {"ProjectID": "P1476", "@id": "way/312517700", "@relations": [{"role": "", "rel": "8203643", "reltags": {"name": "Макат – Северный Кавказ", "type": "pipeline"}}]}, "geometry": {"type": "LineString", "coordinates": [[51.847789, 47.355885], [51.843441, 47.355179], [51.841961, 47.354961], [51.841231, 47.354917], [51.833689, 47.354859], [51.828979, 47.354656], [51.82635, 47.354452], [51.822134, 47.354052], [51.815418, 47.35334], [51.806416, 47.35265], [51.796374, 47.351618], [51.791589, 47.351211], [51.777856, 47.350048], [51.77026, 47.349379], [51.760948, 47.348478], [51.751185, 47.347649], [51.741958, 47.346791], [51.728976, 47.345584], [51.718676, 47.344625], [51.707454, 47.343622], [51.694043, 47.342386], [51.680804, 47.341208], [51.666491, 47.339841], [51.656878, 47.338983], [51.64718, 47.338125], [51.641257, 47.337631], [51.633447, 47.337573], [51.618426, 47.337355], [51.606581, 47.337238], [51.595445, 47.337078], [51.57579, 47.33686], [51.561177, 47.336613], [51.548152, 47.336424], [51.527896, 47.336162], [51.515279, 47.335959], [51.491568, 47.335624], [51.471699, 47.335246], [51.456914, 47.335086], [51.433482, 47.334722], [51.414128, 47.334461], [51.390803, 47.334054], [51.376491, 47.333864], [51.363337, 47.333705], [51.33776, 47.333341], [51.317847, 47.332919], [51.294866, 47.332556], [51.271842, 47.33225], [51.265641, 47.332134], [51.265104, 47.331959], [51.261113, 47.329691], [51.259804, 47.329196], [51.258474, 47.329051], [51.244054, 47.328716], [51.222017, 47.328018], [51.198478, 47.327262], [51.191204, 47.327015], [51.15801, 47.326142], [51.131857, 47.329202], [51.064969, 47.329167], [50.990601, 47.329065], [50.934567, 47.324059], [50.903372, 47.312516], [50.873026, 47.309163], [50.83157, 47.311694], [50.830368, 47.311462], [50.790457, 47.300724], [50.776879, 47.29687], [50.774879, 47.296067], [50.758254, 47.288021], [50.731062, 47.282502], [50.702481, 47.279853], [50.668689, 47.272096], [50.624675, 47.243942], [50.584961, 47.20196], [50.572769, 47.188861], [50.569693, 47.185389], [50.556551, 47.170549], [50.537379, 47.149355], [50.527129, 47.138021], [50.50883, 47.118008], [50.486986, 47.095926], [50.469734, 47.078248], [50.45988, 47.070251], [50.454573, 47.06607], [50.453014, 47.064839]]}},
{"type": "Feature", "properties": {"ProjectID": "P1476", "@id": "way/312518324", "@relations": [{"role": "", "rel": "8203643", "reltags": {"name": "Макат – Северный Кавказ", "type": "pipeline"}}]}, "geometry": {"type": "LineString", "coordinates": [[53.347121, 47.681033], [53.345618, 47.682609], [53.342421, 47.684155], [53.34167, 47.684386], [53.340898, 47.684399], [53.327444, 47.680557], [53.325876, 47.680471], [53.306695, 47.680167], [53.289999, 47.67998], [53.269573, 47.679935], [53.232578, 47.679893], [53.213352, 47.678564], [53.208247, 47.678202], [53.206743, 47.677813], [53.184086, 47.668955], [53.164128, 47.661138], [53.14443, 47.653391], [53.124388, 47.645528], [53.104647, 47.637778], [53.081044, 47.628553], [53.063448, 47.62164], [53.041905, 47.611602], [53.026241, 47.604224], [52.997531, 47.596961], [52.984055, 47.593546], [52.971867, 47.590507], [52.970408, 47.589986], [52.960108, 47.58437], [52.944146, 47.575583], [52.925991, 47.565581], [52.902173, 47.552664], [52.884663, 47.543047], [52.86887, 47.534298], [52.850417, 47.523982], [52.834323, 47.514939], [52.833379, 47.514621], [52.819689, 47.514708], [52.818616, 47.514447], [52.80763, 47.510157], [52.795356, 47.50288], [52.77686, 47.491717], [52.757891, 47.482988], [52.741543, 47.474764], [52.719484, 47.471544], [52.699998, 47.468659], [52.688411, 47.469558], [52.66584, 47.470645], [52.644726, 47.47166], [52.62713, 47.468295], [52.61494, 47.465845], [52.60563, 47.461941], [52.582968, 47.452382], [52.565888, 47.445184], [52.53718, 47.439625], [52.514778, 47.435416], [52.490788, 47.430887], [52.461777, 47.425429], [52.433323, 47.420044], [52.424827, 47.419796], [52.397359, 47.419028], [52.382899, 47.413001], [52.375603, 47.41149], [52.352429, 47.407018], [52.328094, 47.402299], [52.295135, 47.395879], [52.270246, 47.391128], [52.246042, 47.387583], [52.216216, 47.383341], [52.213596, 47.383097], [52.199949, 47.382632], [52.164629, 47.381819], [52.130683, 47.381092], [52.096437, 47.380278], [52.058371, 47.379436], [52.034596, 47.378855], [52.00065, 47.37807], [51.978592, 47.377547], [51.955675, 47.377024], [51.94409, 47.376774], [51.936406, 47.374583], [51.917611, 47.372763], [51.909328, 47.371717], [51.876798, 47.362881], [51.862807, 47.359147], [51.855468, 47.357098], [51.853881, 47.356822], [51.847789, 47.355885]]}}
]
}
