{
"type": "FeatureCollection",
"features": [
{"type": "Feature", "properties": {"ProjectID": "P1573"}, "geometry": {"type": "LineString", "coordinates": [[-3.5458, 40.585923], [-3.53705, 40.607421], [-3.543, 40.676051], [-3.582091, 40.730659], [-3.642096, 40.880673], [-3.622094, 40.933177], [-3.599592, 41.065689], [-3.602092, 41.120694], [-3.649597, 41.235704], [-3.6921, 41.440723], [-3.717103, 41.595736], [-3.6892, 41.6704], [-3.756208, 41.915521], [-3.756208, 42.336142], [-3.691, 42.346001], [-2.879524, 42.563876], [-2.882397, 42.565855]]}}
]
}
