{
"type": "FeatureCollection",
"features": [
{"type": "Feature", "properties": {"ProjectID": "P1600"}, "geometry": {"type": "LineString", "coordinates": [[2.861423, 53.189202], [2.860844, 53.18948], [2.858416, 53.187201], [2.857845, 53.18741], [2.857772, 53.187341], [2.858347, 53.187132], [2.851703, 53.181623], [2.848785, 53.179578], [2.845396, 53.177815], [2.839258, 53.175225], [2.833952, 53.173605], [2.829853, 53.172692], [2.825401, 53.171998], [2.815109, 53.170857], [2.810782, 53.170099], [2.806658, 53.169081], [2.802708, 53.167806], [2.624341, 53.100544], [2.564921, 53.077958], [2.483746, 53.047696], [2.477494, 53.045249], [2.468521, 53.042036], [2.390132, 53.012542], [2.382434, 53.009801], [2.35096, 52.997797], [2.345928, 52.99603], [2.316839, 52.984968], [2.305358, 52.980796], [2.266311, 52.965942], [2.206977, 52.943757], [2.200627, 52.941256], [2.082667, 52.903052], [2.07773, 52.901056], [2.052367, 52.890061], [1.9284, 52.835857], [1.917237, 52.831403], [1.911958, 52.829762], [1.905144, 52.827984], [1.89675, 52.826192], [1.889581, 52.825028], [1.882301, 52.824173], [1.876416, 52.823719], [1.870495, 52.823469], [1.860115, 52.823533], [1.852725, 52.823945], [1.845384, 52.82458], [1.755909, 52.832794], [1.615417, 52.847257], [1.605222, 52.848484], [1.599511, 52.84946], [1.513312, 52.866312], [1.509013, 52.867005], [1.506082, 52.867303], [1.498671, 52.867397], [1.492812, 52.866805], [1.488538, 52.86605], [1.485767, 52.865402], [1.48184, 52.864162], [1.470513, 52.860221], [1.468488, 52.859309]]}}
]
}
