{
"type": "FeatureCollection",
"features": [
{"type": "Feature", "properties": {"ProjectID": "P1673"}, "geometry": {"type": "LineString", "coordinates": [[-8.9085, 39.747], [-8.8741, 39.747], [-8.8636, 39.758], [-8.8502, 39.775], [-8.8362, 39.791], [-8.8301, 39.799], [-8.8117, 39.812], [-8.7886, 39.825], [-8.7647, 39.836], [-8.754, 39.842], [-8.7425, 39.845], [-8.7337, 39.847], [-8.7181, 39.827], [-8.7081, 39.815], [-8.6944, 39.806], [-8.6571, 39.786], [-8.6289, 39.769], [-8.6088, 39.758], [-8.5679, 39.735], [-8.5479, 39.723], [-8.5305, 39.71], [-8.5125, 39.696], [-8.501, 39.685], [-8.4905, 39.674], [-8.4846, 39.667], [-8.4756, 39.657], [-8.4661, 39.64], [-8.4611, 39.628], [-8.457, 39.616], [-8.45, 39.6], [-8.4459, 39.586], [-8.4384, 39.565], [-8.4361, 39.555], [-8.4308, 39.543], [-8.4265, 39.529], [-8.423, 39.521], [-8.4139, 39.503], [-8.3971, 39.48], [-8.3834, 39.464], [-8.3733, 39.454], [-8.3626, 39.445], [-8.3505, 39.436], [-8.3347, 39.429], [-8.3189, 39.426], [-8.3011, 39.423], [-8.2878, 39.423], [-8.2533, 39.425], [-8.2346, 39.427], [-8.2075, 39.431], [-8.1873, 39.433], [-8.1666, 39.436], [-8.1533, 39.436], [-8.1368, 39.434], [-8.1235, 39.432], [-8.1145, 39.426], [-8.1065, 39.42], [-8.0927, 39.404], [-8.0832, 39.391], [-8.074, 39.369], [-8.0484, 39.33], [-8.0299, 39.295], [-8.0115, 39.275], [-7.993, 39.264], [-7.9653, 39.251], [-7.9377, 39.243], [-7.8977, 39.238], [-7.8536, 39.238], [-7.7962, 39.234], [-7.7245, 39.235], [-7.6815, 39.228], [-7.6251, 39.218], [-7.5903, 39.206], [-7.5636, 39.197], [-7.538, 39.184], [-7.5124, 39.171], [-7.4878, 39.155], [-7.457, 39.133], [-7.413, 39.091], [-7.3853, 39.069], [-7.3566, 39.038], [-7.3084, 38.996], [-7.2859, 38.985], [-7.248, 38.97], [-7.168, 38.961], [-7.1281, 38.962], [-7.1055, 38.964], [-7.084, 38.967], [-7.0696, 38.969], [-7.0573, 38.982], [-7.059, 38.982]]}}
]
}
