{
"type": "FeatureCollection",
"features": [
{"type": "Feature", "properties": {"ProjectID": "P1688"}, "geometry": {"type": "LineString", "coordinates": [[7.119517, 52.043357], [7.125579, 52.03477], [7.130125, 52.031739], [7.124316, 52.025424], [7.118759, 52.023909], [7.117244, 52.018605], [7.110171, 52.010775], [7.110171, 52.003198], [7.109161, 51.999914], [7.111434, 51.990064], [7.091986, 51.976677], [7.094007, 51.971626], [7.094259, 51.962533], [7.082641, 51.955714], [7.0738, 51.947884], [7.069759, 51.940559], [7.064455, 51.938791], [7.063192, 51.936013], [7.055615, 51.932729], [7.051574, 51.925152], [7.050058, 51.921363], [7.03844, 51.915807], [7.033136, 51.915554], [7.026064, 51.915049], [7.020489, 51.911498], [7.014676, 51.902363], [7.013223, 51.895928], [7.013016, 51.89053], [7.005957, 51.885341], [6.994955, 51.882019], [6.995162, 51.87932], [6.993709, 51.876829], [6.990595, 51.868318], [6.989765, 51.863335], [6.981664, 51.859138], [6.968378, 51.854155], [6.948864, 51.854363], [6.940975, 51.849796], [6.931011, 51.845021], [6.924575, 51.842738], [6.91897, 51.842115], [6.911497, 51.837133], [6.910459, 51.831112], [6.915233, 51.823639], [6.919801, 51.816788], [6.921669, 51.815127], [6.918763, 51.810975], [6.921046, 51.797274], [6.90776, 51.79333], [6.900909, 51.790838], [6.896902, 51.784884], [6.876939, 51.769868], [6.870967, 51.766797], [6.870796, 51.760313], [6.868237, 51.756901], [6.851014, 51.755048], [6.846253, 51.749758], [6.839906, 51.745262], [6.82774, 51.742353], [6.809492, 51.740502], [6.7804, 51.739973], [6.769556, 51.739444], [6.767705, 51.739179], [6.760035, 51.735212], [6.752894, 51.733361], [6.74734, 51.729394], [6.749192, 51.71617], [6.754746, 51.712203], [6.758448, 51.69131], [6.758184, 51.680731], [6.749456, 51.675441], [6.74258, 51.675177], [6.737291, 51.673854], [6.731208, 51.670681], [6.73015, 51.660366], [6.734646, 51.657193], [6.724459, 51.648642], [6.725746, 51.645746], [6.718345, 51.64285], [6.729929, 51.627727], [6.727677, 51.625474], [6.718345, 51.623544], [6.710301, 51.619039], [6.698717, 51.61936], [6.693568, 51.61743], [6.67941, 51.617108], [6.677158, 51.614534], [6.669435, 51.614856], [6.665574, 51.618717], [6.649807, 51.613569], [6.642728, 51.611638], [6.63951, 51.610994], [6.63404, 51.61196], [6.624065, 51.618717], [6.612803, 51.618717], [6.609907, 51.614856], [6.605724, 51.61196], [6.602828, 51.602306], [6.60315, 51.595871], [6.582234, 51.595549], [6.567433, 51.581391], [6.555849, 51.577208], [6.542978, 51.571416], [6.533968, 51.564337], [6.531394, 51.552431], [6.53429, 51.547927], [6.524334, 51.544935], [6.513683, 51.530412], [6.51562, 51.525571], [6.510133, 51.520729], [6.505937, 51.513629], [6.496578, 51.513306], [6.493027, 51.510079], [6.485281, 51.509433], [6.481408, 51.50556], [6.475599, 51.500396], [6.471726, 51.494264], [6.463012, 51.492328], [6.456557, 51.488777], [6.436547, 51.473285], [6.428478, 51.468444], [6.424282, 51.458116], [6.426219, 51.452307], [6.431705, 51.450048], [6.439128, 51.446175], [6.452684, 51.434878], [6.464303, 51.42326], [6.468176, 51.420677], [6.470435, 51.419709], [6.46979, 51.414223], [6.471403, 51.410027], [6.473662, 51.403572], [6.479149, 51.400344], [6.475599, 51.396149], [6.479795, 51.389694], [6.484313, 51.385175], [6.483668, 51.373879], [6.48399, 51.364519], [6.47334, 51.332567], [6.460107, 51.326112], [6.454943, 51.323208], [6.455266, 51.317398], [6.471403, 51.316107], [6.485281, 51.30352], [6.497546, 51.293515], [6.507551, 51.291578], [6.517233, 51.288674], [6.536598, 51.292224], [6.537889, 51.289642], [6.566614, 51.28706], [6.576213, 51.268299], [6.564341, 51.233832], [6.562044, 51.231918], [6.565107, 51.227705], [6.561278, 51.221195], [6.56932, 51.212387], [6.570469, 51.206643], [6.593446, 51.184048], [6.588851, 51.178687], [6.580426, 51.175623], [6.568937, 51.171028], [6.566256, 51.170645], [6.561278, 51.167581], [6.557065, 51.163368], [6.552087, 51.161071], [6.4709, 51.131966], [6.468602, 51.126221], [6.463149, 51.118654], [6.451277, 51.112527], [6.445533, 51.110612], [6.440937, 51.106783], [6.431746, 51.110612], [6.424853, 51.109464], [6.418343, 51.106783], [6.414896, 51.106017], [6.411833, 51.106783], [6.406471, 51.104485], [6.372771, 51.102953], [6.363963, 51.09606], [6.362814, 51.082657], [6.339454, 51.078827], [6.336773, 51.073083], [6.331029, 51.069636], [6.330646, 51.064658], [6.320306, 51.056998], [6.311115, 51.037085], [6.280478, 51.027128], [6.257884, 51.020235], [6.260947, 51.016405], [6.260564, 51.011044], [6.259033, 51.005299], [6.263628, 50.99764], [6.255647, 50.992875], [6.243056, 50.974619], [6.232984, 50.961714], [6.223541, 50.944087], [6.216616, 50.929923], [6.21882, 50.923313], [6.216302, 50.919851], [6.209377, 50.91387], [6.208747, 50.910093], [6.213469, 50.899706], [6.216302, 50.894355], [6.223226, 50.886486], [6.229836, 50.878617], [6.229836, 50.875155], [6.224171, 50.869804], [6.234243, 50.86162], [6.235502, 50.857529], [6.238964, 50.853122], [6.241168, 50.850289], [6.24463, 50.841476], [6.242741, 50.837069], [6.237076, 50.837384], [6.235187, 50.832348], [6.216616, 50.826053], [6.215357, 50.823535], [6.193954, 50.817239], [6.188603, 50.817239], [6.182622, 50.814092], [6.169717, 50.803705], [6.1691, 50.800032], [6.173498, 50.795893], [6.172722, 50.791754], [6.175568, 50.78451], [6.182035, 50.780371], [6.177379, 50.772868], [6.174274, 50.769764], [6.170394, 50.77054], [6.167548, 50.767953], [6.158493, 50.763296], [6.14918, 50.756311], [6.146593, 50.749843], [6.144264, 50.748032], [6.142453, 50.747774], [6.133399, 50.749843], [6.129777, 50.748032], [6.132881, 50.744411], [6.133399, 50.741565], [6.126155, 50.73458], [6.121239, 50.729664], [6.114772, 50.725525]]}}
]
}
