{
"type": "FeatureCollection",
"features": [
{"type": "Feature", "properties": {"ProjectID": "P1733"}, "geometry": {"type": "LineString", "coordinates": [[-4.11914, 54.78821], [-4.1094, 54.788964], [-4.097374, 54.848878], [-4.078275, 54.872085], [-4.077567, 54.892432], [-4.051394, 54.895687], [-3.999047, 54.942441], [-3.905671, 54.972092], [-3.895768, 54.984677], [-3.825028, 55.011051], [-3.791074, 55.047947], [-3.771974, 55.055241], [-3.733067, 55.058482], [-3.708309, 55.078735], [-3.698413, 55.099839], [-3.656427, 55.114708], [-3.606443, 55.124998], [-3.605943, 55.136428], [-3.580451, 55.152426], [-3.503476, 55.154996], [-3.485981, 55.163277], [-3.454491, 55.199523], [-3.449493, 55.224048], [-3.455491, 55.263942], [-3.458817, 55.277104], [-3.438452, 55.277305]]}},
{"type": "Feature", "properties": {"ProjectID": "P1733"}, "geometry": {"type": "LineString", "coordinates": [[-6.08249, 53.53813], [-6.04014, 53.54518], [-6.0334, 53.54618], [-6.0188, 53.54759], [-6.00535, 53.54868], [-5.98736, 53.55052], [-5.97239, 53.55167], [-5.95824, 53.55303], [-5.95492, 53.55362], [-5.95146, 53.55452], [-5.94794, 53.55574], [-5.94371, 53.55747], [-5.94021, 53.55851], [-5.93653, 53.5593], [-5.93345, 53.55971], [-5.92882, 53.56008], [-5.92505, 53.56005], [-5.92146, 53.55977], [-5.91451, 53.55858], [-5.91068, 53.5581], [-5.90708, 53.55792], [-5.90227, 53.5581], [-5.7484, 53.57182], [-5.73821, 53.57257], [-5.70376, 53.57579], [-5.63369, 53.58183], [-5.60908, 53.58412], [-5.53719, 53.59029], [-5.51181, 53.59261], [-5.48966, 53.59438], [-5.47534, 53.59576], [-5.45991, 53.59695], [-5.4468, 53.59825], [-5.43829, 53.59936], [-5.42909, 53.6017], [-5.42567, 53.60311], [-5.42278, 53.60478], [-5.41946, 53.60731], [-5.41699, 53.61018], [-5.40569, 53.62646], [-5.39955, 53.63565], [-5.39709, 53.63893], [-5.39177, 53.64657], [-5.38209, 53.66072], [-5.37398, 53.67215], [-5.34888, 53.70848], [-5.3472, 53.71069], [-5.3331, 53.73106], [-5.32846, 53.7375], [-5.32412, 53.74393], [-5.32033, 53.74912], [-5.28513, 53.79991], [-5.28128, 53.80519], [-5.27052, 53.82084], [-5.24785, 53.85292], [-5.22024, 53.89265], [-5.20688, 53.91146], [-5.19299, 53.93141], [-5.18506, 53.9424], [-5.18249, 53.94625], [-5.17973, 53.94995], [-5.13056, 54.01984], [-5.11362, 54.04372], [-5.11173, 54.04617], [-5.09717, 54.06704], [-5.08514, 54.08375], [-5.08305, 54.08694], [-5.0777, 54.09429], [-5.06837, 54.10778], [-5.06185, 54.11669], [-5.04477, 54.14094], [-5.02508, 54.16834], [-5.01829, 54.17817], [-5.00286, 54.19951], [-4.99531, 54.21042], [-4.99122, 54.21604], [-4.98892, 54.21847], [-4.98668, 54.22028], [-4.9758, 54.22772], [-4.96585, 54.23419], [-4.95442, 54.24195], [-4.92109, 54.26403], [-4.87558, 54.29458], [-4.80994, 54.33808], [-4.8068, 54.34077], [-4.80441, 54.34391], [-4.802, 54.34621], [-4.79986, 54.34774], [-4.78974, 54.35352], [-4.78735, 54.35505], [-4.78358, 54.35833], [-4.7776, 54.36409], [-4.77458, 54.36636], [-4.77256, 54.36759], [-4.76972, 54.36896], [-4.75562, 54.37444], [-4.74962, 54.37794], [-4.72409, 54.395], [-4.68851, 54.41838], [-4.65957, 54.43765], [-4.63769, 54.45191], [-4.62762, 54.45896], [-4.62288, 54.46167], [-4.60985, 54.47032], [-4.57738, 54.49138], [-4.56216, 54.50155], [-4.54899, 54.51], [-4.54374, 54.51317], [-4.5376, 54.51721], [-4.53258, 54.52075], [-4.51795, 54.53037], [-4.51155, 54.53452], [-4.5073, 54.53701], [-4.49584, 54.54491], [-4.48871, 54.54928], [-4.47716, 54.55702], [-4.46782, 54.56277], [-4.46096, 54.56753], [-4.45165, 54.57318], [-4.44702, 54.57656], [-4.43895, 54.58153], [-4.43418, 54.58496], [-4.42717, 54.58915], [-4.42099, 54.59354], [-4.41542, 54.59691], [-4.39827, 54.60826], [-4.39115, 54.61264], [-4.37603, 54.62275], [-4.36763, 54.62792], [-4.35165, 54.63844], [-4.34614, 54.64185], [-4.34265, 54.64426], [-4.3231, 54.6569], [-4.21704, 54.72528], [-4.20805, 54.73099], [-4.20411, 54.73301], [-4.19862, 54.7352], [-4.15675, 54.75087], [-4.15418, 54.75203], [-4.1511, 54.75381], [-4.14844, 54.7558], [-4.14717, 54.75704], [-4.11914, 54.78821]]}}
]
}
