{
"type": "FeatureCollection",
"features": [
{"type": "Feature", "properties": {"ProjectID": "P1824"}, "geometry": {"type": "LineString", "coordinates": [[142.938492, 53.569315], [143.01884, 52.43506], [142.858658, 52.442827], [142.762527, 52.397182], [142.703819, 52.387125], [142.675667, 52.371407], [142.670174, 52.355264], [142.658501, 52.352538], [142.614899, 52.313306], [142.56752, 52.298612], [142.560654, 52.287483], [142.543831, 52.27551], [142.525291, 52.27446], [142.440491, 52.217915], [142.384529, 52.199822], [142.3629, 52.189299], [142.281189, 52.189299], [142.214241, 52.180879], [142.194672, 52.172458], [142.161369, 52.172247], [142.13562, 52.168668], [142.12738, 52.169721], [142.02614, 52.19364], [141.847229, 52.112409], [141.792641, 52.098492], [141.687241, 52.092586], [141.630936, 52.07402], [141.317825, 52.090582], [141.294479, 52.077079], [141.285381, 52.060407], [141.241093, 52.038977], [141.238003, 52.02567], [141.217232, 52.013838], [141.207275, 51.971557], [141.183243, 51.959923], [141.107883, 51.877869], [141.095009, 51.840232], [140.9939, 51.758384], [140.928841, 51.686073], [140.862236, 51.634321], [140.82756, 51.57963], [140.83065, 51.554661], [140.812798, 51.523805], [140.790997, 51.506071], [140.746365, 51.48769], [140.74482, 51.480955], [140.711861, 51.47315], [140.660534, 51.474861], [140.615215, 51.494744], [140.57321, 51.49772], [140.538826, 51.487049], [140.493336, 51.488438], [140.488358, 51.486514], [140.427761, 51.489935], [140.386906, 51.502652], [140.327511, 51.51825], [140.302448, 51.514939], [140.235157, 51.486514], [140.18692, 51.476358], [140.168552, 51.477106], [140.116024, 51.466735], [140.089245, 51.471172], [140.064011, 51.480047], [139.9823, 51.518784], [139.901619, 51.516648], [139.803429, 51.505323], [139.655113, 51.465558], [139.588852, 51.427043], [139.34166, 51.358062], [139.263039, 51.325034], [139.164162, 51.286615], [139.151115, 51.272656], [139.140472, 51.270508], [139.11052, 51.26041], [139.053612, 51.233977], [139.008636, 51.233977], [138.948212, 51.222153], [138.901176, 51.206883], [138.894653, 51.201291], [138.871307, 51.198924], [138.760757, 51.150925], [138.663254, 51.11861], [138.597679, 51.104384], [138.581886, 51.09576], [138.547211, 51.099857], [138.472023, 51.08541], [138.400955, 51.020882], [138.412628, 51.002954], [138.421555, 50.999497], [138.420181, 50.992798], [138.45829, 50.958643], [138.451424, 50.919701], [138.381729, 50.845188], [138.313065, 50.830662], [138.255043, 50.844105], [138.193588, 50.833264], [138.129044, 50.812877], [138.12252, 50.78597], [138.075829, 50.75579], [138.007507, 50.761436], [137.984161, 50.7534], [137.588654, 50.738193], [136.98221, 50.52591]]}}
]
}
