{
"type": "FeatureCollection",
"features": [
{"type": "Feature", "properties": {"ProjectID": "P1835", "Fuel": "Gas", "StartCount": "Algeria", "EndCountry": "Algeria", "Countries": "Algeria", "Wiki": "https://www.gem.wiki/Hassi_R%27Mel-Skikda-El_Kala_gas_pipeline", "PipelineNa": "Hassi R'Mel-Skikda-El Kala Gas Pipeline", "SegmentNam": "Hassi R'Mel- Mechtatine Pipeline", "OtherEngli": "GK3", "Status": "operating", "Owner": "Sonatrach (100%)", "Parent": "Sonatrach [100.00%]", "ParentHQCo": "Algeria", "StartYear1": "2013", "StartYear2": null, "StartYear3": null, "StopYear": null, "ShelvedYea": null, "Capacity": "9", "CancelledY": null, "CapacityUn": "bcm/y", "CapacityBc": "9", "CapacityBO": "4191.32", "LengthKnow": "432", "LengthEsti": "685.27", "LengthMerg": "432", "Diameter": "48", "DiameterUn": "in", "FuelSource": null, "StartLocat": "Hassi R'Mel", "StartPrefe": null, "StartState": "Laghouat", "StartRegio": "Africa", "EndLocatio": "Mechtatine", "StartSubRe": "Northern Africa", "EndPrefect": null, "EndState/P": null, "EndRegion": "Africa", "FIDStatus": null, "EndSubRegi": "Northern Africa", "FIDYear": null, "OtherLangu": null, "OtherLan_1": null, "Cost": "580000000", "CostUnits": "USD", "CostUSD": "580000000", "WKTFormat": "LINESTRING (3.2516514 32.9361073, 6.8927595 36.8739242, 8.4205565 36.8882698)", "LastUpdate": "2022-07-08"}, "geometry": {"type": "MultiLineString", "coordinates": [[[3.249096, 32.933582], [3.251237, 32.957088], [3.365531, 33.062121], [3.442208, 33.136957], [3.49283, 33.171859], [3.555363, 33.229167], [3.597051, 33.284571], [3.606729, 33.290794], [3.636506, 33.33061], [3.745008, 33.452124], [4.037944, 33.793529], [4.502287, 34.206874], [4.604275, 34.294867], [4.608742, 34.306552], [4.674811, 34.373706], [4.703099, 34.411178], [4.720222, 34.426531], [4.74181, 34.429601], [4.784057, 34.462445], [4.910611, 34.62249], [4.9188, 34.627391], [5.049821, 34.793231], [5.107818, 34.846382], [5.117495, 34.861654], [5.130895, 34.872038], [5.134617, 34.885779], [5.135362, 34.9218], [5.130523, 34.93126], [5.132384, 34.949263], [5.143923, 34.95872], [5.154345, 34.964211], [5.177795, 34.98861], [5.1871, 35.001569], [5.187845, 35.014984], [5.183006, 35.036625], [5.1871, 35.051253], [5.181517, 35.078063], [5.182168, 35.106539], [5.190729, 35.109584], [5.201152, 35.127548], [5.194079, 35.137289], [5.19259, 35.144289], [5.335429, 35.283721], [5.343618, 35.304987], [5.373768, 35.34386], [5.399079, 35.37027], [5.469707, 35.423216], [5.50209, 35.446872], [5.509163, 35.462335], [5.508418, 35.469914], [5.518468, 35.490525], [5.534473, 35.501132], [5.541546, 35.517493], [5.534008, 35.536729], [5.550014, 35.550055], [5.566019, 35.567012], [5.590958, 35.580031], [5.619432, 35.605229], [5.63581, 35.606742], [5.642882, 35.617333], [5.65926, 35.6252], [5.679732, 35.630646], [5.695737, 35.630646], [5.735192, 35.656357], [5.779114, 35.67813], [5.827689, 35.713573], [5.897666, 35.789998], [5.906599, 35.809018], [5.917766, 35.818978], [5.93526, 35.825015], [5.944193, 35.826222], [5.959361, 35.862353], [5.990628, 35.875022], [6.029338, 35.924169], [6.097082, 35.963344], [6.134862, 35.999639], [6.222706, 36.070674], [6.248761, 36.100454], [6.379596, 36.185669], [6.418307, 36.247531], [6.681233, 36.511582], [6.858316, 36.738819], [6.866412, 36.757609], [6.884441, 36.774549], [6.888233, 36.795994], [6.910939, 36.814174], [6.93718, 36.818942], [6.949254, 36.830375], [6.947114, 36.878997], [6.989942, 36.861503], [7.046519, 36.870436], [7.077088, 36.870101], [7.110401, 36.863401], [7.178517, 36.844489], [7.250853, 36.827631], [7.336929, 36.810107], [7.341023, 36.811001], [7.347909, 36.810032], [7.358261, 36.810032], [7.377989, 36.81562], [7.416514, 36.826272], [7.432519, 36.833795], [7.435799, 36.834409], [7.438963, 36.834409], [7.444174, 36.833888], [7.458877, 36.82927], [7.479349, 36.827706], [7.498611, 36.830834], [7.518757, 36.840218], [7.523224, 36.840888], [7.527505, 36.840814], [7.533274, 36.839473], [7.545836, 36.835675], [7.556305, 36.832398], [7.57259, 36.832696], [7.612045, 36.825173], [7.634122, 36.826961], [7.660922, 36.826365], [7.739739, 36.82521], [7.812694, 36.814781], [7.817533, 36.818357], [7.861827, 36.829084], [7.921754, 36.827892], [7.938132, 36.834148], [8.073712, 36.878822], [8.212178, 36.858871], [8.226881, 36.848447], [8.231719, 36.854404], [8.242514, 36.860658], [8.298347, 36.869294], [8.305419, 36.866316], [8.313608, 36.869294], [8.330357, 36.867507], [8.338174, 36.861254], [8.360135, 36.866019], [8.420556, 36.88827]]]}}
]
}
