{
"type": "FeatureCollection",
"name": "P1856",
"crs": { "type": "name", "properties": { "name": "urn:ogc:def:crs:OGC:1.3:CRS84" } },
"features": [
{ "type": "Feature", "properties": { "country": "Libya", "fuel_type": "Natural Gas", "status": "Operating", "region": "Africa", "pipe_type": "National", "operator": "Zueitina Oil Company", "Project": "Intisar A - Zueitina", "Shareholde": "Zueitina Oil Company", "Length": 118.0, "Diameter": 41.0, "About": "", "Links": " ", "Engineer": " ", "Construct": " ", "Contact": "Tariq Khelifa", "Poistion": "Senior Corrosion Engineer", "Co_name": "Zueitina Oil Company", "Tel": "+218 21 4440956", "Web": "http://www.zueitina.com.ly/en/", "Start": "Intisar A field, Libya", "End_": "Zueitina, Lobya", "Descript": "Zueitina Oil operated pipeline from Intisar A field to Zueitina", "Comm_1": " ", "email": "khalifa.works@yahoo.com", "Cap": "Not specified", "Capacity_mmcfd": 1700.0, "Capex": null, "OBJECTID_1": 484, "created_user": null, "created_date": null, "last_edited_user": "SDE", "last_edited_date": 1720624180000 }, "geometry": { "type": "LineString", "coordinates": [ [ 20.078964331150718, 30.880657338158269 ], [ 20.086098642441041, 30.870141043527301 ], [ 20.117585958588652, 30.750058714813299 ], [ 20.151287596758799, 30.685912823965886 ], [ 20.263211946315323, 30.588438332429387 ], [ 20.362987036201659, 30.319516665910765 ], [ 20.48103101220585, 29.994139451654867 ], [ 20.656685461041871, 29.533852268946632 ], [ 20.772685776062904, 29.21462225991397 ], [ 20.782821577906407, 29.060020350267084 ], [ 20.776081102409695, 29.039107531351497 ] ] } }
]
}
