{
"type": "FeatureCollection",
"features": [
{"type": "Feature", "properties": {"ProjectID": "P1864", "country": "Libya", "fuel_type": "Natural Gas", "status": "Operating", "region": "Africa", "pipe_type": "National", "operator": "Sirte Oil Company", "Project": "Al Khums - Tripoli", "Shareholde": "Sirte Oil Company", "Length": 68.0, "Diameter": 34.0, "About": " ", "Links": " ", "Engineer": " ", "Construct": " ", "Contact": "Safdar Toor", "Poistion": "Senior Process Engineer", "Co_name": "Sirte Oil Company", "Tel": "+218 21 3610376", "Web": "https://www.sirteoil.com.ly/", "Start": "Al Khums, Libya", "End_": "Tripoli, Libya", "Descript": "Sirte Oil operated pipeline from Al Khums to Tripoli", "Comm_1": " ", "email": " ", "Cap": "Not specified", "Capacity_mmcfd": 1200.0, "Capex": null, "OBJECTID_1": 3769, "created_user": null, "created_date": null, "last_edited_user": "SDE", "last_edited_date": 1722340923000}, "geometry": {"type": "LineString", "coordinates": [[13.306499, 32.855182], [13.353458, 32.844039], [13.410673, 32.815467], [13.518832, 32.781242], [13.679513, 32.736673], [13.754239, 32.736673], [14.001824, 32.689793], [14.076432, 32.669897], [14.164545, 32.624414], [14.250644, 32.594568], [14.371124, 32.58572]]}}
]
}
