{
"type": "FeatureCollection",
"features": [
{"type": "Feature", "properties": {"ProjectID": "P1867", "country": "Libya", "fuel_type": "Natural Gas", "status": "Operating", "region": "Africa", "pipe_type": "National", "operator": "Sirte Oil Company", "Project": "Attahadi - Nasser/Marsa el Brega Pipeline", "Shareholde": "Sirte Oil Company", "Length": 9.0, "Diameter": 8.0, "About": " ", "Links": " ", "Engineer": " ", "Construct": " ", "Contact": "Safdar Toor", "Poistion": "Senior Process Engineer", "Co_name": "Sirte Oil Company", "Tel": "+218 21 3610376", "Web": "https://www.sirteoil.com.ly/", "Start": "Attahadi field, Libya", "End_": "Nasser - Marsa el Brega Pipeline", "Descript": "Sirte Oil operated pipeline from Attahadi field to Nasser - Marsa el Brega Pipeline", "Comm_1": " ", "email": " ", "Cap": "Not specified", "Capacity_mmcfd": 10000.0, "Capex": null, "OBJECTID_1": 3775, "created_user": null, "created_date": null, "last_edited_user": "SDE", "last_edited_date": 1722340923000}, "geometry": {"type": "LineString", "coordinates": [[19.853366, 29.569912], [19.852916, 29.567762], [19.660914, 29.566077]]}}
]
}
