{
"type": "FeatureCollection",
"name": "P1862",
"crs": { "type": "name", "properties": { "name": "urn:ogc:def:crs:OGC:1.3:CRS84" } },
"features": [
{ "type": "Feature", "properties": { "country": "Libya", "fuel_type": "Natural Gas", "status": "Operating", "region": "Africa", "pipe_type": "National", "operator": "Sirte Oil Company", "Project": "Marsa el Brega - Benghazi", "Shareholde": "Sirte Oil Company", "Length": 149.0, "Diameter": 34.0, "About": " ", "Links": " ", "Engineer": " ", "Construct": " ", "Contact": "Safdar Toor", "Poistion": "Senior Process Engineer", "Co_name": "Sirte Oil Company", "Tel": "+218 21 3610376", "Web": "https://www.sirteoil.com.ly/", "Start": "Marsa el Brega, Libya", "End_": "Benghazi, Libya", "Descript": "Sirte Oil operated pipeline from Marsa el Brega to Benghazi", "Comm_1": "1999", "email": " ", "Cap": "Not specified", "Capacity_mmcfd": 1200.0, "Capex": null, "OBJECTID_1": 3768, "created_user": null, "created_date": null, "last_edited_user": "SDE", "last_edited_date": 1722340923000 }, "geometry": { "type": "LineString", "coordinates": [ [ 19.606969646072844, 30.386965034504438 ], [ 19.644783070927758, 30.412610284608444 ], [ 19.713572961587797, 30.45297911792002 ], [ 19.832421648423523, 30.535374389773605 ], [ 19.908630407011479, 30.603972309418555 ], [ 19.97475366312365, 30.689457348245053 ], [ 20.000001058525569, 30.722830513039696 ], [ 20.065787927004873, 30.821911929991572 ], [ 20.077218980012155, 30.880742476944551 ], [ 20.097923835770782, 30.895036149321879 ], [ 20.143852495375359, 30.959309615457492 ], [ 20.174749450396387, 31.034288919590441 ], [ 20.184637488799673, 31.099179291594012 ], [ 20.193290069701145, 31.159324911562855 ], [ 20.159302721456587, 31.268291663551413 ], [ 20.082476234566837, 31.39580401301453 ], [ 20.016967214106614, 31.512807132201083 ], [ 19.985878912540212, 31.603855675272541 ], [ 19.967956024232137, 31.685630545797114 ], [ 19.953122655086847, 31.748668454263484 ], [ 19.956213051005399, 31.848984554079436 ], [ 19.977843190371274, 31.918397731321804 ], [ 20.01079429061312, 31.983291599399276 ], [ 20.050341204353291, 32.046526986949317 ], [ 20.063161491167655, 32.095795506528184 ] ] } }
]
}
