{"type":"Feature","properties":{},"geometry":{"type":"LineString","coordinates":[[49.317265,25.1906213],[49.3175738,25.1925768],[49.3214327,25.2082194],[49.3243531,25.2215763],[49.3255524,25.2297275],[49.3268325,25.2348737],[49.3294135,25.2525618],[49.3319271,25.2599711],[49.3351067,25.2665007],[49.3522106,25.2938664],[49.353514,25.2987546],[49.3588572,25.3051778],[49.3708354,25.3162715],[49.3878638,25.3302498],[49.3932878,25.3352375],[49.3990106,25.341724],[49.4085118,25.3555033],[49.4181396,25.3702013],[49.4277792,25.3834277],[49.4341127,25.3905801],[49.435894,25.3958845],[49.4361692,25.4074796],[49.4337084,25.428709],[49.4340562,25.4347959],[49.4358764,25.4413711],[49.4376967,25.4437975],[49.4409038,25.4560856],[49.4419773,25.48226],[49.4434093,25.5109444],[49.4452005,25.519112],[49.4419952,25.5264283],[49.4402172,25.5342576],[49.4343028,25.5458772],[49.4256452,25.5801142],[49.419828,25.6094488],[49.4138142,25.6285365],[49.4100891,25.6383886],[49.4082915,25.6448303],[49.407438,25.6484262],[49.4049975,25.6550833],[49.4074093,25.6585555],[49.4100743,25.6610971],[49.4180172,25.6684597],[49.4278321,25.6770993],[49.4394129,25.6874823],[49.4608859,25.7076477],[49.4730229,25.7195084],[49.4801608,25.7261464],[49.4827982,25.7286053],[49.4896363,25.7302264],[49.4967315,25.7330517],[49.498531,25.7353674],[49.4990452,25.7387483],[49.5010779,25.7401986],[49.5110573,25.7436452],[49.5198992,25.7462533],[49.5312079,25.748045],[49.5379821,25.749631],[49.5413594,25.7491937],[49.5437869,25.7489655],[49.5539056,25.7520894],[49.5568286,25.753096],[49.5592071,25.7520894],[49.5607016,25.7511344],[49.5629369,25.7513667],[49.5727995,25.7554985],[49.5766369,25.7567183],[49.5801921,25.7565658],[49.5816029,25.7573282],[49.5838586,25.7596021],[49.5872892,25.7612581],[49.5924761,25.7636062],[49.5956104,25.7643948],[49.5986604,25.7675567],[49.605647,25.7737846],[49.6312822,25.7966992],[49.6379963,25.7992844],[49.6447023,25.8087027],[49.6855622,25.8449454],[49.7186319,25.8749531],[49.739816,25.8901168],[49.7389484,25.9375939],[49.7435411,25.9730277],[49.7448017,25.9878923],[49.7516016,26.0026015],[49.7494346,26.005758],[49.7540139,26.0488856],[49.755031,26.0538758],[49.754547,26.0578132],[49.7731944,26.0980666],[49.7940192,26.1487089],[49.8085973,26.1812901],[49.8373608,26.2440221],[49.9013967,26.3850433],[49.9243852,26.4369006],[49.9513263,26.500441],[49.9170619,26.5660253],[49.9398593,26.6180873],[49.9278424,26.7211984],[49.9265938,26.728016],[49.9592206,26.7728489],[49.9878759,26.8109062]]}}