{
"type": "FeatureCollection",
"features": [
{"type": "Feature", "properties": {"ProjectID": "P1900"}, "geometry": {"type": "LineString", "coordinates": [[49.395773, 25.652888], [49.402575, 25.654314], [49.405502, 25.653494], [49.406426, 25.650196], [49.40719, 25.643353], [49.401517, 25.628981], [49.395028, 25.626316], [49.385818, 25.624754], [49.368618, 25.629576], [49.358271, 25.631464], [49.344228, 25.630797], [49.33699, 25.630359], [49.329113, 25.630551], [49.322834, 25.631414], [49.320279, 25.63295], [49.306493, 25.633328], [49.30117, 25.631079], [49.294606, 25.631716], [49.278206, 25.629918], [49.254537, 25.627689], [49.234178, 25.626178], [49.21782, 25.625697], [49.197559, 25.624793], [49.170417, 25.623395], [49.151849, 25.622462], [49.102605, 25.620381], [49.043822, 25.61787], [48.928369, 25.610992], [48.886061, 25.606303], [48.880109, 25.60399], [48.873184, 25.599013], [48.858733, 25.596479], [48.828554, 25.586823], [48.801818, 25.568528], [48.788648, 25.561875], [48.77798, 25.552488], [48.749511, 25.539254], [48.727568, 25.533018], [48.700269, 25.523508], [48.592382, 25.482352], [48.496778, 25.446087], [48.360432, 25.394437], [48.263204, 25.35842], [48.213784, 25.341736], [48.16976, 25.325563], [48.128633, 25.303778], [48.055762, 25.267425], [48.028766, 25.249022], [48.009906, 25.241638], [47.934183, 25.231962], [47.746285, 25.203143], [47.603268, 25.181104], [47.521819, 25.167429], [47.477825, 25.161191], [47.439047, 25.154738], [47.355754, 25.133639], [47.297079, 25.11871], [47.288183, 25.115489], [47.258443, 25.109734], [47.239633, 25.10306], [47.229466, 25.100297], [47.204302, 25.100067], [47.144823, 25.09132], [47.129475, 25.091058], [47.116399, 25.088175]]}}
]
}
