{
"type": "FeatureCollection",
"features": [
{"type": "Feature", "properties": {"ProjectID": "P1902"}, "geometry": {"type": "LineString", "coordinates": [[48.759912, 27.998068], [48.757698, 27.990213], [48.750155, 27.983894], [48.739607, 27.974672], [48.740293, 27.935362], [48.737734, 27.925545], [48.777257, 27.700584], [48.779858, 27.681361], [48.863546, 27.576576], [48.938083, 27.483359], [48.981509, 27.428581], [49.021631, 27.37794], [49.104793, 27.273217], [49.115128, 27.26068], [49.216505, 27.199071], [49.251926, 27.176182], [49.322405, 27.147549], [49.487242, 27.023428], [49.498683, 27.016293], [49.649698, 26.945136], [49.744852, 26.9008], [49.787903, 26.875514], [49.895285, 26.807968], [49.959083, 26.77042], [49.987386, 26.810362]]}}
]
}
