{
"type": "FeatureCollection",
"features": [
{"type": "Feature", "properties": {"ProjectID": "P1911"}, "geometry": {"type": "LineString", "coordinates": [[49.317265, 25.190621], [49.317574, 25.192577], [49.321433, 25.208219], [49.324353, 25.221576], [49.325552, 25.229727], [49.326833, 25.234874], [49.329414, 25.252562], [49.331927, 25.259971], [49.335107, 25.266501], [49.352211, 25.293866], [49.353514, 25.298755], [49.358857, 25.305178], [49.370835, 25.316271], [49.387864, 25.33025], [49.393288, 25.335238], [49.399011, 25.341724], [49.408512, 25.355503], [49.41814, 25.370201], [49.427779, 25.383428], [49.434113, 25.39058], [49.435894, 25.395885], [49.436169, 25.40748], [49.433708, 25.428709], [49.434056, 25.434796], [49.435876, 25.441371], [49.437697, 25.443797], [49.440904, 25.456086], [49.441977, 25.48226], [49.443409, 25.510944], [49.4452, 25.519112], [49.441995, 25.526428], [49.440217, 25.534258], [49.434303, 25.545877], [49.425645, 25.580114], [49.419828, 25.609449], [49.413814, 25.628536], [49.410089, 25.638389], [49.408291, 25.64483], [49.407438, 25.648426], [49.404998, 25.655083], [49.397264, 25.653665]]}}
]
}
