{"type":"Feature","properties":{},"geometry":{"type":"LineString","coordinates":[[49.684824,25.9225003],[49.6721826,25.8986688],[49.6646884,25.8850106],[49.6602708,25.8766241],[49.6516468,25.8614991],[49.6409638,25.8425468],[49.6022017,25.7729435],[49.592293,25.763801],[49.5838999,25.7596712],[49.5805873,25.7565501],[49.5753382,25.7563207],[49.5606101,25.750629],[49.5568899,25.7527864],[49.542729,25.7488032],[49.5359837,25.7490347],[49.5176776,25.7459685],[49.4996395,25.7393736],[49.4973346,25.7361944],[49.4962542,25.7326908],[49.4815255,25.7281823],[49.4729034,25.7193404],[49.4424502,25.6902113],[49.4158326,25.666551],[49.4081581,25.6591576],[49.4034041,25.6552789],[49.3954576,25.6531519]]}}