{"type":"Feature","properties":{},"geometry":{"type":"LineString","coordinates":[[49.3850792,25.6417697],[49.3815847,25.6409407],[49.3797226,25.6408992],[49.3750097,25.6433656],[49.37209,25.6452516],[49.3658571,25.6558411],[49.3616395,25.6630083],[49.3591701,25.6665037],[49.3514969,25.6729479],[49.3429478,25.6802998],[49.3315305,25.6902924],[49.325767,25.6950231],[49.3201084,25.6993737],[49.3143808,25.7039142],[49.311991,25.7058095],[49.3075914,25.7091241],[49.3036915,25.712283],[49.3007141,25.7145664],[49.2976716,25.7177995],[49.2906983,25.7253132],[49.2840394,25.7323441],[49.2779673,25.7389348],[49.2711373,25.744826],[49.2626039,25.7523529],[49.255091,25.759131],[49.2539551,25.7602176],[49.2527715,25.7602744],[49.2483133,25.7652725],[49.2497958,25.7826308],[49.2495058,25.7863419],[49.2478683,25.7995095],[49.2469003,25.8090935],[49.2456285,25.8208474],[49.2447471,25.8294046],[49.2443451,25.835934],[49.2445149,25.8566695],[49.2440037,25.8636141],[49.2452212,25.8733515],[49.2456647,25.8775447]]}}