{
"type": "FeatureCollection",
"features": [
{"type": "Feature", "properties": {"ProjectID": "P2040"}, "geometry": {"type": "LineString", "coordinates": [[-81.640113, 38.38004], [-81.622947, 38.382193], [-81.605781, 38.377887], [-81.587242, 38.36389], [-81.575569, 38.347737], [-81.571449, 38.333734], [-81.575569, 38.321884], [-81.582092, 38.317574], [-81.600288, 38.309493], [-81.647323, 38.311109], [-81.684402, 38.329964], [-81.694702, 38.358506], [-81.680282, 38.392419], [-81.640113, 38.38004]]}}
]
}
