{
"type": "FeatureCollection",
"features": [
{"type": "Feature", "properties": {"ProjectID": "P2054", "Fuel": "Gas", "StartCount": "Algeria", "EndCountry": "Algeria", "Countries": "Algeria", "Wiki": "https://www.gem.wiki/GR-7_Gas_Pipeline", "PipelineNa": "GR-7 Gas Pipeline", "SegmentNam": null, "OtherEngli": "PC04-GR5-Hassi R'Mel gas pipeline", "Status": "operating", "Owner": "Sonatrach (100%)", "Parent": "Sonatrach [100.00%]", "ParentHQCo": "Algeria", "StartYear1": "2020", "StartYear2": null, "StartYear3": null, "StopYear": null, "ShelvedYea": null, "Capacity": "4", "CancelledY": null, "CapacityUn": "bcm/y", "CapacityBc": "4", "CapacityBO": "1862.81", "LengthKnow": "345", "LengthEsti": "527.54", "LengthMerg": "345", "Diameter": "48", "DiameterUn": "in", "FuelSource": null, "StartLocat": "Hassi Tidjerane gas fields", "StartPrefe": null, "StartState": "El Bayadh", "StartRegio": "Africa", "EndLocatio": "Hassi R'Mel", "StartSubRe": "Northern Africa", "EndPrefect": null, "EndState/P": "Laghouat", "EndRegion": "Africa", "FIDStatus": null, "EndSubRegi": "Northern Africa", "FIDYear": null, "OtherLangu": "انبوب الغاز (جي أر7)", "OtherLan_1": null, "Cost": null, "CostUnits": null, "CostUSD": "--", "WKTFormat": "LINESTRING (0.4929102 30.8570627, 1.8558497 30.7727772, 2.9551 30.4219, 3.0778 31.0414, 3.0446 31.4653, 2.9625 31.8042, 3.1114 32.6619, 3.2516 32.9361)", "LastUpdate": "2022-07-06"}, "geometry": {"type": "MultiLineString", "coordinates": [[[0.49291, 30.857063], [0.514098, 30.882386], [0.537058, 30.879843], [0.635566, 30.83311], [0.707039, 30.797489], [0.846654, 30.816573], [1.053298, 30.862679], [1.106995, 30.862997], [1.119216, 30.864586], [1.446588, 30.89764], [1.519913, 30.904313], [1.578055, 30.904631], [1.616199, 30.902089], [1.674341, 30.904949], [1.732112, 30.909079], [1.785439, 30.906538], [1.908389, 30.912257], [2.032079, 30.922106], [2.758666, 30.959745], [2.797921, 30.964826], [2.845323, 30.96038], [3.032316, 30.955696], [3.053055, 31.039501], [3.048241, 31.082168], [3.017133, 31.130682], [3.03602, 31.202296], [3.012689, 31.265073], [3.003431, 31.363943], [3.017873, 31.460971], [3.071201, 31.566892], [3.060091, 31.591342], [3.015281, 31.644007], [3.008986, 31.694122], [2.928994, 31.809534], [3.0138, 32.073824], [3.041945, 32.111473], [3.068609, 32.253927], [3.1114, 32.6619], [3.2516, 32.9361]]]}}
]
}
