{
"type": "FeatureCollection",
"features": [
{"type": "Feature", "properties": {"ProjectID": "P2058", "Fuel": "Gas", "StartCount": "Algeria", "EndCountry": "Algeria", "Countries": "Algeria", "Wiki": "https://www.gem.wiki/Southern_Algeria_Gas_Transmission_Network", "PipelineNa": "Southern Algeria Gas Transmission Network", "SegmentNam": "In Salah-Tamenrasset Gas Pipeline", "OtherEngli": "Gazoduc Tidikelt - Tamenrasset", "Status": "operating", "Owner": "Société Algérienne de Gestion du Réseau de Transport du Gaz (GRTG) (100%)", "Parent": "Government of Togo [100.00%]", "ParentHQCo": "Togo", "StartYear1": "2018", "StartYear2": null, "StartYear3": null, "StopYear": null, "ShelvedYea": null, "Capacity": "700", "CancelledY": null, "CapacityUn": "MMcf/d", "CapacityBc": "7.24", "CapacityBO": "3371.64", "LengthKnow": "530", "LengthEsti": "491.25", "LengthMerg": "530", "Diameter": "16", "DiameterUn": "in", "FuelSource": null, "StartLocat": "Tidikelt", "StartPrefe": null, "StartState": "Salah", "StartRegio": "Africa", "EndLocatio": "Tamenrasset", "StartSubRe": "Northern Africa", "EndPrefect": null, "EndState/P": "Tamanrasset", "EndRegion": "Africa", "FIDStatus": null, "EndSubRegi": "Northern Africa", "FIDYear": null, "OtherLangu": "انبوب غاز عين صالح – تمنراست", "OtherLan_1": null, "Cost": "192000000", "CostUnits": "USD", "CostUSD": "192000000", "WKTFormat": "LINESTRING (2.01098 25.456563, 2.065706 25.410943, 2.133061 25.393197, 2.423529 25.309503, 2.492287 25.296817, 2.663481 25.251136, 2.809417 25.207978, 2.865546 25.194011, 3.006571 25.122885, 3.083748 25.03519, 3.130055 24.977964, 3.152506 24.941071, 3.18", "LastUpdate": "2022-07-08"}, "geometry": {"type": "MultiLineString", "coordinates": [[[2.497159, 27.19353], [2.506024, 27.166325], [2.5239, 27.157255], [2.533651, 27.145686], [2.53849, 27.137272], [2.542331, 27.129646], [2.545434, 27.123992], [2.554557, 27.110974], [2.559321, 27.104529], [2.562867, 27.096901], [2.574058, 27.072567], [2.584696, 27.053621], [2.59947, 27.040463], [2.619563, 27.012036], [2.634337, 26.99466], [2.651475, 26.967801], [2.662703, 26.945151], [2.674522, 26.923549], [2.685751, 26.904579], [2.699786, 26.877962], [2.708651, 26.863202], [2.717515, 26.860039], [2.727562, 26.847385], [2.750609, 26.838421], [2.756519, 26.829984], [2.76361, 26.816799], [2.767747, 26.809415], [2.768338, 26.794646], [2.771293, 26.781457], [2.773066, 26.775126], [2.78193, 26.76985], [2.78784, 26.765101], [2.797886, 26.755076], [2.806751, 26.745049], [2.814433, 26.739772], [2.82448, 26.724465], [2.835117, 26.709685], [2.843982, 26.697542], [2.899976, 26.652657], [2.904112, 26.647375], [2.908249, 26.635754], [2.913568, 26.619905], [2.918887, 26.603526], [2.925978, 26.586616], [2.934843, 26.569175], [2.944298, 26.560718], [2.95789, 26.548031], [2.970891, 26.5364], [2.980347, 26.524239], [2.990393, 26.511548], [2.995712, 26.497798], [2.999258, 26.486162], [3.00694, 26.47717], [3.01285, 26.47188], [3.026442, 26.462886], [3.037671, 26.453363], [3.051263, 26.432727], [3.060718, 26.422672], [3.071947, 26.415262], [3.085539, 26.401501], [3.088789, 26.397795], [3.094699, 26.396207], [3.102381, 26.391443], [3.107109, 26.378737], [3.111837, 26.368678], [3.123656, 26.353322], [3.127202, 26.344319], [3.128975, 26.325252], [3.141385, 26.28287], [3.141385, 26.256374], [3.143749, 26.239413], [3.134884, 26.216618], [3.135475, 26.209195], [3.13843, 26.186924], [3.14434, 26.155632], [3.152022, 26.1429], [3.155568, 26.133881], [3.156159, 26.105228], [3.165614, 26.075506], [3.167387, 26.054803], [3.173888, 26.029847], [3.166796, 26.000106], [3.16916, 25.978327], [3.166205, 25.955481], [3.16916, 25.930505], [3.172706, 25.901802], [3.183934, 25.877877], [3.19339, 25.842248], [3.19989, 25.796498], [3.19339, 25.761908], [3.201072, 25.734762], [3.201072, 25.713466], [3.214665, 25.688971], [3.219983, 25.659144], [3.234166, 25.64263], [3.24244, 25.624514], [3.254259, 25.61812], [3.257214, 25.606929], [3.247168, 25.588808], [3.256032, 25.57335], [3.266079, 25.567487], [3.271397, 25.555225], [3.280853, 25.54776], [3.293263, 25.537096], [3.308628, 25.533897], [3.321629, 25.520032], [3.328721, 25.499231], [3.351178, 25.475225], [3.367725, 25.467223], [3.381169, 25.453883], [3.424309, 25.436807], [3.439084, 25.417059], [3.442629, 25.404782], [3.476905, 25.359933], [3.489316, 25.348184], [3.493452, 25.339639], [3.502908, 25.333763], [3.5165, 25.325217], [3.524183, 25.313999], [3.533047, 25.301177], [3.541321, 25.286216], [3.554913, 25.280338], [3.563186, 25.274994], [3.570869, 25.264841], [3.582688, 25.259496], [3.595098, 25.249875], [3.609282, 25.234908], [3.612827, 25.22582], [3.633807, 25.21085], [3.680197, 25.179568], [3.69113, 25.154697], [3.700216, 25.144934], [3.759017, 25.10427], [3.76995, 25.101594], [3.792702, 25.098383], [3.820625, 25.080989], [3.822989, 25.074566], [3.82358, 25.06734], [3.825944, 25.058775], [3.833627, 25.037627], [3.83865, 25.031737], [3.843451, 25.029194], [3.849287, 25.019956], [3.856453, 25.010986], [3.853719, 24.99907], [3.856453, 24.988491], [3.888365, 24.953134], [3.896638, 24.939202], [3.90964, 24.927412], [3.925005, 24.918838], [3.927295, 24.91053], [3.96748, 24.918034], [3.973242, 24.918302], [3.97797, 24.925001], [3.979743, 24.930092], [3.982845, 24.934111], [3.990971, 24.935183], [4.000722, 24.934647], [4.006927, 24.941613], [4.01195, 24.943489], [4.013428, 24.953669], [4.022883, 24.97001], [4.034112, 24.989027], [4.094833, 25.059444], [4.099709, 25.061318], [4.107391, 25.06105], [4.118324, 25.063191], [4.136053, 25.06105], [4.162647, 25.059712], [4.198104, 25.049004], [4.219231, 25.039099], [4.238438, 25.035619], [4.247598, 25.029997], [4.258531, 25.026784], [4.27035, 25.022768], [4.284829, 25.021429], [4.295761, 25.016609], [4.305512, 25.00938], [4.316741, 25.008309], [4.322059, 25.006166], [4.327674, 24.996526], [4.327969, 24.992241], [4.332106, 24.987688], [4.335061, 24.976974], [4.343334, 24.972421], [4.352642, 24.97068], [4.362984, 24.965322], [4.368007, 24.961036], [4.376576, 24.958357], [4.37894, 24.956482], [4.385145, 24.956214], [4.391055, 24.954875], [4.397851, 24.955679], [4.40642, 24.954339], [4.411738, 24.951928], [4.416171, 24.947106], [4.429467, 24.942283], [4.44365, 24.928082], [4.451628, 24.914148], [4.459311, 24.904232], [4.474085, 24.890027], [4.489746, 24.876356], [4.504741, 24.864159], [4.528971, 24.838151], [4.543745, 24.822597], [4.550541, 24.816697], [4.563247, 24.811333], [4.568566, 24.80731], [4.575953, 24.798726], [4.587181, 24.789338], [4.61961, 24.757143], [4.646425, 24.742384], [4.66179, 24.730844], [4.675678, 24.712593], [4.685429, 24.701856], [4.690157, 24.68548], [4.693481, 24.680915], [4.708477, 24.679304], [4.714756, 24.676619], [4.729456, 24.659166], [4.735957, 24.643321], [4.745486, 24.62828], [4.758856, 24.613103], [4.763584, 24.601283], [4.77038, 24.595104], [4.772449, 24.585968], [4.771562, 24.579519], [4.77267, 24.572399], [4.799633, 24.555333], [4.835313, 24.541223], [4.860429, 24.52375], [4.87668, 24.511652], [4.881408, 24.504662], [4.893227, 24.467015], [4.902683, 24.454105], [4.907706, 24.445766], [4.911252, 24.437427], [4.915093, 24.417519], [4.915684, 24.402451], [4.918934, 24.389534], [4.923957, 24.372579], [4.93164, 24.356967], [4.941982, 24.341084], [4.951142, 24.313083], [4.966507, 24.307428], [4.973598, 24.302311], [4.986009, 24.303658], [4.990441, 24.298002], [4.998345, 24.27888], [5.00721, 24.243321], [5.03299, 24.149257], [5.051606, 24.103953], [5.070812, 24.071583], [5.099179, 23.939859], [5.118089, 23.933378], [5.118385, 23.905287], [5.11676, 23.886106], [5.120896, 23.879351], [5.121192, 23.867462], [5.122965, 23.862598], [5.125661, 23.855572], [5.131275, 23.846384], [5.141913, 23.831519], [5.143095, 23.822869], [5.146936, 23.810975], [5.145163, 23.805839], [5.139253, 23.800432], [5.13423, 23.794484], [5.118865, 23.788806], [5.116797, 23.785291], [5.123519, 23.749866], [5.13002, 23.727686], [5.138884, 23.688998], [5.143021, 23.68521], [5.143316, 23.678175], [5.146567, 23.671139], [5.148339, 23.661396], [5.153954, 23.648946], [5.159568, 23.632975], [5.153658, 23.625395], [5.141248, 23.617544], [5.122337, 23.608068], [5.102835, 23.593176], [5.083629, 23.582344], [5.082262, 23.577673], [5.082784, 23.568136], [5.084389, 23.564753], [5.085432, 23.561296], [5.089283, 23.551073], [5.090968, 23.541731], [5.093355, 23.532757], [5.09512, 23.528858], [5.095281, 23.519589], [5.094639, 23.514659], [5.094639, 23.509362], [5.097447, 23.487582], [5.097286, 23.484197], [5.096645, 23.471613], [5.096003, 23.459984], [5.092151, 23.446146], [5.092312, 23.444232], [5.0952, 23.43584], [5.095682, 23.423546], [5.100496, 23.413827], [5.102903, 23.410293], [5.107557, 23.402046], [5.108359, 23.398953], [5.11205, 23.393651], [5.116061, 23.386729], [5.11895, 23.380395], [5.120555, 23.371705], [5.123925, 23.362866], [5.126973, 23.348871], [5.128418, 23.337084], [5.130022, 23.321759], [5.130825, 23.306875], [5.136622, 23.275702], [5.135418, 23.271279], [5.135137, 23.269289], [5.138507, 23.264756], [5.140844, 23.256389], [5.141486, 23.233978], [5.147584, 23.199174], [5.148547, 23.188259], [5.151435, 23.176458], [5.166198, 23.149016], [5.165236, 23.138392], [5.172296, 23.122454], [5.179999, 23.110647], [5.189627, 23.09264], [5.202224, 23.075959], [5.204631, 23.070792], [5.203668, 23.062819], [5.205915, 23.055141], [5.213296, 23.03181], [5.226295, 23.009213], [5.220999, 22.976419], [5.226295, 22.963122], [5.233837, 22.957507], [5.241218, 22.945981], [5.256784, 22.923518], [5.263524, 22.894547], [5.275078, 22.880354], [5.277164, 22.87237], [5.284064, 22.868526], [5.295778, 22.867639], [5.30332, 22.864978], [5.3099, 22.863499], [5.315997, 22.857584], [5.323861, 22.856697], [5.334291, 22.854627], [5.34424, 22.849008], [5.35451, 22.843092], [5.363818, 22.834219], [5.373125, 22.833332], [5.384197, 22.836585], [5.389172, 22.835402], [5.39527, 22.838952], [5.410194, 22.83555], [5.425599, 22.830226], [5.440362, 22.833184], [5.449669, 22.831705], [5.461223, 22.833036], [5.469247, 22.830522], [5.48048, 22.823718], [5.489466, 22.82002]]]}}
]
}
