{
"type": "FeatureCollection",
"features": [
{"type": "Feature", "properties": {"ProjectID": "P2071"}, "geometry": {"type": "LineString", "coordinates": [[148.00308, -21.978847], [148.013553, -22.001925], [148.012753, -22.019728], [147.917093, -22.044669], [147.859041, -22.052355], [147.850748, -22.129198], [147.879774, -22.194482], [147.937826, -22.25206], [147.975145, -22.336465], [148.012464, -22.416986], [148.070515, -22.551083], [148.062222, -22.646787], [148.091248, -22.708003], [148.132714, -22.761544], [148.219791, -22.860923], [148.261257, -22.9755], [148.323455, -23.150996], [148.360774, -23.272944], [148.3898, -23.394782], [148.473599, -23.513062], [148.588661, -23.850252], [148.611673, -24.107823], [148.617426, -24.333428], [148.640438, -24.443462], [148.640438, -24.443462]]}}
]
}
