{
"type": "FeatureCollection",
"features": [
{"type": "Feature", "properties": {"ProjectID": "P2070", "id": 1, "Name": "Barossa GEP"}, "geometry": {"type": "LineString", "coordinates": [[130.217366, -9.81903], [130.161031, -9.837532], [130.125561, -9.872479], [130.142253, -9.936195], [130.161031, -10.020446], [130.17981, -10.053319], [130.211107, -10.133431], [130.250749, -10.312072], [130.261182, -10.375701], [130.259095, -10.513178], [130.250749, -10.580868], [130.250749, -10.621885], [130.252836, -10.738754], [130.238231, -10.794097], [130.202761, -10.849429], [130.158945, -10.919093], [130.090092, -10.990788], [130.046276, -11.0768], [129.987855, -11.191443], [129.974293, -11.27228], [129.964904, -11.382754], [129.960731, -11.47785], [129.962817, -11.621968], [129.964382, -11.726176], [129.943517, -11.747626], [129.949777, -11.777245], [129.937258, -11.826261], [129.920566, -11.878332], [129.91222, -11.907936], [129.905899, -12.022788]]}}
]
}
