{
"type": "FeatureCollection",
"features": [
{"type": "Feature", "properties": {"ProjectID": "P2085"}, "geometry": {"type": "LineString", "coordinates": [[27.4249, 43.320099], [27.396, 43.350601], [27.327999, 43.356602], [27.305599, 43.372898], [27.287001, 43.405399], [27.2143, 43.448002], [27.164, 43.431099], [27.124901, 43.4379], [27.0597, 43.441299], [26.965599, 43.446701], [26.925501, 43.4697], [26.9125, 43.460899], [26.8734, 43.4487], [26.8519, 43.4548], [26.804399, 43.435799], [26.762501, 43.443298], [26.716801, 43.418301], [26.583599, 43.423698], [26.460699, 43.403999], [26.392599, 43.405399], [26.3554, 43.4007], [26.2054, 43.376999], [26.1542, 43.375599], [26.1122, 43.386398], [25.9946, 43.361801], [25.9356, 43.350498], [25.8491, 43.345299], [25.700001, 43.3284], [25.674999, 43.3228], [25.5182, 43.318401], [25.4258, 43.324101], [25.401899, 43.320202], [25.360201, 43.308899], [25.316099, 43.308899], [25.2421, 43.313202], [25.189699, 43.305901], [25.0931, 43.307598], [25.0364, 43.321499], [25.004801, 43.320599], [24.938101, 43.308498], [24.8755, 43.294998], [24.834999, 43.2967], [24.8109, 43.3064], [24.767799, 43.300301], [24.6499, 43.280899], [24.6297, 43.280602], [24.6007, 43.296101], [24.577801, 43.2906], [24.5362, 43.287201], [24.5217, 43.272499], [24.501499, 43.267201], [24.4816, 43.267502], [24.3778, 43.310799], [24.374599, 43.3619], [24.366501, 43.373501], [24.3323, 43.404999], [24.339399, 43.435902], [24.331699, 43.4701], [24.3186, 43.482201], [24.2864, 43.484798], [24.248199, 43.513802], [24.240499, 43.530602], [24.0501, 43.604698], [24.002399, 43.609402], [23.8806, 43.6362], [23.802601, 43.643902], [23.6574, 43.681599], [23.5233, 43.693699], [23.449699, 43.715302], [23.4282, 43.711899], [23.2484, 43.66], [23.1273, 43.662701], [23.080799, 43.6978], [23.037901, 43.701801], [23.000601, 43.689701], [22.9643, 43.701099], [22.914, 43.699799], [22.851601, 43.727402], [22.851601, 43.745602], [22.803499, 43.779499], [22.788, 43.782101], [22.751699, 43.783401], [22.701599, 43.7985], [22.634199, 43.817001], [22.5996, 43.818298], [22.5704, 43.8363], [22.545401, 43.866798], [22.5156, 43.865601], [22.4321, 43.840198], [22.41, 43.828602], [22.374001, 43.838501]]}}
]
}
