{
"type": "FeatureCollection",
"features": [
{"type": "Feature", "properties": {"ProjectID": "P2091"}, "geometry": {"type": "LineString", "coordinates": [[23.958001, 43.745061], [23.956037, 43.721184], [24.145662, 43.623662], [24.291945, 43.55323], [24.386757, 43.369023], [24.576382, 43.336516], [24.798515, 43.314844], [25.134423, 43.355478], [25.359264, 43.369023], [25.467621, 43.409657], [25.586814, 43.390694], [25.668082, 43.393403], [25.817074, 43.412366], [26.100503, 43.457997], [26.42391, 43.486184], [26.550009, 43.492118], [26.65979, 43.495085], [26.760669, 43.486184], [26.863032, 43.526239], [26.971329, 43.53069], [27.27545, 43.524756], [27.362978, 43.463931], [27.441604, 43.37492], [27.419351, 43.322997], [27.437154, 43.284426], [27.483143, 43.245854], [27.592923, 43.202832], [27.707154, 43.187997], [27.797649, 43.187997], [27.937099, 43.170195]]}}
]
}
