{
"type": "FeatureCollection",
"features": [
{"type": "Feature", "properties": {"ProjectID": "P2190", "id": null, "Name": null}, "geometry": {"type": "MultiLineString", "coordinates": [[[14.552457, 45.215854], [14.557821, 45.225033], [14.560193, 45.233051], [14.558819, 45.241304], [14.574452, 45.250383], [14.591906, 45.260864], [14.607359, 45.272462], [14.635778, 45.285881], [14.662529, 45.288823], [14.683095, 45.286812], [14.740178, 45.287571], [14.774907, 45.313308], [14.810554, 45.351877], [14.838267, 45.356767], [14.902098, 45.356551], [14.979969, 45.349097], [15.02144, 45.351988], [15.030097, 45.339991], [15.07117, 45.333289], [15.113661, 45.347825], [15.189769, 45.36548], [15.327208, 45.402189], [15.419428, 45.441349], [15.489052, 45.481782], [15.544071, 45.480295], [15.578062, 45.448233], [15.598444, 45.414707], [15.603751, 45.372352], [15.634171, 45.367075], [15.660376, 45.351761], [15.678557, 45.321281], [15.702958, 45.315972], [15.727003, 45.327392], [15.795633, 45.341428], [15.852311, 45.336869], [15.95258, 45.30973], [15.990008, 45.319592], [16.08927, 45.32821], [16.15692, 45.372621], [16.207971, 45.407468], [16.286633, 45.428947], [16.374016, 45.437152], [16.395283, 45.46426], [16.5166, 45.488066], [16.548191, 45.518359], [16.609048, 45.557804], [16.774178, 45.461339], [16.812971, 45.446098], [16.859707, 45.432438], [16.869239, 45.389872], [16.938932, 45.335228], [16.971623, 45.320341], [17.102242, 45.287643], [17.224867, 45.234839], [17.281065, 45.248504], [17.370022, 45.253383], [17.602351, 45.205715], [17.663318, 45.178111], [17.787502, 45.152928], [17.899495, 45.175772], [17.975672, 45.162439]]]}}
]
}
