{
"type": "FeatureCollection",
"features": [
{"type": "Feature", "properties": {"ProjectID": "P2203"}, "geometry": {"type": "LineString", "coordinates": [[8.240445, 53.153377], [8.190078, 53.007697], [8.151699, 52.941006], [8.11003, 52.865608], [8.109086, 52.814926], [8.166755, 52.727849], [8.211968, 52.652954], [8.208719, 52.518684], [8.094679, 52.368966], [8.002569, 52.323415], [7.976252, 52.240231], [7.941163, 52.202613], [7.879757, 52.170343], [7.813964, 52.105734], [7.783261, 52.057215], [7.642904, 51.981637], [7.493774, 51.91946], [7.485002, 51.805696]]}}
]
}
