{
"type": "FeatureCollection",
"features": [
{"type": "Feature", "properties": {"ProjectID": "P2205"}, "geometry": {"type": "MultiLineString", "coordinates": [[[9.5483, 50.3528], [9.4967, 50.4001], [9.4329, 50.4767], [9.3785, 50.5552], [9.3678, 50.5838]], [[9.3678, 50.5838], [9.2094, 50.6499], [9.0518, 50.7423], [9.049, 50.7776], [9.0355, 50.8075], [9.0137, 50.8211], [8.9838, 50.832], [8.9621, 50.8401], [8.9512, 50.8429], [8.9376, 50.8456], [8.9158, 50.8429], [8.8941, 50.8456], [8.8805, 50.8456], [8.8588, 50.8592], [8.8479, 50.8728], [8.8452, 50.8782], [8.8397, 50.8972], [8.8424, 50.9271], [8.8343, 50.9462], [8.8153, 50.9625], [8.7935, 50.9679], [8.7582, 50.9733], [8.731, 50.9788], [8.712, 50.9978], [8.7038, 51.0033], [8.6793, 51.0196], [8.6658, 51.0603], [8.6494, 51.0902], [8.6087, 51.1283], [8.5597, 51.1419], [8.5244, 51.1473], [8.5054, 51.1473], [8.4863, 51.1528], [8.4619, 51.1718], [8.4564, 51.1935], [8.4374, 51.2343], [8.383, 51.2724], [7.8366, 51.5442], [7.5784, 51.6832]], [[9.548, 50.3525], [9.948338, 49.841916]]]}}
]
}
