{
"type": "FeatureCollection",
"features": [
{"type": "Feature", "properties": {"ProjectID": "P2206"}, "geometry": {"type": "MultiLineString", "coordinates": [[[-2.530492, 4.979945], [-2.490306, 4.972795], [-2.454483, 4.971031], [-2.430209, 4.974582], [-2.420609, 4.974294], [-2.414132, 4.970465], [-2.405046, 4.971048], [-2.373182, 4.962066], [-2.350396, 4.947283], [-2.340598, 4.945861], [-2.327866, 4.939661], [-2.295584, 4.918617], [-2.266073, 4.908574], [-2.246854, 4.896094], [-2.202608, 4.899215], [-2.117174, 4.917112], [-2.098347, 4.92337], [-1.982603, 4.96497], [-1.910334, 4.964846], [-1.876862, 4.954608], [-1.861459, 4.965472], [-1.803003, 4.965456], [-1.777666, 4.976064], [-1.759192, 4.981166], [-1.731285, 5.001802], [-1.696491, 5.012353], [-1.675136, 5.0023], [-1.665249, 4.987186]], [[-2.340598, 4.945861], [-2.311847, 4.959594], [-2.271279, 4.987009], [-2.262524, 5.026191], [-2.205935, 5.042358], [-2.198678, 5.135261], [-2.177101, 5.236397], [-2.198817, 5.275675], [-2.205021, 5.38202], [-2.173462, 5.431537], [-2.153619, 5.444461]]]}}
]
}
