{
"type": "FeatureCollection",
"features": [
{"type": "Feature", "properties": {"ProjectID": "P2214", "PipelineName": "Kanai Chhata-Shrirampur Gas Pipeline", "SegmentName": "", "Wiki": "https://www.gem.wiki/Kanai_Chhata-Shrirampur_Gas_Pipeline", "Status": "cancelled", "LastUpdated": "2023-07-08", "Fuel": "Gas", "OtherEnglishNames": "", "OtherLanguagePrimaryPipelineName": "", "OtherLanguageSegmentName": "", "CountriesOrAreas": "India", "Owner": "H-Energy [100.%]", "Parent": "unknown [unknown %]", "ParentEntityIDs": "E100001014939", "StartYear1": "2023", "StartYear2": "", "StartYear3": "", "ShelvedYear": "", "CancelledYear": "", "StopYear": "", "Capacity": "19.2", "CapacityUnits": "MMSCMD", "CapacityBcm/y": "7.01", "CapacityBOEd": "112953.6", "LengthKnownKm": "250.0", "LengthEstimateKm": "303.28", "LengthMergedKm": "250.0", "Diameter": "", "DiameterUnits": "", "FuelSource": "", "StartLocation": "Kanai Chhata", "StartPrefecture/District": "", "StartState/Province": "West Bengal", "StartCountryOrArea": "India", "StartRegion": "Asia", "StartSubRegion": "Southern Asia", "EndLocation": "Shrirampur", "EndPrefecture/District": "", "EndState/Province": "Maharashtra", "EndCountryOrArea": "India", "EndRegion": "Asia", "EndSubRegion": "Southern Asia", "ProjectLevelCost": "", "ProjectLevelCostUnits": "", "CostUSD": "--", "FIDStatus": "", "FIDYear": "", "PCI3": "", "PCI4": "", "PCI5": "", "PCI6": "", "RouteAccuracy": "medium", "RouteType": "Mapped route (at any accuracy)", "RouteCreator": "WA", "PipelineStatus": "cancelled", "CapacityMapScale": "112953.6"}, "geometry": {"type": "LineString", "coordinates": [[87.650758, 21.772056], [87.608, 21.925], [87.635175, 22.142995], [87.588428, 22.316087], [87.681923, 22.402552], [87.945053, 22.402786], [88.042304, 22.513872], [88.055903, 22.671212], [88.185623, 22.762014], [88.20134, 22.891505], [88.333563, 22.964174], [88.324606, 22.911179], [88.442971, 22.915302], [88.440412, 22.876427], [88.611679, 22.814922], [88.747106, 22.644625]]}}
]
}
