{
"type": "FeatureCollection",
"features": [
{"type": "Feature", "properties": {"ProjectID": "P2234"}, "geometry": {"type": "MultiLineString", "coordinates": [[[47.367688, 30.5462], [47.402204, 30.523516], [47.44061, 30.497819], [47.483206, 30.469966], [47.500184, 30.45851], [47.524505, 30.433848], [47.545753, 30.412257], [47.550616, 30.407826], [47.555953, 30.401998], [47.563534, 30.400234], [47.567724, 30.389865], [47.579395, 30.377301], [47.588024, 30.368135], [47.592613, 30.360948], [47.600992, 30.349198], [47.616205, 30.331291], [47.657105, 30.316825], [47.695112, 30.305371], [47.698404, 30.305285], [47.71207, 30.295208], [47.712706, 30.294799], [47.717844, 30.295445], [47.731635, 30.298675]]]}}
]
}
