{
"type": "FeatureCollection",
"features": [
{"type": "Feature", "properties": {"ProjectID": "P2231"}, "geometry": {"type": "MultiLineString", "coordinates": [[[44.088917, 35.693389], [44.091639, 35.688599], [44.091773, 35.685673], [44.091504, 35.684309], [44.090599, 35.679713], [44.095242, 35.67451], [44.099058, 35.666511], [44.105569, 35.651594], [44.110586, 35.638756], [44.116777, 35.633898], [44.130226, 35.627565], [44.134922, 35.620624], [44.145383, 35.615504], [44.187866, 35.594068], [44.21064, 35.581577], [44.235739, 35.567808], [44.256179, 35.55678], [44.267334, 35.559038], [44.287428, 35.550832], [44.302451, 35.536273], [44.311951, 35.528065], [44.303732, 35.52194], [44.300974, 35.510936], [44.298487, 35.508855], [44.294608, 35.505609], [44.275985, 35.490784], [44.251907, 35.470993], [44.242012, 35.462842], [44.224254, 35.448194], [44.217971, 35.44283], [44.197279, 35.425694], [44.179671, 35.410977], [44.165017, 35.398558], [44.151022, 35.394878], [44.138493, 35.38448], [44.126115, 35.37721], [44.118666, 35.373314], [44.099892, 35.363497], [44.089885, 35.358312], [44.071939, 35.348953], [44.056278, 35.340866], [44.048566, 35.337122], [44.024017, 35.325505], [44.005431, 35.315743], [43.991887, 35.308805], [43.966981, 35.29597], [43.959381, 35.292469], [43.947116, 35.286174], [43.927891, 35.276223], [43.918213, 35.270794], [43.906625, 35.264666], [43.890127, 35.255788], [43.878841, 35.249828], [43.867648, 35.244236], [43.856098, 35.237998], [43.851094, 35.235294], [43.842723, 35.230869], [43.840842, 35.229639], [43.83264, 35.225552], [43.828953, 35.223877], [43.817666, 35.218129], [43.810104, 35.214364], [43.800962, 35.209707], [43.789995, 35.203974], [43.780984, 35.199117], [43.772989, 35.195996], [43.768945, 35.194367], [43.759558, 35.189201], [43.748177, 35.183159], [43.743644, 35.180976], [43.73768, 35.177855], [43.729987, 35.175887], [43.725811, 35.175579], [43.721051, 35.176348], [43.717891, 35.176825], [43.71616, 35.17664], [43.711382, 35.175256], [43.708147, 35.174242], [43.698534, 35.171443], [43.698214, 35.171197], [43.696277, 35.166399], [43.693135, 35.159263], [43.691423, 35.15488], [43.690389, 35.152742], [43.688658, 35.150451], [43.682281, 35.147359], [43.673553, 35.142544], [43.66458, 35.138007], [43.659689, 35.135837], [43.651337, 35.13153], [43.643003, 35.126899], [43.633391, 35.122283], [43.62327, 35.11679], [43.614203, 35.112374], [43.609952, 35.109912], [43.602389, 35.105541], [43.600414, 35.104541], [43.593322, 35.102279], [43.585948, 35.098862], [43.581678, 35.096584], [43.57959, 35.095522], [43.572235, 35.090135], [43.566422, 35.085779], [43.561945, 35.082839], [43.560365, 35.082084], [43.559989, 35.079452], [43.55854, 35.074972], [43.557731, 35.07217], [43.556038, 35.069738], [43.554834, 35.067428], [43.555098, 35.066458], [43.556283, 35.063363], [43.556377, 35.05996], [43.556038, 35.056311], [43.55333, 35.045223], [43.54731, 35.034504], [43.523833, 35.010472], [43.517297, 35.01429]]]}}
]
}
