{
"type": "FeatureCollection",
"features": [
{"type": "Feature", "properties": {"ProjectID": "P2235"}, "geometry": {"type": "MultiLineString", "coordinates": [[[8.827, 39.446458], [8.835, 39.443805], [8.865, 39.442138], [8.875, 39.437198], [8.889, 39.437719], [8.903, 39.440322], [8.916, 39.439281]], [[8.953, 39.220796], [8.989, 39.228476], [8.999, 39.221566], [9.019, 39.229628], [9.058, 39.219551], [9.07, 39.225309], [9.076, 39.224733], [9.079, 39.22243], [9.085, 39.216384], [9.087, 39.214081]], [[8.703956, 39.869659], [8.670711, 39.786746], [8.676056, 39.776725], [8.678729, 39.768708], [8.681401, 39.752005], [8.687414, 39.735302], [8.700108, 39.724613], [8.717479, 39.707242], [8.726164, 39.695884], [8.728168, 39.681186], [8.734181, 39.675841], [8.736185, 39.671164], [8.733513, 39.65847], [8.744203, 39.639095], [8.748211, 39.621725], [8.747543, 39.613039], [8.752888, 39.562263], [8.754224, 39.547565], [8.760905, 39.539548], [8.783621, 39.530862], [8.786122, 39.50855], [8.797105, 39.496469], [8.815226, 39.473406], [8.826758, 39.446499], [8.832249, 39.436614], [8.832798, 39.424534], [8.830053, 39.417395], [8.839937, 39.394881], [8.841584, 39.383349], [8.841035, 39.372366], [8.845977, 39.35754], [8.852567, 39.3515], [8.858058, 39.346558], [8.861353, 39.335575], [8.873434, 39.330084], [8.896497, 39.305922], [8.90693, 39.298234], [8.918462, 39.274622], [8.929994, 39.263639], [8.934936, 39.261443], [8.952728, 39.220807], [8.967005, 39.204334], [8.973045, 39.186762], [8.999403, 39.168091], [8.990593, 39.138155], [8.997815, 39.129579], [8.996912, 39.121455], [9.004584, 39.116491]], [[8.703267, 39.867886], [8.662425, 39.868244], [8.646609, 39.86278], [8.633956, 39.848114], [8.629355, 39.843513], [8.62159, 39.840637], [8.615839, 39.840062], [8.59916, 39.847251], [8.577593, 39.846101], [8.570979, 39.854728]], [[8.63523, 39.896372], [8.64481, 39.883598], [8.661842, 39.881603], [8.662418, 39.868238]], [[8.660197, 39.721358], [8.686688, 39.705536], [8.702141, 39.687508], [8.71042, 39.687508], [8.718514, 39.681437], [8.728204, 39.681176]], [[8.647718, 39.556399], [8.667974, 39.5663], [8.704747, 39.601398], [8.713291, 39.605565], [8.730169, 39.610774], [8.747549, 39.613031]], [[8.752538, 39.472292], [8.774258, 39.476082], [8.786348, 39.482742], [8.795056, 39.494626], [8.796092, 39.497597]], [[8.785608, 39.513219], [8.805747, 39.514257], [8.817578, 39.521619], [8.855698, 39.546857], [8.87673, 39.551326], [8.886195, 39.554481], [8.895277, 39.553458]], [[8.454241, 39.171794], [8.465271, 39.17575], [8.465031, 39.196012], [8.469946, 39.203925], [8.507112, 39.220589], [8.522698, 39.237254], [8.556045, 39.243288], [8.586989, 39.272129], [8.600809, 39.277237], [8.607418, 39.288653], [8.661796, 39.311185], [8.69274, 39.310584], [8.705958, 39.319897], [8.726988, 39.321399], [8.749821, 39.330713], [8.778662, 39.337322], [8.786773, 39.341528], [8.796988, 39.351142], [8.811709, 39.355949], [8.833039, 39.355348], [8.849916, 39.353895]], [[8.906942, 39.298237], [8.916721, 39.301644], [8.946148, 39.303451], [8.954189, 39.303509], [8.97068, 39.294011], [9.00105, 39.314504], [9.01467, 39.311099], [9.029312, 39.31842], [9.043613, 39.310248], [9.062851, 39.294415]], [[8.315696, 40.830843], [8.31679, 40.812807], [8.373631, 40.767443], [8.441403, 40.70623], [8.445229, 40.68874], [8.463812, 40.679995], [8.473103, 40.665238], [8.504803, 40.646109], [8.527212, 40.637911], [8.553993, 40.601292], [8.562738, 40.588174], [8.570936, 40.582162], [8.575855, 40.572324], [8.599357, 40.548823], [8.610834, 40.543904], [8.609195, 40.526414], [8.601543, 40.515483], [8.619033, 40.480504], [8.615753, 40.469573], [8.631057, 40.4652], [8.644174, 40.444431], [8.668222, 40.425302], [8.675874, 40.422569], [8.680039, 40.399712], [8.69097, 40.394793], [8.685505, 40.366373], [8.688784, 40.357081], [8.698622, 40.344511], [8.716111, 40.318823], [8.724856, 40.301333], [8.731961, 40.289309], [8.732138, 40.259773], [8.733757, 40.249255], [8.748319, 40.239547], [8.748319, 40.212848], [8.753174, 40.196667], [8.770973, 40.161878], [8.779872, 40.155406], [8.784726, 40.114144], [8.789581, 40.104436], [8.787154, 40.073692], [8.783108, 40.052657], [8.767736, 40.034857], [8.736993, 39.985505], [8.725666, 39.963661], [8.724048, 39.924018], [8.723722, 39.911438], [8.703956, 39.86966]], [[8.355416, 40.572939], [8.360807, 40.59495], [8.369342, 40.656044], [8.378776, 40.668173], [8.399889, 40.671318], [8.442565, 40.691084], [8.448405, 40.696025], [8.455592, 40.709502], [8.461432, 40.710849], [8.476706, 40.713095], [8.4803, 40.718486], [8.492878, 40.717588], [8.500065, 40.713095]], [[8.564028, 40.273251], [8.584114, 40.283089], [8.598051, 40.285138], [8.60379, 40.289238], [8.6497, 40.284319], [8.669376, 40.287188], [8.680854, 40.293337], [8.714057, 40.290877], [8.732128, 40.287444]], [[8.723994, 39.922506], [8.734711, 39.921603], [8.74641, 39.912112], [8.780449, 39.89832]], [[8.752766, 40.198026], [8.771732, 40.21016], [8.774455, 40.218872], [8.789155, 40.225949], [8.853946, 40.228127], [8.867013, 40.234116], [8.894236, 40.234661], [8.902947, 40.23575], [8.926358, 40.231394], [8.941059, 40.233027], [8.953037, 40.229216], [8.987338, 40.231939], [9.018372, 40.253172], [9.022728, 40.247183], [9.048862, 40.250995], [9.054306, 40.248272], [9.071729, 40.249906], [9.105485, 40.266239], [9.138153, 40.272773], [9.145231, 40.28094], [9.159387, 40.283118], [9.182798, 40.290196], [9.189876, 40.293462], [9.204032, 40.309252], [9.219277, 40.309252], [9.276445, 40.339741], [9.297348, 40.334369]], [[8.731994, 40.287452], [8.743845, 40.320088], [8.75531, 40.341811], [8.821081, 40.38767], [8.821684, 40.41784], [8.829528, 40.436545], [8.824701, 40.463699], [8.830735, 40.473353], [8.828925, 40.483611], [8.832545, 40.490248], [8.834356, 40.502317], [8.853665, 40.519815], [8.86694, 40.53128], [8.877801, 40.566277], [8.877801, 40.581363], [8.904351, 40.608516], [8.907971, 40.625411], [8.927036, 40.635906], [8.987049, 40.65591], [9.010926, 40.673979], [9.012216, 40.679787], [9.03093, 40.684304], [9.054161, 40.712052], [9.108367, 40.740445], [9.123209, 40.743672], [9.145795, 40.763677], [9.15741, 40.767548], [9.183868, 40.774001], [9.18774, 40.777228], [9.229685, 40.779164], [9.239364, 40.774001], [9.265177, 40.783681], [9.29228, 40.800459], [9.307767, 40.809493], [9.327772, 40.816592], [9.349067, 40.818528], [9.363909, 40.825626], [9.373588, 40.83337], [9.406499, 40.837242], [9.416824, 40.841759], [9.427794, 40.848857], [9.441991, 40.857891], [9.459414, 40.861118], [9.496842, 40.86628]], [[8.737054, 40.526489], [8.746653, 40.519072], [8.759087, 40.521254], [8.775884, 40.526489], [8.790064, 40.519509], [8.796826, 40.518854], [8.828239, 40.518854], [8.84646, 40.513256]]]}}
]
}
