{
"type": "FeatureCollection",
"features": [
{"type": "Feature", "properties": {"ProjectID": "P2245"}, "geometry": {"type": "MultiLineString", "coordinates": [[[-111.571888, 31.491108], [-112.008581, 30.688356], [-112.129995, 30.647349], [-112.258857, 30.248759], [-112.331468, 29.979739], [-111.831, 29.54863], [-111.752, 29.37754], [-111.607, 29.31636], [-111.527, 29.25107], [-111.485, 29.17348], [-111.466, 29.10401], [-111.391, 29.04267], [-111.359, 28.88303], [-111.312, 28.64515], [-111.289, 28.57121], [-111.19, 28.49312], [-111.143, 28.36969], [-111.055, 28.1719], [-110.91, 28.0481], [-110.865801, 27.931047]], [[-112.331468, 29.979739], [-112.526614, 29.968589], [-112.6933, 29.907]]]}}
]
}
