{
"type": "FeatureCollection",
"features": [
{"type": "Feature", "properties": {"ProjectID": "P2249"}, "geometry": {"type": "LineString", "coordinates": [[40.474, -10.774], [40.373, -11.041], [40.354, -11.363], [40.222, -11.62], [40.153, -11.835], [40.167, -12.135], [40.185, -12.301], [40.157, -12.368], [40.034, -12.6], [40.02, -12.717], [39.974, -12.984], [39.929, -13.203], [39.883, -13.252], [39.874, -13.475], [39.924, -13.541], [39.942, -13.706], [40.029, -13.888], [39.984, -14.27], [39.672, -14.647], [39.42, -14.908], [39.137, -15.129], [38.862, -15.332], [38.752, -15.341], [38.546, -15.451], [38.258, -15.429], [37.891, -15.621], [37.659, -15.812], [37.402, -16.171], [37.227, -16.418], [37.169, -16.577], [37.086, -16.696], [37.053, -17.005], [36.954, -17.124], [36.68, -17.322], [36.506, -17.401], [36.15, -17.488], [35.818, -17.544], [35.561, -17.757], [35.329, -17.852], [35.014, -18.372], [34.997, -18.466], [34.906, -18.553], [34.806, -18.851], [34.806, -19.008], [34.782, -19.071], [34.5, -19.321], [34.475, -19.407], [34.533, -19.595], [34.549, -19.751], [34.508, -20.11], [34.541, -20.428], [35.067, -21.728], [33.51, -23.648], [32.843, -24.399], [32.119, -25.436], [31.823, -25.51], [31.601, -25.548], [31.313, -25.6], [31.288, -25.703], [31.198, -25.74], [31.066, -25.733], [30.901, -25.823], [30.736, -25.823], [30.597, -26.076], [30.26, -26.2], [29.547, -26.515], [29.24, -26.647], [29.01, -26.515], [28.621, -26.479]]}}
]
}
