{
"type": "FeatureCollection",
"features": [
{"type": "Feature", "properties": {"ProjectID": "P2296"}, "geometry": {"type": "LineString", "coordinates": [[40.56609, 49.51711], [40.497017, 49.433364], [40.482254, 49.400578], [40.501136, 49.331144], [40.492553, 49.321312], [40.49633, 49.303879], [40.546112, 49.283308], [40.545768, 49.210572], [40.562248, 49.178086], [40.549888, 49.136383], [40.50663, 49.108561], [40.507316, 49.094196], [40.51075, 49.054219], [40.543708, 49.002067], [40.531349, 48.957964], [40.550575, 48.871445], [40.487404, 48.792908], [40.432472, 48.719676], [40.352821, 48.687999], [40.365181, 48.294461], [40.42052, 48.22798], [40.492897, 48.175711], [40.48603, 48.127218], [40.447578, 48.116232], [40.435219, 47.941975], [40.345955, 47.928193], [40.326729, 47.889583], [40.335655, 47.571104], [40.28965, 47.541024], [40.35777, 47.56592], [40.151253, 47.57421], [39.873505, 47.620975], [39.66751, 47.73424]]}}
]
}
