{
"type": "FeatureCollection",
"features": [
{"type": "Feature", "properties": {"ProjectID": "P2313"}, "geometry": {"type": "LineString", "coordinates": [[40.24889, 58.78778], [40.021384, 58.762508], [39.970057, 58.804025], [39.962332, 58.80438], [39.942419, 58.80203], [39.941561, 58.802562], [39.871266, 58.802474], [39.863541, 58.805311], [39.80715, 58.873862], [39.787581, 58.879922], [39.767668, 58.891774], [39.755995, 58.896726], [39.506743, 58.969331], [39.315512, 59.053843], [39.059737, 59.019059], [38.926871, 59.016239], [38.920519, 59.026547], [38.79864, 59.045216], [38.755209, 59.048562], [38.698561, 59.024257], [38.662341, 59.03192], [38.645861, 59.042839], [38.616164, 59.046977], [38.603461, 59.0446], [38.546641, 59.04504], [38.518488, 59.055868], [38.42861, 59.04611], [38.396952, 59.063876], [38.321421, 59.076456], [38.298075, 59.072586], [38.283827, 59.081117], [38.291209, 59.085778], [38.151648, 59.169565], [38.107665, 59.201304], [37.956641, 59.191312], [37.952521, 59.195695], [37.85742, 59.198149], [37.746527, 59.185877], [37.577612, 59.214623], [37.455733, 59.203583], [37.391875, 59.218652], [37.199957, 59.226885], [37.1155, 59.211819], [37.037222, 59.214973], [36.886504, 59.207088], [36.752264, 59.229862], [36.6836, 59.226885], [36.641028, 59.214272], [36.547987, 59.222506], [36.394179, 59.181668], [36.356413, 59.184825], [36.305258, 59.200779], [36.277792, 59.196747], [36.165526, 59.236867], [36.12364, 59.269243], [36.096175, 59.276414], [36.013091, 59.27449], [35.88861, 59.26944], [35.508063, 59.290927], [35.441801, 59.281311], [35.182249, 59.32168], [35.111525, 59.315042], [34.800131, 59.330586], [34.732153, 59.351183], [34.654562, 59.346471], [34.576628, 59.358686], [34.561522, 59.356069], [34.538863, 59.364268], [34.505217, 59.362698], [34.472601, 59.371419], [34.23889, 59.39111], [34.099753, 59.351358], [33.836424, 59.491365], [33.740637, 59.498142], [33.727591, 59.505091], [33.656866, 59.5202], [33.485892, 59.591139], [33.221877, 59.605344], [33.035796, 59.60084], [32.976744, 59.61227], [32.869627, 59.684051], [32.844221, 59.683533], [32.704489, 59.728254], [32.45558, 59.72463], [32.38778, 59.78056]]}}
]
}
