{
"type": "FeatureCollection",
"features": [
{"type": "Feature", "properties": {"ProjectID": "P2334"}, "geometry": {"type": "LineString", "coordinates": [[126.071234, 64.275098], [126.733931, 63.846046], [127.06396, 63.620326], [127.283071, 63.485357], [127.480139, 63.487047], [127.702744, 63.363424], [128.064799, 63.179895], [128.201532, 63.096931], [128.385912, 62.991084], [128.538402, 62.893577], [128.693548, 62.795437], [128.938704, 62.629132], [129.218036, 62.435871], [129.721069, 62.052437]]}}
]
}
