{
"type": "FeatureCollection",
"features": [
{"type": "Feature", "properties": {"ProjectID": "P2351"}, "geometry": {"type": "LineString", "coordinates": [[59.95398, 58.63518], [59.870338, 58.660514], [59.650612, 58.667298], [59.500237, 58.639258], [59.386253, 58.631395], [59.352608, 58.606366], [59.294243, 58.593666], [59.238625, 58.564313], [59.134254, 58.572012], [58.898392, 58.537265], [58.794022, 58.497461], [58.43927, 58.35623], [58.336716, 58.363915], [58.228569, 58.365716], [58.151665, 58.35545], [58.07785, 58.338695], [58.035965, 58.312374], [57.92472, 58.298666], [57.906876, 58.25823], [57.825851, 58.214132], [57.719421, 58.156214], [57.687149, 58.154765], [57.575912, 58.126495], [57.510681, 58.127583], [57.415924, 58.109087], [57.387085, 58.105459], [57.301941, 58.0855], [57.190704, 58.076424], [57.178345, 58.078602], [57.077408, 58.061171], [57.028656, 58.062624], [56.977844, 58.048455], [56.851501, 58.019373], [56.839485, 58.011917], [56.775799, 58.011008], [56.720867, 57.997365], [56.704559, 57.99791], [56.671429, 57.986355], [56.662846, 57.979984], [56.652374, 57.980348], [56.641388, 57.971428], [56.556244, 57.939641], [56.50525, 57.94085], [56.474876, 57.92834], [56.463203, 57.915942], [56.397629, 57.895329], [56.389732, 57.878174], [56.376257, 57.862836]]}}
]
}
