{
"type": "FeatureCollection",
"features": [
{"type": "Feature", "properties": {"ProjectID": "P2352", "operator": "Газпром Сила Сибири", "location": "underground", "man_made": "pipeline", "@id": "way/476168197", "substance": "gas", "name": "Сила Сибири", "layer": "-1"}, "geometry": {"type": "LineString", "coordinates": [[125.250836, 57.299473], [125.254703, 57.245128], [125.256506, 57.217394], [125.258222, 57.192941], [125.260196, 57.161351], [125.210844, 57.134159], [125.187669, 57.107271], [125.171083, 57.100687], [125.162049, 57.10247], [125.153503, 57.103855], [125.147667, 57.103203], [125.136729, 57.099078], [125.077506, 57.074897], [125.073214, 57.074873], [125.073171, 57.071188], [125.068408, 57.071153], [125.056241, 57.066078], [125.0524, 57.037918], [125.026394, 57.029815], [124.999572, 57.021756], [124.992405, 57.014865], [125.00146, 56.99521], [125.003048, 56.99133], [124.995023, 56.975826], [125.017467, 56.954396], [125.014291, 56.9437], [125.012532, 56.941687], [125.018626, 56.934874], [124.999786, 56.914662], [124.990473, 56.90449], [124.974088, 56.886589], [124.97231, 56.884646], [124.981901, 56.879475], [124.98483, 56.877957], [124.986847, 56.876855], [124.990259, 56.874932], [125.028003, 56.86582], [125.029513, 56.865468], [125.041822, 56.862606], [125.045512, 56.824864], [125.049783, 56.776046], [125.059739, 56.767533], [125.056552, 56.763011], [125.068933, 56.751342], [125.055329, 56.738069], [125.052454, 56.736539], [125.050694, 56.734444], [125.049235, 56.728512], [125.048034, 56.723214], [125.041468, 56.71808], [125.042798, 56.712287], [125.040051, 56.709884], [125.04636, 56.698741], [125.027542, 56.68275], [125.026769, 56.676362], [125.02428, 56.675183], [125.023937, 56.671127], [125.023132, 56.670886], [125.020407, 56.666959], [125.01854, 56.666122], [125.01809, 56.661205], [125.015536, 56.659896], [125.004764, 56.64429], [124.994422, 56.629067], [124.987426, 56.618845], [124.974375, 56.599311], [124.966435, 56.587568], [124.959912, 56.577925], [124.953389, 56.568468], [124.950085, 56.563432], [124.947896, 56.560074], [124.942086, 56.551714], [124.938117, 56.545528], [124.933611, 56.536442], [124.925242, 56.519779], [124.918713, 56.506447], [124.911375, 56.491714], [124.904551, 56.478586], [124.895239, 56.473135], [124.868545, 56.456918], [124.84477, 56.442379], [124.846616, 56.430065], [124.839449, 56.418246], [124.847131, 56.394643], [124.880648, 56.382433], [124.882364, 56.36021], [124.885411, 56.324985], [124.906225, 56.310634], [124.915066, 56.304825], [124.917254, 56.303968], [124.937639, 56.290966], [124.977808, 56.264663], [124.994974, 56.253889], [124.991713, 56.250479], [125.010896, 56.239964], [125.028362, 56.230447], [125.050324, 56.2139], [125.059733, 56.206656], [125.040894, 56.186004], [125.028963, 56.177978], [124.999781, 56.157669], [124.985018, 56.147534], [124.98064, 56.144354], [124.971457, 56.136272], [124.958324, 56.124194], [124.951458, 56.117974], [124.94545, 56.096987], [124.941244, 56.082597], [124.929657, 56.0757], [124.928627, 56.074598], [124.937124, 56.041123], [124.947767, 56.029759], [124.960406, 56.028332], [124.972443, 56.012874], [124.987378, 56.001165], [125.000982, 55.993005], [125.019393, 55.981626], [125.022225, 55.979873], [125.039863, 55.975215], [125.050914, 55.972309], [125.050721, 55.968695], [125.057695, 55.968455], [125.071256, 55.962258], [125.070591, 55.955519], [125.069218, 55.954102], [125.06454, 55.947854], [125.064883, 55.946533], [125.065012, 55.944514], [125.064883, 55.943336], [125.064154, 55.94175], [125.061665, 55.939875], [125.055528, 55.935573], [125.045657, 55.922302], [125.034499, 55.907125], [125.022097, 55.88985], [125.014715, 55.879355], [125.016947, 55.868425], [125.040164, 55.858262], [125.036817, 55.835663], [125.042567, 55.82026], [125.052652, 55.814738], [125.052438, 55.800726], [125.048318, 55.796384], [125.036774, 55.783644], [125.030036, 55.763972], [125.042138, 55.746825], [125.029521, 55.736727], [125.020037, 55.72885], [124.992957, 55.721044], [124.985318, 55.716451], [124.998579, 55.699465], [125.00566, 55.690431], [124.999995, 55.678964], [125.014544, 55.668533], [125.018663, 55.657858], [125.006862, 55.643136], [125.007076, 55.638752], [124.999352, 55.631509], [124.99064, 55.619733], [124.993901, 55.601942], [124.959183, 55.582566], [124.969654, 55.5625], [124.955749, 55.547354], [124.958324, 55.539074], [124.964762, 55.536184], [124.967337, 55.52127], [124.980812, 55.502], [124.994073, 55.494002], [124.991369, 55.491182], [124.989095, 55.488653], [124.988794, 55.487365], [124.990146, 55.48469], [124.99167, 55.481675], [124.999609, 55.467373], [125.00124, 55.464891], [125.005059, 55.443281], [124.998536, 55.425945], [124.998193, 55.424313], [124.987378, 55.414546], [124.986992, 55.400634], [124.991498, 55.396857], [124.994631, 55.395248], [124.994674, 55.394298], [124.997678, 55.394103], [124.998107, 55.393347], [125.009007, 55.387911], [125.018449, 55.381988], [125.028534, 55.375599], [125.030079, 55.374209], [125.031152, 55.373819], [125.031967, 55.373039], [125.037203, 55.36421]]}},
{"type": "Feature", "properties": {"ProjectID": "P2352", "@id": "way/1070629087", "location": "underground", "man_made": "pipeline", "substance": "gas", "name": "Сила Сибири", "layer": "-1"}, "geometry": {"type": "LineString", "coordinates": [[124.95989, 55.095107], [124.959462, 55.095978], [124.930429, 55.090723], [124.913006, 55.088831], [124.913153, 55.087956]]}},
{"type": "Feature", "properties": {"ProjectID": "P2352", "location": "underground", "man_made": "pipeline", "substance": "gas", "@id": "way/641327232", "name": "Сила Сибири", "layer": "-1"}, "geometry": {"type": "LineString", "coordinates": [[125.124168, 55.24559], [125.122969, 55.246066], [125.135007, 55.25585], [125.117412, 55.267112], [125.11415, 55.268359], [125.111446, 55.269752], [125.108013, 55.272662], [125.110502, 55.276084], [125.11385, 55.277355], [125.113678, 55.27914], [125.111296, 55.280362], [125.108807, 55.281572], [125.102756, 55.288219], [125.098701, 55.292801], [125.095568, 55.294829], [125.09711, 55.295651]]}},
{"type": "Feature", "properties": {"ProjectID": "P2352", "location": "underground", "man_made": "pipeline", "substance": "gas", "name": "Сила Сибири", "layer": "-1", "@id": "way/682413457"}, "geometry": {"type": "LineString", "coordinates": [[125.107261, 55.285239], [125.109278, 55.28299], [125.109922, 55.282281], [125.1152, 55.279788], [125.11505, 55.277503], [125.116144, 55.275902], [125.119041, 55.270413], [125.118118, 55.267907], [125.13698, 55.256108], [125.124168, 55.24559], [125.120414, 55.242507], [125.093893, 55.231887], [125.055483, 55.207382], [125.047844, 55.16708], [125.024391, 55.159811], [125.01952, 55.137016], [125.009371, 55.123018], [125.000638, 55.117877], [124.994446, 55.113637], [124.965534, 55.096101], [124.95989, 55.095107], [124.930492, 55.089778], [124.913153, 55.087956], [124.906996, 55.087309], [124.89837, 55.078196], [124.858266, 55.064129], [124.79194, 55.065124], [124.770719, 55.058156], [124.724285, 55.026313], [124.694695, 55.006025], [124.686112, 54.986627], [124.651694, 54.964164], [124.674783, 54.924577], [124.637232, 54.89707], [124.639097, 54.862395], [124.61426, 54.855158], [124.608754, 54.846925], [124.602524, 54.837581], [124.597716, 54.830489], [124.608585, 54.808069], [124.611064, 54.798316], [124.613391, 54.788779], [124.615644, 54.784647], [124.625137, 54.77104]]}},
{"type": "Feature", "properties": {"ProjectID": "P2352", "name:es": "Poder de Siberia", "usage": "transmission", "wikidata": "Q2898164", "location": "underground", "substance": "gas", "name": "Сила Сибири", "name:en": "Power of Siberia", "name:de": "Kraft Sibiriens", "name:ru": "Сила Сибири", "name:fr": "Force de Sibérie", "layer": "-1", "name:pt": "Força da Sibéria", "name:it": "Forza della Siberia", "man_made": "pipeline", "@id": "way/476173307"}, "geometry": {"type": "LineString", "coordinates": [[128.193026, 51.572642], [128.192253, 51.573309], [128.196158, 51.575416], [128.181996, 51.58647], [128.175055, 51.587536], [128.174293, 51.58731], [128.154874, 51.590349], [128.152792, 51.591962], [128.141441, 51.596121], [128.136141, 51.596615], [128.133931, 51.596801], [128.13303, 51.596375], [128.12964, 51.596695], [128.122672, 51.594164], [128.071238, 51.575005], [128.06317, 51.526277], [128.067076, 51.504164], [128.060467, 51.46651], [128.041863, 51.452218], [128.036413, 51.444595], [128.024139, 51.438202], [128.022336, 51.436597], [128.020598, 51.426496], [128.010728, 51.419887], [127.987596, 51.414373], [127.949445, 51.405165], [127.944595, 51.380074], [127.947685, 51.368662], [127.949702, 51.360596], [127.951891, 51.351351], [127.94893, 51.342317], [127.950861, 51.337197], [127.946054, 51.328885], [127.923137, 51.312926], [127.8955, 51.294011], [127.868721, 51.290066], [127.859666, 51.288697], [127.855074, 51.278256], [127.857606, 51.261582], [127.856919, 51.26048], [127.846662, 51.257419], [127.839517, 51.253914], [127.836384, 51.25284], [127.827715, 51.243384], [127.81866, 51.233684], [127.807674, 51.222316], [127.796945, 51.211107], [127.783641, 51.197071], [127.781281, 51.194597], [127.776388, 51.181874], [127.772119, 51.168435], [127.767484, 51.156216], [127.763664, 51.145045], [127.762978, 51.142595], [127.764179, 51.125414], [127.735591, 51.102633], [127.736492, 51.092445], [127.688727, 51.07352], [127.694006, 51.051795], [127.674093, 51.037063], [127.67154, 51.026524], [127.67566, 51.015496], [127.677483, 51.010623], [127.678385, 51.007112], [127.677398, 51.006464], [127.663536, 50.996742], [127.630148, 50.973332], [127.621436, 50.938392], [127.607703, 50.92403], [127.601352, 50.909068], [127.616507, 50.884696], [127.610456, 50.878035], [127.60565, 50.87289], [127.603161, 50.870128], [127.600328, 50.861406], [127.595436, 50.847535], [127.593913, 50.842481], [127.591209, 50.834595], [127.584149, 50.813354], [127.574558, 50.800214], [127.562713, 50.795305], [127.562427, 50.777884], [127.542429, 50.75883], [127.528782, 50.754296], [127.529039, 50.73708], [127.517538, 50.720889], [127.479901, 50.694256], [127.467327, 50.693386], [127.449732, 50.67941], [127.444164, 50.674929], [127.442264, 50.6734], [127.443552, 50.659555], [127.433853, 50.650794], [127.438831, 50.633104], [127.441149, 50.624665], [127.444925, 50.611077], [127.44926, 50.595851], [127.451963, 50.583318], [127.45398, 50.574734], [127.459216, 50.550472], [127.462263, 50.537108], [127.45501, 50.520412], [127.455826, 50.507177], [127.421021, 50.499179], [127.416172, 50.490689], [127.408447, 50.489911], [127.408276, 50.488504], [127.378406, 50.485965], [127.370424, 50.455591], [127.368364, 50.449033], [127.364709, 50.446339], [127.362587, 50.444733], [127.375102, 50.436899], [127.371368, 50.424269], [127.370907, 50.419901], [127.377334, 50.419364], [127.379007, 50.413714], [127.380166, 50.411362], [127.38184, 50.408654], [127.382913, 50.408162], [127.38214, 50.395333], [127.386603, 50.39075], [127.387612, 50.390531], [127.406731, 50.374208], [127.406301, 50.367118], [127.414412, 50.35551], [127.413425, 50.351376], [127.412438, 50.346611], [127.410336, 50.345132], [127.40922, 50.343571], [127.401195, 50.33571], [127.3945, 50.325327], [127.392998, 50.317463], [127.392107, 50.311585]]}},
{"type": "Feature", "properties": {"ProjectID": "P2352", "operator": "Газпром Сила Сибири", "@id": "way/1070643676", "location": "underground", "man_made": "pipeline", "substance": "gas", "name": "Сила Сибири", "layer": "-1"}, "geometry": {"type": "LineString", "coordinates": [[124.974088, 56.886589], [124.972808, 56.886913], [124.970555, 56.884363], [124.989406, 56.874174], [125.02877, 56.864587], [125.029513, 56.865468]]}},
{"type": "Feature", "properties": {"ProjectID": "P2352", "@id": "way/476173311", "usage": "transmission", "location": "underground", "man_made": "pipeline", "substance": "gas", "name": "Сила Сибири", "layer": "-1"}, "geometry": {"type": "LineString", "coordinates": [[126.422898, 52.901621], [126.435084, 52.895209], [126.444826, 52.87545], [126.447659, 52.869596], [126.444139, 52.85589], [126.435084, 52.845109], [126.435685, 52.827221], [126.430193, 52.822623], [126.415945, 52.809499], [126.415473, 52.800652], [126.414914, 52.791785], [126.421566, 52.782572], [126.43899, 52.758009], [126.444377, 52.75269], [126.454333, 52.742715], [126.45914, 52.731958], [126.46901, 52.722783], [126.472872, 52.716233], [126.483816, 52.706379], [126.50184, 52.689942], [126.508793, 52.668425], [126.532439, 52.662517], [126.562909, 52.653536], [126.599344, 52.635308], [126.622947, 52.62343], [126.635436, 52.617125], [126.647667, 52.614051], [126.672987, 52.610246], [126.679703, 52.609139], [126.692148, 52.604369], [126.703634, 52.599922], [126.706724, 52.595126], [126.706294, 52.591398], [126.718311, 52.588843], [126.725263, 52.580238], [126.746178, 52.555847], [126.755404, 52.544782], [126.778021, 52.527345], [126.792912, 52.515777], [126.802654, 52.503631], [126.806645, 52.498824], [126.811838, 52.494827], [126.836901, 52.476089], [126.852522, 52.464168], [126.862135, 52.457932], [126.862607, 52.456885], [126.86883, 52.453617], [126.874387, 52.45002], [126.882756, 52.444776], [126.891811, 52.438864], [126.900716, 52.433226], [126.906316, 52.428097], [126.916037, 52.419369], [126.926186, 52.409933], [126.925092, 52.401856], [126.933396, 52.39527], [126.942258, 52.388238], [126.951291, 52.381035], [126.966913, 52.379215], [126.973243, 52.378389], [126.993456, 52.362838], [127.005815, 52.351149], [127.01148, 52.345617], [127.015886, 52.343365], [127.024932, 52.338929], [127.054295, 52.323776], [127.055529, 52.319113], [127.062878, 52.316404], [127.071558, 52.315224], [127.083381, 52.308894], [127.09838, 52.300051], [127.137704, 52.276054], [127.171742, 52.255382], [127.185198, 52.247125], [127.198566, 52.239327], [127.199348, 52.238962], [127.200776, 52.238112], [127.202535, 52.236824], [127.225195, 52.223076], [127.235108, 52.217056], [127.24206, 52.212796], [127.244378, 52.211455], [127.255021, 52.20609], [127.277165, 52.194859], [127.292658, 52.186887], [127.310596, 52.177809], [127.336174, 52.164834], [127.355657, 52.15504], [127.370506, 52.147325], [127.394753, 52.134972], [127.418442, 52.122801], [127.421017, 52.121378], [127.427326, 52.106804], [127.43269, 52.094625], [127.433334, 52.08297], [127.433688, 52.077672], [127.450138, 52.040505], [127.466212, 52.004422], [127.472415, 51.99048], [127.475801, 51.988552], [127.501948, 51.974235], [127.512434, 51.968526], [127.516346, 51.964753], [127.517646, 51.963524], [127.518119, 51.962652], [127.525795, 51.949577], [127.536835, 51.930694], [127.532994, 51.916224], [127.547476, 51.911584], [127.557828, 51.908297], [127.573738, 51.902204], [127.585972, 51.901857], [127.605462, 51.90125], [127.62797, 51.901869], [127.654503, 51.902598], [127.664794, 51.902858], [127.668279, 51.903728], [127.688616, 51.902788], [127.705366, 51.901995], [127.733293, 51.902612], [127.763782, 51.903198], [127.775713, 51.903414], [127.802163, 51.899151], [127.824105, 51.895687], [127.865415, 51.88213], [127.872638, 51.869939], [127.883236, 51.859452], [127.903321, 51.852397], [127.923073, 51.845275], [127.937117, 51.840281], [127.950319, 51.827033], [127.972565, 51.804817], [127.977933, 51.806391], [127.985039, 51.798315], [127.986589, 51.794584], [127.991253, 51.790871], [127.996444, 51.783701], [128.001057, 51.784841], [128.014931, 51.778057], [128.012979, 51.773057], [128.013579, 51.769396], [128.017057, 51.765173], [128.023001, 51.758451], [128.02487, 51.756745], [128.026639, 51.754249], [128.030688, 51.750143], [128.026494, 51.746224], [128.024331, 51.744635], [128.022229, 51.743788], [128.036241, 51.724045], [128.041166, 51.717091], [128.048171, 51.714376], [128.079693, 51.682364], [128.094112, 51.677228], [128.111235, 51.65865], [128.106708, 51.642607], [128.102846, 51.640503], [128.106622, 51.636667], [128.109369, 51.631473], [128.111386, 51.619245], [128.11542, 51.616766], [128.119754, 51.613302], [128.122286, 51.611424], [128.124604, 51.609571], [128.125977, 51.608612], [128.13853, 51.602548], [128.143501, 51.601146], [128.142085, 51.598107], [128.145396, 51.596697], [128.158743, 51.590712], [128.182389, 51.586952], [128.21228, 51.563801], [128.203053, 51.559226]]}},
{"type": "Feature", "properties": {"ProjectID": "P2352", "location": "underground", "man_made": "pipeline", "@id": "way/687805704", "substance": "gas", "name": "Сила Сибири", "layer": "-1"}, "geometry": {"type": "LineString", "coordinates": [[124.436953, 54.179735], [124.434817, 54.177811], [124.420698, 54.165627], [124.406214, 54.152422], [124.386044, 54.151542], [124.368857, 54.142255], [124.363743, 54.139669], [124.364644, 54.13725], [124.361297, 54.133962], [124.357548, 54.13387], [124.342614, 54.114429], [124.326199, 54.093079], [124.309698, 54.071517], [124.296137, 54.053307], [124.277855, 54.041364], [124.268102, 54.034969], [124.261171, 54.030066], [124.258382, 54.027848], [124.253404, 54.024142], [124.247331, 54.019333]]}},
{"type": "Feature", "properties": {"ProjectID": "P2352", "location": "underground", "man_made": "pipeline", "substance": "gas", "name": "Сила Сибири", "@id": "way/476173314", "layer": "-1"}, "geometry": {"type": "LineString", "coordinates": [[124.247331, 54.019333], [124.256272, 54.011388], [124.25447, 54.004036], [124.25786, 54.000505], [124.264469, 53.993037], [124.256873, 53.984383], [124.267001, 53.968634], [124.2767, 53.956995], [124.296398, 53.948711], [124.315753, 53.943433], [124.341459, 53.922538], [124.343905, 53.91488], [124.357381, 53.89392], [124.371886, 53.882943], [124.389996, 53.877504], [124.454369, 53.848881], [124.502005, 53.839184], [124.545436, 53.815526], [124.58509, 53.805922], [124.635644, 53.807012], [124.709673, 53.798395], [124.737353, 53.795303], [124.757953, 53.78184], [124.790182, 53.760928], [124.792478, 53.760421], [124.795439, 53.756767], [124.797156, 53.756412], [124.801898, 53.753431], [124.818034, 53.742925], [124.838161, 53.730055], [124.841745, 53.727858], [124.849856, 53.726348], [124.879575, 53.717562], [124.920645, 53.71459], [124.935193, 53.717968], [124.972057, 53.714387], [125.001841, 53.713346], [125.006218, 53.709485], [125.015917, 53.704633], [125.025616, 53.704608], [125.026731, 53.703668], [125.029693, 53.702372], [125.041151, 53.704227], [125.049219, 53.704278], [125.064797, 53.702728], [125.095653, 53.699578], [125.118527, 53.699298], [125.162859, 53.694572], [125.219142, 53.675345], [125.197706, 53.650743], [125.207126, 53.639206], [125.216267, 53.605913], [125.222704, 53.593842], [125.247016, 53.586417], [125.274739, 53.577856], [125.32186, 53.567077], [125.341859, 53.555555], [125.355806, 53.545076], [125.366106, 53.53944], [125.370698, 53.526514], [125.434878, 53.504257], [125.457494, 53.5003], [125.491869, 53.476477], [125.581262, 53.453356], [125.59888, 53.454166], [125.634328, 53.442921], [125.647589, 53.442001], [125.661751, 53.435916], [125.701641, 53.427517], [125.713443, 53.418976], [125.744277, 53.412415], [125.753847, 53.41441], [125.761572, 53.409729], [125.761143, 53.405099], [125.770456, 53.393073], [125.814723, 53.393213], [125.848583, 53.392906], [125.882443, 53.387352], [125.907806, 53.379571], [125.918771, 53.37623], [125.929457, 53.372927], [125.963939, 53.365591], [125.980333, 53.362262], [126.020309, 53.344114], [126.030909, 53.330532], [126.031166, 53.32556], [126.044084, 53.313255], [126.054384, 53.303485], [126.059018, 53.300511], [126.070305, 53.290969], [126.078073, 53.28553], [126.077601, 53.281938], [126.086012, 53.280065], [126.095454, 53.273316], [126.116225, 53.256863], [126.13176, 53.254552], [126.15532, 53.247645], [126.172615, 53.246027], [126.178409, 53.233545], [126.185619, 53.232286], [126.205445, 53.210086], [126.232182, 53.208673], [126.247417, 53.190215], [126.258403, 53.177125], [126.265784, 53.169433], [126.270806, 53.160145], [126.274754, 53.157829], [126.283187, 53.147368], [126.3034, 53.122832], [126.298379, 53.116728], [126.288723, 53.105496], [126.305696, 53.099506], [126.319128, 53.089996], [126.318399, 53.074427], [126.336037, 53.052119], [126.342324, 53.048675], [126.33696, 53.043463], [126.333226, 53.036367], [126.317133, 53.006191], [126.312283, 52.997048], [126.317905, 52.988575], [126.330909, 52.984106], [126.335629, 52.976974], [126.342775, 52.966391], [126.350499, 52.96042], [126.359941, 52.947234], [126.3614, 52.945321], [126.366035, 52.940769], [126.371099, 52.930992], [126.39908, 52.913864], [126.422898, 52.901621]]}},
{"type": "Feature", "properties": {"ProjectID": "P2352", "location": "underground", "man_made": "pipeline", "substance": "gas", "name": "Сила Сибири", "@id": "way/641327233", "layer": "-1"}, "geometry": {"type": "LineString", "coordinates": [[125.107261, 55.285239], [125.099944, 55.293596], [125.09711, 55.295651], [125.096726, 55.295929], [125.083637, 55.304065], [125.071664, 55.312491], [125.056686, 55.325922], [125.047417, 55.333783], [125.042739, 55.342276], [125.04158, 55.344277], [125.042052, 55.353379], [125.042095, 55.356038], [125.037203, 55.36421]]}},
{"type": "Feature", "properties": {"ProjectID": "P2352", "@id": "way/729366004", "location": "underground", "man_made": "pipeline", "substance": "gas", "name": "Сила Сибири", "layer": "-1"}, "geometry": {"type": "LineString", "coordinates": [[124.436953, 54.179735], [124.438459, 54.179209], [124.446538, 54.179667], [124.455807, 54.17767]]}},
{"type": "Feature", "properties": {"ProjectID": "P2352", "@id": "way/680504478", "location": "underground", "man_made": "pipeline", "substance": "gas", "name": "Сила Сибири", "layer": "-1"}, "geometry": {"type": "LineString", "coordinates": [[124.625137, 54.77104], [124.631051, 54.762882], [124.641523, 54.748864], [124.650749, 54.736342], [124.677678, 54.728549], [124.691744, 54.716754], [124.713355, 54.698718], [124.723461, 54.690256], [124.727524, 54.686864], [124.692502, 54.66452], [124.673494, 54.652385], [124.670704, 54.650729], [124.661435, 54.624942], [124.65975, 54.588509], [124.668451, 54.571129], [124.672056, 54.54958], [124.688901, 54.537568], [124.666885, 54.502634], [124.653581, 54.481634], [124.658175, 54.471846], [124.658538, 54.47055], [124.69714, 54.452602], [124.716967, 54.426796], [124.71422, 54.399474], [124.669181, 54.332404], [124.650405, 54.328263], [124.645341, 54.328038], [124.641865, 54.323858], [124.631737, 54.324258], [124.611138, 54.319853], [124.608005, 54.320404], [124.60028, 54.317525], [124.597748, 54.316649], [124.568652, 54.31009], [124.521509, 54.299661], [124.512132, 54.29762], [124.515308, 54.269962], [124.51891, 54.239616], [124.520412, 54.23771], [124.517923, 54.233044], [124.519897, 54.230812], [124.520412, 54.225192], [124.484964, 54.2205], [124.474064, 54.210237], [124.470845, 54.209609], [124.468334, 54.206836], [124.46866, 54.204976], [124.465785, 54.199102], [124.465506, 54.188457], [124.464562, 54.184954], [124.463875, 54.182932], [124.460528, 54.178788], [124.455807, 54.17767], [124.454176, 54.177294], [124.434817, 54.177811]]}},
{"type": "Feature", "properties": {"ProjectID": "P2352", "location": "underground", "man_made": "pipeline", "substance": "gas", "name": "Сила Сибири", "layer": "-1", "@id": "way/476175259"}, "geometry": {"type": "LineString", "coordinates": [[125.250836, 57.299473], [125.250058, 57.310793], [125.24877, 57.328241], [125.276586, 57.348811], [125.281085, 57.351771], [125.293574, 57.361494], [125.313701, 57.376651], [125.322284, 57.383152], [125.332525, 57.398698], [125.337932, 57.40716], [125.348489, 57.423708], [125.366085, 57.432071], [125.408313, 57.477737], [125.417154, 57.487519], [125.431917, 57.503131], [125.436874, 57.510958], [125.451293, 57.533081], [125.462537, 57.550401], [125.477901, 57.573512], [125.490604, 57.593251], [125.5088, 57.620242], [125.512061, 57.629572], [125.513778, 57.633386], [125.51189, 57.647443], [125.508113, 57.680498], [125.5197, 57.70559], [125.516439, 57.711276], [125.495882, 57.745899], [125.494348, 57.77832], [125.493146, 57.804626], [125.492116, 57.824513], [125.49203, 57.829906], [125.502116, 57.850259], [125.533385, 57.869416], [125.553212, 57.881648], [125.563125, 57.888013], [125.565872, 57.890294], [125.575012, 57.891845], [125.574841, 57.893693], [125.565528, 57.897798], [125.565008, 57.899656], [125.560459, 57.914658], [125.559547, 57.919667], [125.550256, 57.98922], [125.549569, 57.998159], [125.550814, 58.017099], [125.547338, 58.026258], [125.542102, 58.040095], [125.539184, 58.044797], [125.535793, 58.050725], [125.534678, 58.051974], [125.526223, 58.060693], [125.524185, 58.126369], [125.520237, 58.128771], [125.528712, 58.162122], [125.51882, 58.175736], [125.525944, 58.202611], [125.513327, 58.211157], [125.513306, 58.229521], [125.513048, 58.231012], [125.513306, 58.240185], [125.514422, 58.241653], [125.513606, 58.245809], [125.509787, 58.248451], [125.508027, 58.249806], [125.512984, 58.260362], [125.518263, 58.272732], [125.521867, 58.281013], [125.513177, 58.297401], [125.501268, 58.320544], [125.497578, 58.323955], [125.495174, 58.326178], [125.515988, 58.352556], [125.507807, 58.383139], [125.505447, 58.39117], [125.503129, 58.394341], [125.499423, 58.394503], [125.48142, 58.396178], [125.468202, 58.394919], [125.454769, 58.391725], [125.448418, 58.391995], [125.406854, 58.396527], [125.401361, 58.405027], [125.342631, 58.416211], [125.33842, 58.423904], [125.299153, 58.424556], [125.284567, 58.427425], [125.267612, 58.43137], [125.178738, 58.452043], [125.17333, 58.50199], [125.171185, 58.530409], [125.160778, 58.537992], [125.145071, 58.550354], [125.135114, 58.558302], [125.136595, 58.57624], [125.146487, 58.598864], [125.135393, 58.613317], [125.118163, 58.621977], [125.111253, 58.625418], [125.089324, 58.62973], [125.077608, 58.632991], [125.030809, 58.645688], [125.031431, 58.674092], [125.021474, 58.675609], [125.019715, 58.679535], [125.001755, 58.692037], [124.921804, 58.702004], [124.88598, 58.735969], [124.859523, 58.740813], [124.848536, 58.748094], [124.836155, 58.76273], [124.805127, 58.772588], [124.798905, 58.780196], [124.766286, 58.780443], [124.761787, 58.780463], [124.720091, 58.780763], [124.71876, 58.782276], [124.719898, 58.80939], [124.715499, 58.819757], [124.698869, 58.827077], [124.684543, 58.833552], [124.707222, 58.84892], [124.684836, 58.858473], [124.61594, 58.887625], [124.578347, 58.903543], [124.550108, 58.918523], [124.504704, 58.942354], [124.471316, 58.959929], [124.457325, 58.966324], [124.436726, 58.976035], [124.416985, 58.985169], [124.410376, 58.987977], [124.393811, 58.995715], [124.371967, 59.005992], [124.312357, 59.015737], [124.226555, 59.054909], [124.188956, 59.072088], [124.1752, 59.073064], [124.170851, 59.074985], [124.156345, 59.081292], [124.132542, 59.091212], [124.101385, 59.108755], [124.083189, 59.1188], [124.039502, 59.143329], [123.920197, 59.167269], [123.871359, 59.199367], [123.851961, 59.212549], [123.784745, 59.207376], [123.766844, 59.217236], [123.728115, 59.24035], [123.691207, 59.261852], [123.64474, 59.295373], [123.601149, 59.306855], [123.558921, 59.318244], [123.553342, 59.326739], [123.541669, 59.344205], [123.53771, 59.349763], [123.523387, 59.355669], [123.491973, 59.367829], [123.487853, 59.373077], [123.484804, 59.374253], [123.475407, 59.374214], [123.458585, 59.381034], [123.446311, 59.385755], [123.412837, 59.388202], [123.377475, 59.408782], [123.355438, 59.421108], [123.307565, 59.433769], [123.30675, 59.434107], [123.285636, 59.444319], [123.21534, 59.476811], [123.181695, 59.492152], [123.175944, 59.494984], [123.1538, 59.51724], [123.092345, 59.530996], [122.976989, 59.557534], [122.925319, 59.616149], [122.901114, 59.626002], [122.883691, 59.659403], [122.865065, 59.662394], [122.836655, 59.667033], [122.82215, 59.683847], [122.779235, 59.693377], [122.711443, 59.708596], [122.651755, 59.713262], [122.647549, 59.713717], [122.625533, 59.754619], [122.625276, 59.773809], [122.624933, 59.779858], [122.612487, 59.795795], [122.604026, 59.806705], [122.574936, 59.816235], [122.568156, 59.818392], [122.53657, 59.839788], [122.527129, 59.846644], [122.488848, 59.872804], [122.444474, 59.878361], [122.43524, 59.879554], [122.394814, 59.901944], [122.329503, 59.906884], [122.309162, 59.907874], [122.303411, 59.912479], [122.261397, 59.91676], [122.244917, 59.918093], [122.198397, 59.921535], [122.181317, 59.932072], [122.172941, 59.942508], [122.176546, 59.94887], [122.171017, 59.952278], [122.157971, 59.961044], [122.125012, 59.966243], [122.124239, 59.967789], [122.120413, 59.975808], [122.100153, 59.989051], [122.087965, 59.997143], [122.081375, 60.001675], [122.066143, 60.01215], [122.063482, 60.014081], [122.063353, 60.018542], [122.062306, 60.057735], [122.0687, 60.09353], [122.018833, 60.104013], [122.009902, 60.124238], [122.007928, 60.128535], [121.99304, 60.161673], [121.956902, 60.166324], [121.914244, 60.171832], [121.871071, 60.190739], [121.866093, 60.212365], [121.85236, 60.221233], [121.845927, 60.225626], [121.791871, 60.24468], [121.790369, 60.245447], [121.783416, 60.260629], [121.755547, 60.322449], [121.643341, 60.331209], [121.58798, 60.3355], [121.537254, 60.358049], [121.438291, 60.379012], [121.414087, 60.38406], [121.374261, 60.395086], [121.308429, 60.413272], [121.287916, 60.418907], [121.260107, 60.433649], [121.2444, 60.441864], [121.244228, 60.442669], [121.238392, 60.445802], [121.237104, 60.445759], [121.229723, 60.449993], [121.186636, 60.472716], [121.145394, 60.494303], [121.143935, 60.495106], [121.109088, 60.503475], [121.107714, 60.506433], [121.046345, 60.521178], [121.014502, 60.513616], [120.999396, 60.501742], [120.950472, 60.479208], [120.949442, 60.47684], [120.940602, 60.473922], [120.912364, 60.45395], [120.884125, 60.442224], [120.851596, 60.428503], [120.82207, 60.433924], [120.803874, 60.428249], [120.78748, 60.431976], [120.754435, 60.435703], [120.736067, 60.437566], [120.70931, 60.44052], [120.678475, 60.443897], [120.659785, 60.449664], [120.624509, 60.4554], [120.629745, 60.468327], [120.626183, 60.471563], [120.621441, 60.472864], [120.600283, 60.474789], [120.595477, 60.476544], [120.580499, 60.477623], [120.563805, 60.489526], [120.546768, 60.50077], [120.528657, 60.52122], [120.502393, 60.550815], [120.493896, 60.560097], [120.421369, 60.574226], [120.347641, 60.597242], [120.29567, 60.613145], [120.266724, 60.618757], [120.254235, 60.621305], [120.243464, 60.623915], [120.235739, 60.625704], [120.224752, 60.62722], [120.194111, 60.633324], [120.177116, 60.636607], [120.118837, 60.636649], [120.090127, 60.636628], [120.056996, 60.639784], [120.041461, 60.639826], [119.987903, 60.644076], [119.93031, 60.6482], [119.885335, 60.651565], [119.846454, 60.654131], [119.796672, 60.657832], [119.713931, 60.663594], [119.62132, 60.669901], [119.576173, 60.67297], [119.566903, 60.670826], [119.523301, 60.676207], [119.481201, 60.681356], [119.458338, 60.683878], [119.44291, 60.693321], [119.391208, 60.684991], [119.371724, 60.688521], [119.370716, 60.692996], [119.360824, 60.694949], [119.315934, 60.709734], [119.26847, 60.725645], [119.187489, 60.753438], [119.156075, 60.754906]]}}
]
}
