{
"type": "FeatureCollection",
"features": [
{"type": "Feature", "properties": {"ProjectID": "P2362"}, "geometry": {"type": "LineString", "coordinates": [[73.33994, 55.2094], [73.363781, 55.185214], [73.38275, 55.167986], [73.442488, 55.136672], [73.443861, 55.134832], [73.453088, 55.13363], [73.482099, 55.114808], [73.492355, 55.113458], [73.498321, 55.110562], [73.521473, 55.106413], [73.528748, 55.101012], [73.542051, 55.0989], [73.590889, 55.087186], [73.60857, 55.092], [73.619771, 55.08974], [73.622088, 55.091877], [73.711567, 55.103651], [73.766155, 55.103712], [73.861256, 55.100079], [73.875675, 55.093645], [73.990002, 55.100472], [74.063644, 55.075714], [74.143896, 55.095511], [74.290924, 55.079153], [74.513397, 55.086228], [74.782562, 55.114514], [75.142708, 55.129042], [75.2069, 55.1416], [75.283813, 55.165338], [75.638466, 55.180436], [75.845146, 55.212965], [76.017494, 55.266403], [76.132507, 55.294365], [76.14109, 55.291433], [76.26194, 55.305897], [76.442184, 55.292215], [76.69693, 55.332269], [76.824303, 55.319378], [76.975365, 55.341447], [77.085228, 55.368186], [77.218781, 55.386717], [77.311821, 55.371893], [77.434731, 55.388082], [77.571373, 55.371112], [77.71934, 55.38028], [77.728615, 55.378915], [77.904739, 55.345156], [78.133392, 55.336956], [78.277931, 55.371503], [78.465042, 55.362625], [78.509674, 55.364381], [78.680477, 55.374917], [78.92561, 55.372478], [78.963633, 55.376331], [79.08371, 55.351549], [79.129972, 55.346718], [79.17362, 55.34025], [79.248075, 55.338518], [79.275112, 55.341593], [79.300261, 55.33388], [79.333305, 55.328656], [79.368324, 55.327045], [79.394674, 55.328168], [79.419308, 55.323724], [79.468918, 55.335198], [79.565563, 55.339006], [79.592514, 55.332562], [79.702549, 55.349939], [79.811211, 55.352379], [79.936867, 55.32309], [80.130501, 55.263468], [80.319672, 55.264446], [80.490646, 55.189061], [80.634155, 55.190629], [80.97473, 55.14513], [81.193771, 55.159651], [81.640778, 55.1969], [82.200394, 55.13807], [82.521057, 55.055562], [82.728424, 55.006764], [83.05418, 54.98953], [83.296967, 55.231373], [83.571625, 55.325238], [83.805084, 55.530185], [84.079742, 55.630322], [84.421692, 55.697712], [84.64469, 55.79439]]}}
]
}
