{
"type": "FeatureCollection",
"features": [
{"type": "Feature", "properties": {"ProjectID": "P2371"}, "geometry": {"type": "LineString", "coordinates": [[44.63861, 54.6707], [44.502339, 54.470555], [44.506802, 54.460429], [44.593148, 54.438976], [44.594693, 54.427748], [44.640012, 54.386388], [44.684644, 54.37246], [44.707303, 54.354146], [44.736142, 54.347376], [44.741635, 54.33702], [44.734769, 54.33184], [44.746442, 54.288389], [44.820599, 54.20974], [44.833646, 54.182557], [44.802747, 54.149353], [44.832959, 53.94635], [44.838452, 53.847295], [44.69151, 53.67925], [44.666791, 53.624976], [44.666791, 53.538965], [44.636578, 53.485322], [44.637952, 53.397395], [44.613232, 53.342756], [44.622845, 53.276605], [44.763794, 53.185465]]}}
]
}
