{
"type": "FeatureCollection",
"features": [
{"type": "Feature", "properties": {"ProjectID": "P2378"}, "geometry": {"type": "LineString", "coordinates": [[64.2772, 62.76384], [64.173203, 62.780962], [64.085655, 62.81941], [64.008751, 62.831327], [63.938541, 62.830778], [63.594189, 62.865012], [63.172073, 62.886769], [63.031998, 62.908042], [62.960243, 62.932189], [62.852097, 62.949837], [62.813988, 62.95093], [62.769871, 62.948432], [62.706528, 62.959828], [62.383804, 62.973794], [61.869335, 62.926798], [61.801701, 62.902178], [61.751404, 62.894905], [61.632442, 62.893575], [61.53717, 62.906947], [61.458893, 62.904054], [59.7667, 63.2159], [59.647865, 63.242748], [59.561005, 63.245221], [59.50882, 63.260827], [59.49337, 63.273645], [59.473114, 63.279821], [59.369087, 63.282445], [59.301796, 63.302813], [59.229698, 63.311141], [59.029884, 63.376602], [59.004478, 63.381833], [58.95607, 63.380448], [58.944397, 63.382755], [58.902855, 63.377987], [58.829727, 63.388446], [58.767586, 63.431628], [57.781219, 63.592409], [57.76371, 63.602943], [57.597542, 63.634674], [57.526474, 63.663476], [57.481499, 63.673374], [57.438068, 63.687074], [57.427425, 63.685857], [57.405109, 63.68852], [57.354641, 63.684944], [57.008057, 63.701072], [56.611176, 63.680377], [56.519852, 63.68677], [56.191635, 63.666979], [56.119537, 63.679769], [55.439758, 63.605996], [55.084076, 63.672461], [54.748993, 63.672461], [54.440002, 63.610879], [53.77472, 63.66056]]}}
]
}
