{
"type": "FeatureCollection",
"features": [
{"type": "Feature", "properties": {"ProjectID": "P2379"}, "geometry": {"type": "LineString", "coordinates": [[36.10638, 54.55809], [36.111116, 54.642304], [36.104164, 54.652038], [36.112747, 54.667478], [36.146393, 54.680084], [36.150684, 54.688023], [36.142187, 54.772276], [36.384487, 54.909679], [36.393929, 54.911948], [36.580782, 55.029793], [36.646442, 55.060872], [36.689744, 55.096567], [36.68415, 55.11288], [36.779566, 55.13363], [36.775618, 55.138708], [36.780682, 55.14381], [36.814928, 55.154404], [36.820421, 55.154747], [36.869431, 55.174211], [36.879044, 55.171417], [36.980238, 55.213014]]}}
]
}
