{
"type": "FeatureCollection",
"features": [
{"type": "Feature", "properties": {"ProjectID": "P2431"}, "geometry": {"type": "LineString", "coordinates": [[113.142014, 61.787409], [113.529968, 61.808501], [113.705063, 61.799417], [113.961182, 61.809799], [114.079285, 61.782539], [114.333344, 61.787084], [114.283905, 61.932167], [114.230347, 62.00574], [114.2276, 62.086851], [114.163742, 62.124436], [114.23584, 62.220916], [114.253693, 62.375409], [114.196701, 62.44283], [113.90625, 62.549692], [113.427658, 62.777978], [113.144073, 62.906791], [112.944946, 62.94648], [112.744446, 62.938984], [112.525406, 62.995782], [112.453995, 63.120847], [112.427216, 63.25712], [112.460861, 63.457567], [112.444382, 63.681595], [112.39563, 63.806743], [112.558365, 63.978672], [112.51236, 64.055983], [112.561111, 64.152544], [112.541199, 64.269646], [112.453995, 64.366061], [112.506866, 64.54726], [112.484894, 64.759782], [112.479401, 65.037669], [112.446442, 65.295477], [112.279587, 65.457405], [112.254868, 65.622023], [111.917038, 65.800806], [111.725464, 65.943673]]}}
]
}
