{
"type": "FeatureCollection",
"features": [
{"type": "Feature", "properties": {"ProjectID": "P2447"}, "geometry": {"type": "LineString", "coordinates": [[33.27965, 57.95168], [32.981644, 57.928887], [32.778053, 57.949663], [32.589912, 57.95695], [32.401428, 57.930528], [32.044029, 57.931622], [32.028236, 57.920865], [31.858292, 57.932897], [31.80233, 57.928523], [31.638908, 57.941828], [31.616936, 57.930163], [31.570244, 57.920501], [31.26503, 57.913389], [31.028652, 57.880912], [31.010799, 57.888851], [30.931664, 57.882737], [30.809269, 57.881733], [30.701122, 57.873062], [30.648766, 57.876896], [30.574093, 57.874157], [30.554008, 57.867584], [30.51178, 57.869684], [30.353165, 57.856352], [29.811401, 57.789893], [29.613304, 57.773968], [29.543953, 57.744114], [29.168701, 57.705248], [29.014549, 57.727803], [28.963737, 57.732019], [28.906403, 57.714785], [28.827095, 57.720836], [28.750877, 57.757487], [28.588829, 57.756938], [28.212891, 57.773053], [28.171005, 57.761883], [28.098564, 57.759868], [27.874374, 57.699928], [27.80189, 57.69894], [27.684216, 57.695341], [27.623405, 57.686809], [27.58667, 57.675245], [27.555256, 57.673593], [27.532253, 57.664779], [27.504272, 57.662576], [27.402649, 57.640715], [27.36351, 57.625644], [27.246952, 57.601646], [27.205067, 57.591803], [27.182064, 57.595851], [27.129192, 57.592723], [27.088852, 57.591159], [27.048168, 57.568612], [26.985855, 57.556458], [26.896591, 57.546971], [26.852131, 57.540522], [26.800289, 57.520893], [26.775055, 57.519787], [26.760807, 57.522552], [26.695747, 57.513979], [26.631031, 57.490276], [26.573181, 57.485848], [26.564255, 57.479942], [26.479282, 57.467851], [26.465549, 57.470066], [26.430531, 57.460095], [26.419029, 57.451138], [26.349335, 57.447166], [26.337662, 57.440885], [26.305218, 57.442917], [26.265736, 57.43682], [26.246166, 57.439776], [26.214924, 57.436265], [26.200333, 57.431461], [26.149006, 57.428319], [26.110039, 57.415656], [26.099052, 57.405947], [26.070385, 57.395774], [26.054592, 57.397162], [25.990219, 57.374956], [25.959492, 57.376252], [25.831432, 57.347366], [25.816498, 57.348941], [25.78474, 57.346255], [25.756073, 57.332822], [25.703201, 57.333564], [25.668011, 57.322258], [25.552826, 57.294721], [25.448456, 57.296669], [25.431633, 57.288877], [25.359879, 57.278672], [25.338936, 57.270505], [25.15337, 57.241815], [25.069084, 57.207059], [25.005226, 57.203247], [24.990463, 57.197482], [24.970036, 57.196831], [24.936218, 57.174877], [24.797344, 57.134935], [24.782324, 57.13419], [24.743185, 57.129066], [24.704819, 57.126737], [24.661732, 57.112012], [24.636068, 57.114948], [24.628258, 57.120028], [24.577103, 57.103902], [24.533157, 57.102317], [24.523373, 57.084038], [24.12941, 56.970808]]}}
]
}
