{
"type": "FeatureCollection",
"features": [
{"type": "Feature", "properties": {"ProjectID": "P2459"}, "geometry": {"type": "LineString", "coordinates": [[79.47448, 66.77451], [79.367294, 66.738546], [79.370728, 66.688327], [79.344635, 66.679902], [79.238205, 66.304137], [79.105682, 66.19102], [78.607864, 66.072939], [78.51397, 66.0704], [78.30883, 66.087416], [78.21785, 66.069736], [78.057518, 66.058454], [78.014946, 66.042705], [77.750244, 65.994145], [77.645531, 66.006154], [77.510262, 66.008667], [77.43988, 66.036989], [76.993561, 66.086442], [76.82846, 66.03047]]}}
]
}
