{
"type": "FeatureCollection",
"features": [
{"type": "Feature", "id": "way/490527130", "properties": {"ProjectID": "P2458", "@id": "way/490527130", "layer": -1, "location": "underground", "man_made": "pipeline", "name": "Проскоково — Линёво", "substance": "gas", "usage": "branch"}, "geometry": {"type": "LineString", "coordinates": [[84.672186, 55.790069], [84.651351, 55.775191], [84.624704, 55.767392], [84.598595, 55.751216], [84.598304, 55.750773], [84.598833, 55.749916], [84.604371, 55.741048], [84.590482, 55.73201], [84.583701, 55.726857], [84.578276, 55.722822], [84.563625, 55.714147], [84.549654, 55.704419], [84.546804, 55.698591], [84.549698, 55.694288], [84.505222, 55.677436], [84.48953, 55.666803], [84.488235, 55.661194], [84.485225, 55.658578], [84.475348, 55.655069], [84.416027, 55.644613], [84.389098, 55.645085], [84.321184, 55.627075], [84.300306, 55.613856], [84.25782, 55.599275], [84.220011, 55.591891], [84.217801, 55.591418], [84.215312, 55.590557], [84.166818, 55.567475], [84.144716, 55.559661], [84.08339, 55.542595], [84.075236, 55.539025], [84.054036, 55.525594], [84.035926, 55.515318], [84.025326, 55.51245], [83.974943, 55.496312], [83.93692, 55.480799], [83.934259, 55.479291], [83.931169, 55.47636], [83.925097, 55.465846], [83.92456, 55.465426], [83.84697, 55.438643], [83.8221, 55.430024], [83.811275, 55.426292], [83.810642, 55.426024], [83.810105, 55.425702], [83.809665, 55.425263], [83.778005, 55.370186], [83.734231, 55.352452], [83.703547, 55.34274], [83.640246, 55.30779], [83.632135, 55.290749], [83.628573, 55.286546], [83.619647, 55.287083], [83.604208, 55.284798], [83.592782, 55.28492], [83.570466, 55.278235], [83.547378, 55.27496], [83.507445, 55.255704], [83.500514, 55.252023], [83.494742, 55.249955], [83.484421, 55.245173], [83.466654, 55.238102], [83.455549, 55.235514], [83.445067, 55.235166], [83.426142, 55.235508], [83.423224, 55.23497], [83.41361, 55.231422], [83.394213, 55.229684], [83.379021, 55.228558], [83.356175, 55.216916], [83.355868, 55.216759], [83.34456, 55.211789], [83.332414, 55.204982], [83.302227, 55.204505]]}}
]
}
