{
"type": "FeatureCollection",
"features": [
{"type": "Feature", "properties": {"ProjectID": "P2467"}, "geometry": {"type": "LineString", "coordinates": [[14.493846, 46.189632], [14.480685, 46.153737], [14.48387, 46.130565], [14.547571, 46.086954], [14.569867, 46.081431], [14.594551, 46.080326], [14.621624, 46.074803], [14.624809, 46.064306], [14.621624, 46.052703], [14.626402, 46.04165], [14.631975, 46.021195], [14.634364, 45.997415], [14.658252, 45.983031], [14.709213, 45.97307], [14.734694, 45.965876], [14.760174, 45.967536], [14.783266, 45.952591], [14.810339, 45.948715], [14.852541, 45.947054], [14.899521, 45.947608], [14.934556, 45.938195], [14.960037, 45.934319], [14.983925, 45.923242], [15.001443, 45.922134], [15.051607, 45.898865], [15.064347, 45.882238], [15.089828, 45.871151], [15.110531, 45.84897], [15.145567, 45.830109], [15.175825, 45.822341]]}}
]
}
