{
"type": "FeatureCollection",
"features": [
{"type": "Feature", "properties": {"ProjectID": "P2473", "id": 1, "Name": "Saldanha-Mossel Bay Gas Pipeline", "Type": "Main"}, "geometry": {"type": "MultiLineString", "coordinates": [[[18.122896, -33.031464], [18.285433, -33.07354], [18.382133, -33.188778], [18.482552, -33.325622], [18.571814, -33.449839], [18.672233, -33.564582], [18.754056, -33.672982], [18.850756, -33.790519], [19.02556, -33.883198], [19.259871, -34.009696], [19.542533, -34.108296], [19.825195, -34.157553], [20.152487, -34.179094], [20.543006, -34.194477], [20.803352, -34.194477], [20.966998, -34.185247], [21.089733, -34.17294], [21.223625, -34.163708], [21.364956, -34.166785], [21.517445, -34.166785], [21.669933, -34.17294], [21.92656, -34.1914], [22.14221, -34.199244]]]}}
]
}
