{
"type": "FeatureCollection",
"features": [
{"type": "Feature", "properties": {"ProjectID": "P2479"}, "geometry": {"type": "LineString", "coordinates": [[120.335999, 22.5296], [120.388001, 22.5879], [120.367996, 22.6562], [120.332001, 22.711399], [120.322998, 22.7201], [120.313003, 22.781099], [120.309998, 22.842699], [120.306, 22.8946], [120.292, 22.9573], [120.283997, 22.986799], [120.280998, 23.0289], [120.265999, 23.121], [120.252998, 23.193001], [120.315002, 23.194799], [120.335999, 23.199301], [120.350998, 23.207399], [120.361, 23.2204], [120.353996, 23.349899], [120.355003, 23.4741], [120.356003, 23.607201], [120.358002, 23.661501], [120.380997, 23.6884], [120.401001, 23.715401], [120.418999, 23.7542], [120.428001, 23.7955], [120.431, 23.828699], [120.436997, 23.8706], [120.452004, 23.916401], [120.473, 23.989401], [120.486, 24.0128], [120.516998, 24.054001], [120.584, 24.1338], [120.641998, 24.1828], [120.643997, 24.2586], [120.768997, 24.4378], [120.726997, 24.4743], [120.744003, 24.492701], [120.765999, 24.498699], [120.787003, 24.502501], [120.873001, 24.4993], [120.900002, 24.502501], [120.917, 24.5107], [120.928001, 24.5291], [120.940002, 24.559], [120.952004, 24.5683], [120.988998, 24.690901], [121.003998, 24.7701], [121.087997, 24.8449], [121.128998, 24.8986], [121.163002, 24.932699], [121.265999, 24.978701], [121.319, 24.9944], [121.288002, 25.0523]]}}
]
}
