{
"type": "FeatureCollection",
"features": [
{"type": "Feature", "properties": {"ProjectID": "P2475", "id": 1, "Name": "Secunda-Durban Lilly Gas Pipeline", "Type": "Main"}, "geometry": {"type": "MultiLineString", "coordinates": [[[29.14458, -26.562479], [29.14458, -26.562479], [29.14458, -26.562479], [29.150113, -26.580321], [29.275499, -26.812977], [29.306042, -26.86318], [29.343015, -26.91336], [29.381595, -27.01079], [29.487691, -27.151055], [29.548777, -27.211115], [29.770614, -27.348272], [29.85099, -27.353984], [29.92172, -27.550841], [29.976376, -27.681883], [30.008526, -27.718888], [30.191783, -27.775795], [30.648317, -27.852571], [30.780134, -27.923613], [30.831574, -27.988929], [31.088777, -28.1563], [31.185228, -28.19881], [31.268818, -28.210143], [31.464935, -28.215809], [31.513161, -28.295104], [31.564601, -28.309257], [31.664267, -28.363023], [31.796083, -28.521334], [31.853954, -28.594754], [31.902179, -28.704789], [32.107941, -28.752717], [31.626195, -28.973442]]]}},
{"type": "Feature", "properties": {"ProjectID": "P2475", "id": 2, "Name": "Richards Bay-Durban", "Type": "Secondary"}, "geometry": {"type": "MultiLineString", "coordinates": [[[31.626195, -28.973442], [31.242204, -29.250578], [30.991775, -29.483376], [30.941689, -29.686636], [31.03236, -29.867832]]]}}
]
}
