{
"type": "FeatureCollection",
"features": [
{"type": "Feature", "properties": {"ProjectID": "P2485"}, "geometry": {"type": "LineString", "coordinates": [[37.005, 39.746], [37.001, 39.655], [37.023, 39.41], [37.224, 39.285], [37.389, 39.183], [37.531, 39.122], [37.648, 38.967], [37.667, 38.871], [37.957, 38.596], [37.981, 38.567], [38.04, 38.554], [38.048, 38.506], [37.997, 38.404], [37.898, 38.222], [37.897, 38.067], [37.965, 37.983], [37.881, 37.905], [37.701, 37.844], [37.495, 37.726], [37.242, 37.558], [37.079, 37.523], [36.882, 37.415], [36.835, 37.389], [36.768, 37.38], [36.695, 37.322], [36.591, 37.311], [36.486, 37.247], [36.282, 37.235], [36.157, 37.139], [35.988, 37.075], [35.924, 37.039], [35.517, 37.01], [35.3, 36.984], [35.053, 36.934], [34.65, 36.81]]}}
]
}
