{
"type": "FeatureCollection",
"features": [
{"type": "Feature", "properties": {"ProjectID": "P2502"}, "geometry": {"type": "MultiLineString", "coordinates": [[[-80.777018, 39.754838], [-80.296121, 39.855299], [-80.270811, 39.861775], [-80.215972, 39.865013]], [[-80.215972, 39.835866], [-80.215972, 39.865013], [-80.161133, 40.004099], [-80.131604, 40.026715], [-80.106294, 40.046093], [-80.102075, 40.049322], [-80.06411, 40.05578], [-80.034581, 40.068694], [-79.95865, 40.123552], [-79.929122, 40.1558], [-79.895374, 40.188034]]]}}
]
}
