{
"type": "FeatureCollection",
"features": [
{"type": "Feature", "properties": {"ProjectID": "P2536", "PrjName": "Evangeline Pass Expansion Project", "OGW_ID": "3292", "Res": "Unknown", "DataSrce": "FERC Application", "SrceDate": 2020, "SrceLink": "https://elibrary.ferc.gov/eLibrary/filelist?accession_number=20200306-5036&optimized=false", "DigName": "KE", "Method": "Georeferenced", "DigDate": "2022-08-03", "Notes": null, "Shape_Leng": 24677.4289158, "Additional": 1100.0, "AffectedSt": "LA, MS", "Miles": 13.1, "PipelineDi": "36", "ProductTyp": "Natural Gas", "ProductUni": "MMscf/d", "ProjectTyp": "Expansion", "Mile_check": 13}, "geometry": {"type": "MultiLineString", "coordinates": [[[-89.749275, 29.497412], [-89.757207, 29.492293], [-89.771236, 29.483792], [-89.783592, 29.476229], [-89.803556, 29.463405]], [[-89.83003, 29.863961], [-89.829987, 29.862435], [-89.829578, 29.861537], [-89.828406, 29.858794], [-89.826161, 29.858794], [-89.826359, 29.850295], [-89.825373, 29.850268], [-89.821519, 29.853405], [-89.817253, 29.853544], [-89.808874, 29.853484], [-89.801153, 29.853457], [-89.799278, 29.852972], [-89.794024, 29.851079], [-89.789154, 29.849225], [-89.786386, 29.848138], [-89.784015, 29.84752], [-89.781929, 29.847325], [-89.779463, 29.847234], [-89.777489, 29.847132], [-89.775302, 29.847226], [-89.773557, 29.847501], [-89.771774, 29.84835], [-89.770367, 29.848953], [-89.768551, 29.850613], [-89.766134, 29.852287], [-89.763018, 29.854452], [-89.758929, 29.857067], [-89.754832, 29.857439], [-89.748871, 29.857707], [-89.739952, 29.85794], [-89.732452, 29.858], [-89.729165, 29.857925], [-89.726758, 29.858023], [-89.725166, 29.857865], [-89.722298, 29.857112], [-89.719503, 29.857027], [-89.717644, 29.857113], [-89.715394, 29.856921], [-89.71275, 29.856354], [-89.710155, 29.855549], [-89.706778, 29.854186], [-89.702295, 29.852417], [-89.700408, 29.851453], [-89.701096, 29.85058], [-89.700042, 29.850076]]]}}
]
}
