{
"type": "FeatureCollection",
"features": [
{"type": "Feature", "properties": {"ProjectID": "P2551"}, "geometry": {"type": "MultiLineString", "coordinates": [[[-74.684105, 40.452952], [-74.680887, 40.444448], [-74.680352, 40.436191], [-74.680118, 40.428356], [-74.680787, 40.421785], [-74.680303, 40.414601], [-74.682301, 40.409389], [-74.686783, 40.406148], [-74.689507, 40.401452], [-74.689352, 40.398234], [-74.684364, 40.396763], [-74.684627, 40.387625], [-74.682813, 40.364582]], [[-74.838588, 40.581678], [-74.832792, 40.578892], [-74.826793, 40.575613], [-74.823063, 40.569998], [-74.818043, 40.567235], [-74.806757, 40.562926], [-74.786958, 40.553727], [-74.775361, 40.550242], [-74.753971, 40.54113], [-74.751018, 40.539124], [-74.74865, 40.538147], [-74.743716, 40.53824], [-74.728657, 40.531285]], [[-76.068064, 41.116836], [-76.055359, 41.116526], [-76.038607, 41.117016], [-76.032804, 41.115793], [-76.021019, 41.116381], [-76.014941, 41.116754], [-76.009362, 41.117468], [-75.997611, 41.117115], [-75.989712, 41.117338]], [[-75.672625, 41.176856], [-75.654685, 41.16223], [-75.644873, 41.154211], [-75.637797, 41.148907], [-75.636174, 41.142411], [-75.628563, 41.137701], [-75.625503, 41.135861], [-75.622445, 41.135676], [-75.620749, 41.134366], [-75.619794, 41.131087], [-75.619667, 41.128931], [-75.609783, 41.121131], [-75.609284, 41.119132], [-75.606597, 41.117135], [-75.603994, 41.116575], [-75.583285, 41.099349], [-75.581055, 41.098632], [-75.572255, 41.091298], [-75.569818, 41.0903], [-75.531668, 41.058904]]]}}
]
}
