{
"type": "FeatureCollection",
"features": [
{"type": "Feature", "properties": {"ProjectID": "P2613"}, "geometry": {"type": "LineString", "coordinates": [[-111.166966, 32.175396], [-111.170546, 32.162061], [-111.172694, 32.146906], [-111.199187, 32.147513], [-111.201335, 32.108705], [-111.257901, 32.085048], [-111.272937, 32.080195], [-111.316615, 32.045607], [-111.326639, 32.045], [-111.350984, 32.011613], [-111.367452, 31.986717], [-111.386069, 31.960598], [-111.389649, 31.953308], [-111.393229, 31.94541], [-111.396093, 31.936904], [-111.397525, 31.92475], [-111.397525, 31.908948], [-111.395377, 31.898614], [-111.397525, 31.891927], [-111.393945, 31.883416], [-111.395377, 31.879768], [-111.395377, 31.870647], [-111.394124, 31.862894], [-111.394482, 31.858941], [-111.396272, 31.853467], [-111.39663, 31.844952], [-111.398779, 31.841607], [-111.404865, 31.840998], [-111.412741, 31.834611], [-111.414531, 31.830049], [-111.424913, 31.824878], [-111.442456, 31.816664], [-111.456418, 31.809058], [-111.466443, 31.804495], [-111.470381, 31.801148], [-111.482195, 31.796584], [-111.500454, 31.78464], [-111.520861, 31.764552], [-111.521935, 31.743852], [-111.522651, 31.733195], [-111.527305, 31.717665], [-111.531959, 31.69939], [-111.538761, 31.675628], [-111.538403, 31.66923], [-111.552008, 31.651251], [-111.575636, 31.615587], [-111.582439, 31.606592], [-111.582797, 31.536743], [-111.588525, 31.536743], [-111.585661, 31.53186], [-111.583513, 31.529114], [-111.583155, 31.519348], [-111.586019, 31.517517], [-111.586019, 31.514465], [-111.582439, 31.509582], [-111.571888, 31.491108]]}}
]
}
