{
"type": "FeatureCollection",
"features": [
{"type": "Feature", "properties": {"ProjectID": "P2712", "OBJECTID": 227, "NOMBRE": "GASODUCTO PATAGÓNICO - ALTO RIO SENGUERR D", "longitud_km": 17.8, "pais": "ARGENTINA", "Shape__Length": 0.21400072632032877}, "geometry": {"type": "LineString", "coordinates": [[-70.616283, -45.003306], [-70.616327, -45.00331], [-70.616236, -45.003549], [-70.616692, -45.003653], [-70.647111, -45.010417], [-70.651789, -45.011419], [-70.760772, -45.009128], [-70.780513, -45.008764], [-70.798838, -45.008248], [-70.804245, -45.019754], [-70.810066, -45.031947], [-70.8116, -45.035338], [-70.811351, -45.035397]]}},
{"type": "Feature", "properties": {"ProjectID": "P2712", "OBJECTID": 357, "NOMBRE": "SIN INFORMACIÓN", "longitud_km": 21.3, "pais": "ARGENTINA", "Shape__Length": 0.2574589361894387}, "geometry": {"type": "LineString", "coordinates": [[-70.722333, -44.09807], [-70.72203, -44.098064], [-70.692711, -44.092408], [-70.65597, -44.085246], [-70.649981, -44.083533], [-70.633475, -44.0832], [-70.618848, -44.082874], [-70.617971, -44.082826], [-70.613583, -44.081905], [-70.589607, -44.076967], [-70.552209, -44.069721], [-70.551388, -44.069469], [-70.54553, -44.066605], [-70.538396, -44.063028], [-70.535628, -44.061671], [-70.531497, -44.060013], [-70.527592, -44.058386], [-70.525913, -44.057719], [-70.51443, -44.05882], [-70.51413, -44.058847], [-70.508368, -44.059389], [-70.498777, -44.06026], [-70.487487, -44.061343], [-70.484703, -44.061594], [-70.483888, -44.061359], [-70.483534, -44.061127], [-70.483394, -44.060954], [-70.483115, -44.060152], [-70.483083, -44.059917], [-70.482826, -44.058093], [-70.482606, -44.057708], [-70.480004, -44.054936], [-70.47921, -44.054138], [-70.475852, -44.051227]]}},
{"type": "Feature", "properties": {"ProjectID": "P2712", "OBJECTID": 370, "NOMBRE": "SIN INFORMACIÓN", "longitud_km": 55.6, "pais": "ARGENTINA", "Shape__Length": 0.6471697458122259}, "geometry": {"type": "LineString", "coordinates": [[-70.858571, -43.657097], [-70.859287, -43.657004], [-70.951488, -43.645175], [-70.958827, -43.644911], [-70.96992, -43.64297], [-70.979726, -43.641681], [-70.995712, -43.639678], [-71.007535, -43.638172], [-71.020753, -43.636541], [-71.036868, -43.634382], [-71.037533, -43.633668], [-71.045516, -43.625514], [-71.052811, -43.621724], [-71.055064, -43.619984], [-71.056083, -43.618617], [-71.056545, -43.618097], [-71.0603, -43.615712], [-71.063991, -43.61276], [-71.068883, -43.611393], [-71.071501, -43.611222], [-71.088967, -43.607463], [-71.10255, -43.604417], [-71.11433, -43.594907], [-71.124144, -43.586476], [-71.124421, -43.586251], [-71.125062, -43.58594], [-71.133964, -43.581836], [-71.138921, -43.579505], [-71.162775, -43.564415], [-71.171845, -43.563308], [-71.178091, -43.560309], [-71.182597, -43.554465], [-71.188475, -43.546687], [-71.188997, -43.540281], [-71.191724, -43.536762], [-71.194389, -43.534813], [-71.194903, -43.534426], [-71.19507, -43.532819], [-71.203298, -43.528638], [-71.207446, -43.526068], [-71.211449, -43.523758], [-71.217038, -43.518801], [-71.218564, -43.517403], [-71.219902, -43.515722], [-71.22182, -43.514781], [-71.227773, -43.510507], [-71.234165, -43.508913], [-71.23888, -43.505784], [-71.242375, -43.505074], [-71.248588, -43.504378], [-71.254481, -43.504291], [-71.262152, -43.504509], [-71.266966, -43.502784], [-71.266607, -43.501596], [-71.269863, -43.499973], [-71.272839, -43.498394], [-71.274537, -43.497698], [-71.275736, -43.496771], [-71.279232, -43.495756], [-71.282248, -43.496032], [-71.283191, -43.496063], [-71.285058, -43.49583], [-71.286066, -43.495913], [-71.287982, -43.494003], [-71.291058, -43.493003], [-71.292696, -43.492844], [-71.294034, -43.492278], [-71.307359, -43.48922], [-71.313232, -43.489641], [-71.315335, -43.490329], [-71.317284, -43.491083], [-71.321662, -43.492844], [-71.327118, -43.494295], [-71.327774, -43.495075], [-71.331149, -43.495958], [-71.334178, -43.496628], [-71.336724, -43.497148], [-71.33816, -43.497685], [-71.344415, -43.500625], [-71.347865, -43.502736], [-71.348002, -43.50283], [-71.348283, -43.50287], [-71.362973, -43.504306], [-71.365895, -43.504422], [-71.367091, -43.504262], [-71.367499, -43.504301], [-71.368271, -43.504507], [-71.368641, -43.504546], [-71.37157, -43.504457], [-71.372386, -43.504497], [-71.373748, -43.504713], [-71.375878, -43.504755], [-71.394426, -43.50561], [-71.396693, -43.506776], [-71.400189, -43.50737], [-71.407265, -43.5067], [-71.408459, -43.506609], [-71.410157, -43.506849], [-71.414742, -43.507247], [-71.417958, -43.508848], [-71.423881, -43.510442], [-71.426088, -43.51042], [-71.428655, -43.510862], [-71.435407, -43.512868], [-71.44142, -43.515353], [-71.443148, -43.517164], [-71.445196, -43.518062], [-71.446324, -43.519184]]}},
{"type": "Feature", "properties": {"ProjectID": "P2712", "OBJECTID": 391, "NOMBRE": "GASODUCTO SAN MARTIN (BRANCH)", "longitud_km": 30.1, "pais": "ARGENTINA", "Shape__Length": 0.3832684414967241}, "geometry": {"type": "LineString", "coordinates": [[-68.170621, -45.923329], [-68.348789, -45.902559], [-68.348973, -45.902524], [-68.351485, -45.901715], [-68.351682, -45.901679], [-68.356763, -45.901625], [-68.413768, -45.894937], [-68.414255, -45.894879], [-68.473507, -45.887847], [-68.478934, -45.887608], [-68.484814, -45.886507], [-68.492588, -45.885675], [-68.497566, -45.885705], [-68.504598, -45.885073], [-68.515934, -45.882807], [-68.529066, -45.881194], [-68.534681, -45.881698], [-68.540197, -45.882311], [-68.541298, -45.882387], [-68.542258, -45.881924], [-68.543222, -45.88101], [-68.545123, -45.879171], [-68.546206, -45.878096], [-68.547805, -45.876636], [-68.548618, -45.875825]]}},
{"type": "Feature", "properties": {"ProjectID": "P2712", "OBJECTID": 470, "NOMBRE": "GASODUCTO PATAGÓNICO T", "longitud_km": 481.6, "pais": "ARGENTINA", "Shape__Length": 4.982580885555596}, "geometry": {"type": "LineString", "coordinates": [[-68.551077, -45.873689], [-68.551909, -45.872916], [-68.558861, -45.86942], [-68.561168, -45.868826], [-68.566629, -45.868534], [-68.568538, -45.868198], [-68.569622, -45.868975], [-68.572905, -45.870977], [-68.575775, -45.871758], [-68.576639, -45.872124], [-68.577121, -45.872621], [-68.578039, -45.873857], [-68.57843, -45.874066], [-68.579192, -45.874148], [-68.579766, -45.874257], [-68.580281, -45.874544], [-68.581858, -45.875601], [-68.584074, -45.876202], [-68.585797, -45.87629], [-68.586315, -45.87663], [-68.590001, -45.879149], [-68.594062, -45.881502], [-68.59513, -45.881998], [-68.597651, -45.883178], [-68.601723, -45.885176], [-68.602334, -45.885344], [-68.602688, -45.885221], [-68.604062, -45.885019], [-68.605113, -45.884668], [-68.609136, -45.88363], [-68.610532, -45.883292], [-68.611219, -45.883322], [-68.611798, -45.883472], [-68.612442, -45.8838], [-68.613236, -45.883935], [-68.613965, -45.884054], [-68.614824, -45.884383], [-68.616181, -45.884898], [-68.617184, -45.885279], [-68.623771, -45.887251], [-68.628585, -45.888887], [-68.629307, -45.889133], [-68.632247, -45.890029], [-68.635058, -45.890761], [-68.642783, -45.893479], [-68.657642, -45.898384], [-68.67445, -45.903695], [-68.681814, -45.906022], [-68.687672, -45.907888], [-68.693638, -45.910128], [-68.698616, -45.911681], [-68.699453, -45.912039], [-68.699646, -45.912397], [-68.700772, -45.91451], [-68.701201, -45.914898], [-68.702489, -45.915286], [-68.70751, -45.91657], [-68.70957, -45.917018], [-68.714505, -45.919048], [-68.722788, -45.923795], [-68.723732, -45.924213], [-68.731929, -45.926302], [-68.736513, -45.928097], [-68.739924, -45.92967], [-68.764747, -45.940436], [-68.765897, -45.940719], [-68.793482, -45.946763], [-68.827456, -45.954196], [-68.849285, -45.959306], [-68.871056, -45.964402], [-68.908862, -45.965678], [-68.970827, -45.968749], [-68.972152, -45.968834], [-68.977944, -45.968917], [-68.978891, -45.968926], [-68.999222, -45.969195], [-69.019203, -45.969624], [-69.074897, -45.970847], [-69.075379, -45.971137], [-69.080765, -45.971361], [-69.089992, -45.974239], [-69.100909, -45.976547], [-69.106445, -45.977755], [-69.109127, -45.978243], [-69.111814, -45.97862], [-69.269142, -46.001694], [-69.270687, -46.00071], [-69.278718, -46.003106], [-69.286834, -46.009139], [-69.290901, -46.012149], [-69.291618, -46.012677], [-69.303634, -46.021558], [-69.308379, -46.025033], [-69.315019, -46.029895], [-69.328439, -46.039792], [-69.334159, -46.043838], [-69.349867, -46.047323], [-69.356647, -46.048604], [-69.362054, -46.049765], [-69.36287, -46.049795], [-69.36596, -46.049229], [-69.369103, -46.048663], [-69.373685, -46.04771], [-69.381321, -46.046161], [-69.400333, -46.042616], [-69.408916, -46.040918], [-69.424795, -46.03785], [-69.449128, -46.033173], [-69.454408, -46.032198], [-69.461873, -46.030819], [-69.473257, -46.028666], [-69.473847, -46.028554], [-69.488696, -46.025724], [-69.500486, -46.023525], [-69.521054, -46.019466], [-69.546449, -46.014614], [-69.548249, -46.014295], [-69.553798, -46.011538], [-69.56649, -46.005553], [-69.57812, -46.000012], [-69.601262, -45.989031], [-69.620016, -45.980204], [-69.631335, -45.974782], [-69.64495, -45.968335], [-69.660647, -45.960912], [-69.6713, -45.955895], [-69.691213, -45.946436], [-69.708508, -45.938409], [-69.713685, -45.935847], [-69.719666, -45.932887], [-69.72876, -45.928343], [-69.739321, -45.923067], [-69.74799, -45.918588], [-69.749774, -45.917772], [-69.761912, -45.911748], [-69.762324, -45.911542], [-69.7739, -45.905963], [-69.787644, -45.899448], [-69.788408, -45.898991], [-69.801506, -45.892699], [-69.801623, -45.892643], [-69.820474, -45.883497], [-69.837157, -45.875435], [-69.837695, -45.875173], [-69.851277, -45.868563], [-69.858668, -45.865051], [-69.871157, -45.861087], [-69.879769, -45.858435], [-69.879976, -45.858337], [-69.88007, -45.858155], [-69.879783, -45.854661], [-69.879942, -45.85435], [-69.882824, -45.850901], [-69.884121, -45.849348], [-69.884669, -45.848672], [-69.885279, -45.847909], [-69.885589, -45.847511], [-69.885744, -45.847341], [-69.886805, -45.846448], [-69.889724, -45.844256], [-69.890433, -45.843678], [-69.892667, -45.842548], [-69.898954, -45.839253], [-69.909775, -45.833654], [-69.914831, -45.830923], [-69.927545, -45.824256], [-69.929512, -45.823238], [-69.9337, -45.82102], [-69.940096, -45.817683], [-69.957387, -45.808637], [-69.961226, -45.806629], [-69.974615, -45.799577], [-70.019339, -45.776016], [-70.024835, -45.77312], [-70.02559, -45.772722], [-70.046264, -45.761868], [-70.049271, -45.760289], [-70.074639, -45.746966], [-70.085566, -45.741194], [-70.107082, -45.729828], [-70.156127, -45.703911], [-70.157196, -45.703346], [-70.181187, -45.690663], [-70.188225, -45.686942], [-70.204349, -45.67845], [-70.209606, -45.675685], [-70.220215, -45.670886], [-70.222264, -45.669857], [-70.228779, -45.659991], [-70.228736, -45.659392], [-70.227835, -45.657592], [-70.228007, -45.656812], [-70.23895, -45.641842], [-70.239293, -45.641032], [-70.239637, -45.640192], [-70.240223, -45.639904], [-70.241182, -45.639442], [-70.242383, -45.637671], [-70.290635, -45.570648], [-70.306277, -45.548799], [-70.322654, -45.526627], [-70.401244, -45.422258], [-70.402782, -45.419119], [-70.418737, -45.384767], [-70.428586, -45.364177], [-70.446374, -45.326429], [-70.448885, -45.321194], [-70.450494, -45.318523], [-70.455945, -45.309183], [-70.478497, -45.270779], [-70.537897, -45.165089], [-70.551032, -45.141385], [-70.605429, -45.043774], [-70.606052, -45.042645], [-70.606749, -45.041432], [-70.615096, -45.020019], [-70.615718, -45.003401], [-70.616231, -45.003416], [-70.616283, -45.003306], [-70.616365, -45.003131], [-70.615748, -45.002875], [-70.616754, -44.977937], [-70.617022, -44.974442], [-70.618551, -44.939392], [-70.622276, -44.860341], [-70.622392, -44.85777], [-70.622172, -44.856333], [-70.622027, -44.855344], [-70.621925, -44.854462], [-70.62089, -44.84592], [-70.619409, -44.833421], [-70.618417, -44.825298], [-70.617081, -44.814305], [-70.614999, -44.796858], [-70.610751, -44.76172], [-70.610697, -44.761179], [-70.607693, -44.735973], [-70.607425, -44.733732], [-70.607275, -44.732475], [-70.606728, -44.728191], [-70.606277, -44.723838], [-70.605333, -44.716375], [-70.604528, -44.709681], [-70.601782, -44.686749], [-70.601315, -44.682759], [-70.601063, -44.680677], [-70.600494, -44.675809], [-70.599609, -44.668897], [-70.599502, -44.667722], [-70.599362, -44.666513], [-70.599132, -44.6647], [-70.598906, -44.662907], [-70.598456, -44.659282], [-70.598236, -44.657844], [-70.596932, -44.6467], [-70.595693, -44.636399], [-70.592051, -44.605532], [-70.590495, -44.592477], [-70.589696, -44.585906], [-70.588784, -44.578172], [-70.58821, -44.573556], [-70.587166, -44.564788], [-70.58534, -44.549615], [-70.584969, -44.546273], [-70.58578, -44.54336], [-70.591745, -44.522584], [-70.600634, -44.491355], [-70.601782, -44.487359], [-70.604464, -44.478166], [-70.608315, -44.464829], [-70.610665, -44.456651], [-70.611652, -44.45332], [-70.611438, -44.449265], [-70.611126, -44.443508], [-70.610912, -44.43951], [-70.610708, -44.436231], [-70.610585, -44.429129], [-70.610386, -44.423345], [-70.610311, -44.419253], [-70.610107, -44.412976], [-70.609839, -44.407305], [-70.609925, -44.403151], [-70.610005, -44.399065], [-70.609992, -44.398082], [-70.609919, -44.397789], [-70.609665, -44.397235], [-70.60912, -44.395822], [-70.608594, -44.394347], [-70.611024, -44.390283], [-70.611019, -44.389774], [-70.611046, -44.388589], [-70.611096, -44.388088], [-70.612904, -44.380218], [-70.617671, -44.376002], [-70.622109, -44.371356], [-70.626581, -44.36665], [-70.630613, -44.361947], [-70.63067, -44.361633], [-70.62718, -44.351597], [-70.612857, -44.333191], [-70.611495, -44.323046], [-70.606517, -44.310076], [-70.604122, -44.278109], [-70.604677, -44.272833], [-70.604875, -44.272255], [-70.60817, -44.265916], [-70.624885, -44.233748], [-70.625341, -44.233247], [-70.625991, -44.232816], [-70.655076, -44.22072], [-70.65827, -44.218364], [-70.668273, -44.206347], [-70.671278, -44.200994], [-70.673157, -44.194327], [-70.674331, -44.19032], [-70.679356, -44.184225], [-70.686118, -44.169506], [-70.688232, -44.164386], [-70.689743, -44.162866], [-70.690041, -44.162521], [-70.692928, -44.157244], [-70.694337, -44.150774], [-70.697487, -44.145988], [-70.698153, -44.144992], [-70.698588, -44.144249], [-70.700068, -44.142659], [-70.706731, -44.135345], [-70.707745, -44.132907], [-70.708265, -44.131903], [-70.712964, -44.121052], [-70.713383, -44.120158], [-70.717041, -44.11026], [-70.717578, -44.107425], [-70.719466, -44.103435], [-70.722706, -44.098523], [-70.722885, -44.098273], [-70.722921, -44.098223], [-70.723559, -44.097163], [-70.723758, -44.096855], [-70.740988, -44.069303], [-70.744593, -44.064708], [-70.763615, -44.040388], [-70.765766, -44.037512], [-70.77605, -44.024082], [-70.778432, -44.014724], [-70.779237, -44.011521], [-70.779054, -44.01119], [-70.779301, -44.0097], [-70.782841, -44.005433], [-70.791982, -43.999116], [-70.791993, -43.998757], [-70.791779, -43.998005], [-70.791805, -43.997604], [-70.792664, -43.997036], [-70.794557, -43.996102], [-70.795249, -43.996018], [-70.795458, -43.995973], [-70.820124, -43.985464], [-70.821926, -43.984414], [-70.841528, -43.96985], [-70.847032, -43.96576], [-70.847461, -43.965204], [-70.849864, -43.951766], [-70.850336, -43.950654], [-70.861131, -43.934021], [-70.869047, -43.921821], [-70.870721, -43.9191], [-70.873028, -43.908186], [-70.879261, -43.881529], [-70.883853, -43.861111], [-70.886578, -43.849104], [-70.886696, -43.848407], [-70.886332, -43.847556], [-70.88381, -43.84214], [-70.879433, -43.829138], [-70.878832, -43.827497], [-70.876901, -43.814276], [-70.874669, -43.801764], [-70.872395, -43.787561], [-70.870785, -43.777646], [-70.870592, -43.776306], [-70.870657, -43.776011], [-70.870818, -43.775825], [-70.871858, -43.775407], [-70.87203, -43.775229], [-70.872116, -43.775012], [-70.872051, -43.774787], [-70.871982, -43.774501], [-70.865528, -43.73859], [-70.862481, -43.722418], [-70.859456, -43.705994], [-70.858104, -43.698346], [-70.858131, -43.697863], [-70.858329, -43.697677], [-70.859166, -43.697095], [-70.859233, -43.69704], [-70.859361, -43.696872], [-70.8586, -43.670384], [-70.858376, -43.660951], [-70.858327, -43.657019], [-70.858115, -43.6566], [-70.857021, -43.655849], [-70.853139, -43.652978], [-70.851774, -43.619666], [-70.851501, -43.613026], [-70.850819, -43.597759], [-70.850757, -43.594501], [-70.850766, -43.594141], [-70.848067, -43.528762], [-70.84806, -43.528589], [-70.84671, -43.494093], [-70.852003, -43.482106], [-70.851985, -43.480606], [-70.852007, -43.478983], [-70.85201, -43.478692], [-70.852649, -43.478263], [-70.853046, -43.477888], [-70.8539, -43.476705], [-70.855423, -43.474501], [-70.858005, -43.470768], [-70.859368, -43.468873], [-70.860472, -43.467271], [-70.860808, -43.465758], [-70.861112, -43.464016], [-70.86473, -43.45788], [-70.870333, -43.453203], [-70.875266, -43.448914], [-70.884852, -43.440663], [-70.889871, -43.436356], [-70.892148, -43.421521], [-70.894158, -43.408134], [-70.895242, -43.400356], [-70.890017, -43.386831], [-70.888616, -43.38183], [-70.887422, -43.377545], [-70.886947, -43.375269], [-70.888848, -43.369124], [-70.888799, -43.363156], [-70.889383, -43.336424], [-70.897155, -43.327139], [-70.897934, -43.321893], [-70.898227, -43.313297], [-70.896058, -43.305994], [-70.894804, -43.299487], [-70.894487, -43.297129], [-70.891552, -43.292563], [-70.890187, -43.290338], [-70.890133, -43.287634], [-70.890303, -43.283586], [-70.890321, -43.283325], [-70.897191, -43.279565], [-70.905328, -43.275007], [-70.905316, -43.27216], [-70.909603, -43.256842], [-70.901454, -43.241315], [-70.900258, -43.239277], [-70.900178, -43.239088], [-70.898884, -43.236426], [-70.892611, -43.224631], [-70.882319, -43.205022], [-70.880589, -43.201834], [-70.878738, -43.196906], [-70.8778, -43.194509], [-70.871868, -43.185406], [-70.872489, -43.181312], [-70.872574, -43.180837], [-70.87197, -43.17881], [-70.874021, -43.171478], [-70.885811, -43.160483], [-70.887711, -43.158455], [-70.889989, -43.155297], [-70.897475, -43.148835], [-70.903829, -43.142895], [-70.911039, -43.136009], [-70.922024, -43.131684], [-70.925748, -43.126165], [-70.929561, -43.119617], [-70.933046, -43.108705], [-70.938608, -43.101246], [-70.940294, -43.098719], [-70.942672, -43.097084], [-70.946039, -43.094924], [-70.967823, -43.079033], [-70.977532, -43.071941], [-70.978598, -43.07111], [-70.979742, -43.070251], [-70.998498, -43.056377], [-71.019269, -43.041198], [-71.029173, -43.033788], [-71.036218, -43.028639], [-71.037527, -43.027743], [-71.047071, -43.020714], [-71.058093, -43.01255], [-71.064839, -43.007598], [-71.066379, -43.006311], [-71.066301, -43.005964], [-71.065834, -43.005285], [-71.065941, -43.004955], [-71.084164, -42.988816], [-71.084467, -42.988547], [-71.084502, -42.988516], [-71.087785, -42.985714], [-71.091605, -42.982214], [-71.103219, -42.97204], [-71.10859, -42.96718], [-71.113966, -42.96239], [-71.113988, -42.962369], [-71.121839, -42.955302], [-71.127133, -42.950665], [-71.129043, -42.949079], [-71.13091, -42.947347], [-71.132192, -42.946279], [-71.132664, -42.945753], [-71.151443, -42.929164], [-71.152222, -42.928474], [-71.155114, -42.92592], [-71.155779, -42.925307], [-71.156123, -42.92493], [-71.156681, -42.924584], [-71.160477, -42.921023], [-71.163987, -42.918102], [-71.164191, -42.917851], [-71.164912, -42.917348]]}},
{"type": "Feature", "properties": {"ProjectID": "P2712", "OBJECTID": 501, "NOMBRE": "SIN INFORMACIÓN", "longitud_km": 50.4, "pais": "ARGENTINA", "Shape__Length": 0.6191533360873108}, "geometry": {"type": "LineString", "coordinates": [[-71.328773, -44.187716], [-71.326439, -44.187766], [-71.323049, -44.188136], [-71.30834, -44.189959], [-71.301157, -44.190863], [-71.300792, -44.190813], [-71.292804, -44.189009], [-71.275585, -44.185235], [-71.262195, -44.183312], [-71.245179, -44.180111], [-71.233549, -44.179203], [-71.218893, -44.176372], [-71.21016, -44.174802], [-71.204345, -44.174617], [-71.159091, -44.167507], [-71.137269, -44.164105], [-71.112356, -44.160164], [-71.096499, -44.157686], [-71.076887, -44.154545], [-71.056223, -44.151266], [-71.052575, -44.150712], [-71.044035, -44.149711], [-71.030023, -44.15005], [-71.021547, -44.148911], [-71.016301, -44.148141], [-71.015239, -44.148156], [-71.014555, -44.147692], [-70.997059, -44.134975], [-70.982682, -44.133023], [-70.969126, -44.131171], [-70.912049, -44.12337], [-70.905601, -44.1225], [-70.89455, -44.121629], [-70.87467, -44.120081], [-70.869691, -44.119218], [-70.859928, -44.117593], [-70.85348, -44.116469], [-70.831958, -44.112741], [-70.825204, -44.111554], [-70.804503, -44.099532], [-70.800415, -44.099613], [-70.77531, -44.0962], [-70.751127, -44.098257], [-70.737169, -44.098496], [-70.723248, -44.098292], [-70.722937, -44.098292], [-70.722885, -44.098273]]}}
]
}
