{
"type": "FeatureCollection",
"features": [
{"type": "Feature", "properties": {"ProjectID": "P2719", "id": 1, "Name": "Iğdır-Nakhchivan Gas Pipeline"}, "geometry": {"type": "LineString", "coordinates": [[44.051981, 39.885604], [44.078388, 39.897601], [44.08638, 39.914126], [44.099583, 39.930114], [44.123905, 39.942636], [44.150035, 39.962323], [44.191897, 39.966907], [44.242398, 39.962323], [44.285589, 39.952136], [44.328781, 39.937872], [44.379946, 39.918509], [44.433105, 39.905257], [44.4713, 39.893536], [44.485251, 39.877479], [44.48847, 39.862242], [44.493836, 39.842881], [44.568981, 39.800615], [44.59658, 39.78675], [44.61091, 39.786342], [44.628955, 39.779001], [44.727724, 39.721224], [44.744273, 39.706535], [44.762095, 39.685966], [44.774101, 39.68562], [44.783352, 39.68843], [44.79163, 39.689741], [44.805263, 39.68843], [44.818409, 39.687306], [44.831312, 39.68487], [44.839346, 39.678125], [44.845675, 39.669506], [44.858335, 39.664446], [44.873429, 39.663322], [44.88341, 39.666695], [44.88901, 39.672691], [44.896557, 39.685058], [44.904347, 39.692177], [44.919441, 39.696672]]}}
]
}
