{
"type": "FeatureCollection",
"features": [
{"type": "Feature", "properties": {"ProjectID": "P2728"}, "geometry": {"type": "LineString", "coordinates": [[15.6673, 40.282], [15.5894, 40.269], [15.5267, 40.257], [15.5169, 40.249], [15.5143, 40.181], [15.5078, 40.111], [15.5119, 40.045], [15.5242, 39.971], [15.5269, 39.9], [15.5282, 39.866], [15.5459, 39.839], [15.569, 39.793], [15.5826, 39.772], [15.5989, 39.708], [15.6125, 39.633], [15.638, 39.417], [15.6489, 39.343], [15.6544, 39.289], [15.6544, 39.213], [15.6517, 39.142], [15.6462, 39.063], [15.6325, 38.993], [15.6051, 38.918], [15.5449, 38.812], [15.5217, 38.789], [15.4137, 38.695], [15.3621, 38.642], [15.3508, 38.629], [15.3088, 38.574], [15.2733, 38.505], [15.2427, 38.437], [15.2249, 38.374], [15.2233, 38.316], [15.2411, 38.26]]}}
]
}
