{"type": "FeatureCollection", "crs": {"type": "name", "properties": {"name": "urn:ogc:def:crs:OGC:1.3:CRS84"}}, "features": [{"type": "Feature", "properties": {"PipelineName": "Langtala-Pachpadra Gas Pipeline", "SegmentName": "", "Wiki": "https://www.gem.wiki/Langtala-Pachpadra_Gas_Pipeline", "ProjectID": "P2748", "Status": "cancelled", "LastUpdated": "2024-07-08", "Fuel": "Gas", "OtherEnglishNames": "", "OtherLanguagePrimaryPipelineName": "", "OtherLanguageSegmentName": "", "CountriesOrAreas": "India", "Owner": "GIGL [100.%]", "Parent": "Gujarat State Petroleum Corporation Ltd [93.60%]; unknown [6.40%]", "ParentEntityIDs": "E100001014774", "StartYear1": "", "StartYear2": "", "StartYear3": "", "ShelvedYear": "", "CancelledYear": "2022", "StopYear": "", "Capacity": "4.0", "CapacityUnits": "MMSCMD", "CapacityBcm/y": "1.46", "CapacityBOEd": "23532.0", "LengthKnownKm": "290.0", "LengthEstimateKm": "289.54", "LengthMergedKm": "290.0", "Diameter": "", "DiameterUnits": "", "FuelSource": "", "StartLocation": "Langtala", "StartPrefecture/District": "Jaisalmer", "StartState/Province": "Rajasthan", "StartCountryOrArea": "India", "StartRegion": "Asia", "StartSubRegion": "Southern Asia", "EndLocation": "Pachpadra", "EndPrefecture/District": "", "EndState/Province": "Rajasthan", "EndCountryOrArea": "India", "EndRegion": "Asia", "EndSubRegion": "Southern Asia", "ProjectLevelCost": "", "ProjectLevelCostUnits": "", "CostUSD": "--", "FIDStatus": "", "FIDYear": "", "PCI3": "", "PCI4": "", "PCI5": "", "PCI6": "", "RouteAccuracy": "medium", "RouteType": "Mapped route (at any accuracy)", "RouteCreator": "SZ", "PipelineStatus": "cancelled", "CapacityMapScale": "23532.0"}, "geometry": {"type": "LineString", "coordinates": [[69.68137, 27.161626], [70.279, 27.018], [70.508, 26.985], [70.836, 26.858], [70.949, 26.783], [71.133, 26.698], [71.309, 26.562], [71.427, 26.435], [71.527, 26.401], [71.672, 26.395], [71.715, 26.38], [71.747, 26.371], [71.807, 26.313], [71.906, 26.265], [71.935, 26.212], [72.121, 26.141], [72.194, 26.006], [72.17603415300546, 25.58670784484339], [72.10090846994534, 25.40022765159148], [71.662271, 25.315123]]}}]}