{
"type": "FeatureCollection",
"features": [
{"type": "Feature", "properties": {"ProjectID": "P2744"}, "geometry": {"type": "MultiLineString", "coordinates": [[[13.008, 55.6], [13.19, 55.7]], [[13.19, 55.7], [12.833, 55.87]], [[12.833, 55.87], [12.69, 56.045707]], [[12.69, 56.045707], [12.556, 56.2]], [[12.556, 56.2], [12.86, 56.24]], [[12.86, 56.24], [13.046, 56.505]], [[13.046, 56.505], [12.86, 56.67]], [[12.86, 56.67], [12.5, 56.9]], [[12.5, 56.9], [12.25, 57.1]], [[12.25, 57.1], [11.96, 57.709]], [[11.96, 57.709], [11.83, 58.06]]]}}
]
}
