{
"type": "FeatureCollection",
"features": [
{"type": "Feature", "properties": {"ProjectID": "P2752", "PipelineName": "Kondalapalli-Tirupati Gas Pipeline", "SegmentName": "", "Wiki": "https://www.gem.wiki/Kondalapalli-Tirupati_Gas_Pipeline", "Status": "cancelled", "LastUpdated": "2025-07-16", "Fuel": "Gas", "OtherEnglishNames": "", "OtherLanguagePrimaryPipelineName": "", "OtherLanguageSegmentName": "", "CountriesOrAreas": "India", "Owner": "GAIL (India) Ltd [100.%]", "Parent": "GAIL Ltd [100.00%]", "ParentEntityIDs": "E100000000513", "StartYear1": "", "StartYear2": "", "StartYear3": "", "ShelvedYear": "", "CancelledYear": "", "StopYear": "", "Capacity": "4.0", "CapacityUnits": "MMSCMD", "CapacityBcm/y": "1.46", "CapacityBOEd": "23532.0", "LengthKnownKm": "450.0", "LengthEstimateKm": "389.92", "LengthMergedKm": "450.0", "Diameter": "", "DiameterUnits": "", "FuelSource": "", "StartLocation": "Kondalapalli", "StartPrefecture/District": "Vijayawada", "StartState/Province": "Andhra Pradesh", "StartCountryOrArea": "India", "StartRegion": "Asia", "StartSubRegion": "Southern Asia", "EndLocation": "Tirupati", "EndPrefecture/District": "", "EndState/Province": "Andhra Pradesh", "EndCountryOrArea": "India", "EndRegion": "Asia", "EndSubRegion": "Southern Asia", "ProjectLevelCost": "", "ProjectLevelCostUnits": "", "CostUSD": "--", "FIDStatus": "", "FIDYear": "", "PCI3": "", "PCI4": "", "PCI5": "", "PCI6": "", "RouteAccuracy": "medium", "RouteType": "Mapped route (at any accuracy)", "RouteCreator": "WA", "PipelineStatus": "cancelled", "CapacityMapScale": "23532.0"}, "geometry": {"type": "LineString", "coordinates": [[80.939586, 16.663887], [80.908594, 16.520328], [80.872436, 16.441078], [80.696813, 16.376663], [80.598671, 16.317184], [80.386891, 16.118791], [80.350733, 15.974832], [80.324906, 15.885426], [80.195772, 15.736328], [80.092465, 15.641842], [80.012, 15.511], [79.953, 15.358], [79.885, 15.25], [79.893, 15.051], [79.870354, 14.884406], [79.942669, 14.689628], [79.999488, 14.589675], [80.020149, 14.344597], [80.040811, 14.154352], [80.056307, 13.918829], [80.107961, 13.698121], [80.159614, 13.59773], [80.288749, 13.406872], [80.320196, 13.215734]]}}
]
}
