{
"type": "FeatureCollection",
"features": [
{"type": "Feature", "properties": {"ProjectID": "P2760"}, "geometry": {"type": "LineString", "coordinates": [[15.216828, 41.403627], [15.271312, 41.384592], [15.27075, 41.358011], [15.283049, 41.33016], [15.339194, 41.309617], [15.42269, 41.250115], [15.524902, 41.156967], [15.651586, 41.095157], [15.71205, 41.07237], [15.749479, 41.048489], [16.305164, 40.844065], [16.411694, 40.798309], [16.537319, 40.773678], [16.618996, 40.739434], [16.878124, 40.67614], [16.950104, 40.614971], [17.042238, 40.59967], [17.065272, 40.575619]]}}
]
}
