{
"type": "FeatureCollection",
"features": [
{"type": "Feature", "properties": {"ProjectID": "P2763"}, "geometry": {"type": "LineString", "coordinates": [[4.688869, 52.534462], [4.676272, 52.552204], [4.670968, 52.571147], [4.662349, 52.591693], [4.672957, 52.61545], [4.691521, 52.625111], [4.699478, 52.641608], [4.727987, 52.650458], [4.736606, 52.662524], [4.727324, 52.682625], [4.710086, 52.691065], [4.685554, 52.726414], [4.708097, 52.744078], [4.721357, 52.764142], [4.735943, 52.779384], [4.762463, 52.799432], [4.808874, 52.815463], [4.786332, 52.842703], [4.755833, 52.863522], [4.759811, 52.888331], [4.777049, 52.910728], [4.812852, 52.932313]]}}
]
}
