{
"type": "FeatureCollection",
"features": [
{"type": "Feature", "properties": {"ProjectID": "P2796"}, "geometry": {"type": "LineString", "coordinates": [[15.28, 45.41], [15.289308, 45.38561], [15.290926, 45.363452], [15.29497, 45.339012], [15.295779, 45.307166], [15.299822, 45.271319], [15.294161, 45.242283], [15.287691, 45.229183], [15.286073, 45.207534], [15.294161, 45.188727], [15.311954, 45.175615], [15.329748, 45.166492], [15.363717, 45.143678], [15.393642, 45.104302], [15.404156, 45.087745], [15.43489, 45.061472], [15.453492, 45.035187], [15.454301, 45.009461], [15.438384, 44.997459], [15.434082, 44.986584], [15.439743, 44.96656], [15.458345, 44.937941], [15.460772, 44.908735], [15.465624, 44.894413], [15.483418, 44.872063], [15.482609, 44.849132], [15.474521, 44.835942], [15.456728, 44.808406], [15.451875, 44.794633], [15.44864, 44.775689], [15.441361, 44.754442], [15.439743, 44.740082], [15.445405, 44.713075], [15.457536, 44.702153], [15.489888, 44.663624], [15.497976, 44.642336], [15.497976, 44.603768], [15.493932, 44.572664], [15.510916, 44.547308], [15.523857, 44.540391], [15.56187, 44.524247], [15.589369, 44.51502], [15.634661, 44.489639], [15.66863, 44.47579], [15.697747, 44.438844], [15.718775, 44.403029], [15.759215, 44.379912], [15.812595, 44.351002], [15.838476, 44.327863], [15.86921, 44.28156], [15.86921, 44.236378], [15.828771, 44.214354], [15.802889, 44.172602], [15.812595, 44.145911], [15.835241, 44.114563], [15.825536, 44.087846], [15.789949, 44.064605], [15.763259, 44.051236], [15.745465, 44.032051], [15.726054, 44.004715]]}}
]
}
