{
"type": "FeatureCollection",
"features": [
{"type": "Feature", "properties": {"ProjectID": "P2797"}, "geometry": {"type": "LineString", "coordinates": [[22.4634, 38.73], [22.5902, 38.6737], [22.6424, 38.667], [22.7096, 38.662], [22.7113, 38.6418], [22.7348, 38.6149], [22.7769, 38.588], [22.7971, 38.5728], [22.8004, 38.5291], [22.8374, 38.5039], [22.8963, 38.4787], [22.9181, 38.4501], [22.9501, 38.4316], [22.9955, 38.398], [23.0241, 38.3946], [23.0526, 38.3946], [23.0846, 38.3862], [23.1233, 38.3795], [23.1569, 38.3761], [23.2023, 38.3358], [23.2309, 38.3156], [23.32, 38.326]]}}
]
}
