{
"type": "FeatureCollection",
"features": [
{"type": "Feature", "properties": {"ProjectID": "P2837"}, "geometry": {"type": "LineString", "coordinates": [[17.093479, 39.099573], [17.09092, 39.052381], [17.087546, 39.02618], [17.094293, 39.00128], [17.094293, 38.978994], [17.048754, 38.937025], [17.011647, 38.939649], [16.966108, 38.952766], [16.905389, 38.942272], [16.805877, 38.923904], [16.743471, 38.898968], [16.677692, 38.862205], [16.618659, 38.846444], [16.581553, 38.858265], [16.546134, 38.881902], [16.514087, 38.901594], [16.498908, 38.914718], [16.449724, 38.922041]]}}
]
}
