{
"type": "FeatureCollection",
"features": [
{"type": "Feature", "properties": {"ProjectID": "P2830"}, "geometry": {"type": "MultiLineString", "coordinates": [[[-3.7803, 38.189999], [-3.8595, 38.155583], [-3.89949, 38.149293], [-3.97748, 38.113117], [-4.00347, 38.108397], [-4.07346, 38.078496], [-4.16034, 38.058784], [-4.20343, 38.022962], [-4.29201, 38.013532], [-4.67982, 37.909726]], [[-3.7803, 38.19], [-3.386, 38.28]], [[-3.386, 38.280283], [-3.32188, 38.319698], [-3.31868, 38.335626], [-3.36783, 38.361605], [-3.386, 38.37166], [-3.38493, 38.457064], [-3.40523, 38.513107], [-3.39562, 38.574956], [-3.38386, 38.606695], [-3.38066, 38.645098], [-3.35501, 38.712669], [-3.35394, 38.817654], [-3.34967, 38.887558], [-3.32723, 38.913339], [-3.33257, 38.930798], [-3.34539, 38.959055], [-3.32865, 39.271137], [-3.34837, 39.319447], [-3.35012, 39.389864]]]}}
]
}
