{
"type": "FeatureCollection",
"features": [
{"type": "Feature", "properties": {"ProjectID": "P2848"}, "geometry": {"type": "LineString", "coordinates": [[5.648241, 51.744258], [5.684044, 51.712226], [5.70526, 51.702366], [5.710564, 51.684283], [5.715868, 51.661258], [5.73178, 51.648095], [5.737085, 51.623405], [5.739737, 51.598701], [5.747693, 51.585521], [5.774213, 51.569039], [5.806037, 51.550903], [5.83521, 51.534409], [5.851122, 51.52286], [5.882946, 51.493149], [5.893554, 51.476634], [5.898858, 51.460113], [5.906814, 51.44028], [5.917423, 51.422093], [5.946595, 51.400589], [5.946595, 51.379075], [5.965159, 51.345957], [5.978419, 51.327732], [5.999636, 51.311157], [6.028808, 51.286284], [6.042068, 51.269695], [6.065936, 51.241479], [6.089805, 51.224873], [6.097761, 51.211584], [6.087153, 51.189981], [6.060632, 51.168368], [6.063284, 51.143418], [6.063284, 51.125112], [6.065936, 51.11013], [6.065936, 51.098473], [6.047372, 51.081816], [6.028808, 51.071819], [5.943943, 51.028472], [5.912119, 51.016795]]}}
]
}
