{
"type": "FeatureCollection",
"features": [
{"type": "Feature", "properties": {"ProjectID": "P2865"}, "geometry": {"type": "LineString", "coordinates": [[5.689348, 51.805793], [5.722498, 51.828745], [5.743715, 51.845132], [5.786147, 51.864789], [5.833884, 51.872158], [5.902836, 51.877888], [5.934661, 51.873795], [5.954551, 51.877888], [5.965159, 51.88771], [5.969137, 51.895894], [5.979745, 51.934336], [5.999636, 51.945781], [6.055328, 51.943329], [6.124281, 51.952319], [6.154779, 51.969478], [6.179974, 51.98418], [6.18793, 52.005409], [6.233014, 52.054359], [6.244948, 52.064142], [6.2476, 52.108956], [6.284729, 52.130125], [6.308597, 52.149657], [6.337769, 52.165927], [6.337769, 52.165927], [6.335117, 52.195198], [6.327161, 52.248811], [6.319205, 52.292628], [6.327161, 52.352604], [6.345726, 52.386608], [6.353682, 52.409262], [6.353682, 52.428671], [6.353682, 52.444839], [6.356334, 52.462617], [6.361638, 52.488463], [6.380202, 52.519134], [6.388158, 52.543334]]}}
]
}
