{
"type": "FeatureCollection",
"features": [
{"type": "Feature", "properties": {"ProjectID": "P2879"}, "geometry": {"type": "LineString", "coordinates": [[18.615, 54.359], [18.5708, 54.4045], [18.5654, 54.4409], [18.5553, 54.4548], [18.5522, 54.471], [18.5406, 54.4904], [18.5329, 54.5059], [18.5337, 54.5198], [18.454, 54.55], [18.4106, 54.5569], [18.3588, 54.5809], [18.3479, 54.6011], [18.3193, 54.6041], [18.1754, 54.6096], [18.1614, 54.6072], [18.1506, 54.5879], [18.14, 54.5794], [18.0989, 54.5651], [18.015, 54.5643], [17.9743, 54.5672], [17.9315, 54.5773], [17.8941, 54.584], [17.8446, 54.5781], [17.7964, 54.553], [17.7666, 54.5387], [17.7225, 54.524], [17.6927, 54.5246], [17.6581, 54.5065], [17.6136, 54.4949], [17.5724, 54.485], [17.5344, 54.4793], [17.4833, 54.4768], [17.4578, 54.462], [17.4033, 54.457], [17.2698, 54.4471], [17.2277, 54.4545], [17.2055, 54.4628], [17.1321, 54.4694], [17.1205, 54.4686], [17.0983, 54.4595], [17.0801, 54.4529], [16.9548, 54.4364], [16.8905, 54.4216], [16.8534, 54.415], [16.8039, 54.396], [16.7141, 54.3663], [16.6791, 54.3511], [16.6401, 54.3352], [16.5921, 54.3369], [16.5193, 54.3121], [16.4892, 54.289], [16.4803, 54.2766], [16.4377, 54.2712], [16.3809, 54.2535], [16.3382, 54.2393], [16.3098, 54.2375], [16.2708, 54.2304], [16.1962, 54.2269], [16.1625, 54.2233], [16.1252, 54.1931], [16.0773, 54.1896], [15.9796, 54.1984], [15.8962, 54.1967], [15.8553, 54.1878], [15.8163, 54.1771], [15.7701, 54.1807], [15.7115, 54.1576], [15.6849, 54.1541], [15.6174, 54.1594], [15.5783, 54.1416], [15.5641, 54.1168], [15.534, 54.099], [15.518, 54.0901], [15.5073, 54.0653], [15.4913, 54.0369], [15.4718, 54.0085], [15.4505, 53.9907], [15.431, 53.9801], [15.4239, 53.9712], [15.4186, 53.9534], [15.3972, 53.9375], [15.3901, 53.9304], [15.383, 53.9126], [15.383, 53.9037], [15.3813, 53.8966], [15.3759, 53.8806], [15.3514, 53.8572], [15.3189, 53.8442], [15.2856, 53.8287], [15.266, 53.8039]]}}
]
}
