{
"type": "FeatureCollection",
"features": [
{"type": "Feature", "properties": {"ProjectID": "P2876"}, "geometry": {"type": "LineString", "coordinates": [[14.380801, 37.547006], [14.465861, 37.594218], [14.534676, 37.633766], [14.602142, 37.648724], [14.649368, 37.682903], [14.682157, 37.726495], [14.718183, 37.750148], [14.745169, 37.785347], [14.797793, 37.804539], [14.811286, 37.842909], [14.845019, 37.85889], [14.858512, 37.85676], [14.863909, 37.840778], [14.912485, 37.84504], [14.938121, 37.864217], [14.951615, 37.891908], [14.947567, 37.923846], [14.959711, 37.946194], [15.021779, 37.95577], [15.066306, 37.966409], [15.0798, 37.995125]]}}
]
}
