{
"type": "FeatureCollection",
"features": [
{"type": "Feature", "properties": {"ProjectID": "P2953"}, "geometry": {"type": "LineString", "coordinates": [[15.040457, 37.997246], [15.077856, 38.010581], [15.085109, 38.023153], [15.10977, 38.041435], [15.13153, 38.03915], [15.177951, 38.026581], [15.224372, 38.042577], [15.238879, 38.064281], [15.24178, 38.09397], [15.28675, 38.123647], [15.337523, 38.146468], [15.386845, 38.163579], [15.398451, 38.180685], [15.433266, 38.184106], [15.459378, 38.187527], [15.475335, 38.204628], [15.510151, 38.220585], [15.576881, 38.254768]]}}
]
}
