{
"type": "FeatureCollection",
"features": [
{"type": "Feature", "properties": {"ProjectID": "P2984"}, "geometry": {"type": "LineString", "coordinates": [[6.388158, 52.543334], [6.412026, 52.569132], [6.412026, 52.588471], [6.414678, 52.60458], [6.427938, 52.619073], [6.446503, 52.635171], [6.459763, 52.662524], [6.462415, 52.673782], [6.499543, 52.688252], [6.526064, 52.707538], [6.563192, 52.742874], [6.597668, 52.791013], [6.645405, 52.83269], [6.671925, 52.858318], [6.695794, 52.879129], [6.754138, 52.899931], [6.785963, 52.928716], [6.793919, 52.943102], [6.791267, 52.987827], [6.796571, 53.013363], [6.833699, 53.04845], [6.862871, 53.080323], [6.907956, 53.138431], [6.909282, 53.158313], [6.894696, 53.172622], [6.881436, 53.17739], [6.853589, 53.178185]]}}
]
}
