{
"type": "FeatureCollection",
"features": [
{"type": "Feature", "properties": {"ProjectID": "P3020"}, "geometry": {"type": "LineString", "coordinates": [[14.44, 45.35], [14.4304, 45.3422], [14.426, 45.3443], [14.4214, 45.3447], [14.4151, 45.3437], [14.4047, 45.3437], [14.3919, 45.3475], [14.3789, 45.3485], [14.3667, 45.3492], [14.3585, 45.3531], [14.3532, 45.3557], [14.3481, 45.3563], [14.3373, 45.3616], [14.3327, 45.3622], [14.3254, 45.3602], [14.3161, 45.3582], [14.3081, 45.3575], [14.3069, 45.3556], [14.3074, 45.3541], [14.3071, 45.3525], [14.3067, 45.3503], [14.3069, 45.348], [14.3034, 45.3463], [14.3002, 45.3458], [14.2995, 45.3427], [14.2987, 45.3408], [14.2973, 45.3399], [14.2922, 45.3399], [14.2887, 45.3396], [14.2876, 45.3377], [14.2886, 45.3346], [14.2882, 45.3303], [14.2867, 45.3272], [14.2822, 45.3253], [14.2784, 45.3259], [14.2738, 45.3259], [14.27, 45.3261], [14.2676, 45.3272], [14.2649, 45.3297], [14.2616, 45.3294], [14.2597, 45.3256], [14.26, 45.321], [14.2555, 45.3144], [14.2528, 45.3135], [14.2547, 45.3094], [14.2529, 45.2959], [14.2532, 45.2824], [14.2514, 45.2779], [14.2377, 45.2585], [14.2332, 45.1862], [14.2301, 45.1848], [14.2303, 45.1812], [14.2321, 45.1795], [14.2337, 45.1786], [14.2314, 45.1761], [14.2299, 45.1734], [14.2301, 45.1708], [14.2288, 45.1685], [14.2261, 45.1679], [14.2236, 45.1658], [14.2236, 45.1638], [14.2232, 45.1625], [14.2221, 45.1623], [14.2207, 45.1623], [14.2201, 45.1618], [14.2194, 45.1591], [14.2172, 45.1576], [14.2167, 45.1574], [14.2149, 45.1569], [14.2147, 45.1562], [14.2138, 45.1545], [14.2134, 45.1536], [14.2143, 45.1513], [14.2145, 45.1498], [14.2136, 45.1484], [14.2138, 45.1466], [14.2134, 45.1446], [14.212, 45.1395], [14.2107, 45.1383], [14.2072, 45.1374], [14.2058, 45.1367], [14.2062, 45.1354], [14.2053, 45.1337], [14.2053, 45.133], [14.2054, 45.1323], [14.2048, 45.1313], [14.2043, 45.13], [14.2046, 45.1243], [14.2044, 45.1225], [14.204, 45.1224], [14.1958, 45.1269], [14.1952, 45.128], [14.1942, 45.1289], [14.1934, 45.1294], [14.192, 45.1312], [14.1888, 45.1323], [14.1878, 45.1326], [14.1862, 45.1345], [14.1843, 45.1356], [14.1838, 45.1363], [14.1828, 45.1371], [14.1805, 45.1372], [14.18, 45.1391], [14.1792, 45.1404], [14.1747, 45.144], [14.1729, 45.1454], [14.1721, 45.146], [14.172, 45.1472], [14.1705, 45.1496], [14.169, 45.1518], [14.1687, 45.1539], [14.1682, 45.1562], [14.1641, 45.1573], [14.1624, 45.1568], [14.16, 45.1562], [14.1583, 45.1552], [14.1559, 45.1531], [14.1552, 45.1503], [14.1498, 45.1455], [14.1441, 45.137], [14.1367, 45.1324], [14.1255, 45.1298], [14.1191, 45.1256], [14.1206, 45.1187], [14.1194, 45.1142], [14.1177, 45.1087], [14.1144, 45.1028], [14.1146, 45.0971], [14.1134, 45.0933], [14.1125, 45.0918], [14.1089, 45.093], [14.1073, 45.093], [14.1018, 45.0907], [14.0994, 45.0897], [14.0973, 45.0885], [14.0937, 45.0876], [14.0904, 45.0871], [14.0878, 45.0864], [14.0866, 45.0859], [14.0859, 45.085], [14.0854, 45.0842], [14.0849, 45.0823], [14.0845, 45.0812], [14.0745, 45.0736], [14.0702, 45.0719], [14.0676, 45.0707], [14.0676, 45.066], [14.0629, 45.0596], [14.0576, 45.0562], [14.0524, 45.0567], [14.0496, 45.052], [14.0436, 45.0581], [14.036, 45.0607], [14.0329, 45.065], [14.0249, 45.0657], [14.0173, 45.0624], [14.0151, 45.0572], [14.0113, 45.0489], [14.004, 45.0417], [13.9745, 44.9974], [13.9727, 44.9943], [13.971, 44.9923], [13.9694, 44.9883], [13.9665, 44.9876], [13.9636, 44.9858], [13.9614, 44.9821], [13.9608, 44.9772], [13.9617, 44.9701], [13.9621, 44.9665], [13.957, 44.9592], [13.9526, 44.9557], [13.9488, 44.9492], [13.9446, 44.9455], [13.9368, 44.941], [13.9339, 44.9393], [13.9282, 44.9366], [13.9206, 44.9295], [13.916, 44.9257], [13.9117, 44.9233], [13.9097, 44.9209], [13.9082, 44.9193], [13.9071, 44.9177], [13.9051, 44.9158], [13.9046, 44.9135], [13.9055, 44.9111], [13.9062, 44.908], [13.9062, 44.9069], [13.85, 44.86]]}}
]
}
