{
"type": "FeatureCollection",
"features": [
{"type": "Feature", "properties": {"ProjectID": "P3039"}, "geometry": {"type": "MultiLineString", "coordinates": [[[17.9314, 45.1566], [17.8921, 45.1683], [17.8809, 45.1679], [17.8545, 45.1641], [17.8249, 45.1572], [17.7966, 45.1537], [17.7723, 45.1506], [17.7494, 45.1522], [17.728, 45.1575], [17.7128, 45.1622], [17.694, 45.1654], [17.6804, 45.1666], [17.6596, 45.1729], [17.6411, 45.1849], [17.6301, 45.1902], [17.603, 45.1924], [17.5871, 45.196], [17.5505, 45.211], [17.5214, 45.2166], [17.4989, 45.2195], [17.4773, 45.2279], [17.4473, 45.2298], [17.377, 45.227], [17.3188, 45.2298], [17.2851, 45.2345], [17.2626, 45.2345], [17.2372, 45.2288], [17.2185, 45.2288], [17.1988, 45.2373], [17.1678, 45.2607], [17.1416, 45.272], [17.1153, 45.2823], [17.0853, 45.2935], [17.0516, 45.3001], [16.9897, 45.3114], [16.9765, 45.3207], [16.955, 45.3273], [16.9381, 45.3339], [16.9231, 45.3386], [16.9128, 45.3526], [16.8949, 45.3686], [16.8696, 45.3817], [16.8471, 45.422], [16.8218, 45.4445], [16.7965, 45.452], [16.774, 45.452], [16.7552, 45.4661], [16.7299, 45.4774], [16.6783, 45.4952], [16.6605, 45.5064], [16.6558, 45.5158], [16.5894, 45.6062]], [[16.5895, 45.6062], [16.577, 45.6232], [16.5389, 45.6356], [16.4961, 45.6535], [16.4778, 45.6738], [16.4626, 45.6802], [16.4038, 45.6852], [16.3767, 45.6885], [16.3611, 45.6995], [16.3362, 45.7349], [16.311, 45.7482], [16.2793, 45.7551], [16.2471, 45.7583], [16.2103, 45.7707], [16.1745, 45.7891], [16.1571, 45.7937], [16.1341, 45.7987], [16.1295, 45.7951], [16.124, 45.7886], [16.1129, 45.7794], [16.0941, 45.768], [16.0743, 45.7542], [16.0634, 45.7489], [16.031, 45.7486], [16.0077, 45.7523], [15.9847, 45.7541], [15.9525, 45.7513], [15.9299, 45.748], [15.9149, 45.7498], [15.9053, 45.7537], [15.8947, 45.757], [15.88, 45.76]]]}}
]
}
