{
"type": "FeatureCollection",
"features": [
{"type": "Feature", "properties": {"ProjectID": "P3055"}, "geometry": {"type": "LineString", "coordinates": [[16.24844, 39.602738], [16.292882, 39.631709], [16.386816, 39.64335], [16.473192, 39.650001], [16.55309, 39.624225], [16.707487, 39.610086], [16.776587, 39.595112], [16.868362, 39.529354], [17.010882, 39.461033], [17.075664, 39.387639], [17.075664, 39.355922], [17.049751, 39.294116], [17.092939, 39.238946], [17.095099, 39.166992], [17.09024, 39.122612], [17.093479, 39.099573]]}}
]
}
