{
"type": "FeatureCollection",
"features": [
{"type": "Feature", "properties": {"ProjectID": "P3108"}, "geometry": {"type": "LineString", "coordinates": [[12.675397, 42.968015], [12.563108, 43.035922], [12.488249, 43.084306], [12.470974, 43.145257], [12.37884, 43.27746], [12.30686, 43.306799], [12.27231, 43.352875], [12.243518, 43.377993], [12.246397, 43.421924], [12.275189, 43.457464], [12.194571, 43.503426], [12.145625, 43.545179], [12.102077, 43.583652], [12.109755, 43.654057], [12.117433, 43.687379], [12.148144, 43.707732], [12.214686, 43.724381]]}}
]
}
