{
"type": "FeatureCollection",
"features": [
{"type": "Feature", "properties": {"ProjectID": "P3174"}, "geometry": {"type": "LineString", "coordinates": [[62.327959, 25.108946], [62.331185, 24.986796], [62.24299, 24.878141], [61.960725, 24.790773], [61.705343, 24.770612], [60.670371, 24.87142], [59.574914, 25.039435], [58.560104, 25.173847], [57.578898, 25.362024], [57.343677, 25.476274], [57.135338, 25.711495], [57.061412, 26.00048], [56.967324, 26.383554], [56.872563, 26.679092], [56.81947, 26.764853], [56.742744, 26.822577], [56.644735, 26.853996], [56.558263, 26.849907], [56.462607, 26.82941], [56.353285, 26.767916], [56.174293, 26.67926], [56.045818, 26.597101], [55.878587, 26.544848], [55.724686, 26.508277], [55.502234, 26.477642], [55.051954, 26.45076], [54.561351, 26.383554], [54.190766, 26.378458], [53.966998, 26.407496], [53.767144, 26.453616], [53.49384, 26.569771], [53.17954, 26.733753], [52.919902, 26.877238], [52.714923, 26.993392], [52.586812, 27.101006], [52.511653, 27.210327], [52.484323, 27.302567], [52.501405, 27.37431], [52.593805, 27.47313]]}}
]
}
