{
"type": "FeatureCollection",
"features": [
{"type": "Feature", "properties": {"ProjectID": "P3190", "OBJECTID": "7", "BusinessUnitCL": "NATURAL GAS", "CompanyCode": "EPNG", "Shape__Length": "171.007901004372"}, "geometry": {"type": "LineString", "coordinates": [[-104.134889, 32.259648], [-104.132896, 32.234523], [-104.117055, 32.221622]]}},
{"type": "Feature", "properties": {"ProjectID": "P3190", "OBJECTID": "7", "BusinessUnitCL": "NATURAL GAS", "CompanyCode": "EPNG", "Shape__Length": "171.007901004372"}, "geometry": {"type": "LineString", "coordinates": [[-104.117055, 32.221622], [-104.112097, 32.212601], [-104.109464, 32.210498], [-104.109305, 32.207949], [-104.100215, 32.191972]]}},
{"type": "Feature", "properties": {"ProjectID": "P3190", "OBJECTID": "7", "BusinessUnitCL": "NATURAL GAS", "CompanyCode": "EPNG", "Shape__Length": "171.007901004372"}, "geometry": {"type": "LineString", "coordinates": [[-104.09526, 32.186905], [-104.074929, 32.151968], [-104.07247, 32.151887], [-104.069311, 32.143906], [-104.066527, 32.137019], [-104.065652, 32.133887], [-104.06181, 32.121493], [-104.058392, 32.117527], [-104.057953, 32.115422], [-104.053777, 32.108763], [-104.052481, 32.10279], [-104.050927, 32.095235], [-104.050246, 32.087449], [-104.049668, 32.078631], [-104.047459, 32.076936], [-104.046199, 32.075078], [-104.045, 32.072449], [-104.039992, 32.069818], [-104.034629, 32.067064], [-104.028522, 32.065764], [-104.026908, 32.066194], [-104.024647, 32.064464], [-104.01773, 32.064157]]}},
{"type": "Feature", "properties": {"ProjectID": "P3190", "OBJECTID": "7", "BusinessUnitCL": "NATURAL GAS", "CompanyCode": "EPNG", "Shape__Length": "171.007901004372"}, "geometry": {"type": "LineString", "coordinates": [[-104.01773, 32.064157], [-104.017731, 32.063769]]}},
{"type": "Feature", "properties": {"ProjectID": "P3190", "OBJECTID": "7", "BusinessUnitCL": "NATURAL GAS", "CompanyCode": "EPNG", "Shape__Length": "171.007901004372"}, "geometry": {"type": "LineString", "coordinates": [[-104.134889, 32.259648], [-104.13426, 32.258248]]}},
{"type": "Feature", "properties": {"ProjectID": "P3190", "OBJECTID": "7", "BusinessUnitCL": "NATURAL GAS", "CompanyCode": "EPNG", "Shape__Length": "171.007901004372"}, "geometry": {"type": "LineString", "coordinates": [[-104.100215, 32.191972], [-104.100748, 32.190867], [-104.10047, 32.188943], [-104.095841, 32.186736], [-104.09526, 32.186905]]}},
{"type": "Feature", "properties": {"ProjectID": "P3190"}, "geometry": {"type": "LineString", "coordinates": [[-104.017735, 32.063474], [-104.018699, 32.06345], [-104.018699, 32.06345]]}},
{"type": "Feature", "properties": {"ProjectID": "P3190", "OBJECTID": "7", "BusinessUnitCL": "NATURAL GAS", "CompanyCode": "EPNG", "Shape__Length": "171.007901004372"}, "geometry": {"type": "LineString", "coordinates": [[-104.135249, 32.313122], [-104.134889, 32.259648]]}},
{"type": "Feature", "properties": {"ProjectID": "P3190", "OBJECTID": "7", "BusinessUnitCL": "NATURAL GAS", "CompanyCode": "EPNG", "Shape__Length": "171.007901004372"}, "geometry": {"type": "LineString", "coordinates": [[-104.133996, 32.258334], [-104.13426, 32.258248]]}},
{"type": "Feature", "properties": {"ProjectID": "P3190", "OBJECTID": "7", "BusinessUnitCL": "NATURAL GAS", "CompanyCode": "EPNG", "Shape__Length": "171.007901004372"}, "geometry": {"type": "LineString", "coordinates": [[-104.09526, 32.186905], [-104.075041, 32.151843], [-104.07257, 32.151747], [-104.069427, 32.14387], [-104.066689, 32.13701], [-104.065814, 32.13378], [-104.061965, 32.12143], [-104.058606, 32.117412], [-104.058137, 32.115372], [-104.053968, 32.108677], [-104.05261, 32.102745], [-104.051058, 32.095205], [-104.0504, 32.087443], [-104.049792, 32.078541], [-104.047514, 32.07691], [-104.046348, 32.075026], [-104.045178, 32.072304], [-104.040091, 32.069658], [-104.034707, 32.066958], [-104.028525, 32.065696], [-104.026953, 32.066114], [-104.02478, 32.064382], [-104.01773, 32.064157]]}},
{"type": "Feature", "properties": {"ProjectID": "P3190", "OBJECTID": "7", "BusinessUnitCL": "NATURAL GAS", "CompanyCode": "EPNG", "Shape__Length": "171.007901004372"}, "geometry": {"type": "LineString", "coordinates": [[-104.13426, 32.258248], [-104.117055, 32.221622]]}},
{"type": "Feature", "properties": {"ProjectID": "P3190", "OBJECTID": "7", "BusinessUnitCL": "NATURAL GAS", "CompanyCode": "EPNG", "Shape__Length": "171.007901004372"}, "geometry": {"type": "LineString", "coordinates": [[-104.117055, 32.221622], [-104.111944, 32.212699], [-104.109288, 32.210614], [-104.100796, 32.199168], [-104.099485, 32.193199], [-104.100215, 32.191972]]}},
{"type": "Feature", "properties": {"ProjectID": "P3190", "OBJECTID": "7", "BusinessUnitCL": "NATURAL GAS", "CompanyCode": "EPNG", "Shape__Length": "171.007901004372"}, "geometry": {"type": "LineString", "coordinates": [[-104.017731, 32.063769], [-104.017735, 32.063474], [-104.017739, 32.063207]]}},
{"type": "Feature", "properties": {"ProjectID": "P3190", "OBJECTID": "7", "BusinessUnitCL": "NATURAL GAS", "CompanyCode": "EPNG", "Shape__Length": "171.007901004372"}, "geometry": {"type": "LineString", "coordinates": [[-104.134028, 32.258533], [-104.134341, 32.258431]]}},
{"type": "Feature", "properties": {"ProjectID": "P3190", "OBJECTID": "7", "BusinessUnitCL": "NATURAL GAS", "CompanyCode": "EPNG", "Shape__Length": "171.007901004372"}, "geometry": {"type": "LineString", "coordinates": [[-104.100215, 32.191972], [-104.098928, 32.189737], [-104.095715, 32.187026], [-104.09526, 32.186905]]}}
]
}
