{
"type": "FeatureCollection",
"features": [
{"type": "Feature", "properties": {"ProjectID": "P3198"}, "geometry": {"type": "LineString", "coordinates": [[-93.957338, 30.075951], [-93.979458, 30.073399], [-93.991256, 30.060636], [-94.007477, 30.050425], [-94.020749, 30.044043], [-94.034571, 30.041382], [-94.052325, 30.037152], [-94.063887, 30.024276], [-94.072275, 30.011159], [-94.073986, 29.996437], [-94.070564, 29.96531], [-94.06543, 29.950484], [-94.062719, 29.941622], [-94.063281, 29.934316], [-94.066654, 29.930418], [-94.072275, 29.923598], [-94.076772, 29.917264], [-94.077897, 29.91093], [-94.077897, 29.902647], [-94.076772, 29.891438], [-94.072275, 29.886565], [-94.067778, 29.882666], [-94.059346, 29.875354], [-94.035175, 29.862193], [-94.005382, 29.845129], [-93.988518, 29.836353], [-93.9784, 29.829526], [-93.97053, 29.819772], [-93.959287, 29.805628], [-93.953104, 29.796848]]}}
]
}
