{"type": "FeatureCollection", "crs": {"type": "name", "properties": {"name": "urn:ogc:def:crs:OGC:1.3:CRS84"}}, "features": [{"type": "Feature", "properties": {"PipelineName": "Vijaipur-Dadri Gas Pipeline (GREP-I)", "SegmentName": "", "Wiki": "https://www.gem.wiki/Vijaipur-Dadri_Gas_Pipeline_(GREP-I)", "ProjectID": "P3297", "Status": "operating", "LastUpdated": "2023-07-13", "Fuel": "Gas", "OtherEnglishNames": "", "OtherLanguagePrimaryPipelineName": "", "OtherLanguageSegmentName": "", "CountriesOrAreas": "India", "Owner": "GAIL (India) Ltd [100.%]", "Parent": "GAIL Ltd [100.00%]", "ParentEntityIDs": "E100000000513", "StartYear1": "1997", "StartYear2": "", "StartYear3": "", "ShelvedYear": "", "CancelledYear": "", "StopYear": "", "Capacity": "107.0", "CapacityUnits": "MMSCMD", "CapacityBcm/y": "39.06", "CapacityBOEd": "629481.0", "LengthKnownKm": "505.0", "LengthEstimateKm": "492.03", "LengthMergedKm": "505.0", "Diameter": "36.0", "DiameterUnits": "in", "FuelSource": "", "StartLocation": "Vijaipur", "StartPrefecture/District": "", "StartState/Province": "Madhya Pradesh", "StartCountryOrArea": "India", "StartRegion": "Asia", "StartSubRegion": "Southern Asia", "EndLocation": "Dadri", "EndPrefecture/District": "", "EndState/Province": "Uttar Pradesh", "EndCountryOrArea": "India", "EndRegion": "Asia", "EndSubRegion": "Southern Asia", "ProjectLevelCost": "", "ProjectLevelCostUnits": "", "CostUSD": "--", "FIDStatus": "", "FIDYear": "", "PCI3": "", "PCI4": "", "PCI5": "", "PCI6": "", "RouteAccuracy": "high", "RouteType": "Mapped route (at any accuracy)", "RouteCreator": "WA", "PipelineStatus": "operating", "CapacityMapScale": "629481.0"}, "geometry": {"type": "LineString", "coordinates": [[77.160468, 24.483252], [77.649061, 24.794541], [77.5682432851628, 25.210664606449278], [77.60600635490836, 25.602937587788976], [77.664483, 26.061379], [77.491863, 26.518212], [77.627889, 26.734616], [77.63432865721754, 27.259816959265244], [77.49271714567165, 28.06253641804]]}}]}