{
"type": "FeatureCollection",
"features": [
{"type": "Feature", "properties": {"ProjectID": "P3291"}, "geometry": {"type": "MultiLineString", "coordinates": [[[151.148941, -23.788107], [151.149124, -23.788509], [151.147644, -23.798462], [151.147705, -23.799295], [151.148117, -23.800566], [151.147217, -23.813065]], [[151.147903, -23.821651], [151.147186, -23.820059], [151.148026, -23.818571], [151.148621, -23.814535], [151.148376, -23.81423], [151.148499, -23.813372], [151.147217, -23.813065], [151.146622, -23.813515]], [[151.287354, -23.863356], [151.285248, -23.865797], [151.282791, -23.868109], [151.281921, -23.868696], [151.280792, -23.868885], [151.278397, -23.868567], [151.277267, -23.868097], [151.274887, -23.868097], [151.274506, -23.867788], [151.273132, -23.865765], [151.272003, -23.863165], [151.268799, -23.862677], [151.268509, -23.862469], [151.267639, -23.862305], [151.266922, -23.86194], [151.263596, -23.85885], [151.261749, -23.858334], [151.259628, -23.857487], [151.25914, -23.857067], [151.257278, -23.857237], [151.252518, -23.858433], [151.252151, -23.858192], [151.248215, -23.857666], [151.247162, -23.857944], [151.246414, -23.857685], [151.245331, -23.857786], [151.24437, -23.857336], [151.242737, -23.857018], [151.241272, -23.857216], [151.240707, -23.857605], [151.240021, -23.857277], [151.239059, -23.857088], [151.235321, -23.857048], [151.233932, -23.856548], [151.232956, -23.855673], [151.232529, -23.854855], [151.231644, -23.851517], [151.230988, -23.850151], [151.229569, -23.849901], [151.226929, -23.85078], [151.224838, -23.85059], [151.224579, -23.849703], [151.223526, -23.849266], [151.223557, -23.848976], [151.223358, -23.848608], [151.221146, -23.846983], [151.218811, -23.846046], [151.217667, -23.846006], [151.217422, -23.846275], [151.215805, -23.846983], [151.212692, -23.845907], [151.212112, -23.846077], [151.207291, -23.845051], [151.195511, -23.839321], [151.170288, -23.833422], [151.16922, -23.837641]], [[150.502182, -23.31712], [150.50647, -23.324768], [150.50679, -23.329548], [150.501801, -23.331911], [150.50145, -23.332153], [150.501236, -23.332575], [150.500351, -23.332962], [150.493271, -23.333614], [150.48999, -23.335213], [150.48819, -23.334932], [150.486649, -23.343872], [150.487137, -23.349831], [150.48645, -23.351166], [150.484299, -23.357077], [150.480682, -23.362228], [150.477203, -23.36454], [150.476532, -23.364729], [150.475906, -23.365582], [150.474014, -23.366276], [150.472397, -23.36735], [150.468811, -23.368685], [150.464111, -23.375187], [150.464249, -23.375845], [150.463242, -23.380503], [150.464127, -23.384972], [150.463745, -23.386551], [150.472595, -23.398552], [150.480682, -23.410206], [150.480652, -23.411121], [150.481934, -23.412827], [150.481995, -23.414469], [150.481339, -23.41848], [150.4953, -23.445734], [150.497101, -23.451513], [150.49826, -23.457008], [150.498871, -23.457386], [150.499725, -23.463039], [150.50061, -23.463039], [150.501205, -23.467209], [150.501175, -23.467871], [150.503296, -23.470337], [150.503387, -23.475576], [150.503952, -23.48262], [150.51001, -23.487135], [150.511429, -23.490894], [150.51683, -23.501442], [150.51889, -23.507568], [150.517746, -23.515244], [150.518982, -23.516033], [150.520905, -23.519159], [150.522202, -23.524117], [150.523346, -23.525002], [150.526001, -23.529076], [150.528046, -23.531317], [150.534744, -23.532043], [150.541306, -23.540918], [150.541367, -23.54155], [150.54567, -23.552792], [150.549881, -23.558157], [150.55127, -23.559246], [150.5513, -23.559507], [150.552689, -23.561686], [150.55748, -23.563723], [150.55661, -23.571941], [150.555984, -23.575354], [150.556351, -23.57585], [150.558243, -23.590038], [150.559525, -23.59115], [150.559616, -23.591482], [150.570084, -23.598707], [150.574295, -23.604628], [150.574814, -23.605907], [150.578064, -23.610739], [150.578934, -23.611639], [150.579361, -23.611876], [150.596329, -23.627485], [150.602203, -23.633524], [150.604736, -23.635159], [150.609161, -23.639044], [150.617126, -23.649395], [150.620132, -23.652828], [150.61998, -23.654249], [150.620361, -23.654533], [150.623566, -23.658751], [150.624939, -23.659863], [150.631638, -23.672985], [150.632706, -23.673199], [150.643036, -23.679546], [150.644455, -23.680233], [150.645218, -23.680115], [150.660721, -23.689541], [150.661987, -23.689257], [150.690231, -23.698992], [150.690613, -23.699465], [150.706345, -23.70418], [150.721573, -23.703516], [150.721954, -23.703657], [150.730835, -23.703539], [150.739929, -23.705173], [150.745758, -23.704535], [150.755112, -23.708775], [150.755249, -23.709177], [150.770599, -23.713867], [150.777115, -23.714766], [150.788147, -23.718958], [150.790482, -23.720215], [150.792465, -23.720308], [150.800232, -23.725306], [150.805237, -23.731607], [150.805969, -23.731678], [150.805878, -23.732317], [150.806396, -23.733479], [150.807571, -23.73497], [150.815872, -23.73793], [150.816528, -23.738333], [150.817902, -23.739779], [150.821503, -23.739185], [150.822967, -23.738617], [150.829681, -23.740986], [150.839813, -23.746576], [150.84462, -23.747215], [150.858475, -23.754488], [150.861847, -23.755363], [150.867004, -23.756168], [150.886353, -23.767065], [150.902985, -23.780281], [150.90416, -23.780998], [150.909348, -23.78355], [150.909637, -23.784071], [150.911346, -23.785633], [150.912338, -23.786013], [150.914612, -23.788879], [150.926178, -23.795914], [150.943222, -23.808823], [150.947342, -23.810196], [150.9478, -23.810228], [150.949661, -23.811785], [150.951828, -23.817835], [150.951462, -23.82163], [150.95192, -23.82346], [150.952972, -23.825146], [150.964569, -23.833977], [150.968231, -23.834663], [150.976456, -23.836794], [150.977753, -23.83779], [150.977875, -23.83831], [150.978668, -23.838974], [150.980286, -23.841059], [150.981949, -23.843971], [150.98259, -23.844114], [150.98674, -23.84742], [150.990311, -23.852009], [150.998291, -23.863298], [151.005615, -23.873365], [151.006958, -23.874952], [151.010986, -23.881086], [151.014328, -23.881536], [151.015183, -23.882233], [151.037613, -23.866211], [151.045059, -23.864239], [151.048569, -23.862711], [151.063675, -23.857893], [151.072754, -23.856777], [151.087921, -23.852142], [151.094711, -23.849075], [151.096008, -23.849436], [151.101212, -23.848457], [151.102814, -23.847702], [151.103027, -23.847322], [151.106217, -23.847481], [151.10759, -23.847202], [151.112183, -23.844851], [151.114975, -23.842638], [151.116348, -23.840885], [151.11673, -23.840616], [151.116989, -23.839619], [151.119171, -23.83917], [151.120712, -23.838055], [151.122314, -23.837423], [151.122498, -23.83679], [151.128036, -23.830881], [151.131058, -23.828371], [151.131653, -23.82836], [151.13237, -23.827263], [151.138809, -23.825949], [151.141724, -23.822719], [151.144348, -23.82279], [151.147842, -23.821684], [151.150024, -23.821426], [151.152024, -23.821672], [151.153275, -23.821598], [151.156967, -23.824104], [151.157654, -23.825291], [151.15834, -23.827621], [151.159195, -23.829086], [151.16069, -23.830582], [151.162445, -23.831589], [151.170288, -23.833422]], [[151.015183, -23.882233], [151.014542, -23.882769], [151.012085, -23.88843], [151.011444, -23.889423], [151.010895, -23.889851], [150.995468, -23.912975], [150.96347, -23.970102], [150.966644, -23.982143], [150.968491, -23.985374], [150.968552, -23.987913], [150.966949, -24.001522], [150.966019, -24.002026], [150.964539, -24.010586], [150.964355, -24.012938], [150.96373, -24.016356], [150.961578, -24.023977], [150.959061, -24.03027], [150.958054, -24.031355], [150.955338, -24.038521], [150.946274, -24.045862], [150.937683, -24.048441], [150.933594, -24.04995], [150.928146, -24.05246], [150.923141, -24.05555], [150.908707, -24.06138], [150.908554, -24.061581], [150.908646, -24.063204], [150.896988, -24.069836], [150.88385, -24.077946], [150.878433, -24.079809], [150.874878, -24.082439], [150.873444, -24.083698], [150.87146, -24.084871], [150.868958, -24.085899], [150.845474, -24.089783], [150.845245, -24.089981], [150.845352, -24.090971], [150.838501, -24.095234], [150.833267, -24.095471], [150.832077, -24.094996], [150.826675, -24.095295], [150.802887, -24.10206], [150.793259, -24.106239], [150.789063, -24.109058], [150.785034, -24.112072], [150.783752, -24.111294], [150.773361, -24.112467], [150.763229, -24.116282], [150.758224, -24.117529], [150.75531, -24.117405], [150.752502, -24.119471], [150.748291, -24.123167], [150.74794, -24.123394], [150.745407, -24.12385], [150.743988, -24.125896], [150.741241, -24.128908], [150.740616, -24.13043], [150.73851, -24.132303], [150.737747, -24.132654], [150.736755, -24.133867], [150.736115, -24.134312], [150.733917, -24.135147], [150.732559, -24.136135], [150.731812, -24.136951], [150.72641, -24.141022], [150.716827, -24.144739], [150.714127, -24.146639]], [[150.162964, -24.35483], [150.164307, -24.357403], [150.184021, -24.348818], [150.192123, -24.344099], [150.195892, -24.342373], [150.200348, -24.341158], [150.202927, -24.341833], [150.212723, -24.33954], [150.239319, -24.331448], [150.247665, -24.330183], [150.252853, -24.328648], [150.259842, -24.327976], [150.264313, -24.326202], [150.280945, -24.323133], [150.289337, -24.321743], [150.291214, -24.320448], [150.308044, -24.314503], [150.329132, -24.308077], [150.32991, -24.308455], [150.350388, -24.301125], [150.374069, -24.291145], [150.398849, -24.289318], [150.4133, -24.288076], [150.416718, -24.288042], [150.430374, -24.286318], [150.43103, -24.285145], [150.437607, -24.285732], [150.44519, -24.284184], [150.45163, -24.280384], [150.452667, -24.280113], [150.469971, -24.278389], [150.483795, -24.275047], [150.50528, -24.26882], [150.517807, -24.264236], [150.520782, -24.26103], [150.546951, -24.243967], [150.557755, -24.236729], [150.560318, -24.235703], [150.564804, -24.230762], [150.569107, -24.229607], [150.574112, -24.225559], [150.577576, -24.218035], [150.578186, -24.217611], [150.579361, -24.217157], [150.579849, -24.216644], [150.581665, -24.216368], [150.582443, -24.21595], [150.584366, -24.213804], [150.585464, -24.213419], [150.586975, -24.212564], [150.591659, -24.211254], [150.59288, -24.211266], [150.601883, -24.205862], [150.602768, -24.205715], [150.604645, -24.206017], [150.605804, -24.205362], [150.606247, -24.204229], [150.60733, -24.203369], [150.609482, -24.202396], [150.611008, -24.202528], [150.611801, -24.203011], [150.613129, -24.203201], [150.6147, -24.202175], [150.614761, -24.201153], [150.616348, -24.199259], [150.617386, -24.196251], [150.617218, -24.195147], [150.618088, -24.194193], [150.620316, -24.193117], [150.620789, -24.192591], [150.621765, -24.192186], [150.623901, -24.192064], [150.624756, -24.192265], [150.62706, -24.192171], [150.627274, -24.191877], [150.627365, -24.191092], [150.628006, -24.190329], [150.630905, -24.18815], [150.635147, -24.187124], [150.636383, -24.184517], [150.637421, -24.184624], [150.639832, -24.183613], [150.64183, -24.183489], [150.644058, -24.182156], [150.64534, -24.181879], [150.64592, -24.180899], [150.647507, -24.18058], [150.648071, -24.18067], [150.648392, -24.180496], [150.648697, -24.180058], [150.649857, -24.17975], [150.651047, -24.178776], [150.653168, -24.178503], [150.657364, -24.174997], [150.674026, -24.172277], [150.680954, -24.168129], [150.681915, -24.167835], [150.68692, -24.164825], [150.693253, -24.162901], [150.69519, -24.160769], [150.70668, -24.151464], [150.709229, -24.150023], [150.714127, -24.146639], [150.714844, -24.146717], [150.715805, -24.146267], [150.718689, -24.146639]], [[150.164307, -24.357403], [150.16243, -24.358221]], [[150.163391, -24.360117], [150.16243, -24.358221], [150.161575, -24.358591]], [[150.161575, -24.358639], [150.139908, -24.368048], [150.105316, -24.364021], [150.077896, -24.358404], [150.066086, -24.361715], [150.057739, -24.362907], [150.049088, -24.364796], [150.037476, -24.367603], [150.012421, -24.374689], [149.999908, -24.379456], [149.993271, -24.381651], [149.988388, -24.386454], [149.983047, -24.391111], [149.976379, -24.397533], [149.968628, -24.405645], [149.948334, -24.408775], [149.927216, -24.414583], [149.912659, -24.418936], [149.896286, -24.420233], [149.873535, -24.419436], [149.87233, -24.419601], [149.851654, -24.418919], [149.836731, -24.420713], [149.835144, -24.421473], [149.83371, -24.421497], [149.809662, -24.431332], [149.783752, -24.442156], [149.765701, -24.450695], [149.763962, -24.450828], [149.761841, -24.450232], [149.76091, -24.449579], [149.760193, -24.448496], [149.75943, -24.448051], [149.757828, -24.447773], [149.757355, -24.448313], [149.757187, -24.449074], [149.755478, -24.450472], [149.754776, -24.450687], [149.752625, -24.452452], [149.751434, -24.45227], [149.745087, -24.455757], [149.72258, -24.453581], [149.708115, -24.462309], [149.685974, -24.470058], [149.659576, -24.477186], [149.640549, -24.480938], [149.612061, -24.484713], [149.533997, -24.513592], [149.511383, -24.520845], [149.483566, -24.532671], [149.433777, -24.547649], [149.430313, -24.548914], [149.403, -24.553961], [149.375, -24.565336], [149.3461, -24.572998], [149.341446, -24.575914], [149.336975, -24.578032], [149.33374, -24.578253], [149.328018, -24.581423], [149.321426, -24.582321], [149.320435, -24.583338], [149.317093, -24.584457], [149.301849, -24.590237], [149.295822, -24.592577], [149.286118, -24.596645], [149.275253, -24.60051], [149.258545, -24.605036], [149.240982, -24.606562], [149.238785, -24.606409], [149.236374, -24.606934], [149.212402, -24.619495], [149.186462, -24.62236], [149.153885, -24.631784], [149.14537, -24.636311], [149.124664, -24.645176], [149.118088, -24.648193], [149.072937, -24.654766], [149.066452, -24.654673], [149.062012, -24.65346], [149.04924, -24.653831], [149.038834, -24.652201], [149.037582, -24.65094], [149.03566, -24.650148], [149.032532, -24.65032], [149.031708, -24.650232], [149.030167, -24.652002], [149.027969, -24.653685], [149.023727, -24.656208], [149.023163, -24.658155], [149.021439, -24.657993], [149.020142, -24.660059], [149.019211, -24.660208], [149.01648, -24.659632], [149.014771, -24.660355], [149.012573, -24.662199], [149.004562, -24.664295], [149.002426, -24.666243], [148.997757, -24.667364], [148.996277, -24.667364], [148.989487, -24.666685], [148.979858, -24.669006], [148.975861, -24.669586], [148.972107, -24.67235], [148.960953, -24.679106], [148.952591, -24.682211], [148.945938, -24.686817], [148.925568, -24.69289], [148.872787, -24.705858], [148.846298, -24.707973], [148.842239, -24.709543], [148.833176, -24.734247], [148.833817, -24.739569], [148.831604, -24.745029], [148.8116, -24.803343], [148.794266, -24.849987], [148.77858, -24.910416], [148.757278, -24.990841], [148.749222, -25.01442], [148.748276, -25.015614], [148.732407, -25.073109], [148.720261, -25.082287], [148.719986, -25.142359], [148.708298, -25.179287], [148.706314, -25.19795], [148.698639, -25.204851], [148.697617, -25.220158], [148.697861, -25.23077], [148.696609, -25.235525], [148.695908, -25.236422], [148.693512, -25.238401], [148.692993, -25.240175], [148.693344, -25.242418], [148.693253, -25.244261], [148.691711, -25.246805], [148.690002, -25.248745], [148.684631, -25.253832], [148.681137, -25.253832], [148.680267, -25.254665], [148.677582, -25.255604], [148.675705, -25.257898], [148.671951, -25.261318], [148.667511, -25.263821], [148.666229, -25.265446], [148.660263, -25.275122], [148.665588, -25.289196], [148.665604, -25.29122], [148.667755, -25.294348], [148.667831, -25.296911], [148.666412, -25.299171], [148.666336, -25.300289], [148.66362, -25.302855], [148.660995, -25.306461], [148.663818, -25.312363], [148.661087, -25.331921], [148.659805, -25.332151], [148.659348, -25.334736], [148.658615, -25.337364], [148.656082, -25.341076], [148.652176, -25.343098], [148.648361, -25.347269], [148.645493, -25.349146], [148.644135, -25.351543], [148.642731, -25.353502], [148.641205, -25.359488], [148.638519, -25.374125], [148.634933, -25.376022], [148.631622, -25.377295], [148.629486, -25.378401], [148.626038, -25.381298], [148.625839, -25.382549], [148.625885, -25.384405], [148.625336, -25.387053], [148.625366, -25.389681], [148.626175, -25.393684], [148.624023, -25.39715], [148.618591, -25.410282], [148.618607, -25.414139], [148.620468, -25.419291], [148.622253, -25.429903], [148.622055, -25.433678], [148.639725, -25.467583], [148.647049, -25.502384], [148.650192, -25.519794], [148.655807, -25.534266], [148.655243, -25.544107], [148.660034, -25.554262], [148.661285, -25.577242], [148.659439, -25.580076], [148.670532, -25.609457], [148.675263, -25.634798], [148.681595, -25.634735], [148.693649, -25.623562], [148.716766, -25.623363], [148.722397, -25.621513], [148.763702, -25.610802], [148.776794, -25.609609], [148.808517, -25.610125], [148.818115, -25.610846], [148.857575, -25.609228], [148.903946, -25.614092], [148.926376, -25.612316]], [[148.675263, -25.634798], [148.668121, -25.68792], [148.662613, -25.726849], [148.654984, -25.75379], [148.662582, -25.76152], [148.663483, -25.764616], [148.661743, -25.773823], [148.669235, -25.796015], [148.682556, -25.801315], [148.688599, -25.814886], [148.691177, -25.816235], [148.692886, -25.818945], [148.69548, -25.823589], [148.702988, -25.835129], [148.717789, -25.856461], [148.717407, -25.858021], [148.735916, -25.882441], [148.743149, -25.888851], [148.744675, -25.890703], [148.746689, -25.892145], [148.764862, -25.908741], [148.795639, -25.931355], [148.815094, -25.981131], [148.839767, -26.021807], [148.84642, -26.037102], [148.849991, -26.039299], [148.851196, -26.048559], [148.877716, -26.088011], [148.88797, -26.11133], [148.899017, -26.135111], [148.909378, -26.161089], [148.925385, -26.188351], [148.929642, -26.200809], [148.929504, -26.201376], [148.930878, -26.206619], [148.946945, -26.250059], [148.946899, -26.25218], [148.948853, -26.255318], [148.959396, -26.283924], [148.971817, -26.29471], [148.989655, -26.314219], [148.998215, -26.324034], [149.002228, -26.331621], [149.007263, -26.337671], [149.010574, -26.357569], [149.011017, -26.359421], [149.012344, -26.360422], [149.012238, -26.361288], [149.031418, -26.402966], [149.058655, -26.452053], [149.059753, -26.452948], [149.060532, -26.455563], [149.068909, -26.471176], [149.086288, -26.491413], [149.092896, -26.501886], [149.094406, -26.504768], [149.11319, -26.521172], [149.113449, -26.521589], [149.119095, -26.534391], [149.131577, -26.581297], [149.132172, -26.58395], [149.132172, -26.584991], [149.131531, -26.585762], [149.132462, -26.586794], [149.147507, -26.598803], [149.152771, -26.609497], [149.165009, -26.629417], [149.17276, -26.653555], [149.173035, -26.660782], [149.177322, -26.671833], [149.184174, -26.690393], [149.184387, -26.691689]]]}}
]
}
