{
"type": "FeatureCollection",
"features": [
{"type": "Feature", "properties": {"ProjectID": "P3295", "OBJECTID": 801, "GCOMPID": "GCOMP49", "NAME": "WRENS", "ADDRESS": "1028 USRY PLACE ROAD", "CITY": "WRENS", "STATE": "GA", "ZIP": 30833, "ZIP4": "NOT AVAILABLE", "TYPE": "NATURAL GAS COMPRESSOR STATION", "STATUS": "IN SERVICE", "COUNTY": "JEFFERSON", "COUNTYFIPS": 13163, "COUNTRY": "USA", "LATITUDE": 33.248958, "LONGITUDE": -82.412919, "NAICS_CODE": 486210, "NAICS_DESC": "BOOSTER PUMPING STATION, NATURAL GAS TRANSPORTATION", "SOURCE": "EPA ENVIROFACTS, FERC FORM 2, CORPORATE WEBSITE", "SOURCEDATE": "7/15/2020 12:00:00 AM", "VAL_METHOD": "IMAGERY/OTHER", "VAL_DATE": "6/20/2022 12:00:00 AM", "WEBSITE": "https://pipeportal.kindermorgan.com/portalui/DefaultKM.aspx?TSP=SNGD", "PIPECO": "SOUTHERN NATURAL GAS COMPANY L.L.C.", "COMPID": 7, "OPERATOR": "SOUTHERN NATURAL GAS COMPANY L.L.C.", "POSREL": "WITHIN 40 FEET", "NUM_UNITS": 5, "CERT_HP": 9170, "PLANT_COST": 25521274, "EXP_FUEL": 417912, "EXP_OTHER": 933429, "GAS_COMPRE": 210513, "OP_COMP_HR": 29261, "OP_NUM_COM": 5, "OP_DATE_PE": "1/6/2020 12:00:00 AM", "EXP_POWER": 1590219, "ELEC_COMPR": 19895120, "x": -9174164.1779, "y": 3928395.7888}, "geometry": {"type": "Point", "coordinates": [-82.412983, 33.248733]}},
{"type": "Feature", "properties": {"ProjectID": "P3295", "OBJECTID": 988, "GCOMPID": "GCOMP66", "NAME": "WOODCLIFF", "ADDRESS": "1068 BLUE JAY ROAD", "CITY": "RINCON", "STATE": "GA", "ZIP": 31326, "ZIP4": "NOT AVAILABLE", "TYPE": "NATURAL GAS COMPRESSOR STATION", "STATUS": "IN SERVICE", "COUNTY": "EFFINGHAM", "COUNTYFIPS": 13103, "COUNTRY": "USA", "LATITUDE": 32.270533843, "LONGITUDE": -81.282667513, "NAICS_CODE": 486210, "NAICS_DESC": "BOOSTER PUMPING STATION, NATURAL GAS TRANSPORTATION", "SOURCE": "FERC FORM 2, IMAGERY", "SOURCEDATE": "7/15/2020 12:00:00 AM", "VAL_METHOD": "IMAGERY/OTHER", "VAL_DATE": "6/20/2022 12:00:00 AM", "WEBSITE": "https://pipeportal.kindermorgan.com/portalui/DefaultKM.aspx?TSP=SNGD", "PIPECO": "SOUTHERN NATURAL GAS COMPANY L.L.C.", "COMPID": 7, "OPERATOR": "SOUTHERN NATURAL GAS COMPANY L.L.C.", "POSREL": "WITHIN 40 FEET", "NUM_UNITS": 1, "CERT_HP": 5278, "PLANT_COST": 67131, "EXP_FUEL": 0, "EXP_OTHER": 18824, "GAS_COMPRE": 0, "OP_COMP_HR": 0, "OP_NUM_COM": 0, "OP_DATE_PE": "7/15/2020 12:00:00 AM", "EXP_POWER": 0, "ELEC_COMPR": 0, "x": -9048345.1579, "y": 3798875.0215}, "geometry": {"type": "Point", "coordinates": [-81.282664, 32.270529]}}
]
}
