{
"type": "FeatureCollection",
"name": "P3308",
"crs": { "type": "name", "properties": { "name": "urn:ogc:def:crs:OGC:1.3:CRS84" } },
"features": [
{ "type": "Feature", "properties": { "fid": 3308 }, "geometry": { "type": "MultiLineString", "coordinates": [ [ [ 69.468976505124203, 53.228195517684625 ], [ 69.232175755564128, 53.264626402232331 ], [ 69.086452217373321, 53.337488171327735 ], [ 69.104667659647177, 53.483211709518557 ], [ 69.01359044827791, 53.537858036340111 ], [ 68.886082352360944, 53.57428892088781 ], [ 68.795005140991691, 53.628935247709371 ], [ 68.740358814170136, 53.647150689983221 ], [ 68.849651467813246, 53.701797016804775 ], [ 68.890636212929422, 53.710904737941711 ], [ 68.981713424298675, 53.720012459078639 ], [ 69.081898356804857, 53.747335622489416 ], [ 69.204852592153358, 53.797428088742507 ], [ 69.3733454331865, 53.84296669442714 ], [ 69.560053716493471, 53.91127460295408 ], [ 69.587376879904255, 53.965920929775635 ], [ 69.591930740472719, 54.189060097630325 ], [ 69.591930740472719, 54.25509107587304 ], [ 69.610146182746576, 54.355276008379221 ], [ 69.591930740472719, 54.409922335200775 ], [ 69.537284413651165, 54.482784104296186 ], [ 69.478084226261146, 54.582969036802375 ], [ 69.459868783987289, 54.642169224192379 ], [ 69.396114736028807, 54.733246435561639 ], [ 69.332360688070324, 54.815215925793972 ], [ 69.295929803522611, 54.842539089204749 ] ] ] } }
]
}
