{
"type": "FeatureCollection",
"features": [
{"type": "Feature", "properties": {"ProjectID": "P3520"}, "geometry": {"type": "LineString", "coordinates": [[6.94377, 62.850337], [6.9607, 62.860719], [6.962287, 62.864032], [6.960925, 62.867057], [6.955221, 62.870212], [6.925104, 62.878189], [6.904612, 62.889882], [6.899293, 62.892196], [6.876431, 62.899134], [6.8537, 62.901125], [6.836808, 62.901299], [6.796708, 62.904702], [6.786488, 62.906677], [6.778318, 62.909883], [6.772565, 62.914147], [6.769949, 62.918795], [6.770052, 62.922322], [6.774113, 62.933044], [6.772261, 62.941825], [6.769621, 62.945168], [6.76583, 62.948088], [6.753765, 62.952981], [6.744398, 62.954769], [6.734768, 62.955385], [6.639554, 62.953537], [6.625748, 62.954759], [6.603266, 62.958085], [6.504512, 62.966637], [6.453394, 62.973749], [6.422655, 62.979734], [6.300826, 63.006984], [6.177325, 63.04864], [6.159734, 63.055461], [6.027515, 63.117222], [5.899058, 63.196629], [5.792841, 63.267426], [5.777667, 63.282645], [5.765678, 63.288809], [5.744111, 63.303194], [5.742105, 63.305504], [5.736801, 63.316637], [5.734767, 63.318925], [5.707487, 63.332864], [5.704136, 63.335277], [5.690983, 63.36112], [5.669063, 63.373752], [5.646491, 63.395119], [5.638812, 63.400331], [5.618275, 63.408617], [5.588408, 63.414668], [5.575486, 63.418466], [5.525813, 63.424078], [5.51653, 63.426218], [5.498924, 63.432012], [5.473168, 63.435549], [5.441707, 63.444386], [5.435481, 63.447117], [5.425963, 63.454135], [5.419412, 63.457439], [5.390787, 63.465329], [5.384481, 63.467981], [5.379684, 63.47188], [5.377992, 63.476459], [5.379133, 63.485285], [5.389533, 63.505541], [5.389084, 63.509264], [5.385256, 63.517954], [5.386516, 63.528076]]}}
]
}
