{
"type": "FeatureCollection",
"features": [
{"type": "Feature", "properties": {"ProjectID": "P3540", "id": 1}, "geometry": {"type": "MultiLineString", "coordinates": [[[-44.357847, -4.823749], [-44.265782, -4.826799], [-44.195111, -4.832236], [-44.148902, -4.837672], [-44.127793, -4.843696], [-44.113624, -4.851449], [-44.098588, -4.863525], [-44.093878, -4.868158], [-44.088901, -4.871725], [-44.084791, -4.873166], [-44.080949, -4.873008], [-43.93417, -4.873008], [-43.83088, -4.856699], [-43.786465, -4.847742], [-43.741182, -4.843108], [-43.648765, -4.843108], [-43.559066, -4.845826], [-43.458495, -4.908343], [-43.371515, -4.951834], [-43.30628, -4.965424], [-43.113292, -4.973579], [-43.039902, -4.970861], [-42.933895, -4.943679], [-42.903995, -4.932807], [-42.871378, -4.932807], [-42.836042, -4.935525], [-42.822451, -4.949116], [-42.792552, -4.962706], [-42.754498, -4.970861], [-42.724598, -4.968143], [-42.664799, -4.979015], [-42.624027, -4.987169], [-42.588691, -4.981733], [-42.545201, -4.989888], [-42.507147, -5.00076], [-42.441912, -5.011633], [-42.368522, -5.008915], [-42.311441, -4.973579], [-42.248924, -4.935525], [-42.151071, -4.881162], [-42.088554, -4.837672], [-42.069527, -4.799618], [-41.982546, -4.644684], [-41.944493, -4.576731], [-41.898284, -4.522368], [-41.822176, -4.408206], [-41.721605, -4.307635], [-41.621034, -4.190755], [-41.534054, -4.101057], [-41.425328, -3.995049], [-41.373684, -3.962431], [-41.330193, -3.940686], [-41.286703, -3.932532], [-41.245931, -3.927096], [-41.216032, -3.929814], [-41.161669, -3.927096], [-41.090997, -3.910787], [-41.014889, -3.89176], [-40.917036, -3.878169], [-40.859956, -3.872733], [-40.75123, -3.878169], [-40.688713, -3.853706], [-40.628914, -3.840115], [-40.582705, -3.837397], [-40.552806, -3.856424], [-40.506598, -3.86186], [-40.411463, -3.864579], [-40.340791, -3.864579], [-40.28371, -3.834679], [-40.164112, -3.821088], [-40.117904, -3.823806], [-39.908607, -3.823806], [-39.723774, -3.831961], [-39.552531, -3.821088], [-39.500863, -3.81867], [-39.486316, -3.812025], [-39.477782, -3.802079], [-39.460114, -3.791189], [-39.441544, -3.783952], [-39.424779, -3.780316], [-39.403647, -3.775621], [-39.393381, -3.772674], [-39.389151, -3.7706], [-39.386725, -3.766726], [-39.378414, -3.749517], [-39.367698, -3.734108], [-39.359086, -3.726871], [-39.345964, -3.723235], [-39.32437, -3.72763], [-39.305181, -3.736826], [-39.269845, -3.755853], [-39.260331, -3.758033], [-39.250517, -3.758412], [-39.231791, -3.758571], [-39.191019, -3.753135], [-39.147529, -3.747699], [-39.104038, -3.734108], [-39.049676, -3.712363], [-39.025212, -3.698772], [-38.976286, -3.698772], [-38.927359, -3.696054], [-38.89746, -3.693336], [-38.86613, -3.6811], [-38.86111, -3.681151]]]}}
]
}
