{
"type": "FeatureCollection",
"features": [
{"type": "Feature", "properties": {"ProjectID": "P3589"}, "geometry": {"type": "LineString", "coordinates": [[-93.325377, 29.795816], [-93.31105, 29.799234], [-93.298493, 29.804469], [-93.289317, 29.809917], [-93.277242, 29.812851], [-93.262269, 29.812851], [-93.240534, 29.812432], [-93.223146, 29.812432], [-93.213003, 29.811175], [-93.205758, 29.80866], [-93.198997, 29.80866], [-93.190786, 29.80866], [-93.180643, 29.809917], [-93.170983, 29.811175], [-93.164221, 29.814108], [-93.154078, 29.814946], [-93.14635, 29.816622], [-93.138139, 29.817461], [-93.132826, 29.817461], [-93.131377, 29.818299], [-93.129928, 29.820394], [-93.129445, 29.834221], [-93.129445, 29.841763], [-93.131377, 29.846371], [-93.135241, 29.850141], [-93.139588, 29.8581], [-93.142003, 29.868572], [-93.144901, 29.876948], [-93.149248, 29.886999], [-93.151663, 29.89663], [-93.15601, 29.905423], [-93.157459, 29.91254], [-93.160357, 29.919657], [-93.162289, 29.926773], [-93.164221, 29.928866], [-93.167602, 29.931796], [-93.170983, 29.937238], [-93.172432, 29.944771], [-93.174364, 29.949375], [-93.176296, 29.951886], [-93.179194, 29.956071], [-93.182575, 29.959418], [-93.187405, 29.960255], [-93.193201, 29.959837], [-93.197548, 29.959837], [-93.202377, 29.959418], [-93.205758, 29.960255], [-93.208173, 29.961929], [-93.209622, 29.96444], [-93.210588, 29.968624], [-93.212037, 29.972808], [-93.214935, 29.977829], [-93.217761, 29.984476], [-93.222136, 29.988827], [-93.224891, 29.99374], [-93.227358, 29.998681], [-93.229634, 30.003673], [-93.230847, 30.009605], [-93.232343, 30.014009], [-93.235932, 30.01634], [-93.242214, 30.021261], [-93.248795, 30.027995], [-93.253881, 30.032398], [-93.258966, 30.034729], [-93.263752, 30.038354], [-93.266444, 30.041979], [-93.267042, 30.052596], [-93.266743, 30.056738], [-93.269735, 30.059068], [-93.273623, 30.060622], [-93.278709, 30.063211], [-93.283196, 30.065023], [-93.288281, 30.065541], [-93.305332, 30.066318], [-93.318494, 30.0658], [-93.327767, 30.065282], [-93.342424, 30.064764], [-93.346911, 30.065023], [-93.351099, 30.067353], [-93.35439, 30.072013], [-93.35768, 30.079779], [-93.359077, 30.082129], [-93.361696, 30.08364], [-93.365887, 30.084094], [-93.388762, 30.083791], [-93.395746, 30.083942], [-93.400635, 30.085151], [-93.405874, 30.088022], [-93.410239, 30.090137], [-93.413906, 30.091044], [-93.422986, 30.091648], [-93.433638, 30.09195], [-93.442892, 30.091799], [-93.447781, 30.09195], [-93.451099, 30.092554], [-93.453369, 30.095274], [-93.456861, 30.100108], [-93.461401, 30.106755], [-93.465592, 30.11612], [-93.470831, 30.123068], [-93.477219, 30.135578], [-93.481462, 30.141885], [-93.485307, 30.145325], [-93.493528, 30.151975], [-93.504534, 30.165046], [-93.511827, 30.172726], [-93.515009, 30.175936], [-93.519252, 30.177999], [-93.525882, 30.181553], [-93.531982, 30.188315], [-93.537464, 30.193418], [-93.541413, 30.198197], [-93.545362, 30.203658], [-93.549837, 30.209346], [-93.551909, 30.214717], [-93.553808, 30.219878], [-93.555128, 30.227372], [-93.555096, 30.238367], [-93.554853, 30.248419], [-93.554642, 30.255774], [-93.554642, 30.259543], [-93.556824, 30.261636], [-93.560945, 30.262474], [-93.566277, 30.264358], [-93.569428, 30.267289], [-93.573064, 30.272523], [-93.574761, 30.277128], [-93.577185, 30.27943], [-93.58179, 30.280058], [-93.589062, 30.280268], [-93.596091, 30.279849], [-93.603121, 30.27964], [-93.607726, 30.27964], [-93.611362, 30.279849], [-93.622512, 30.280477], [-93.629056, 30.280477], [-93.633904, 30.280058], [-93.638025, 30.279012], [-93.646508, 30.277337], [-93.65378, 30.277546], [-93.662021, 30.279221], [-93.668808, 30.279849], [-93.676565, 30.280058], [-93.686261, 30.279221], [-93.694017, 30.277965], [-93.702501, 30.275663], [-93.710015, 30.274407], [-93.715347, 30.272523], [-93.726255, 30.270429], [-93.735223, 30.269173], [-93.740798, 30.268964], [-93.745404, 30.270429], [-93.753645, 30.277128], [-93.759705, 30.281105], [-93.764553, 30.283826], [-93.768431, 30.284873], [-93.775945, 30.285919], [-93.781035, 30.287594], [-93.788549, 30.287803], [-93.799457, 30.287803], [-93.815939, 30.287594], [-93.834846, 30.287175], [-93.854964, 30.287384], [-93.875568, 30.287384], [-93.890353, 30.288012], [-93.900291, 30.287803], [-93.912169, 30.287803], [-93.92647, 30.287384], [-93.943194, 30.287594], [-93.964525, 30.287175], [-93.979311, 30.286966], [-93.993127, 30.286547], [-94.001368, 30.285501], [-94.008882, 30.283617], [-94.018336, 30.280477], [-94.022214, 30.277965]]}}
]
}
