{
"type": "FeatureCollection",
"features": [
{"type": "Feature", "properties": {"ProjectID": "P3585"}, "geometry": {"type": "LineString", "coordinates": [[-102.787464, 48.66814], [-102.787464, 48.65899], [-102.788041, 48.650983], [-102.788041, 48.645262], [-102.79035, 48.638778], [-102.796699, 48.632294], [-102.804203, 48.625426], [-102.814016, 48.624663], [-102.82556, 48.6239], [-102.830178, 48.623137], [-102.834796, 48.617795], [-102.839414, 48.613598], [-102.845186, 48.607491], [-102.850958, 48.601384], [-102.852113, 48.591841], [-102.854999, 48.588404], [-102.860771, 48.574275], [-102.86308, 48.567019], [-102.865966, 48.565491], [-102.868275, 48.558996], [-102.868275, 48.554412], [-102.871738, 48.54142], [-102.876933, 48.528425], [-102.880974, 48.510837], [-102.882705, 48.503189], [-102.885591, 48.496304], [-102.888477, 48.489801], [-102.889632, 48.48215], [-102.893672, 48.474879], [-102.896558, 48.467608], [-102.899445, 48.457657], [-102.903485, 48.443491], [-102.906371, 48.434683], [-102.910412, 48.428939], [-102.911566, 48.424725], [-102.911566, 48.420895], [-102.909257, 48.417064], [-102.90464, 48.413616], [-102.904062, 48.408635]]}}
]
}
