{
"type": "FeatureCollection",
"features": [
{"type": "Feature", "properties": {"ProjectID": "P3602"}, "geometry": {"type": "MultiLineString", "coordinates": [[[82.258428, 16.719706], [82.112095, 16.795471], [81.941705, 16.795471], [81.906881, 16.779302], [81.784996, 16.805421]], [[79.664201, 18.577491], [79.648693, 18.707158], [79.619764, 18.77225], [79.586012, 18.863861], [79.612531, 18.924131], [79.590834, 18.991634], [79.552261, 19.047082], [79.532974, 19.049493], [79.532974, 19.145926], [79.477526, 19.203785], [79.451007, 19.266466], [79.417256, 19.290574], [79.364218, 19.36772], [79.37145, 19.471385], [79.356985, 19.51719], [79.335288, 19.534066], [79.313591, 19.596747], [79.277429, 19.671482], [79.253321, 19.72452], [79.217158, 19.777558], [79.091511, 20.049785], [79.032848, 20.161245], [79.029915, 20.281504], [78.985917, 20.319635], [78.815794, 20.850536], [78.809928, 20.953196], [78.786463, 21.017726], [78.681949, 21.07977], [78.515603, 21.255759], [78.484262, 21.296743], [78.467387, 21.332905], [78.339614, 21.458267], [78.310684, 21.477553], [78.190819, 21.850265], [78.120905, 21.970805], [78.104029, 22.0142], [78.026883, 22.096167], [78.007597, 22.151616], [77.853305, 22.327605], [77.826786, 22.428859], [77.824375, 22.501183], [77.68392, 22.517021], [77.634191, 22.50597], [77.529206, 22.539123], [77.371729, 22.536361], [77.161759, 22.588853], [76.838517, 22.63582], [76.501461, 22.682787], [76.338458, 22.696601], [76.244524, 22.732516], [76.004165, 22.837501], [75.926807, 22.873417], [75.882603, 22.878943], [75.797788, 22.951819], [75.729665, 22.98361], [75.609315, 23.07217], [75.429925, 23.19252], [75.336824, 23.258372], [75.262708, 23.317378], [75.163248, 23.375396], [75.143909, 23.444465], [75.135621, 23.886506], [75.121807, 23.974914], [75.099705, 24.04122], [75.011297, 24.218037], [74.875922, 24.408667], [74.784751, 24.544042], [74.671478, 24.60206], [74.657664, 24.671129], [74.688054, 24.776113], [74.652139, 24.883861], [74.701223, 24.954565]], [[74.259383, 22.833814], [74.377532, 22.844554], [74.617305, 22.850991], [74.657536, 22.871911], [74.741215, 22.902486], [74.763744, 22.925015], [74.802365, 22.93467], [74.886044, 23.000648], [74.952022, 23.01835], [75.013173, 23.01835], [75.124209, 23.015131], [75.185359, 23.021568], [75.219153, 23.089155], [75.280303, 23.14065], [75.302832, 23.216283], [75.340456, 23.255803]], [[77.1506, 24.479013], [77.192792, 24.331653], [77.185255, 24.189958], [77.171688, 24.132677], [77.18289, 24.038622], [77.171166, 23.956553], [77.173511, 23.895587], [77.185235, 23.844], [77.185235, 23.63531], [77.180545, 23.571999], [77.166476, 23.478205], [77.152407, 23.372687], [77.161787, 23.307032], [77.168821, 23.250756], [77.18289, 23.194479], [77.1782, 23.114755], [77.157097, 23.030341], [77.150062, 22.833374], [77.161749, 22.588845]], [[78.19836, 24.180015], [78.101285, 24.169393], [78.031513, 24.159954], [77.879656, 24.173087], [77.725904, 24.138241], [77.569348, 24.128656], [77.431962, 24.135046], [77.294577, 24.120668], [77.262627, 24.131851], [77.18526, 24.189908]]]}}
]
}
