{
"type": "FeatureCollection",
"features": [
{"type": "Feature", "properties": {"ProjectID": "P3604"}, "geometry": {"type": "MultiLineString", "coordinates": [[[102.366667, 53.616667], [102.199089, 53.946438], [101.945468, 54.140803], [101.678058, 54.327759], [101.351522, 54.474074], [101.087564, 54.592199], [100.892019, 54.649327], [100.653693, 54.687652], [100.361204, 54.717561], [99.948908, 54.713166], [99.618816, 54.740091], [99.308381, 54.787034], [98.993805, 54.907812], [98.777443, 55.045657], [98.626751, 55.185839], [98.569044, 55.377324], [98.552414, 55.55549], [98.498943, 55.644078], [98.347446, 55.732245], [98.176246, 55.835734], [98.040972, 55.968125], [97.91709, 56.154791], [97.830562, 56.444395], [97.741702, 57.001703], [97.680246, 57.278963], [97.574874, 57.402561], [97.363013, 57.547854], [97.266245, 57.647207], [97.251211, 57.795644], [97.218316, 57.936112], [97.126876, 58.066913], [96.894784, 58.221123], [96.767865, 58.307864], [96.723389, 58.36595], [96.745518, 58.433326], [96.875986, 58.475004], [97.022808, 58.515396], [97.111874, 58.550493], [98.02822, 58.532344], [98.216712, 58.567804], [98.449519, 58.645309], [98.634346, 58.813984], [98.832281, 58.962858], [99.250781, 59.147129], [99.76757, 59.279274], [100.340687, 59.463685], [100.735271, 59.553073], [101.171594, 59.608925], [101.475061, 59.691768], [101.646868, 59.784025], [101.717904, 59.924516]], [[97.111874, 58.550493], [96.9619, 58.684865], [96.894737, 58.790383], [96.8005, 58.925113], [96.601359, 59.075604], [96.411195, 59.19751], [96.192709, 59.39382], [96.045305, 59.580768], [95.894401, 59.758382], [95.852639, 59.938771], [95.907661, 60.136542], [96.073941, 60.328003], [96.385767, 60.501624], [96.648226, 60.631878], [96.868869, 60.759673], [97.045947, 60.917301]]]}}
]
}
