{
"type": "FeatureCollection",
"features": [
{"type": "Feature", "properties": {"ProjectID": "P3619", "id": 1, "Name": "CedarLNGPipeline", "Type": "Main"}, "geometry": {"type": "MultiLineString", "coordinates": [[[-128.682336, 54.02694], [-128.683497, 54.027167], [-128.684658, 54.028304], [-128.683829, 54.028856], [-128.686815, 54.033598], [-128.691183, 54.032753], [-128.698039, 54.031974], [-128.702408, 54.031617], [-128.706444, 54.031227], [-128.708656, 54.030772], [-128.710204, 54.030577], [-128.711476, 54.030967], [-128.712858, 54.031909], [-128.713964, 54.032981], [-128.715014, 54.033208], [-128.715954, 54.032786], [-128.716673, 54.031746], [-128.717226, 54.030415], [-128.717558, 54.028791], [-128.717613, 54.026875], [-128.717724, 54.025381], [-128.718, 54.024179], [-128.718111, 54.022945], [-128.71789, 54.021873], [-128.717613, 54.021061], [-128.71695, 54.020086], [-128.716065, 54.019209], [-128.714904, 54.018299], [-128.714185, 54.017715], [-128.713356, 54.01739], [-128.712582, 54.01661], [-128.711973, 54.015733], [-128.71142, 54.014953], [-128.711199, 54.013556], [-128.710978, 54.012451], [-128.711144, 54.011347], [-128.710923, 54.010307], [-128.71037, 54.009495], [-128.709596, 54.009137], [-128.708822, 54.008747], [-128.708656, 54.008065], [-128.7086, 54.00657], [-128.708296, 54.005352], [-128.708048, 54.004718], [-128.70755, 54.004035], [-128.706776, 54.003353], [-128.706002, 54.002931], [-128.705476, 54.002508], [-128.704702, 54.002134], [-128.704315, 54.001468], [-128.704149, 54.000867], [-128.704177, 54.000054], [-128.704177, 54.000054], [-128.704177, 53.9976], [-128.703873, 53.994561], [-128.703071, 53.991083], [-128.703486, 53.988564], [-128.703928, 53.986906], [-128.704315, 53.98593], [-128.704315, 53.984467], [-128.704536, 53.98359], [-128.704979, 53.982712], [-128.705117, 53.981899], [-128.705062, 53.980614], [-128.704951, 53.979753], [-128.704564, 53.978891], [-128.703596, 53.977997], [-128.702988, 53.977721], [-128.702021, 53.977477], [-128.700942, 53.977363], [-128.700306, 53.977298]]]}}
]
}
