{
"type": "FeatureCollection",
"features": [
{"type": "Feature", "properties": {"ProjectID": "P3635"}, "geometry": {"type": "MultiLineString", "coordinates": [[[148.32975, -34.23947], [148.33664, -34.22413], [148.38136, -34.18423], [148.42029, -34.16322], [148.43722, -34.15085], [148.44825, -34.14306], [148.47288, -34.13059], [148.47757, -34.12548], [148.49205, -34.12314], [148.50088, -34.10771], [148.51895, -34.09937], [148.54926, -34.04984], [148.56083, -34.04853], [148.56567, -34.04666], [148.56884, -34.04238], [148.57247, -34.03332], [148.58424, -34.0136], [148.59338, -33.99653], [148.6097, -33.97675], [148.62681, -33.95731], [148.63897, -33.94273], [148.6867, -33.89429], [148.69718, -33.87746], [148.71714, -33.84833], [148.80054, -33.77996], [148.8037, -33.77585], [148.83536, -33.74157], [148.8387, -33.73543], [148.92242, -33.70643], [148.98344, -33.68022], [149.05421, -33.5943], [149.05561, -33.58571], [149.06088, -33.58021], [149.07766, -33.57047], [149.09045, -33.55582], [149.11575, -33.5333], [149.14494, -33.51657]], [[149.14494, -33.51657], [149.18765, -33.51078], [149.19704, -33.51249], [149.22352, -33.51608], [149.22883, -33.51328], [149.23511, -33.50663], [149.2718, -33.51024], [149.30265, -33.51644], [149.34511, -33.51474], [149.35384, -33.51487], [149.36588, -33.51307], [149.37383, -33.51247], [149.3837, -33.51281], [149.40642, -33.51311], [149.43712, -33.51386], [149.45432, -33.51262], [149.4639, -33.50883], [149.48102, -33.49675], [149.49132, -33.49283], [149.50531, -33.48951], [149.51384, -33.48663], [149.53194, -33.47995], [149.54411, -33.47339], [149.55425, -33.47003], [149.58601, -33.47162], [149.61221, -33.46612], [149.62305, -33.46859], [149.6348, -33.46609], [149.65579, -33.46654], [149.67848, -33.46966], [149.6989, -33.46877], [149.70146, -33.46465], [149.71866, -33.46428]], [[149.14494, -33.51657], [149.13824, -33.50631], [149.14077, -33.45622], [149.13551, -33.43918], [149.13293, -33.42164], [149.13354, -33.40269], [149.1245, -33.39338], [149.11907, -33.38265], [149.11842, -33.35561], [149.11475, -33.34576], [149.1135, -33.34118], [149.11196, -33.33301], [149.11184, -33.32777], [149.11079, -33.32529], [149.10903, -33.32286], [149.10894, -33.3188], [149.1056, -33.3139]], [[149.71866, -33.46428], [149.72888, -33.4645], [149.75142, -33.4631], [149.78033, -33.45451], [149.78499, -33.45395], [149.79793, -33.45331], [149.83645, -33.45659], [149.86233, -33.45821], [149.89985, -33.46287], [149.91648, -33.46158], [149.92759, -33.45636], [149.96351, -33.4528], [149.96876, -33.44907], [149.98153, -33.44515], [149.99348, -33.44498], [149.99801, -33.44289], [150.0189, -33.43925], [150.02822, -33.43773], [150.04882, -33.4278], [150.05479, -33.42704], [150.05962, -33.42715], [150.07555, -33.42965], [150.09461, -33.43233], [150.10554, -33.43379], [150.11468, -33.43485], [150.12431, -33.45482], [150.126, -33.46232]], [[149.71866, -33.46428], [149.72024, -33.48092], [149.72865, -33.49155], [149.73283, -33.50453], [149.73207, -33.51492], [149.73416, -33.52975], [149.74809, -33.56189], [149.75757, -33.57205], [149.76442, -33.58407], [149.76723, -33.58761], [149.77365, -33.58657], [149.78245, -33.59223], [149.79939, -33.61664], [149.80464, -33.62869], [149.80849, -33.64754], [149.80869, -33.65384], [149.81979, -33.66396], [149.8318, -33.66819], [149.84918, -33.68852], [149.85965, -33.6955]]]}}
]
}
