{
"type": "FeatureCollection",
"features": [
{"type": "Feature", "properties": {"ProjectID": "P3642"}, "geometry": {"type": "LineString", "coordinates": [[133.807253, -23.813693], [133.807997, -23.814835], [133.817948, -23.814694], [133.821839, -23.819685], [133.820588, -23.842391], [133.820741, -23.842555], [133.82032, -23.850062], [133.824324, -23.866366], [133.826296, -23.883321], [133.827365, -23.891132], [133.826672, -23.914887], [133.822954, -23.937864], [133.820287, -23.960472], [133.819952, -23.968164], [133.818861, -23.969457], [133.8167, -23.985674], [133.818298, -23.986447], [133.847665, -24.037678], [133.85715, -24.06328], [133.857008, -24.126672], [133.85527, -24.144498], [133.856379, -24.146729], [133.855796, -24.174464], [133.855381, -24.180375], [133.854766, -24.183794], [133.855321, -24.191879], [133.857155, -24.197247], [133.857606, -24.202868], [133.856525, -24.205087], [133.855274, -24.206245], [133.855153, -24.210052], [133.855555, -24.212404], [133.862089, -24.215529], [133.863853, -24.215549]]}}
]
}
