{
"type": "FeatureCollection",
"features": [
{"type": "Feature", "properties": {"ProjectID": "P3646"}, "geometry": {"type": "MultiLineString", "coordinates": [[[145.526378, -38.063723], [145.526449, -38.063824], [145.523942, -38.064296], [145.522795, -38.069222], [145.52217, -38.070956], [145.524107, -38.071988], [145.523795, -38.073592], [145.523898, -38.074274], [145.52293, -38.078903], [145.52512, -38.081294], [145.531045, -38.082328], [145.531436, -38.082942], [145.531015, -38.085032], [145.530752, -38.085323], [145.528729, -38.094586], [145.529958, -38.094762], [145.529453, -38.095764], [145.529649, -38.096177], [145.529283, -38.098134], [145.530667, -38.100358], [145.53682, -38.102758], [145.540377, -38.10324], [145.540792, -38.10347], [145.54248, -38.103701], [145.542959, -38.104191], [145.54218, -38.108132], [145.541895, -38.108389], [145.542033, -38.108876], [145.540096, -38.118199], [145.548251, -38.124582], [145.546665, -38.132109], [145.546884, -38.132581], [145.546233, -38.135435], [145.545952, -38.135795], [145.545371, -38.137493], [145.544997, -38.139332], [145.548079, -38.142186], [145.549021, -38.143484], [145.553837, -38.144141], [145.555246, -38.145257], [145.557057, -38.145531], [145.555825, -38.151655], [145.563436, -38.149979], [145.564785, -38.153748], [145.565624, -38.15456], [145.566121, -38.15542], [145.568723, -38.162734], [145.567383, -38.163092], [145.563804, -38.168172], [145.563887, -38.168724], [145.574136, -38.17324], [145.575904, -38.176652], [145.579837, -38.178998], [145.578913, -38.183372], [145.577866, -38.184725], [145.577477, -38.186887], [145.574993, -38.191039], [145.574933, -38.191559], [145.573532, -38.193874], [145.576704, -38.195064], [145.579584, -38.196941], [145.580508, -38.200575], [145.577725, -38.205235], [145.582564, -38.207057], [145.591226, -38.220099], [145.591566, -38.244103], [145.59448, -38.248513], [145.592867, -38.252572], [145.592892, -38.25316], [145.595803, -38.257569], [145.594284, -38.260553], [145.591047, -38.271825], [145.587093, -38.279837], [145.589092, -38.28114], [145.58876, -38.281716], [145.58653, -38.291999], [145.585195, -38.29288], [145.588815, -38.298256]], [[145.588815, -38.298256], [145.589312, -38.299005], [145.589347, -38.300869], [145.589522, -38.301478], [145.592552, -38.304044], [145.592564, -38.304344], [145.591141, -38.308381], [145.591445, -38.309453], [145.591122, -38.310012], [145.591919, -38.311234], [145.591881, -38.311579], [145.593158, -38.313146], [145.594732, -38.315561], [145.594055, -38.316172], [145.594772, -38.320272], [145.596853, -38.320559], [145.601079, -38.321668], [145.601822, -38.321672]]]}}
]
}
