{
"type": "FeatureCollection",
"features": [
{"type": "Feature", "properties": {"ProjectID": "P3648"}, "geometry": {"type": "LineString", "coordinates": [[121.480756, -30.866055], [121.480118, -30.866197], [121.480529, -30.867311], [121.480494, -30.867509], [121.477115, -30.868893], [121.480117, -30.876728], [121.483779, -30.879196], [121.506885, -30.941581], [121.514657, -30.953273], [121.523592, -30.973986], [121.52629, -30.999744], [121.55742, -31.079429], [121.588887, -31.13386], [121.590667, -31.135953], [121.596578, -31.146268], [121.597639, -31.147834], [121.598985, -31.149227], [121.602632, -31.151693], [121.603853, -31.152689], [121.604753, -31.153607], [121.60585, -31.156011], [121.609343, -31.169445], [121.610807, -31.173052], [121.618694, -31.180862], [121.620769, -31.184712], [121.625518, -31.191171], [121.62994, -31.190561], [121.633126, -31.191021], [121.637062, -31.190803], [121.641479, -31.189977], [121.642296, -31.190373], [121.653653, -31.189202], [121.660176, -31.190632], [121.663497, -31.190984], [121.667824, -31.191666], [121.670749, -31.192546], [121.672568, -31.193612], [121.67313, -31.192914]]}}
]
}
