{
"type": "FeatureCollection",
"features": [
{"type": "Feature", "properties": {"ProjectID": "P3643"}, "geometry": {"type": "LineString", "coordinates": [[140.104826, -22.257803], [140.105109, -22.257723], [140.10535, -22.257651], [140.105691, -22.257577], [140.106038, -22.257532], [140.106381, -22.257469], [140.106893, -22.257356], [140.108235, -22.257061], [140.111613, -22.256315], [140.114774, -22.255619], [140.116803, -22.255172], [140.117964, -22.254918], [140.12019, -22.254428], [140.120872, -22.254277], [140.121379, -22.254154], [140.121707, -22.254041], [140.125122, -22.252786], [140.126423, -22.252309], [140.126744, -22.25218], [140.142765, -22.242685], [140.159589, -22.23272], [140.162372, -22.231082], [140.178886, -22.223626], [140.180963, -22.222769], [140.191896, -22.219811], [140.197835, -22.220113], [140.202609, -22.219134], [140.208142, -22.215886], [140.209368, -22.215737], [140.211472, -22.214198], [140.232637, -22.20356], [140.258643, -22.198347], [140.262736, -22.196877], [140.266401, -22.195303], [140.269574, -22.194524], [140.276431, -22.192156], [140.291788, -22.190231], [140.295333, -22.188507], [140.297451, -22.187761], [140.321514, -22.177167], [140.328631, -22.171346], [140.360748, -22.161951], [140.3632, -22.161143], [140.367301, -22.159792], [140.395777, -22.15038], [140.411216, -22.145269], [140.42266, -22.141484], [140.423502, -22.141234], [140.42519, -22.140798], [140.463449, -22.130809], [140.463611, -22.130743], [140.490826, -22.117273], [140.504649, -22.107613], [140.51314, -22.10274], [140.515338, -22.102027], [140.518663, -22.101051], [140.531998, -22.097194], [140.549496, -22.092768], [140.557199, -22.090818], [140.563819, -22.088885], [140.571163, -22.085768], [140.579894, -22.083161], [140.583865, -22.082083], [140.589165, -22.07987], [140.590527, -22.079789], [140.605605, -22.07288], [140.612825, -22.068912], [140.618847, -22.063945], [140.623489, -22.053537], [140.61911, -22.042501], [140.631269, -22.034335], [140.633137, -22.034597], [140.645177, -22.027099], [140.663798, -22.016771], [140.668721, -22.01708], [140.686138, -22.00204], [140.705504, -21.977996], [140.715987, -21.971867], [140.716993, -21.971573], [140.719228, -21.96994], [140.723231, -21.967583], [140.736715, -21.959644], [140.737296, -21.957955], [140.756674, -21.947949], [140.764315, -21.947603], [140.818325, -21.916388], [140.848509, -21.898919], [140.886205, -21.877119], [140.910832, -21.86284], [140.909762, -21.861226], [140.912511, -21.859643], [140.913192, -21.859802], [140.914381, -21.859158], [140.914496, -21.859329]]}}
]
}
