{
"type": "FeatureCollection",
"features": [
{"type": "Feature", "properties": {"ProjectID": "P3898", "SourceProjectID": "P0466", "Fuel": "Gas", "StartCount": "Algeria", "EndCountry": "Algeria", "Countries": "Algeria", "Wiki": "https://www.gem.wiki/Hassi_R'Mel-Arzew_Gas_Pipeline", "PipelineNa": "Hassi R'Mel-Arzew Gas Pipeline", "SegmentNam": "Mainline", "OtherEngli": "GZ0", "Status": "operating", "Owner": "Sonatrach (100%)", "Parent": "Sonatrach [100.00%]", "ParentHQCo": "Algeria", "StartYear1": "1961", "StartYear2": null, "StartYear3": null, "StopYear": null, "ShelvedYea": null, "Capacity": "652.33", "CancelledY": null, "CapacityUn": "MMcf/d", "CapacityBc": "6.75", "CapacityBO": "3142.03", "LengthKnow": "509", "LengthEsti": "529.5", "LengthMerg": "509", "Diameter": "20,24", "DiameterUn": "in", "FuelSource": null, "StartLocat": "Hassi R'Mel", "StartPrefe": null, "StartState": "Laghouat", "StartRegio": "Africa", "EndLocatio": "Arzew", "StartSubRe": "Northern Africa", "EndPrefect": null, "EndState/P": "Oran", "EndRegion": "Africa", "FIDStatus": null, "EndSubRegi": "Northern Africa", "FIDYear": null, "OtherLangu": "أنبوب الغاز حاسي الرمل - أرزيو", "OtherLan_1": null, "Cost": null, "CostUnits": null, "CostUSD": "--", "WKTFormat": "LINESTRING (3.331794904 32.34731415, 1.069974237 35.29040295, -0.3388151977 35.84376217)", "LastUpdate": "2024-07-02"}, "geometry": {"type": "MultiLineString", "coordinates": [[[3.248774, 32.936657], [2.986581, 33.406428], [2.899183, 33.519502], [2.796972, 33.750133], [2.731794, 33.817233], [2.623658, 33.877516], [2.594031, 33.925466], [2.589587, 34.020058], [2.35702, 34.357024], [2.094827, 34.676197], [1.555627, 34.952572], [1.333429, 35.276404], [1.306025, 35.280637], [1.260844, 35.316302], [1.235662, 35.328388], [1.197148, 35.388189], [1.126785, 35.431048], [1.051978, 35.450509], [0.85126, 35.549398], [0.790526, 35.562654], [0.664614, 35.621679], [0.573512, 35.615808], [0.52611, 35.638083], [0.400198, 35.623635], [0.378719, 35.606174], [0.304653, 35.609185], [0.260954, 35.635676], [0.175778, 35.651325], [-0.037532, 35.610389], [-0.110857, 35.615206], [-0.176776, 35.647112], [-0.247138, 35.781818], [-0.254545, 35.79023], [-0.292318, 35.793234], [-0.338815, 35.843762]]]}}
]
}
