{
"type": "FeatureCollection",
"features": [
{"type": "Feature", "properties": {"ProjectID": "P3897", "Fuel": "Gas", "StartCount": "Algeria", "EndCountry": "Algeria", "Countries": "Algeria", "Wiki": "https://www.gem.wiki/Hassi_R%27Mel-Skikda_Gas_Pipeline", "PipelineNa": "Hassi R'Mel-Skikda II Gas Pipeline", "SegmentNam": null, "OtherEngli": "GK2", "Status": "operating", "Owner": "Sonatrach (100%)", "Parent": "Sonatrach [100.00%]", "ParentHQCo": "Algeria", "StartYear1": "2001", "StartYear2": null, "StartYear3": null, "StopYear": null, "ShelvedYea": null, "Capacity": "20.47", "CancelledY": null, "CapacityUn": "bcm/y", "CapacityBc": "20.47", "CapacityBO": "9532.92", "LengthKnow": "575", "LengthEsti": "547.65", "LengthMerg": "575", "Diameter": "42", "DiameterUn": "in", "FuelSource": null, "StartLocat": "Hassi R'Mel", "StartPrefe": null, "StartState": "Laghouat", "StartRegio": "Africa", "EndLocatio": null, "StartSubRe": "Northern Africa", "EndPrefect": "Skikda", "EndState/P": "Skikda", "EndRegion": "Africa", "FIDStatus": null, "EndSubRegi": "Northern Africa", "FIDYear": null, "OtherLangu": null, "OtherLan_1": null, "Cost": null, "CostUnits": null, "CostUSD": "--", "WKTFormat": "LINESTRING (3.283 32.972, 6.947 36.88)", "LastUpdate": "2024-07-10"}, "geometry": {"type": "MultiLineString", "coordinates": [[[3.246165, 32.920148], [3.249213, 32.947044], [3.250027, 32.95415], [3.251423, 32.956214], [3.376581, 33.064602], [3.446745, 33.133046], [3.4996, 33.171065], [3.558038, 33.225572], [3.59861, 33.280589], [3.60866, 33.288368], [3.625782, 33.312322], [3.766108, 33.472448], [4.003212, 33.746948], [4.0717, 33.811918], [4.107433, 33.843457], [4.126788, 33.862622], [4.145399, 33.878693], [4.219843, 33.943254], [4.22431, 33.951283], [4.246643, 33.977215], [4.261532, 33.985857], [4.42233, 34.129559], [4.461041, 34.161981], [4.513152, 34.209399], [4.607323, 34.292008], [4.61179, 34.302771], [4.676556, 34.371311], [4.707078, 34.410627], [4.722711, 34.423523], [4.743555, 34.427054], [4.783382, 34.455295], [4.79306, 34.467418], [4.911798, 34.620102], [4.919987, 34.623624], [4.998897, 34.72403], [5.053986, 34.791765], [5.109074, 34.846158], [5.119868, 34.860972], [5.131779, 34.871356], [5.135501, 34.886623], [5.137735, 34.922644], [5.132524, 34.930578], [5.134013, 34.948276], [5.14369, 34.957428], [5.154857, 34.962309], [5.159323, 34.96841], [5.179423, 34.987319], [5.188357, 35.000736], [5.189845, 35.016589], [5.184634, 35.036097], [5.188357, 35.050115], [5.183145, 35.079362], [5.18389, 35.105554], [5.191334, 35.10799], [5.203245, 35.128085], [5.195801, 35.137217], [5.194312, 35.143305], [5.232278, 35.182255], [5.279922, 35.23046], [5.3097, 35.259643], [5.337244, 35.283346], [5.345433, 35.304005], [5.37521, 35.341663], [5.410199, 35.375662], [5.503254, 35.446043], [5.511442, 35.462719], [5.509954, 35.469388], [5.52112, 35.489999], [5.536009, 35.500303], [5.544198, 35.517271], [5.536009, 35.535447], [5.551642, 35.548773], [5.567275, 35.56573], [5.591097, 35.577841], [5.62013, 35.603872], [5.636508, 35.605687], [5.643208, 35.615976], [5.659586, 35.623238], [5.68043, 35.629289], [5.696063, 35.629289], [5.734774, 35.654698], [5.780929, 35.676774], [5.830062, 35.71184], [5.900039, 35.789173], [5.908972, 35.807287], [5.91865, 35.81755], [5.933539, 35.822982], [5.94545, 35.824189], [5.959594, 35.859794], [5.992349, 35.873066], [6.03106, 35.922516], [6.099548, 35.962294], [6.138259, 35.999643], [6.224614, 36.069475], [6.249925, 36.098353], [6.380946, 36.183721], [6.422634, 36.249787], [6.492611, 36.324495], [6.681698, 36.5114], [6.722642, 36.567772], [6.777731, 36.63411], [6.858875, 36.738582], [6.867808, 36.757073], [6.88493, 36.774368], [6.888652, 36.795831], [6.910985, 36.813713], [6.937785, 36.818481], [6.949696, 36.830399], [6.947, 36.88]]]}}
]
}
