{
"type": "FeatureCollection",
"features": [
{"type": "Feature", "properties": {"ProjectID": "P3901", "Fuel": "Gas", "StartCount": "Algeria", "EndCountry": "Algeria", "Countries": "Algeria", "Wiki": "https://www.gem.wiki/Hassi_R'Mel-Arzew_Gas_Pipeline", "PipelineNa": "Hassi R'Mel-Arzew Gas Pipeline", "SegmentNam": "Pipeline IV", "OtherEngli": "GZ4", "Status": "operating", "Owner": "Sonatrach (100%)", "Parent": "Sonatrach [100.00%]", "ParentHQCo": "Algeria", "StartYear1": "1987", "StartYear2": null, "StartYear3": null, "StopYear": null, "ShelvedYea": null, "Capacity": "11.25", "CancelledY": null, "CapacityUn": "bcm/y", "CapacityBc": "11.25", "CapacityBO": "5239.15", "LengthKnow": "513", "LengthEsti": "529.5", "LengthMerg": "513", "Diameter": "48", "DiameterUn": "in", "FuelSource": null, "StartLocat": "Hassi R'Mel", "StartPrefe": null, "StartState": "Laghouat", "StartRegio": "Africa", "EndLocatio": null, "StartSubRe": "Northern Africa", "EndPrefect": "Arzew", "EndState/P": "Oran", "EndRegion": "Africa", "FIDStatus": null, "EndSubRegi": "Northern Africa", "FIDYear": null, "OtherLangu": null, "OtherLan_1": null, "Cost": null, "CostUnits": null, "CostUSD": "--", "WKTFormat": "LINESTRING (3.331794904 32.34731415, 1.069974237 35.29040295, -0.3388151977 35.84376217)", "LastUpdate": "2022-07-07"}, "geometry": {"type": "MultiLineString", "coordinates": [[[3.250996, 32.93588], [2.990284, 33.408283], [2.904367, 33.521972], [2.803638, 33.756291], [2.73846, 33.820309], [2.628842, 33.879361], [2.602178, 33.926081], [2.596253, 34.021899], [2.365167, 34.357636], [2.09853, 34.679852], [1.562293, 34.953482], [1.508965, 35.014166], [1.336392, 35.279125], [1.306765, 35.285171], [1.263807, 35.319021], [1.238625, 35.331107], [1.198629, 35.390302], [1.129007, 35.433764], [1.05346, 35.453375], [0.973468, 35.490773], [0.852, 35.553466], [0.791266, 35.565516], [0.663873, 35.625743], [0.601657, 35.618518], [0.57055, 35.619722], [0.52611, 35.641394], [0.397235, 35.625743], [0.375016, 35.608884], [0.303912, 35.611292], [0.260954, 35.638986], [0.173556, 35.653431], [-0.054567, 35.610087], [-0.115301, 35.619722], [-0.176035, 35.648617], [-0.244176, 35.780917], [-0.253063, 35.792934], [-0.288615, 35.795337], [-0.310835, 35.819363], [-0.352147, 35.844965]]]}}
]
}
