{"type": "FeatureCollection", "name": "P3912", "crs": {"type": "name", "properties": {"name": "urn:ogc:def:crs:OGC:1.3:CRS84"}}, "features": [{"type": "Feature", "properties": {"PipelineName": "Swan LNG Terminal to Dahej LNG Terminal Gas Pipeline", "SegmentName": "", "Wiki": "https://www.gem.wiki/Swan_LNG_Terminal_to_Dahej_LNG_Terminal_Gas_Pipeline", "ProjectID": "P3912", "Status": "construction", "LastUpdated": "2025-07-17", "Fuel": "Gas", "OtherEnglishNames": "", "OtherLanguagePrimaryPipelineName": "", "OtherLanguageSegmentName": "", "CountriesOrAreas": "India", "Owner": "GAIL (India) Ltd [100.%]", "Parent": "GAIL Ltd [100.00%]", "ParentEntityIDs": "E100000000513", "StartYear1": "2024", "StartYear2": "", "StartYear3": "", "ShelvedYear": "", "CancelledYear": "", "StopYear": "", "Capacity": "7.0", "CapacityUnits": "MMSCMD", "CapacityBcm/y": "2.56", "CapacityBOEd": "41181.0", "LengthKnownKm": "170.0", "LengthEstimateKm": "150.76", "LengthMergedKm": "170.0", "Diameter": "", "DiameterUnits": "", "FuelSource": "", "StartLocation": "Jafrabad", "StartPrefecture/District": "", "StartState/Province": "Gujarat", "StartCountryOrArea": "India", "StartRegion": "Asia", "StartSubRegion": "Southern Asia", "EndLocation": "", "EndPrefecture/District": "Dahej", "EndState/Province": "Gujarat", "EndCountryOrArea": "India", "EndRegion": "Asia", "EndSubRegion": "Southern Asia", "ProjectLevelCost": "", "ProjectLevelCostUnits": "", "CostUSD": "--", "FIDStatus": "", "FIDYear": "", "PCI3": "", "PCI4": "", "PCI5": "", "PCI6": "", "RouteAccuracy": "very low (straight line/schematic)", "RouteType": "Mapped route (at any accuracy)", "RouteCreator": "WA", "PipelineStatus": "construction", "CapacityMapScale": "41181.0", "SourceNote": "Jafrabad-Dahej placeholder with gentle curvature added for a more natural look; length tuned to match PNGRB QPR NGPL June 2026 official Auth. Length (170 km, PL Unique ID 21.18.NGPL). Not a real trace - still needs proper source data to replace with an actual routed path."}, "geometry": {"type": "LineString", "coordinates": [[71.3667, 20.8667], [71.43603890403104, 21.022248327237417], [71.5102623040773, 21.171157093787528], [71.59377656765179, 21.30743666542365], [71.69007860781207, 21.42633364151005], [71.80141358094582, 21.52479615097506], [71.9285551152207, 21.60177259071523], [72.07072958246907, 21.65831456383401], [72.22569182630323, 21.697473941403068], [72.38994493366559, 21.724004124058137], [72.5590825370432, 21.7438947460259]]}}]}