{
"type": "FeatureCollection",
"features": [
{"type": "Feature", "properties": {"ProjectID": "P3924", "Fuel": "Gas", "StartCount": "Algeria", "EndCountry": "Algeria", "Countries": "Algeria", "Wiki": "https://www.gem.wiki/GR-4_Gas_Pipeline", "PipelineNa": "GR-4 Gas Pipeline", "SegmentNam": null, "OtherEngli": "Rhourd Ennous-Hassi R'Mel II Gas Pipeline", "Status": "operating", "Owner": "Sonatrach (100%)", "Parent": "Sonatrach [100.00%]", "ParentHQCo": "Algeria", "StartYear1": null, "StartYear2": null, "StartYear3": null, "StopYear": null, "ShelvedYea": null, "Capacity": "12", "CancelledY": null, "CapacityUn": "bcm/y", "CapacityBc": "12", "CapacityBO": "5588.43", "LengthKnow": "531", "LengthEsti": "537.29", "LengthMerg": "531", "Diameter": "48", "DiameterUn": "in", "FuelSource": null, "StartLocat": "Rhourd Ennous", "StartPrefe": null, "StartState": "Ouargla", "StartRegio": "Africa", "EndLocatio": null, "StartSubRe": "Northern Africa", "EndPrefect": "Hassi R'Mel", "EndState/P": "Laghouat", "EndRegion": "Africa", "FIDStatus": null, "EndSubRegi": "Northern Africa", "FIDYear": null, "OtherLangu": "انبوب غاز (جي أر 4), خط أنابيب رورد النوس - حاسي الرمل", "OtherLan_1": null, "Cost": null, "CostUnits": null, "CostUSD": "--", "WKTFormat": "LINESTRING (6.7133 29.6963, 6.596 29.7476, 6.464 30.8708, 5.9015 31.7917, 5.7715 31.8834, 5.2074 31.9547, 4.3567 32.3079, 3.2516 32.9361)", "LastUpdate": "2022-07-06"}, "geometry": {"type": "MultiLineString", "coordinates": [[[6.7133, 29.6963], [6.596, 29.7476], [6.464, 30.8708], [6.413626, 30.953312], [6.415107, 30.986335], [6.338079, 31.14114], [6.30549, 31.186771], [6.296602, 31.218447], [6.256606, 31.312145], [6.064035, 31.591419], [6.016632, 31.648182], [6.006263, 31.696089], [5.94701, 31.740191], [5.9015, 31.7917], [5.7715, 31.8834], [5.453731, 31.901931], [5.2074, 31.9547], [5.102659, 32.023835], [4.948602, 32.092883], [4.357555, 32.30222], [4.286452, 32.365428], [4.163503, 32.441718], [3.739846, 32.635282], [3.674668, 32.644013], [3.64356, 32.665216], [3.547274, 32.687659], [3.502835, 32.726299], [3.46432, 32.73253], [3.45247, 32.717576], [3.422843, 32.747482], [3.402105, 32.763677], [3.39618, 32.783605], [3.366553, 32.823448], [3.25101, 32.91676], [3.2516, 32.9361]]]}}
]
}
