{
"type": "FeatureCollection",
"features": [
{"type": "Feature", "properties": {"ProjectID": "P3946", "fid": 3946}, "geometry": {"type": "MultiLineString", "coordinates": [[[57.229386, 48.206681], [57.265426, 48.177035], [57.453535, 48.08774], [57.625037, 48.003603], [57.748306, 47.941039], [57.867192, 47.872997], [57.950349, 47.832016], [58.025398, 47.791046], [58.108185, 47.744575], [58.191008, 47.706109], [58.363972, 47.771392], [58.428271, 47.789429], [58.512793, 47.815229], [58.633574, 47.848522], [58.686078, 47.866581], [58.810986, 47.896939], [58.952431, 47.937634], [59.077874, 47.973069], [59.179013, 47.998078], [59.234115, 47.975512], [59.273056, 47.950552], [59.343687, 47.91956], [59.427342, 47.912444], [59.479274, 47.911334], [59.604534, 47.857479]]]}}
]
}
