{
"type": "FeatureCollection",
"features": [
{"type": "Feature", "properties": {"ProjectID": "P3945"}, "geometry": {"type": "LineString", "coordinates": [[57.443878, 48.310872], [57.556261, 48.305626], [57.577949, 48.330538], [57.587807, 48.347575], [57.587807, 48.364607], [57.670615, 48.460141], [57.719905, 48.526778], [57.771167, 48.542445], [57.857919, 48.641553], [57.990017, 48.726163], [58.084655, 48.819719], [58.226611, 48.84308], [58.340965, 48.870322], [58.364625, 48.876806], [58.43166, 48.875509], [58.455319, 48.884585], [58.48095, 48.880696], [58.508553, 48.887178], [58.530241, 48.904029], [58.547985, 48.920874], [58.599247, 48.954547], [58.624879, 48.950663], [58.654453, 48.951958], [58.68797, 48.950663], [58.713601, 48.950663], [58.740371, 48.955747], [58.777092, 48.950758], [58.813813, 48.964061], [58.860664, 48.948263], [58.901184, 48.919981], [58.97969, 48.930797], [59.03034, 48.883357], [59.056931, 48.882524], [59.1294, 48.900357]]}},
{"type": "Feature", "properties": {"ProjectID": "P3945"}, "geometry": {"type": "LineString", "coordinates": [[58.90403, 48.918832], [58.940419, 48.901749], [58.978107, 48.902604], [59.03139, 48.856451], [59.134058, 48.854741]]}}
]
}
