{
"type": "FeatureCollection",
"features": [
{"type": "Feature", "properties": {"ProjectID": "P3940", "fid": 1951, "PipelineName": "Perito Moreno Gas Pipeline", "SegmentName": "Phase 2", "Wiki": "https://www.gem.wiki/Perito_Moreno_Gas_Pipeline", "Status": "proposed", "LastUpdated": "2025-09-18", "Fuel": "Gas", "OtherEnglishNames": "Néstor Kirchner Gas Pipeline", "OtherLanguagePrimaryPipelineName": "Gasoducto Perito Moreno", "OtherLanguageSegmentName": "", "CountriesOrAreas": "Argentina", "Owner": "Enarsa (Energía Argentina SA) (100%)", "Parent": "Energía Argentina SA [100.00%]", "StartYear1": "", "StartYear2": "", "StartYear3": "", "ShelvedYear": "", "CancelledYear": "", "StopYear": "", "Capacity": "7.3", "CapacityUnits": "bcm/y", "CapacityBcm/y": "7.3", "CapacityBOEd": "117660.0", "LengthKnownKm": "280.0", "LengthEstimateKm": "572.81", "LengthMergedKm": "280.0", "Diameter": "", "DiameterUnits": "", "FuelSource": "Vaca Muerta shale fields", "StartLocation": "Chacharramendi", "StartPrefecture/District": "", "StartState/Province": "La Pampa", "StartCountryOrArea": "Argentina", "StartRegion": "Americas", "StartSubRegion": "Latin America and the Caribbean", "EndLocation": "La Carlota", "EndPrefecture/District": "", "EndState/Province": "Córdoba", "EndCountryOrArea": "Argentina", "EndRegion": "Americas", "EndSubRegion": "Latin America and the Caribbean", "ProjectLevelCost": "", "ProjectLevelCostUnits": "", "CostUSD": "2554000000.0", "FIDStatus": "", "FIDYear": "", "PCI3": "", "PCI4": "", "PCI5": "", "PCI6": "", "RouteAccuracy": "high", "RouteType": "Mapped route (at any accuracy)"}, "geometry": {"type": "MultiLineString", "coordinates": [[[-62.659065, -36.852605], [-62.659103, -36.849453], [-62.659966, -36.841892], [-62.660893, -36.835639], [-62.66244, -36.826614], [-62.682425, -36.735209], [-62.694614, -36.658347], [-62.697246, -36.649298], [-62.696356, -36.630157], [-62.699482, -36.61661], [-62.70431, -36.595738], [-62.704317, -36.595689], [-62.714105, -36.533129], [-62.721289, -36.488427], [-62.727186, -36.466693], [-62.726774, -36.454886], [-62.732614, -36.416929], [-62.734656, -36.407694], [-62.735454, -36.399018], [-62.736956, -36.390099], [-62.739309, -36.379924], [-62.740283, -36.375147], [-62.74042, -36.372195], [-62.741649, -36.364954], [-62.741632, -36.361797], [-62.742591, -36.356046], [-62.7445, -36.338546], [-62.753963, -36.265624], [-62.754803, -36.263062], [-62.757714, -36.236065], [-62.76938, -36.184647], [-62.771224, -36.175802], [-62.77184, -36.170379], [-62.775389, -36.158108], [-62.791798, -36.07774], [-62.791945, -36.076989], [-62.791967, -36.076772], [-62.795834, -36.067223], [-62.801507, -36.042453], [-62.802846, -36.032552], [-62.806248, -36.016437], [-62.810261, -36.009183], [-62.812825, -35.997723], [-62.812764, -35.960438], [-62.810991, -35.942219], [-62.812655, -35.936434], [-62.813794, -35.928406], [-62.812695, -35.926343], [-62.816794, -35.864659], [-62.821317, -35.835358], [-62.820487, -35.831806], [-62.823161, -35.818377], [-62.822995, -35.816243], [-62.865103, -35.756273], [-62.873418, -35.7145], [-62.874893, -35.699804], [-62.877304, -35.695949], [-62.882556, -35.671473], [-62.885693, -35.661701], [-62.893725, -35.651155], [-62.899462, -35.63401], [-62.900176, -35.628888], [-62.902333, -35.614234], [-62.904904, -35.586168], [-62.911371, -35.553386], [-62.911317, -35.541792], [-62.911459, -35.51862], [-62.909971, -35.498545], [-62.910387, -35.476935], [-62.92194, -35.462639], [-62.925041, -35.451527], [-62.928349, -35.4358], [-62.950625, -35.382104], [-62.955026, -35.257087], [-62.953718, -35.230492], [-62.95336, -35.182666], [-62.945864, -35.093731], [-62.945056, -35.053003], [-62.947981, -35.024031], [-62.947731, -35.019935], [-62.949591, -35.008727], [-62.960558, -34.893553], [-62.960866, -34.819872], [-62.958018, -34.797602], [-62.943146, -34.779037], [-62.942904, -34.768219], [-62.943503, -34.758504], [-62.944052, -34.746859], [-62.944611, -34.738178], [-62.945845, -34.713632], [-62.961033, -34.696589], [-62.963828, -34.69095], [-62.964011, -34.687474], [-62.949186, -34.63628], [-62.906893, -34.498394], [-62.906915, -34.498414], [-62.902407, -34.486584], [-62.899432, -34.477155], [-62.896186, -34.463409], [-62.883927, -34.423288], [-62.866302, -34.403106], [-62.759757, -34.328374], [-62.706101, -34.30687], [-62.702464, -34.3059], [-62.69821, -34.303693], [-62.662163, -34.289225], [-62.600483, -34.246147], [-62.59398, -34.238245], [-62.577913, -34.230371], [-62.546096, -34.2081], [-62.53999, -34.205905], [-62.537956, -34.204675], [-62.537437, -34.201706], [-62.521297, -34.190727], [-62.436486, -34.152167], [-62.426056, -34.152068], [-62.417835, -34.149868], [-62.400222, -34.141937], [-62.364202, -34.117582], [-62.357746, -34.113846], [-62.354642, -34.111238], [-62.347568, -34.10789], [-62.345752, -34.106925], [-62.337034, -34.101883], [-62.327437, -34.098954], [-62.322055, -34.095912], [-62.308549, -34.08204], [-62.298554, -34.069923], [-62.283874, -34.057022], [-62.247916, -34.026989], [-62.245576, -34.026429], [-62.213661, -34.021204], [-62.209473, -34.0189], [-62.206131, -34.016973], [-62.197424, -34.011004], [-62.192539, -34.000416], [-62.180968, -33.983505], [-62.175498, -33.96918], [-62.16662, -33.951093], [-62.153227, -33.940166], [-62.149048, -33.937039], [-62.145478, -33.935623], [-62.132544, -33.927073], [-62.122947, -33.9208], [-62.110452, -33.911716], [-62.08593, -33.897365], [-62.065538, -33.886431], [-62.058597, -33.881758], [-62.054647, -33.878956], [-62.050108, -33.877019], [-62.034688, -33.876079], [-61.975455, -33.8582], [-61.922318, -33.828074], [-61.914127, -33.822994], [-61.907879, -33.819598], [-61.902375, -33.81528], [-61.887678, -33.806548], [-61.861324, -33.790498], [-61.822739, -33.743966], [-61.819356, -33.739321], [-61.81908, -33.737785], [-61.790726, -33.703275], [-61.769457, -33.683414], [-61.727008, -33.645357], [-61.721517, -33.641771], [-61.713517, -33.633237], [-61.698672, -33.6199], [-61.693273, -33.616191], [-61.684153, -33.606805], [-61.657311, -33.582711], [-61.656604, -33.581828], [-61.654002, -33.579716], [-61.632775, -33.560626], [-61.625296, -33.552032], [-61.621665, -33.548976], [-61.620571, -33.548054], [-61.620115, -33.547139], [-61.615175, -33.543059], [-61.592154, -33.510411], [-61.591588, -33.509706], [-61.585438, -33.505331], [-61.585406, -33.504235], [-61.586035, -33.503108], [-61.58593, -33.502459], [-61.58562, -33.501575], [-61.56889, -33.476948], [-61.560128, -33.469121], [-61.557411, -33.454782], [-61.556772, -33.452184], [-61.548807, -33.447327], [-61.538528, -33.432171], [-61.518631, -33.401932], [-61.516285, -33.396921], [-61.515997, -33.396252], [-61.510137, -33.391286], [-61.489807, -33.36843], [-61.471935, -33.339197], [-61.470757, -33.336106], [-61.469138, -33.334035], [-61.466171, -33.329761], [-61.455313, -33.311979], [-61.433442, -33.281775], [-61.425612, -33.266817], [-61.424994, -33.264533], [-61.421073, -33.258026], [-61.414343, -33.245241], [-61.412283, -33.236898], [-61.408322, -33.231961], [-61.395664, -33.21682], [-61.390033, -33.210932], [-61.364479, -33.182556], [-61.356689, -33.177652], [-61.352104, -33.170482], [-61.347949, -33.165833], [-61.338307, -33.153536], [-61.316182, -33.128701], [-61.288044, -33.09929], [-61.278861, -33.089467], [-61.274797, -33.085129], [-61.25675, -33.065777], [-61.240629, -33.043568], [-61.218588, -33.020374], [-61.214239, -33.013565], [-61.212173, -33.01247], [-61.208231, -33.010483], [-61.197468, -33.001761], [-61.185786, -32.990933], [-61.17665, -32.981796], [-61.170851, -32.977126], [-61.122776, -32.93253], [-61.107161, -32.916644], [-61.102933, -32.912777], [-61.096567, -32.906185], [-61.083604, -32.893639], [-61.082444, -32.890825], [-61.075958, -32.884813], [-61.07707, -32.86922]]]}}
]
}
