{
"type": "FeatureCollection",
"name": "P3999",
"crs": { "type": "name", "properties": { "name": "urn:ogc:def:crs:OGC:1.3:CRS84" } },
"features": [
{ "type": "Feature", "properties": { "@id": "way/312518324", "@relations": [ { "role": "", "rel": "8203643", "reltags": { "name": "Макат – Северный Кавказ", "type": "pipeline" } } ] }, "geometry": { "type": "LineString", "coordinates": [ [ 53.347121, 47.6810334 ], [ 53.3456179, 47.6826094 ], [ 53.3424207, 47.6841552 ], [ 53.3416697, 47.6843863 ], [ 53.3408983, 47.6843993 ], [ 53.3274443, 47.6805566 ], [ 53.3258758, 47.6804714 ], [ 53.3066948, 47.6801666 ], [ 53.2899986, 47.6799802 ], [ 53.269573, 47.6799354 ], [ 53.2325778, 47.6798935 ], [ 53.2133517, 47.6785644 ], [ 53.208247, 47.6782018 ], [ 53.2067428, 47.6778131 ], [ 53.1840856, 47.6689547 ], [ 53.1641278, 47.6611381 ], [ 53.1444297, 47.6533913 ], [ 53.1243882, 47.6455276 ], [ 53.1046472, 47.6377784 ], [ 53.0810437, 47.6285531 ], [ 53.0634485, 47.6216402 ], [ 53.0419049, 47.6116019 ], [ 53.0262408, 47.6042239 ], [ 52.9975305, 47.5969606 ], [ 52.9840551, 47.5935456 ], [ 52.9718671, 47.5905066 ], [ 52.970408, 47.5899857 ], [ 52.9601083, 47.5843703 ], [ 52.9441459, 47.5755829 ], [ 52.9259906, 47.5655806 ], [ 52.9021726, 47.5526642 ], [ 52.8846631, 47.5430473 ], [ 52.8688703, 47.5342978 ], [ 52.8504167, 47.5239819 ], [ 52.8343234, 47.5149394 ], [ 52.8333793, 47.5146206 ], [ 52.8196893, 47.5147075 ], [ 52.8186164, 47.5144467 ], [ 52.8076301, 47.5101567 ], [ 52.7953563, 47.5028803 ], [ 52.7768598, 47.4917173 ], [ 52.7578912, 47.4829883 ], [ 52.7415426, 47.474764 ], [ 52.7194841, 47.4715441 ], [ 52.6999984, 47.4686591 ], [ 52.6884113, 47.4695584 ], [ 52.6658399, 47.4706448 ], [ 52.6447256, 47.4716601 ], [ 52.6271303, 47.468295 ], [ 52.6149402, 47.465845 ], [ 52.6056297, 47.4619413 ], [ 52.5829683, 47.4523817 ], [ 52.5658879, 47.4451843 ], [ 52.5371797, 47.4396246 ], [ 52.5147779, 47.4354156 ], [ 52.4907882, 47.4308869 ], [ 52.4617775, 47.4254287 ], [ 52.4333225, 47.420044 ], [ 52.4248274, 47.4197958 ], [ 52.3973594, 47.4190277 ], [ 52.3828991, 47.4130006 ], [ 52.3756035, 47.4114904 ], [ 52.3524292, 47.4070177 ], [ 52.328094, 47.4022993 ], [ 52.295135, 47.3958795 ], [ 52.2702463, 47.391128 ], [ 52.246042, 47.3875834 ], [ 52.2162159, 47.3833412 ], [ 52.2135959, 47.3830971 ], [ 52.1999488, 47.3826321 ], [ 52.1646295, 47.3818185 ], [ 52.1306834, 47.3810921 ], [ 52.096437, 47.3802784 ], [ 52.0583711, 47.3794357 ], [ 52.034596, 47.3788545 ], [ 52.00065, 47.3780699 ], [ 51.9785915, 47.3775468 ], [ 51.9556747, 47.3770237 ], [ 51.9440897, 47.3767737 ], [ 51.9364057, 47.3745825 ], [ 51.9176109, 47.3727631 ], [ 51.9093282, 47.3717169 ], [ 51.8767984, 47.3628807 ], [ 51.8628069, 47.3591474 ], [ 51.8554684, 47.3570978 ], [ 51.8538805, 47.3568217 ], [ 51.8477894, 47.3558851 ] ] } }
]
}
