{
"type": "FeatureCollection",
"features": [
{"type": "Feature", "properties": {"ProjectID": "P4049"}, "geometry": {"type": "LineString", "coordinates": [[61.32533, 40.716902], [61.267861, 40.645587], [61.215616, 40.55435], [61.205167, 40.5345], [61.22084, 40.327706], [61.226065, 40.208113], [61.189493, 40.120276], [61.142473, 40.076316], [61.048432, 40.028326], [60.938718, 39.996315]]}},
{"type": "Feature", "properties": {"ProjectID": "P4049"}, "geometry": {"type": "LineString", "coordinates": [[60.932559, 39.995923], [60.891428, 40.203048], [60.840014, 40.260616], [60.788601, 40.477364], [60.661781, 40.724593], [60.63436, 40.818041], [60.555526, 40.916538], [60.510968, 41.027818], [60.510968, 41.115674], [60.349872, 41.324505], [60.226479, 41.321931], [60.096232, 41.375965], [59.874136, 41.473742], [59.442979, 41.78693]]}}
]
}
