{
"type": "FeatureCollection",
"features": [
{"type": "Feature", "properties": {"ProjectID": "P4044"}, "geometry": {"type": "LineString", "coordinates": [[71.141767, 42.793629], [71.477266, 42.582938], [71.685627, 42.528122], [71.864221, 42.50984], [72.0897, 42.485438], [72.335319, 42.427604], [72.578601, 42.414685], [72.722469, 42.403696], [73.218502, 42.226697], [73.218502, 42.157003], [73.101867, 42.192654], [73.009065, 42.201821], [72.910076, 42.206404], [72.823461, 42.151387], [72.761592, 42.08714], [72.860582, 41.912427], [73.134887, 41.854107], [73.296891, 41.7879], [73.002878, 41.714147], [72.798713, 41.667947], [72.569801, 41.612464], [72.365279, 41.455188], [72.251704, 41.381379], [72.173845, 41.297157], [72.167658, 41.190162], [72.313719, 41.13082], [72.425443, 41.078973], [72.439694, 41.089789]]}},
{"type": "Feature", "properties": {"ProjectID": "P4044"}, "geometry": {"type": "LineString", "coordinates": [[71.576485, 42.5464], [71.586407, 42.46228], [71.606251, 42.370718], [71.596329, 42.271681], [71.59192, 42.123461], [70.902323, 41.621707], [70.881949, 41.551787], [70.91909, 41.459755], [71.101998, 41.436252], [71.321487, 41.404902], [71.49711, 41.50722], [71.665267, 41.591326], [71.74308, 41.58685], [71.901566, 41.397062], [72.108204, 41.232202], [72.16806, 41.187172]]}},
{"type": "Feature", "properties": {"ProjectID": "P4044"}, "geometry": {"type": "LineString", "coordinates": [[72.251898, 41.008751], [72.326966, 41.117514], [72.384371, 41.177367], [72.578663, 41.283637], [72.821529, 41.405191]]}},
{"type": "Feature", "properties": {"ProjectID": "P4044"}, "geometry": {"type": "LineString", "coordinates": [[72.476419, 41.32646], [72.570486, 41.267567], [72.622745, 41.05511], [73.015179, 40.90909], [73.128591, 40.95098], [73.277286, 40.802342], [73.103388, 40.641897], [73.058023, 40.573017], [73.012659, 40.47148], [72.977375, 40.388989], [72.851362, 40.351066], [72.73039, 40.301111], [72.6321, 40.253041], [72.501047, 40.193388], [72.024719, 40.278042]]}},
{"type": "Feature", "properties": {"ProjectID": "P4044"}, "geometry": {"type": "LineString", "coordinates": [[72.677465, 40.281887], [72.564053, 40.452785]]}},
{"type": "Feature", "properties": {"ProjectID": "P4044"}, "geometry": {"type": "LineString", "coordinates": [[72.851362, 40.356828], [72.740471, 40.55435], [72.753072, 40.592636]]}},
{"type": "Feature", "properties": {"ProjectID": "P4044"}, "geometry": {"type": "LineString", "coordinates": [[72.889166, 40.960972], [72.969814, 41.056063]]}},
{"type": "Feature", "properties": {"ProjectID": "P4044"}, "geometry": {"type": "LineString", "coordinates": [[72.790876, 40.995221], [72.881606, 41.088363]]}}
]
}
