{
"type": "FeatureCollection",
"name": "P4041",
"crs": { "type": "name", "properties": { "name": "urn:ogc:def:crs:OGC:1.3:CRS84" } },
"features": [
{ "type": "Feature", "properties": { }, "geometry": { "type": "MultiLineString", "coordinates": [ [ [ 47.389786582783515, 30.550027797474964 ], [ 47.351250567450499, 30.571161137286058 ], [ 47.22444770135472, 30.583208787944852 ], [ 46.679561361646051, 30.644906342079253 ], [ 45.684083513043547, 31.094306657305431 ], [ 45.260402629382256, 31.256398211713179 ], [ 45.019283427298618, 31.291726745177428 ], [ 44.860833665929349, 31.297613547548011 ], [ 44.488821182714581, 31.509293249954787 ], [ 44.309704061166705, 31.81713489842609 ], [ 44.264924780779758, 32.01011220578556 ] ] ] } }
]
}
