{
"type": "FeatureCollection",
"features": [
{"type": "Feature", "properties": {"ProjectID": "P4047"}, "geometry": {"type": "MultiLineString", "coordinates": [[[44.880908, 35.590043], [44.878061, 35.590979], [44.87617, 35.591659], [44.874557, 35.593156], [44.87004, 35.595684], [44.867872, 35.595736], [44.865147, 35.595091], [44.863645, 35.594864], [44.85577, 35.59462], [44.850899, 35.594428], [44.846565, 35.593799], [44.83884, 35.592508], [44.834313, 35.591671], [44.832832, 35.5912], [44.829971, 35.5891], [44.818281, 35.582438], [44.81676, 35.581899], [44.814636, 35.581584], [44.813434, 35.581183], [44.810087, 35.578792], [44.807362, 35.577099], [44.804529, 35.577064], [44.80189, 35.578461], [44.800152, 35.578618], [44.798693, 35.578391], [44.790324, 35.574289], [44.786956, 35.574342], [44.78423, 35.575738], [44.775975, 35.580582], [44.7681, 35.583147], [44.763701, 35.585572], [44.758294, 35.587911], [44.747994, 35.592151], [44.742393, 35.594541], [44.740076, 35.595117], [44.738016, 35.596286], [44.736493, 35.597176], [44.732459, 35.599706], [44.729798, 35.600456], [44.727652, 35.601555], [44.724555, 35.603457], [44.72316, 35.604888], [44.717431, 35.612738], [44.713783, 35.617867], [44.712431, 35.618983], [44.708569, 35.620832], [44.70166, 35.623501], [44.700351, 35.62371], [44.698076, 35.623762], [44.692689, 35.622743], [44.691248, 35.623133], [44.687384, 35.625754], [44.685242, 35.627625], [44.668905, 35.631742], [44.662178, 35.633402], [44.658534, 35.634346], [44.65487, 35.635126], [44.649244, 35.635322], [44.647262, 35.635257], [44.638934, 35.632865], [44.636411, 35.632279], [44.633496, 35.632169], [44.627037, 35.632971], [44.62635, 35.633302], [44.625707, 35.634331], [44.625428, 35.635416], [44.625177, 35.636389], [44.622839, 35.638674], [44.602334, 35.647121], [44.598468, 35.649174], [44.594885, 35.652399], [44.593039, 35.653585], [44.585636, 35.655938], [44.582589, 35.656444], [44.567054, 35.65831], [44.565252, 35.658083], [44.56051, 35.656758], [44.556025, 35.65566], [44.547034, 35.653916], [44.530353, 35.648718], [44.522444, 35.655938], [44.520169, 35.658484], [44.518281, 35.659861], [44.517315, 35.660803], [44.513619, 35.665787], [44.499757, 35.683793], [44.4836, 35.683897], [44.465532, 35.682782], [44.458473, 35.681701], [44.446982, 35.679034], [44.439161, 35.676769], [44.434547, 35.676263], [44.43253, 35.676716], [44.421544, 35.673962], [44.406042, 35.683807], [44.404163, 35.684978], [44.400451, 35.688812], [44.392276, 35.697142], [44.391053, 35.698554], [44.382577, 35.707284], [44.375431, 35.713416], [44.365162, 35.722327], [44.361978, 35.725141], [44.361334, 35.725611], [44.360492, 35.726041], [44.359649, 35.726404], [44.35641, 35.727697], [44.353861, 35.728935], [44.349358, 35.729464], [44.341361, 35.73031], [44.339833, 35.732927], [44.333804, 35.736028], [44.329267, 35.738362], [44.312925, 35.746373], [44.309894, 35.747726], [44.297108, 35.753095], [44.286163, 35.758333], [44.284431, 35.75948], [44.284258, 35.759594], [44.283349, 35.760196], [44.2805, 35.761888], [44.278099, 35.763313], [44.276542, 35.764334], [44.269833, 35.768733], [44.266539, 35.770893], [44.266494, 35.770922], [44.263143, 35.773118], [44.25627, 35.77726], [44.255073, 35.778031], [44.254664, 35.778295], [44.254222, 35.77858], [44.253195, 35.779241], [44.253058, 35.779329], [44.248652, 35.782167], [44.244554, 35.784807], [44.231643, 35.790925], [44.215286, 35.798752], [44.212709, 35.799897], [44.20962, 35.801269], [44.203254, 35.803591], [44.201154, 35.806753], [44.196947, 35.81309], [44.196707, 35.813379], [44.196419, 35.813726], [44.195067, 35.815554], [44.190861, 35.820428], [44.187428, 35.825078], [44.186181, 35.826768], [44.186, 35.827013], [44.185831, 35.827233], [44.185609, 35.827521], [44.185184, 35.828072], [44.184861, 35.828491], [44.184576, 35.828884], [44.1822, 35.83207], [44.180517, 35.83431], [44.179758, 35.835186], [44.179506, 35.835476], [44.178958, 35.836126], [44.177557, 35.837786], [44.174268, 35.841683], [44.173499, 35.842595], [44.171206, 35.845312], [44.170372, 35.8463], [44.169184, 35.847795], [44.167459, 35.849965], [44.164447, 35.853359], [44.160464, 35.856753], [44.155955, 35.860674], [44.154001, 35.862343], [44.145944, 35.869197], [44.141453, 35.869259], [44.138041, 35.871268], [44.136066, 35.872431], [44.135135, 35.872998], [44.126052, 35.878529], [44.123498, 35.880066], [44.118969, 35.882792], [44.116084, 35.884528], [44.111159, 35.887552], [44.104492, 35.891646], [44.096769, 35.896329], [44.086728, 35.902519], [44.083919, 35.9043], [44.080855, 35.906141], [44.077946, 35.908029], [44.071395, 35.911904], [44.068381, 35.913728], [44.067319, 35.914536], [44.067225, 35.914605], [44.066159, 35.91512], [44.064122, 35.914829], [44.055062, 35.919647], [44.04904, 35.922844], [44.048249, 35.923254], [44.045565, 35.924648], [44.041451, 35.926783], [44.039983, 35.927546], [44.034403, 35.930446], [44.024931, 35.935403], [44.024652, 35.935552], [44.018639, 35.938757], [44.01624, 35.939912], [44.014354, 35.941398], [44.011412, 35.943715], [44.006438, 35.947533], [44.001307, 35.95147], [43.997082, 35.954861], [43.994141, 35.957097], [43.992622, 35.958229], [43.990917, 35.959594], [43.989852, 35.960246], [43.984046, 35.963744], [43.980113, 35.966291], [43.977261, 35.968138], [43.96901, 35.972971], [43.960528, 35.978074], [43.953772, 35.982199], [43.949433, 35.98487], [43.941105, 35.989927], [43.93692, 35.992472], [43.931714, 35.995592], [43.931399, 35.995787], [43.931262, 35.995937], [43.926537, 36.003988], [43.926403, 36.004216], [43.92628, 36.004424], [43.925551, 36.005667], [43.92422, 36.007918], [43.923801, 36.009523], [43.918025, 36.010985]], [[44.82336, 35.138013], [44.823381, 35.138473], [44.822622, 35.139473], [44.820439, 35.142249], [44.82022, 35.142535], [44.820163, 35.142708], [44.82009, 35.14316], [44.820092, 35.143885], [44.820039, 35.145171], [44.819969, 35.146092], [44.819958, 35.146268], [44.820017, 35.14672], [44.820082, 35.147098], [44.820135, 35.147532], [44.820226, 35.148287], [44.820259, 35.148708], [44.820495, 35.149652], [44.820763, 35.150069], [44.820768, 35.150424], [44.821107, 35.152202], [44.821321, 35.153128], [44.82152, 35.153768], [44.821649, 35.154414], [44.821767, 35.154989], [44.82203, 35.155634], [44.823248, 35.156972], [44.823748, 35.157249], [44.825116, 35.157639], [44.827371, 35.157832], [44.829604, 35.157775], [44.82977, 35.158008], [44.830114, 35.158087], [44.830344, 35.158131], [44.831686, 35.15864], [44.832035, 35.158864], [44.832481, 35.159206], [44.833479, 35.16011], [44.834803, 35.161177], [44.836022, 35.162511], [44.837176, 35.163529], [44.837712, 35.164018], [44.838076, 35.164487], [44.838933, 35.165526], [44.839235, 35.165803], [44.839531, 35.166045], [44.839814, 35.166206], [44.840154, 35.166312], [44.840813, 35.166478], [44.842244, 35.166846], [44.843686, 35.16735], [44.845015, 35.168209], [44.846406, 35.169406], [44.848635, 35.171295], [44.85014, 35.172379], [44.849798, 35.174334], [44.849636, 35.175777], [44.849286, 35.17821], [44.848717, 35.182025], [44.847481, 35.183726], [44.845277, 35.186604], [44.84344, 35.188956], [44.842423, 35.190272], [44.84196, 35.191023], [44.841789, 35.191528], [44.841098, 35.194179], [44.840483, 35.194905], [44.838682, 35.196822], [44.837267, 35.198344], [44.836604, 35.199119], [44.835964, 35.200577], [44.835446, 35.202012], [44.834722, 35.20395], [44.834656, 35.204759], [44.834605, 35.206022], [44.834138, 35.206686], [44.833209, 35.208102], [44.833269, 35.208407], [44.833592, 35.209739], [44.833966, 35.211361], [44.834425, 35.213248], [44.835974, 35.213135], [44.837428, 35.212672], [44.837576, 35.212637], [44.837706, 35.212621], [44.838125, 35.212621], [44.83855, 35.212632], [44.83908, 35.212591], [44.839277, 35.212561], [44.839431, 35.212526], [44.840269, 35.212299], [44.841471, 35.212143], [44.842432, 35.212022], [44.843579, 35.212075], [44.844195, 35.212161], [44.844811, 35.212277], [44.845993, 35.212531], [44.849461, 35.213382], [44.851479, 35.214741], [44.852236, 35.214775], [44.854933, 35.214885], [44.857304, 35.215284], [44.858278, 35.2155], [44.860614, 35.215957], [44.862482, 35.216107], [44.863778, 35.21613], [44.865094, 35.216049], [44.866397, 35.215934], [44.86743, 35.215743], [44.86886, 35.215373], [44.869971, 35.214997], [44.871543, 35.214401], [44.871805, 35.214332], [44.871968, 35.21439], [44.872116, 35.214494], [44.872272, 35.214714], [44.872378, 35.214887], [44.87264, 35.215535], [44.873478, 35.217596], [44.873779, 35.218383], [44.873913, 35.218785], [44.873959, 35.219111], [44.874002, 35.219166], [44.87432, 35.219516], [44.874611, 35.219834], [44.875035, 35.220265], [44.875541, 35.220638], [44.875955, 35.220869], [44.876525, 35.221164], [44.877365, 35.221444], [44.878905, 35.221936], [44.879727, 35.222202], [44.880649, 35.222537], [44.881536, 35.222886], [44.882654, 35.223348], [44.883731, 35.223786], [44.88443, 35.224088], [44.885081, 35.22441], [44.886138, 35.224922], [44.88649, 35.225093], [44.8868, 35.225284], [44.887162, 35.225559], [44.887292, 35.225682], [44.887475, 35.225911], [44.887841, 35.22635], [44.888516, 35.22713], [44.889073, 35.227804], [44.889537, 35.228229], [44.889736, 35.228392], [44.889988, 35.228522], [44.890728, 35.22889], [44.891313, 35.229169], [44.891838, 35.229438], [44.892647, 35.22985], [44.893248, 35.230165], [44.893874, 35.230471], [44.8952, 35.231059], [44.896704, 35.231736], [44.897102, 35.231922], [44.897635, 35.232098], [44.898038, 35.232208], [44.898887, 35.232331], [44.899277, 35.23239], [44.900737, 35.232513], [44.903455, 35.232801], [44.905883, 35.233045], [44.9071, 35.233279], [44.908451, 35.236399], [44.911988, 35.238935], [44.912667, 35.23945], [44.913212, 35.239517], [44.914498, 35.239756], [44.915055, 35.239859], [44.916186, 35.240347], [44.917203, 35.240813], [44.918484, 35.241374], [44.918814, 35.241534], [44.919753, 35.242162], [44.919965, 35.242291], [44.921718, 35.242833], [44.922597, 35.242992], [44.923492, 35.243062], [44.924724, 35.243107], [44.925517, 35.244273], [44.926488, 35.245684], [44.927128, 35.246604], [44.927503, 35.247728], [44.927941, 35.248945], [44.928295, 35.249911], [44.928437, 35.250355], [44.930514, 35.251452], [44.931562, 35.253008], [44.935075, 35.254216], [44.935938, 35.254546], [44.936069, 35.254587], [44.936183, 35.254613], [44.936325, 35.254628], [44.936479, 35.254628], [44.936781, 35.25457], [44.937345, 35.254396], [44.941242, 35.253284], [44.943408, 35.252699], [44.946134, 35.254985], [44.945662, 35.258101], [44.945467, 35.259137], [44.946101, 35.260818], [44.946819, 35.262379], [44.947385, 35.264527], [44.947595, 35.265229], [44.948338, 35.266492], [44.949244, 35.267388], [44.949791, 35.268433], [44.950558, 35.269891], [44.951564, 35.272056], [44.951579, 35.272107], [44.951572, 35.27216], [44.951378, 35.272564], [44.951116, 35.273131], [44.950591, 35.274102], [44.950681, 35.275184], [44.950816, 35.276744], [44.950878, 35.277595], [44.950958, 35.27826], [44.951001, 35.278546], [44.950992, 35.278801], [44.950964, 35.279234], [44.950974, 35.279452], [44.951118, 35.2799], [44.951183, 35.280358], [44.951214, 35.280869], [44.951251, 35.281214], [44.95134, 35.281652], [44.951569, 35.282417], [44.951769, 35.283071], [44.951945, 35.283733], [44.952083, 35.284259], [44.952096, 35.28436], [44.952065, 35.284798], [44.951979, 35.286122], [44.951932, 35.286756], [44.951874, 35.287463], [44.951821, 35.288263], [44.951795, 35.289294], [44.951838, 35.289956], [44.951848, 35.290519], [44.951887, 35.291574], [44.951908, 35.292537], [44.951937, 35.293323], [44.951972, 35.294187], [44.95205, 35.295066], [44.952061, 35.295901], [44.952075, 35.296702], [44.952117, 35.29741], [44.952139, 35.298167], [44.952139, 35.298309], [44.95217, 35.298505], [44.952487, 35.299465], [44.952782, 35.300343], [44.953193, 35.30151], [44.9536, 35.302631], [44.953721, 35.30297], [44.950438, 35.306612], [44.950474, 35.313708], [44.950511, 35.313922], [44.950554, 35.314036], [44.950662, 35.314194], [44.950801, 35.314321], [44.950957, 35.314404], [44.9548, 35.315745], [44.955306, 35.320018], [44.955498, 35.321557], [44.955738, 35.323456], [44.956237, 35.327616], [44.956397, 35.328823], [44.956471, 35.329613], [44.956465, 35.330383], [44.956385, 35.33162], [44.956286, 35.333265], [44.956157, 35.335222], [44.956496, 35.336947], [44.956995, 35.33912], [44.95726, 35.340463], [44.957316, 35.340865], [44.957316, 35.341082], [44.957131, 35.342505], [44.956983, 35.343571], [44.956866, 35.344582], [44.956644, 35.346624], [44.956663, 35.347419], [44.956681, 35.348052], [44.956798, 35.348781], [44.956804, 35.349687], [44.956854, 35.350677], [44.956977, 35.35197], [44.957039, 35.353227], [44.957162, 35.35456], [44.957217, 35.355389], [44.95739, 35.355892], [44.957674, 35.356707], [44.957981, 35.357916], [44.958295, 35.358747], [44.958409, 35.359306], [44.958388, 35.359833], [44.958098, 35.362074], [44.957796, 35.362261], [44.95733, 35.362409], [44.955491, 35.362927], [44.954827, 35.363202], [44.954696, 35.363289], [44.953771, 35.364448], [44.95288, 35.365444], [44.952762, 35.366509], [44.952705, 35.366976], [44.952912, 35.367547], [44.953226, 35.368602], [44.953527, 35.369491], [44.953832, 35.370449], [44.954055, 35.371206], [44.954228, 35.371794], [44.95445, 35.372516], [44.954507, 35.372712], [44.954547, 35.372781], [44.954722, 35.37298], [44.954983, 35.373279], [44.955048, 35.373405], [44.955259, 35.373995], [44.955666, 35.375271], [44.955928, 35.376085], [44.955956, 35.376247], [44.955948, 35.377023], [44.955964, 35.377281], [44.956094, 35.377945], [44.956246, 35.378781], [44.956161, 35.379597], [44.956055, 35.380645], [44.95599, 35.38153], [44.955888, 35.382482], [44.955758, 35.383285], [44.955014, 35.384834], [44.954257, 35.38628], [44.953336, 35.387992], [44.952738, 35.38917], [44.952295, 35.390036], [44.951445, 35.391618], [44.95107, 35.392331], [44.951506, 35.393252], [44.952022, 35.394265], [44.952405, 35.395122], [44.952193, 35.395994], [44.95209, 35.39641], [44.951307, 35.397539], [44.95017, 35.399071], [44.949207, 35.400376], [44.948499, 35.401308], [44.947794, 35.402264], [44.946898, 35.403421], [44.94591, 35.404712], [44.945067, 35.405837], [44.944327, 35.406848], [44.943619, 35.407757], [44.942861, 35.408758], [44.941866, 35.410095], [44.941307, 35.4112], [44.940995, 35.411858], [44.941172, 35.412629], [44.941158, 35.41273], [44.94113, 35.412825], [44.940701, 35.413668], [44.939979, 35.415036], [44.939777, 35.415463], [44.939504, 35.416981], [44.939306, 35.418023], [44.939115, 35.419183], [44.938916, 35.420262], [44.938509, 35.421749], [44.938215, 35.422891], [44.937953, 35.423974], [44.937709, 35.424903], [44.937464, 35.426135], [44.937248, 35.427009], [44.937004, 35.428083], [44.936781, 35.428928], [44.93644, 35.43027], [44.936092, 35.431714], [44.935646, 35.433424], [44.935324, 35.434701], [44.934825, 35.436791], [44.934454, 35.438265], [44.934293, 35.438947], [44.934927, 35.440557], [44.935581, 35.442109], [44.93621, 35.443793], [44.936682, 35.44496], [44.937353, 35.446032], [44.937696, 35.446613], [44.937927, 35.449276], [44.939937, 35.450683], [44.940065, 35.452391], [44.940166, 35.453524], [44.940102, 35.453946], [44.940018, 35.454285], [44.939602, 35.455244], [44.939434, 35.455575], [44.938944, 35.456142], [44.937958, 35.457212], [44.936958, 35.458285], [44.936196, 35.459134], [44.935588, 35.46058], [44.935018, 35.461798], [44.934995, 35.463001], [44.934902, 35.464344], [44.934803, 35.465737], [44.934719, 35.466631], [44.934532, 35.467773], [44.934551, 35.469117], [44.93449, 35.470529], [44.934425, 35.471632], [44.934345, 35.472652], [44.933883, 35.473546], [44.933271, 35.474113], [44.93264, 35.475339], [44.932028, 35.476587], [44.931804, 35.477131], [44.93278, 35.478543], [44.93349, 35.479566], [44.934546, 35.481085], [44.935378, 35.48231], [44.935962, 35.483162], [44.93621, 35.484863], [44.93635, 35.486054], [44.936327, 35.48734], [44.936317, 35.489448], [44.936331, 35.490863], [44.936355, 35.492499], [44.936289, 35.494732], [44.936266, 35.496068], [44.934528, 35.497361], [44.932855, 35.498662], [44.931056, 35.50007], [44.928925, 35.499997], [44.927304, 35.501626], [44.92539, 35.50349], [44.920948, 35.504146], [44.921037, 35.505789], [44.922298, 35.507365], [44.922038, 35.508299], [44.92229, 35.509213], [44.92002, 35.512166], [44.918317, 35.513891], [44.917084, 35.514648], [44.916554, 35.515155], [44.917923, 35.516701], [44.919477, 35.518533], [44.920346, 35.519511], [44.920679, 35.520304], [44.920944, 35.521388], [44.921518, 35.523145], [44.92206, 35.524876], [44.922745, 35.526818], [44.922973, 35.52752], [44.922818, 35.528569], [44.92243, 35.53023], [44.922294, 35.531781], [44.922227, 35.532112], [44.921937, 35.532935], [44.921641, 35.533496], [44.920266, 35.535699], [44.919797, 35.536883], [44.919736, 35.538002], [44.919594, 35.539196], [44.919008, 35.540004], [44.917744, 35.541379], [44.916307, 35.542894], [44.914791, 35.542658], [44.914501, 35.544399], [44.914291, 35.54478], [44.913724, 35.545417], [44.913416, 35.54614], [44.913329, 35.547013], [44.913086, 35.548159], [44.912894, 35.548877], [44.911824, 35.550603], [44.911165, 35.551687], [44.910936, 35.552101], [44.911595, 35.552983], [44.91204, 35.553545], [44.912348, 35.553946], [44.912205, 35.5546], [44.912091, 35.555045], [44.912082, 35.555834], [44.912214, 35.558707], [44.911623, 35.559957], [44.911065, 35.561704], [44.910699, 35.563505], [44.909696, 35.56472], [44.908078, 35.566693], [44.907042, 35.568147], [44.906554, 35.568887], [44.905744, 35.570121], [44.903452, 35.574134], [44.902513, 35.575684], [44.902007, 35.576565], [44.901127, 35.577686], [44.899864, 35.579384], [44.899088, 35.580241], [44.89751, 35.581564], [44.895914, 35.582952], [44.89417, 35.584235], [44.892667, 35.585378], [44.890781, 35.586846], [44.890352, 35.587143], [44.888775, 35.587735], [44.885361, 35.588745], [44.881892, 35.589809]]]}}
]
}
