{
"type": "FeatureCollection",
"features": [
{"type": "Feature", "properties": {"ProjectID": "P4053"}, "geometry": {"type": "MultiLineString", "coordinates": [[[42.782471, 36.942921], [42.781204, 36.938342], [42.780711, 36.93697], [42.777814, 36.932305], [42.77245, 36.923574], [42.769596, 36.919062], [42.769553, 36.918513], [42.769892, 36.915073], [42.770197, 36.911977], [42.771634, 36.900189], [42.772965, 36.88967], [42.773437, 36.884109], [42.774402, 36.871236], [42.775218, 36.862687], [42.776398, 36.848711], [42.776465, 36.846223], [42.779767, 36.840228], [42.785088, 36.829237], [42.791032, 36.816766], [42.79174, 36.815306], [42.792405, 36.814602], [42.795817, 36.811475], [42.798521, 36.810651], [42.816395, 36.804449], [42.83251, 36.798281], [42.843282, 36.794054], [42.844955, 36.793315], [42.845084, 36.793005], [42.846994, 36.784396], [42.848474, 36.777453], [42.850363, 36.768997], [42.852315, 36.760986], [42.854954, 36.75827], [42.857358, 36.756035], [42.866778, 36.752975], [42.882785, 36.747628], [42.887828, 36.745908], [42.893664, 36.743983], [42.894758, 36.743071], [42.896904, 36.741558], [42.897698, 36.741335], [42.903749, 36.741042], [42.911903, 36.740733], [42.916302, 36.740406], [42.930378, 36.739959], [42.94572, 36.740114], [42.950591, 36.740166], [42.966341, 36.737156], [42.986941, 36.733218], [43.002108, 36.730269], [43.008013, 36.72925], [43.012415, 36.728401], [43.014027, 36.728068], [43.023296, 36.726224], [43.027862, 36.72538], [43.028232, 36.725225], [43.029969, 36.724879], [43.031865, 36.724554], [43.032492, 36.724465], [43.033715, 36.724174], [43.034785, 36.724011], [43.047276, 36.721176], [43.089392, 36.712092], [43.094662, 36.70324], [43.124634, 36.690051], [43.143592, 36.684548], [43.206333, 36.666026], [43.223402, 36.661685], [43.283578, 36.644981], [43.314979, 36.632433], [43.35282, 36.603821], [43.375834, 36.590086], [43.379875, 36.586471], [43.390261, 36.584462], [43.397938, 36.582507], [43.42161, 36.573575], [43.427553, 36.571298], [43.521008, 36.513753], [43.521237, 36.513613], [43.521853, 36.51352], [43.527101, 36.511771], [43.528519, 36.511169], [43.535691, 36.506839], [43.542293, 36.499846], [43.543412, 36.495911], [43.543913, 36.483024], [43.545968, 36.476102], [43.550265, 36.468321], [43.549988, 36.464087], [43.554329, 36.453974], [43.573127, 36.442021], [43.579351, 36.440167], [43.59555, 36.435505], [43.602824, 36.433191], [43.608737, 36.432473], [43.621563, 36.434599], [43.637647, 36.432738], [43.646154, 36.431247], [43.648849, 36.43063], [43.649742, 36.430153], [43.654259, 36.427599], [43.678709, 36.402183], [43.686268, 36.395984], [43.696082, 36.38984], [43.69911, 36.386267], [43.700218, 36.37869], [43.702879, 36.372244], [43.707066, 36.366201], [43.711008, 36.338466], [43.711105, 36.334841], [43.710278, 36.332468], [43.709271, 36.328926], [43.709575, 36.326868], [43.710518, 36.321891], [43.711077, 36.315381], [43.713139, 36.312488], [43.716233, 36.306338], [43.718217, 36.303273], [43.720299, 36.298553], [43.722497, 36.293841]]]}}
]
}
