{
"type": "FeatureCollection",
"features": [
{"type": "Feature", "properties": {"ProjectID": "P4078"}, "geometry": {"type": "LineString", "coordinates": [[37.97821, 60.26113], [37.98062, 60.28865], [37.92753, 60.32654], [37.84259, 60.34708], [37.78516, 60.38765], [37.76586, 60.49312], [37.74366, 60.50785], [37.36626, 60.59185], [37.11048, 60.63306], [36.99851, 60.75448], [36.94736, 60.7837], [36.89427, 60.83595], [36.80643, 60.86158], [36.75142, 60.89211], [36.69254, 60.91089], [36.54679, 61.01653], [36.44737, 61.01583]]}}
]
}
