{
"type": "FeatureCollection",
"features": [
{"type": "Feature", "properties": {"ProjectID": "P4095"}, "geometry": {"type": "LineString", "coordinates": [[34.38036, 62.9269], [34.3868, 62.98717], [34.39452, 63.06247], [34.34948, 63.12363], [34.37779, 63.18349], [34.40224, 63.19568], [34.40353, 63.24265], [34.45243, 63.30458], [34.4949, 63.32943], [34.48718, 63.3606], [34.52836, 63.39002], [34.52321, 63.40039], [34.44793, 63.4361], [34.43184, 63.46428], [34.36041, 63.50737], [34.30508, 63.5332], [34.24909, 63.59536], [34.19375, 63.62854], [34.19054, 63.65111], [34.17702, 63.67081], [34.1944, 63.70503], [34.2018, 63.74619], [34.22496, 63.75672], [34.30894, 63.75573]]}}
]
}
