{
"type": "FeatureCollection",
"features": [
{"type": "Feature", "id": "way/69409355", "properties": {"ProjectID": "P4146", "@id": "way/69409355", "diameter": "1420 mm", "flow_direction": "forward", "layer": "-1", "location": "underground", "man_made": "pipeline", "name": "Надым — Пунга 3", "operator": "ООО «Газпром трансгаз Югорск»", "place:destination": "Пунга", "place:origin": "Надым", "pressure": "74", "substance": "gas", "usage": "transmission"}, "geometry": {"type": "LineString", "coordinates": [[65.133847, 62.975773], [65.13154, 62.975812], [65.129871, 62.97577], [65.12926, 62.975711], [65.128606, 62.975617], [65.128055, 62.975479], [65.12761, 62.975314], [65.126964, 62.975008], [65.125972, 62.974473], [65.12529, 62.974028], [65.122599, 62.971929], [65.114734, 62.966314], [65.108172, 62.961829], [65.105678, 62.96002], [65.105543, 62.959928], [65.103241, 62.95832], [65.084103, 62.945022], [65.082497, 62.943863], [65.081627, 62.943249], [65.080553, 62.942493], [65.079673, 62.941823], [65.076901, 62.939849], [65.073439, 62.937435], [65.069675, 62.934788], [65.06752, 62.933283], [65.0659, 62.932189], [65.063797, 62.930943], [65.062353, 62.930162], [65.061415, 62.929693], [65.058907, 62.928502], [65.058037, 62.928079], [65.054746, 62.926555], [65.052704, 62.925542], [65.049852, 62.924205], [65.037858, 62.918332], [65.026106, 62.912539], [65.008829, 62.904147], [64.994581, 62.897241], [64.976489, 62.888301], [64.958604, 62.879595], [64.952869, 62.87678], [64.952736, 62.87672], [64.951596, 62.876206], [64.951226, 62.876069], [64.950802, 62.875944], [64.950421, 62.875876], [64.950051, 62.875814], [64.949337, 62.875749], [64.948999, 62.875741], [64.948694, 62.875744], [64.948307, 62.875761], [64.947835, 62.87579], [64.947127, 62.875849], [64.940411, 62.876597], [64.922333, 62.878549], [64.907935, 62.880016], [64.89418, 62.881542], [64.885351, 62.882456], [64.875845, 62.88341], [64.86637, 62.884445], [64.826281, 62.888624], [64.809023, 62.890422], [64.805056, 62.890891], [64.795496, 62.89184], [64.77715, 62.893751], [64.76831, 62.894665], [64.741133, 62.897618], [64.731692, 62.898605], [64.704632, 62.901484], [64.685333, 62.903575], [64.68485, 62.90361], [64.684453, 62.903624], [64.683721, 62.903609], [64.681551, 62.903439], [64.672855, 62.902529], [64.670885, 62.902295], [64.656558, 62.900418], [64.642074, 62.898688], [64.625401, 62.896948], [64.616243, 62.896067], [64.609952, 62.895428], [64.605714, 62.895017], [64.601551, 62.894655], [64.600747, 62.894558], [64.599945, 62.894418], [64.565977, 62.888368], [64.553969, 62.886185], [64.541717, 62.883904], [64.53131, 62.881948], [64.515111, 62.879132], [64.513779, 62.878847], [64.512824, 62.878622], [64.512041, 62.878412], [64.510796, 62.878006], [64.507867, 62.876935], [64.500074, 62.874004], [64.48363, 62.86773], [64.468988, 62.862575], [64.467377, 62.862051], [64.461701, 62.860304], [64.445608, 62.855243], [64.434758, 62.851858], [64.420331, 62.847343], [64.419794, 62.847146], [64.419311, 62.846906], [64.414408, 62.844107], [64.410553, 62.841906], [64.397317, 62.834671], [64.394755, 62.833086], [64.356325, 62.808347], [64.3389, 62.797079], [64.338851, 62.79706], [64.338779, 62.797057], [64.338704, 62.797078]]}},
{"type": "Feature", "id": "way/207181469", "properties": {"ProjectID": "P4146", "@id": "way/207181469", "diameter": "1420 mm", "flow_direction": "forward", "layer": "-1", "location": "underground", "man_made": "pipeline", "name": "Надым — Пунга 3", "operator": "ООО «Газпром трансгаз Югорск»", "place:destination": "Пунга", "place:origin": "Надым", "pressure": "74", "substance": "gas", "usage": "transmission"}, "geometry": {"type": "LineString", "coordinates": [[69.036373, 64.240954], [69.025036, 64.23976], [69.00625, 64.238014], [68.976381, 64.235107], [68.912998, 64.228972], [68.902154, 64.228004], [68.8762, 64.225577], [68.875181, 64.225564], [68.866157, 64.225806], [68.850109, 64.226235], [68.792222, 64.227885], [68.758156, 64.228823], [68.756217, 64.228847], [68.751899, 64.228823], [68.668356, 64.227426], [68.599397, 64.226479], [68.529061, 64.226038], [68.528084, 64.225926], [68.468937, 64.209659], [68.463032, 64.208167], [68.45711, 64.206434], [68.451225, 64.204883], [68.450154, 64.20454], [68.447924, 64.203655], [68.446105, 64.202827], [68.432776, 64.196553], [68.431724, 64.196203], [68.430125, 64.195844], [68.406644, 64.192355], [68.390579, 64.189941], [68.272083, 64.171313], [68.255634, 64.168688], [68.248304, 64.167545], [68.222571, 64.16339], [68.165909, 64.153773], [68.154794, 64.151869], [68.143091, 64.149851], [68.142066, 64.149698], [68.137136, 64.149158], [68.135707, 64.149039], [68.122253, 64.148188], [68.120079, 64.148006], [68.110189, 64.146976], [68.105847, 64.146482], [68.092737, 64.145218], [68.091638, 64.145106], [68.084328, 64.144287], [68.062046, 64.142098], [68.044959, 64.14024], [68.043925, 64.140215], [68.043033, 64.140299], [67.99519, 64.149703], [67.975364, 64.15383], [67.974367, 64.154027], [67.971165, 64.154599], [67.970078, 64.154703], [67.968881, 64.154712], [67.965978, 64.154575], [67.964373, 64.154462], [67.954563, 64.153598], [67.953474, 64.153524], [67.949606, 64.153297], [67.944672, 64.152919], [67.943402, 64.152797], [67.933037, 64.151347], [67.930953, 64.151119], [67.921499, 64.150295], [67.911464, 64.149417], [67.910832, 64.149359], [67.91021, 64.149245], [67.903099, 64.147441], [67.902233, 64.147366], [67.901297, 64.147405], [67.893141, 64.148726], [67.891897, 64.148854], [67.890923, 64.14886], [67.868424, 64.147101], [67.860163, 64.146544], [67.857695, 64.146376], [67.852835, 64.145796], [67.850926, 64.145543], [67.848233, 64.144996], [67.823408, 64.139028], [67.817001, 64.137516], [67.80783, 64.135154], [67.806216, 64.13479], [67.798699, 64.133097], [67.794254, 64.132047], [67.784004, 64.129638], [67.782334, 64.129218], [67.775496, 64.127118], [67.773854, 64.126599], [67.768559, 64.124845], [67.767186, 64.12448], [67.765884, 64.124214], [67.758508, 64.123226], [67.757446, 64.123053], [67.697185, 64.108481], [67.643616, 64.095267], [67.620286, 64.089731], [67.618856, 64.089335], [67.610787, 64.086898], [67.608578, 64.08631], [67.597465, 64.083947], [67.596063, 64.083761], [67.585488, 64.083279], [67.58403, 64.08321], [67.534934, 64.079782], [67.533972, 64.079745], [67.532174, 64.07972], [67.531211, 64.079683], [67.516918, 64.078614], [67.51597, 64.078484], [67.509659, 64.077056], [67.502075, 64.075135], [67.501212, 64.074935], [67.492314, 64.073099], [67.4884, 64.072208], [67.460658, 64.065522], [67.459634, 64.065174], [67.447264, 64.059286], [67.424734, 64.047898], [67.399354, 64.034915], [67.398281, 64.034577], [67.369026, 64.027588], [67.36211, 64.025935], [67.360021, 64.025543], [67.290074, 64.015191], [67.289306, 64.01498], [67.288764, 64.014651], [67.272292, 63.998663], [67.250625, 63.975592], [67.249965, 63.975248], [67.219185, 63.963677], [67.203275, 63.957949], [67.194965, 63.954735], [67.164561, 63.942724], [67.162798, 63.942068], [67.158121, 63.940458], [67.14855, 63.937323], [67.124434, 63.9292], [67.091146, 63.917577], [67.060074, 63.906146], [67.039978, 63.898589], [67.007783, 63.886841], [66.953315, 63.866952], [66.903864, 63.848908], [66.890917, 63.844097], [66.890434, 63.84387], [66.890092, 63.843596], [66.880165, 63.833254], [66.853631, 63.805708], [66.851197, 63.803035], [66.84728, 63.798332], [66.844239, 63.794697], [66.843178, 63.793552], [66.842201, 63.7926], [66.841253, 63.791642], [66.840474, 63.790737], [66.838099, 63.787765], [66.836283, 63.785703], [66.836188, 63.785592], [66.835509, 63.784801], [66.826786, 63.774566], [66.821507, 63.768774], [66.821139, 63.768416], [66.820333, 63.767739], [66.820071, 63.767489], [66.817403, 63.764467], [66.81709, 63.764184], [66.815301, 63.76278], [66.814549, 63.762241], [66.809321, 63.758975], [66.80829, 63.758303], [66.798318, 63.751652], [66.798017, 63.751422], [66.794545, 63.748146], [66.793831, 63.747506], [66.787393, 63.741648], [66.787156, 63.741472], [66.786899, 63.741341], [66.780296, 63.738836], [66.777307, 63.737693], [66.767502, 63.733821], [66.76713, 63.733654], [66.766781, 63.733465], [66.762473, 63.731121], [66.754945, 63.726965], [66.753879, 63.726383], [66.749264, 63.72395], [66.745517, 63.721927], [66.74521, 63.721783], [66.744846, 63.721648], [66.736423, 63.719165], [66.735576, 63.718926], [66.728825, 63.717197], [66.727831, 63.716934], [66.716397, 63.713501], [66.715615, 63.713246], [66.714546, 63.712872], [66.713432, 63.712466], [66.712697, 63.712184], [66.709518, 63.710968], [66.701501, 63.707898], [66.700622, 63.707554], [66.692982, 63.704455], [66.686383, 63.701886], [66.682742, 63.700447], [66.681722, 63.70006]]}},
{"type": "Feature", "id": "way/310063950", "properties": {"ProjectID": "P4146", "@id": "way/310063950", "diameter": "1420 mm", "flow_direction": "forward", "layer": "-1", "location": "underground", "man_made": "pipeline", "name": "Надым — Пунга 3", "operator": "ООО «Газпром трансгаз Югорск»", "place:destination": "Пунга", "place:origin": "Надым", "pressure": "74", "substance": "gas", "usage": "transmission"}, "geometry": {"type": "LineString", "coordinates": [[73.033261, 65.323193], [73.025895, 65.323215], [73.025708, 65.323234], [73.02525, 65.323369], [73.025049, 65.323391], [73.021568, 65.323393], [73.021334, 65.323377], [73.020426, 65.323276], [73.020135, 65.323257], [73.00954, 65.323283], [73.009051, 65.323266], [73.008629, 65.323217], [72.992127, 65.320139], [72.964615, 65.314864], [72.957223, 65.313389], [72.95675, 65.313286], [72.956386, 65.313183], [72.956042, 65.313057], [72.939863, 65.305313], [72.932954, 65.302], [72.9146, 65.293362], [72.913959, 65.293037], [72.90511, 65.287615], [72.898793, 65.283896], [72.898214, 65.28352], [72.897677, 65.283125], [72.886798, 65.27469], [72.876394, 65.266634], [72.865381, 65.258227], [72.859498, 65.253664], [72.858119, 65.252693], [72.855935, 65.251209], [72.850042, 65.247376], [72.843137, 65.243029], [72.834237, 65.23754], [72.827486, 65.233214], [72.822565, 65.23005], [72.821793, 65.229598], [72.821363, 65.229421], [72.820891, 65.229331], [72.820323, 65.229282], [72.819566, 65.229266], [72.818853, 65.229255], [72.81515, 65.229391], [72.806515, 65.229844], [72.797265, 65.230372], [72.796422, 65.230396], [72.795909, 65.230396], [72.795501, 65.230372], [72.795142, 65.230313], [72.794816, 65.230231], [72.775082, 65.223712], [72.764983, 65.220496], [72.758288, 65.21823], [72.753847, 65.216701], [72.730354, 65.208663], [72.729598, 65.208483], [72.728785, 65.208336], [72.727779, 65.208236], [72.702563, 65.206607], [72.690933, 65.205869], [72.680647, 65.205291], [72.679946, 65.205235], [72.679195, 65.20514], [72.658578, 65.201533], [72.655292, 65.200915], [72.654585, 65.200777], [72.653858, 65.200606], [72.644337, 65.198084], [72.635282, 65.195726], [72.634853, 65.195573], [72.634478, 65.195375], [72.634234, 65.195206], [72.626764, 65.188911], [72.626431, 65.188712], [72.626045, 65.188537], [72.62554, 65.188415], [72.625015, 65.188307], [72.624425, 65.18824], [72.623684, 65.188204], [72.622969, 65.188192], [72.622021, 65.188213], [72.618052, 65.188438], [72.613953, 65.188672], [72.606368, 65.189199], [72.589459, 65.190207], [72.578721, 65.190845], [72.563539, 65.19181], [72.562723, 65.191832], [72.561937, 65.19181], [72.561028, 65.19172], [72.560363, 65.191621], [72.559848, 65.191513], [72.55925, 65.191307], [72.538433, 65.181769], [72.532368, 65.178973], [72.528938, 65.177468], [72.528384, 65.177254], [72.527876, 65.177094], [72.527246, 65.176961], [72.5265, 65.176865], [72.519304, 65.176225], [72.518692, 65.176157], [72.518282, 65.176083], [72.517844, 65.175955], [72.517515, 65.175817], [72.511246, 65.172626], [72.503728, 65.168818], [72.496046, 65.16501], [72.495647, 65.16489], [72.495228, 65.164827], [72.49482, 65.164795], [72.494238, 65.164793], [72.483158, 65.165426], [72.460241, 65.166742], [72.453348, 65.16716], [72.45301, 65.167154], [72.452667, 65.167136], [72.452275, 65.167082], [72.452023, 65.167035], [72.441873, 65.164818], [72.441348, 65.164764], [72.440913, 65.164748], [72.440375, 65.164773], [72.423313, 65.16658], [72.41034, 65.167967], [72.409695, 65.168053], [72.409018, 65.168208], [72.400622, 65.171103], [72.388134, 65.175455], [72.377439, 65.17909], [72.377114, 65.179173], [72.376723, 65.179243], [72.376363, 65.179281], [72.375884, 65.179294], [72.375402, 65.179265], [72.374681, 65.179149], [72.372883, 65.17872], [72.353964, 65.174052], [72.347519, 65.172473], [72.347133, 65.172387], [72.346848, 65.172342], [72.346537, 65.172306], [72.336463, 65.17136], [72.32686, 65.170445], [72.317106, 65.169467], [72.316357, 65.169409], [72.315767, 65.169387], [72.315177, 65.169387], [72.314737, 65.169414], [72.314286, 65.169468], [72.313525, 65.169603], [72.312865, 65.169788], [72.30462, 65.172977], [72.303652, 65.173301], [72.295705, 65.175408], [72.290628, 65.176649], [72.290229, 65.176737], [72.28979, 65.176778], [72.28931, 65.176779], [72.288837, 65.176729], [72.278042, 65.175241], [72.277701, 65.175194], [72.277164, 65.175144], [72.27666, 65.175126], [72.276263, 65.175135], [72.275823, 65.175171], [72.275384, 65.175243], [72.267187, 65.176823], [72.266647, 65.176946], [72.262794, 65.177857], [72.261779, 65.178076], [72.246866, 65.181148], [72.233047, 65.184066], [72.227607, 65.185214], [72.227108, 65.18527], [72.22666, 65.185293], [72.226126, 65.185296], [72.22249, 65.185223], [72.217673, 65.185164], [72.210324, 65.185097], [72.204906, 65.185016], [72.204605, 65.185029], [72.204305, 65.185065], [72.204026, 65.185124], [72.203575, 65.185277], [72.203243, 65.185435], [72.202953, 65.185606], [72.199638, 65.18751], [72.197181, 65.188929], [72.196966, 65.189005], [72.196698, 65.189046], [72.196451, 65.18905], [72.170488, 65.187861], [72.160488, 65.187344], [72.150317, 65.186885], [72.142539, 65.186538], [72.132454, 65.186078], [72.12764, 65.185912], [72.127113, 65.185855], [72.126648, 65.185745], [72.119579, 65.183656], [72.109526, 65.180612], [72.098111, 65.17722], [72.093025, 65.175646], [72.079294, 65.171461], [72.06248, 65.166399], [72.054412, 65.163957], [72.047063, 65.161776], [72.039306, 65.159423], [72.034371, 65.157936], [72.025144, 65.155164], [72.022172, 65.154276], [72.021775, 65.154172], [72.021475, 65.154109], [72.021131, 65.154041], [72.003888, 65.151066], [71.996152, 65.149787], [71.99476, 65.14956], [71.989406, 65.148775], [71.983355, 65.147878], [71.97812, 65.147098], [71.976542, 65.146854], [71.975588, 65.146706], [71.974869, 65.146593], [71.974289, 65.146476], [71.97371, 65.146354], [71.973259, 65.146232], [71.972905, 65.146115], [71.972637, 65.146011], [71.971103, 65.145317], [71.968035, 65.144081], [71.966715, 65.143517], [71.959623, 65.1405], [71.959183, 65.140306], [71.956909, 65.139178], [71.956576, 65.13903], [71.954141, 65.13806], [71.953701, 65.13792], [71.953347, 65.137825], [71.953003, 65.137758], [71.952303, 65.137657], [71.943208, 65.136783], [71.93588, 65.136125], [71.932071, 65.13575], [71.930901, 65.135618], [71.927372, 65.1352], [71.926975, 65.135137], [71.926546, 65.13506], [71.92602, 65.134947], [71.918746, 65.133224], [71.909668, 65.131041], [71.909323, 65.130963], [71.908964, 65.130902], [71.902874, 65.129977], [71.878514, 65.126357], [71.853355, 65.122694], [71.840687, 65.120825], [71.828785, 65.119026], [71.821646, 65.11797], [71.82055, 65.117823], [71.817797, 65.117541], [71.816705, 65.117411], [71.811085, 65.116633], [71.804516, 65.115663], [71.803572, 65.115524], [71.794292, 65.11421], [71.791921, 65.113867], [71.787103, 65.113135], [71.784571, 65.112756], [71.782029, 65.112386], [71.776257, 65.111577], [71.772587, 65.111063], [71.766923, 65.110169], [71.760592, 65.109202], [71.753308, 65.108123], [71.745443, 65.106972], [71.741484, 65.106393], [71.741034, 65.106344], [71.740583, 65.106303], [71.740068, 65.106276], [71.732161, 65.106068], [71.728181, 65.105969], [71.709823, 65.105351], [71.692484, 65.104911], [71.691669, 65.104831], [71.669766, 65.100625], [71.658837, 65.098509], [71.646507, 65.095876], [71.645544, 65.095683], [71.626228, 65.092179], [71.62033, 65.091146], [71.618546, 65.090866], [71.609809, 65.089598], [71.600021, 65.088308], [71.59841, 65.088069], [71.586809, 65.086252], [71.564279, 65.08274], [71.560473, 65.082234], [71.558632, 65.081955], [71.551626, 65.080735], [71.549176, 65.080358], [71.48977, 65.072131], [71.430467, 65.063381], [71.425725, 65.062601], [71.424668, 65.062387], [71.36038, 65.04539], [71.32394, 65.035794], [71.322114, 65.03531], [71.301813, 65.02946], [71.295825, 65.027906], [71.279997, 65.024065]]}},
{"type": "Feature", "id": "way/371257856", "properties": {"ProjectID": "P4146", "@id": "way/371257856", "diameter": "1420 mm", "flow_direction": "forward", "layer": "-1", "location": "underground", "man_made": "pipeline", "name": "Надым — Пунга 3", "operator": "ООО «Газпром трансгаз Югорск»", "place:destination": "Пунга", "place:origin": "Надым", "pressure": "74", "substance": "gas", "usage": "transmission"}, "geometry": {"type": "LineString", "coordinates": [[66.091196, 63.247936], [66.091069, 63.247944], [66.080763, 63.245032], [66.015964, 63.226157], [66.00327, 63.222407], [65.986561, 63.217447], [65.985561, 63.217036], [65.984821, 63.216501], [65.976529, 63.207806], [65.975872, 63.207371], [65.968719, 63.203067], [65.96488, 63.200782], [65.927126, 63.177742], [65.92609, 63.1772], [65.910837, 63.170835], [65.9005, 63.166397], [65.899679, 63.166116], [65.896777, 63.165279], [65.85976, 63.154985], [65.822402, 63.144545], [65.807403, 63.140316], [65.802999, 63.138987], [65.799151, 63.137712], [65.790396, 63.134459], [65.76999, 63.127339], [65.766485, 63.126042], [65.765484, 63.125811], [65.762009, 63.125354], [65.744545, 63.122548], [65.743236, 63.122253], [65.715174, 63.112165], [65.66652, 63.094821], [65.598867, 63.070744], [65.59756, 63.070366], [65.566986, 63.063066], [65.549122, 63.059144], [65.547702, 63.058678], [65.546563, 63.058098], [65.54504, 63.05699], [65.542942, 63.055108], [65.542018, 63.054516], [65.541017, 63.054113], [65.477128, 63.039309], [65.462348, 63.035879], [65.460738, 63.035412], [65.459418, 63.034694], [65.446954, 63.024758], [65.444128, 63.022623], [65.439241, 63.019356], [65.420923, 63.007273], [65.420304, 63.006912], [65.419481, 63.00658], [65.400067, 63.000808], [65.389593, 62.997529], [65.355512, 62.987174], [65.348063, 62.984998], [65.337322, 62.98174], [65.324798, 62.978044], [65.324279, 62.977907], [65.323763, 62.977804], [65.323215, 62.97773], [65.322654, 62.977697], [65.306062, 62.977954], [65.286328, 62.978283], [65.27303, 62.978519], [65.255124, 62.979014], [65.246998, 62.979154], [65.238583, 62.979358], [65.234451, 62.979503], [65.233384, 62.979518], [65.23214, 62.979467], [65.214981, 62.978429], [65.197274, 62.977428], [65.19015, 62.977082], [65.174379, 62.97616], [65.168576, 62.975805], [65.167885, 62.975742], [65.167258, 62.97567], [65.166552, 62.975599], [65.161775, 62.975318], [65.161719, 62.975334], [65.161692, 62.97538], [65.161633, 62.975396], [65.159916, 62.975357], [65.146446, 62.975557], [65.133847, 62.975773]]}},
{"type": "Feature", "id": "way/1266179611", "properties": {"ProjectID": "P4146", "@id": "way/1266179611", "diameter": "1420 mm", "flow_direction": "forward", "layer": "-1", "location": "underground", "man_made": "pipeline", "name": "Надым — Пунга 3", "operator": "ООО «Газпром трансгаз Югорск»", "place:destination": "Пунга", "place:origin": "Надым", "pressure": "74", "substance": "gas", "usage": "transmission"}, "geometry": {"type": "LineString", "coordinates": [[64.337707, 62.796401], [64.337788, 62.796375], [64.33781, 62.796345], [64.337797, 62.796303], [64.33354, 62.793476], [64.318783, 62.783579], [64.318558, 62.78337], [64.318441, 62.78312], [64.318368, 62.779796], [64.318337, 62.778366], [64.318317, 62.777472], [64.318281, 62.776912]]}},
{"type": "Feature", "id": "way/1266179612", "properties": {"ProjectID": "P4146", "@id": "way/1266179612", "diameter": "1420 mm", "flow_direction": "forward", "location": "overground", "man_made": "pipeline", "name": "Надым — Пунга 3", "operator": "ООО «Газпром трансгаз Югорск»", "place:destination": "Пунга", "place:origin": "Надым", "pressure": "74", "substance": "gas", "usage": "transmission"}, "geometry": {"type": "LineString", "coordinates": [[64.338704, 62.797078], [64.338552, 62.797126], [64.338492, 62.797142], [64.338422, 62.797145], [64.338369, 62.797128], [64.337502, 62.796551], [64.337467, 62.796518], [64.337464, 62.796489], [64.337497, 62.796458], [64.337707, 62.796401]]}},
{"type": "Feature", "id": "way/1304647309", "properties": {"ProjectID": "P4146", "@id": "way/1304647309", "diameter": "1420 mm", "flow_direction": "forward", "layer": "-1", "location": "underground", "man_made": "pipeline", "name": "Надым — Пунга 3", "operator": "ООО «Газпром трансгаз Югорск»", "place:destination": "Пунга", "place:origin": "Надым", "pressure": "74", "substance": "gas", "usage": "transmission"}, "geometry": {"type": "LineString", "coordinates": [[66.681722, 63.70006], [66.68004, 63.699479], [66.679349, 63.699199], [66.678697, 63.698787], [66.67839, 63.698365], [66.678013, 63.697362], [66.677767, 63.696732], [66.676985, 63.694532], [66.676306, 63.692501], [66.676117, 63.69201], [66.675663, 63.691153], [66.67483, 63.690038], [66.674296, 63.68963], [66.67356, 63.689332], [66.672469, 63.689053], [66.668179, 63.688315], [66.667365, 63.688195], [66.664646, 63.687851], [66.66387, 63.687763], [66.661966, 63.68759], [66.661838, 63.687625], [66.661736, 63.687857], [66.661578, 63.6879], [66.655385, 63.687421], [66.655157, 63.687361], [66.654689, 63.687001], [66.654471, 63.686945], [66.651072, 63.686684], [66.649733, 63.686491], [66.648733, 63.686222], [66.647986, 63.685872], [66.642674, 63.682105], [66.639146, 63.679303], [66.638429, 63.678604], [66.637893, 63.677843], [66.634841, 63.672488], [66.634533, 63.672112], [66.634017, 63.67177], [66.625763, 63.667219], [66.615838, 63.661762], [66.602895, 63.654638], [66.602291, 63.654203], [66.578966, 63.633072], [66.558245, 63.61455], [66.557314, 63.613675], [66.554966, 63.611207], [66.554276, 63.610365], [66.548441, 63.602027], [66.541536, 63.593119], [66.541074, 63.592425], [66.540143, 63.590487], [66.54004, 63.589806], [66.541667, 63.581985], [66.542084, 63.580653], [66.545514, 63.566891], [66.545507, 63.566267], [66.545281, 63.56548], [66.545031, 63.565001], [66.542272, 63.561208], [66.535888, 63.550796], [66.523796, 63.531615], [66.52274, 63.529944], [66.521222, 63.527932], [66.517104, 63.523067], [66.515437, 63.52076], [66.514752, 63.519652], [66.509664, 63.510907], [66.508263, 63.508459], [66.505041, 63.503356], [66.504244, 63.501992], [66.503496, 63.500476], [66.502699, 63.498597], [66.502455, 63.49814], [66.498195, 63.49131], [66.497317, 63.489764], [66.493284, 63.481009], [66.488916, 63.470452], [66.488595, 63.469909], [66.483314, 63.461845], [66.479861, 63.456204], [66.478496, 63.453515], [66.472736, 63.444787], [66.466087, 63.434347], [66.46294, 63.429273], [66.461081, 63.426024], [66.45892, 63.422984], [66.458311, 63.422579], [66.274839, 63.358732], [66.273707, 63.358199], [66.268024, 63.353726], [66.216076, 63.309756], [66.19453, 63.290605], [66.193754, 63.290112], [66.179717, 63.282544], [66.146647, 63.264454], [66.145099, 63.263852], [66.113298, 63.254582], [66.106232, 63.252391], [66.092734, 63.248403], [66.092704, 63.24835]]}},
{"type": "Feature", "id": "way/1360708772", "properties": {"ProjectID": "P4146", "@id": "way/1360708772", "diameter": "1420 mm", "flow_direction": "forward", "location": "overground", "man_made": "pipeline", "name": "Надым — Пунга 3", "operator": "ООО «Газпром трансгаз Югорск»", "place:destination": "Пунга", "place:origin": "Надым", "pressure": "74", "substance": "gas", "usage": "transmission"}, "geometry": {"type": "LineString", "coordinates": [[66.092704, 63.24835], [66.092854, 63.248242], [66.09284, 63.248195], [66.091491, 63.247811], [66.091375, 63.247821], [66.091196, 63.247936]]}},
{"type": "Feature", "id": "way/1362313224", "properties": {"ProjectID": "P4146", "@id": "way/1362313224", "diameter": "1420 mm", "flow_direction": "forward", "layer": "-1", "location": "underground", "man_made": "pipeline", "name": "Надым — Пунга 3", "operator": "ООО «Газпром трансгаз Югорск»", "place:destination": "Пунга", "place:origin": "Надым", "pressure": "74", "substance": "gas", "usage": "transmission"}, "geometry": {"type": "LineString", "coordinates": [[70.927472, 64.795357], [70.923137, 64.791202], [70.922629, 64.790877], [70.913283, 64.786132], [70.903796, 64.781266], [70.891491, 64.774927], [70.890827, 64.774483], [70.878202, 64.762777], [70.877483, 64.762229], [70.870099, 64.757603], [70.869344, 64.757148], [70.851378, 64.747247], [70.850094, 64.746608], [70.838548, 64.741634], [70.824806, 64.735887], [70.801694, 64.725702], [70.801362, 64.72547], [70.788332, 64.706267], [70.783186, 64.697665], [70.782884, 64.697282], [70.77814, 64.692899], [70.775221, 64.689969], [70.774727, 64.689369], [70.768653, 64.680877], [70.768251, 64.680546], [70.743387, 64.66651], [70.743006, 64.666215], [70.742794, 64.665884], [70.741042, 64.656241], [70.739715, 64.649892], [70.739595, 64.648453], [70.739435, 64.648091], [70.72984, 64.639391], [70.726911, 64.637022], [70.719475, 64.630166], [70.719126, 64.629942], [70.718712, 64.629762], [70.712446, 64.627549], [70.707092, 64.625742], [70.702071, 64.623894], [70.694324, 64.621065], [70.693444, 64.620858], [70.692371, 64.620771], [70.672417, 64.621128], [70.668966, 64.62125], [70.668005, 64.621191], [70.666366, 64.620949], [70.665454, 64.6207], [70.648447, 64.61201], [70.647412, 64.611394], [70.627739, 64.595773], [70.627524, 64.595553], [70.62389, 64.583499], [70.621807, 64.578121], [70.62149, 64.577856], [70.600911, 64.567602], [70.600435, 64.567265], [70.592318, 64.558088], [70.591681, 64.557248], [70.589961, 64.554474], [70.589634, 64.553916], [70.584811, 64.544193], [70.584786, 64.543879], [70.586681, 64.538819], [70.587398, 64.537155], [70.587374, 64.536907], [70.587164, 64.536696], [70.576653, 64.531525], [70.563269, 64.524486], [70.562147, 64.523898], [70.557674, 64.5213], [70.556984, 64.520871], [70.552707, 64.517865], [70.537679, 64.50855], [70.537078, 64.508254], [70.528267, 64.505042], [70.522461, 64.503119], [70.521051, 64.502584], [70.52021, 64.502174], [70.497882, 64.488426], [70.496916, 64.48807], [70.445447, 64.476045], [70.444658, 64.475843], [70.433617, 64.471606], [70.432974, 64.471308], [70.423427, 64.465831], [70.422365, 64.465208], [70.392182, 64.445954], [70.391485, 64.445667], [70.390658, 64.445468], [70.370133, 64.442873], [70.36773, 64.442464], [70.364377, 64.441756], [70.343772, 64.436898], [70.32064, 64.431548], [70.307909, 64.428537], [70.299754, 64.426753], [70.298789, 64.426564], [70.293737, 64.425718], [70.293022, 64.42554], [70.291244, 64.424914], [70.290568, 64.424706], [70.278348, 64.42176], [70.269889, 64.420003], [70.258367, 64.417537], [70.257542, 64.417419], [70.254152, 64.417137], [70.242466, 64.416452], [70.237184, 64.416057], [70.22353, 64.415029], [70.209949, 64.414162], [70.204534, 64.413825], [70.19333, 64.413305], [70.191541, 64.413228], [70.183052, 64.413031], [70.17871, 64.412827], [70.16678, 64.412135], [70.16421, 64.412029], [70.150329, 64.411557], [70.148195, 64.411455], [70.142804, 64.411022], [70.14062, 64.410898], [70.124458, 64.410332], [70.123925, 64.410247], [70.120964, 64.40919], [70.120423, 64.409041], [70.119405, 64.408856], [70.102561, 64.405676], [70.090808, 64.403351], [70.083351, 64.401787], [70.076063, 64.40046], [70.069142, 64.399097], [70.065811, 64.398363], [70.064277, 64.398087], [70.056745, 64.396893], [70.021917, 64.392271], [70.014885, 64.391436], [70.003019, 64.389627], [70.000885, 64.389369], [69.992914, 64.388588], [69.990089, 64.388272], [69.946127, 64.38233], [69.939903, 64.381582], [69.901183, 64.377417], [69.898712, 64.377124], [69.872885, 64.373541], [69.871887, 64.373343], [69.854682, 64.367507], [69.853577, 64.367276], [69.847732, 64.3666], [69.846313, 64.366416], [69.804868, 64.360187], [69.776881, 64.356403], [69.764872, 64.3546], [69.7635, 64.354461], [69.745236, 64.353583], [69.704, 64.351123], [69.663421, 64.34883], [69.601348, 64.345478], [69.599911, 64.345304], [69.598765, 64.344985], [69.595579, 64.343759], [69.594008, 64.343085], [69.563644, 64.32928], [69.545025, 64.321023], [69.527698, 64.313162], [69.509546, 64.305272], [69.479631, 64.291818], [69.452594, 64.27973], [69.451975, 64.279512], [69.451132, 64.279375], [69.373425, 64.273626], [69.249758, 64.264544], [69.248942, 64.264387], [69.23606, 64.260867], [69.235296, 64.260738], [69.213212, 64.25856], [69.147751, 64.251839], [69.142456, 64.251349], [69.141192, 64.251173], [69.101462, 64.243959], [69.092247, 64.242288], [69.09093, 64.242203], [69.072206, 64.242213], [69.05185, 64.242398], [69.050305, 64.242328], [69.036373, 64.240954]]}},
{"type": "Feature", "id": "way/1362822534", "properties": {"ProjectID": "P4146", "@id": "way/1362822534", "diameter": "1420 mm", "flow_direction": "forward", "layer": "-1", "location": "underground", "man_made": "pipeline", "name": "Надым — Пунга 3", "operator": "ООО «Газпром трансгаз Югорск»", "place:destination": "Пунга", "place:origin": "Надым", "pressure": "74", "substance": "gas", "usage": "transmission"}, "geometry": {"type": "LineString", "coordinates": [[71.062083, 64.905942], [71.062076, 64.905914], [71.058922, 64.903494], [71.058727, 64.903191], [71.058841, 64.902874], [71.064516, 64.896289], [71.064839, 64.895867], [71.065325, 64.895179], [71.065622, 64.894809], [71.072295, 64.888796], [71.072624, 64.888429], [71.073586, 64.886965], [71.073728, 64.886544], [71.073574, 64.884727], [71.073466, 64.884376], [71.073244, 64.884079], [71.072819, 64.883797], [71.05363, 64.875114], [71.020919, 64.85983], [71.019705, 64.859317], [71.018294, 64.858804], [70.989406, 64.848672], [70.972673, 64.842852], [70.972104, 64.842562], [70.96034, 64.831544], [70.942679, 64.815177], [70.942337, 64.814741], [70.936686, 64.803936], [70.936388, 64.803535], [70.932056, 64.799589], [70.927472, 64.795357]]}},
{"type": "Feature", "id": "way/1362822535", "properties": {"ProjectID": "P4146", "@id": "way/1362822535", "diameter": "1420 mm", "flow_direction": "forward", "location": "overground", "man_made": "pipeline", "name": "Надым — Пунга 3", "operator": "ООО «Газпром трансгаз Югорск»", "place:destination": "Пунга", "place:origin": "Надым", "pressure": "74", "substance": "gas", "usage": "transmission"}, "geometry": {"type": "LineString", "coordinates": [[71.06328, 64.906703], [71.063207, 64.906706], [71.063062, 64.906743], [71.062983, 64.906743], [71.062908, 64.906723], [71.061905, 64.90606], [71.061887, 64.906024], [71.061919, 64.905994], [71.062048, 64.905964], [71.062083, 64.905942]]}},
{"type": "Feature", "id": "way/1362822544", "properties": {"ProjectID": "P4146", "@id": "way/1362822544", "diameter": "1420 mm", "flow_direction": "forward", "layer": "-1", "location": "underground", "man_made": "pipeline", "name": "Надым — Пунга 3", "operator": "ООО «Газпром трансгаз Югорск»", "place:destination": "Пунга", "place:origin": "Надым", "pressure": "74", "substance": "gas", "usage": "transmission"}, "geometry": {"type": "LineString", "coordinates": [[71.076517, 64.981014], [71.074393, 64.980354], [71.072214, 64.979635], [71.07161, 64.979401], [71.071079, 64.979039], [71.055368, 64.958926], [71.05525, 64.95855], [71.055292, 64.958245], [71.05561, 64.957662], [71.056572, 64.957764], [71.056665, 64.957733], [71.056793, 64.957488], [71.057136, 64.95692], [71.057598, 64.956461], [71.058273, 64.955916], [71.059003, 64.955394], [71.062866, 64.952446], [71.067125, 64.94888], [71.069024, 64.947031], [71.070301, 64.945641], [71.070644, 64.945255], [71.071395, 64.944105], [71.072725, 64.942242], [71.074528, 64.939411], [71.077864, 64.933589], [71.078283, 64.932798], [71.07868, 64.931816], [71.077693, 64.931725], [71.077803, 64.931331], [71.078227, 64.929809], [71.078266, 64.929349], [71.077023, 64.922236], [71.076109, 64.919514], [71.075044, 64.915546], [71.074982, 64.915309], [71.074962, 64.914809], [71.074816, 64.914489], [71.074507, 64.914174], [71.068474, 64.910223], [71.063338, 64.906717], [71.06328, 64.906703]]}},
{"type": "Feature", "id": "way/1362822545", "properties": {"ProjectID": "P4146", "@id": "way/1362822545", "diameter": "1420 mm", "flow_direction": "forward", "location": "overground", "man_made": "pipeline", "name": "Надым — Пунга 3", "operator": "ООО «Газпром трансгаз Югорск»", "place:destination": "Пунга", "place:origin": "Надым", "pressure": "74", "substance": "gas", "usage": "transmission"}, "geometry": {"type": "LineString", "coordinates": [[71.078115, 64.981487], [71.076517, 64.981014]]}},
{"type": "Feature", "id": "way/1362822550", "properties": {"ProjectID": "P4146", "@id": "way/1362822550", "diameter": "1420 mm", "flow_direction": "forward", "layer": "-1", "location": "underground", "man_made": "pipeline", "name": "Надым — Пунга 3", "operator": "ООО «Газпром трансгаз Югорск»", "place:destination": "Пунга", "place:origin": "Надым", "pressure": "74", "substance": "gas", "usage": "transmission"}, "geometry": {"type": "LineString", "coordinates": [[71.276065, 65.02315], [71.265055, 65.020408], [71.240752, 65.014], [71.240002, 65.013857], [71.226652, 65.012015], [71.221017, 65.01116], [71.219304, 65.010831], [71.20805, 65.008319], [71.172275, 65.000217], [71.170056, 64.999774], [71.166915, 64.999214], [71.154286, 64.997043], [71.150309, 64.996323], [71.14963, 64.996161], [71.137716, 64.992635], [71.136966, 64.992437], [71.128302, 64.99048], [71.127566, 64.990373], [71.09904, 64.987542], [71.097978, 64.987386], [71.097072, 64.9872], [71.078115, 64.981487]]}},
{"type": "Feature", "id": "way/1362822551", "properties": {"ProjectID": "P4146", "@id": "way/1362822551", "diameter": "1420 mm", "flow_direction": "forward", "location": "overground", "man_made": "pipeline", "name": "Надым — Пунга 3", "operator": "ООО «Газпром трансгаз Югорск»", "place:destination": "Пунга", "place:origin": "Надым", "pressure": "74", "substance": "gas", "usage": "transmission"}, "geometry": {"type": "LineString", "coordinates": [[71.279997, 65.024065], [71.276065, 65.02315]]}}
]
}
