{
"type": "FeatureCollection",
"features": [
{"type": "Feature", "properties": {"ProjectID": "P4183", "id": 1, "Name": "Los Ramones II Norte", "Type": null}, "geometry": {"type": "MultiLineString", "coordinates": [[[-99.459924, 25.682705], [-99.453567, 25.650981], [-99.447208, 25.620238], [-99.447701, 25.576196], [-99.45862, 25.531864], [-99.45862, 25.497373], [-99.46954, 25.477659], [-99.46954, 25.448082], [-99.46408, 25.413567], [-99.475, 25.383974], [-99.46408, 25.354375], [-99.46954, 25.295153], [-99.46954, 25.226025], [-99.485919, 25.196387], [-99.485919, 25.1618], [-99.491379, 25.132146], [-99.502299, 25.092596], [-99.513219, 25.067871], [-99.529598, 25.038194], [-99.540518, 24.993665], [-99.578736, 24.94417], [-99.600575, 24.894655], [-99.611495, 24.840165], [-99.595116, 24.790609], [-99.584196, 24.760865], [-99.562357, 24.731114], [-99.551437, 24.691436], [-99.551437, 24.646782], [-99.545977, 24.592184], [-99.556897, 24.567359], [-99.561274, 24.552244], [-99.556175, 24.537957], [-99.545703, 24.521577], [-99.54079, 24.516666], [-99.537747, 24.51155], [-99.521364, 24.489609], [-99.503558, 24.457603], [-99.508502, 24.416905], [-99.507759, 24.383499], [-99.518678, 24.353658], [-99.524138, 24.31386], [-99.556897, 24.27405], [-99.578736, 24.249162], [-99.622415, 24.234227], [-99.682473, 24.224269], [-99.720691, 24.199371], [-99.76983, 24.174469], [-99.808048, 24.154543], [-99.840807, 24.129632], [-99.873566, 24.119666], [-99.889945, 24.109699], [-99.911785, 24.109699], [-99.955463, 24.089764], [-99.971843, 24.059854], [-100.004601, 23.990039], [-100.0319, 23.935157], [-100.059199, 23.895229], [-100.081039, 23.855288], [-100.097418, 23.840307], [-100.102878, 23.795354], [-100.119257, 23.775369], [-100.119257, 23.750385], [-100.130838, 23.713312], [-100.167765, 23.682264], [-100.222956, 23.683836], [-100.266672, 23.690402], [-100.322192, 23.694195], [-100.401507, 23.70301], [-100.475414, 23.653165], [-100.543688, 23.591799], [-100.545267, 23.528932], [-100.539356, 23.438255], [-100.524814, 23.343839], [-100.50689, 23.222308], [-100.479924, 23.094266], [-100.466005, 23.018894], [-100.454443, 22.967611], [-100.462898, 22.929136], [-100.479806, 22.917179], [-100.486576, 22.89747], [-100.487514, 22.87109], [-100.489489, 22.840496], [-100.492276, 22.813593], [-100.496964, 22.771028], [-100.503316, 22.716515], [-100.510413, 22.69676], [-100.516031, 22.658936], [-100.524527, 22.64413], [-100.531016, 22.631013], [-100.566371, 22.611834], [-100.597276, 22.596135], [-100.626749, 22.583476], [-100.652983, 22.567626], [-100.665667, 22.534892]]]}}
]
}
