{
"type": "FeatureCollection",
"features": [
{"type": "Feature", "properties": {"ProjectID": "P4215", "id": 2, "Name": "Prestea-Chirano", "Type": "Secondary"}, "geometry": {"type": "MultiLineString", "coordinates": [[[-2.282053, 5.66372], [-2.367745, 5.694917], [-2.442986, 5.742749], [-2.463887, 5.771862], [-2.495237, 5.832163], [-2.486877, 5.921562], [-2.463887, 5.958981], [-2.419996, 6.008869], [-2.346844, 6.071222], [-2.252792, 6.129412], [-2.231892, 6.154348], [-2.317583, 6.177206], [-2.384465, 6.195907], [-2.432536, 6.239539], [-2.468067, 6.274858]]]}}
]
}
