{
"type": "FeatureCollection",
"features": [
{"type": "Feature", "properties": {"ProjectID": "P4225"}, "geometry": {"type": "LineString", "coordinates": [[6.380202, 52.519134], [6.380202, 52.519134], [6.341084, 52.495325], [6.318542, 52.494518], [6.287381, 52.492096], [6.260198, 52.485233], [6.235666, 52.483618], [6.207157, 52.477965], [6.193234, 52.469484], [6.168039, 52.468272], [6.140193, 52.467868], [6.118977, 52.460597], [6.109695, 52.452921], [6.087816, 52.451305], [6.074555, 52.444839], [5.98969, 52.440394], [5.937976, 52.427863], [5.90814, 52.411689], [5.873001, 52.391058], [5.81996, 52.361917], [5.769572, 52.347339], [5.732443, 52.348959], [5.695315, 52.331135], [5.655535, 52.326273], [5.589234, 52.305197], [4.550964, 52.287356]]}}
]
}
