{
"type": "FeatureCollection",
"features": [
{"type": "Feature", "properties": {"ProjectID": "P4235", "id": 1, "Name": "P4235"}, "geometry": {"type": "MultiLineString", "coordinates": [[[42.721285, 42.197518], [42.621435, 42.212647], [42.563946, 42.203569], [42.482251, 42.182389], [42.379376, 42.164235], [42.273475, 42.167261], [42.167574, 42.173312], [42.107059, 42.200544], [42.052596, 42.218698], [41.964849, 42.22475], [41.943669, 42.233827], [41.889206, 42.291316], [41.861974, 42.363934], [41.840794, 42.412346], [41.78633, 42.469835], [41.746996, 42.497066], [41.677404, 42.536401], [41.628992, 42.548504], [41.60176, 42.587839], [41.550322, 42.642302], [41.504936, 42.708868], [41.450473, 42.717946], [41.41719, 42.778461], [41.414164, 42.823847], [41.41719, 42.863181], [41.392984, 42.893439], [41.359701, 42.908568], [41.27498, 42.908568], [41.244722, 42.92067], [41.19631, 42.966057], [41.169079, 43.029597], [41.129744, 43.053803], [41.057126, 43.071958], [41.041998, 43.071958], [40.999637, 43.026571]]]}}
]
}
