{
"type": "FeatureCollection",
"features": [
{"type": "Feature", "properties": {"ProjectID": "P4238", "id": 1}, "geometry": {"type": "MultiLineString", "coordinates": [[[45.007228, 41.434558], [44.946068, 41.47999], [44.883161, 41.509696], [44.818507, 41.521928], [44.792296, 41.521928], [44.767832, 41.492222], [44.71541, 41.488728], [44.556395, 41.49397], [44.479509, 41.49397], [44.390391, 41.450285], [44.191186, 41.362914], [44.100321, 41.600562], [43.984992, 41.597067], [43.897621, 41.604057], [43.810251, 41.625026], [43.715891, 41.639005], [43.656479, 41.652984], [43.604056, 41.659974], [43.558624, 41.652984], [43.523675, 41.62852], [43.488727, 41.597067], [43.453779, 41.590077], [43.404851, 41.590077]]]}}
]
}
