{
"type": "FeatureCollection",
"features": [
{"type": "Feature", "properties": {"ProjectID": "P4237", "id": 1, "Name": "P4237"}, "geometry": {"type": "MultiLineString", "coordinates": [[[44.978933, 41.686962], [45.048175, 41.692021], [45.132051, 41.692021], [45.219421, 41.702506], [45.317276, 41.733959], [45.366204, 41.702506], [45.467554, 41.669305], [45.554924, 41.632609], [45.719181, 41.609893], [45.813541, 41.606398], [45.879943, 41.602903], [45.911396, 41.644841], [45.900912, 41.718232], [45.886932, 41.749686], [45.831015, 41.840551], [45.761119, 41.892974], [45.589872, 41.997818], [45.4361, 42.071209], [45.313782, 42.071209], [45.191463, 42.060725], [45.05167, 42.106158], [44.992258, 42.127127], [44.95731, 42.130621], [44.911877, 42.113147], [44.866444, 42.123632], [44.84198, 42.148096], [44.831496, 42.15159], [44.793053, 42.144601]]]}}
]
}
