{
"type": "FeatureCollection",
"features": [
{"type": "Feature", "properties": {"ProjectID": "P4261"}, "geometry": {"type": "LineString", "coordinates": [[11.053551, 52.964348], [11.067582, 52.717904], [11.131913, 52.615051], [11.146533, 52.519073], [11.245953, 52.465661], [11.251801, 52.433583], [11.444792, 52.251365], [11.471109, 52.179702], [11.544212, 52.111514], [11.561756, 51.974827], [11.661176, 51.888282], [11.766444, 51.797954], [11.766444, 51.456697], [12.033056, 51.299722], [12.36881, 51.248513], [12.667069, 51.142231], [12.801578, 51.120211], [13.02381, 51.032027], [13.281132, 50.943674], [13.436203, 50.853301], [13.418894, 50.838871], [13.417595, 50.819025], [13.385022, 50.807744], [13.365525, 50.785268], [13.351985, 50.759001], [13.374732, 50.737338], [13.43238, 50.708259]]}}
]
}
