{
"type": "FeatureCollection",
"features": [
{"type": "Feature", "properties": {"ProjectID": "P4285"}, "geometry": {"type": "LineString", "coordinates": [[11.508643, 44.589285], [11.542233, 44.659869], [11.535835, 44.728094], [11.500965, 44.747637], [11.44722, 44.785794], [11.432184, 44.810765], [11.396354, 44.91054], [11.391235, 44.99114], [11.366922, 45.057166], [11.322135, 45.14117], [11.327253, 45.19981], [11.347728, 45.233162], [11.323414, 45.267396], [11.310618, 45.288106], [11.328533, 45.308809], [11.362763, 45.315558]]}}
]
}
