{
"type": "FeatureCollection",
"features": [
{"type": "Feature", "properties": {"ProjectID": "P4284"}, "geometry": {"type": "LineString", "coordinates": [[11.44722, 44.785794], [11.398913, 44.793514], [11.323414, 44.782616], [11.279906, 44.775349], [11.208246, 44.773532], [11.082841, 44.76263], [10.999665, 44.765356], [10.940801, 44.754452], [10.862743, 44.737184], [10.810278, 44.738093], [10.73094, 44.769898], [10.661839, 44.80441], [10.601696, 44.82075], [10.536434, 44.822566], [10.439181, 44.863395], [10.37136, 44.868837], [10.327852, 44.885159], [10.258751, 44.904196], [10.196049, 44.912352], [10.111593, 44.946778], [10.062966, 44.960362], [9.995145, 44.963078], [9.954196, 44.982994], [9.917407, 44.985031]]}}
]
}
