{
"type": "FeatureCollection",
"features": [
{"type": "Feature", "properties": {"ProjectID": "P4323"}, "geometry": {"type": "LineString", "coordinates": [[18.1745, 45.7376], [18.118858, 45.725547], [17.995922, 45.725547], [17.905337, 45.726676], [17.784019, 45.723288], [17.70314, 45.725547], [17.623879, 45.746998], [17.538147, 45.786492], [17.486384, 45.813557], [17.418446, 45.840609], [17.361831, 45.848497], [17.30198, 45.869901], [17.246983, 45.908182], [17.196838, 45.945312], [17.119194, 45.983541], [17.046403, 46.02736], [16.996258, 46.048694]]}}
]
}
