{
"type": "FeatureCollection",
"features": [
{"type": "Feature", "properties": {"ProjectID": "P4320"}, "geometry": {"type": "LineString", "coordinates": [[16.754996, 40.370773], [16.743775, 40.408818], [16.758463, 40.433977], [16.793346, 40.461921], [16.844754, 40.501022], [16.890654, 40.520565], [16.927373, 40.524751], [16.967765, 40.554052], [17.002649, 40.559632], [17.030189, 40.563816], [17.065272, 40.575619], [17.090776, 40.595888], [17.142184, 40.625158], [17.200935, 40.634911], [17.252343, 40.629338], [17.292735, 40.61819], [17.353322, 40.597282], [17.42309, 40.591706], [17.489185, 40.590312], [17.599344, 40.591706], [17.680127, 40.594494], [17.751731, 40.602858], [17.817826, 40.601464], [17.874802, 40.58912], [17.939, 40.595844], [17.976633, 40.610971], [17.976633, 40.626094]]}}
]
}
