{
"type": "FeatureCollection",
"features": [
{"type": "Feature", "properties": {"ProjectID": "P4336"}, "geometry": {"type": "LineString", "coordinates": [[9.6789, 47.5798], [9.720792, 47.543436], [9.720792, 47.521058], [9.705563, 47.510167], [9.681377, 47.503511], [9.67421, 47.491407], [9.675106, 47.472034], [9.682273, 47.461133], [9.694814, 47.450836], [9.693918, 47.436296], [9.685856, 47.422964], [9.685856, 47.406597], [9.67421, 47.386587], [9.652711, 47.363535], [9.641962, 47.351398], [9.628525, 47.321651], [9.626733, 47.285204], [9.629421, 47.271834], [9.642858, 47.260892], [9.659878, 47.242042], [9.664357, 47.22562], [9.680481, 47.207366], [9.705563, 47.200671], [9.732437, 47.186062], [9.76379, 47.177538], [9.812163, 47.159268], [9.851579, 47.13307], [9.87039, 47.108078], [9.871286, 47.096493]]}}
]
}
