{
"type": "FeatureCollection",
"features": [
{"type": "Feature", "properties": {"ProjectID": "P4354"}, "geometry": {"type": "LineString", "coordinates": [[29.688514, 38.055496], [29.648833, 38.18375], [29.587611, 38.395537], [29.483306, 38.633279], [29.32685, 38.787214], [29.390339, 38.937289], [29.596681, 39.111684], [29.816627, 39.317231], [29.973084, 39.478435], [29.993492, 39.611323], [29.993492, 39.768941], [30.050935, 39.850227], [30.143146, 39.922142], [30.162798, 39.94996], [30.1143, 39.978401], [30.043376, 40.057648], [30.090238, 40.249443], [30.188496, 40.360113], [30.303382, 40.447598], [30.388035, 40.549903], [30.450013, 40.650905], [30.45606, 40.767785], [30.491206, 40.830902]]}}
]
}
