{
"type": "FeatureCollection",
"features": [
{"type": "Feature", "properties": {"ProjectID": "P4358"}, "geometry": {"type": "LineString", "coordinates": [[15.261054, 53.039456], [15.304819, 53.081381], [15.395519, 53.155171], [15.45397, 53.203488], [15.492265, 53.245722], [15.550716, 53.272247], [15.703897, 53.289118], [15.873203, 53.295142], [15.965918, 53.291528], [16.040494, 53.32886], [16.145302, 53.345709], [16.332748, 53.318025], [16.467789, 53.287913], [16.532287, 53.280683], [16.592753, 53.237278], [16.63508, 53.181752], [16.717717, 53.145501], [16.758028, 53.104379], [16.774152, 53.068062], [16.834619, 53.020804], [16.899116, 52.984417], [16.933381, 52.940711], [16.959583, 52.879936], [16.9878, 52.783737], [17.016018, 52.699541], [17.030127, 52.650658], [17.034158, 52.591925], [17.026096, 52.535565], [17.032142, 52.45826], [16.947489, 52.401729]]}}
]
}
