{
"type": "FeatureCollection",
"features": [
{"type": "Feature", "properties": {"ProjectID": "P4371"}, "geometry": {"type": "LineString", "coordinates": [[22.127163, 43.051961], [22.06065, 43.058904], [22.001047, 43.079728], [21.969519, 43.097707], [21.966495, 43.171144], [21.923737, 43.230334], [21.896856, 43.278745], [21.893, 43.3217], [21.871908, 43.400028], [21.868453, 43.435165], [21.809714, 43.461504], [21.737155, 43.583016], [21.61795, 43.669303], [21.490106, 43.751723], [21.45685, 43.823125]]}}
]
}
