{
"type": "FeatureCollection",
"features": [
{"type": "Feature", "properties": {"ProjectID": "P4462", "id": 2}, "geometry": {"type": "MultiLineString", "coordinates": [[[22.056866, 50.646035], [22.071286, 50.643335], [22.074324, 50.633974], [22.134693, 50.609161], [22.156221, 50.603938], [22.162867, 50.539949], [22.155927, 50.531437], [22.173643, 50.510652], [22.181088, 50.486085], [22.178055, 50.481527], [22.195353, 50.454949], [22.190995, 50.430705], [22.219334, 50.420062], [22.218627, 50.40964], [22.227175, 50.401861], [22.227375, 50.36473], [22.238551, 50.355717], [22.250632, 50.360021], [22.271876, 50.352463], [22.277097, 50.296626], [22.268009, 50.282959], [22.277391, 50.274573], [22.263404, 50.268586], [22.275859, 50.225887], [22.302293, 50.215856], [22.298045, 50.206695], [22.304782, 50.199542], [22.295044, 50.189377], [22.305705, 50.186753], [22.341769, 50.107983], [22.332123, 50.098978], [22.31216, 50.09723], [22.296964, 50.08606], [22.284286, 50.08526], [22.280746, 50.059834], [22.265647, 50.049818], [22.23977, 50.013416], [22.230396, 50.007877], [22.253987, 49.984012], [22.22963, 49.96961], [22.237286, 49.949672], [22.231358, 49.941715], [22.23612, 49.9323], [22.219046, 49.918853], [22.229112, 49.908131], [22.225216, 49.903598], [22.197936, 49.898553], [22.205902, 49.883249], [22.204904, 49.868194], [22.15607, 49.862573], [22.159049, 49.85321], [22.151507, 49.847614], [22.133595, 49.8481], [22.127698, 49.840138], [22.144704, 49.825754], [22.113226, 49.810361], [22.110471, 49.795352], [22.099439, 49.791007], [22.096246, 49.769047], [22.105939, 49.752544], [22.095229, 49.724985], [22.101933, 49.717844], [22.094272, 49.709927], [22.114742, 49.694294], [22.127538, 49.69859], [22.154608, 49.67465], [22.135344, 49.653128], [22.122415, 49.618669], [22.082068, 49.630194]]]}}
]
}
