{
"type": "FeatureCollection",
"features": [
{"type": "Feature", "properties": {"ProjectID": "P4482", "SourceProjectID": "P4486", "man_made": "pipeline"}, "geometry": {"type": "LineString", "coordinates": [[116.51979, 39.297164], [115.429023, 38.301166], [116.2313, 37.312918], [116.681208, 36.498398], [116.9239, 36.197698], [117.485926, 35.67347], [118.5942, 35.216156], [119.001141, 34.484422], [119.895192, 33.472684], [120.112919, 33.142031], [120.209131, 32.138724], [120.952551, 32.262236], [121.066638, 31.721365], [120.861347, 31.304153], [120.876732, 31.300225], [120.890551, 31.298428], [121.131321, 31.266851]]}},
{"type": "Feature", "properties": {"ProjectID": "P4482", "SourceProjectID": "P4485", "man_made": "pipeline"}, "geometry": {"type": "LineString", "coordinates": [[124.330183, 44.574754], [124.333997, 44.574988], [124.341356, 44.574668], [124.415166, 44.562924], [124.434693, 44.560249], [124.437675, 44.560432], [124.439692, 44.560555], [124.441817, 44.560998], [124.443297, 44.561166], [124.445465, 44.560922], [124.447315, 44.560581], [124.449263, 44.561393], [124.450769, 44.561497], [124.465755, 44.557867], [124.469495, 44.556826], [124.482359, 44.552606], [124.485115, 44.550118], [124.48596, 44.549778], [124.492649, 44.548573], [124.496508, 44.545901], [124.506799, 44.539038], [124.511136, 44.535999], [124.515804, 44.530445], [124.519075, 44.523633], [124.520692, 44.516793], [124.523338, 44.51239], [124.913432, 44.317363], [124.994288, 44.299269], [125.026631, 44.289167], [125.052652, 44.276538], [125.060995, 44.26859], [125.074704, 44.257904], [125.078232, 44.254219], [125.080731, 44.249954], [125.081834, 44.249559], [125.106091, 44.246874], [125.119873, 44.245268], [125.131854, 44.244188], [125.149827, 44.242293], [125.15828, 44.238738], [125.199186, 44.226888], [125.21124, 44.223886], [125.24079, 44.225597], [125.253616, 44.2227], [125.257071, 44.221094], [125.261371, 44.220567], [125.265377, 44.21896], [125.27508, 44.214719], [125.287797, 44.211927], [125.305952, 44.208502], [125.316831, 44.206763], [125.347704, 44.206342], [125.363875, 44.200862], [125.382619, 44.195487], [125.386074, 44.194169], [125.390851, 44.190954], [125.409228, 44.186263], [125.415476, 44.183259], [125.420768, 44.177776], [125.414153, 44.167759], [125.413197, 44.162223], [125.413785, 44.156897], [125.414539, 44.15012], [125.413804, 44.148949]]}},
{"type": "Feature", "properties": {"ProjectID": "P4482", "SourceProjectID": "P4484", "name:es": "Poder de Siberia", "usage": "transmission", "wikidata": "Q2898164", "location": "underground", "substance": "gas", "name": "Сила Сибири", "name:en": "Power of Siberia", "name:de": "Kraft Sibiriens", "name:ru": "Сила Сибири", "name:fr": "Force de Sibérie", "layer": "-1", "name:pt": "Força da Sibéria", "name:it": "Forza della Siberia", "man_made": "pipeline", "@id": "way/476173307"}, "geometry": {"type": "LineString", "coordinates": [[128.193026, 51.572642], [128.192253, 51.573309], [128.196158, 51.575416], [128.181996, 51.58647], [128.175055, 51.587536], [128.174293, 51.58731], [128.154874, 51.590349], [128.152792, 51.591962], [128.141441, 51.596121], [128.136141, 51.596615], [128.133931, 51.596801], [128.13303, 51.596375], [128.12964, 51.596695], [128.122672, 51.594164], [128.071238, 51.575005], [128.06317, 51.526277], [128.067076, 51.504164], [128.060467, 51.46651], [128.041863, 51.452218], [128.036413, 51.444595], [128.024139, 51.438202], [128.022336, 51.436597], [128.020598, 51.426496], [128.010728, 51.419887], [127.987596, 51.414373], [127.949445, 51.405165], [127.944595, 51.380074], [127.947685, 51.368662], [127.949702, 51.360596], [127.951891, 51.351351], [127.94893, 51.342317], [127.950861, 51.337197], [127.946054, 51.328885], [127.923137, 51.312926], [127.8955, 51.294011], [127.868721, 51.290066], [127.859666, 51.288697], [127.855074, 51.278256], [127.857606, 51.261582], [127.856919, 51.26048], [127.846662, 51.257419], [127.839517, 51.253914], [127.836384, 51.25284], [127.827715, 51.243384], [127.81866, 51.233684], [127.807674, 51.222316], [127.796945, 51.211107], [127.783641, 51.197071], [127.781281, 51.194597], [127.776388, 51.181874], [127.772119, 51.168435], [127.767484, 51.156216], [127.763664, 51.145045], [127.762978, 51.142595], [127.764179, 51.125414], [127.735591, 51.102633], [127.736492, 51.092445], [127.688727, 51.07352], [127.694006, 51.051795], [127.674093, 51.037063], [127.67154, 51.026524], [127.67566, 51.015496], [127.677483, 51.010623], [127.678385, 51.007112], [127.677398, 51.006464], [127.663536, 50.996742], [127.630148, 50.973332], [127.621436, 50.938392], [127.607703, 50.92403], [127.601352, 50.909068], [127.616507, 50.884696], [127.610456, 50.878035], [127.60565, 50.87289], [127.603161, 50.870128], [127.600328, 50.861406], [127.595436, 50.847535], [127.593913, 50.842481], [127.591209, 50.834595], [127.584149, 50.813354], [127.574558, 50.800214], [127.562713, 50.795305], [127.562427, 50.777884], [127.542429, 50.75883], [127.528782, 50.754296], [127.529039, 50.73708], [127.517538, 50.720889], [127.479901, 50.694256], [127.467327, 50.693386], [127.449732, 50.67941], [127.444164, 50.674929], [127.442264, 50.6734], [127.443552, 50.659555], [127.433853, 50.650794], [127.438831, 50.633104], [127.441149, 50.624665], [127.444925, 50.611077], [127.44926, 50.595851], [127.451963, 50.583318], [127.45398, 50.574734], [127.459216, 50.550472], [127.462263, 50.537108], [127.45501, 50.520412], [127.455826, 50.507177], [127.421021, 50.499179], [127.416172, 50.490689], [127.408447, 50.489911], [127.408276, 50.488504], [127.378406, 50.485965], [127.370424, 50.455591], [127.368364, 50.449033], [127.364709, 50.446339], [127.362587, 50.444733], [127.375102, 50.436899], [127.371368, 50.424269], [127.370907, 50.419901], [127.377334, 50.419364], [127.379007, 50.413714], [127.380166, 50.411362], [127.38184, 50.408654], [127.382913, 50.408162], [127.38214, 50.395333], [127.386603, 50.39075], [127.387612, 50.390531], [127.406731, 50.374208], [127.406301, 50.367118], [127.414412, 50.35551], [127.413425, 50.351376], [127.412438, 50.346611], [127.410336, 50.345132], [127.40922, 50.343571], [127.401195, 50.33571], [127.3945, 50.325327], [127.392998, 50.317463], [127.392107, 50.311585], [127.391624, 50.30883], [127.390852, 50.308255], [127.379909, 50.302855], [127.368579, 50.298167], [127.357035, 50.292438], [127.354503, 50.291039], [127.351756, 50.290299], [127.35137, 50.287667], [127.352443, 50.283032], [127.352185, 50.280482], [127.35476, 50.278809], [127.356691, 50.275162], [127.356005, 50.269895], [127.356648, 50.26888], [127.357678, 50.268085], [127.358923, 50.267125], [127.357893, 50.264107], [127.35785, 50.260897], [127.360468, 50.259964], [127.360725, 50.259388], [127.358365, 50.256123], [127.358108, 50.254971], [127.357635, 50.252721], [127.355318, 50.246985], [127.34931, 50.239081], [127.346735, 50.222939], [127.352829, 50.216678], [127.355575, 50.208494], [127.358236, 50.200858], [127.362184, 50.196682], [127.364244, 50.191957], [127.345447, 50.170192], [127.340126, 50.167058], [127.330684, 50.156996], [127.329483, 50.152156], [127.322445, 50.149627], [127.312488, 50.148197], [127.307167, 50.144016], [127.296524, 50.140716], [127.280044, 50.126081], [127.279529, 50.098891], [127.281246, 50.093495], [127.281761, 50.072786], [127.280044, 50.068489], [127.280388, 50.056147], [127.270603, 50.051297], [127.26717, 50.04303], [127.271633, 50.039392], [127.270946, 50.022961], [127.275925, 50.014358], [127.275925, 50.010938], [127.277813, 50.006967], [127.280216, 50.003878], [127.286224, 49.997809], [127.29927, 49.993726], [127.313347, 49.986773], [127.321415, 49.979488], [127.331543, 49.959724], [127.337723, 49.939179], [127.339611, 49.929345], [127.345018, 49.927798], [127.35549, 49.916083], [127.365017, 49.906134], [127.366819, 49.902154], [127.365532, 49.895519], [127.361498, 49.883575], [127.357979, 49.880256], [127.361154, 49.873066], [127.366476, 49.866261], [127.367592, 49.864436], [127.366133, 49.861282], [127.365532, 49.852982], [127.364502, 49.852207], [127.364073, 49.844127], [127.360725, 49.828128], [127.35918, 49.817496], [127.357635, 49.808524], [127.359009, 49.802098], [127.359352, 49.797555], [127.357979, 49.795561], [127.358837, 49.778271], [127.354545, 49.744007], [127.349396, 49.738571], [127.335491, 49.727254], [127.30648, 49.705388], [127.273178, 49.680514], [127.257385, 49.670517], [127.25069, 49.656961], [127.241249, 49.635953], [127.224254, 49.617161], [127.226143, 49.605371], [127.226486, 49.590016], [127.228718, 49.584341], [127.230606, 49.582004], [127.231121, 49.570427], [127.228546, 49.562745], [127.229233, 49.559405], [127.233867, 49.540694], [127.236271, 49.522311], [127.237301, 49.517074], [127.237816, 49.51529], [127.235584, 49.50459], [127.233181, 49.499685], [127.231464, 49.496563], [127.228718, 49.495002], [127.226658, 49.490096], [127.226647, 49.481237], [127.227945, 49.468347], [127.227602, 49.458724], [127.227859, 49.435985], [127.220993, 49.432413], [127.219963, 49.421806], [127.218933, 49.419684], [127.202282, 49.40025], [127.195759, 49.399245], [127.163486, 49.38282], [127.142029, 49.361247], [127.140827, 49.359346], [127.142544, 49.356775], [127.1422, 49.352749], [127.1422, 49.347382], [127.137565, 49.344362], [127.109241, 49.32736], [127.092762, 49.318856], [127.078342, 49.305539], [127.073707, 49.293561], [127.072677, 49.290986], [127.068729, 49.287291], [127.069588, 49.268029], [127.066154, 49.262764], [127.066841, 49.253017], [127.060833, 49.224212], [127.060146, 49.216364], [127.050533, 49.183723], [127.046585, 49.172502], [127.045727, 49.160043], [127.042465, 49.152857], [127.040233, 49.150387], [127.043667, 49.137151], [127.043989, 49.136013], [127.040749, 49.126129], [127.040749, 49.124893], [127.040749, 49.122984], [127.038088, 49.116299], [127.028303, 49.093148], [127.028646, 49.090619], [127.027531, 49.086965], [127.022638, 49.077577], [127.019033, 49.069593], [127.000065, 49.040963], [126.975861, 49.007137], [126.967277, 48.997564], [126.942301, 48.979316], [126.930799, 48.970245], [126.896553, 48.942291], [126.859045, 48.909301], [126.854153, 48.904787], [126.840248, 48.898355], [126.824455, 48.878829], [126.81673, 48.873635], [126.81673, 48.871151], [126.8157, 48.868667], [126.812954, 48.863247], [126.77124, 48.815907], [126.769695, 48.81082], [126.763515, 48.799627], [126.752529, 48.785944], [126.738453, 48.770559], [126.734548, 48.768014], [126.724119, 48.752454], [126.719055, 48.741022], [126.701374, 48.720981], [126.700344, 48.718716], [126.674766, 48.702064], [126.659145, 48.69198], [126.654854, 48.687221], [126.618805, 48.669766], [126.613655, 48.666591], [126.607818, 48.665344], [126.593056, 48.657181], [126.589966, 48.653325], [126.577778, 48.63461], [126.564045, 48.584273], [126.559925, 48.575983], [126.543016, 48.552865], [126.543102, 48.551217], [126.512546, 48.515752], [126.51186, 48.514387], [126.511688, 48.513193], [126.509285, 48.504322], [126.49641, 48.492947], [126.483879, 48.481684], [126.479759, 48.476335], [126.472721, 48.472011], [126.461391, 48.46393], [126.440449, 48.454937], [126.432037, 48.451635], [126.404357, 48.439565], [126.398048, 48.436661], [126.374831, 48.419005], [126.355219, 48.402996], [126.335821, 48.384188], [126.320372, 48.371076], [126.295738, 48.351743], [126.271448, 48.335427], [126.268315, 48.332831], [126.262221, 48.331205], [126.250505, 48.305349], [126.244283, 48.292531], [126.236601, 48.275196], [126.229262, 48.26197], [126.219349, 48.24171], [126.210337, 48.222671], [126.203041, 48.209117], [126.19832, 48.196417], [126.192999, 48.190238], [126.181412, 48.180853], [126.172485, 48.16036], [126.173258, 48.157498], [126.171799, 48.151142], [126.17815, 48.140833], [126.187076, 48.130351], [126.186733, 48.112933], [126.178837, 48.081176], [126.176262, 48.066723], [126.173344, 48.052382], [126.169138, 48.044521], [126.169481, 48.043661], [126.174545, 48.040103], [126.176433, 48.035913], [126.181669, 48.019554], [126.182957, 48.005515], [126.185167, 47.995422], [126.191797, 47.976478], [126.194887, 47.96964], [126.19802, 47.960905], [126.198342, 47.957902], [126.198878, 47.955128], [126.201496, 47.951277], [126.203878, 47.945743], [126.20656, 47.934977], [126.210723, 47.920225], [126.198749, 47.801164], [126.199608, 47.77879], [126.200209, 47.750116], [126.200123, 47.742209], [126.201582, 47.718482], [126.201668, 47.706527], [126.195574, 47.679952], [126.195316, 47.669665], [126.198406, 47.655444], [126.202483, 47.634049], [126.197376, 47.592852], [126.196518, 47.581505], [126.19051, 47.563438], [126.000996, 47.187233], [125.997004, 47.18175], [125.993013, 47.176602], [125.988464, 47.170548], [125.989514, 47.168844], [125.496397, 46.631168], [125.497684, 46.601514], [125.491848, 46.588125], [125.492534, 46.585058], [125.492706, 46.578687], [125.489273, 46.55886], [125.484295, 46.535779], [125.48172, 46.526509], [125.483951, 46.515229], [125.472622, 46.492779], [125.461206, 46.472448], [125.451164, 46.447084], [125.449791, 46.411588], [125.446014, 46.402297], [125.441723, 46.384774], [125.439491, 46.383827], [125.429792, 46.349831], [125.440779, 46.329565], [125.44095, 46.320437], [125.436659, 46.314094], [125.417261, 46.283436], [125.409965, 46.265579], [125.407991, 46.251871], [125.40473, 46.228422], [125.404816, 46.223137], [125.392971, 46.193022], [125.386791, 46.188506], [125.356579, 46.139761], [125.35572, 46.128103], [125.35572, 46.112635], [125.290146, 46.060368], [125.279008, 46.043012], [125.192084, 45.989448], [125.186548, 45.986645], [125.169682, 45.975343], [125.160456, 45.966872], [125.14359, 45.953925], [125.136895, 45.946823], [125.129342, 45.940437], [125.11621, 45.931752], [125.113034, 45.92605], [125.105181, 45.911869], [125.10591, 45.910675], [125.102649, 45.905599], [125.095868, 45.897057], [125.080676, 45.881136], [125.067201, 45.864224], [125.049562, 45.84067], [125.048103, 45.839205], [125.033684, 45.822938], [125.025787, 45.811782], [125.02068, 45.803345], [125.014844, 45.795058], [125.002785, 45.782878], [125.000553, 45.779466], [125.000553, 45.77791], [124.994717, 45.76881], [124.992485, 45.763302], [124.98888, 45.755936], [124.986477, 45.75402], [124.983644, 45.749858], [124.973602, 45.744078], [124.872457, 45.662499], [124.483938, 44.999676], [124.476342, 44.987506], [124.475141, 44.980828], [124.46866, 44.963006], [124.463425, 44.94852], [124.458361, 44.934972], [124.45085, 44.916741], [124.444113, 44.905101], [124.440551, 44.892029], [124.436645, 44.877252], [124.435744, 44.87348], [124.435615, 44.87272], [124.435744, 44.872112], [124.436002, 44.871838], [124.436774, 44.871747], [124.452524, 44.871473], [124.452825, 44.859246], [124.45261, 44.849815], [124.451451, 44.848354], [124.451837, 44.847654], [124.450593, 44.845129], [124.449305, 44.845159], [124.446516, 44.838526], [124.406948, 44.785886], [124.402356, 44.779886], [124.341459, 44.607457], [124.331074, 44.585852], [124.330044, 44.578822], [124.330183, 44.574754], [123.882838, 44.247906], [123.911035, 43.957154], [123.644593, 43.35972]]}},
{"type": "Feature", "properties": {"ProjectID": "P4482", "SourceProjectID": "P4483", "man_made": "pipeline"}, "geometry": {"type": "LineString", "coordinates": [[123.644593, 43.35972], [123.485958, 43.01], [123.482845, 42.692], [123.21549, 42.202526], [123.009965, 41.939341], [122.783013, 41.748038], [121.588552, 41.209804], [121.038195, 40.946362], [120.407741, 40.39688], [119.736811, 40.123637], [119.535858, 40.037061], [118.104915, 39.755959], [116.926286, 39.473163], [116.555529, 39.30201], [116.51979, 39.297164]]}}
]
}
