{
"type": "FeatureCollection",
"features": [
{"type": "Feature", "properties": {"ProjectID": "P4489", "id": null, "name": "gas-pipeline"}, "geometry": {"type": "MultiLineString", "coordinates": [[[93.720537, 19.39337], [93.74738, 19.404107], [93.774223, 19.420213], [93.801065, 19.43095], [93.827908, 19.436319], [93.854751, 19.441687], [93.881594, 19.441687], [93.908436, 19.441687], [93.935279, 19.441687], [93.956753, 19.457793], [93.972859, 19.479267], [93.983596, 19.50611], [93.983596, 19.532953], [93.988964, 19.559795], [93.994333, 19.586638], [93.999701, 19.613481], [94.010439, 19.640323], [94.021176, 19.667166], [94.026544, 19.694009], [94.037281, 19.720852], [94.04265, 19.747694], [94.048018, 19.774537], [94.069493, 19.790643], [94.096335, 19.80138], [94.123178, 19.812117], [94.150021, 19.822854], [94.176863, 19.833591], [94.203706, 19.844328], [94.230549, 19.855065], [94.257392, 19.865802], [94.284234, 19.876539], [94.311077, 19.881908], [94.33792, 19.892645], [94.364762, 19.903382], [94.391605, 19.908751], [94.418448, 19.924856], [94.470566, 19.947597], [94.4733, 19.954433], [94.476035, 19.961269], [94.476035, 19.968105], [94.477402, 19.974941], [94.478769, 19.981777], [94.480136, 19.988613], [94.48287, 19.995448], [94.485605, 20.011855], [94.488339, 20.01869], [94.489706, 20.025526], [94.491074, 20.032362], [94.491074, 20.039198], [94.492441, 20.046034], [94.493808, 20.05287], [94.497909, 20.058338], [94.500644, 20.065174], [94.503378, 20.07201], [94.50748, 20.078846], [94.510214, 20.085682], [94.512948, 20.092518], [94.51705, 20.097986], [94.518417, 20.104822], [94.522518, 20.110291], [94.525253, 20.117127], [94.529354, 20.123963], [94.532089, 20.130799], [94.53619, 20.136267], [94.540292, 20.143103], [94.543026, 20.149939], [94.547128, 20.155408], [94.551229, 20.160876], [94.556698, 20.167712], [94.560799, 20.173181], [94.564901, 20.17865], [94.57037, 20.184118], [94.574471, 20.189587], [94.57994, 20.195056], [94.585408, 20.200524], [94.58951, 20.205993], [94.594979, 20.210095], [94.59908, 20.215563], [94.604549, 20.219665], [94.610018, 20.225134], [94.615486, 20.229235], [94.620955, 20.233337], [94.626424, 20.238805], [94.631892, 20.242907], [94.635994, 20.248375], [94.640095, 20.253844], [94.645564, 20.257946], [94.651033, 20.262047], [94.655134, 20.267516], [94.660603, 20.272985], [94.664704, 20.278453], [94.670173, 20.282555], [94.675642, 20.288023], [94.682478, 20.290758], [94.687946, 20.294859], [94.694782, 20.298961], [94.701618, 20.301695], [94.708454, 20.305797], [94.713923, 20.309898], [94.720759, 20.312633], [94.727594, 20.316734], [94.73443, 20.319468], [94.741266, 20.322203], [94.748102, 20.324937], [94.754938, 20.327671], [94.761774, 20.330406], [94.76861, 20.331773], [94.775445, 20.334507], [94.782281, 20.335875], [94.789117, 20.338609], [94.795953, 20.341343], [94.802789, 20.34271], [94.809625, 20.345445], [94.816461, 20.348179], [94.823296, 20.349546], [94.830132, 20.350913], [94.836968, 20.352281], [94.845171, 20.355015], [94.852007, 20.356382], [94.858843, 20.359116], [94.865679, 20.360484], [94.873882, 20.360484], [94.880718, 20.361851], [94.887554, 20.361851], [94.894389, 20.363218], [94.901225, 20.364585], [94.908061, 20.365952], [94.916264, 20.365952], [94.9231, 20.365952], [94.93267, 20.367319], [94.939506, 20.367319], [94.946342, 20.368687], [94.953178, 20.371421], [94.960014, 20.372788], [94.96685, 20.37689], [94.973686, 20.379624], [94.977787, 20.385093], [94.981889, 20.390561], [94.987357, 20.394663], [94.990092, 20.401499], [94.994193, 20.408335], [94.996927, 20.415171], [94.998295, 20.422006], [95.001029, 20.428842], [95.001029, 20.435678], [95.002396, 20.442514], [95.003763, 20.44935], [95.003763, 20.456186], [95.00513, 20.463022], [95.006498, 20.469857], [95.006498, 20.476693], [95.007865, 20.483529], [95.009232, 20.490365], [95.009232, 20.497201], [95.010599, 20.504037], [95.011966, 20.510873], [95.011966, 20.517708], [95.010599, 20.524544], [95.010599, 20.53138], [95.010599, 20.538216], [95.010599, 20.545052], [95.011966, 20.551888], [95.011966, 20.558724], [95.011966, 20.56556], [95.013334, 20.572395], [95.014701, 20.579231], [95.016068, 20.586067], [95.017435, 20.592903], [95.018802, 20.599739], [95.020169, 20.606575], [95.020169, 20.613411], [95.020169, 20.620246], [95.021537, 20.627082], [95.021537, 20.633918], [95.022904, 20.642121], [95.022904, 20.648957], [95.024271, 20.655793], [95.025638, 20.662629], [95.027005, 20.669465], [95.028372, 20.677668], [95.02974, 20.684504], [95.031107, 20.691339], [95.031107, 20.698175], [95.032474, 20.705011], [95.032474, 20.711847], [95.032474, 20.718683], [95.032474, 20.725519], [95.033841, 20.732355], [95.033841, 20.73919], [95.033841, 20.746026], [95.033841, 20.754229], [95.033841, 20.761065], [95.035208, 20.767901], [95.035208, 20.774737], [95.035208, 20.781573], [95.036575, 20.789776], [95.036575, 20.797979], [95.037943, 20.804815], [95.03931, 20.813018], [95.040677, 20.819854], [95.042044, 20.82669], [95.043411, 20.833525], [95.044778, 20.841728], [95.047513, 20.848564], [95.050247, 20.8554], [95.052982, 20.862236], [95.055716, 20.869072], [95.05845, 20.875908], [95.061185, 20.882744], [95.062552, 20.889579], [95.062552, 20.896415], [95.065286, 20.903251], [95.066653, 20.910087], [95.070755, 20.915556], [95.074856, 20.922392], [95.080325, 20.926493], [95.083059, 20.933329], [95.085794, 20.941532], [95.089895, 20.947001], [95.095364, 20.953837], [95.100833, 20.959305], [95.106301, 20.964774], [95.11177, 20.968876], [95.117239, 20.972977], [95.125442, 20.977079], [95.132278, 20.979813], [95.139113, 20.982547], [95.144582, 20.986649], [95.150051, 20.99075], [95.155519, 20.994852], [95.160988, 20.998953], [95.166457, 21.003055], [95.170558, 21.008524], [95.176027, 21.012625], [95.181496, 21.016727], [95.185597, 21.022195], [95.191066, 21.026297], [95.196535, 21.030398], [95.202003, 21.0345], [95.207472, 21.038601], [95.212941, 21.04407], [95.219777, 21.048172], [95.225245, 21.052273], [95.230714, 21.056375], [95.23755, 21.061843], [95.24712, 21.067312], [95.255323, 21.072781], [95.260792, 21.076882], [95.26626, 21.080984], [95.274464, 21.086452], [95.281299, 21.089187], [95.288135, 21.093288], [95.294971, 21.098757], [95.30044, 21.102858], [95.305908, 21.10696], [95.311377, 21.111061], [95.315479, 21.11653], [95.320947, 21.120632], [95.327783, 21.123366], [95.333252, 21.127468], [95.338721, 21.131569], [95.345556, 21.135671], [95.351025, 21.139772], [95.356494, 21.143874], [95.36333, 21.145241], [95.368798, 21.149342], [95.3729, 21.154811], [95.378369, 21.16028], [95.383837, 21.164381], [95.389306, 21.168483], [95.394775, 21.172584], [95.400243, 21.176686], [95.405712, 21.180787], [95.412548, 21.183522], [95.418017, 21.187623], [95.422118, 21.193092], [95.427587, 21.197193], [95.433056, 21.201295], [95.438524, 21.205396], [95.443993, 21.209498], [95.449462, 21.213599], [95.456297, 21.217701], [95.463133, 21.221802], [95.474071, 21.228638], [95.480907, 21.231373], [95.487742, 21.234107], [95.493211, 21.238209], [95.49868, 21.24231], [95.504149, 21.246412], [95.510984, 21.250513], [95.516453, 21.254615], [95.521922, 21.260083], [95.52739, 21.264185], [95.531492, 21.269654], [95.536961, 21.275122], [95.542429, 21.280591], [95.546531, 21.28606], [95.550632, 21.291528], [95.556101, 21.296997], [95.56157, 21.301098], [95.567038, 21.306567], [95.57114, 21.312036], [95.576609, 21.316137], [95.582077, 21.320239], [95.587546, 21.32434], [95.594382, 21.327075], [95.601218, 21.329809], [95.608054, 21.333911], [95.612155, 21.339379], [95.617624, 21.344848], [95.623093, 21.34895], [95.627194, 21.354418], [95.632663, 21.35852], [95.638131, 21.362621], [95.6436, 21.36809], [95.651803, 21.373559], [95.658639, 21.379027], [95.666842, 21.384496], [95.672311, 21.388598], [95.679147, 21.391332], [95.684615, 21.395433], [95.694186, 21.402269], [95.701021, 21.409105], [95.709224, 21.414574], [95.71606, 21.420043], [95.722896, 21.425511], [95.729732, 21.43098], [95.735201, 21.435081], [95.740669, 21.439183], [95.746138, 21.443284], [95.751607, 21.447386], [95.758443, 21.451488], [95.765279, 21.455589], [95.770747, 21.459691], [95.776216, 21.463792], [95.783052, 21.467894], [95.78852, 21.471995], [95.795356, 21.476097], [95.802192, 21.480198], [95.810395, 21.4843], [95.815864, 21.488401], [95.821333, 21.492503], [95.828168, 21.499339], [95.835004, 21.50344], [95.84184, 21.508909], [95.847309, 21.514377], [95.852778, 21.518479], [95.860981, 21.523948], [95.867817, 21.529416], [95.874652, 21.536252], [95.878754, 21.541721], [95.884223, 21.545822], [95.889691, 21.549924], [95.89516, 21.554025], [95.900629, 21.558127], [95.907465, 21.562229], [95.912933, 21.567697], [95.921136, 21.571799], [95.926605, 21.5759], [95.932074, 21.580002], [95.938909, 21.584103], [95.944378, 21.588205], [95.949847, 21.592306], [95.955316, 21.596408], [95.960784, 21.600509], [95.966253, 21.605978], [95.973089, 21.61008], [95.978558, 21.614181], [95.984026, 21.618283], [95.990862, 21.623751], [95.994964, 21.62922], [96.000432, 21.634689], [96.005901, 21.640157], [96.01137, 21.645626], [96.018206, 21.652462], [96.023674, 21.657931], [96.029143, 21.663399], [96.034612, 21.668868], [96.041447, 21.675704], [96.04965, 21.68254], [96.057854, 21.690743], [96.063322, 21.694844], [96.068791, 21.700313], [96.07426, 21.705782], [96.079728, 21.712618], [96.085197, 21.716719], [96.090666, 21.720821], [96.096134, 21.726289], [96.101603, 21.731758], [96.108439, 21.734492], [96.115275, 21.739961], [96.122111, 21.74543], [96.127579, 21.749531], [96.13715, 21.756367], [96.145353, 21.761836], [96.152188, 21.767304], [96.159024, 21.771406], [96.164493, 21.776875], [96.169962, 21.780976], [96.17543, 21.785078], [96.182266, 21.790546], [96.189102, 21.796015], [96.194571, 21.801484], [96.201407, 21.806952], [96.206875, 21.811054], [96.212344, 21.816523], [96.21918, 21.820624], [96.226016, 21.824726], [96.232852, 21.828827], [96.23832, 21.832929], [96.245156, 21.835663], [96.251992, 21.839765], [96.256094, 21.845233], [96.261562, 21.849335], [96.269765, 21.852069], [96.276601, 21.854803], [96.28207, 21.858905], [96.286171, 21.865741], [96.290273, 21.872577], [96.294374, 21.878045], [96.298476, 21.884881], [96.302577, 21.891717], [96.303945, 21.898553], [96.306679, 21.905389], [96.308046, 21.912225], [96.309413, 21.919061], [96.31078, 21.925896], [96.312148, 21.932732], [96.313515, 21.939568], [96.313515, 21.946404], [96.314882, 21.954607], [96.314882, 21.961443], [96.316249, 21.968279], [96.316249, 21.975115], [96.317616, 21.981951], [96.318984, 21.988786], [96.320351, 21.995622], [96.321718, 22.002458], [96.323085, 22.009294], [96.324452, 22.01613], [96.327187, 22.022966], [96.329921, 22.029802], [96.332655, 22.036637], [96.33539, 22.043473], [96.339491, 22.050309], [96.343593, 22.057145], [96.346327, 22.065348], [96.349061, 22.072184], [96.353163, 22.077653], [96.355897, 22.084489], [96.358632, 22.091324], [96.362733, 22.096793], [96.366835, 22.103629], [96.370936, 22.109098], [96.376405, 22.114566], [96.380506, 22.120035], [96.387342, 22.125504], [96.391444, 22.130972], [96.395545, 22.136441], [96.401014, 22.140543], [96.406483, 22.144644], [96.413318, 22.148746], [96.420154, 22.15148], [96.428357, 22.154214], [96.437928, 22.156949], [96.447498, 22.158316], [96.459802, 22.16105], [96.47074, 22.163785], [96.477576, 22.165152], [96.485779, 22.167886], [96.493982, 22.167886], [96.502185, 22.167886], [96.509021, 22.167886], [96.517224, 22.167886], [96.524059, 22.167886], [96.53363, 22.167886], [96.540466, 22.167886], [96.55277, 22.167886], [96.56234, 22.169253], [96.569176, 22.169253], [96.576012, 22.17062], [96.582848, 22.171988], [96.589684, 22.171988], [96.59652, 22.173355], [96.603355, 22.174722], [96.610191, 22.176089], [96.618394, 22.176089], [96.62523, 22.176089], [96.633433, 22.178823], [96.640269, 22.180191], [96.647105, 22.181558], [96.653941, 22.182925], [96.660777, 22.184292], [96.66898, 22.185659], [96.677183, 22.185659], [96.684019, 22.187026], [96.690855, 22.188394], [96.69769, 22.191128], [96.704526, 22.193862], [96.711362, 22.19523], [96.718198, 22.199331], [96.723667, 22.203433], [96.729135, 22.208901], [96.734604, 22.213003], [96.740073, 22.217104], [96.744174, 22.222573], [96.748276, 22.228042], [96.753744, 22.23351], [96.757846, 22.238979], [96.761948, 22.244448], [96.768783, 22.249916], [96.775619, 22.255385], [96.781088, 22.260854], [96.786557, 22.266322], [96.790658, 22.271791], [96.796127, 22.27726], [96.800228, 22.282729], [96.805697, 22.289564], [96.811166, 22.295033], [96.816634, 22.300502], [96.822103, 22.30597], [96.827572, 22.310072], [96.83304, 22.315541], [96.838509, 22.321009], [96.843978, 22.325111], [96.849447, 22.33058], [96.856282, 22.334681], [96.861751, 22.338783], [96.86722, 22.342884], [96.872689, 22.346986], [96.879524, 22.351087], [96.88636, 22.357923], [96.891829, 22.362025], [96.897298, 22.367493], [96.904133, 22.374329], [96.909602, 22.379798], [96.915071, 22.383899], [96.92054, 22.388001], [96.926008, 22.39347], [96.931477, 22.397571], [96.936946, 22.40304], [96.942414, 22.408508], [96.947883, 22.413977], [96.953352, 22.420813], [96.960188, 22.426282], [96.967023, 22.433118], [96.972492, 22.438586], [96.977961, 22.444055], [96.98343, 22.449524], [96.988898, 22.454992], [96.994367, 22.460461], [96.999836, 22.46593], [97.005304, 22.470031], [97.010773, 22.4755], [97.016242, 22.479601], [97.02171, 22.48507], [97.028546, 22.489172], [97.035382, 22.493273], [97.040851, 22.497375], [97.046319, 22.501476], [97.051788, 22.505578], [97.058624, 22.509679], [97.066827, 22.513781], [97.073663, 22.516515], [97.081866, 22.520617], [97.088702, 22.523351], [97.095538, 22.526085], [97.103741, 22.52882], [97.114678, 22.531554], [97.124248, 22.532921], [97.133819, 22.535656], [97.143389, 22.53839], [97.151592, 22.539757], [97.159795, 22.541124], [97.169365, 22.542491], [97.176201, 22.543859], [97.183037, 22.545226], [97.189873, 22.545226], [97.196708, 22.546593], [97.203544, 22.546593], [97.211747, 22.549327], [97.221318, 22.550694], [97.228153, 22.552062], [97.236356, 22.554796], [97.24456, 22.55753], [97.25413, 22.558897], [97.262333, 22.561632], [97.269169, 22.564366], [97.278739, 22.567101], [97.285575, 22.569835], [97.292411, 22.572569], [97.299246, 22.573936], [97.306082, 22.576671], [97.315652, 22.579405], [97.323856, 22.582139], [97.332059, 22.584874], [97.338894, 22.586241], [97.34573, 22.588975], [97.352566, 22.590342], [97.360769, 22.59171], [97.368972, 22.593077], [97.375808, 22.595811], [97.382644, 22.597178], [97.38948, 22.598545], [97.396316, 22.599913], [97.403152, 22.60128], [97.411355, 22.604014], [97.41819, 22.606749], [97.425026, 22.609483], [97.431862, 22.612217], [97.437331, 22.616319], [97.4428, 22.62042], [97.449635, 22.624522], [97.455104, 22.628623], [97.460573, 22.634092], [97.466041, 22.638193], [97.47151, 22.642295], [97.476979, 22.646397], [97.482448, 22.650498], [97.489283, 22.653232], [97.494752, 22.658701], [97.500221, 22.662803], [97.504322, 22.668271], [97.508424, 22.67374], [97.512525, 22.679209], [97.519361, 22.684677], [97.523463, 22.690146], [97.530299, 22.696982], [97.538502, 22.703818], [97.546705, 22.712021], [97.552173, 22.71749], [97.557642, 22.724325], [97.563111, 22.729794], [97.569947, 22.73663], [97.575415, 22.742099], [97.580884, 22.747567], [97.586353, 22.751669], [97.591821, 22.757138], [97.595923, 22.762606], [97.600024, 22.768075], [97.601392, 22.774911], [97.602759, 22.781747], [97.605493, 22.788582], [97.60686, 22.795418], [97.60686, 22.802254], [97.608227, 22.80909], [97.609595, 22.815926], [97.610962, 22.822762], [97.610962, 22.829598], [97.612329, 22.836434], [97.612329, 22.843269], [97.612329, 22.850105], [97.613696, 22.856941], [97.613696, 22.863777], [97.613696, 22.870613], [97.613696, 22.877449], [97.613696, 22.884285], [97.615063, 22.89112], [97.615063, 22.897956], [97.617798, 22.904792], [97.619165, 22.911628], [97.620532, 22.918464], [97.623266, 22.926667], [97.624634, 22.933503], [97.627368, 22.940339], [97.630102, 22.947175], [97.632837, 22.95401], [97.635571, 22.960846], [97.638305, 22.967682], [97.639672, 22.974518], [97.642407, 22.981354], [97.646508, 22.98819], [97.65061, 22.993658], [97.656079, 22.999127], [97.662914, 23.004596], [97.668383, 23.010064], [97.673852, 23.015533], [97.67932, 23.019635], [97.684789, 23.025103], [97.690258, 23.030572], [97.697094, 23.034674], [97.702562, 23.040142], [97.708031, 23.044244], [97.7135, 23.048345], [97.718968, 23.052447], [97.724437, 23.056548], [97.729906, 23.06065], [97.735375, 23.064751], [97.740843, 23.068853], [97.746312, 23.072954], [97.750413, 23.078423], [97.755882, 23.083892], [97.761351, 23.090728], [97.76682, 23.096196], [97.770921, 23.101665], [97.77639, 23.107134], [97.780491, 23.112602], [97.784593, 23.118071], [97.788694, 23.12354], [97.792796, 23.129009], [97.798264, 23.135844], [97.802366, 23.141313], [97.807835, 23.145415], [97.811936, 23.15225], [97.816038, 23.157719], [97.821506, 23.161821], [97.825608, 23.168657], [97.829709, 23.174125], [97.833811, 23.179594], [97.837912, 23.185063], [97.842014, 23.191898], [97.844748, 23.198734], [97.847483, 23.20557], [97.84885, 23.212406], [97.850217, 23.219242], [97.851584, 23.226078], [97.852951, 23.232914], [97.854319, 23.243851], [97.854319, 23.250687], [97.855686, 23.257523], [97.857053, 23.264359], [97.857053, 23.271194], [97.85842, 23.27803], [97.85842, 23.284866], [97.85842, 23.291702], [97.85842, 23.298538], [97.85842, 23.305374], [97.859787, 23.31221], [97.859787, 23.319046], [97.861154, 23.327249], [97.862522, 23.334084], [97.863889, 23.34092], [97.865256, 23.347756], [97.86799, 23.354592], [97.869357, 23.361428], [97.872092, 23.368264], [97.876193, 23.373732], [97.880295, 23.379201], [97.883029, 23.386037], [97.887131, 23.391506], [97.891232, 23.398342], [97.893967, 23.405177], [97.898068, 23.412013], [97.900802, 23.418849], [97.904904, 23.425685], [97.907638, 23.432521], [97.910373, 23.439357], [97.914474, 23.446193], [97.917209, 23.453028], [97.92131, 23.459864], [97.924044, 23.4667], [97.926779, 23.473536], [97.929513, 23.480372], [97.932247, 23.487208], [97.934982, 23.494044], [97.937716, 23.50088], [97.94045, 23.507715], [97.943185, 23.515918], [97.944552, 23.522754], [97.947286, 23.52959], [97.948653, 23.536426], [97.950021, 23.543262], [97.950021, 23.550098], [97.950021, 23.556934], [97.948653, 23.563769], [97.947286, 23.570605], [97.945919, 23.577441], [97.943185, 23.585644], [97.94045, 23.59248], [97.939083, 23.599316], [97.936349, 23.606152], [97.932247, 23.611621], [97.928146, 23.617089], [97.924044, 23.623925], [97.919943, 23.629394], [97.914474, 23.634862], [97.909005, 23.640331], [97.903537, 23.644433], [97.899435, 23.649901], [97.893967, 23.654003], [97.891232, 23.660839], [97.888498, 23.667675], [97.887131, 23.67451], [97.884396, 23.681346], [97.883029, 23.688182], [97.883029, 23.695018], [97.881662, 23.701854], [97.880295, 23.70869], [97.880295, 23.715526], [97.880295, 23.722362], [97.880295, 23.729197], [97.880295, 23.736033], [97.880295, 23.742869], [97.880295, 23.751072], [97.880295, 23.757908], [97.881662, 23.766111], [97.881662, 23.772947], [97.883029, 23.779783], [97.885764, 23.786619], [97.889865, 23.792087], [97.893967, 23.797556], [97.898068, 23.803025], [97.90217, 23.808493], [97.907638, 23.812595], [97.913107, 23.816696], [97.919943, 23.822165], [97.926779, 23.827634], [97.932247, 23.833103], [97.937716, 23.839938], [97.943185, 23.84404], [97.948653, 23.850876], [97.952755, 23.856344], [97.955489, 23.86318], [97.956857, 23.870016], [97.958224, 23.876852], [97.958224, 23.885055], [97.958224, 23.891891], [97.959591, 23.898727], [97.959591, 23.905563], [97.959591, 23.913766], [97.959591, 23.920602], [97.959591, 23.927437], [97.959591, 23.934273], [97.959591, 23.941109], [97.960958, 23.947945], [97.962325, 23.954781], [97.963692, 23.961617], [97.96506, 23.968453], [97.96506, 23.975288], [97.966427, 23.983492], [97.967794, 23.990327], [97.969161, 23.997163], [97.970528, 24.003999], [97.973263, 24.010835], [97.97463, 24.017671], [97.977364, 24.024507], [97.980098, 24.031343]]]}},
{"type": "Feature", "properties": {"ProjectID": "P4489", "id": null, "name": "more-gas-gas"}, "geometry": {"type": "MultiLineString", "coordinates": [[[93.720537, 19.39337], [93.694588, 19.387047], [93.673297, 19.387047], [93.652005, 19.384917], [93.630713, 19.384917], [93.607292, 19.382788], [93.586001, 19.384917], [93.56258, 19.384917], [93.539159, 19.384917], [93.517867, 19.384917], [93.496576, 19.387047], [93.475284, 19.391305], [93.453992, 19.393434], [93.432701, 19.395563], [93.411409, 19.397693], [93.390117, 19.399822], [93.366696, 19.40408], [93.345405, 19.40408], [93.324113, 19.406209], [93.302821, 19.410468], [93.28153, 19.414726], [93.255979, 19.421113], [93.234688, 19.427501], [93.213396, 19.433888], [93.192104, 19.440276], [93.168684, 19.444534], [93.145263, 19.450922], [93.123971, 19.461568], [93.102679, 19.470084], [93.081388, 19.478601], [93.060096, 19.489247], [93.043063, 19.502022], [93.021771, 19.512668], [93.000479, 19.523314], [92.979187, 19.53183], [92.957896, 19.542476], [92.938733, 19.553122], [92.917441, 19.563768], [92.89615, 19.572284], [92.874858, 19.580801], [92.857825, 19.593576]]]}}
]
}
