{
"type": "FeatureCollection",
"features": [
{"type": "Feature", "properties": {"ProjectID": "P4488", "id": 4488, "Type": "Gas pipeline", "Name": "Xincheng-Guilin Branch Pipeline"}, "geometry": {"type": "MultiLineString", "coordinates": [[[109.040113, 24.213875], [109.227359, 24.367498], [109.334179, 24.452361], [109.418861, 24.540183], [109.570882, 24.618662], [109.712361, 24.638761], [109.808004, 24.90388], [109.878552, 25.033242], [109.979567, 25.078684], [110.268332, 25.25641], [110.313397, 25.249911]]]}}
]
}
