{
"type": "FeatureCollection",
"features": [
{"type": "Feature", "properties": {"ProjectID": "P4493", "id": 4493, "Type": "Gas pipeline", "Name": "Lufeng–Yuxi Branch Pipeline"}, "geometry": {"type": "MultiLineString", "coordinates": [[[102.196535, 25.131755], [102.236748, 25.084281], [102.262751, 25.044152], [102.317615, 24.995641], [102.337951, 24.97506], [102.376225, 24.908473], [102.443845, 24.839815], [102.470432, 24.729238], [102.463863, 24.659359], [102.47256, 24.594798], [102.464213, 24.505859], [102.471702, 24.42859], [102.47187, 24.351838], [102.539538, 24.289467], [102.60952, 24.252461]]]}}
]
}
