{
"type": "FeatureCollection",
"features": [
{"type": "Feature", "properties": {"ProjectID": "P4494", "id": 4494, "Type": "Gas pipeline", "Name": "Midu–Dali–Lijiang Branch Pipeline"}, "geometry": {"type": "MultiLineString", "coordinates": [[[100.29448, 26.870722], [100.35853, 26.810153], [100.37809, 26.764511], [100.403838, 26.699408], [100.425093, 26.570689], [100.428172, 26.506704], [100.421956, 26.417649], [100.375157, 26.285932], [100.358405, 26.26123], [100.28289, 26.035155], [100.290954, 25.93263], [100.315206, 25.848454], [100.346423, 25.75754], [100.383701, 25.647158], [100.433976, 25.510561], [100.471015, 25.400144]]]}}
]
}
