{
"type": "FeatureCollection",
"features": [
{"type": "Feature", "id": 4501, "properties": {"ProjectID": "P4501", "id": 4501, "Type": "Gas pipeline", "Name": "Dali–Lincang Branch (Phase I)"}, "geometry": {"type": "MultiLineString", "coordinates": [[[100.513635, 25.048881], [100.500009, 25.041957], [100.494962, 25.038626], [100.489898, 25.032973], [100.484779, 25.028727], [100.481174, 25.029641], [100.476852, 25.029836], [100.475297, 25.01926], [100.466596, 25.012602], [100.456449, 25.00886], [100.453498, 25.001906], [100.448954, 24.995745], [100.441079, 24.989043], [100.436343, 24.98005], [100.43441, 24.975886], [100.427213, 24.967017], [100.419439, 24.96173], [100.419197, 24.95819], [100.410797, 24.955776], [100.401288, 24.949154], [100.396896, 24.945115], [100.384444, 24.943614], [100.375274, 24.941946], [100.364704, 24.9439], [100.356984, 24.939316], [100.349552, 24.93898], [100.3386, 24.935267], [100.335176, 24.933308], [100.328766, 24.923683], [100.319553, 24.921303], [100.307974, 24.92046], [100.300559, 24.908043], [100.295449, 24.905456], [100.295938, 24.900459], [100.292375, 24.896374], [100.290846, 24.885795], [100.288876, 24.88092], [100.291936, 24.86514], [100.298399, 24.863397], [100.302655, 24.85324], [100.30141, 24.846909], [100.30412, 24.838249], [100.307697, 24.830257], [100.303269, 24.825505], [100.298983, 24.822877], [100.298416, 24.814381], [100.300637, 24.810718], [100.291738, 24.800506], [100.298967, 24.798015], [100.306874, 24.793358], [100.309236, 24.791819], [100.320559, 24.789122], [100.324951, 24.781087], [100.334787, 24.768517], [100.338548, 24.763355], [100.347458, 24.761486], [100.353816, 24.758324], [100.35988, 24.762991], [100.362677, 24.755746], [100.365473, 24.748501], [100.360037, 24.740961], [100.357057, 24.733297], [100.347721, 24.728795], [100.330051, 24.734656], [100.319175, 24.731649], [100.306082, 24.732304], [100.300259, 24.731175], [100.287259, 24.733243], [100.284757, 24.732658], [100.265226, 24.698109], [100.266393, 24.690948], [100.262746, 24.685446], [100.262278, 24.678365], [100.261996, 24.674117], [100.257486, 24.667947], [100.257696, 24.658702], [100.254775, 24.651743], [100.260123, 24.645795], [100.255475, 24.637501], [100.251854, 24.619921], [100.248702, 24.609421], [100.246695, 24.603838], [100.249589, 24.598012], [100.248212, 24.589555], [100.25323, 24.578651], [100.246089, 24.56977], [100.239953, 24.56368], [100.232556, 24.563335], [100.231275, 24.556295], [100.227683, 24.5515], [100.227404, 24.547251], [100.219944, 24.533412], [100.214258, 24.521616], [100.207943, 24.512692], [100.200367, 24.509512], [100.185814, 24.512357], [100.179469, 24.515509], [100.174894, 24.520705], [100.169226, 24.521692], [100.164823, 24.516935], [100.158881, 24.513673], [100.150673, 24.513362], [100.143327, 24.513719], [100.140787, 24.512421], [100.133396, 24.51207], [100.123917, 24.504715], [100.119021, 24.504952], [100.113308, 24.505228], [100.109545, 24.510382], [100.108956, 24.513962], [100.098072, 24.52301], [100.088912, 24.52061], [100.082972, 24.517343], [100.076532, 24.519073], [100.071814, 24.52214], [100.067598, 24.520211], [100.059704, 24.52485], [100.051541, 24.52524], [100.04841, 24.52752], [100.043009, 24.53275], [100.035254, 24.534703]]]}}
]
}
