{
"type": "FeatureCollection",
"features": [
{"type": "Feature", "properties": {"ProjectID": "P4519", "id": 4519, "Type": "Gas pipeline", "Name": "Zhanyi–Luliang Branch"}, "geometry": {"type": "MultiLineString", "coordinates": [[[103.709185, 25.550405], [103.709534, 25.550044], [103.707663, 25.5472], [103.702545, 25.546618], [103.699097, 25.543569], [103.69807, 25.541322], [103.677857, 25.534307], [103.66781, 25.527798], [103.665498, 25.527985], [103.664567, 25.523067], [103.661971, 25.513624], [103.66931, 25.509701], [103.667572, 25.504516], [103.669264, 25.49872], [103.6689, 25.495421], [103.675232, 25.48592], [103.67877, 25.486299], [103.692124, 25.473564], [103.69601, 25.473581], [103.699477, 25.466308], [103.697151, 25.462836], [103.700635, 25.459224], [103.703716, 25.451982], [103.711452, 25.444695], [103.718085, 25.441491], [103.733037, 25.429285], [103.742964, 25.413826], [103.759024, 25.401192], [103.778412, 25.390613], [103.777491, 25.382366], [103.78019, 25.364832], [103.790195, 25.353689], [103.790927, 25.353296], [103.793059, 25.341135], [103.791622, 25.328269], [103.791117, 25.313329], [103.786592, 25.304047], [103.789002, 25.297855], [103.789712, 25.293802], [103.773334, 25.275507], [103.772967, 25.272208], [103.764791, 25.26489], [103.757331, 25.260509], [103.75029, 25.249434], [103.748809, 25.24656], [103.746047, 25.239129], [103.743122, 25.233709], [103.744856, 25.21792], [103.74343, 25.212045], [103.748324, 25.200324], [103.736631, 25.157671], [103.708097, 25.148022], [103.705324, 25.143921], [103.687548, 25.105424], [103.662684, 25.100792], [103.649743, 25.088529], [103.64623, 25.081158], [103.637409, 25.060569], [103.62892, 25.053601], [103.622479, 25.044137], [103.613875, 25.04317], [103.611085, 25.031745], [103.605605, 25.027528], [103.60509, 25.019248], [103.59991, 25.010679], [103.596202, 24.994335], [103.59448, 24.989148], [103.590559, 24.981476], [103.592879, 24.967308], [103.59833, 24.964204], [103.614044, 24.94196], [103.620529, 24.92712], [103.632102, 24.916527], [103.632911, 24.909803], [103.635515, 24.908926], [103.63605, 24.903223], [103.653898, 24.890119], [103.661634, 24.886825], [103.675116, 24.886723], [103.676329, 24.869646], [103.671843, 24.860358], [103.671265, 24.855079], [103.677856, 24.844886], [103.686515, 24.839517], [103.691246, 24.83347], [103.701509, 24.814652], [103.701874, 24.81096], [103.693772, 24.800305], [103.691597, 24.787499], [103.689749, 24.777663], [103.692913, 24.771411], [103.690535, 24.767278], [103.693354, 24.761388], [103.692141, 24.75383], [103.69445, 24.750312], [103.69516, 24.746258], [103.69638, 24.739833]]]}}
]
}
