{
"type": "FeatureCollection",
"features": [
{"type": "Feature", "properties": {"ProjectID": "P4588"}, "geometry": {"type": "LineString", "coordinates": [[117.297444, 31.274201], [117.315449, 31.302806], [117.32726, 31.312086], [117.345822, 31.320523], [117.363539, 31.325164], [117.393913, 31.330648], [117.421755, 31.338241], [117.443691, 31.339085], [117.477017, 31.339507], [117.50739, 31.337819], [117.552106, 31.337819], [117.58037, 31.345834], [117.613274, 31.381691], [117.63057, 31.404049], [117.663052, 31.430204], [117.681614, 31.413752], [117.709034, 31.399409], [117.714096, 31.395612], [117.729704, 31.382535], [117.736876, 31.36777], [117.752062, 31.351318], [117.765562, 31.341616], [117.788342, 31.337819], [117.828536, 31.323914], [117.844001, 31.312316], [117.873173, 31.313019], [117.922731, 31.312667], [117.969845, 31.311958], [118.033276, 31.311958]]}}
]
}
