{
"type": "FeatureCollection",
"features": [
{"type": "Feature", "properties": {"ProjectID": "P4583"}, "geometry": {"type": "LineString", "coordinates": [[116.798309, 33.87081], [116.829966, 33.825787], [116.847553, 33.816642], [116.867954, 33.810311], [116.893279, 33.789206], [116.920715, 33.761771], [116.937598, 33.728003], [116.945337, 33.706195], [116.959406, 33.661173], [117.019202, 33.661173], [117.056487, 33.661173], [117.102917, 33.659062], [117.13387, 33.655545], [117.175376, 33.640068], [117.240096, 33.600673], [117.274567, 33.587307], [117.311851, 33.575348], [117.353357, 33.569016], [117.394862, 33.563388], [117.470135, 33.559871], [117.518675, 33.559168], [117.592541, 33.557761], [117.640819, 33.553943], [117.728643, 33.542766], [117.761377, 33.534782], [117.804491, 33.522806], [117.834032, 33.506838], [117.855588, 33.482087], [117.869161, 33.449353], [117.875548, 33.402248], [117.873951, 33.368715], [117.876347, 33.297657], [117.876347, 33.264125], [117.875548, 33.228197], [117.873153, 33.192269], [117.867564, 33.169115], [117.845209, 33.139575], [117.818064, 33.106042], [117.794112, 33.080493], [117.795708, 33.050154], [117.801297, 33.038977], [117.844411, 33.038977], [117.881935, 33.036581], [117.918128, 33.019918], [117.925999, 32.991061], [117.928185, 32.952147], [117.929669, 32.925886], [117.930748, 32.861703], [117.929669, 32.818554], [117.929669, 32.791047], [117.931287, 32.752213], [117.940456, 32.743584], [117.975514, 32.73819], [118.000864, 32.731718], [118.029989, 32.714458], [118.045594, 32.700166], [118.066429, 32.680217], [118.094357, 32.670464], [118.120069, 32.651845], [118.150214, 32.626577], [118.153317, 32.611504], [118.16307, 32.586679], [118.181246, 32.558308], [118.195875, 32.533926], [118.226827, 32.486636], [118.251604, 32.459673], [118.26545, 32.427245], [118.283304, 32.405383], [118.298971, 32.39846], [118.316825, 32.385343], [118.330989, 32.342829], [118.36695, 32.358043], [118.386313, 32.384323], [118.404294, 32.439734]]}}
]
}
