{
"type": "FeatureCollection",
"features": [
{"type": "Feature", "properties": {"ProjectID": "P4580"}, "geometry": {"type": "LineString", "coordinates": [[117.150191, 32.936861], [117.175385, 32.899071], [117.19428, 32.870728], [117.205302, 32.859706], [117.200578, 32.845535], [117.181683, 32.834512], [117.170661, 32.825065], [117.17381, 32.815617], [117.175385, 32.798297], [117.181683, 32.7857], [117.202153, 32.747909], [117.17381, 32.72429], [117.134445, 32.703821], [117.121848, 32.692798], [117.110826, 32.670754], [117.110826, 32.642411], [117.123423, 32.615643], [117.124998, 32.573129], [117.126572, 32.538487], [117.113975, 32.503846], [117.09508, 32.478653], [117.109252, 32.451884], [117.11555, 32.436138], [117.124998, 32.412519], [117.129721, 32.396773], [117.147042, 32.362132], [117.147042, 32.322767], [117.140744, 32.29285], [117.129721, 32.261358], [117.129721, 32.228291], [117.123423, 32.196799], [117.118699, 32.154285], [117.123423, 32.125942], [117.15649, 32.11492], [117.197429, 32.105472], [117.244667, 32.088152], [117.307651, 32.081853], [117.345442, 32.077129], [117.395829, 32.072406], [117.422597, 32.070831], [117.461962, 32.064533], [117.496603, 32.047212], [117.5092, 32.023593], [117.512349, 32.010996], [117.512349, 31.971631], [117.513924, 31.938565], [117.512349, 31.902349]]}}
]
}
