{
"type": "FeatureCollection",
"features": [
{"type": "Feature", "properties": {"ProjectID": "P4598"}, "geometry": {"type": "LineString", "coordinates": [[117.150164, 32.936705], [117.19527, 32.869257], [117.205387, 32.859702], [117.200891, 32.845088], [117.181921, 32.83455], [117.170399, 32.824854], [117.174692, 32.814713], [117.175428, 32.796328], [117.20227, 32.747792], [117.176163, 32.741174], [117.121376, 32.744483], [117.081297, 32.748895], [117.005567, 32.748132], [116.96033, 32.74342], [116.927344, 32.738707], [116.883991, 32.736822], [116.779379, 32.737765], [116.744509, 32.73211], [116.707753, 32.731168], [116.667228, 32.727398], [116.624818, 32.711376], [116.594659, 32.691585], [116.563558, 32.679333], [116.52586, 32.668966], [116.49099, 32.653887], [116.456119, 32.640692], [116.430673, 32.631268], [116.373183, 32.63598], [116.33869, 32.636336]]}}
]
}
