{
"type": "FeatureCollection",
"features": [
{"type": "Feature", "properties": {"ProjectID": "P4595"}, "geometry": {"type": "LineString", "coordinates": [[118.592226, 30.878216], [118.712051, 30.866925], [118.747064, 30.82483], [118.782471, 30.750476], [118.803278, 30.720227], [118.800656, 30.667365], [118.840497, 30.640118], [118.85882, 30.619582], [118.866075, 30.609621], [118.871178, 30.594116], [118.881986, 30.551165], [118.884091, 30.543585], [118.884372, 30.512845], [118.898206, 30.4991], [118.887517, 30.479541], [118.870153, 30.462176], [118.883769, 30.426324], [118.881166, 30.408523], [118.840556, 30.377236], [118.823733, 30.359423], [118.794704, 30.339961], [118.782499, 30.331385], [118.754667, 30.297507], [118.719924, 30.271651], [118.702552, 30.248219], [118.659728, 30.219131], [118.64276, 30.198527], [118.620944, 30.177519], [118.61246, 30.170247], [118.601148, 30.131463], [118.591155, 30.119044], [118.582588, 30.110477], [118.573069, 30.093343], [118.55546, 30.078113], [118.520716, 30.07145], [118.505961, 30.05622], [118.495491, 30.045273], [118.474549, 30.019572], [118.434094, 29.946277], [118.412201, 29.928667], [118.406013, 29.922956], [118.386024, 29.901538], [118.363179, 29.902014], [118.312661, 29.867156], [118.287821, 29.852622]]}}
]
}
