{
"type": "FeatureCollection",
"features": [
{"type": "Feature", "properties": {"ProjectID": "P4668"}, "geometry": {"type": "LineString", "coordinates": [[110.14487, 30.671685], [110.169722, 30.681087], [110.205792, 30.714876], [110.229507, 30.746933], [110.262452, 30.819227], [110.268007, 30.777111], [110.394292, 30.561725], [110.343513, 30.937718], [108.852152, 29.903613], [110.326386, 30.923143], [107.102918, 30.038289], [110.344277, 31.049604], [110.357284, 31.010887], [110.3795, 31.035056], [110.41082, 31.007216]]}}
]
}
