{
"type": "FeatureCollection",
"features": [
{"type": "Feature", "properties": {"ProjectID": "P4680"}, "geometry": {"type": "LineString", "coordinates": [[113.422737, 23.433992], [113.463678, 23.422176], [113.496598, 23.415726], [113.54709, 23.407496], [113.597137, 23.381027], [113.627165, 23.36301], [113.643847, 23.345883], [113.660205, 23.31232], [113.694256, 23.280273], [113.745933, 23.229397], [113.766764, 23.216978], [113.804019, 23.212171], [113.896558, 23.210168], [113.929807, 23.21177], [113.972671, 23.219382], [114.016737, 23.210168], [114.10444, 23.190913], [114.168849, 23.169827], [114.186868, 23.161393], [114.194919, 23.119604], [114.196452, 23.099285], [114.196836, 23.085483], [114.213705, 23.06593], [114.25023, 23.022614], [114.267561, 23.017257], [114.311046, 23.001187], [114.339091, 22.992679], [114.359573, 22.992364], [114.399277, 22.992364], [114.451901, 23.021039], [114.472193, 23.025817]]}}
]
}
