{
"type": "FeatureCollection",
"features": [
{"type": "Feature", "properties": {"ProjectID": "P4687"}, "geometry": {"type": "LineString", "coordinates": [[116.798256, 23.596439], [116.795852, 23.604126], [116.796661, 23.609667], [116.798838, 23.614854], [116.7999, 23.61531], [116.804151, 23.6166], [116.807441, 23.618549], [116.811944, 23.621003], [116.813412, 23.624419], [116.812754, 23.628316], [116.816503, 23.63304], [116.821672, 23.638153], [116.822752, 23.64122], [116.831892, 23.648145], [116.834782, 23.653016], [116.838579, 23.657226], [116.840148, 23.662179], [116.840065, 23.67027], [116.840396, 23.67126], [116.846918, 23.676214], [116.849972, 23.676792], [116.854017, 23.679268], [116.857237, 23.680011], [116.869664, 23.686504], [116.876681, 23.689806], [116.880561, 23.69187], [116.886175, 23.693108], [116.891046, 23.695172], [116.89311, 23.697814], [116.899219, 23.699052], [116.903842, 23.702107], [116.908548, 23.707556], [116.920338, 23.709783], [116.923208, 23.713228], [116.926509, 23.71495], [116.930385, 23.717821], [116.935121, 23.720117], [116.953063, 23.718969], [116.964401, 23.721696], [116.969856, 23.712653], [116.976027, 23.710788], [116.980046, 23.710788], [116.979042, 23.706769], [116.981195, 23.70318], [116.984639, 23.702319], [116.991959, 23.704472], [116.998418, 23.70275], [117.001289, 23.701315], [117.004303, 23.700453], [117.013632, 23.698731], [117.022244, 23.698157], [117.04079, 23.690214], [117.048804, 23.689138], [117.057057, 23.683397], [117.062918, 23.678493], [117.066865, 23.675503], [117.066506, 23.670001], [117.064353, 23.663063], [117.063688, 23.66033], [117.064234, 23.657382], [117.067945, 23.654762], [117.071821, 23.651596], [117.078717, 23.643093], [117.081219, 23.641319], [117.085858, 23.638954], [117.089497, 23.635224], [117.092638, 23.632545], [117.098174, 23.629475], [117.101568, 23.628061], [117.104153, 23.627253], [117.106254, 23.627212], [117.109527, 23.625394], [117.112921, 23.623334], [117.116436, 23.620222], [117.118012, 23.617677], [117.120596, 23.613623], [117.121889, 23.612088], [117.12395, 23.610593], [117.122661, 23.607417], [117.121619, 23.602726], [117.12214, 23.596055], [117.119951, 23.593344], [117.122661, 23.591572], [117.123782, 23.589992], [117.123782, 23.589679], [117.12567, 23.588295]]}}
]
}
