{
"type": "FeatureCollection",
"features": [
{"type": "Feature", "properties": {"ProjectID": "P4682"}, "geometry": {"type": "MultiLineString", "coordinates": [[[114.1421, 24.938649], [114.097293, 24.935585], [114.075081, 24.932905], [114.062827, 24.933671], [114.027594, 24.944776], [113.985469, 24.948606], [113.955981, 24.951287], [113.936832, 24.948989], [113.884367, 24.938649], [113.827306, 24.938649], [113.811819, 24.929113], [113.794202, 24.923369], [113.768927, 24.898093], [113.738673, 24.863244], [113.712249, 24.841415], [113.674155, 24.824865], [113.653717, 24.821243], [113.636384, 24.814258], [113.628881, 24.808049], [113.605339, 24.792526]], [[114.196845, 23.085498], [114.15779, 23.023485], [114.147825, 22.981003], [114.1473, 22.917542], [114.1473, 22.877158]], [[113.11932, 23.584718], [113.100659, 23.604683], [113.085186, 23.624205], [113.068701, 23.648354], [113.058434, 23.666719], [113.055542, 23.675829], [113.054964, 23.688843]]]}}
]
}
