{
"type": "FeatureCollection",
"features": [
{"type": "Feature", "properties": {"ProjectID": "P4697"}, "geometry": {"type": "LineString", "coordinates": [[110.276363, 21.372117], [110.284336, 21.349337], [110.300282, 21.286693], [110.30256, 21.267331], [110.308254, 21.241134], [110.313949, 21.214938], [110.321922, 21.16824], [110.327617, 21.144321], [110.326478, 21.115847], [110.339007, 21.10104], [110.357231, 21.081677], [110.374315, 21.061176], [110.389122, 21.039535], [110.401651, 21.029284], [110.433542, 21.022451], [110.457461, 21.015617], [110.489352, 21.007644], [110.516688, 21.005366]]}}
]
}
