{
"type": "FeatureCollection",
"features": [
{"type": "Feature", "properties": {"ProjectID": "P4699"}, "geometry": {"type": "LineString", "coordinates": [[112.593859, 23.021677], [112.560513, 23.000835], [112.556344, 22.990414], [112.489651, 22.982077], [112.462556, 22.984162], [112.418789, 22.98833], [112.402115, 22.982077], [112.375021, 22.971657], [112.327085, 22.96332], [112.306243, 22.961236], [112.272897, 22.96332], [112.212456, 22.965404], [112.158267, 22.965404], [112.124921, 22.969572], [112.070732, 22.971657], [112.047806, 22.973741]]}}
]
}
