{
"type": "FeatureCollection",
"features": [
{"type": "Feature", "properties": {"ProjectID": "P4693"}, "geometry": {"type": "LineString", "coordinates": [[114.142592, 24.936827], [114.139049, 24.903174], [114.12488, 24.834096], [114.107167, 24.740221], [114.105396, 24.676457], [114.100083, 24.646346], [114.092998, 24.618007], [114.084142, 24.543616], [114.061116, 24.421401], [114.045175, 24.385977], [114.018606, 24.348781], [113.949528, 24.297415], [113.92296, 24.270847], [113.917646, 24.263762], [113.912333, 24.26022], [113.907019, 24.26022], [113.848569, 24.17343], [113.768864, 24.061842], [113.719269, 24.010477], [113.701557, 23.996307], [113.67676, 23.969739], [113.66259, 23.959111], [113.612996, 23.936086], [113.570486, 23.907746], [113.551003, 23.891805], [113.53152, 23.886491], [113.519121, 23.874093], [113.467755, 23.826269], [113.453586, 23.787303], [113.432331, 23.712911]]}}
]
}
