{
"type": "FeatureCollection",
"features": [
{"type": "Feature", "properties": {"ProjectID": "P4719", "id": 4719, "Type": "Gas pipeline", "Name": "Liuzhou–Guilin Branch"}, "geometry": {"type": "MultiLineString", "coordinates": [[[109.595261, 24.962195], [109.627558, 24.968892], [109.703886, 25.058768], [109.770628, 25.082965], [109.799921, 25.114599], [109.806898, 25.151584], [109.829467, 25.188621], [109.92708, 25.224051], [110.074053, 25.299312], [110.250124, 25.508782], [110.287221, 25.57832], [110.30595, 25.647142], [110.33655, 25.696379], [110.362528, 25.748514], [110.414394, 25.785735], [110.456417, 25.786363]]]}}
]
}
