{
"type": "FeatureCollection",
"features": [
{"type": "Feature", "properties": {"ProjectID": "P4751"}, "geometry": {"type": "LineString", "coordinates": [[112.039949, 34.515025], [112.590335, 34.906104], [113.09606, 35.113101], [113.416767, 35.164517], [113.975051, 35.253944], [114.6211, 35.357307], [115.112268, 35.435801], [115.905877, 36.063839], [116.838249, 36.795333], [115.112268, 35.435801], [115.595635, 35.419759], [117.0197, 35.724007], [118.312792, 35.235669], [118.312792, 35.235669], [118.312792, 35.235669]]}}
]
}
