{
"type": "FeatureCollection",
"features": [
{"type": "Feature", "properties": {"ProjectID": "P4777"}, "geometry": {"type": "LineString", "coordinates": [[115.824392, 28.044452], [115.873896, 28.036456], [115.919679, 28.025773], [115.948675, 28.023484], [115.964699, 28.018906], [116.011245, 28.028825], [116.082208, 28.039508], [116.120361, 28.047138], [116.182931, 28.049428], [116.226424, 28.069267], [116.282127, 28.070793], [116.361484, 28.083002], [116.41566, 28.089106], [116.434787, 28.090516]]}}
]
}
