{
"type": "FeatureCollection",
"features": [
{"type": "Feature", "properties": {"ProjectID": "P4782"}, "geometry": {"type": "LineString", "coordinates": [[115.500715, 28.645147], [115.519406, 28.602981], [115.541748, 28.570622], [115.548682, 28.545199], [115.551764, 28.531331], [115.550223, 28.495891], [115.535585, 28.474319], [115.506309, 28.454288], [115.47164, 28.418078], [115.449297, 28.392654], [115.427725, 28.361837], [115.404612, 28.335642], [115.395367, 28.321004], [115.391515, 28.304825], [115.392286, 28.292499], [115.393056, 28.283253], [115.395367, 28.278631], [115.395983, 28.275492], [115.398455, 28.270057], [115.399432, 28.268776], [115.419252, 28.262439], [115.447008, 28.261543], [115.483718, 28.261543], [115.512369, 28.257962], [115.530276, 28.251695], [115.573254, 28.238264], [115.595637, 28.231102], [115.618021, 28.206032], [115.63951, 28.180962], [115.658312, 28.160368], [115.679801, 28.128136], [115.696812, 28.096798], [115.708452, 28.084263], [115.730867, 28.063658], [115.748529, 28.053355], [115.780173, 28.046732], [115.814025, 28.044524], [115.824327, 28.044524]]}}
]
}
