{
"type": "FeatureCollection",
"features": [
{"type": "Feature", "properties": {"ProjectID": "P4815"}, "geometry": {"type": "LineString", "coordinates": [[114.045296, 32.173545], [114.045296, 32.173545], [114.003492, 32.202573], [113.965094, 32.238306], [113.919017, 32.283764], [113.87294, 32.335688], [113.826126, 32.381506], [113.794903, 32.411636], [113.76591, 32.436109], [113.734687, 32.456812], [113.694544, 32.469983], [113.661091, 32.475628], [113.623177, 32.473747], [113.585263, 32.469983], [113.54735, 32.462457], [113.507206, 32.449284], [113.475983, 32.441756], [113.449221, 32.434227], [113.422458, 32.430462], [113.393466, 32.430462], [113.366703, 32.432344], [113.342171, 32.441756], [113.319869, 32.453048], [113.286416, 32.473747], [113.252962, 32.496322], [113.203898, 32.526413], [113.139222, 32.564013], [113.085697, 32.597839], [113.038862, 32.62414], [112.985337, 32.654188], [112.90728, 32.697365], [112.849295, 32.738645], [112.798, 32.764904], [112.748935, 32.783656], [112.724403, 32.809902], [112.708792, 32.843635], [112.668648, 32.894211], [112.610662, 32.952244], [112.55898, 33.002739], [112.497388, 33.032865], [112.440929, 33.045773]]}}
]
}
