{
"type": "FeatureCollection",
"features": [
{"type": "Feature", "properties": {"ProjectID": "P4822"}, "geometry": {"type": "LineString", "coordinates": [[114.045296, 32.173545], [114.087066, 32.142343], [114.138664, 32.13194], [114.197634, 32.134021], [114.283631, 32.150664], [114.369629, 32.163145], [114.423684, 32.175624], [114.482654, 32.181863], [114.529338, 32.177704], [114.568651, 32.165225], [114.625164, 32.13194], [114.676762, 32.100724], [114.755388, 32.079907], [114.819272, 32.069497], [114.870871, 32.07158], [114.917555, 32.098643], [114.954411, 32.136101], [114.991267, 32.171465], [115.020752, 32.186022], [115.096921, 32.188102], [115.158348, 32.186022], [115.200118, 32.179784], [115.266459, 32.179784], [115.372113, 32.181863], [115.492509, 32.188102], [115.573592, 32.198498], [115.649761, 32.208894]]}}
]
}
