{
"type": "FeatureCollection",
"features": [
{"type": "Feature", "properties": {"ProjectID": "P4849", "id": 4849, "Type": "Pipeline", "Name": "Hangzhou-Ningbo Gas Pipeline"}, "geometry": {"type": "MultiLineString", "coordinates": [[[120.116062, 30.339493], [120.303914, 30.270535], [120.268246, 30.165908], [120.265868, 30.151641], [120.448965, 30.123106], [120.579749, 30.061281], [120.876984, 30.011345], [120.993501, 30.025613], [121.171842, 29.970921], [121.326404, 29.925742], [121.599861, 29.920986], [121.880451, 29.794958]]]}}
]
}
