{
"type": "FeatureCollection",
"features": [
{"type": "Feature", "properties": {"ProjectID": "P4852", "id": 4852, "Type": "Gas pipeline", "Name": "Sanmen-Shengzhou Gas Pipeline"}, "geometry": {"type": "MultiLineString", "coordinates": [[[121.331554, 29.072765], [121.263768, 29.083857], [121.221466, 29.088558], [121.183865, 29.097958], [121.127462, 29.121459], [121.05696, 29.15436], [120.977057, 29.323567], [120.953556, 29.379969], [120.944155, 29.445771], [120.906554, 29.549175], [120.887753, 29.582077], [120.873653, 29.586777], [120.878353, 29.591477]]]}}
]
}
