{
"type": "FeatureCollection",
"features": [
{"type": "Feature", "properties": {"ProjectID": "P4851", "id": 4851, "Type": "Pipeline", "Name": "Ningbo-Taizhou-Wenzhou Gas Pipeline"}, "geometry": {"type": "MultiLineString", "coordinates": [[[121.888316, 29.803012], [121.888316, 29.803012], [121.601866, 29.556906], [121.456624, 29.540768], [121.379968, 29.322905], [121.303312, 29.234145], [121.331554, 29.072765], [121.178242, 28.608796], [121.226656, 28.459519], [120.98862, 28.043965], [120.762688, 28.031861], [120.673928, 28.088344], [120.540789, 28.088344], [120.472203, 28.03993]]]}}
]
}
