{
"type": "FeatureCollection",
"features": [
{"type": "Feature", "properties": {"ProjectID": "P4916"}, "geometry": {"type": "LineString", "coordinates": [[117.660999, 24.525552], [117.664592, 24.567951], [117.629858, 24.586636], [117.595843, 24.619933], [117.482315, 24.657007], [117.41535, 24.753064], [117.337221, 24.809274], [117.314159, 24.81504], [117.243325, 24.882579], [117.178257, 24.93035], [117.161784, 24.968238], [117.101658, 25.002007], [117.043179, 25.062134], [117.068712, 25.117318], [116.992247, 25.143696]]}}
]
}
