{
"type": "FeatureCollection",
"features": [
{"type": "Feature", "properties": {"ProjectID": "P4914"}, "geometry": {"type": "LineString", "coordinates": [[117.571011, 26.251487], [117.609249, 26.280455], [117.628947, 26.296677], [117.652143, 26.307626], [117.675296, 26.317534], [117.699629, 26.319852], [117.705423, 26.33955], [117.70774, 26.363883], [117.712089, 26.374913], [117.722804, 26.390534], [117.742502, 26.416026], [117.766835, 26.429931], [117.783046, 26.437306], [117.801597, 26.446153], [117.837518, 26.443835], [117.86012, 26.43486], [117.876024, 26.428743], [117.888258, 26.432413], [117.904724, 26.451947], [117.925581, 26.463534], [117.941803, 26.465851], [117.957779, 26.472313], [117.987185, 26.470261], [117.994024, 26.457267], [118.009451, 26.47201], [118.030651, 26.470642], [118.061976, 26.491008], [118.087075, 26.49859], [118.104604, 26.499537], [118.116728, 26.502452], [118.129516, 26.495978], [118.13531, 26.471645], [118.149215, 26.456581], [118.166596, 26.442677], [118.179342, 26.425296], [118.183976, 26.418343], [118.194405, 26.414867], [118.205992, 26.40328], [118.216421, 26.388217], [118.226849, 26.366201], [118.229167, 26.356931], [118.246548, 26.354614], [118.255817, 26.337233], [118.256976, 26.323328], [118.263928, 26.308265], [118.276674, 26.296677], [118.28942, 26.279296], [118.305643, 26.274662], [118.320706, 26.279296], [118.338087, 26.268868], [118.347357, 26.258439], [118.35315, 26.248011], [118.387309, 26.248314], [118.404134, 26.250328], [118.444139, 26.257605], [118.473051, 26.26217], [118.491311, 26.269779], [118.503484, 26.288039], [118.512614, 26.292604], [118.524787, 26.28956], [118.552177, 26.28043], [118.567394, 26.2713], [118.590219, 26.2713], [118.60087, 26.275865], [118.61, 26.266735], [118.608479, 26.246954], [118.608479, 26.230216], [118.622174, 26.224129], [118.629782, 26.208912], [118.638912, 26.195217], [118.651085, 26.187609], [118.654578, 26.175292], [118.66371, 26.173263], [118.685018, 26.183409], [118.722603, 26.184566], [118.73782, 26.170871], [118.757601, 26.157176], [118.766731, 26.152611], [118.781948, 26.158698], [118.794121, 26.167828], [118.801701, 26.176307], [118.808043, 26.177575], [118.813877, 26.174277], [118.827598, 26.164784], [118.842814, 26.160219], [118.870204, 26.170871], [118.889986, 26.173914], [118.894551, 26.186087], [118.929549, 26.187609], [118.959982, 26.184566], [118.991937, 26.183044], [119.019327, 26.181522], [119.036065, 26.167828], [119.046717, 26.160219], [119.069542, 26.158698], [119.07715, 26.161741], [119.110626, 26.187609], [119.144103, 26.186087], [119.174536, 26.172393], [119.194318, 26.172393], [119.223229, 26.183044], [119.246054, 26.183044], [119.276487, 26.178479], [119.311485, 26.180001], [119.358657, 26.176958], [119.405828, 26.184566], [119.43474, 26.189131], [119.460608, 26.190652], [119.494875, 26.203186], [119.494875, 26.203186]]}}
]
}
