{
"type": "FeatureCollection",
"features": [
{"type": "Feature", "properties": {"ProjectID": "P4928", "id": 4928, "Type": "Gas pipeline", "Name": "East Section (Ji'an–Fuzhou)"}, "geometry": {"type": "MultiLineString", "coordinates": [[[114.970112, 27.106776], [115.191972, 26.865275], [115.225785, 26.802152], [115.276402, 26.707447], [115.347102, 26.530802], [115.380422, 26.403781], [115.428024, 26.330791], [115.568178, 26.353575], [115.737572, 26.143149], [115.782857, 26.06325], [115.858533, 26.034207], [116.126149, 25.974176], [116.314257, 25.929421], [116.45551, 25.836847], [116.586313, 25.767518], [116.721559, 25.625831], [116.816779, 25.520673], [116.888201, 25.420332], [116.944402, 25.237545], [117.093568, 25.120663], [117.195248, 25.070632], [117.273305, 25.054048], [117.341595, 25.032351], [117.429393, 24.963592], [117.522881, 24.829243], [117.569521, 24.790596], [117.726712, 24.706421], [117.841114, 24.674226], [117.949499, 24.621772], [118.077581, 24.636308], [118.225944, 24.746321], [118.390858, 24.909757], [118.507039, 25.019637], [118.591517, 25.215391], [118.633714, 25.298963], [118.807513, 25.40287], [118.877503, 25.601932], [119.019347, 25.62694], [119.117967, 25.647368], [119.235631, 25.727888], [119.341457, 25.796722], [119.394733, 25.884858], [119.436656, 26.068932]]]}}
]
}
