{
"type": "FeatureCollection",
"features": [
{"type": "Feature", "properties": {"ProjectID": "P4944"}, "geometry": {"type": "LineString", "coordinates": [[115.500411, 28.514698], [116.081573, 28.672188], [116.82589, 28.208641], [117.966665, 28.475184], [117.989966, 28.45509], [118.51367, 28.889487], [118.8632, 28.989227], [119.642571, 29.133876], [120.034513, 29.340729], [120.331273, 30.189365], [120.699544, 30.497438], [120.932077, 30.545057], [120.983912, 30.701795], [121.262169, 30.700106], [121.144346, 31.241703]]}}
]
}
