{
"type": "FeatureCollection",
"features": [
{"type": "Feature", "properties": {"ProjectID": "P4963", "id": 4963, "Tpye": "Gas Pipeline", "Name": "Sino-Myanmar Fuquan Branch Pipeline"}, "geometry": {"type": "MultiLineString", "coordinates": [[[107.500763, 26.659019], [107.500763, 26.659019], [107.491813, 26.655328], [107.484929, 26.654097], [107.482863, 26.651021], [107.479421, 26.651636], [107.47529, 26.650405], [107.464963, 26.646098], [107.46221, 26.644867], [107.459456, 26.631944], [107.45739, 26.630713], [107.456702, 26.627021], [107.45326, 26.62579], [107.453948, 26.622713], [107.453948, 26.621482], [107.45739, 26.617789], [107.452571, 26.614711], [107.452571, 26.61348], [107.450506, 26.612865], [107.447752, 26.606709], [107.443621, 26.603016], [107.434671, 26.603016], [107.425033, 26.599938], [107.42159, 26.599938], [107.42159, 26.598091], [107.41746, 26.598091], [107.416083, 26.593166], [107.411952, 26.590704], [107.40851, 26.588241], [107.404379, 26.584547], [107.396117, 26.585779], [107.391987, 26.583316], [107.39061, 26.580853], [107.386479, 26.573465], [107.384413, 26.571002], [107.389921, 26.569154], [107.388544, 26.564228], [107.38166, 26.564228], [107.374087, 26.564844], [107.369267, 26.562381], [107.366514, 26.559918], [107.365137, 26.556839], [107.361694, 26.555607], [107.357564, 26.55068], [107.344483, 26.551912], [107.341729, 26.554991], [107.33209, 26.556223], [107.330714, 26.550064], [107.323829, 26.546985], [107.321075, 26.543906], [107.316256, 26.542058], [107.312814, 26.537747], [107.310748, 26.535283], [107.305241, 26.536515], [107.300421, 26.534667], [107.293537, 26.533435], [107.289406, 26.527891], [107.291471, 26.523579], [107.287341, 26.521115], [107.284587, 26.522963], [107.279079, 26.521731], [107.275637, 26.521731], [107.268064, 26.520499], [107.266687, 26.516803], [107.252918, 26.519267], [107.24741, 26.516803], [107.246721, 26.509411], [107.237771, 26.505098], [107.237083, 26.500785], [107.233641, 26.491543], [107.232952, 26.488462], [107.234329, 26.484765], [107.234329, 26.481684], [107.22951, 26.471824], [107.227444, 26.470591], [107.223314, 26.46073], [107.222625, 26.451485], [107.218494, 26.449636], [107.221248, 26.441006], [107.224691, 26.439156], [107.221937, 26.431759], [107.226068, 26.42621], [107.223314, 26.422511], [107.221248, 26.416962], [107.219871, 26.413262], [107.223314, 26.410796], [107.225379, 26.40648], [107.219871, 26.403397], [107.221937, 26.39538], [107.221248, 26.390446], [107.221937, 26.385512], [107.22056, 26.381195], [107.224002, 26.378728], [107.225379, 26.371327], [107.228821, 26.365775], [107.231575, 26.363308], [107.231575, 26.357756], [107.235706, 26.354054], [107.240525, 26.349119], [107.239148, 26.34295], [107.233641, 26.340482], [107.228133, 26.339865], [107.226068, 26.337397], [107.226068, 26.329376], [107.222625, 26.33061], [107.219183, 26.328141], [107.214364, 26.329376], [107.21161, 26.32629], [107.204037, 26.329993], [107.200595, 26.327524], [107.195087, 26.326907], [107.192333, 26.325056], [107.186137, 26.32629], [107.179941, 26.325673]]]}}
]
}
