{
"type": "FeatureCollection",
"features": [
{"type": "Feature", "properties": {"ProjectID": "P4998"}, "geometry": {"type": "LineString", "coordinates": [[122.496295, 40.660765], [122.460914, 40.673152], [122.458192, 40.673152], [122.452749, 40.669023], [122.450027, 40.664894], [122.420089, 40.664894], [122.405119, 40.664894], [122.365655, 40.67212], [122.338439, 40.648376], [122.322109, 40.652506], [122.29217, 40.622559], [122.297614, 40.601898], [122.294892, 40.599832], [122.334356, 40.567793], [122.335717, 40.563658], [122.34116, 40.559523], [122.350686, 40.496427], [122.34116, 40.487113], [122.342521, 40.482973], [122.327552, 40.447772], [122.3085, 40.437416], [122.305779, 40.429129], [122.296253, 40.419806], [122.282644, 40.380425], [122.284005, 40.375242], [122.24318, 40.339985], [122.236376, 40.332723], [122.236376, 40.323387], [122.240459, 40.315086], [122.247263, 40.296406], [122.248624, 40.284988], [122.24182, 40.268376], [122.233655, 40.259031], [122.22685, 40.250722], [122.235015, 40.24449], [122.206438, 40.2154], [122.199634, 40.194613], [122.198273, 40.188376], [122.188747, 40.180059], [122.181943, 40.17486], [122.165613, 40.186297], [122.147922, 40.189416], [122.134314, 40.189416], [122.120705, 40.189416], [122.107097, 40.189416], [122.104375, 40.184218], [122.058107, 40.188376], [122.04722, 40.188376]]}}
]
}
