{
"type": "FeatureCollection",
"features": [
{"type": "Feature", "properties": {"ProjectID": "P4997"}, "geometry": {"type": "LineString", "coordinates": [[118.965276, 42.21062], [118.997684, 42.221552], [119.032594, 42.222912], [119.067503, 42.224273], [119.091389, 42.228355], [119.111599, 42.232436], [119.15937, 42.229715], [119.185093, 42.224273], [119.21449, 42.213387], [119.229189, 42.199778], [119.236538, 42.186165], [119.253074, 42.177996], [119.275122, 42.169826], [119.299007, 42.134411], [119.322893, 42.10988], [119.35229, 42.097612], [119.355965, 42.090795], [119.361477, 42.051242], [119.355965, 42.00757], [119.359639, 42.006204], [119.346778, 41.993916], [119.332079, 41.970697], [119.32473, 41.933804], [119.330242, 41.896889], [119.330242, 41.880475], [119.332079, 41.870899], [119.322893, 41.850373], [119.321055, 41.819914], [119.317381, 41.808959], [119.306357, 41.791153], [119.289821, 41.781563], [119.304519, 41.76512], [119.308194, 41.743189], [119.289821, 41.726736], [119.304519, 41.693818], [119.308194, 41.680097], [119.313706, 41.658137], [119.319218, 41.646811], [119.35229, 41.641319], [119.381688, 41.62896], [119.405573, 41.62484], [119.466205, 41.586373], [119.482741, 41.58225], [119.506626, 41.56988], [119.536024, 41.56713], [119.561746, 41.524502], [119.563584, 41.495609], [119.574608, 41.488727], [119.587469, 41.487351], [119.611354, 41.483222], [119.6628, 41.481845], [119.695872, 41.476339], [119.705059, 41.470833], [119.706896, 41.462572], [119.712408, 41.455687], [119.723432, 41.451556], [119.727107, 41.448802], [119.727107, 41.426763], [119.736293, 41.404717], [119.738131, 41.397826], [119.730781, 41.390935], [119.697709, 41.378528], [119.694035, 41.378528]]}}
]
}
