{
"type": "FeatureCollection",
"features": [
{"type": "Feature", "properties": {"ProjectID": "P5019", "id": 5019, "Type": "Gas pipeline", "Name": "Nanchuan-Fuling Gas Pipeline"}, "geometry": {"type": "MultiLineString", "coordinates": [[[107.309268, 29.281234], [107.314775, 29.283893], [107.315873, 29.286888], [107.319685, 29.289258], [107.321388, 29.291038], [107.323137, 29.296749], [107.327964, 29.299171], [107.333126, 29.310902], [107.331525, 29.321901], [107.331473, 29.328876], [107.336943, 29.335162], [107.336226, 29.339341], [107.337823, 29.340477], [107.337786, 29.341465], [107.339735, 29.347154], [107.343462, 29.351418], [107.344328, 29.355423], [107.347449, 29.359671], [107.34917, 29.362761], [107.348224, 29.364341], [107.34918, 29.36768], [107.352511, 29.370757], [107.352831, 29.37269], [107.34919, 29.378666], [107.350738, 29.38071], [107.353668, 29.387439], [107.356369, 29.391569], [107.361412, 29.392818], [107.363789, 29.393787], [107.365056, 29.394139], [107.36519, 29.394944], [107.366142, 29.395823], [107.373331, 29.42209], [107.372214, 29.423853], [107.374604, 29.42974], [107.375043, 29.431167], [107.381215, 29.439179], [107.381768, 29.44371], [107.389298, 29.44534], [107.390476, 29.446358], [107.394133, 29.456204], [107.397362, 29.458636], [107.39709, 29.460634], [107.397862, 29.462845], [107.396698, 29.466745], [107.400501, 29.47141], [107.400361, 29.477821], [107.401993, 29.480347], [107.403964, 29.481278], [107.401715, 29.489562], [107.401605, 29.492526], [107.403331, 29.495615], [107.403247, 29.498741], [107.402535, 29.499311], [107.402687, 29.501426], [107.403977, 29.504318], [107.406127, 29.507525], [107.406332, 29.509962], [107.405187, 29.511565], [107.405514, 29.519564], [107.407809, 29.522427], [107.406409, 29.527338], [107.407313, 29.529124], [107.407095, 29.531444], [107.399596, 29.534894], [107.395749, 29.534826], [107.391889, 29.539515], [107.392013, 29.54147], [107.393999, 29.547319], [107.396593, 29.548345], [107.398969, 29.551691], [107.400861, 29.552139], [107.402108, 29.553559], [107.403604, 29.55405], [107.403191, 29.56246], [107.405668, 29.56399], [107.408082, 29.566348], [107.413218, 29.568078], [107.417791, 29.562818], [107.418812, 29.559261], [107.420371, 29.558925], [107.423434, 29.561539], [107.424704, 29.561891], [107.4292, 29.565823], [107.429433, 29.568421], [107.434741, 29.569967], [107.436201, 29.571445], [107.436326, 29.5734], [107.437786, 29.574878], [107.440549, 29.574491], [107.442667, 29.575077], [107.44939, 29.583846], [107.451707, 29.58441], [107.45433, 29.585596], [107.455024, 29.587323], [107.456403, 29.588319], [107.45946, 29.588472], [107.462034, 29.589664], [107.464179, 29.586802], [107.467858, 29.587051], [107.469661, 29.588163], [107.474457, 29.586648], [107.476891, 29.583098], [107.478395, 29.578831], [107.480577, 29.578589], [107.482722, 29.579335], [107.484318, 29.57801], [107.486517, 29.579078], [107.48678, 29.581837], [107.489981, 29.585255], [107.494354, 29.58723], [107.500013, 29.589636], [107.501105, 29.591319], [107.502639, 29.594429], [107.504957, 29.594992], [107.505904, 29.597019], [107.51183, 29.599805], [107.516523, 29.60486], [107.522232, 29.606358], [107.522531, 29.608129], [107.525338, 29.611589], [107.529297, 29.611395], [107.531581, 29.612945], [107.535486, 29.61333], [107.537054, 29.611844], [107.540228, 29.61149], [107.54243, 29.612557], [107.545919, 29.611677], [107.546673, 29.608968], [107.550851, 29.610963], [107.566516, 29.620959]]]}}
]
}
