{
"type": "FeatureCollection",
"features": [
{"type": "Feature", "properties": {"ProjectID": "P5039", "id": 1}, "geometry": {"type": "MultiLineString", "coordinates": [[[107.029931, 33.152461], [107.091442, 33.146402], [107.131243, 33.150947], [107.161999, 33.149432], [107.219891, 33.147917], [107.236174, 33.140343], [107.268738, 33.125193], [107.297685, 33.10701], [107.323013, 33.08276], [107.341104, 33.05547], [107.370051, 33.037272], [107.398997, 33.013003], [107.427943, 32.994796], [107.45689, 32.976586], [107.485836, 32.958372], [107.522019, 32.958372], [107.558202, 32.955336], [107.594385, 32.958372], [107.630568, 32.958372], [107.666751, 32.955336], [107.706552, 32.9523], [107.742735, 32.947745], [107.769872, 32.949263], [107.807864, 32.9523], [107.856711, 32.950782], [107.891085, 32.946227], [107.927268, 32.946227], [107.963451, 32.949263], [107.999634, 32.949263], [108.035817, 32.946227], [108.072, 32.946227], [108.108182, 32.946227], [108.147984, 32.940154], [108.184167, 32.940154], [108.22035, 32.943191], [108.256532, 32.943191], [108.292715, 32.937117], [108.328898, 32.928007], [108.339753, 32.897631], [108.361463, 32.873323], [108.390409, 32.855088], [108.419356, 32.833809], [108.441065, 32.809483], [108.477248, 32.815565], [108.513431, 32.803401], [108.549614, 32.797318], [108.585797, 32.785151], [108.62198, 32.772983], [108.658163, 32.76994], [108.694346, 32.760813], [108.730529, 32.75777], [108.766712, 32.75777], [108.802895, 32.75777], [108.839078, 32.75777], [108.875261, 32.754727], [108.911444, 32.751684], [108.947627, 32.745598]]]}}
]
}
