{
"type": "FeatureCollection",
"features": [
{"type": "Feature", "properties": {"ProjectID": "P5038", "id": 0}, "geometry": {"type": "MultiLineString", "coordinates": [[[107.789773, 34.411005], [107.789773, 34.381148], [107.782536, 34.351281], [107.778918, 34.321404], [107.778918, 34.284042], [107.771681, 34.246663], [107.793391, 34.222732], [107.829574, 34.222732], [107.865757, 34.21974], [107.90194, 34.216748], [107.938123, 34.204779], [107.974306, 34.201786], [108.010489, 34.201786], [108.046671, 34.204779], [108.086473, 34.201786], [108.122656, 34.195801], [108.158839, 34.183829], [108.195021, 34.174849], [108.231204, 34.171856], [108.267387, 34.168862], [108.294525, 34.168862], [108.318043, 34.168862], [108.357845, 34.165868], [108.397646, 34.15988], [108.437447, 34.156886], [108.47363, 34.153892], [108.509813, 34.147903], [108.545996, 34.144909], [108.582179, 34.129934], [108.618362, 34.117953], [108.654545, 34.108966], [108.690728, 34.108966], [108.726911, 34.10597], [108.763094, 34.10597], [108.799276, 34.10597], [108.835459, 34.10597], [108.871642, 34.096982], [108.907825, 34.096982], [108.944008, 34.096982], [108.980191, 34.096982], [109.019992, 34.093986], [109.056175, 34.087993], [109.092358, 34.087993], [109.128541, 34.087993], [109.164724, 34.090989], [109.200907, 34.090989], [109.23709, 34.099978], [109.2588, 34.123944], [109.28051, 34.147903], [109.294983, 34.177843], [109.302219, 34.207771], [109.323929, 34.231707], [109.338402, 34.261616], [109.349257, 34.291515], [109.352875, 34.321404], [109.352875, 34.351281], [109.36373, 34.381148], [109.378203, 34.411005], [109.381822, 34.440851], [109.38544, 34.470686]]]}},
{"type": "Feature", "properties": {"ProjectID": "P5038", "id": 1}, "geometry": {"type": "MultiLineString", "coordinates": [[[109.38544, 34.470686], [109.389058, 34.506474], [109.378203, 34.536285], [109.356494, 34.560127], [109.338402, 34.586941], [109.316692, 34.613746], [109.289555, 34.622679], [109.251563, 34.625656], [109.217189, 34.615235], [109.19367, 34.606301], [109.153869, 34.603323], [109.112259, 34.601834], [109.074267, 34.601834], [109.043511, 34.597366], [109.00371, 34.595877], [108.956672, 34.595877], [108.920489, 34.58843], [108.89878, 34.586941], [108.871642, 34.582472], [108.835459, 34.579493], [108.81375, 34.575025], [108.77033, 34.569066], [108.734147, 34.572045], [108.697964, 34.566086], [108.661781, 34.557147], [108.625598, 34.551187], [108.589415, 34.551187], [108.553233, 34.545227], [108.51705, 34.542247], [108.480867, 34.539266], [108.444684, 34.539266], [108.408501, 34.539266], [108.372318, 34.539266], [108.336135, 34.539266], [108.299952, 34.545227], [108.263769, 34.545227], [108.227586, 34.539266], [108.191403, 34.533305], [108.15522, 34.527343], [108.119037, 34.524362], [108.082854, 34.521381], [108.046671, 34.521381], [108.010489, 34.509455], [107.974306, 34.50051], [107.941741, 34.485599], [107.905558, 34.470686], [107.876612, 34.452786], [107.844047, 34.437867], [107.789773, 34.411005]]]}}
]
}
