{
"type": "FeatureCollection",
"features": [
{"type": "Feature", "properties": {"ProjectID": "P5059"}, "geometry": {"type": "LineString", "coordinates": [[93.907467, 35.517555], [93.888725, 35.480272], [93.907725, 35.438836], [93.89608, 35.415863], [93.896693, 35.388885], [93.898531, 35.360899], [93.908132, 35.34214], [93.892609, 35.308282], [93.900011, 35.269281], [93.909345, 35.24348], [93.942838, 35.204395], [93.957666, 35.169366], [93.962933, 35.117045], [93.97044, 35.110346], [93.973306, 35.103478], [93.987911, 35.099458], [94.001822, 35.090756], [94.061036, 35.07376], [94.122555, 35.050185], [94.130498, 35.055613], [94.132471, 35.063139], [94.129471, 35.073125], [94.135071, 35.082128], [94.200478, 35.063957], [94.303879, 35.035301], [94.365086, 35.031698], [94.421009, 35.016005], [94.476178, 34.996484], [94.511927, 35.005522], [94.634181, 34.955257], [94.725099, 34.929932], [94.820431, 34.888309], [95.023387, 34.794234], [95.055053, 34.77015], [95.082616, 34.739634], [95.102751, 34.730156], [95.126795, 34.732726], [95.162569, 34.70075], [95.228838, 34.654612], [95.252101, 34.640943], [95.278296, 34.636922], [95.307618, 34.61794], [95.329512, 34.610057], [95.348865, 34.60169], [95.337723, 34.593484], [95.343381, 34.566461], [95.368403, 34.531361], [95.386192, 34.54521], [95.39929, 34.554065], [95.433108, 34.557124], [95.482957, 34.545693], [95.498791, 34.544566], [95.519903, 34.547142], [95.52479, 34.537481], [95.525572, 34.523148], [95.530264, 34.517188], [95.54903, 34.511873], [95.558805, 34.501885], [95.602205, 34.458699], [95.609829, 34.44935], [95.613153, 34.440322], [95.609438, 34.428391], [95.602401, 34.418071], [95.622505, 34.380237], [95.638243, 34.343538], [95.64972, 34.344753], [95.658843, 34.35022], [95.66826, 34.36091], [95.677678, 34.364675], [95.694599, 34.363946], [95.701515, 34.364675], [95.706076, 34.355443], [95.710909, 34.329432], [95.715481, 34.299502], [95.716675, 34.280893], [95.731208, 34.269712], [95.74524, 34.259358], [95.759522, 34.261015], [95.774807, 34.25066], [95.775057, 34.237818], [95.78959, 34.211713], [95.787085, 34.196999], [95.797358, 34.189331], [95.822916, 34.161967], [95.813645, 34.147867], [95.821413, 34.128165], [95.809168, 34.115661], [95.825923, 34.092481], [95.824956, 34.074694], [95.792243, 34.000967], [95.753944, 33.993159], [95.730942, 33.98832], [95.722789, 33.97489], [95.696318, 33.893345], [95.658577, 33.866364], [95.642327, 33.840462], [95.713092, 33.820433], [95.774421, 33.78319], [95.835227, 33.750072], [95.851738, 33.744842], [95.86694, 33.731983], [95.878471, 33.708439], [95.868512, 33.676819], [95.884237, 33.655878], [95.921454, 33.640824], [96.029436, 33.585384], [96.137959, 33.441222], [96.146469, 33.419915], [96.177563, 33.404889], [96.244335, 33.362253], [96.246135, 33.352411], [96.252681, 33.339971], [96.280175, 33.31864], [96.346455, 33.286222], [96.375586, 33.264331], [96.389005, 33.256667], [96.402098, 33.255572], [96.407335, 33.258583], [96.409299, 33.271993], [96.412572, 33.278561], [96.4201, 33.283486], [96.423373, 33.26953], [96.432865, 33.259404], [96.473124, 33.231209], [96.507492, 33.215328], [96.573281, 33.203826], [96.609612, 33.192871], [96.647253, 33.159174], [96.657072, 33.138073], [96.679657, 33.122449], [96.705514, 33.115596], [96.735954, 33.12053], [96.773267, 33.101613], [96.81189, 33.085983], [96.854113, 33.075562], [96.869497, 33.061847], [96.901573, 33.049228]]}}
]
}
