{
"type": "FeatureCollection",
"features": [
{"type": "Feature", "properties": {"ProjectID": "P5097"}, "geometry": {"type": "LineString", "coordinates": [[111.078255, 38.335616], [111.07578, 38.334737], [111.074673, 38.334411], [111.072914, 38.334346], [111.068811, 38.334737], [111.06697, 38.334839], [111.064466, 38.334711], [111.061907, 38.334281], [111.05852, 38.333109], [111.054092, 38.331936], [111.050314, 38.330959], [111.048621, 38.330373], [111.047189, 38.330151], [111.04595, 38.330243], [111.044713, 38.331024], [111.042759, 38.332783], [111.041001, 38.334411], [111.036507, 38.337928], [111.033836, 38.339361], [111.022463, 38.345244], [111.020921, 38.346336], [111.020279, 38.347042], [111.020215, 38.348327], [111.02055, 38.349586], [111.021527, 38.353885], [111.022569, 38.356946], [111.023676, 38.359291], [111.033706, 38.373749], [111.034087, 38.374337], [111.034162, 38.375312], [111.033445, 38.3762], [111.031361, 38.380393], [111.031005, 38.383136], [111.031166, 38.385408], [111.017163, 38.396903], [111.016512, 38.40055], [111.015398, 38.402082], [111.013646, 38.402374], [111.01052, 38.403025], [111.007785, 38.403937], [111.006742, 38.4055], [111.006482, 38.409147], [111.000229, 38.416833], [110.999448, 38.421001], [110.992284, 38.428686], [110.988636, 38.435329], [110.983947, 38.441973], [110.9803, 38.447444], [110.979649, 38.449788], [110.979388, 38.452524], [110.980691, 38.455389], [110.981993, 38.457864], [110.98564, 38.461251], [110.988115, 38.464898], [110.988506, 38.467373], [110.988376, 38.469718], [110.987782, 38.471509], [110.986552, 38.472974], [110.984859, 38.474277], [110.982514, 38.474407], [110.978726, 38.47427], [110.976658, 38.474052], [110.975668, 38.474361], [110.974959, 38.475579], [110.974568, 38.479227], [110.973136, 38.482483], [110.971182, 38.48613], [110.968316, 38.488736], [110.966232, 38.490429], [110.966102, 38.492383], [110.966232, 38.496291], [110.966623, 38.50098], [110.966386, 38.506453], [110.965841, 38.510098], [110.96519, 38.513615], [110.963366, 38.514527], [110.959719, 38.516872], [110.955941, 38.520779], [110.95529, 38.523906], [110.949428, 38.532372], [110.947214, 38.535238], [110.946432, 38.545789], [110.942785, 38.553084], [110.94539, 38.559336], [110.94539, 38.56637], [110.942134, 38.571841], [110.938617, 38.574316], [110.93536, 38.576791], [110.934449, 38.578093], [110.9351, 38.579787], [110.93894, 38.588202], [110.938487, 38.59659], [110.938483, 38.598331], [110.939919, 38.604666], [110.939986, 38.605781], [110.939659, 38.60649], [110.938096, 38.607011], [110.936522, 38.607676], [110.935477, 38.60859], [110.932536, 38.608917], [110.930772, 38.609963], [110.929726, 38.612054], [110.927936, 38.615999], [110.926112, 38.61665], [110.923377, 38.617562], [110.913868, 38.617823], [110.91022, 38.61639], [110.908136, 38.614827], [110.902926, 38.61157], [110.901102, 38.610919], [110.899018, 38.61144], [110.894068, 38.615348], [110.893026, 38.61678], [110.893026, 38.621209], [110.892114, 38.622251], [110.889249, 38.622772], [110.885813, 38.62264], [110.881435, 38.621987], [110.877579, 38.621333], [110.874139, 38.621209], [110.870849, 38.62068], [110.867886, 38.620558], [110.862546, 38.621209], [110.85981, 38.622512], [110.857596, 38.624205], [110.854079, 38.625117], [110.851343, 38.625117], [110.848478, 38.624987], [110.845742, 38.624335], [110.842746, 38.625768], [110.837536, 38.628113], [110.832846, 38.628504], [110.829199, 38.629155], [110.825422, 38.632151], [110.821905, 38.634626], [110.8094, 38.642963], [110.809139, 38.649085], [110.806404, 38.652992], [110.804841, 38.655858], [110.80471, 38.659245], [110.80458, 38.663022], [110.803929, 38.665237], [110.802105, 38.667451], [110.800282, 38.670447], [110.798458, 38.672531], [110.798067, 38.675527], [110.798328, 38.678523], [110.796374, 38.681128], [110.794029, 38.683213], [110.792336, 38.685688], [110.788949, 38.688162], [110.787125, 38.690507], [110.786214, 38.69181], [110.786344, 38.693243], [110.787777, 38.694285], [110.78934, 38.695457], [110.790642, 38.69715], [110.792987, 38.701058], [110.793769, 38.701579]]}}
]
}
