{
"type": "FeatureCollection",
"features": [
{"type": "Feature", "properties": {"ProjectID": "P5119"}, "geometry": {"type": "MultiLineString", "coordinates": [[[4.949243, 43.617444], [4.94167, 43.612381], [4.934465, 43.606807], [4.927661, 43.600749], [4.921292, 43.594236], [4.915388, 43.587299], [4.909976, 43.579971], [4.905083, 43.572287], [4.900733, 43.564283], [4.896944, 43.555999], [4.893737, 43.547472], [4.891126, 43.538745], [4.889123, 43.529858], [4.887739, 43.520854], [4.886979, 43.511776], [4.886847, 43.502668], [4.888097, 43.500546], [4.889201, 43.498346], [4.890155, 43.496077], [4.890956, 43.493748], [4.891598, 43.491372], [4.89208, 43.488958], [4.892398, 43.486516], [4.892553, 43.484059], [4.892542, 43.481597], [4.892367, 43.479142], [4.892027, 43.476703], [4.891525, 43.474293], [4.890862, 43.471922], [4.890042, 43.469601], [4.889069, 43.46734], [4.887946, 43.465149], [4.886678, 43.463038], [4.885272, 43.461017], [4.883734, 43.459095], [4.882071, 43.45728], [4.880289, 43.455581], [4.878398, 43.454005], [4.876405, 43.452559], [4.87432, 43.45125], [4.872152, 43.450084], [4.869911, 43.449065], [4.867606, 43.448199], [4.865249, 43.44749], [4.862849, 43.44694], [4.862849, 43.419057], [4.862849, 43.387673]], [[2.161406, 41.450373], [2.41013, 41.252012], [2.678468, 41.197172], [3.577541, 41.201082], [3.967313, 41.247988], [4.294722, 41.361204], [4.507797, 41.485904], [4.668903, 41.672506], [4.715675, 41.804355], [4.708675, 41.915453]], [[4.708675, 41.915453], [4.700084, 42.051808], [4.554569, 42.409675], [4.585751, 42.608889], [4.684493, 42.845582], [4.866053, 43.389703]]]}}
]
}
