{
"type": "FeatureCollection",
"features": [
{"type": "Feature", "properties": {"ProjectID": "P5407", "id": null}, "geometry": {"type": "MultiLineString", "coordinates": [[[118.495612, 36.816342], [118.488219, 36.801431]]]}},
{"type": "Feature", "properties": {"ProjectID": "P5407", "id": 2}, "geometry": {"type": "MultiLineString", "coordinates": [[[118.488219, 36.801431], [118.479906, 36.790002], [118.472326, 36.780877], [118.464748, 36.771752], [118.459874, 36.762109], [118.452299, 36.752983], [118.446078, 36.743599], [118.438507, 36.734472], [118.432289, 36.725087], [118.424723, 36.715959], [118.418509, 36.706573], [118.413646, 36.696929], [118.403737, 36.689306], [118.390133, 36.683444], [118.377232, 36.679561], [118.362984, 36.675934], [118.349087, 36.673296], [118.335841, 36.668419], [118.322946, 36.664531], [118.310053, 36.660641], [118.297162, 36.65675], [118.283271, 36.654105], [118.269382, 36.651458], [118.254493, 36.650056], [118.240606, 36.647406], [118.225719, 36.646], [118.210484, 36.643603], [118.195251, 36.641203], [118.180018, 36.638801], [118.166136, 36.636143], [118.151253, 36.634729], [118.13637, 36.633313], [118.121488, 36.631895], [118.106607, 36.630476], [118.091726, 36.629054], [118.077538, 36.629614], [118.062658, 36.628189], [118.047778, 36.626762], [118.033904, 36.624089], [118.019686, 36.620423], [118.005814, 36.617747], [117.992948, 36.613825], [117.979079, 36.611146], [117.964205, 36.609709], [117.949676, 36.609263], [117.93549, 36.609806], [117.921305, 36.610347], [117.907463, 36.611879], [117.893963, 36.614401], [117.880462, 36.616921], [117.867303, 36.620431], [117.8538, 36.622948], [117.840981, 36.627448], [117.827476, 36.629962], [117.814996, 36.635451], [117.80183, 36.638954], [117.789004, 36.643448], [117.775836, 36.646949], [117.763348, 36.652432], [117.750518, 36.656923], [117.737344, 36.660419], [117.724169, 36.663915], [117.710993, 36.667409], [117.698497, 36.672885], [117.67745, 36.683567]]]}}
]
}
