{
"type": "FeatureCollection",
"features": [
{"type": "Feature", "properties": {"ProjectID": "P5411", "PipelineName": "Mehsana-Bhatinda Gas Pipeline", "SegmentName": "Phase II", "Wiki": "https://www.gem.wiki/Mehsana-Bhatinda_Gas_Pipeline", "Status": "construction", "LastUpdated": "2025-07-17", "Fuel": "Gas", "OtherEnglishNames": "", "OtherLanguagePrimaryPipelineName": "", "OtherLanguageSegmentName": "", "CountriesOrAreas": "India", "Owner": "Gujarat State Petronet [52.%]; Indian Oil Corp [26.%]; BPCL Group [11.%]; Hindustan Petroleum [11.%]", "Parent": "Indian Oil Corporation Ltd [26.00%]; Bharat Petroleum Corp Ltd [11.00%]; Hindustan Petroleum Corp Ltd [11.00%]; unknown [unknown %]", "ParentEntityIDs": "E100000153049; E100000001918; E100000000509; E100000001917", "StartYear1": "", "StartYear2": "", "StartYear3": "", "ShelvedYear": "", "CancelledYear": "", "StopYear": "", "Capacity": "80.11", "CapacityUnits": "MMSCMD", "CapacityBcm/y": "29.24", "CapacityBOEd": "471287.13", "LengthKnownKm": "763.0", "LengthEstimateKm": "2317.0", "LengthMergedKm": "763.0", "Diameter": "", "DiameterUnits": "", "FuelSource": "", "StartLocation": "Mehsana", "StartPrefecture/District": "", "StartState/Province": "Gujarat", "StartCountryOrArea": "India", "StartRegion": "Asia", "StartSubRegion": "Southern Asia", "EndLocation": "Bhatinda", "EndPrefecture/District": "", "EndState/Province": "Punjab", "EndCountryOrArea": "India", "EndRegion": "Asia", "EndSubRegion": "Southern Asia", "ProjectLevelCost": "", "ProjectLevelCostUnits": "", "CostUSD": "955674720.0", "FIDStatus": "", "FIDYear": "", "PCI3": "", "PCI4": "", "PCI5": "", "PCI6": "", "RouteAccuracy": "medium", "RouteType": "Mapped route (at any accuracy)", "RouteCreator": "WA", "PipelineStatus": "construction", "CapacityMapScale": "471287.13"}, "geometry": {"type": "MultiLineString", "coordinates": [[[71.662271, 25.315123], [72.23067, 25.30364], [72.497645, 25.134269], [72.80194, 25.082596], [73.200967, 25.134269], [73.398167, 25.183661]], [[72.54024, 24.354779], [72.841746, 24.563515], [73.091069, 24.795442], [73.398167, 25.183661]], [[73.017353, 26.169479], [73.210792, 26.043206], [73.447217, 25.830961], [73.545299, 25.732741], [73.698346, 25.641381]], [[73.398167, 25.183661], [73.398197, 25.183669]], [[73.398167, 25.183661], [73.398373, 25.183922], [73.698345, 25.64138], [73.698346, 25.641381]], [[73.698346, 25.641381], [74.192254, 26.258765], [74.615604, 26.317564], [75.080113, 26.546878], [75.385866, 26.811472], [75.362653, 27.03457]], [[73.698346, 25.641381], [73.698352, 25.641378]], [[74.615678, 26.317518], [74.633875, 26.148105], [74.609765, 26.001032], [74.62182, 25.820205], [74.566367, 25.704476], [74.537434, 25.55017], [74.50368, 25.376576], [74.554311, 25.178872], [74.653164, 24.988401], [74.414472, 24.879904], [74.244591, 24.79457], [74.098002, 24.757923], [73.945916, 24.719444], [73.821315, 24.625993], [73.773674, 24.572854]], [[74.669049, 30.972163], [74.845519, 30.972163], [75.082148, 30.903982], [75.158351, 30.903982], [75.36202, 30.875606]], [[74.925388, 31.661076], [75.421031, 31.693149]], [[75.421031, 31.693149], [75.446312, 31.861689], [75.514414, 32.189381], [75.537188, 32.348796], [75.4404, 32.439891], [75.195584, 32.508211]], [[75.320005, 29.047611], [75.855618, 29.097827], [76.679754, 29.008731], [76.711574, 29.546487]], [[75.36202, 30.875606], [75.362034, 30.875636], [75.362034, 30.943058], [75.513735, 31.246459], [75.446312, 31.499293], [75.421029, 31.693133], [75.421031, 31.693149]], [[75.362653, 27.03457], [75.319895, 27.44552], [75.319895, 27.71521], [75.328323, 27.934333], [75.336751, 28.608557], [75.319895, 29.046803], [75.244045, 29.341776], [75.176623, 29.510332], [75.134484, 29.653605], [75.117628, 29.931722], [75.142911, 30.302545], [75.168195, 30.454246], [75.252473, 30.63123], [75.36202, 30.875606]], [[75.36202, 30.875606], [75.36209, 30.875596]], [[75.362653, 27.03457], [75.362641, 27.034568]], [[76.957624, 28.167777], [76.696091, 28.013036], [76.397507, 27.816886], [76.26674, 27.716632], [76.122897, 27.607659], [76.064052, 27.479072], [75.961618, 27.337408], [75.87444, 27.217539], [75.748032, 27.110746], [75.57556, 27.074873], [75.362653, 27.03457]], [[75.421031, 31.693149], [75.421053, 31.69315]]]}}
]
}
