{
"type": "FeatureCollection",
"features": [
{"type": "Feature", "properties": {"ProjectID": "P5494", "id": null}, "geometry": {"type": "MultiLineString", "coordinates": [[[9.585155, 53.585124], [9.584328, 53.584496], [9.570182, 53.584776], [9.554315, 53.57366], [9.543209, 53.571022], [9.534958, 53.573095], [9.52766, 53.569326], [9.518775, 53.568007], [9.51814, 53.555379], [9.508303, 53.549535], [9.479109, 53.54369], [9.465146, 53.540107], [9.461656, 53.531432], [9.437222, 53.510113], [9.420086, 53.487273], [9.427702, 53.478965], [9.423856, 53.47515], [9.421805, 53.469962], [9.42001, 53.462941], [9.400782, 53.440345], [9.400526, 53.435], [9.396167, 53.428737], [9.378733, 53.427973], [9.363607, 53.421099], [9.333354, 53.420793], [9.327713, 53.418043], [9.324893, 53.412236], [9.293871, 53.387167], [9.293358, 53.381203], [9.290025, 53.380897], [9.289769, 53.377991], [9.287205, 53.375544], [9.287205, 53.371262], [9.282847, 53.369732], [9.252524, 53.367968], [9.233802, 53.359636], [9.220263, 53.357679], [9.216138, 53.354207], [9.215292, 53.34884], [9.185781, 53.32882], [9.182184, 53.326798], [9.174463, 53.326545], [9.165366, 53.317068], [9.165895, 53.310686], [9.163674, 53.308727], [9.163145, 53.304871], [9.160818, 53.304239], [9.161029, 53.300257], [9.160436, 53.295903], [9.162164, 53.294059], [9.156115, 53.287491], [9.155992, 53.285055], [9.158955, 53.282767], [9.158584, 53.278265], [9.161177, 53.276715], [9.161053, 53.270514], [9.145004, 53.255376], [9.143029, 53.250058], [9.146733, 53.24666], [9.142165, 53.241563], [9.141424, 53.235283], [9.141918, 53.230036], [9.144387, 53.229667], [9.144634, 53.227302], [9.141301, 53.227006], [9.141918, 53.217915], [9.143523, 53.212666], [9.143646, 53.198248], [9.140066, 53.190112], [9.127104, 53.177018], [9.120314, 53.173984], [9.090932, 53.162439], [9.09192, 53.147189], [9.08871, 53.144449], [9.089451, 53.139636], [9.097722, 53.128749], [9.099327, 53.119563], [9.097105, 53.117043], [9.096241, 53.103037], [9.094512, 53.100888], [9.094389, 53.092067], [9.087476, 53.087247], [9.108586, 53.062476], [9.064514, 53.043925], [9.061551, 53.04103], [9.053773, 53.040511], [9.044267, 53.034052], [9.043897, 53.03086], [9.037354, 53.026999], [9.020115, 53.027474]]]}}
]
}
