{
"type": "FeatureCollection",
"features": [
{"type": "Feature", "properties": {"ProjectID": "P5507"}, "geometry": {"type": "LineString", "coordinates": [[16.704666, 48.321594], [16.689824, 48.274693], [16.684258, 48.233929], [16.656429, 48.177051], [16.647153, 48.139923], [16.666, 48.1311], [16.649, 48.0894], [16.597988, 48.083561], [16.540475, 48.058147], [16.47183, 48.03148], [16.414316, 47.994246], [16.377211, 47.977483], [16.363296, 47.95388], [16.35402, 47.920321], [16.324, 47.8748], [16.248, 47.7644], [16.214875, 47.75594], [16.162927, 47.725997], [16.07944, 47.697285], [16.034913, 47.686045], [15.994097, 47.677927], [15.923597, 47.661685], [15.879998, 47.650438], [15.833616, 47.626061]]}}
]
}
