{
"type": "FeatureCollection",
"features": [
{"type": "Feature", "properties": {"ProjectID": "P5508"}, "geometry": {"type": "LineString", "coordinates": [[16.704666, 48.321594], [16.621179, 48.353043], [16.569232, 48.369068], [16.530271, 48.38324], [16.483889, 48.38632], [16.43658, 48.39248], [16.379066, 48.400487], [16.342888, 48.393096], [16.310421, 48.387552], [16.288158, 48.399871], [16.227861, 48.401719], [16.160144, 48.398639], [16.131387, 48.380775], [16.100775, 48.367219], [16.075729, 48.348111], [16.044189, 48.330229], [15.998735, 48.320977], [15.940294, 48.32036], [15.915248, 48.309873], [15.877215, 48.305554], [15.833616, 48.294446], [15.800221, 48.27778], [15.724155, 48.269136], [15.665714, 48.265431], [15.600779, 48.240107], [15.568312, 48.223423], [15.506161, 48.213534], [15.484825, 48.199315], [15.434733, 48.176433], [15.373509, 48.164059], [15.305791, 48.151064], [15.221376, 48.154159], [15.173139, 48.157253], [15.12583, 48.155396], [15.098001, 48.141161], [15.06275, 48.12816], [15.02379, 48.110201], [14.999671, 48.096573], [14.933809, 48.095334], [14.8865, 48.106485], [14.866092, 48.11206], [14.85496, 48.125684], [14.805795, 48.125064], [14.703755, 48.123207], [14.63511, 48.118872], [14.604498, 48.12816], [14.519156, 48.139923], [14.471846, 48.145804]]}}
]
}
