{
"type": "FeatureCollection",
"features": [
{"type": "Feature", "properties": {"ProjectID": "P5521"}, "geometry": {"type": "LineString", "coordinates": [[128.203053, 51.559226], [128.655194, 50.951], [128.696754, 50.828923], [128.771026, 50.6528], [128.97218, 50.464766], [129.272768, 50.277876], [129.584591, 50.102012], [129.840826, 49.977905], [130.038586, 49.877592], [130.288867, 49.712125], [130.456153, 49.55404], [130.568656, 49.444176], [130.688646, 49.373369], [130.847582, 49.310464], [130.981593, 49.219316], [131.148315, 49.070121], [131.234206, 48.995253], [131.309433, 48.964299], [131.435403, 48.955452], [131.609017, 48.966616], [131.944635, 49.020416], [132.343518, 49.040982], [132.783102, 49.009749], [133.103554, 48.927891], [133.516369, 48.744715], [133.683918, 48.657263], [133.879759, 48.603816], [134.219525, 48.599938], [134.492149, 48.610409], [134.663549, 48.662295], [134.939993, 48.849679], [135.153425, 48.956301], [135.283445, 49.010003], [135.360549, 49.028283], [135.432757, 49.034536], [135.490697, 49.02909], [135.538328, 49.012238], [135.567624, 48.972394], [135.570981, 48.936291], [135.564517, 48.891216], [135.565092, 48.853393], [135.56396, 48.766828], [135.562927, 48.687453], [135.599442, 48.59364]]}}
]
}
