{
"type": "FeatureCollection",
"features": [
{"type": "Feature", "properties": {"ProjectID": "P5547", "VAL_METHOD": "IMAGERY/OTHER", "LATITUDE": "42.28834", "NAME": "WOODSTOCK", "GAS_COMPRE": "641241", "EXP_POWER": "0", "ZIP": "60098", "WEBSITE": "https://www.anrpl.com/company_info/", "CERT_HP": "38546", "OP_DATE_PE": "Wed, 08 Jan 2020 00:00:00 GMT", "LONGITUDE": "-88.49539", "COUNTYFIPS": "17111", "COUNTRY": "USA", "COUNTY": "MCHENRY", "ZIP4": "8994", "STATUS": "IN SERVICE", "ADDRESS": "15313 WEST SOUTH STREET; ON S. ROSE FARM ROAD", "OP_COMP_HR": "19595", "PLANT_COST": "50522051", "GCOMPID": "GCOMP196", "COMPID": "48", "PIPECO": "ANR PIPELINE COMPANY", "POSREL": "WITHIN 40 FEET", "VAL_DATE": "Fri, 17 Jun 2022 00:00:00 GMT", "SOURCE": "EPA ENVIROFACTS, FERC FORM 2, CORPORATE WEBSITE", "EXP_OTHER": "1057283", "STATE": "IL", "OP_NUM_COM": "5", "EXP_FUEL": "1194542", "OBJECTID": "475", "OPERATOR": "ANR PIPELINE COMPANY", "NAICS_DESC": "BOOSTER PUMPING STATION, NATURAL GAS TRANSPORTATION", "ELEC_COMPR": "0", "TYPE": "NATURAL GAS COMPRESSOR STATION", "NAICS_CODE": "486210", "NUM_UNITS": "7", "SOURCEDATE": "Wed, 15 Jul 2020 00:00:00 GMT", "CITY": "WOODSTOCK"}, "geometry": {"type": "Point", "coordinates": [-88.49539, 42.28834]}},
{"type": "Feature", "properties": {"ProjectID": "P5547", "NUM_UNITS": "2", "OBJECTID": "38", "VAL_METHOD": "IMAGERY/OTHER", "LATITUDE": "44.335614287", "CITY": "WEYAUWEGA", "WEBSITE": "https://www.anrpl.com/company_info/", "OP_COMP_HR": "8170", "COUNTY": "WAUPACA", "EXP_OTHER": "449106", "CERT_HP": "2580", "COUNTRY": "USA", "GAS_COMPRE": "106530", "NAME": "WEYAUWEGA", "STATUS": "IN SERVICE", "COUNTYFIPS": "55135", "STATE": "WI", "COMPID": "48", "PIPECO": "ANR PIPELINE COMPANY", "POSREL": "WITHIN 40 FEET", "VAL_DATE": "Fri, 17 Jun 2022 00:00:00 GMT", "PLANT_COST": "5813884", "ZIP4": "NOT AVAILABLE", "SOURCE": "EPA ENVIROFACTS, FERC FORM 2, CORPORATE WEBSITE", "ELEC_COMPR": "3463501", "OP_DATE_PE": "Fri, 13 Nov 2020 00:00:00 GMT", "OP_NUM_COM": "1", "EXP_FUEL": "192188", "ADDRESS": "E6135 COUNTY ROAD-X", "OPERATOR": "ANR PIPELINE COMPANY", "NAICS_DESC": "BOOSTER PUMPING STATION, NATURAL GAS TRANSPORTATION", "ZIP": "54983", "LONGITUDE": "-88.918954078", "EXP_POWER": "554429", "TYPE": "NATURAL GAS COMPRESSOR STATION", "GCOMPID": "GCOMP1031", "NAICS_CODE": "486210", "SOURCEDATE": "Wed, 15 Jul 2020 00:00:00 GMT"}, "geometry": {"type": "Point", "coordinates": [-88.918954, 44.335614]}}
]
}
