{
"type": "FeatureCollection",
"features": [
{"type": "Feature", "properties": {"ProjectID": "P5547", "Operator": "ANR Pipeline Co", "OBJECTID": "7", "AnalysisArea": "0", "Count_": "804", "NUM_UNITS": null, "VAL_METHOD": null, "EXP_FUEL": null, "EXP_POWER": null, "WEBSITE": null, "ZIP": null, "COUNTRY": null, "COUNTYFIPS": null, "COUNTY": null, "OP_COMP_HR": null, "GCOMPID": null, "PLANT_COST": null, "STATUS": null, "EXP_OTHER": null, "OP_DATE_PE": null, "CITY": null, "LONGITUDE": null, "COMPID": null, "PIPECO": null, "POSREL": null, "VAL_DATE": null, "LATITUDE": null, "ZIP4": null, "SOURCE": null, "OP_NUM_COM": null, "CERT_HP": null, "ADDRESS": null, "NAME": null, "STATE": null, "GAS_COMPRE": null, "NAICS_DESC": null, "ELEC_COMPR": null, "TYPE": null, "NAICS_CODE": null, "SOURCEDATE": null, "layer": "merge1", "path": "/Users/char/Desktop/gem o&g resources/gis data/ANR/merge1.geojson"}, "geometry": {"type": "LineString", "coordinates": [[-88.138754, 43.108018], [-88.139255, 43.111549], [-88.143028, 43.148365], [-88.140078, 43.156036], [-88.137914, 43.162428], [-88.137718, 43.17081], [-88.144012, 43.181606], [-88.146372, 43.183453], [-88.150348, 43.206235], [-88.152863, 43.236724], [-88.156354, 43.25865], [-88.154885, 43.285452], [-88.154633, 43.319827], [-88.153195, 43.336474]]}},
{"type": "Feature", "properties": {"ProjectID": "P5547", "Operator": "ANR Pipeline Co", "OBJECTID": "7", "AnalysisArea": "0", "Count_": "804", "NUM_UNITS": null, "VAL_METHOD": null, "EXP_FUEL": null, "EXP_POWER": null, "WEBSITE": null, "ZIP": null, "COUNTRY": null, "COUNTYFIPS": null, "COUNTY": null, "OP_COMP_HR": null, "GCOMPID": null, "PLANT_COST": null, "STATUS": null, "EXP_OTHER": null, "OP_DATE_PE": null, "CITY": null, "LONGITUDE": null, "COMPID": null, "PIPECO": null, "POSREL": null, "VAL_DATE": null, "LATITUDE": null, "ZIP4": null, "SOURCE": null, "OP_NUM_COM": null, "CERT_HP": null, "ADDRESS": null, "NAME": null, "STATE": null, "GAS_COMPRE": null, "NAICS_DESC": null, "ELEC_COMPR": null, "TYPE": null, "NAICS_CODE": null, "SOURCEDATE": null, "layer": "merge2", "path": "/Users/char/Desktop/gem o&g resources/gis data/ANR/merge2.geojson"}, "geometry": {"type": "LineString", "coordinates": [[-88.486998, 44.227507], [-88.492232, 44.227741], [-88.492559, 44.236399], [-88.497812, 44.236172], [-88.50597, 44.236866], [-88.523635, 44.239908], [-88.543262, 44.246225], [-88.569289, 44.252382], [-88.598501, 44.258801], [-88.620879, 44.264456], [-88.640416, 44.267049], [-88.65046, 44.271424]]}},
{"type": "Feature", "properties": {"ProjectID": "P5547", "Operator": "ANR Pipeline Co", "OBJECTID": "7", "AnalysisArea": "0", "Count_": "804", "NUM_UNITS": null, "VAL_METHOD": null, "EXP_FUEL": null, "EXP_POWER": null, "WEBSITE": null, "ZIP": null, "COUNTRY": null, "COUNTYFIPS": null, "COUNTY": null, "OP_COMP_HR": null, "GCOMPID": null, "PLANT_COST": null, "STATUS": null, "EXP_OTHER": null, "OP_DATE_PE": null, "CITY": null, "LONGITUDE": null, "COMPID": null, "PIPECO": null, "POSREL": null, "VAL_DATE": null, "LATITUDE": null, "ZIP4": null, "SOURCE": null, "OP_NUM_COM": null, "CERT_HP": null, "ADDRESS": null, "NAME": null, "STATE": null, "GAS_COMPRE": null, "NAICS_DESC": null, "ELEC_COMPR": null, "TYPE": null, "NAICS_CODE": null, "SOURCEDATE": null, "layer": "merge2", "path": "/Users/char/Desktop/gem o&g resources/gis data/ANR/merge2.geojson"}, "geometry": {"type": "LineString", "coordinates": [[-88.65046, 44.271424], [-88.654482, 44.27477], [-88.674416, 44.276957], [-88.695051, 44.281994], [-88.7114, 44.287639], [-88.739046, 44.292733], [-88.771917, 44.299572], [-88.776497, 44.301678]]}},
{"type": "Feature", "properties": {"ProjectID": "P5547", "Operator": "ANR Pipeline Co", "OBJECTID": "7", "AnalysisArea": "0", "Count_": "804", "NUM_UNITS": null, "VAL_METHOD": null, "EXP_FUEL": null, "EXP_POWER": null, "WEBSITE": null, "ZIP": null, "COUNTRY": null, "COUNTYFIPS": null, "COUNTY": null, "OP_COMP_HR": null, "GCOMPID": null, "PLANT_COST": null, "STATUS": null, "EXP_OTHER": null, "OP_DATE_PE": null, "CITY": null, "LONGITUDE": null, "COMPID": null, "PIPECO": null, "POSREL": null, "VAL_DATE": null, "LATITUDE": null, "ZIP4": null, "SOURCE": null, "OP_NUM_COM": null, "CERT_HP": null, "ADDRESS": null, "NAME": null, "STATE": null, "GAS_COMPRE": null, "NAICS_DESC": null, "ELEC_COMPR": null, "TYPE": null, "NAICS_CODE": null, "SOURCEDATE": null, "layer": "merge2", "path": "/Users/char/Desktop/gem o&g resources/gis data/ANR/merge2.geojson"}, "geometry": {"type": "LineString", "coordinates": [[-88.776497, 44.301678], [-88.782058, 44.302146], [-88.789581, 44.306357], [-88.796273, 44.309745], [-88.819676, 44.310803], [-88.844388, 44.312317], [-88.851639, 44.315484], [-88.855384, 44.31928], [-88.866775, 44.321728], [-88.879315, 44.324991], [-88.906922, 44.332943], [-88.918954, 44.335614]]}},
{"type": "Feature", "properties": {"ProjectID": "P5547", "Operator": "ANR Pipeline Co", "OBJECTID": "7", "AnalysisArea": "0", "Count_": "804", "NUM_UNITS": null, "VAL_METHOD": null, "EXP_FUEL": null, "EXP_POWER": null, "WEBSITE": null, "ZIP": null, "COUNTRY": null, "COUNTYFIPS": null, "COUNTY": null, "OP_COMP_HR": null, "GCOMPID": null, "PLANT_COST": null, "STATUS": null, "EXP_OTHER": null, "OP_DATE_PE": null, "CITY": null, "LONGITUDE": null, "COMPID": null, "PIPECO": null, "POSREL": null, "VAL_DATE": null, "LATITUDE": null, "ZIP4": null, "SOURCE": null, "OP_NUM_COM": null, "CERT_HP": null, "ADDRESS": null, "NAME": null, "STATE": null, "GAS_COMPRE": null, "NAICS_DESC": null, "ELEC_COMPR": null, "TYPE": null, "NAICS_CODE": null, "SOURCEDATE": null, "layer": "P5547", "path": "/Users/char/Desktop/gem o&g resources/gis data/ANR/P5547.geojson"}, "geometry": {"type": "LineString", "coordinates": [[-88.494202, 42.28711], [-88.494235, 42.288318], [-88.494501, 42.298121], [-88.486517, 42.310345], [-88.485134, 42.317842], [-88.488648, 42.328268], [-88.491488, 42.332354], [-88.492508, 42.353279], [-88.492047, 42.37202], [-88.485595, 42.411206], [-88.480065, 42.436421], [-88.475918, 42.44494]]}},
{"type": "Feature", "properties": {"ProjectID": "P5547", "Operator": null, "OBJECTID": null, "AnalysisArea": null, "Count_": null, "NUM_UNITS": null, "VAL_METHOD": null, "EXP_FUEL": null, "EXP_POWER": null, "WEBSITE": null, "ZIP": null, "COUNTRY": null, "COUNTYFIPS": null, "COUNTY": null, "OP_COMP_HR": null, "GCOMPID": null, "PLANT_COST": null, "STATUS": null, "EXP_OTHER": null, "OP_DATE_PE": null, "CITY": null, "LONGITUDE": null, "COMPID": null, "PIPECO": null, "POSREL": null, "VAL_DATE": null, "LATITUDE": null, "ZIP4": null, "SOURCE": null, "OP_NUM_COM": null, "CERT_HP": null, "ADDRESS": null, "NAME": null, "STATE": null, "GAS_COMPRE": null, "NAICS_DESC": null, "ELEC_COMPR": null, "TYPE": null, "NAICS_CODE": null, "SOURCEDATE": null, "layer": "P5547", "path": "/Users/char/Desktop/gem o&g resources/gis data/ANR/P5547.geojson"}, "geometry": {"type": "LineString", "coordinates": [[-88.494235, 42.288318], [-88.49539, 42.28834]]}}
]
}
