{
"type": "FeatureCollection",
"features": [
{"type": "Feature", "id": "way/126100344", "properties": {"ProjectID": "P5585", "@id": "way/126100344", "diameter": "1420 mm", "flow_direction": "forward", "layer": "-1", "location": "underground", "man_made": "pipeline", "name": "Грязовец — Выборг 2", "name:en": "Gryazovets — Vyborg 2", "old_name": "Северо-Европейский газопровод 2", "operator": "ООО «Газпром трансгаз Санкт-Петербург»", "place:destination": "КС «Портовая»", "place:origin": "Грязовец", "pressure": "98", "ref": "СЕГ 2", "substance": "gas", "usage": "transmission"}, "geometry": {"type": "LineString", "coordinates": [[32.38272, 59.787518], [32.380648, 59.787833], [32.379997, 59.787902], [32.375566, 59.788332], [32.372533, 59.788565], [32.368858, 59.788933], [32.365279, 59.789308], [32.364151, 59.789376], [32.361821, 59.789465], [32.361294, 59.789515], [32.359288, 59.789849], [32.357783, 59.790035], [32.34375, 59.79111], [32.343565, 59.791061], [32.342805, 59.788526], [32.342716, 59.788472], [32.340699, 59.788112], [32.340122, 59.788057], [32.339345, 59.788092], [32.338767, 59.78821], [32.334563, 59.789792], [32.331002, 59.791234], [32.330683, 59.791273], [32.329809, 59.791219], [32.327489, 59.791135], [32.326131, 59.79104], [32.325476, 59.791041], [32.317328, 59.791544], [32.316618, 59.791641], [32.315673, 59.791879], [32.315196, 59.792095], [32.311817, 59.794089], [32.311511, 59.794173], [32.310819, 59.794223], [32.305508, 59.794213], [32.305074, 59.794254], [32.284696, 59.797731], [32.282563, 59.798038], [32.273463, 59.799588], [32.272942, 59.799631], [32.268728, 59.79984], [32.268389, 59.799886], [32.263965, 59.801142], [32.263608, 59.801188], [32.262129, 59.801154], [32.261771, 59.801098], [32.258376, 59.800175], [32.257661, 59.800125], [32.243252, 59.800597], [32.240067, 59.800753], [32.234977, 59.801088], [32.230582, 59.80127], [32.217458, 59.80195], [32.212666, 59.802313], [32.203432, 59.802834], [32.184133, 59.803988], [32.142831, 59.806332], [32.129059, 59.806992], [32.126976, 59.807142], [32.066039, 59.81246], [32.059675, 59.813144], [32.057425, 59.813478], [32.056809, 59.813546], [32.051698, 59.813564], [32.050976, 59.813588], [32.030088, 59.814773], [32.029719, 59.814837], [32.023958, 59.816285], [32.023724, 59.816285], [32.019465, 59.81554], [32.019256, 59.815549], [31.97054, 59.828393], [31.934739, 59.837799], [31.933129, 59.838306], [31.887259, 59.852984], [31.887071, 59.853085], [31.886575, 59.853429], [31.88635, 59.853538], [31.884113, 59.854301], [31.883818, 59.854352], [31.883047, 59.854359], [31.882742, 59.854415], [31.870425, 59.858527], [31.864649, 59.860495], [31.863504, 59.860984], [31.861416, 59.86171], [31.860083, 59.862059], [31.829839, 59.872269], [31.829121, 59.872459], [31.826966, 59.872879], [31.826766, 59.872972], [31.822524, 59.878012], [31.822147, 59.878261], [31.821531, 59.878493], [31.818439, 59.879145], [31.818025, 59.879284], [31.814089, 59.881768], [31.813891, 59.882004], [31.812999, 59.885425], [31.812841, 59.885525], [31.811744, 59.885767], [31.811164, 59.885835], [31.800908, 59.885641], [31.800407, 59.885735], [31.800023, 59.885893], [31.798479, 59.886982], [31.798234, 59.887178], [31.797469, 59.887961], [31.797128, 59.888132], [31.794506, 59.888863], [31.792388, 59.889569], [31.791828, 59.889832], [31.78878, 59.89159], [31.78836, 59.891722], [31.787865, 59.891778], [31.785351, 59.891869], [31.78503, 59.891927], [31.776286, 59.895015], [31.775637, 59.895111], [31.770583, 59.895357], [31.769922, 59.895413], [31.762709, 59.896159], [31.762219, 59.896257], [31.758447, 59.897668], [31.758212, 59.897699], [31.753452, 59.897452], [31.753001, 59.897492], [31.722195, 59.905894], [31.722018, 59.906002], [31.720447, 59.909135], [31.720269, 59.909319], [31.716545, 59.911689], [31.716233, 59.911758], [31.706989, 59.911624], [31.706525, 59.911653], [31.691018, 59.913869], [31.690374, 59.913995], [31.687346, 59.914969], [31.687102, 59.914991], [31.683468, 59.914535], [31.682913, 59.914515], [31.672952, 59.914918], [31.672616, 59.914967], [31.670846, 59.915572], [31.670558, 59.915594], [31.666618, 59.915165], [31.666086, 59.915147], [31.652547, 59.915655], [31.652233, 59.915714], [31.651063, 59.916264], [31.649678, 59.917164], [31.647825, 59.918604], [31.647595, 59.918663], [31.642992, 59.918867], [31.642691, 59.918846], [31.636114, 59.917169], [31.633138, 59.916495], [31.596339, 59.909991], [31.595954, 59.909953], [31.583202, 59.909528], [31.582757, 59.909481], [31.568441, 59.906436], [31.566607, 59.905995], [31.560959, 59.904393], [31.560471, 59.904284], [31.558356, 59.903819], [31.558144, 59.903728], [31.557606, 59.903337], [31.557315, 59.903192], [31.553764, 59.90211], [31.535115, 59.896474], [31.534721, 59.89638], [31.52892, 59.895461], [31.494895, 59.889657], [31.494071, 59.889573], [31.486945, 59.889094], [31.475341, 59.888463], [31.474561, 59.888451], [31.472205, 59.888495], [31.471684, 59.888525], [31.470175, 59.888696], [31.469784, 59.888712], [31.468031, 59.888611], [31.467579, 59.888553], [31.464678, 59.888087], [31.464028, 59.888029], [31.461009, 59.887945], [31.460656, 59.8879], [31.458994, 59.887355], [31.458597, 59.887298], [31.455154, 59.887304], [31.454843, 59.887242], [31.453837, 59.886616], [31.453421, 59.886515], [31.417345, 59.882229], [31.416813, 59.882182], [31.414064, 59.882016], [31.41358, 59.881963], [31.412924, 59.881842], [31.412434, 59.881782], [31.396304, 59.880674], [31.395635, 59.88064], [31.376625, 59.880214], [31.375398, 59.880244], [31.374149, 59.880369], [31.357515, 59.882874], [31.357327, 59.882854], [31.355782, 59.882098], [31.355608, 59.882082], [31.344881, 59.883763], [31.344276, 59.88382], [31.343608, 59.883791], [31.340543, 59.88346], [31.339993, 59.883483], [31.331899, 59.884926], [31.331381, 59.884973], [31.32941, 59.88504], [31.328931, 59.885095], [31.305539, 59.89044], [31.305099, 59.890517], [31.30206, 59.890762], [31.301558, 59.89088], [31.299924, 59.891545], [31.299501, 59.891643], [31.289349, 59.892716], [31.288924, 59.892709], [31.287691, 59.892506], [31.287374, 59.892386], [31.284979, 59.890825], [31.284744, 59.890573], [31.283811, 59.889028], [31.28351, 59.88887], [31.282118, 59.888543], [31.28166, 59.888353], [31.280842, 59.887755], [31.280072, 59.887395], [31.279664, 59.887327], [31.274251, 59.887402], [31.273108, 59.887407], [31.255146, 59.887041], [31.2477, 59.886833], [31.247132, 59.886795], [31.232471, 59.88498], [31.231821, 59.884946], [31.22592, 59.884904], [31.224835, 59.884801], [31.224712, 59.88476], [31.224363, 59.88445], [31.224212, 59.884407], [31.222005, 59.884417], [31.221659, 59.884397], [31.2182, 59.88392], [31.214245, 59.88328], [31.213648, 59.883237], [31.210927, 59.883253], [31.210482, 59.883287], [31.206383, 59.883749], [31.205767, 59.883789], [31.185907, 59.884301], [31.136365, 59.884729], [31.136184, 59.884681], [31.135669, 59.884314], [31.135528, 59.884281], [31.133937, 59.884279], [31.133604, 59.884303], [31.130006, 59.884791], [31.12934, 59.884819], [31.122599, 59.88487], [31.122469, 59.884928], [31.122108, 59.885815], [31.121945, 59.885877], [31.104355, 59.88609], [31.104013, 59.886127], [31.102951, 59.886482], [31.102739, 59.886613], [31.101471, 59.887792], [31.101205, 59.887899], [31.098167, 59.888336], [31.095538, 59.888855], [31.095131, 59.888963], [31.086246, 59.892054], [31.076025, 59.89533], [31.071109, 59.897118], [31.07066, 59.897352], [31.070215, 59.897737], [31.069804, 59.897941], [31.064726, 59.89928], [31.064015, 59.899487], [31.060309, 59.900715], [31.040199, 59.907752], [31.040105, 59.907851], [31.040412, 59.910033], [31.040299, 59.910121], [31.035669, 59.910835], [31.035315, 59.910929], [31.033327, 59.911588], [31.031686, 59.911955], [31.031263, 59.911982], [31.025458, 59.911504], [31.025027, 59.91152], [31.018968, 59.912689], [31.018736, 59.912782], [31.017021, 59.914284], [31.016405, 59.91468], [31.01492, 59.915339], [31.014438, 59.915531], [31.007959, 59.917551], [31.007654, 59.917567], [31.006518, 59.917447], [31.004793, 59.917183], [31.000253, 59.916352], [30.999871, 59.916336], [30.996678, 59.916596], [30.996332, 59.91657], [30.99413, 59.915782], [30.992782, 59.915434], [30.992656, 59.915455], [30.992414, 59.915777], [30.992305, 59.915795], [30.991183, 59.915614], [30.99113, 59.915567], [30.991301, 59.915264], [30.991219, 59.915203], [30.989766, 59.914957], [30.978781, 59.913423], [30.978678, 59.913439], [30.978532, 59.91359], [30.978442, 59.913605], [30.978222, 59.913557], [30.978136, 59.91357], [30.975592, 59.916107], [30.974166, 59.917295], [30.973905, 59.917447], [30.973156, 59.917819], [30.970652, 59.918815], [30.970452, 59.91885], [30.97029, 59.918811], [30.966591, 59.916535], [30.966323, 59.916473], [30.939047, 59.915679], [30.938676, 59.915715], [30.93327, 59.917414], [30.931679, 59.918047], [30.922296, 59.921115], [30.92209, 59.921233], [30.92202, 59.921731], [30.921901, 59.921836], [30.921072, 59.922144], [30.920771, 59.922218], [30.919228, 59.922461], [30.918647, 59.922568], [30.913667, 59.923667], [30.912988, 59.923795], [30.909204, 59.924467], [30.908865, 59.924488], [30.905596, 59.924265], [30.904939, 59.924237], [30.851598, 59.92262], [30.78847, 59.920626], [30.787978, 59.920662], [30.785591, 59.921192], [30.785426, 59.921311], [30.784121, 59.930174], [30.784125, 59.930463], [30.784749, 59.934077], [30.784819, 59.936773], [30.784768, 59.937014], [30.782817, 59.940886], [30.7827, 59.941241], [30.781687, 59.947583], [30.781829, 59.94782], [30.792601, 59.956702], [30.792835, 59.956973], [30.801127, 59.970719], [30.801412, 59.971059], [30.815734, 59.983212], [30.816051, 59.983576], [30.820206, 59.9902], [30.820489, 59.990508], [30.826734, 59.995557], [30.827336, 59.995919], [30.829889, 59.998025], [30.83036, 59.998367], [30.832003, 59.999468], [30.832425, 59.999786], [30.833702, 60.000847], [30.834102, 60.001241], [30.839012, 60.006457], [30.838995, 60.006598], [30.838447, 60.007181], [30.838143, 60.007397], [30.823461, 60.022495], [30.823413, 60.022607], [30.823456, 60.02287], [30.823418, 60.022967], [30.820345, 60.0261], [30.820302, 60.026223], [30.820933, 60.030066], [30.820806, 60.030285], [30.809062, 60.039706], [30.808652, 60.040126], [30.802983, 60.047021], [30.80284, 60.047328], [30.802506, 60.050232], [30.802323, 60.050552], [30.795226, 60.057432], [30.775646, 60.07566], [30.775217, 60.075959], [30.768913, 60.080077], [30.768683, 60.080329], [30.767809, 60.08274], [30.767783, 60.083002], [30.768725, 60.087701], [30.768612, 60.087816], [30.766821, 60.088498], [30.764353, 60.089766], [30.76387, 60.089972], [30.760844, 60.090996], [30.760532, 60.091141], [30.756896, 60.093315], [30.756564, 60.093548], [30.739211, 60.11125], [30.733656, 60.1171], [30.732986, 60.11752], [30.731597, 60.118946], [30.731605, 60.119068], [30.752421, 60.133904], [30.779206, 60.153028], [30.79051, 60.161058], [30.790738, 60.161141], [30.796917, 60.161685], [30.80925, 60.163092], [30.809781, 60.163114], [30.814318, 60.162923], [30.81494, 60.162946], [30.822671, 60.163716], [30.823099, 60.163786], [30.825162, 60.164303], [30.825428, 60.164308], [30.830216, 60.163474], [30.830582, 60.163468], [30.844328, 60.164751], [30.844687, 60.164725], [30.860091, 60.15945], [30.860498, 60.159414], [30.867193, 60.160058], [30.86747, 60.160141], [30.870578, 60.162424], [30.871188, 60.163049], [30.871887, 60.163579], [30.872111, 60.163618], [30.876519, 60.163438], [30.877081, 60.163443], [30.883678, 60.164204], [30.883817, 60.164319], [30.882042, 60.16814], [30.882144, 60.168231], [30.889743, 60.169113], [30.889891, 60.169222], [30.88836, 60.172022], [30.888274, 60.172286], [30.887576, 60.176084], [30.887484, 60.176372], [30.874079, 60.20441], [30.87416, 60.204535], [30.885814, 60.208293], [30.891318, 60.210039], [30.891688, 60.210103], [30.896757, 60.21018], [30.897036, 60.210255], [30.898739, 60.211845], [30.898788, 60.211946], [30.897957, 60.223897], [30.89784, 60.224034], [30.893217, 60.226944], [30.893093, 60.227058], [30.892876, 60.227312], [30.892725, 60.227433], [30.890339, 60.228951], [30.890156, 60.22904], [30.889797, 60.229162], [30.889617, 60.229242], [30.881412, 60.234483], [30.881272, 60.234628], [30.876268, 60.242531], [30.873924, 60.245857], [30.873928, 60.245965], [30.882915, 60.255191], [30.882882, 60.255323], [30.868024, 60.266198], [30.867879, 60.266349], [30.853115, 60.292184], [30.852882, 60.292506], [30.846787, 60.299591], [30.846691, 60.299805], [30.846663, 60.302288], [30.846546, 60.302376], [30.842455, 60.303529], [30.842252, 60.303627], [30.820042, 60.316901], [30.819645, 60.317103], [30.813252, 60.319901], [30.813112, 60.319905], [30.779018, 60.305847], [30.778332, 60.305704], [30.768994, 60.304616], [30.768064, 60.304546], [30.759252, 60.304179], [30.758734, 60.304106], [30.756839, 60.303576], [30.756665, 60.303398], [30.756622, 60.297244], [30.75644, 60.297169], [30.743831, 60.297186], [30.743209, 60.297215], [30.735652, 60.297818], [30.71061, 60.299644], [30.709503, 60.299705], [30.681258, 60.301059], [30.68114, 60.301138], [30.682018, 60.306352], [30.68183, 60.306477], [30.667821, 60.307842], [30.667631, 60.307916], [30.661036, 60.31507], [30.66073, 60.315149], [30.632617, 60.31489], [30.632296, 60.314956], [30.628742, 60.316702], [30.628583, 60.316897], [30.627923, 60.321394], [30.627721, 60.321506], [30.614659, 60.322408], [30.614342, 60.322514], [30.608265, 60.326524], [30.608045, 60.326782], [30.604874, 60.335659], [30.604874, 60.335912], [30.607032, 60.344287], [30.606946, 60.344689], [30.605897, 60.345782], [30.605494, 60.345975], [30.60006, 60.346963], [30.599824, 60.34705], [30.599583, 60.347186], [30.599373, 60.347263], [30.597426, 60.347589], [30.596927, 60.347732], [30.592566, 60.349778], [30.591922, 60.349914], [30.589589, 60.350097], [30.588586, 60.350128], [30.578118, 60.350893], [30.574789, 60.351222], [30.574127, 60.351304], [30.569088, 60.352139], [30.568827, 60.352132], [30.567563, 60.351762], [30.567324, 60.35176], [30.565223, 60.352212], [30.564597, 60.352277], [30.559829, 60.352222], [30.559185, 60.352249], [30.526498, 60.354835], [30.526045, 60.354961], [30.508868, 60.365427], [30.508511, 60.365504], [30.501146, 60.365272], [30.500881, 60.365296], [30.493421, 60.367146], [30.493026, 60.367295], [30.491066, 60.36874], [30.490906, 60.368977], [30.490915, 60.369242], [30.49195, 60.370995], [30.491903, 60.371174], [30.486789, 60.375633], [30.486536, 60.375795], [30.465058, 60.384913], [30.464962, 60.385027], [30.465913, 60.390903], [30.46572, 60.391066], [30.464466, 60.391484], [30.463945, 60.391605], [30.462096, 60.391928], [30.447739, 60.395314], [30.447637, 60.395408], [30.447401, 60.400329], [30.447312, 60.400385], [30.446597, 60.40037], [30.446504, 60.400417], [30.446509, 60.40136], [30.446364, 60.401531], [30.439942, 60.405228], [30.439508, 60.405431], [30.437576, 60.406123], [30.437427, 60.406221], [30.437228, 60.406759], [30.437082, 60.406901], [30.436076, 60.407506], [30.435791, 60.407587], [30.434866, 60.407725], [30.434212, 60.407746], [30.433881, 60.407802], [30.432438, 60.408634], [30.432274, 60.408833], [30.431938, 60.409785], [30.431709, 60.410041], [30.395706, 60.431184], [30.395636, 60.431269], [30.395701, 60.431573], [30.395659, 60.431645], [30.395513, 60.43169], [30.370959, 60.433771], [30.370322, 60.433871], [30.369302, 60.434135], [30.368523, 60.434286], [30.365575, 60.434636], [30.364929, 60.434753], [30.362571, 60.435352], [30.360897, 60.435626], [30.337573, 60.438414], [30.336936, 60.438458], [30.332696, 60.438535], [30.320727, 60.43872], [30.319333, 60.438778], [30.312624, 60.439221], [30.312303, 60.439286], [30.309669, 60.440278], [30.30941, 60.440261], [30.304285, 60.436999], [30.304284, 60.43687], [30.306625, 60.435317], [30.306625, 60.435223], [30.300153, 60.430985], [30.297671, 60.429533], [30.29735, 60.429271], [30.296094, 60.4276], [30.295794, 60.427414], [30.292977, 60.426551], [30.29235, 60.426268], [30.282731, 60.419964], [30.280825, 60.4187], [30.280713, 60.418552], [30.280683, 60.418072], [30.280505, 60.417909], [30.276368, 60.41635], [30.275775, 60.416199], [30.269947, 60.415184], [30.269135, 60.415096], [30.250987, 60.411994], [30.250384, 60.411991], [30.243915, 60.413149], [30.243307, 60.413208], [30.237031, 60.41348], [30.236446, 60.413616], [30.219814, 60.421701], [30.219687, 60.421841], [30.219664, 60.423321], [30.219487, 60.423439], [30.217287, 60.424017], [30.216993, 60.424174], [30.212052, 60.433063], [30.211868, 60.433178], [30.209822, 60.433501], [30.209403, 60.433537], [30.198897, 60.433759], [30.198644, 60.433875], [30.198781, 60.436076], [30.198663, 60.436133], [30.196992, 60.436179]]}},
{"type": "Feature", "id": "way/172977239", "properties": {"ProjectID": "P5585", "@id": "way/172977239", "diameter": "1420 mm", "flow_direction": "forward", "layer": "-1", "location": "underground", "man_made": "pipeline", "name": "Грязовец — Выборг 2", "name:en": "Gryazovets — Vyborg 2", "old_name": "Северо-Европейский газопровод 2", "operator": "ООО «Газпром трансгаз Санкт-Петербург»", "place:destination": "КС «Портовая»", "place:origin": "Грязовец", "pressure": "98", "ref": "СЕГ 2", "substance": "gas", "usage": "transmission"}, "geometry": {"type": "LineString", "coordinates": [[30.196992, 60.436179], [30.195269, 60.436213], [30.195108, 60.436188], [30.194531, 60.435831], [30.194382, 60.435796], [30.193922, 60.435808], [30.193821, 60.435833], [30.193553, 60.435976], [30.193332, 60.436027], [30.182807, 60.43633], [30.150734, 60.437158], [30.144978, 60.437254], [30.144623, 60.437302], [30.141763, 60.43809], [30.141517, 60.438092], [30.136823, 60.436722], [30.13663, 60.436728], [30.134259, 60.437371], [30.133931, 60.437414], [30.10119, 60.438496], [30.100741, 60.438454], [30.093701, 60.436715], [30.093149, 60.436641], [30.091049, 60.436474], [30.09091, 60.436492], [30.090491, 60.436683], [30.090336, 60.436696], [30.084995, 60.435851], [30.084221, 60.435762], [30.081595, 60.43555], [30.080642, 60.435436], [30.064461, 60.432957], [30.063155, 60.432712], [30.042348, 60.428106], [30.041977, 60.42793], [30.031059, 60.415978], [30.030684, 60.415763], [30.030137, 60.41562], [30.008936, 60.413026], [30.00866, 60.412895], [30.004359, 60.407309], [30.004161, 60.407156], [30.003823, 60.407018], [29.999926, 60.406004], [29.999338, 60.405916], [29.997087, 60.405704], [29.996528, 60.405693], [29.984541, 60.405745], [29.983086, 60.405705], [29.964345, 60.404722], [29.963423, 60.404724], [29.95963, 60.405066], [29.958579, 60.405106], [29.949198, 60.404717], [29.948557, 60.404775], [29.921163, 60.409683], [29.920267, 60.409803], [29.911533, 60.410311], [29.910908, 60.410412], [29.905449, 60.411986], [29.904762, 60.412094], [29.883931, 60.412878], [29.883467, 60.41293], [29.881356, 60.413295], [29.880832, 60.413349], [29.878851, 60.413436], [29.877984, 60.413426], [29.87435, 60.413266], [29.873567, 60.413264], [29.855637, 60.413889], [29.855044, 60.413845], [29.852237, 60.413068], [29.852064, 60.413077], [29.84376, 60.415607], [29.843529, 60.41561], [29.840031, 60.414594], [29.839557, 60.414539], [29.794157, 60.415997], [29.7937, 60.415942], [29.78804, 60.413844], [29.787685, 60.413646], [29.776911, 60.405233], [29.776723, 60.405214], [29.767518, 60.408134], [29.759482, 60.411591], [29.758971, 60.411722], [29.749167, 60.412747], [29.749037, 60.41282], [29.74728, 60.417176], [29.747077, 60.417303], [29.736398, 60.420285], [29.735954, 60.420312], [29.733985, 60.420101], [29.73349, 60.420092], [29.725866, 60.42067], [29.725452, 60.420612], [29.720686, 60.418032], [29.72041, 60.417795], [29.716718, 60.412095], [29.716499, 60.412018], [29.703083, 60.41148], [29.702554, 60.411476], [29.682105, 60.412785], [29.681674, 60.412882], [29.673785, 60.416169], [29.67342, 60.416201], [29.66326, 60.415489], [29.662878, 60.415404], [29.656784, 60.412869], [29.656513, 60.412872], [29.646485, 60.416093], [29.646174, 60.416107], [29.645031, 60.415945], [29.644259, 60.415773], [29.631277, 60.414143], [29.629161, 60.414027], [29.62648, 60.413787], [29.624294, 60.413446], [29.624038, 60.413349], [29.622123, 60.41147], [29.621899, 60.411385], [29.612899, 60.409982], [29.612694, 60.410007], [29.576385, 60.426196], [29.575544, 60.426474], [29.571781, 60.42744], [29.571404, 60.427598], [29.569632, 60.429012], [29.569078, 60.429317], [29.543251, 60.440575], [29.542819, 60.440824], [29.53426, 60.44669], [29.533983, 60.446782], [29.53206, 60.447055], [29.531771, 60.447209], [29.530991, 60.448844], [29.530633, 60.449106], [29.526337, 60.451225], [29.526088, 60.45148], [29.525799, 60.452312], [29.525642, 60.452526], [29.517746, 60.457915], [29.517256, 60.458205], [29.514767, 60.459178], [29.514421, 60.45939], [29.514157, 60.459732], [29.513936, 60.459908], [29.513155, 60.460413], [29.513038, 60.460613], [29.513523, 60.46217], [29.513421, 60.462357], [29.50523, 60.467913], [29.504922, 60.468186], [29.501703, 60.472391], [29.501358, 60.472575], [29.497771, 60.473551], [29.497326, 60.473749], [29.496293, 60.474522], [29.495947, 60.474711], [29.482799, 60.479495], [29.482458, 60.479686], [29.475244, 60.486607], [29.474841, 60.486884], [29.4713, 60.488855], [29.471079, 60.489109], [29.470048, 60.491587], [29.469851, 60.491831], [29.463594, 60.497992], [29.463422, 60.498288], [29.46312, 60.499372], [29.462915, 60.499642], [29.459677, 60.501782], [29.459344, 60.502113], [29.458424, 60.503302], [29.45732, 60.50501], [29.456286, 60.506895], [29.456187, 60.507205], [29.455464, 60.514537], [29.455531, 60.514892], [29.456055, 60.515744], [29.456141, 60.516013], [29.456198, 60.516973], [29.455947, 60.518995], [29.455883, 60.52006], [29.455939, 60.520278], [29.456315, 60.521112], [29.456352, 60.521367], [29.455994, 60.524972], [29.45573, 60.525408], [29.450532, 60.53112], [29.450074, 60.531442], [29.418539, 60.547688], [29.416757, 60.548596], [29.416421, 60.54867], [29.415543, 60.548672], [29.415169, 60.548729], [29.413619, 60.549574], [29.413516, 60.549723], [29.413493, 60.550144], [29.413367, 60.55027], [29.385678, 60.564128], [29.366822, 60.573798], [29.358483, 60.578136], [29.358446, 60.578241], [29.358914, 60.578966], [29.358817, 60.579139], [29.349486, 60.58383], [29.348822, 60.584145], [29.343241, 60.586734], [29.335334, 60.590695], [29.33506, 60.590903], [29.334524, 60.591427], [29.334191, 60.591648], [29.326798, 60.595168], [29.326355, 60.595416], [29.323732, 60.597001], [29.32327, 60.597161], [29.320938, 60.597626], [29.320519, 60.597743], [29.319302, 60.598119], [29.318784, 60.598254], [29.31788, 60.59845], [29.317314, 60.5986], [29.308361, 60.601449], [29.307594, 60.601815], [29.3054, 60.603098], [29.305104, 60.603149], [29.303733, 60.603001], [29.303303, 60.603042], [29.29113, 60.606815], [29.286939, 60.607982], [29.281544, 60.609319], [29.281275, 60.609446], [29.280699, 60.609864], [29.280313, 60.609995], [29.275016, 60.61089], [29.265313, 60.612718], [29.262934, 60.613087], [29.259575, 60.6135], [29.256456, 60.61382], [29.256341, 60.613793], [29.25564, 60.61304], [29.255485, 60.613009], [29.250869, 60.613438], [29.250299, 60.61358], [29.247317, 60.614647], [29.244701, 60.615449], [29.244034, 60.615674], [29.242295, 60.616327], [29.239533, 60.617238], [29.238239, 60.617592], [29.229976, 60.620379], [29.222301, 60.623061], [29.221352, 60.623469], [29.206857, 60.63008], [29.178125, 60.643938], [29.177546, 60.644327], [29.169382, 60.650509], [29.167943, 60.651353], [29.167537, 60.651661], [29.166206, 60.652932], [29.157345, 60.659651], [29.156322, 60.660382], [29.153388, 60.662211], [29.15305, 60.662321], [29.144871, 60.664029], [29.144631, 60.664229], [29.14529, 60.666348], [29.145136, 60.666544], [29.119544, 60.681697], [29.119154, 60.681827], [29.111354, 60.683844], [29.111151, 60.684033], [29.110923, 60.686744], [29.110712, 60.687022], [29.087689, 60.70041], [29.087389, 60.70049], [29.086885, 60.700533], [29.086592, 60.700621], [29.084299, 60.701727], [29.084047, 60.701938], [29.083136, 60.702993], [29.082787, 60.703279], [29.079021, 60.705476], [29.078571, 60.705615], [29.074165, 60.706317], [29.073937, 60.706426], [29.073389, 60.707568], [29.073161, 60.707767], [29.054334, 60.718913], [29.054022, 60.718998], [29.051897, 60.719199], [29.051756, 60.719271], [29.051547, 60.720556], [29.051463, 60.720695], [29.04639, 60.724378], [29.046222, 60.724462], [29.045694, 60.724647], [29.045461, 60.724775], [29.045017, 60.725305], [29.044793, 60.725513], [29.025398, 60.738847], [29.024829, 60.739125], [29.022668, 60.739931], [29.022187, 60.740151], [29.015175, 60.744154], [29.015083, 60.744361], [29.015791, 60.745376], [29.015804, 60.745578], [29.014004, 60.74955], [29.013807, 60.749827], [29.008798, 60.754027], [29.007496, 60.754763], [29.006958, 60.754909], [29.001776, 60.755438], [29.001118, 60.7556], [28.998678, 60.75698], [28.991718, 60.760687], [28.989687, 60.761883], [28.98471, 60.764503], [28.965415, 60.773878], [28.965018, 60.774161], [28.950261, 60.789297], [28.949677, 60.789631], [28.945469, 60.791107], [28.945193, 60.791297], [28.944542, 60.792004], [28.944312, 60.792191], [28.943354, 60.792839], [28.943107, 60.793139], [28.942968, 60.794794], [28.942758, 60.795052], [28.933774, 60.800738], [28.933737, 60.800932], [28.934433, 60.801741], [28.9344, 60.801843], [28.928005, 60.805965], [28.927795, 60.805992], [28.926249, 60.805809], [28.925897, 60.805872], [28.922704, 60.808167], [28.922382, 60.808368], [28.911207, 60.814022], [28.910614, 60.814319], [28.908415, 60.815256], [28.898839, 60.81885], [28.898344, 60.819077], [28.890233, 60.824022], [28.889827, 60.824349], [28.882193, 60.831777], [28.881614, 60.832268], [28.871688, 60.839228], [28.871312, 60.839544], [28.868501, 60.842623], [28.868156, 60.842903], [28.866242, 60.844061], [28.865995, 60.844275], [28.864031, 60.847257], [28.863564, 60.847747], [28.861554, 60.849575], [28.861113, 60.850122], [28.860532, 60.851196], [28.860146, 60.851663], [28.858699, 60.85297], [28.858207, 60.853548], [28.856661, 60.855903], [28.854403, 60.860412], [28.853932, 60.861105], [28.844339, 60.871125], [28.843905, 60.871411], [28.841378, 60.872839], [28.84129, 60.872989], [28.841196, 60.873625], [28.841009, 60.873945], [28.840148, 60.874643], [28.839388, 60.875424], [28.838038, 60.877339], [28.837472, 60.878101], [28.833121, 60.882517], [28.832908, 60.882631], [28.831923, 60.88297], [28.831764, 60.883042], [28.831362, 60.883526], [28.831339, 60.883672], [28.831601, 60.884003], [28.831596, 60.884131], [28.829017, 60.886763], [28.828832, 60.886891], [28.828414, 60.887118], [28.828266, 60.887226], [28.826805, 60.889007], [28.826319, 60.889454], [28.826081, 60.889581], [28.821752, 60.890725], [28.821377, 60.890898], [28.820068, 60.89193], [28.819886, 60.89215], [28.819591, 60.892745], [28.819427, 60.89297], [28.805659, 60.907279], [28.805348, 60.907431], [28.802983, 60.908056], [28.802891, 60.908136], [28.802855, 60.908435], [28.802749, 60.908521], [28.792748, 60.911515], [28.792341, 60.911575], [28.786609, 60.911804], [28.778378, 60.912274], [28.778009, 60.912247], [28.775488, 60.911716], [28.775199, 60.911734], [28.773042, 60.912501], [28.772607, 60.912574], [28.762734, 60.913027], [28.762097, 60.913013], [28.761138, 60.912893], [28.76067, 60.912851], [28.750545, 60.912389], [28.749327, 60.91239], [28.736615, 60.912858], [28.735034, 60.912892], [28.726675, 60.912712], [28.726253, 60.912762], [28.725005, 60.913234], [28.724586, 60.913303], [28.708919, 60.913812], [28.708426, 60.913864], [28.706784, 60.914192], [28.706451, 60.914208], [28.704906, 60.913879], [28.704479, 60.913813], [28.700239, 60.913462], [28.699998, 60.913486], [28.698611, 60.914074], [28.6982, 60.91416], [28.693019, 60.91429], [28.692745, 60.914368], [28.689272, 60.916919], [28.688606, 60.917198], [28.684862, 60.918161], [28.684246, 60.918254], [28.675535, 60.918813], [28.67508, 60.91875], [28.669899, 60.915872], [28.669437, 60.915674], [28.667564, 60.915177], [28.667188, 60.915129], [28.651579, 60.914994], [28.651119, 60.915011], [28.649909, 60.915166], [28.64935, 60.915176], [28.647615, 60.915049], [28.646716, 60.915001], [28.641565, 60.914892], [28.641306, 60.91482], [28.632906, 60.907043], [28.631919, 60.906297], [28.631329, 60.905738], [28.630792, 60.905227], [28.63046, 60.904987], [28.628196, 60.903761], [28.627681, 60.903537], [28.611824, 60.898846], [28.61104, 60.898705], [28.606384, 60.898424], [28.605504, 60.898319], [28.598938, 60.897197], [28.598423, 60.897218], [28.595816, 60.897698], [28.595258, 60.897703], [28.589454, 60.897161], [28.58866, 60.897161], [28.585362, 60.897335], [28.584583, 60.897343], [28.579594, 60.897302], [28.579154, 60.897187], [28.575283, 60.894182], [28.574668, 60.89389], [28.560891, 60.889767], [28.557232, 60.888873], [28.555663, 60.888616], [28.55128, 60.888387], [28.550792, 60.88826], [28.547898, 60.886302], [28.547548, 60.886144], [28.543076, 60.884633], [28.541987, 60.8843], [28.537685, 60.883177], [28.532636, 60.881685], [28.516342, 60.877542], [28.515366, 60.877261], [28.512154, 60.876165], [28.511056, 60.875928], [28.509739, 60.875825], [28.507609, 60.87588], [28.507243, 60.875837], [28.503235, 60.874828], [28.501207, 60.874212], [28.488955, 60.871131], [28.488573, 60.870948], [28.481941, 60.864989], [28.481806, 60.864771], [28.48181, 60.864177], [28.481712, 60.863986], [28.481016, 60.863345], [28.480554, 60.863036], [28.479162, 60.862397], [28.478807, 60.862183], [28.477241, 60.860785], [28.477087, 60.860508], [28.477648, 60.84208], [28.477734, 60.835623], [28.477562, 60.835432], [28.461517, 60.827126], [28.461284, 60.826946], [28.461156, 60.826705], [28.461036, 60.826322], [28.460873, 60.826101], [28.455137, 60.820976], [28.452165, 60.818052], [28.448287, 60.814715], [28.448071, 60.814418], [28.447726, 60.813492], [28.447486, 60.813195], [28.446352, 60.812329], [28.445896, 60.812176], [28.441983, 60.811729], [28.441589, 60.811641], [28.439574, 60.810665], [28.439278, 60.81046], [28.437891, 60.809072], [28.437725, 60.808771], [28.437337, 60.807169], [28.437084, 60.806878], [28.430663, 60.803714], [28.430415, 60.803621], [28.429672, 60.803403], [28.429198, 60.80321], [28.40748, 60.79225], [28.407098, 60.791956], [28.403588, 60.787553], [28.403383, 60.787159], [28.402965, 60.785042], [28.402777, 60.784875], [28.400846, 60.784116], [28.400712, 60.78398], [28.399866, 60.779669], [28.397934, 60.770375], [28.397752, 60.769898], [28.392847, 60.759749], [28.392654, 60.759168], [28.392536, 60.757286], [28.392407, 60.756988], [28.390443, 60.75553], [28.390304, 60.755268], [28.390229, 60.75411], [28.390025, 60.753864], [28.38117, 60.749648], [28.380498, 60.749459], [28.376622, 60.74901], [28.376258, 60.748908], [28.375055, 60.748229], [28.370502, 60.74566], [28.3694, 60.745038], [28.368753, 60.744825], [28.356693, 60.742347], [28.356039, 60.742178], [28.354545, 60.741722], [28.354124, 60.741521], [28.335889, 60.730715], [28.317221, 60.719601], [28.316926, 60.719453], [28.315595, 60.718989], [28.315416, 60.718871], [28.314787, 60.718133], [28.314553, 60.717925], [28.302169, 60.710246], [28.290321, 60.702917], [28.28928, 60.70236], [28.286116, 60.700725], [28.285724, 60.700579], [28.284795, 60.700287], [28.284631, 60.700202], [28.282943, 60.698446], [28.282589, 60.698193], [28.278199, 60.695534], [28.277824, 60.695399], [28.26575, 60.69254], [28.259282, 60.690976], [28.248106, 60.688201], [28.24484, 60.687339], [28.242964, 60.686945], [28.227933, 60.683298], [28.220657, 60.681552], [28.22001, 60.68138], [28.212951, 60.679079], [28.20742, 60.677419], [28.20705, 60.677271], [28.203809, 60.673613], [28.203556, 60.673513], [28.184029, 60.672031], [28.183376, 60.671907], [28.164807, 60.664946], [28.164378, 60.6649], [28.144001, 60.665489], [28.143441, 60.665465], [28.136728, 60.664748], [28.136275, 60.664687], [28.107824, 60.65703], [28.098061, 60.654428], [28.090409, 60.652627], [28.090154, 60.652471], [28.08773, 60.645143], [28.087714, 60.644649], [28.089876, 60.641452], [28.089828, 60.641169], [28.073016, 60.631973], [28.072868, 60.631755], [28.073215, 60.629837], [28.073467, 60.627166], [28.073869, 60.625507], [28.074373, 60.621631], [28.074252, 60.621269], [28.071076, 60.616158], [28.071114, 60.615573], [28.071403, 60.615321], [28.07288, 60.614649], [28.073058, 60.61447], [28.073087, 60.613003], [28.073008, 60.61282], [28.071562, 60.611484], [28.071473, 60.61128], [28.071873, 60.607666], [28.071943, 60.607413], [28.075316, 60.59846], [28.075275, 60.598239], [28.067832, 60.587189], [28.06774, 60.586871], [28.068726, 60.58076], [28.068695, 60.580458], [28.064025, 60.569624], [28.061099, 60.56274], [28.061087, 60.562451], [28.061418, 60.560755], [28.061405, 60.560324], [28.061255, 60.559624], [28.061112, 60.559477], [28.060626, 60.559095], [28.060488, 60.558874], [28.06047, 60.558656], [28.060569, 60.558565], [28.061128, 60.558414], [28.06123, 60.558334], [28.061169, 60.557321]]}},
{"type": "Feature", "id": "way/559454892", "properties": {"ProjectID": "P5585", "@id": "way/559454892", "diameter": "1420 mm", "flow_direction": "forward", "layer": "-1", "location": "underground", "man_made": "pipeline", "name": "Грязовец — Выборг 2", "name:en": "Gryazovets — Vyborg 2", "old_name": "Северо-Европейский газопровод 2", "operator": "ООО «Газпром трансгаз Ухта»", "place:destination": "КС «Портовая»", "place:origin": "Грязовец", "pressure": "98", "ref": "СЕГ 2", "substance": "gas", "usage": "transmission"}, "geometry": {"type": "LineString", "coordinates": [[40.220911, 58.758984], [40.220707, 58.759069], [40.21953, 58.759201], [40.219295, 58.759278], [40.219241, 58.759414], [40.220407, 58.762149], [40.22053, 58.762298], [40.220911, 58.762707], [40.221024, 58.762863], [40.221356, 58.763661], [40.223531, 58.769262], [40.22369, 58.769376], [40.225166, 58.769801], [40.225295, 58.769914], [40.225914, 58.771504], [40.225913, 58.771617], [40.225827, 58.771916], [40.22582, 58.772036], [40.226399, 58.774013], [40.226381, 58.774179], [40.224039, 58.777593], [40.223988, 58.777801], [40.224392, 58.780692], [40.224454, 58.780913], [40.224988, 58.781979], [40.225093, 58.782065], [40.225561, 58.782219], [40.225685, 58.782308], [40.227147, 58.785466], [40.22707, 58.785621], [40.216207, 58.791311], [40.207611, 58.795608], [40.197662, 58.800877], [40.1973, 58.801027], [40.195704, 58.801608], [40.195349, 58.801748], [40.193896, 58.802432], [40.193582, 58.802622], [40.192439, 58.803615], [40.192226, 58.803763], [40.190165, 58.804906], [40.187481, 58.806119], [40.186993, 58.806216], [40.185632, 58.806354], [40.185165, 58.806362], [40.180637, 58.806253], [40.180286, 58.80635], [40.142254, 58.838427], [40.141696, 58.838666], [40.139282, 58.83911], [40.1388, 58.839354], [40.136245, 58.842165], [40.136208, 58.84233], [40.136757, 58.843229], [40.136738, 58.843376], [40.127703, 58.853295], [40.123446, 58.858804], [40.120939, 58.861749], [40.119474, 58.863121], [40.118919, 58.863488], [40.113176, 58.866295], [40.11269, 58.866591], [40.109683, 58.869226], [40.109186, 58.86947], [40.105933, 58.870441], [40.105781, 58.870524], [40.105737, 58.870619], [40.105807, 58.872297], [40.105632, 58.872635], [40.099011, 58.87806], [40.097898, 58.879047], [40.09538, 58.881124], [40.093441, 58.882603], [40.091555, 58.884153], [40.090652, 58.885006], [40.086741, 58.888111], [40.076749, 58.896227], [40.076251, 58.896704], [40.072671, 58.900838], [40.070661, 58.902608], [40.070229, 58.902856], [40.069245, 58.903229], [40.068721, 58.903365], [40.063636, 58.904202], [40.062817, 58.904282], [40.061923, 58.904279], [40.047922, 58.902205], [40.047281, 58.902138], [40.044773, 58.902116], [40.04428, 58.902087], [40.043066, 58.901934], [40.042703, 58.901925], [40.042265, 58.901982], [40.041396, 58.902294], [40.040897, 58.902402], [40.034495, 58.9028], [40.030767, 58.902994], [40.025985, 58.903071], [40.018998, 58.902904], [39.98799, 58.902489], [39.971617, 58.902314], [39.971157, 58.902386], [39.963806, 58.905085], [39.963487, 58.905287], [39.954272, 58.916919], [39.954122, 58.916956], [39.953174, 58.916739], [39.953001, 58.916756], [39.952086, 58.917128], [39.951981, 58.917229], [39.951849, 58.918298], [39.951905, 58.918399], [39.952563, 58.918893], [39.952596, 58.918987], [39.933588, 58.942322], [39.911524, 58.96915], [39.908068, 58.973173], [39.907669, 58.973412], [39.897418, 58.976546], [39.896774, 58.97667], [39.892683, 58.977169], [39.892017, 58.977297], [39.889057, 58.978269], [39.88881, 58.978417], [39.887027, 58.980197], [39.88398, 58.984616], [39.883569, 58.984953], [39.883046, 58.985184], [39.876601, 58.986987], [39.875885, 58.987288], [39.869437, 58.990841], [39.868958, 58.991008], [39.862144, 58.99211], [39.861721, 58.992244], [39.85407, 58.996592], [39.853468, 58.996826], [39.842462, 58.999739], [39.826836, 59.004188], [39.796957, 59.012518], [39.795734, 59.012821], [39.79007, 59.014002], [39.782686, 59.015667], [39.778612, 59.016454], [39.775629, 59.016951], [39.771234, 59.017658], [39.770811, 59.017687], [39.770079, 59.017633], [39.769721, 59.017658], [39.765973, 59.018617], [39.765802, 59.018767], [39.765997, 59.019303], [39.7659, 59.019462], [39.757419, 59.023303], [39.756852, 59.02351], [39.753908, 59.024497], [39.753253, 59.024649], [39.752747, 59.024737], [39.751624, 59.024824], [39.751304, 59.024924], [39.750319, 59.025551], [39.750023, 59.025692], [39.73688, 59.029678], [39.730586, 59.031881], [39.730371, 59.03189], [39.729666, 59.031678], [39.72948, 59.031679], [39.719778, 59.034584], [39.71969, 59.03468], [39.719792, 59.035033], [39.71969, 59.035146], [39.696269, 59.042071], [39.6962, 59.042148], [39.696919, 59.043527], [39.696858, 59.043623], [39.684866, 59.047143], [39.684597, 59.047151], [39.681303, 59.046116], [39.681123, 59.046121], [39.663162, 59.051462], [39.662773, 59.05153], [39.661162, 59.0516], [39.660791, 59.051659], [39.659587, 59.052002], [39.659367, 59.052112], [39.658529, 59.052845], [39.658173, 59.053001], [39.631954, 59.0612], [39.63183, 59.061197], [39.631417, 59.061021], [39.631287, 59.061019], [39.621679, 59.063952], [39.621215, 59.064009], [39.616717, 59.064025], [39.616495, 59.064059], [39.616372, 59.064139], [39.615663, 59.065368], [39.615454, 59.065529], [39.613809, 59.066347], [39.613513, 59.066457], [39.607257, 59.068377], [39.607184, 59.068475], [39.607437, 59.068838], [39.607399, 59.068902], [39.599537, 59.073176], [39.573689, 59.086384], [39.546914, 59.100325], [39.546681, 59.100355], [39.54526, 59.100192], [39.545063, 59.100222], [39.544351, 59.10062], [39.544112, 59.100696], [39.543269, 59.100857], [39.542916, 59.100973], [39.542216, 59.101349], [39.54221, 59.10143], [39.542438, 59.101576], [39.542427, 59.101648], [39.541209, 59.1023], [39.537109, 59.104447], [39.536852, 59.104515], [39.535995, 59.104599], [39.535781, 59.104661], [39.535009, 59.105049], [39.534813, 59.105185], [39.533839, 59.106109], [39.533586, 59.10628], [39.520871, 59.113092], [39.513407, 59.116031], [39.494919, 59.124041], [39.49463, 59.124111], [39.491731, 59.124487], [39.491515, 59.124571], [39.490182, 59.125826], [39.489943, 59.12597], [39.485825, 59.127462], [39.485311, 59.127619], [39.48123, 59.128532], [39.481007, 59.128661], [39.480383, 59.129485], [39.480107, 59.129652], [39.476026, 59.131263], [39.472762, 59.132256], [39.472128, 59.132498], [39.469953, 59.133478], [39.4679, 59.13425], [39.46755, 59.134313], [39.464914, 59.134084], [39.464564, 59.134141], [39.462533, 59.134953], [39.462331, 59.134978], [39.457546, 59.13454], [39.439208, 59.132505], [39.438682, 59.132417], [39.429711, 59.130641], [39.429268, 59.130502], [39.42576, 59.128659], [39.425346, 59.128546], [39.42015, 59.127666], [39.419631, 59.127636], [39.407535, 59.127936], [39.407061, 59.127914], [39.402436, 59.127096], [39.402203, 59.127108], [39.400999, 59.127711], [39.400075, 59.128071], [39.399854, 59.12811], [39.397984, 59.128069], [39.397788, 59.128124], [39.393219, 59.131647], [39.392776, 59.132042], [39.38597, 59.138823], [39.385621, 59.139066], [39.373658, 59.146009], [39.373241, 59.146076], [39.366965, 59.145331], [39.36381, 59.144876], [39.344034, 59.14235], [39.343673, 59.142273], [39.342078, 59.141807], [39.341676, 59.141736], [39.340165, 59.141542], [39.339794, 59.141514], [39.338038, 59.141538], [39.337625, 59.141515], [39.318768, 59.139127], [39.276853, 59.133505], [39.276404, 59.133418], [39.275072, 59.133004], [39.274741, 59.132933], [39.274258, 59.132879], [39.272181, 59.132858], [39.271828, 59.132831], [39.262983, 59.131576], [39.258245, 59.130861], [39.248342, 59.129505], [39.239537, 59.12838], [39.233028, 59.127486], [39.21779, 59.1253], [39.212797, 59.124706], [39.199034, 59.123033], [39.198371, 59.122926], [39.194586, 59.122198], [39.193859, 59.122091], [39.188951, 59.121645], [39.188443, 59.121594], [39.169145, 59.119046], [39.168792, 59.119011], [39.163278, 59.118822], [39.163106, 59.118776], [39.162393, 59.118364], [39.16223, 59.118328], [39.160241, 59.118269], [39.160064, 59.118291], [39.159314, 59.118535], [39.159095, 59.11856], [39.15569, 59.118524], [39.151216, 59.118582], [39.132248, 59.118184], [39.116358, 59.117989], [39.115434, 59.117923], [39.110141, 59.11726], [39.109546, 59.117273], [39.107312, 59.117623], [39.106816, 59.117652], [39.099636, 59.117489], [39.099181, 59.117452], [39.092668, 59.116237], [39.09231, 59.11625], [39.087712, 59.117288], [39.086994, 59.117343], [39.062146, 59.116972], [39.05263, 59.116623], [39.038373, 59.116653], [39.037736, 59.116574], [39.033326, 59.115338], [39.032753, 59.115258], [39.027191, 59.11513], [39.027093, 59.11518], [39.026941, 59.11699], [39.026786, 59.117542], [39.026835, 59.118352], [39.02663, 59.121084], [39.026573, 59.121291], [39.025738, 59.122948], [39.025596, 59.123042], [39.020493, 59.124579], [39.020245, 59.124688], [39.018893, 59.125451], [39.018582, 59.12556], [39.014646, 59.126435], [39.012515, 59.126787], [39.012204, 59.12686], [39.009578, 59.127543], [39.001681, 59.129248], [39.00107, 59.129355], [38.990546, 59.130674], [38.990158, 59.130693], [38.985715, 59.130572], [38.985308, 59.130601], [38.982412, 59.13104], [38.97779, 59.132147], [38.977125, 59.132277], [38.94456, 59.136988], [38.944183, 59.137064], [38.941944, 59.1376], [38.941825, 59.1377], [38.942361, 59.139247], [38.942199, 59.139363], [38.929798, 59.142279], [38.929133, 59.142394], [38.919853, 59.143566], [38.895895, 59.146345], [38.894872, 59.14644], [38.882412, 59.147287], [38.881673, 59.147376], [38.8768, 59.148147], [38.876369, 59.148147], [38.874401, 59.147855], [38.873865, 59.147851], [38.865105, 59.148434], [38.864932, 59.148388], [38.860433, 59.143038], [38.860134, 59.142985], [38.848997, 59.145437], [38.848679, 59.145418], [38.834059, 59.139603], [38.833797, 59.139415], [38.832573, 59.137914], [38.832313, 59.137723], [38.827215, 59.135612], [38.824483, 59.134757], [38.822792, 59.134177], [38.822426, 59.134094], [38.820003, 59.13386], [38.819539, 59.133744], [38.817286, 59.132826], [38.816882, 59.132578], [38.814355, 59.130522], [38.813762, 59.129896], [38.812443, 59.128841], [38.811645, 59.128352], [38.810341, 59.127311], [38.810122, 59.12704], [38.81001, 59.126794], [38.809897, 59.126767], [38.80726, 59.126923], [38.806593, 59.126889], [38.804292, 59.126556], [38.801421, 59.126255], [38.800804, 59.126314], [38.797494, 59.127019], [38.796941, 59.127086], [38.79338, 59.127169], [38.792773, 59.127269], [38.790469, 59.127958], [38.790132, 59.127955], [38.787926, 59.127301], [38.78763, 59.127263], [38.782627, 59.127367], [38.782405, 59.12743], [38.782097, 59.128395], [38.781838, 59.128585], [38.767188, 59.131066], [38.76643, 59.131164], [38.762474, 59.131574], [38.761978, 59.131705], [38.752553, 59.137262], [38.752322, 59.137423], [38.750938, 59.138623], [38.750636, 59.138775], [38.748621, 59.139246], [38.747894, 59.139445], [38.74414, 59.140715], [38.736699, 59.143057], [38.731994, 59.144841], [38.731516, 59.144947], [38.722984, 59.146149], [38.718179, 59.146554], [38.717692, 59.146541], [38.706163, 59.144337], [38.705575, 59.144296], [38.702783, 59.144381], [38.702346, 59.144353], [38.69838, 59.143931], [38.697837, 59.143916], [38.690454, 59.144087], [38.689944, 59.144047], [38.688323, 59.143636], [38.687877, 59.143622], [38.685754, 59.14401], [38.684989, 59.144083], [38.681492, 59.144239], [38.680841, 59.14421], [38.678159, 59.14368], [38.677698, 59.143691], [38.673455, 59.144563], [38.67282, 59.144612], [38.656201, 59.14458], [38.646626, 59.144505], [38.645935, 59.144606], [38.644132, 59.145099], [38.641499, 59.146057], [38.636707, 59.148476], [38.627806, 59.151723], [38.626798, 59.152034], [38.624836, 59.152442], [38.62436, 59.152576], [38.619382, 59.154563], [38.618765, 59.15474], [38.616197, 59.15497], [38.615281, 59.155004], [38.607755, 59.154923], [38.607304, 59.154859], [38.602728, 59.153474], [38.602374, 59.153449], [38.600732, 59.153624], [38.600236, 59.153722], [38.597192, 59.15457], [38.596684, 59.154607], [38.589771, 59.15439], [38.589208, 59.154344], [38.586136, 59.153984], [38.585545, 59.153947], [38.574243, 59.153853], [38.573447, 59.153791], [38.570256, 59.15337], [38.569765, 59.153267], [38.569383, 59.153122], [38.568135, 59.152378], [38.567824, 59.152273], [38.566791, 59.152102], [38.566628, 59.152139], [38.566408, 59.152451], [38.566281, 59.152484], [38.564738, 59.152287], [38.563542, 59.152133], [38.563369, 59.152145], [38.562833, 59.152262], [38.562611, 59.152278], [38.561638, 59.152174], [38.56136, 59.152091], [38.561058, 59.151883], [38.560849, 59.15181], [38.558754, 59.151554], [38.558476, 59.151561], [38.557651, 59.151665], [38.557244, 59.151671], [38.552573, 59.151121], [38.552086, 59.151033], [38.550706, 59.150654], [38.550176, 59.150531], [38.545845, 59.149855], [38.541818, 59.149261]]}},
{"type": "Feature", "id": "way/741282242", "properties": {"ProjectID": "P5585", "@id": "way/741282242", "diameter": "1420 mm", "flow_direction": "forward", "layer": "-1", "location": "underground", "man_made": "pipeline", "name": "Грязовец — Выборг 2", "name:en": "Gryazovets — Vyborg 2", "old_name": "Северо-Европейский газопровод 2", "operator": "ООО «Газпром трансгаз Санкт-Петербург»", "place:destination": "КС «Портовая»", "place:origin": "Грязовец", "pressure": "98", "ref": "СЕГ 2", "substance": "gas", "usage": "transmission"}, "geometry": {"type": "LineString", "coordinates": [[34.317347, 59.493428], [34.316029, 59.493862], [34.315974, 59.493933], [34.316094, 59.494242], [34.315978, 59.494341], [34.315216, 59.49455], [34.314936, 59.494588], [34.313378, 59.494537], [34.313067, 59.494592], [34.307801, 59.496187], [34.30757, 59.496309], [34.306778, 59.497125], [34.306581, 59.497178], [34.299007, 59.497492], [34.297695, 59.497598], [34.289991, 59.498405], [34.289397, 59.498414], [34.280507, 59.497873], [34.279961, 59.497847], [34.272343, 59.497559], [34.266524, 59.497295], [34.258407, 59.496887], [34.257938, 59.496801], [34.247626, 59.493441], [34.247293, 59.493239], [34.24522, 59.49075], [34.244985, 59.490613], [34.243086, 59.490031], [34.242928, 59.489944], [34.242842, 59.489817], [34.242435, 59.488936], [34.242447, 59.488787], [34.242816, 59.488263], [34.242823, 59.488105], [34.242658, 59.487849], [34.242393, 59.487679], [34.23683, 59.485252], [34.22741, 59.481613], [34.226834, 59.481447], [34.223607, 59.480767], [34.223083, 59.480639], [34.219217, 59.479578], [34.219073, 59.47946], [34.218602, 59.476274], [34.218514, 59.476053], [34.21566, 59.472055], [34.215419, 59.471865], [34.214199, 59.471182], [34.213898, 59.471073], [34.21238, 59.470692], [34.21221, 59.47062], [34.212139, 59.470527], [34.212043, 59.469952], [34.211952, 59.469901], [34.208931, 59.469574], [34.208714, 59.469581], [34.204397, 59.470285], [34.204138, 59.470313], [34.20069, 59.470388], [34.200562, 59.47042], [34.19961, 59.471264], [34.199453, 59.471286], [34.185262, 59.470035], [34.184993, 59.470047], [34.182426, 59.47056], [34.170078, 59.47376], [34.169675, 59.473886], [34.167442, 59.474818], [34.163663, 59.476487], [34.150865, 59.482032], [34.146568, 59.483988], [34.140233, 59.487054], [34.120401, 59.496515], [34.084461, 59.513943], [34.083913, 59.514241], [34.081466, 59.515813], [34.080937, 59.516073], [34.078734, 59.516926], [34.078514, 59.517058], [34.078392, 59.517211], [34.077918, 59.518867], [34.07785, 59.518935], [34.077731, 59.518976], [34.074716, 59.519558], [34.074105, 59.519748], [34.035703, 59.541137], [34.035191, 59.541351], [34.02723, 59.543861], [34.026498, 59.544149], [34.014649, 59.550423], [34.013917, 59.550967], [34.002593, 59.562672], [34.002336, 59.562894], [34.001402, 59.563585], [34.001134, 59.563818], [34.000869, 59.564108], [34.000633, 59.564285], [34.000145, 59.564494], [33.997344, 59.565436], [33.996815, 59.565571], [33.993522, 59.5663], [33.99275, 59.566535], [33.990091, 59.56759], [33.989465, 59.567915], [33.987164, 59.569435], [33.986969, 59.569645], [33.985839, 59.572095], [33.985731, 59.572154], [33.982182, 59.572471], [33.981864, 59.572557], [33.976243, 59.575041], [33.976158, 59.575149], [33.975989, 59.576224], [33.975875, 59.576346], [33.969007, 59.579351], [33.968747, 59.579378], [33.96661, 59.579263], [33.966284, 59.57931], [33.937297, 59.592074], [33.936951, 59.592182], [33.936518, 59.592224], [33.932421, 59.592109], [33.931783, 59.592033], [33.928771, 59.591336], [33.927117, 59.590918], [33.925834, 59.590649], [33.924772, 59.590497], [33.923853, 59.590463], [33.922766, 59.590535], [33.919254, 59.591118], [33.913984, 59.59185], [33.901705, 59.593806], [33.90119, 59.593957], [33.900762, 59.594239], [33.900318, 59.594783], [33.899115, 59.596988], [33.898887, 59.597196], [33.897703, 59.597768], [33.897233, 59.598024], [33.896707, 59.598396], [33.896515, 59.598442], [33.896273, 59.598423], [33.894969, 59.598052], [33.894412, 59.598001], [33.87675, 59.598073], [33.876117, 59.598102], [33.873807, 59.598263], [33.87313, 59.598282], [33.86687, 59.598142], [33.865284, 59.59813], [33.8426, 59.598207], [33.841798, 59.598305], [33.841059, 59.598563], [33.835392, 59.602151], [33.835273, 59.602312], [33.8355, 59.603336], [33.835423, 59.603514], [33.833615, 59.60498], [33.833489, 59.605008], [33.831861, 59.604953], [33.831234, 59.604961], [33.83096, 59.605008], [33.830305, 59.605223], [33.829436, 59.605426], [33.827255, 59.605809], [33.807881, 59.609636], [33.774515, 59.61644], [33.768427, 59.61775], [33.768067, 59.617867], [33.765872, 59.618973], [33.765734, 59.618999], [33.762617, 59.618997], [33.762203, 59.619047], [33.757948, 59.619982], [33.757523, 59.620104], [33.744627, 59.62587], [33.73513, 59.630093], [33.730591, 59.631793], [33.728403, 59.632508], [33.719486, 59.635899], [33.704464, 59.641835], [33.699809, 59.643974], [33.698041, 59.6447], [33.676868, 59.654559], [33.657669, 59.663216], [33.657452, 59.663339], [33.657076, 59.663626], [33.656872, 59.663748], [33.653981, 59.665019], [33.653766, 59.665094], [33.653246, 59.665238], [33.653053, 59.665298], [33.645828, 59.668611], [33.645265, 59.668822], [33.640577, 59.670288], [33.640219, 59.670447], [33.639716, 59.670795], [33.639585, 59.670994], [33.639223, 59.673303], [33.639125, 59.673376], [33.638943, 59.673408], [33.634251, 59.673608], [33.633825, 59.673662], [33.631633, 59.674277], [33.631105, 59.674437], [33.627338, 59.675921], [33.623635, 59.677317], [33.61819, 59.679303], [33.616802, 59.679745], [33.59723, 59.686999], [33.586487, 59.691038], [33.585699, 59.691237], [33.584757, 59.691307], [33.567118, 59.691324], [33.558625, 59.691389], [33.536986, 59.691377], [33.536657, 59.69141], [33.535659, 59.691594], [33.535203, 59.691629], [33.529529, 59.691635], [33.528922, 59.691675], [33.496922, 59.695268], [33.49602, 59.6954], [33.491747, 59.696119], [33.488458, 59.696743], [33.487842, 59.696825], [33.486059, 59.696966], [33.485914, 59.697017], [33.484397, 59.699143], [33.484077, 59.699291], [33.480756, 59.70001], [33.48032, 59.700055], [33.47153, 59.700076], [33.470952, 59.700045], [33.46293, 59.699022], [33.462546, 59.698904], [33.458477, 59.696793], [33.458124, 59.696731], [33.455314, 59.696692], [33.454796, 59.696715], [33.435414, 59.699166], [33.435166, 59.699182], [33.434983, 59.699127], [33.421012, 59.691705], [33.420241, 59.691377], [33.419755, 59.691198], [33.416288, 59.690126], [33.416112, 59.690089], [33.415923, 59.690085], [33.412225, 59.690469], [33.412016, 59.690574], [33.408424, 59.696571], [33.408144, 59.696905], [33.404213, 59.700967], [33.404019, 59.701268], [33.4035, 59.702568], [33.40333, 59.702641], [33.349423, 59.704692], [33.345051, 59.704802], [33.329722, 59.70549], [33.326185, 59.705561], [33.323929, 59.705641], [33.322575, 59.70564], [33.31684, 59.705411], [33.316442, 59.705441], [33.315094, 59.705713], [33.31472, 59.705743], [33.307767, 59.705594], [33.307436, 59.705643], [33.306121, 59.706039], [33.305916, 59.70606], [33.30574, 59.706024], [33.303039, 59.705085], [33.3026, 59.70501], [33.258756, 59.703739], [33.247682, 59.703426], [33.227269, 59.703093], [33.222822, 59.702989], [33.222412, 59.703035], [33.221206, 59.703321], [33.220891, 59.703364], [33.220168, 59.703382], [33.219967, 59.703335], [33.219649, 59.703097], [33.219505, 59.703061], [33.217204, 59.703], [33.216914, 59.702954], [33.216283, 59.70274], [33.215843, 59.702681], [33.204937, 59.702463], [33.204421, 59.70251], [33.202804, 59.702925], [33.202152, 59.702946], [33.198398, 59.702703], [33.197678, 59.702663], [33.186855, 59.70237], [33.186025, 59.702328], [33.185232, 59.702226], [33.184404, 59.702138], [33.180533, 59.701945], [33.174467, 59.701766], [33.146506, 59.701155], [33.144111, 59.701149], [33.133987, 59.700847], [33.133343, 59.700906], [33.090284, 59.709532], [33.078248, 59.712015], [33.077766, 59.712217], [33.065685, 59.720258], [33.060811, 59.723537], [33.05545, 59.727324], [33.045225, 59.734296], [33.045057, 59.734539], [33.044923, 59.735086], [33.044776, 59.735341], [33.044506, 59.735565], [33.042458, 59.736875], [33.042065, 59.73708], [33.041657, 59.737237], [33.040866, 59.737494], [33.040519, 59.737647], [33.019179, 59.752543], [33.017247, 59.753901], [33.015574, 59.754901], [32.997126, 59.765686], [32.994051, 59.767575], [32.993347, 59.768104], [32.990566, 59.770825], [32.990387, 59.770877], [32.988379, 59.770924], [32.98816, 59.770973], [32.984195, 59.77323], [32.98393, 59.773434], [32.981787, 59.775326], [32.981598, 59.775417], [32.980309, 59.775774], [32.980094, 59.775877], [32.978046, 59.777771], [32.972053, 59.783948], [32.971869, 59.78403], [32.968993, 59.784646], [32.968753, 59.784649], [32.964098, 59.783807], [32.963734, 59.783783], [32.946035, 59.783783], [32.945675, 59.783834], [32.936541, 59.786278], [32.936223, 59.786409], [32.934869, 59.787452], [32.934684, 59.787498], [32.932145, 59.787433], [32.931819, 59.787464], [32.915199, 59.791888], [32.875394, 59.804007], [32.853423, 59.811357], [32.839159, 59.816209], [32.811963, 59.82558], [32.805218, 59.827957], [32.80379, 59.828434], [32.803069, 59.828531], [32.801502, 59.828579], [32.790987, 59.828401], [32.771287, 59.827962], [32.745815, 59.827451], [32.72705, 59.827092], [32.724307, 59.827006], [32.707496, 59.826775], [32.700311, 59.826767], [32.697766, 59.826722], [32.697481, 59.826755], [32.696441, 59.827057], [32.696197, 59.827086], [32.693148, 59.826988], [32.692969, 59.826947], [32.692204, 59.826542], [32.691971, 59.826487], [32.691719, 59.826468], [32.678458, 59.82628], [32.671822, 59.826257], [32.671407, 59.826314], [32.667455, 59.827552], [32.665454, 59.828161], [32.665339, 59.828153], [32.661603, 59.825083], [32.661502, 59.825067], [32.659494, 59.825369], [32.659303, 59.825367], [32.65509, 59.824207], [32.654894, 59.824184], [32.644453, 59.82409], [32.644063, 59.82404], [32.641685, 59.823446], [32.64153, 59.823395], [32.641128, 59.823201], [32.640978, 59.823148], [32.637373, 59.822257], [32.636818, 59.822166], [32.635405, 59.822045], [32.634896, 59.822037], [32.632615, 59.822206], [32.631978, 59.822201], [32.631827, 59.822176], [32.630948, 59.821813], [32.630747, 59.821755], [32.630462, 59.821714], [32.626589, 59.821427], [32.626131, 59.821411], [32.625178, 59.821391], [32.624766, 59.821374], [32.617275, 59.820805], [32.614654, 59.820652], [32.613594, 59.820566], [32.612151, 59.820422], [32.611679, 59.82043], [32.583394, 59.823758], [32.578618, 59.82437], [32.57647, 59.824595], [32.575106, 59.824689], [32.57237, 59.824717], [32.564655, 59.825022], [32.558995, 59.825337], [32.558487, 59.825387], [32.555935, 59.825798], [32.55575, 59.825795], [32.554339, 59.825407], [32.551402, 59.824653], [32.55058, 59.824477], [32.548442, 59.824114], [32.545515, 59.823533], [32.544694, 59.823304], [32.544367, 59.82317], [32.541803, 59.8217], [32.538398, 59.820148], [32.53838, 59.820121], [32.539474, 59.819121], [32.539458, 59.819063], [32.537883, 59.818329], [32.53755, 59.818259], [32.531063, 59.817536], [32.53003, 59.817458], [32.525548, 59.817371], [32.516271, 59.816955], [32.51602, 59.817014], [32.515462, 59.817894], [32.515278, 59.817962], [32.513993, 59.817925], [32.513512, 59.817868], [32.501767, 59.815612], [32.501514, 59.815528], [32.500377, 59.814803], [32.50001, 59.814634], [32.49993, 59.814522], [32.500153, 59.812991], [32.500077, 59.812773], [32.499678, 59.812359], [32.499322, 59.812075], [32.499077, 59.811925], [32.498564, 59.811695], [32.498157, 59.811547], [32.483015, 59.807245], [32.482435, 59.807152], [32.477919, 59.806768], [32.477629, 59.806697], [32.475787, 59.8059], [32.475491, 59.805829], [32.472558, 59.805596], [32.472274, 59.805534], [32.469212, 59.804267], [32.468959, 59.804071], [32.468557, 59.80345], [32.468333, 59.803221], [32.468004, 59.80304], [32.466994, 59.802655], [32.466265, 59.802415], [32.457405, 59.799979], [32.454323, 59.7991], [32.452732, 59.798603], [32.427163, 59.791355], [32.426943, 59.791321], [32.425813, 59.791302], [32.425516, 59.79128], [32.422418, 59.790917], [32.422278, 59.790872], [32.422231, 59.790783], [32.422553, 59.790174], [32.422542, 59.790101], [32.422418, 59.790033], [32.417411, 59.788569], [32.416869, 59.788466], [32.415809, 59.78828], [32.415298, 59.788162], [32.414725, 59.787951], [32.413868, 59.787554], [32.413499, 59.787424], [32.41129, 59.786839], [32.410855, 59.78676], [32.408826, 59.786521], [32.408414, 59.786447], [32.407786, 59.786273], [32.400554, 59.784461], [32.400109, 59.784427], [32.399579, 59.78447], [32.392918, 59.785543], [32.392653, 59.78563], [32.391692, 59.786117], [32.391328, 59.786219], [32.386602, 59.787001], [32.38364, 59.787378], [32.38272, 59.787518]]}},
{"type": "Feature", "id": "way/744184079", "properties": {"ProjectID": "P5585", "@id": "way/744184079", "diameter": "1420 mm", "flow_direction": "forward", "layer": "-1", "location": "underground", "man_made": "pipeline", "name": "Грязовец — Выборг 2", "name:en": "Gryazovets — Vyborg 2", "old_name": "Северо-Европейский газопровод 2", "operator": "ООО «Газпром трансгаз Санкт-Петербург»", "place:destination": "КС «Портовая»", "place:origin": "Грязовец", "pressure": "98", "ref": "СЕГ 2", "substance": "gas", "usage": "transmission"}, "geometry": {"type": "LineString", "coordinates": [[35.419679, 59.398563], [35.417248, 59.399365], [35.417114, 59.39939], [35.417007, 59.399372], [35.416393, 59.399057], [35.416275, 59.399037], [35.416169, 59.399053], [35.414637, 59.399535], [35.413997, 59.399661], [35.413128, 59.399755], [35.410119, 59.399982], [35.357621, 59.405211], [35.356948, 59.405337], [35.299223, 59.419933], [35.296453, 59.420601], [35.285188, 59.423485], [35.284483, 59.423541], [35.276655, 59.423056], [35.269033, 59.422494], [35.259315, 59.421903], [35.256849, 59.421794], [35.239005, 59.420701], [35.233549, 59.420484], [35.222827, 59.419792], [35.220618, 59.419641], [35.217928, 59.41932], [35.21729, 59.419289], [35.215108, 59.419249], [35.212488, 59.419114], [35.212204, 59.419156], [35.210319, 59.419997], [35.209888, 59.42012], [35.20518, 59.420779], [35.204239, 59.420937], [35.202724, 59.421204], [35.201464, 59.421351], [35.189261, 59.423351], [35.18503, 59.423983], [35.177708, 59.425099], [35.164728, 59.427228], [35.16378, 59.427339], [35.156524, 59.427915], [35.156241, 59.427994], [35.155487, 59.428565], [35.154936, 59.428739], [35.149345, 59.429623], [35.143702, 59.430429], [35.142987, 59.430479], [35.138222, 59.430529], [35.13784, 59.430595], [35.134929, 59.431513], [35.134214, 59.431633], [35.099413, 59.434257], [35.09869, 59.434268], [35.089908, 59.433945], [35.089329, 59.433995], [35.088362, 59.434246], [35.087906, 59.434293], [35.071533, 59.434371], [34.993899, 59.434488], [34.993505, 59.434433], [34.992407, 59.434035], [34.992079, 59.434011], [34.988165, 59.434571], [34.987629, 59.434606], [34.941794, 59.434408], [34.922399, 59.434417], [34.903017, 59.43432], [34.902321, 59.434407], [34.900174, 59.435079], [34.862732, 59.445671], [34.853335, 59.44822], [34.852809, 59.448339], [34.852135, 59.448476], [34.851563, 59.448611], [34.850035, 59.449022], [34.846571, 59.450214], [34.846087, 59.45036], [34.845381, 59.450499], [34.836064, 59.453089], [34.835676, 59.453124], [34.831991, 59.453011], [34.810588, 59.452082], [34.788499, 59.451094], [34.78729, 59.451071], [34.777986, 59.451063], [34.777369, 59.451028], [34.775615, 59.450769], [34.775238, 59.450759], [34.772963, 59.450893], [34.772335, 59.450908], [34.751534, 59.450819], [34.750684, 59.450881], [34.720448, 59.455487], [34.716972, 59.455961], [34.682736, 59.461093], [34.679728, 59.46152], [34.678394, 59.461673], [34.66421, 59.462976], [34.663577, 59.462993], [34.660205, 59.462755], [34.65994, 59.462797], [34.657862, 59.463675], [34.656169, 59.464332], [34.655157, 59.464778], [34.654785, 59.464857], [34.652384, 59.464996], [34.652201, 59.465057], [34.651685, 59.465744], [34.651489, 59.465861], [34.651047, 59.466002], [34.649096, 59.466475], [34.648515, 59.466577], [34.633105, 59.468519], [34.624933, 59.46958], [34.624653, 59.469588], [34.624153, 59.46953], [34.623856, 59.469549], [34.619088, 59.470057], [34.618847, 59.470114], [34.618391, 59.470348], [34.618182, 59.470416], [34.613472, 59.470942], [34.608317, 59.47149], [34.580053, 59.475184], [34.579733, 59.475167], [34.578644, 59.474792], [34.578418, 59.474796], [34.575652, 59.475411], [34.572689, 59.476158], [34.572235, 59.476243], [34.567199, 59.476784], [34.566877, 59.476757], [34.56337, 59.474872], [34.563126, 59.474843], [34.562174, 59.474981], [34.561619, 59.475007], [34.556605, 59.475075], [34.556288, 59.475046], [34.555497, 59.474815], [34.555221, 59.474787], [34.538816, 59.475403], [34.538499, 59.475455], [34.538034, 59.475596], [34.537736, 59.475644], [34.533635, 59.475781], [34.531374, 59.475764], [34.530685, 59.475771], [34.526219, 59.475963], [34.522349, 59.476058], [34.518715, 59.476058], [34.517864, 59.476081], [34.513064, 59.476404], [34.511738, 59.476433], [34.509705, 59.476421], [34.502485, 59.47659], [34.50177, 59.476561], [34.498803, 59.47626], [34.498382, 59.476274], [34.496103, 59.47672], [34.495604, 59.476767], [34.487034, 59.477004], [34.480162, 59.47724], [34.479639, 59.477256], [34.477351, 59.477239], [34.476936, 59.477268], [34.474108, 59.477739], [34.470723, 59.478189], [34.470302, 59.478208], [34.468857, 59.478198], [34.468497, 59.478213], [34.463458, 59.478878], [34.463106, 59.478963], [34.462254, 59.479242], [34.461879, 59.479323], [34.453589, 59.480405], [34.453246, 59.480427], [34.449387, 59.480161], [34.448771, 59.480208], [34.446423, 59.480665], [34.445973, 59.480708], [34.430975, 59.480676], [34.409184, 59.480814], [34.398684, 59.480809], [34.393101, 59.480903], [34.386669, 59.480947], [34.381509, 59.480897], [34.379938, 59.480882], [34.373577, 59.480973], [34.373066, 59.481023], [34.35639, 59.484172], [34.351813, 59.484877], [34.351176, 59.484946], [34.348259, 59.485075], [34.345242, 59.485126], [34.344596, 59.485171], [34.337163, 59.486102], [34.336473, 59.48621], [34.330908, 59.487239], [34.330424, 59.48742], [34.328937, 59.488244], [34.328006, 59.489004], [34.32753, 59.489164], [34.324609, 59.489705], [34.324013, 59.489849], [34.317998, 59.491735], [34.317854, 59.491834], [34.317829, 59.491937], [34.318436, 59.492922], [34.318425, 59.493036], [34.318273, 59.493129], [34.317347, 59.493428]]}},
{"type": "Feature", "id": "way/1282950520", "properties": {"ProjectID": "P5585", "@id": "way/1282950520", "diameter": "1420 mm", "flow_direction": "forward", "layer": "-1", "location": "underground", "man_made": "pipeline", "name": "Грязовец — Выборг 2", "name:en": "Gryazovets — Vyborg 2", "name:ru": "Грязовец — Выборг 2", "old_name": "Северо-Европейский газопровод 2", "operator": "ООО «Газпром трансгаз Ухта»", "place:destination": "КС «Портовая»", "place:origin": "Грязовец", "pressure": "98", "ref": "СЕГ 2", "substance": "gas", "usage": "transmission"}, "geometry": {"type": "LineString", "coordinates": [[38.541818, 59.149261], [38.540036, 59.149015], [38.539935, 59.149038], [38.539471, 59.149579], [38.53932, 59.149612], [38.536512, 59.149234], [38.536407, 59.149254], [38.533952, 59.151286], [38.533719, 59.15135], [38.530458, 59.151286], [38.530218, 59.151261], [38.528481, 59.150848], [38.528312, 59.150863], [38.526738, 59.151619], [38.52642, 59.151703], [38.518358, 59.151963], [38.51778, 59.151938], [38.517575, 59.151876], [38.517314, 59.151453], [38.517165, 59.151315], [38.515224, 59.150432], [38.515064, 59.150428], [38.513694, 59.150868], [38.510954, 59.151947], [38.510511, 59.152177], [38.507211, 59.154912], [38.50691, 59.155082], [38.506025, 59.155479], [38.50572, 59.15568], [38.501502, 59.159786], [38.50069, 59.160665], [38.500279, 59.160983], [38.497357, 59.162932], [38.497069, 59.163071], [38.496681, 59.163168], [38.492569, 59.163738], [38.485317, 59.164633], [38.484813, 59.164651], [38.480999, 59.164395], [38.480432, 59.164346], [38.478754, 59.164154], [38.477998, 59.164118], [38.477242, 59.16416], [38.457977, 59.166727], [38.457562, 59.166754], [38.457116, 59.166733], [38.453484, 59.166148], [38.453177, 59.166195], [38.449662, 59.167918], [38.44914, 59.168075], [38.440229, 59.169168], [38.439854, 59.169156], [38.436806, 59.168459], [38.436609, 59.168469], [38.418843, 59.174701], [38.418665, 59.174686], [38.417589, 59.173911], [38.417381, 59.173883], [38.413085, 59.175076], [38.412759, 59.175101], [38.399535, 59.172957], [38.399, 59.172932], [38.398434, 59.173029], [38.393832, 59.174657], [38.393444, 59.174909], [38.391238, 59.1774], [38.390937, 59.177652], [38.384915, 59.180712], [38.38478, 59.180826], [38.384798, 59.180942], [38.385769, 59.182428], [38.386107, 59.182699], [38.390314, 59.184609], [38.390312, 59.184679], [38.38607, 59.187131], [38.38607, 59.187201], [38.387539, 59.187899], [38.387563, 59.187982], [38.383987, 59.191629], [38.38194, 59.19364], [38.381551, 59.193881], [38.380942, 59.194095], [38.377115, 59.195048], [38.37654, 59.195243], [38.369271, 59.199571], [38.369134, 59.19957], [38.366854, 59.198531], [38.366688, 59.198534], [38.338369, 59.215208], [38.326558, 59.222062], [38.31572, 59.228461], [38.29672, 59.242553], [38.285334, 59.249377], [38.27979, 59.252976], [38.279302, 59.253186], [38.278636, 59.253324], [38.272924, 59.253707], [38.272825, 59.253791], [38.273238, 59.255325], [38.2732, 59.255451], [38.273073, 59.25556], [38.250811, 59.269188], [38.250327, 59.269403], [38.182304, 59.288611], [38.181839, 59.288712], [38.179961, 59.288947], [38.179564, 59.289062], [38.178566, 59.289621], [38.178137, 59.289778], [38.150657, 59.297509], [38.150302, 59.297579], [38.149382, 59.297688], [38.149044, 59.297753], [38.139719, 59.300504], [38.139094, 59.300654], [38.136757, 59.301171], [38.136205, 59.30124], [38.135604, 59.301229], [38.124101, 59.299832], [38.123477, 59.299681], [38.121183, 59.298785], [38.120851, 59.298746], [38.117552, 59.298778], [38.11705, 59.298738], [38.092264, 59.29522], [38.089177, 59.294886], [38.085822, 59.29466], [38.085125, 59.294589], [38.058751, 59.29111], [38.058473, 59.29111], [38.058208, 59.291163], [38.05662, 59.291939], [38.056458, 59.292104], [38.055302, 59.294452], [38.055163, 59.29464], [38.05488, 59.294829], [38.053122, 59.295723], [38.052928, 59.295766], [38.052698, 59.295763], [38.045018, 59.29459], [38.044636, 59.294574], [38.013395, 59.295815], [38.00087, 59.29674], [37.996293, 59.296967], [37.988429, 59.297279], [37.980867, 59.297678], [37.980371, 59.297649], [37.976127, 59.296836], [37.975769, 59.29684], [37.973279, 59.297427], [37.972597, 59.297543], [37.964627, 59.298454], [37.963735, 59.29852], [37.958911, 59.298694], [37.958374, 59.298689], [37.931983, 59.29639], [37.92594, 59.295865], [37.925833, 59.295814], [37.925655, 59.295409], [37.925548, 59.295366], [37.917579, 59.294671], [37.91718, 59.294605], [37.894129, 59.289007], [37.893153, 59.288846], [37.884689, 59.287741], [37.884209, 59.287716], [37.8789, 59.28782], [37.878139, 59.287812], [37.849045, 59.285671], [37.848908, 59.285702], [37.848725, 59.285957], [37.848612, 59.285985], [37.846441, 59.285819], [37.84592, 59.285859], [37.841088, 59.287002], [37.825094, 59.290103], [37.824725, 59.290191], [37.822651, 59.290838], [37.822163, 59.290971], [37.803153, 59.294891], [37.800014, 59.295476], [37.797981, 59.295945], [37.795779, 59.296531], [37.761951, 59.306891], [37.761264, 59.307017], [37.708994, 59.312241], [37.705669, 59.312546], [37.69699, 59.31308], [37.696685, 59.313041], [37.693943, 59.311954], [37.693772, 59.31196], [37.689989, 59.313418], [37.689628, 59.313494], [37.677222, 59.314188], [37.676593, 59.314142], [37.668903, 59.312575], [37.668552, 59.312467], [37.666616, 59.311645], [37.666546, 59.311575], [37.666443, 59.31113], [37.666345, 59.311084], [37.662904, 59.310818], [37.662505, 59.310828], [37.657389, 59.311268], [37.657053, 59.31128], [37.655606, 59.311307], [37.653349, 59.311459], [37.653213, 59.311502], [37.653125, 59.311569], [37.653104, 59.312024], [37.653027, 59.31206], [37.648857, 59.312367], [37.648353, 59.312372], [37.629425, 59.31116], [37.629057, 59.311074], [37.625696, 59.30957], [37.62544, 59.309556], [37.620442, 59.31055], [37.619989, 59.310571], [37.618732, 59.310461], [37.609117, 59.309872], [37.608403, 59.309784], [37.605555, 59.309305], [37.605072, 59.309279], [37.602255, 59.309426], [37.601585, 59.309409], [37.595329, 59.308999], [37.594518, 59.308914], [37.559764, 59.303709], [37.55524, 59.303053], [37.554508, 59.303076], [37.541844, 59.305672], [37.541289, 59.305798], [37.510283, 59.314217], [37.498224, 59.317385], [37.491921, 59.318976], [37.491167, 59.319071], [37.411508, 59.322245], [37.408345, 59.322257], [37.405263, 59.322203], [37.404483, 59.322261], [37.402247, 59.322556], [37.401564, 59.322618], [37.370532, 59.323887], [37.334303, 59.325233], [37.333324, 59.325201], [37.320931, 59.323971], [37.320321, 59.323973], [37.300158, 59.326773], [37.299539, 59.326773], [37.268471, 59.32259], [37.267829, 59.322437], [37.265747, 59.321607], [37.265292, 59.321483], [37.264812, 59.321445], [37.261674, 59.321524], [37.26082, 59.321483], [37.228581, 59.31706], [37.227961, 59.316921], [37.212859, 59.311898], [37.21222, 59.311821], [37.17344, 59.313795], [37.154027, 59.314754], [37.13884, 59.315583], [37.137822, 59.315578], [37.088499, 59.311665], [37.063537, 59.309598], [37.062994, 59.309532], [37.061898, 59.309309], [37.06146, 59.309255], [37.05657, 59.308915], [37.056444, 59.308849], [37.056094, 59.308142], [37.055989, 59.308099], [37.055192, 59.308034], [37.055005, 59.307997], [37.053944, 59.307636], [37.05378, 59.307604], [37.052553, 59.307531], [37.05244, 59.307567], [37.052204, 59.307842], [37.052065, 59.307876], [37.046797, 59.307416], [37.046275, 59.307339], [37.03891, 59.305685], [37.03868, 59.305595], [37.037996, 59.304756], [37.037759, 59.304685], [37.032856, 59.304422], [37.032165, 59.304407], [37.024363, 59.304574], [37.023772, 59.304678], [37.018493, 59.306596], [37.017744, 59.306736], [37.014046, 59.306963], [37.013355, 59.30697], [36.985647, 59.305996], [36.984793, 59.306079], [36.947197, 59.313245], [36.930814, 59.316297], [36.923662, 59.317803], [36.887398, 59.32606], [36.886712, 59.326172], [36.851563, 59.330018], [36.851295, 59.330013], [36.849475, 59.329696], [36.839464, 59.327566], [36.838928, 59.327528], [36.833129, 59.327623], [36.821877, 59.32837], [36.821415, 59.328415], [36.819921, 59.328746], [36.819482, 59.328805], [36.812069, 59.329299], [36.811867, 59.329276], [36.811248, 59.32904], [36.811066, 59.32902], [36.809245, 59.329096], [36.808836, 59.329104], [36.807101, 59.329039], [36.784942, 59.326962], [36.78446, 59.326864], [36.772852, 59.323062], [36.768499, 59.321249], [36.767841, 59.321051], [36.756644, 59.318258], [36.753667, 59.317393], [36.75148, 59.31684], [36.751283, 59.316818], [36.750458, 59.316842], [36.750259, 59.31682], [36.741611, 59.314639], [36.741395, 59.314624], [36.737686, 59.314868], [36.722859, 59.316138], [36.722354, 59.316138], [36.716524, 59.315606], [36.715999, 59.315525], [36.715803, 59.315543], [36.711552, 59.316943], [36.711096, 59.317043], [36.709783, 59.317144], [36.709302, 59.317144], [36.707512, 59.316976], [36.707137, 59.316996], [36.705528, 59.317349], [36.703517, 59.317691], [36.703184, 59.317731], [36.64804, 59.322518], [36.647566, 59.322502], [36.643974, 59.321845], [36.643552, 59.321742], [36.638323, 59.320406], [36.638023, 59.320294], [36.636787, 59.319427], [36.636421, 59.319306], [36.631892, 59.318128], [36.63142, 59.318103], [36.629501, 59.318178], [36.629054, 59.318124], [36.621883, 59.316261], [36.621427, 59.316174], [36.591976, 59.312306], [36.591472, 59.312191], [36.57292, 59.305495], [36.572733, 59.305374], [36.572358, 59.304977], [36.572127, 59.30482], [36.569154, 59.303723], [36.568892, 59.303698], [36.568023, 59.303759], [36.567762, 59.303729], [36.538955, 59.293577], [36.538352, 59.293394], [36.520415, 59.288868], [36.51617, 59.287685], [36.512715, 59.286628], [36.512273, 59.286535], [36.509573, 59.286181], [36.508883, 59.286031], [36.494194, 59.282278], [36.493544, 59.282158], [36.492769, 59.282129], [36.48633, 59.282591], [36.462764, 59.283874], [36.462233, 59.283874], [36.458103, 59.283662], [36.457827, 59.283693], [36.456932, 59.284118], [36.456634, 59.284195], [36.455683, 59.284259], [36.455219, 59.284338], [36.436631, 59.289852], [36.436228, 59.290012], [36.432652, 59.291746], [36.431838, 59.292051], [36.406385, 59.300323], [36.405834, 59.30044], [36.405199, 59.300497], [36.393826, 59.300368], [36.393487, 59.300342], [36.393155, 59.300251], [36.392209, 59.299702], [36.391619, 59.299282], [36.386641, 59.295519], [36.386413, 59.295412], [36.385386, 59.295192], [36.385008, 59.29517], [36.37704, 59.295541], [36.376489, 59.295655], [36.374329, 59.296589], [36.338423, 59.316053], [36.337892, 59.316299], [36.32619, 59.320479], [36.326026, 59.320503], [36.32548, 59.320499], [36.325298, 59.32053], [36.279566, 59.336645], [36.273445, 59.33885], [36.272805, 59.339031], [36.271083, 59.33945], [36.270557, 59.339622], [36.26633, 59.341559], [36.265836, 59.341767], [36.258237, 59.344267], [36.257855, 59.344472], [36.246212, 59.353232], [36.226579, 59.367892], [36.225244, 59.368835], [36.224123, 59.369734], [36.223736, 59.369931], [36.206062, 59.374098], [36.20588, 59.374109], [36.205397, 59.374024], [36.205274, 59.374032], [36.201978, 59.374873], [36.201842, 59.374866], [36.201417, 59.374621], [36.201282, 59.374609], [36.200367, 59.374857], [36.20004, 59.375047], [36.199704, 59.375406], [36.199395, 59.375611], [36.198919, 59.375775], [36.196136, 59.376434], [36.195407, 59.376496], [36.156702, 59.376724], [36.089104, 59.377285], [36.049402, 59.377624], [36.049052, 59.377588], [36.048735, 59.37751], [36.018426, 59.367779], [36.017894, 59.367641], [36.008905, 59.365608], [36.008791, 59.365545], [36.008707, 59.365387], [36.008604, 59.365329], [36.007263, 59.365042], [36.007086, 59.365038], [36.006543, 59.365107], [36.006352, 59.365093], [36.002434, 59.364194], [36.001742, 59.364142], [35.992044, 59.364445], [35.99176, 59.364438], [35.991195, 59.36439], [35.990893, 59.364379], [35.988435, 59.364483], [35.988144, 59.36445], [35.987707, 59.364324], [35.987449, 59.364303], [35.981755, 59.364508]]}},
{"type": "Feature", "id": "way/1283685267", "properties": {"ProjectID": "P5585", "@id": "way/1283685267", "diameter": "1420 mm", "flow_direction": "forward", "layer": "-1", "location": "underground", "man_made": "pipeline", "name": "Грязовец — Выборг 2", "name:en": "Gryazovets — Vyborg 2", "old_name": "Северо-Европейский газопровод 2", "operator": "ООО «Газпром трансгаз Ухта»", "place:destination": "КС «Портовая»", "place:origin": "Грязовец", "pressure": "98", "ref": "СЕГ 2", "substance": "gas", "usage": "transmission"}, "geometry": {"type": "LineString", "coordinates": [[35.981755, 59.364508], [35.976587, 59.364661], [35.97622, 59.364672], [35.974709, 59.364716], [35.974199, 59.364771], [35.971546, 59.365304], [35.970963, 59.36537], [35.968839, 59.365446], [35.968436, 59.365425], [35.967179, 59.365265], [35.966736, 59.365254], [35.96538, 59.365314], [35.96503, 59.365348], [35.962831, 59.365787], [35.96226, 59.365847], [35.907916, 59.367678], [35.907261, 59.367671], [35.872352, 59.366101], [35.871795, 59.366118], [35.841449, 59.369827], [35.840928, 59.369834], [35.835925, 59.369438], [35.835551, 59.3695], [35.831897, 59.370921], [35.831489, 59.371017], [35.81269, 59.373443], [35.809354, 59.373782], [35.785805, 59.376627], [35.780102, 59.377321], [35.778849, 59.377427], [35.743803, 59.37882], [35.74322, 59.378803], [35.741236, 59.3786], [35.740709, 59.378601], [35.729248, 59.379494], [35.728713, 59.379598], [35.726848, 59.380181], [35.726226, 59.3803], [35.684998, 59.384703], [35.684148, 59.384784], [35.683665, 59.384801], [35.68326, 59.384784], [35.682855, 59.384759], [35.682634, 59.384766], [35.682246, 59.384827], [35.681923, 59.384854], [35.679991, 59.384923], [35.679567, 59.384975], [35.676313, 59.385593], [35.675467, 59.38572], [35.647888, 59.388716], [35.647297, 59.388754], [35.640894, 59.388936], [35.640794, 59.388957], [35.640729, 59.389003], [35.640768, 59.389304], [35.640721, 59.389355], [35.640609, 59.389383], [35.63838, 59.389448], [35.638142, 59.389415], [35.63575, 59.388324], [35.635564, 59.388291], [35.633217, 59.388362], [35.632898, 59.388409], [35.629109, 59.389681], [35.628782, 59.389733], [35.607279, 59.390254], [35.60695, 59.390239], [35.543808, 59.381587], [35.543406, 59.381579], [35.523181, 59.383719], [35.522719, 59.383754], [35.520871, 59.383788], [35.520492, 59.383831], [35.519191, 59.384121], [35.518617, 59.384214], [35.437357, 59.392694], [35.437001, 59.392689], [35.434871, 59.392427], [35.434756, 59.392443], [35.432807, 59.394351], [35.432507, 59.394514], [35.419679, 59.398563]]}}
]
}
