{
"type": "FeatureCollection",
"features": [
{"type": "Feature", "properties": {"ProjectID": "P5589", "SourceProjectID": "P2326"}, "geometry": {"type": "LineString", "coordinates": [[30.158254, 59.771989], [30.31911, 59.930373], [30.336561, 60.127659]]}},
{"type": "Feature", "properties": {"ProjectID": "P5589", "usage": "transmission", "location": "underground", "man_made": "pipeline", "substance": "gas", "@id": "way/1019699089", "operator": "Elering AS", "layer": "-1"}, "geometry": {"type": "LineString", "coordinates": [[27.416791, 59.370752], [27.42805, 59.369111], [27.434565, 59.368108], [27.439395, 59.367374], [27.444869, 59.366535], [27.445491, 59.366453], [27.448914, 59.366339], [27.452685, 59.366252], [27.459162, 59.366107], [27.464712, 59.366011], [27.470783, 59.363775], [27.479066, 59.367109], [27.490417, 59.371056], [27.501897, 59.374664], [27.505782, 59.376112], [27.521595, 59.375467], [27.523641, 59.3755], [27.525256, 59.375673], [27.527887, 59.376184], [27.534036, 59.377438], [27.540289, 59.378665], [27.54434, 59.379468], [27.550124, 59.38049], [27.553081, 59.381154], [27.554649, 59.3814], [27.555595, 59.381335], [27.557265, 59.38123]]}},
{"type": "Feature", "properties": {"ProjectID": "P5589", "name": "Kohtla-Järve — Narva", "@id": "way/1019744361", "usage": "transmission", "location": "underground", "man_made": "pipeline", "substance": "gas", "operator": "Elering AS", "layer": "-1"}, "geometry": {"type": "LineString", "coordinates": [[28.130499, 59.431101], [28.127374, 59.430349], [28.124917, 59.429745], [28.123197, 59.428545], [28.121159, 59.426963], [28.118842, 59.424948], [28.11643, 59.422968], [28.114369, 59.421443], [28.112805, 59.420777], [28.107533, 59.419245], [28.104723, 59.418419], [28.093135, 59.414952], [28.086632, 59.412986], [28.084942, 59.412556], [28.079219, 59.412028], [28.064278, 59.410709], [28.046628, 59.409097], [28.043222, 59.408796], [28.041274, 59.408516], [28.039676, 59.408114], [28.035848, 59.406874], [28.02968, 59.404757], [28.019478, 59.401279], [28.004198, 59.396037], [27.996195, 59.393693], [27.981342, 59.388201], [27.977277, 59.386838], [27.969543, 59.383054], [27.961202, 59.378997], [27.957223, 59.377162], [27.955376, 59.37675], [27.953882, 59.376572], [27.944234, 59.376487], [27.929449, 59.376473], [27.920513, 59.376494], [27.914007, 59.376501], [27.890118, 59.376308], [27.879932, 59.37629]]}},
{"type": "Feature", "properties": {"ProjectID": "P5589", "usage": "transmission", "location": "underground", "man_made": "pipeline", "@id": "way/1174093690", "substance": "gas", "operator": "Elering AS", "layer": "-1"}, "geometry": {"type": "LineString", "coordinates": [[27.557265, 59.38123], [27.560147, 59.381038], [27.561067, 59.381126], [27.561826, 59.381377], [27.566, 59.383597], [27.572106, 59.386771], [27.574568, 59.387879], [27.580561, 59.388809], [27.587347, 59.389673], [27.593999, 59.390569], [27.602496, 59.39188], [27.604577, 59.392208], [27.605457, 59.392262], [27.623959, 59.392265], [27.629962, 59.391956], [27.635948, 59.391902], [27.640862, 59.391804], [27.645754, 59.39164], [27.649316, 59.391694], [27.654295, 59.39164], [27.65968, 59.391574], [27.665517, 59.39153], [27.674079, 59.391399], [27.680258, 59.391334], [27.694399, 59.391107], [27.704269, 59.39105], [27.705887, 59.391017], [27.70798, 59.390971], [27.719294, 59.390846], [27.727, 59.39075], [27.731829, 59.390695], [27.737079, 59.390609], [27.742323, 59.39051], [27.752756, 59.39037], [27.763794, 59.390276], [27.774531, 59.390209], [27.77784, 59.389764], [27.78592, 59.388798], [27.793655, 59.387973], [27.802409, 59.386992], [27.812727, 59.38579], [27.81545, 59.385172], [27.830543, 59.380678], [27.832679, 59.379995], [27.841984, 59.377294], [27.85826, 59.377065], [27.859033, 59.376398], [27.879933, 59.376365], [27.879932, 59.37629]]}},
{"type": "Feature", "properties": {"ProjectID": "P5589", "name:en": "Kohtla-Järve — Leningrad 2", "usage": "transmission", "location": "underground", "substance": "gas", "diameter": "530 mm", "name": "Кохтла-Ярве — Ленинград 2", "flow_direction": "backward", "layer": "-1", "@id": "way/1297168215", "operator": "ООО «Газпром трансгаз Санкт-Петербург»", "place:origin": "Санкт-Петербург", "pressure": "38", "place:destination": "Эстония", "man_made": "pipeline"}, "geometry": {"type": "LineString", "coordinates": [[28.130499, 59.431101], [28.135316, 59.432221], [28.135417, 59.432208], [28.141226, 59.426497], [28.141496, 59.426297], [28.162931, 59.414812], [28.163333, 59.41465], [28.184016, 59.407806], [28.193705, 59.404811], [28.194031, 59.40465], [28.20104, 59.39861], [28.201359, 59.398402], [28.203606, 59.397297], [28.213099, 59.392945], [28.227343, 59.386355], [28.241293, 59.38004], [28.242544, 59.37963], [28.243699, 59.379385], [28.244931, 59.37924], [28.246164, 59.379199], [28.288106, 59.380283], [28.289189, 59.380264], [28.295942, 59.380065], [28.296727, 59.380074], [28.339161, 59.381764], [28.377969, 59.383345], [28.378906, 59.383404], [28.380995, 59.383596], [28.381272, 59.383583], [28.383789, 59.383123], [28.388178, 59.382396], [28.388344, 59.382343], [28.388665, 59.382192], [28.388825, 59.382148], [28.389509, 59.382054], [28.389718, 59.382041], [28.390162, 59.382048], [28.390353, 59.382029], [28.40864, 59.379013], [28.409125, 59.378985], [28.425039, 59.379814], [28.432844, 59.38021], [28.433836, 59.380226], [28.438926, 59.380084], [28.440226, 59.380075], [28.450149, 59.380305], [28.450746, 59.380324], [28.471294, 59.381358], [28.471501, 59.381339], [28.473124, 59.381006], [28.47338, 59.381027], [28.474307, 59.381515], [28.474555, 59.381561], [28.475658, 59.381568], [28.491759, 59.382221], [28.4957, 59.382422], [28.508591, 59.382791], [28.509348, 59.382834], [28.513588, 59.383148], [28.514615, 59.383186], [28.517455, 59.383243], [28.518622, 59.383234], [28.530578, 59.382958], [28.53766, 59.382883], [28.538242, 59.382951], [28.538538, 59.383099], [28.540847, 59.386507], [28.540961, 59.386908], [28.540929, 59.387356], [28.540082, 59.389927], [28.540047, 59.390377], [28.54016, 59.390788], [28.54102, 59.392252], [28.541325, 59.392644], [28.541544, 59.392742], [28.546623, 59.393421], [28.55791, 59.394776], [28.558154, 59.394767], [28.559392, 59.394511], [28.559739, 59.394417], [28.56259, 59.393258], [28.562739, 59.393264], [28.565618, 59.395151], [28.565993, 59.395284], [28.566966, 59.395493], [28.567221, 59.39557], [28.568212, 59.396072], [28.568474, 59.396141], [28.568961, 59.396198], [28.569237, 59.396231], [28.571145, 59.396458], [28.571479, 59.396464], [28.572285, 59.396448], [28.572828, 59.396453], [28.577755, 59.396532], [28.583792, 59.396576], [28.584348, 59.396606], [28.58606, 59.396767], [28.586923, 59.396808], [28.607306, 59.39696], [28.622727, 59.396949], [28.622944, 59.396932], [28.623387, 59.396778], [28.623537, 59.396754], [28.624712, 59.396733], [28.624929, 59.396749], [28.626514, 59.396979], [28.626864, 59.397003], [28.641871, 59.396977], [28.675472, 59.396972], [28.676251, 59.397001], [28.693906, 59.399032], [28.694096, 59.399001], [28.694481, 59.398604], [28.694626, 59.398575], [28.69792, 59.399255], [28.698312, 59.399322], [28.707729, 59.40046], [28.709165, 59.400789], [28.742856, 59.413993], [28.743346, 59.414135], [28.773265, 59.420754], [28.786189, 59.423628], [28.78655, 59.423674], [28.787954, 59.423824], [28.788244, 59.42387], [28.790738, 59.424421], [28.790985, 59.424487], [28.793052, 59.42514], [28.793339, 59.425222], [28.796725, 59.425998], [28.818528, 59.430827], [28.830122, 59.433396], [28.831233, 59.433757], [28.836079, 59.436081], [28.892033, 59.462418], [28.892458, 59.462665], [28.925286, 59.483988], [28.926066, 59.484379], [28.926888, 59.484718], [28.927845, 59.484988], [28.928929, 59.485223], [28.930087, 59.485351], [28.977173, 59.489062], [28.979315, 59.48914], [29.022181, 59.488953], [29.023733, 59.489003], [29.025115, 59.489164], [29.026574, 59.489487], [29.027973, 59.489989], [29.029132, 59.49057], [29.031823, 59.492562], [29.040497, 59.498961], [29.06774, 59.518926], [29.098145, 59.541134], [29.098585, 59.541338], [29.10118, 59.542154], [29.101468, 59.542214], [29.10582, 59.542711], [29.118241, 59.544184], [29.129646, 59.545274], [29.159478, 59.548533], [29.200689, 59.553018], [29.225211, 59.555741], [29.226929, 59.555988], [29.228785, 59.556377], [29.262144, 59.567073], [29.269313, 59.569334], [29.273143, 59.570635], [29.300204, 59.579219], [29.301307, 59.579481], [29.302169, 59.57963], [29.30315, 59.579732], [29.314697, 59.580373], [29.338952, 59.581869], [29.420706, 59.586947], [29.421934, 59.587076], [29.423104, 59.587257], [29.425163, 59.587625], [29.425967, 59.587802], [29.442197, 59.592213], [29.470253, 59.599737], [29.508569, 59.610029], [29.536008, 59.617394], [29.599225, 59.634419], [29.623497, 59.640913], [29.623648, 59.640925], [29.623976, 59.640916], [29.6241, 59.640926], [29.624917, 59.641142], [29.625071, 59.641165], [29.637198, 59.641969], [29.637267, 59.642012], [29.636955, 59.64447], [29.637019, 59.644523], [29.646822, 59.647144], [29.654238, 59.64908], [29.654877, 59.649169], [29.686641, 59.650824], [29.692325, 59.651115], [29.75523, 59.654228], [29.784113, 59.655655], [29.784513, 59.655715], [29.819957, 59.665041], [29.83801, 59.66974], [29.839857, 59.670217], [29.840658, 59.670364], [29.844998, 59.671011], [29.86119, 59.673397], [29.863011, 59.673742], [29.890084, 59.679979], [29.944191, 59.692249], [29.962923, 59.696507], [29.984234, 59.701521], [29.988005, 59.702543], [29.992641, 59.703787], [30.0001, 59.705582], [30.007912, 59.707357], [30.019603, 59.709975], [30.02828, 59.711983], [30.028418, 59.712063], [30.029277, 59.713362], [30.029607, 59.713746], [30.030109, 59.714272], [30.049371, 59.730666], [30.061954, 59.741148], [30.062214, 59.741299], [30.076813, 59.748015], [30.090088, 59.75435], [30.109397, 59.762555], [30.109806, 59.762616], [30.129871, 59.761856], [30.141465, 59.761443], [30.14167, 59.761481], [30.153424, 59.772776], [30.153544, 59.772792], [30.157647, 59.771537], [30.158076, 59.771822], [30.158254, 59.771989]]}}
]
}
