{
"type": "FeatureCollection",
"features": [
{"type": "Feature", "properties": {"ProjectID": "P5590"}, "geometry": {"type": "LineString", "coordinates": [[30.779572, 59.949165], [30.708847, 59.974429], [30.662584, 59.966139], [30.657907, 59.968286], [30.654516, 59.968437], [30.640182, 59.971658], [30.423889, 60.097718], [30.394535, 60.106788], [30.389042, 60.117096], [30.369387, 60.125818], [30.3399, 60.12893], [30.26227, 60.123253], [30.247808, 60.125968], [30.246949, 60.140351], [30.219612, 60.152891], [30.186481, 60.161839], [30.180988, 60.161412], [30.140991, 60.171702], [30.109663, 60.174648], [30.061598, 60.170635], [30.046492, 60.180837], [29.998169, 60.191975], [29.95225, 60.194791], [29.945297, 60.206009], [29.951391, 60.211467], [29.943752, 60.243219], [29.894829, 60.259275], [29.767456, 60.319086], [29.754496, 60.331706], [29.616737, 60.405333], [29.615965, 60.409106], [29.614677, 60.410208], [29.482155, 60.479978], [29.457092, 60.505935], [29.450054, 60.531617], [29.32045, 60.597166], [29.25024, 60.613933], [29.25024, 60.613933], [29.177456, 60.645084], [28.898163, 60.818891], [28.792248, 60.91141], [28.796711, 60.922424], [28.789673, 60.968026], [28.821774, 61.019967], [28.841858, 61.024375], [28.851814, 61.032939], [28.835506, 61.041667], [28.828468, 61.066425], [28.811131, 61.102531]]}}
]
}
