{
"type": "FeatureCollection",
"features": [
{"type": "Feature", "properties": {"ProjectID": "P5696", "name": "КС-14–Актобе, 3-я нитка — проектная трасса", "project_length_km": 165.2, "vertex_length_km": 164.24, "crs": "EPSG:4326 / WGS 84"}, "geometry": {"type": "LineString", "coordinates": [[59.138278, 50.162919], [59.106564, 50.162261], [59.082486, 50.164175], [59.076722, 50.154739], [59.069761, 50.132842], [59.059397, 50.130611], [58.914775, 50.130542], [58.732058, 50.170522], [58.720122, 50.173122], [58.717047, 50.172581], [58.715881, 50.171733], [58.713719, 50.171167], [58.712203, 50.170994], [58.619483, 50.170144], [58.61955, 50.168947], [58.611328, 50.168911], [58.433678, 50.196297], [58.323508, 50.213278], [58.286417, 50.218969], [58.227686, 50.220378], [58.225378, 50.223678], [58.123664, 50.232506], [58.117439, 50.23245], [58.113242, 50.234728], [57.982744, 50.250508], [57.981553, 50.248814], [57.935469, 50.249908], [57.914289, 50.246433], [57.896692, 50.243544], [57.8841, 50.242067], [57.702164, 50.239375], [57.694517, 50.240122], [57.684528, 50.237211], [57.556722, 50.217094], [57.50515, 50.200897], [57.478111, 50.192392], [57.446825, 50.186586], [57.370894, 50.134178], [57.400586, 50.057167], [57.384211, 50.046], [57.380781, 50.03975], [57.370761, 50.034414], [57.347328, 50.032625], [57.343267, 50.032469], [57.337792, 50.032428], [57.335111, 50.033019], [57.333656, 50.033025], [57.332967, 50.039211], [57.330994, 50.041531], [57.329656, 50.052536], [57.328789, 50.059647], [57.326036, 50.082228], [57.295478, 50.162842]]}}
]
}
