{
"type": "FeatureCollection",
"features": [
{"type": "Feature", "properties": {"ProjectID": "P5719", "fid": 1, "id": null}, "geometry": {"type": "MultiLineString", "coordinates": [[[83.042408, 46.702313], [83.008029, 46.698945], [82.972012, 46.697822], [82.967101, 46.693331], [82.940907, 46.693331], [82.92781, 46.684347], [82.913076, 46.674238], [82.906527, 46.666374], [82.885245, 46.675361], [82.83122, 46.68547], [82.827946, 46.68547]]]}},
{"type": "Feature", "properties": {"ProjectID": "P5719", "fid": 2, "id": null}, "geometry": {"type": "MultiLineString", "coordinates": [[[83.597391, 46.444881], [83.577745, 46.43106], [83.563011, 46.409618], [83.561374, 46.392683], [83.582657, 46.384779], [83.590842, 46.353149], [83.606395, 46.298884], [83.609669, 46.276258], [83.628496, 46.221917], [83.621947, 46.187926], [83.639956, 46.107966], [83.63177, 46.06709], [83.628496, 46.040959], [83.626859, 46.015953], [83.626859, 45.994347], [83.615399, 45.98411], [83.595753, 45.968182], [83.587568, 45.954526], [83.597391, 45.92037], [83.599028, 45.92037], [83.599028, 45.92037], [83.599028, 45.92037]]]}},
{"type": "Feature", "properties": {"ProjectID": "P5719", "fid": 3, "id": null}, "geometry": {"type": "MultiLineString", "coordinates": [[[83.621947, 46.187926], [83.585931, 46.203225], [83.5581, 46.203225], [83.538454, 46.198692], [83.505712, 46.196426], [83.477881, 46.195293], [83.451687, 46.193026], [83.428768, 46.191893], [83.392751, 46.183959], [83.351823, 46.180559], [83.325629, 46.176025], [83.278153, 46.177158], [83.24541, 46.177158], [83.224128, 46.183959], [83.1832, 46.19076], [83.143909, 46.197559], [83.107893, 46.206624], [83.089884, 46.208889], [83.073513, 46.220218], [83.045682, 46.22135], [82.999843, 46.222483], [82.999843, 46.222483]]]}},
{"type": "Feature", "properties": {"ProjectID": "P5719", "fid": 4, "id": null}, "geometry": {"type": "MultiLineString", "coordinates": [[[85.330279, 45.736423], [85.367932, 45.758129], [85.372844, 45.776401], [85.382666, 45.793526], [85.389215, 45.811786], [85.395763, 45.826619], [85.403949, 45.832322], [85.384303, 45.844868], [85.367932, 45.852851], [85.374481, 45.872232], [85.376118, 45.895024], [85.363021, 45.914391], [85.376118, 45.936027], [85.390852, 45.94855], [85.410497, 45.969035], [85.423594, 45.988376], [85.415409, 46.026752], [85.40886, 46.0438], [85.399037, 46.054026], [85.38594, 46.065386], [85.372844, 46.080151], [85.366295, 46.097182], [85.34665, 46.107398], [85.327004, 46.114208], [85.299173, 46.122152], [85.276254, 46.128959], [85.241874, 46.13917], [85.217317, 46.150512], [85.202583, 46.158451], [85.182938, 46.167522], [85.173115, 46.17319], [85.158381, 46.167522], [85.143647, 46.168656], [85.128913, 46.168656], [85.105994, 46.165254], [85.086348, 46.167522], [85.065066, 46.169789], [85.051969, 46.166388], [85.019226, 46.165254], [84.99467, 46.160719], [84.978298, 46.156183], [84.952105, 46.150512], [84.907902, 46.135767], [84.896443, 46.133498], [84.87516, 46.142573], [84.844055, 46.143707], [84.794941, 46.155049], [84.759743, 46.162986], [84.746646, 46.169789], [84.736824, 46.16412], [84.715541, 46.168656], [84.697533, 46.16412], [84.679525, 46.161853], [84.658242, 46.159585], [84.641871, 46.155049], [84.627137, 46.145976], [84.607492, 46.153915], [84.569838, 46.151646], [84.550192, 46.150512], [84.496168, 46.151646], [84.431501, 46.162703], [84.406945, 46.175174], [84.385662, 46.184243], [84.36438, 46.18991], [84.348009, 46.196709], [84.326726, 46.196709], [84.303806, 46.200109], [84.277613, 46.202375], [84.25633, 46.203508], [84.23341, 46.204641], [84.202305, 46.210306], [84.146643, 46.214837], [84.110627, 46.219368], [84.087707, 46.225031], [84.047598, 46.231827], [84.01813, 46.236356], [83.991936, 46.245415], [83.975565, 46.253339], [83.951008, 46.266922], [83.942822, 46.279369], [83.934637, 46.282764], [83.91008, 46.298601], [83.88716, 46.326588], [83.859329, 46.333371], [83.829861, 46.333371], [83.810216, 46.332241], [83.784022, 46.341283], [83.75128, 46.351454], [83.734908, 46.351454], [83.700529, 46.37292], [83.675972, 46.394094], [83.641593, 46.414415], [83.597391, 46.444881], [83.567104, 46.473075], [83.554007, 46.499001], [83.573652, 46.513649], [83.593298, 46.537303], [83.544184, 46.568826], [83.506531, 46.590206], [83.4787, 46.601174], [83.465603, 46.602299], [83.445957, 46.610172], [83.427949, 46.621417], [83.408304, 46.622541], [83.38211, 46.639404], [83.38211, 46.639404], [83.339545, 46.651767], [83.305165, 46.660757], [83.265874, 46.666374], [83.225765, 46.671991], [83.215942, 46.680977], [83.20612, 46.674238], [83.173377, 46.6821], [83.155369, 46.688839], [83.140635, 46.687716], [83.117715, 46.691085], [83.066965, 46.693331], [83.042408, 46.702313], [83.042408, 46.702313]]]}}
]
}
