{
"type": "FeatureCollection",
"features": [
{"type": "Feature", "properties": {"ProjectID": "P5715"}, "geometry": {"type": "LineString", "coordinates": [[56.376257, 57.862836], [56.351795, 57.846578], [56.300125, 57.830953], [56.282959, 57.828577], [56.264591, 57.82748], [56.24794, 57.831136], [56.24279, 57.835797], [56.179533, 57.838081], [56.043663, 57.806633], [56.034393, 57.798676], [56.028042, 57.796572], [56.01757, 57.798401], [56.000061, 57.793736], [55.720596, 57.781108], [55.705147, 57.777813], [55.683174, 57.779826], [55.363541, 57.772504], [55.332298, 57.764081], [55.29929, 57.73051], [55.273762, 57.719461], [55.142269, 57.67295], [55.034466, 57.610935], [54.984684, 57.603118], [54.916191, 57.542733], [54.877396, 57.49535], [54.692345, 57.404468], [54.568405, 57.319107], [54.559135, 57.304737], [54.559307, 57.262894], [54.554329, 57.25723], [54.547462, 57.214589], [54.536991, 57.204456], [54.278469, 57.082079], [54.229717, 57.073589], [54.14011, 57.053055], [54.0962, 57.01531], [54.024582, 56.977357], [54.034195, 56.9534], [54.035912, 56.888378], [54.021835, 56.863426], [54.029045, 56.842025], [54.022865, 56.810089], [54.047241, 56.798622], [54.03162, 56.761851], [54.08329, 56.731165], [54.062691, 56.717885], [53.992996, 56.707898], [53.958664, 56.680751], [53.898926, 56.671698], [53.876953, 56.683768], [53.585815, 56.631686], [53.271332, 56.635463], [53.01384, 56.660378], [52.733688, 56.58407], [52.493362, 56.57348], [52.267456, 56.542073], [52.147942, 56.431165], [52.115326, 56.423585], [52.045975, 56.430408], [51.768227, 56.379211], [51.724968, 56.383764], [51.595192, 56.364407], [51.473656, 56.320724], [51.447563, 56.318063], [51.397438, 56.297532], [51.317101, 56.293729], [50.978241, 56.20653], [50.913353, 56.214344], [50.824433, 56.182601], [50.684529, 56.140475], [50.62685, 56.14711], [50.51158, 56.112827], [50.37369, 56.15024], [50.401459, 56.087788], [50.351076, 56.091038], [50.339661, 56.09534], [50.259924, 56.092902], [50.199328, 56.108193], [50.164566, 56.10676], [50.029898, 56.04996], [49.912567, 56.034933], [49.868794, 56.019326], [49.713955, 56.024162], [49.61422, 56.018224], [49.585123, 56.009748], [49.541264, 55.985983], [49.518433, 55.989626], [49.425221, 55.99044], [49.387884, 55.968966], [49.376469, 55.951125], [49.312611, 55.930541], [49.267893, 55.928525], [49.223519, 55.942346], [49.200602, 55.94652], [49.097863, 55.945033], [49.055376, 55.925597], [49.035979, 55.925357], [48.999501, 55.915035], [48.968859, 55.918108], [48.943024, 55.905143], [48.873973, 55.892606], [48.770075, 55.908121], [48.697119, 55.932797], [48.60083, 55.98833], [48.39344, 56.066173], [48.367176, 56.064349], [48.347263, 56.072509], [48.326835, 56.072125], [48.321342, 56.050137], [48.212166, 56.04351], [48.128395, 56.031405], [47.987976, 56.034191], [47.959137, 56.002279], [47.884598, 55.961885], [47.679977, 55.946121], [47.397079, 55.919561], [47.342834, 55.924181], [47.0553, 56.04012], [46.996422, 56.040788], [46.928959, 56.014217], [46.793003, 55.997709], [46.724339, 56.001933], [46.621513, 56.009131], [46.600571, 56.027169], [46.568127, 56.029567], [46.534824, 56.041939], [46.516972, 56.04376], [46.483669, 56.052101], [46.428909, 56.048075], [46.406078, 56.041843], [46.360416, 56.040308], [46.3381, 56.0288], [46.330376, 56.029279], [46.272011, 56.018535], [46.085587, 56.003084], [46.046448, 56.01153], [46.015205, 56.025538], [45.916157, 56.050663], [45.829639, 56.053443], [45.609226, 56.04376], [45.53833, 56.045103], [45.388126, 56.037911], [45.336113, 56.061686], [45.303154, 56.063507], [45.263844, 56.058619], [45.235176, 56.048554], [45.20977, 56.05191], [45.071926, 56.013929], [45.06161, 55.9968], [44.89975, 55.959867], [44.749203, 55.991277], [44.658051, 56.004524], [44.631271, 56.034842], [44.401245, 56.084298], [44.294128, 56.089661]]}}
]
}
