{
"type": "FeatureCollection",
"features": [
{"type": "Feature", "properties": {"ProjectID": "P5744"}, "geometry": {"type": "LineString", "coordinates": [[52.227631, 54.812161], [52.151849, 54.973446], [52.02276, 55.025564], [51.966455, 55.07919], [51.566827, 55.267888], [51.348474, 55.307088], [50.926874, 55.348598], [50.698907, 55.456477], [50.139978, 55.404919], [50.06582, 55.488472], [49.958704, 55.483792], [49.818628, 55.536805], [49.73623, 55.620857], [49.593408, 55.665922], [49.541223, 55.709384], [49.362695, 55.786875], [49.125366, 55.750304]]}}
]
}
