{
"type": "FeatureCollection",
"features": [
{"type": "Feature", "id": "way/32637041", "properties": {"ProjectID": "P5771", "@id": "way/32637041", "@relations": [{"role": "", "rel": "8207969", "reltags": {"alt_name": "САЦ", "name": "Средняя Азия — Центр", "type": "pipeline"}}]}, "geometry": {"type": "LineString", "coordinates": [[38.802016, 55.239044], [38.808549, 55.236984], [38.810889, 55.232358], [38.81285, 55.228578], [38.815892, 55.222224], [38.817648, 55.218452], [38.817841, 55.217823], [38.818113, 55.21644], [38.81866, 55.212867], [38.818769, 55.212485], [38.819008, 55.212117], [38.819347, 55.211776], [38.843299, 55.189071], [38.844138, 55.188066], [38.850506, 55.181905], [38.854886, 55.177785], [38.85538, 55.177271], [38.862321, 55.170904], [38.865545, 55.168081], [38.869118, 55.165429], [38.892727, 55.148297], [38.900064, 55.142923], [38.902115, 55.141395], [38.905266, 55.139046], [38.905411, 55.138938], [38.960379, 55.097944], [38.980595, 55.087853], [38.986255, 55.079228], [39.000216, 55.061609], [39.002194, 55.059727], [39.010262, 55.055581], [39.013361, 55.053605], [39.0254, 55.045928], [39.047495, 55.03077], [39.050995, 55.028278], [39.058733, 55.024836], [39.067408, 55.021241], [39.087981, 55.012277], [39.09459, 55.010062], [39.097552, 55.008807], [39.109053, 55.000488], [39.113344, 54.99778], [39.121541, 54.991207], [39.125489, 54.988203], [39.128923, 54.986036], [39.136047, 54.980766], [39.145952, 54.973592], [39.146318, 54.968919], [39.1442, 54.966727], [39.144072, 54.96579], [39.147031, 54.954423], [39.154157, 54.947679], [39.163427, 54.94126], [39.175014, 54.933124], [39.187416, 54.924183], [39.198531, 54.916216], [39.202694, 54.912901], [39.208273, 54.9062], [39.213929, 54.898038], [39.230962, 54.881698], [39.234589, 54.874903], [39.24264, 54.86708], [39.270578, 54.844365], [39.282989, 54.835327], [39.290501, 54.829675], [39.293074, 54.827739], [39.308781, 54.816059], [39.317064, 54.809985], [39.321655, 54.806424], [39.324602, 54.803034], [39.324707, 54.802719], [39.323644, 54.801561], [39.321146, 54.796464], [39.320927, 54.795913], [39.337825, 54.781317], [39.351718, 54.76972], [39.393428, 54.754856]]}},
{"type": "Feature", "id": "way/310235833", "properties": {"ProjectID": "P5771", "@id": "way/310235833", "@relations": [{"role": "", "rel": "8207969", "reltags": {"alt_name": "САЦ", "name": "Средняя Азия — Центр", "type": "pipeline"}}]}, "geometry": {"type": "LineString", "coordinates": [[40.160958, 54.293235], [40.15386, 54.296055], [40.152628, 54.296565], [40.151651, 54.297123], [40.138309, 54.309337], [40.137211, 54.309925], [40.12699, 54.314126], [40.125669, 54.314447], [40.116403, 54.315521], [40.113344, 54.315975], [40.111727, 54.316296], [40.098912, 54.319575], [40.08532, 54.327982], [40.076523, 54.347305], [40.044538, 54.357579], [40.032032, 54.361683], [40.019415, 54.371309], [40.018543, 54.372018], [40.010403, 54.378633], [40.008687, 54.380358], [40.007013, 54.384197], [39.987873, 54.392703], [39.969621, 54.40129], [39.959623, 54.405986], [39.950302, 54.406845], [39.944172, 54.408069], [39.934885, 54.407998], [39.926175, 54.411419], [39.923564, 54.41224], [39.912114, 54.414638], [39.905926, 54.415146], [39.900227, 54.418064], [39.89642, 54.418606], [39.87997, 54.425275], [39.872975, 54.427896], [39.861056, 54.429994], [39.853063, 54.431633], [39.850437, 54.434122], [39.846875, 54.435919], [39.835589, 54.441735], [39.828687, 54.445081], [39.819653, 54.449573], [39.817657, 54.450446], [39.814646, 54.451342], [39.813208, 54.451591], [39.806342, 54.452415], [39.792416, 54.453887], [39.791214, 54.453899], [39.779176, 54.452864], [39.778018, 54.452739], [39.769971, 54.4534], [39.762661, 54.454924], [39.761503, 54.455149], [39.760615, 54.455246], [39.748385, 54.455695], [39.743685, 54.456045], [39.741673, 54.456415], [39.737699, 54.457442], [39.718866, 54.462134], [39.717386, 54.462595], [39.71303, 54.464404], [39.711949, 54.465125], [39.710405, 54.465574], [39.702237, 54.466935], [39.700706, 54.467307], [39.699483, 54.467768], [39.69816, 54.468457], [39.691958, 54.472996], [39.687366, 54.475464], [39.686294, 54.475926], [39.670084, 54.482506], [39.667638, 54.483553], [39.667252, 54.484076], [39.661458, 54.494695], [39.660544, 54.495844], [39.656437, 54.499929], [39.653794, 54.50173], [39.646052, 54.505237], [39.631761, 54.512164], [39.629014, 54.513484], [39.616998, 54.513584], [39.615367, 54.513783], [39.605784, 54.516177], [39.604724, 54.516623], [39.602922, 54.519587], [39.596828, 54.52955], [39.592751, 54.536124], [39.592236, 54.537144], [39.592021, 54.541004], [39.591335, 54.551932], [39.591163, 54.554744], [39.590906, 54.555789], [39.588146, 54.561889], [39.58746, 54.563058], [39.58464, 54.566589], [39.579091, 54.573458], [39.574284, 54.579328], [39.569221, 54.585571], [39.560178, 54.596559], [39.556831, 54.600835], [39.550123, 54.609239], [39.544587, 54.614657], [39.53639, 54.622161], [39.528421, 54.630233], [39.515503, 54.642081], [39.512027, 54.645383], [39.510212, 54.64705], [39.50768, 54.650153], [39.500225, 54.659808], [39.496264, 54.665098], [39.490784, 54.67403], [39.48542, 54.682739], [39.482759, 54.686683], [39.476523, 54.693061], [39.467267, 54.703053], [39.463704, 54.706227], [39.456366, 54.709698], [39.454649, 54.710318], [39.446311, 54.711461], [39.444423, 54.712031], [39.436368, 54.715152], [39.419929, 54.720464], [39.417699, 54.721299], [39.416498, 54.722712], [39.411592, 54.729134], [39.410778, 54.730362], [39.408129, 54.734359], [39.402936, 54.74204], [39.39816, 54.749474], [39.395585, 54.753313], [39.394439, 54.7544], [39.393428, 54.754856]]}},
{"type": "Feature", "id": "way/120076428", "properties": {"ProjectID": "P5771", "@id": "way/120076428", "@relations": [{"role": "", "rel": "8207969", "reltags": {"alt_name": "САЦ", "name": "Средняя Азия — Центр", "type": "pipeline"}}]}, "geometry": {"type": "LineString", "coordinates": [[40.784624, 54.168071], [40.745041, 54.19353], [40.741949, 54.195535], [40.740888, 54.196335], [40.740015, 54.197249], [40.736964, 54.199671], [40.734694, 54.200479], [40.733242, 54.20103], [40.729139, 54.203531], [40.728371, 54.203961], [40.727599, 54.204231], [40.726799, 54.204348], [40.710405, 54.206103], [40.683699, 54.208643], [40.681782, 54.208884], [40.680655, 54.20907], [40.679649, 54.209343], [40.646706, 54.2214], [40.645228, 54.221703], [40.609111, 54.225857], [40.596418, 54.227183], [40.591896, 54.22797], [40.580105, 54.229925], [40.576836, 54.230434], [40.573975, 54.230768], [40.571303, 54.230994], [40.569217, 54.231156], [40.547228, 54.232621], [40.543121, 54.23293], [40.537079, 54.233365], [40.532672, 54.233705], [40.531541, 54.233819], [40.530269, 54.233987], [40.529032, 54.234192], [40.518696, 54.236202], [40.498327, 54.240153], [40.496719, 54.240396], [40.476427, 54.242442], [40.442827, 54.246774], [40.432641, 54.247866], [40.420082, 54.249532], [40.416168, 54.250014], [40.398716, 54.251552], [40.393151, 54.252155], [40.389655, 54.252666], [40.361846, 54.258608], [40.339773, 54.263403], [40.338647, 54.263621], [40.33757, 54.263714], [40.336674, 54.26369], [40.324636, 54.262935], [40.31071, 54.263072], [40.277997, 54.263997], [40.235804, 54.267556], [40.22662, 54.268609], [40.206062, 54.275028], [40.188543, 54.28123], [40.182045, 54.283954], [40.16892, 54.289976], [40.160958, 54.293235]]}},
{"type": "Feature", "id": "way/120076427", "properties": {"ProjectID": "P5771", "@id": "way/120076427", "@relations": [{"role": "", "rel": "8207969", "reltags": {"alt_name": "САЦ", "name": "Средняя Азия — Центр", "type": "pipeline"}}]}, "geometry": {"type": "LineString", "coordinates": [[41.096735, 54.0234], [41.079284, 54.031855], [41.052048, 54.045017], [41.050887, 54.04558], [41.049797, 54.046307], [41.034215, 54.058142], [41.030986, 54.060566], [41.029136, 54.061532], [41.027155, 54.062254], [41.024057, 54.063218], [40.97897, 54.078132], [40.977431, 54.078644], [40.975723, 54.079301], [40.969409, 54.082351], [40.967644, 54.08317], [40.96649, 54.08361], [40.965215, 54.083958], [40.95406, 54.086707], [40.912804, 54.096078], [40.910804, 54.096691], [40.909013, 54.097387], [40.90279, 54.100067], [40.881204, 54.109426], [40.877764, 54.111005], [40.87694, 54.111367], [40.876331, 54.111625], [40.871932, 54.113279], [40.871249, 54.113594], [40.870622, 54.113929], [40.860185, 54.120894], [40.848814, 54.128405], [40.814396, 54.149322], [40.784624, 54.168071]]}},
{"type": "Feature", "id": "way/306095101", "properties": {"ProjectID": "P5771", "@id": "way/306095101", "@relations": [{"role": "", "rel": "8207969", "reltags": {"alt_name": "САЦ", "name": "Средняя Азия — Центр", "type": "pipeline"}}]}, "geometry": {"type": "LineString", "coordinates": [[43.022863, 53.23823], [43.017868, 53.237984], [43.016935, 53.238049], [43.016212, 53.238184], [43.012988, 53.239287], [43.008255, 53.241023], [42.973494, 53.251658], [42.971262, 53.252403], [42.969718, 53.25325], [42.960834, 53.260157], [42.938346, 53.277763], [42.926974, 53.286564], [42.900838, 53.306212], [42.897663, 53.308391], [42.894588, 53.309973], [42.890539, 53.311417], [42.885681, 53.312953], [42.821962, 53.333013], [42.819383, 53.334167], [42.795325, 53.353518], [42.76434, 53.365912], [42.748804, 53.372057], [42.715101, 53.38553], [42.695907, 53.393015], [42.693334, 53.394159], [42.691068, 53.395486], [42.683301, 53.400834], [42.663388, 53.415339], [42.64791, 53.427044], [42.610044, 53.453433], [42.608128, 53.454115], [42.592492, 53.458212], [42.576656, 53.461278], [42.555155, 53.465468], [42.552409, 53.466055], [42.550349, 53.46672], [42.541137, 53.470416], [42.522025, 53.478674], [42.520008, 53.479593], [42.510882, 53.486021], [42.504788, 53.490056], [42.489795, 53.498386], [42.48672, 53.499808], [42.45027, 53.51199], [42.448983, 53.512271], [42.428555, 53.513598], [42.425866, 53.513769], [42.423362, 53.514313], [42.406883, 53.51962], [42.405338, 53.520028], [42.403722, 53.520301], [42.355318, 53.524516], [42.349129, 53.525441], [42.343658, 53.526333], [42.339527, 53.527379], [42.241741, 53.555579], [42.172798, 53.574607], [42.128895, 53.583436], [42.105871, 53.590034], [42.034374, 53.610867], [41.967426, 53.631663], [41.927252, 53.644517], [41.920811, 53.646541], [41.919349, 53.646851], [41.902794, 53.648504], [41.899224, 53.648468], [41.879202, 53.64443], [41.877041, 53.644438], [41.857489, 53.651385], [41.854789, 53.651993], [41.827081, 53.655654], [41.795015, 53.659464], [41.791659, 53.659904], [41.78982, 53.660182], [41.787779, 53.660928], [41.784565, 53.66288], [41.779615, 53.665093], [41.776892, 53.66623], [41.759492, 53.673757], [41.752837, 53.679235], [41.749853, 53.682054], [41.746568, 53.684719], [41.737457, 53.687994], [41.732998, 53.689012], [41.707796, 53.693793], [41.70598, 53.694091], [41.701082, 53.694782], [41.693091, 53.695257], [41.692809, 53.695286], [41.692562, 53.69539], [41.683597, 53.712754], [41.683129, 53.713175], [41.667449, 53.722079], [41.665496, 53.722988], [41.647713, 53.72914], [41.646193, 53.72945], [41.639625, 53.729706], [41.633608, 53.729983], [41.63021, 53.730108], [41.624979, 53.730331], [41.618472, 53.731299], [41.60405, 53.733709], [41.589512, 53.736095], [41.575186, 53.738799], [41.565622, 53.741002], [41.562118, 53.742958], [41.552679, 53.748149], [41.550167, 53.749617], [41.53521, 53.757844], [41.528366, 53.761818], [41.522736, 53.765639], [41.517966, 53.769275], [41.513639, 53.772666], [41.502462, 53.781424], [41.496866, 53.785405], [41.470688, 53.799242], [41.442578, 53.814847], [41.411162, 53.834572], [41.401343, 53.843398], [41.392433, 53.85215], [41.386268, 53.85784], [41.372514, 53.870982], [41.366875, 53.876503], [41.365112, 53.877406], [41.359504, 53.879998], [41.353466, 53.882823], [41.344934, 53.886939], [41.331344, 53.894659], [41.305332, 53.909872], [41.297685, 53.914484], [41.287909, 53.921019], [41.261205, 53.938382], [41.249588, 53.945838], [41.233772, 53.955911], [41.216648, 53.966873], [41.204769, 53.974215], [41.204344, 53.974477], [41.20104, 53.976562], [41.196101, 53.97968], [41.190591, 53.983156], [41.186653, 53.985641], [41.178329, 53.989472], [41.149591, 54.002978], [41.144505, 54.005002], [41.139424, 54.006851], [41.129543, 54.010204], [41.110499, 54.017165], [41.107519, 54.018299], [41.096735, 54.0234]]}},
{"type": "Feature", "id": "way/306097183", "properties": {"ProjectID": "P5771", "@id": "way/306097183", "@relations": [{"role": "", "rel": "8207969", "reltags": {"alt_name": "САЦ", "name": "Средняя Азия — Центр", "type": "pipeline"}}]}, "geometry": {"type": "LineString", "coordinates": [[44.146647, 52.711064], [44.10008, 52.708111], [44.065044, 52.722778], [44.0627, 52.724564], [44.03987, 52.73392], [43.996353, 52.75221], [43.98365, 52.756833], [43.970029, 52.766014], [43.922481, 52.787841], [43.887992, 52.804837], [43.862329, 52.817696], [43.839584, 52.827991], [43.830614, 52.832275], [43.80721, 52.850164], [43.806481, 52.851874], [43.806524, 52.852677], [43.807382, 52.85488], [43.807554, 52.855968], [43.805151, 52.870451], [43.80485, 52.871254], [43.796868, 52.876927], [43.794694, 52.877891], [43.73118, 52.896317], [43.701939, 52.90471], [43.675862, 52.912156], [43.644448, 52.921814], [43.623033, 52.927996], [43.618211, 52.929763], [43.604067, 52.938719], [43.603577, 52.939025], [43.582135, 52.953691], [43.557872, 52.965471], [43.557014, 52.968079], [43.556241, 52.968544], [43.526759, 52.970328], [43.52251, 52.970819], [43.495832, 52.97616], [43.493456, 52.976892], [43.48197, 52.981949], [43.454232, 52.994408], [43.438739, 53.000065], [43.436566, 53.001013], [43.429298, 53.007477], [43.425993, 53.00962], [43.406825, 53.018112], [43.370332, 53.036517], [43.367672, 53.037575], [43.361578, 53.039201], [43.358631, 53.040767], [43.315444, 53.071933], [43.301511, 53.080176], [43.290439, 53.08613], [43.288021, 53.086801], [43.273401, 53.087806], [43.261327, 53.088897], [43.258066, 53.089566], [43.255019, 53.090829], [43.250212, 53.093148], [43.231688, 53.10301], [43.215966, 53.110051], [43.205295, 53.114732], [43.203134, 53.115615], [43.196411, 53.11723], [43.19498, 53.117882], [43.177943, 53.134904], [43.164896, 53.145587], [43.160405, 53.149002], [43.152237, 53.152999], [43.136358, 53.163678], [43.117432, 53.176952], [43.095131, 53.192683], [43.084387, 53.200378], [43.070011, 53.210473], [43.067622, 53.214224], [43.064511, 53.219415], [43.063616, 53.220142], [43.042023, 53.232158], [43.031616, 53.238387], [43.031129, 53.238549], [43.030565, 53.238631], [43.022863, 53.23823]]}},
{"type": "Feature", "id": "way/120063879", "properties": {"ProjectID": "P5771", "@id": "way/120063879", "@relations": [{"role": "", "rel": "8207969", "reltags": {"alt_name": "САЦ", "name": "Средняя Азия — Центр", "type": "pipeline"}}]}, "geometry": {"type": "LineString", "coordinates": [[45.414282, 52.258229], [45.40928, 52.254783], [45.408572, 52.254571], [45.375806, 52.250483], [45.370312, 52.250903], [45.360659, 52.257258], [45.355251, 52.25999], [45.344778, 52.267741], [45.322249, 52.27194], [45.303967, 52.279345], [45.294483, 52.285567], [45.291391, 52.289794], [45.273753, 52.296568], [45.266028, 52.30513], [45.249077, 52.315249], [45.235, 52.322437], [45.22617, 52.327706], [45.220495, 52.331092], [45.203286, 52.341426], [45.181056, 52.350358], [45.133002, 52.37082], [45.130929, 52.371484], [45.120837, 52.373929], [45.112223, 52.376385], [45.105112, 52.377437], [45.075218, 52.380661], [45.072504, 52.380966], [45.070805, 52.381254], [45.069238, 52.381679], [45.066793, 52.382615], [45.051872, 52.389942], [45.043131, 52.394489], [45.037562, 52.397239], [45.032535, 52.399648], [45.02855, 52.401664], [45.024887, 52.40335], [45.017035, 52.407328], [45.012679, 52.409168], [44.962105, 52.423474], [44.959985, 52.424481], [44.95825, 52.425233], [44.955611, 52.426359], [44.938207, 52.43341], [44.908507, 52.440404], [44.907778, 52.440649], [44.907228, 52.440885], [44.905596, 52.442651], [44.902392, 52.445962], [44.90095, 52.447365], [44.899899, 52.44837], [44.898175, 52.449437], [44.890431, 52.453638], [44.880874, 52.457919], [44.870726, 52.462692], [44.854913, 52.469753], [44.851781, 52.472288], [44.842377, 52.479389], [44.840001, 52.481227], [44.835233, 52.485448], [44.834019, 52.4864], [44.83133, 52.487311], [44.813178, 52.496983], [44.805298, 52.501126], [44.79005, 52.510128], [44.774519, 52.518079], [44.757194, 52.527358], [44.751815, 52.530519], [44.749828, 52.532721], [44.743055, 52.53618], [44.732648, 52.541375], [44.728857, 52.542486], [44.657407, 52.560385], [44.607728, 52.568826], [44.592214, 52.5727], [44.542218, 52.586471], [44.505727, 52.595357], [44.477845, 52.603677], [44.443088, 52.614421], [44.432913, 52.618111], [44.41648, 52.621131], [44.384077, 52.631501], [44.348326, 52.642807], [44.343908, 52.644471], [44.339443, 52.646397], [44.316784, 52.659675], [44.308299, 52.66391], [44.30657, 52.666182], [44.303759, 52.667871], [44.256831, 52.678467], [44.229966, 52.684555], [44.200912, 52.691371], [44.193273, 52.69353], [44.173749, 52.699873], [44.171858, 52.700734], [44.170187, 52.701667], [44.167397, 52.702682], [44.164694, 52.704086], [44.158, 52.707934], [44.15373, 52.710924], [44.152675, 52.711252], [44.151562, 52.711314], [44.146647, 52.711064]]}},
{"type": "Feature", "id": "way/274505463", "properties": {"ProjectID": "P5771", "@id": "way/274505463", "@relations": [{"role": "", "rel": "8207969", "reltags": {"alt_name": "САЦ", "name": "Средняя Азия — Центр", "type": "pipeline"}}]}, "geometry": {"type": "LineString", "coordinates": [[61.450377, 36.479695], [61.440924, 36.480296], [61.421337, 36.498682], [61.407242, 36.512558], [61.406568, 36.513221], [61.406505, 36.513184], [61.406478, 36.513219], [61.406538, 36.513272], [61.401216, 36.518281], [61.401278, 36.518332], [61.394303, 36.52516], [61.393541, 36.526018], [61.392601, 36.526927], [61.39054, 36.528752], [61.390432, 36.528683], [61.381584, 36.537098], [61.355526, 36.563086], [61.354441, 36.639501], [61.323716, 36.674297], [61.342823, 36.730122], [61.353378, 36.755475], [61.352381, 36.867313], [61.376008, 36.915503], [61.390775, 36.946664], [61.396924, 36.960982], [61.401581, 36.975262], [61.403886, 36.981946], [61.404888, 36.986187], [61.40417, 36.992229], [61.403687, 37.000657], [61.404231, 37.013016], [61.445038, 37.141909], [61.458289, 37.194133], [61.472408, 37.250127]]}},
{"type": "Feature", "id": "way/274559156", "properties": {"ProjectID": "P5771", "@id": "way/274559156", "@relations": [{"role": "", "rel": "8207969", "reltags": {"alt_name": "САЦ", "name": "Средняя Азия — Центр", "type": "pipeline"}}]}, "geometry": {"type": "LineString", "coordinates": [[61.472408, 37.250127], [61.437339, 37.258204], [61.415941, 37.316134], [61.397746, 37.332311], [61.373482, 37.369668], [61.360793, 37.38661], [61.3536, 37.394121], [61.353412, 37.395438], [61.352983, 37.395971], [61.352474, 37.396218], [61.351529, 37.396385], [61.350001, 37.397591], [61.34918, 37.398353], [61.346154, 37.397672], [61.342785, 37.397744], [61.339341, 37.397071]]}},
{"type": "Feature", "id": "way/292481601", "properties": {"ProjectID": "P5771", "@id": "way/292481601", "@relations": [{"role": "", "rel": "8207969", "reltags": {"alt_name": "САЦ", "name": "Средняя Азия — Центр", "type": "pipeline"}}]}, "geometry": {"type": "LineString", "coordinates": [[60.34392, 41.325441], [60.344794, 41.325489], [60.345572, 41.325086], [60.346763, 41.325135], [60.34832, 41.323041], [60.356332, 41.312435], [60.363821, 41.303151], [60.374078, 41.290093], [60.383841, 41.277967], [60.392287, 41.266922], [60.399569, 41.257968], [60.406586, 41.249241], [60.4168, 41.236059], [60.424568, 41.226457], [60.432005, 41.216807], [60.439687, 41.207348], [60.449729, 41.194545], [60.458505, 41.183597], [60.466745, 41.173665], [60.475156, 41.162955], [60.477624, 41.159433], [60.488224, 41.144925], [60.490928, 41.141321], [60.499177, 41.131265], [60.501211, 41.125568], [60.504821, 41.116419], [60.506526, 41.11447], [60.511326, 41.111554], [60.512053, 41.109359], [60.512087, 41.102021], [60.514068, 41.081306], [60.514409, 41.073659], [60.510712, 41.065165], [60.511398, 41.058257], [60.511506, 41.048257], [60.51127, 41.038482], [60.511313, 41.031636], [60.511441, 41.030697], [60.515861, 41.021567], [60.521634, 41.010379], [60.527942, 40.99804], [60.533671, 40.986524], [60.538907, 40.976044], [60.544229, 40.965302], [60.549765, 40.954154], [60.549958, 40.953003], [60.55073, 40.945062], [60.551674, 40.934915], [60.552833, 40.923291], [60.55294, 40.922869], [60.558991, 40.914179], [60.564721, 40.906054], [60.570471, 40.897945], [60.576501, 40.889446], [60.586393, 40.875169], [60.594075, 40.864135], [60.602143, 40.85271], [60.609739, 40.841656], [60.616648, 40.831753], [60.621197, 40.825356], [60.624824, 40.82206], [60.626197, 40.819316], [60.625575, 40.817984], [60.630188, 40.805787], [60.634072, 40.795246], [60.638256, 40.783646], [60.642612, 40.771996], [60.647526, 40.75888], [60.653148, 40.746868], [60.657139, 40.738187], [60.661902, 40.72713], [60.665314, 40.719259], [60.669756, 40.711355], [60.674884, 40.702604], [60.679197, 40.695218], [60.686107, 40.683292], [60.693853, 40.669817], [60.699303, 40.659563], [60.704775, 40.649356], [60.710247, 40.639278], [60.71516, 40.63011], [60.718207, 40.624313], [60.721018, 40.617228], [60.725031, 40.60747], [60.728893, 40.598021], [60.732348, 40.58919], [60.737712, 40.577978], [60.742497, 40.56758], [60.747261, 40.556804], [60.752776, 40.544087], [60.758011, 40.533292], [60.763269, 40.522201], [60.769491, 40.510391], [60.775628, 40.498872], [60.776851, 40.496588], [60.780671, 40.486731], [60.785198, 40.475013], [60.788181, 40.467422], [60.78831, 40.466475], [60.788095, 40.463178], [60.787752, 40.458688], [60.789361, 40.452484], [60.792322, 40.443405], [60.79288, 40.441461], [60.793073, 40.440498], [60.794039, 40.432266], [60.794854, 40.421992], [60.795798, 40.412648], [60.796549, 40.403498], [60.797236, 40.396586], [60.799918, 40.388856], [60.803459, 40.378624], [60.805969, 40.369584], [60.808694, 40.360526], [60.812063, 40.351026], [60.814445, 40.344141], [60.815497, 40.33948], [60.815861, 40.334001], [60.822127, 40.323303], [60.824015, 40.317331], [60.82689, 40.307841], [60.829015, 40.300379], [60.833285, 40.290216], [60.836182, 40.282784], [60.8388, 40.275189], [60.840795, 40.269262], [60.841567, 40.267363], [60.843971, 40.263695], [60.849249, 40.257211], [60.85691, 40.247549], [60.866823, 40.235772], [60.876329, 40.224452], [60.88135, 40.218718], [60.88532, 40.213835], [60.891349, 40.205002], [60.892143, 40.192054], [60.89283, 40.18512], [60.895255, 40.175186], [60.8974, 40.166987], [60.899525, 40.158772], [60.90019, 40.156082], [60.900834, 40.146193], [60.903001, 40.136121], [60.905812, 40.127245], [60.908752, 40.118943], [60.910254, 40.114956], [60.910339, 40.109146], [60.910404, 40.102171], [60.910404, 40.092848], [60.91049, 40.086281], [60.911477, 40.076874], [60.912678, 40.069091], [60.915811, 40.056774], [60.918365, 40.048562], [60.918944, 40.045063], [60.92242, 40.037145], [60.923618, 40.034501], [60.924974, 40.023475], [60.929866, 40.020271], [60.931454, 40.015784], [60.931485, 40.015685], [60.933716, 40.016022], [60.934092, 40.015258], [60.934231, 40.012176], [60.932922, 40.010705], [60.932816, 40.008869], [60.93283, 40.003373], [60.931289, 40.001455], [60.932686, 39.998856], [60.931088, 39.986527], [60.934412, 39.978928], [60.93855, 39.969413], [60.939445, 39.955629], [60.95062, 39.940258], [60.962896, 39.92243], [60.980575, 39.896886], [60.997001, 39.872443], [60.99888, 39.86948], [61.004889, 39.85637], [61.005492, 39.853818], [61.008667, 39.840474], [61.013045, 39.82515], [61.018495, 39.807053], [61.021799, 39.797492], [61.037377, 39.764874], [61.055574, 39.727456], [61.073255, 39.690876], [61.111793, 39.6515], [61.158571, 39.602382], [61.197108, 39.56256], [61.245689, 39.511657], [61.285857, 39.469529], [61.288261, 39.466813], [61.292896, 39.453493], [61.308087, 39.43215], [61.327829, 39.402378], [61.346626, 39.37319], [61.362676, 39.349964], [61.369199, 39.340206], [61.37083, 39.3339], [61.378469, 39.307473], [61.388511, 39.275853], [61.399326, 39.236309], [61.410913, 39.199137], [61.42044, 39.165273], [61.431512, 39.127864], [61.443013, 39.088169], [61.454515, 39.050119], [61.465415, 39.011515], [61.477088, 38.970554], [61.489362, 38.929169], [61.493053, 38.912608], [61.50052, 38.890365], [61.504983, 38.861967], [61.508588, 38.837836], [61.515712, 38.811691], [61.522922, 38.786473], [61.523694, 38.784332], [61.537942, 38.763722], [61.56455, 38.727975], [61.583947, 38.703464], [61.600083, 38.681624], [61.611671, 38.660046], [61.618451, 38.645702], [61.625103, 38.636585], [61.632656, 38.624717], [61.640724, 38.610667], [61.645917, 38.600908], [61.654972, 38.584774], [61.660465, 38.572193], [61.665916, 38.558738], [61.66686, 38.555919], [61.666259, 38.542997], [61.665272, 38.521814], [61.664585, 38.508382], [61.664285, 38.502774], [61.665401, 38.499919], [61.664671, 38.485946], [61.663899, 38.465519], [61.663641, 38.449019], [61.663311, 38.443309], [61.662869, 38.435674], [61.662097, 38.422123], [61.662053, 38.421352], [61.661281, 38.405649], [61.661238, 38.396114], [61.660594, 38.384039], [61.660058, 38.372281], [61.659972, 38.369505], [61.658169, 38.362573], [61.655809, 38.354026], [61.653084, 38.344248], [61.649479, 38.331137], [61.646003, 38.318108], [61.642741, 38.30607], [61.639051, 38.293171], [61.63536, 38.279545], [61.631691, 38.266321], [61.630596, 38.262311], [61.630103, 38.260795], [61.629609, 38.259784], [61.628965, 38.259009], [61.627378, 38.25783], [61.626477, 38.257206], [61.626133, 38.256768], [61.625768, 38.255892], [61.622442, 38.247146], [61.618215, 38.235703], [61.617078, 38.231186], [61.614954, 38.222977], [61.612744, 38.213486], [61.612014, 38.210485], [61.610555, 38.206269], [61.608173, 38.199727], [61.60622, 38.194229], [61.603817, 38.187551], [61.601671, 38.181496], [61.597552, 38.169941], [61.594032, 38.160224], [61.589805, 38.148193], [61.586436, 38.138641], [61.581759, 38.126], [61.577574, 38.114014], [61.573412, 38.102584], [61.568927, 38.090256], [61.565494, 38.080157], [61.561567, 38.070174], [61.557855, 38.058787], [61.553585, 38.046807], [61.549336, 38.035113], [61.545388, 38.023822], [61.541397, 38.012496], [61.537084, 38.000594], [61.532942, 37.988706], [61.52863, 37.976393], [61.524531, 37.964755], [61.521956, 37.958309], [61.517085, 37.950171], [61.51142, 37.940441], [61.506142, 37.931167], [61.500005, 37.920825], [61.494405, 37.911261], [61.48771, 37.899714], [61.481358, 37.888843], [61.473891, 37.875887], [61.47005, 37.869281], [61.465694, 37.861658], [61.461167, 37.853831], [61.457261, 37.847071], [61.45312, 37.84214], [61.447691, 37.835446], [61.443443, 37.829938], [61.440782, 37.826379], [61.438572, 37.823532], [61.434945, 37.819023], [61.429881, 37.812582], [61.425075, 37.806513], [61.417972, 37.797425], [61.414196, 37.792932], [61.413123, 37.791338], [61.410569, 37.780213], [61.409282, 37.774735], [61.407952, 37.768612], [61.405806, 37.759588], [61.403617, 37.75041], [61.401128, 37.738956], [61.398446, 37.727654], [61.396214, 37.717776], [61.39439, 37.709713], [61.392931, 37.703432], [61.391343, 37.696233], [61.388489, 37.683447], [61.385764, 37.671287], [61.382417, 37.656985], [61.379263, 37.643139], [61.376859, 37.632128], [61.375561, 37.627387], [61.374177, 37.620963], [61.373383, 37.617139], [61.37289, 37.615915], [61.370529, 37.610374], [61.366656, 37.600185], [61.365982, 37.598013], [61.363858, 37.594615], [61.362479, 37.591108], [61.359371, 37.583392], [61.355917, 37.574872], [61.352398, 37.566284], [61.349093, 37.558221], [61.345488, 37.549324], [61.341926, 37.540937], [61.338107, 37.531511], [61.333729, 37.520619], [61.329223, 37.509556], [61.32506, 37.499479], [61.321842, 37.491409], [61.317443, 37.480768], [61.314632, 37.47382], [61.313151, 37.47021], [61.313173, 37.469886], [61.315641, 37.463039], [61.317786, 37.457742], [61.323279, 37.443416], [61.325769, 37.437078], [61.332719, 37.418922], [61.33573, 37.412644], [61.336283, 37.411491], [61.336724, 37.410147], [61.336904, 37.409598], [61.337005, 37.409289], [61.337079, 37.409064], [61.33718, 37.408757], [61.337225, 37.408621], [61.337312, 37.408355], [61.337346, 37.408253], [61.337793, 37.406114], [61.338687, 37.401639], [61.339073, 37.398613], [61.339341, 37.397071]]}},
{"type": "Feature", "id": "way/579695357", "properties": {"ProjectID": "P5771", "@id": "way/579695357", "@relations": [{"role": "", "rel": "8207969", "reltags": {"alt_name": "САЦ", "name": "Средняя Азия — Центр", "type": "pipeline"}}]}, "geometry": {"type": "LineString", "coordinates": [[59.258536, 41.982543], [59.292891, 41.964038], [59.295327, 41.96324], [59.312074, 41.958904], [59.351814, 41.906301], [59.384644, 41.86221], [59.402808, 41.845053], [59.421025, 41.817081], [59.425768, 41.793912], [59.446131, 41.773456], [59.448899, 41.771128], [59.468887, 41.759236], [59.788837, 41.533672], [59.86124, 41.483168], [59.862657, 41.482452], [60.215142, 41.330372], [60.217352, 41.329727], [60.25177, 41.322589], [60.27267, 41.319446], [60.329897, 41.325296], [60.341753, 41.32584], [60.34392, 41.325441]]}},
{"type": "Feature", "id": "way/291779084", "properties": {"ProjectID": "P5771", "@id": "way/291779084", "@relations": [{"role": "", "rel": "8207969", "reltags": {"alt_name": "САЦ", "name": "Средняя Азия — Центр", "type": "pipeline"}}]}, "geometry": {"type": "LineString", "coordinates": [[59.258536, 41.982543], [59.249503, 41.984984], [59.23931, 41.985079], [59.237748, 41.985771], [59.230775, 41.985611], [59.219313, 41.984951], [59.217789, 41.984951], [59.216062, 41.985358], [59.174863, 42.000166], [59.160948, 42.014197], [59.158405, 42.017042], [59.154328, 42.021331], [59.151957, 42.024252], [59.13346, 42.043062], [59.076093, 42.075972], [59.026709, 42.099496], [58.894959, 42.162063], [58.892968, 42.162763], [58.850568, 42.177331], [58.766534, 42.20611], [58.744594, 42.213676], [58.743102, 42.214049], [58.716162, 42.220072], [58.711871, 42.221093], [58.686725, 42.230851], [58.689426, 42.235317], [58.68912, 42.235413], [58.688487, 42.23662], [58.674722, 42.241172], [58.659654, 42.247732], [58.643872, 42.254967]]}},
{"type": "Feature", "id": "way/291934217", "properties": {"ProjectID": "P5771", "@id": "way/291934217", "@relations": [{"role": "", "rel": "8207969", "reltags": {"alt_name": "САЦ", "name": "Средняя Азия — Центр", "type": "pipeline"}}]}, "geometry": {"type": "LineString", "coordinates": [[58.10196, 43.4545], [58.116236, 43.417362], [58.129924, 43.381613], [58.132656, 43.374482], [58.143437, 43.346461], [58.153365, 43.320565], [58.164939, 43.29034], [58.177218, 43.257959], [58.193094, 43.215932], [58.201848, 43.192904], [58.205006, 43.180171], [58.207782, 43.168539], [58.208472, 43.168303], [58.20878, 43.166321], [58.208484, 43.166062], [58.18995, 43.156812], [58.189043, 43.156264], [58.188828, 43.155826], [58.192176, 43.149376], [58.201727, 43.131477], [58.211211, 43.11381], [58.222002, 43.093807], [58.233718, 43.072274], [58.244575, 43.052082], [58.256916, 43.029009], [58.269724, 43.005181], [58.278154, 42.991593], [58.283628, 42.982769], [58.291379, 42.970534], [58.298458, 42.959356], [58.313197, 42.936287], [58.327531, 42.913724], [58.341264, 42.892316], [58.347097, 42.882927], [58.355211, 42.869863], [58.369674, 42.847748], [58.385338, 42.82339], [58.397295, 42.803421], [58.397912, 42.802391], [58.408083, 42.786237], [58.422889, 42.763587], [58.435014, 42.743621], [58.454215, 42.712904], [58.466858, 42.693205], [58.480994, 42.659717], [58.484625, 42.651176], [58.4852, 42.648796], [58.48829, 42.631181], [58.48829, 42.630549], [58.487457, 42.62592], [58.496014, 42.593154], [58.50537, 42.556305], [58.515927, 42.513804], [58.523308, 42.483998], [58.519103, 42.471337], [58.508202, 42.444108], [58.509661, 42.419845], [58.512065, 42.38841], [58.514296, 42.354802], [58.538183, 42.327123], [58.557212, 42.305372], [58.567855, 42.293819], [58.576094, 42.288231], [58.60253, 42.272292], [58.631395, 42.259315], [58.637444, 42.256682]]}},
{"type": "Feature", "id": "way/274735373", "properties": {"ProjectID": "P5771", "@id": "way/274735373", "@relations": [{"role": "", "rel": "8207969", "reltags": {"alt_name": "САЦ", "name": "Средняя Азия — Центр", "type": "pipeline"}}]}, "geometry": {"type": "LineString", "coordinates": [[58.10196, 43.4545], [58.102033, 43.456128], [58.103705, 43.465281], [58.053443, 43.506677], [58.012377, 43.539691], [57.975071, 43.570218], [57.902287, 43.629534], [57.862866, 43.661779], [57.835136, 43.684024], [57.811783, 43.703352], [57.778061, 43.73057], [57.742283, 43.759622], [57.717329, 43.776995], [57.707043, 43.806778], [57.703386, 43.814706], [57.692693, 43.824995], [57.676537, 43.83932], [57.659089, 43.85506], [57.643932, 43.868361], [57.62895, 43.879372], [57.610474, 43.89254], [57.587532, 43.908965], [57.559949, 43.928855], [57.554515, 43.934524], [57.534083, 43.95716], [57.530244, 43.960165], [57.52448, 43.964186], [57.524455, 43.964862], [57.523546, 43.96551], [57.522835, 43.965406], [57.518415, 43.96838], [57.509593, 43.974429], [57.500849, 43.980783], [57.489737, 43.98854], [57.482625, 43.992059], [57.450812, 44.006935], [57.435713, 44.017498], [57.408038, 44.037533], [57.396137, 44.045954], [57.372956, 44.06227], [57.341862, 44.084192], [57.268811, 44.128321], [57.174048, 44.185854], [57.061495, 44.255016], [56.931208, 44.333436], [56.854035, 44.379921], [56.813461, 44.404804], [56.797319, 44.415222], [56.77758, 44.425671], [56.756547, 44.438718], [56.70849, 44.46736], [56.670186, 44.49029], [56.627122, 44.515891], [56.58549, 44.540554], [56.576049, 44.546228], [56.562874, 44.553996], [56.547129, 44.563376], [56.541009, 44.566961], [56.529143, 44.574084], [56.514551, 44.582765], [56.507385, 44.587014], [56.497149, 44.593203], [56.48361, 44.601194], [56.47037, 44.609061], [56.458933, 44.615874], [56.448805, 44.621968], [56.436166, 44.629558], [56.426639, 44.635147], [56.416941, 44.640964], [56.408787, 44.645728], [56.397665, 44.652386], [56.386406, 44.659084], [56.379518, 44.663129], [56.373854, 44.666502], [56.362653, 44.673094], [56.351988, 44.679472], [56.338427, 44.687542], [56.323836, 44.696115], [56.308928, 44.705], [56.292722, 44.714553], [56.281543, 44.721171], [56.271978, 44.726866], [56.263668, 44.731827], [56.257016, 44.735714], [56.24927, 44.740302], [56.242983, 44.744143], [56.23337, 44.749614], [56.231782, 44.750604], [56.230601, 44.751611], [56.225276, 44.756834], [56.213425, 44.7674], [56.202103, 44.777086], [56.198155, 44.779766], [56.177049, 44.791316], [56.170302, 44.793892], [56.131035, 44.808881], [56.099973, 44.828096], [56.029636, 44.869738], [56.023857, 44.87304], [56.016783, 44.87725], [56.006262, 44.883425], [55.998516, 44.887758], [55.990533, 44.89244], [55.984869, 44.895693], [55.976565, 44.900572], [55.96964, 44.90472], [55.955686, 44.912912], [55.953262, 44.914249], [55.950414, 44.91598], [55.941267, 44.921528], [55.931632, 44.927104], [55.925309, 44.930824], [55.918243, 44.934821], [55.913614, 44.937492], [55.905025, 44.94237], [55.898158, 44.946394], [55.895348, 44.947958], [55.884705, 44.954154], [55.881443, 44.956128], [55.865533, 44.965285], [55.852303, 44.972981], [55.841167, 44.979401], [55.828958, 44.986489], [55.816674, 44.993683], [55.804839, 45.000526], [55.801964, 45.00221], [55.791557, 45.008278], [55.77614, 45.017108], [55.774124, 45.018291], [55.761344, 45.025752], [55.75304, 45.030575], [55.74435, 45.035625], [55.728729, 45.044722], [55.711498, 45.054682], [55.696156, 45.063609], [55.679345, 45.07334], [55.664742, 45.081748], [55.647394, 45.091687], [55.628769, 45.102457], [55.612578, 45.111694], [55.595467, 45.121341], [55.578225, 45.130605], [55.561316, 45.139672], [55.54826, 45.146696], [55.535052, 45.153701], [55.525322, 45.158892], [55.516641, 45.163476], [55.507061, 45.16853], [55.496192, 45.174277], [55.483854, 45.180872], [55.466978, 45.189887], [55.453405, 45.197129], [55.444007, 45.202104], [55.4339, 45.20744], [55.424545, 45.212444], [55.423365, 45.213155], [55.423193, 45.213623], [55.423214, 45.21577], [55.422764, 45.222299], [55.422528, 45.222541], [55.41518, 45.225701], [55.403967, 45.230445], [55.393388, 45.234873], [55.385449, 45.238212], [55.367982, 45.24554], [55.351095, 45.252595], [55.332169, 45.26054], [55.315981, 45.267367], [55.298729, 45.274615], [55.283396, 45.281107], [55.26859, 45.287222], [55.254085, 45.293305], [55.253076, 45.293788], [55.24606, 45.297652], [55.236673, 45.302785], [55.223915, 45.309681], [55.21823, 45.312745], [55.218047, 45.31288], [55.21736, 45.313748], [55.21427, 45.317437], [55.210945, 45.321376], [55.209669, 45.322952], [55.206235, 45.327184], [55.203873, 45.329929], [55.202093, 45.331845], [55.199068, 45.335457], [55.196579, 45.338376], [55.194218, 45.341136], [55.193102, 45.342456], [55.190346, 45.345647], [55.188962, 45.347117], [55.187823, 45.34803], [55.17289, 45.359308], [55.158627, 45.3762], [55.143204, 45.393935], [55.136241, 45.40262], [55.122128, 45.420223], [55.104526, 45.442512], [55.086158, 45.465215], [55.069449, 45.484955], [55.051425, 45.505945], [55.006299, 45.558862], [54.928492, 45.65016], [54.896771, 45.687899], [54.887542, 45.698431], [54.874043, 45.71446], [54.829979, 45.765684], [54.829908, 45.765767], [54.816092, 45.781829], [54.804823, 45.795155], [54.757091, 45.850135], [54.691665, 45.928651], [54.670929, 45.955228], [54.648351, 45.98502], [54.628011, 46.011234], [54.616025, 46.02713], [54.606504, 46.039539], [54.555622, 46.100812], [54.541088, 46.117925], [54.536818, 46.122875], [54.530836, 46.131972], [54.523744, 46.143226], [54.519386, 46.149929], [54.514654, 46.165204], [54.510163, 46.179491], [54.506913, 46.190505], [54.500794, 46.200235], [54.495053, 46.208972], [54.491784, 46.213636], [54.485042, 46.221176], [54.477748, 46.229015], [54.470458, 46.237341], [54.463682, 46.245383], [54.461203, 46.248517], [54.45537, 46.256832], [54.447367, 46.268232], [54.441645, 46.277032], [54.433075, 46.289104], [54.42095, 46.306567], [54.412191, 46.319263], [54.402276, 46.333521], [54.391984, 46.34848], [54.382268, 46.362479], [54.373328, 46.375507], [54.364986, 46.387453], [54.35597, 46.400802], [54.344533, 46.418341], [54.338396, 46.427644], [54.334521, 46.433965], [54.333071, 46.436552], [54.331079, 46.438918], [54.322644, 46.45197], [54.318348, 46.458534], [54.313565, 46.465898], [54.307565, 46.475033], [54.306978, 46.475901], [54.306007, 46.478485], [54.305495, 46.48018], [54.303224, 46.487107], [54.300977, 46.493902], [54.299095, 46.499512], [54.295785, 46.509632], [54.293562, 46.515728], [54.292397, 46.519274], [54.291584, 46.521752], [54.28962, 46.524202], [54.283098, 46.532297], [54.276543, 46.540385], [54.273606, 46.54396], [54.267133, 46.55194], [54.259649, 46.560184], [54.253519, 46.566709], [54.243862, 46.577032], [54.236543, 46.584696], [54.229096, 46.592488], [54.222142, 46.599981], [54.217362, 46.605463], [54.214333, 46.608942], [54.21187, 46.611713], [54.209508, 46.613263], [54.206696, 46.615163], [54.20564, 46.616145], [54.200698, 46.62218], [54.194542, 46.629475], [54.17552, 46.651789], [54.167212, 46.661183], [54.168102, 46.667845], [54.167502, 46.668565], [54.162061, 46.673433], [54.154091, 46.680506], [54.145336, 46.688337], [54.143351, 46.691061], [54.138903, 46.698552], [54.133952, 46.706701], [54.130594, 46.712601], [54.130315, 46.713547], [54.130401, 46.714749], [54.130702, 46.716336], [54.134167, 46.727368], [54.135691, 46.732121], [54.13642, 46.736823], [54.137348, 46.743044], [54.137826, 46.748841], [54.137572, 46.750339], [54.132096, 46.763059], [54.128616, 46.77104], [54.125686, 46.777974], [54.124243, 46.781311], [54.12293, 46.790159], [54.121862, 46.797895], [54.120947, 46.804629], [54.119672, 46.81282], [54.118095, 46.820884], [54.116329, 46.828971], [54.115027, 46.836122], [54.114276, 46.838973], [54.113171, 46.843401], [54.111926, 46.84911], [54.109909, 46.856712], [54.10786, 46.865688], [54.106197, 46.8731], [54.104695, 46.880201], [54.102571, 46.889797], [54.101884, 46.893789], [54.099341, 46.899571], [54.097796, 46.903158], [54.096273, 46.906794], [54.089438, 46.922114], [54.085705, 46.926966], [54.081864, 46.931977], [54.081177, 46.933253], [54.080244, 46.935458], [54.076596, 46.94534], [54.07386, 46.952544], [54.073388, 46.953175], [54.069365, 46.956725], [54.064424, 46.961135], [54.059291, 46.965792], [54.056598, 46.968136], [54.052832, 46.970106], [54.047532, 46.972874], [54.042221, 46.97556], [54.036728, 46.978287], [54.033273, 46.980125], [54.032876, 46.980441], [54.030698, 46.984389], [54.028938, 46.987655], [54.026718, 46.991633], [54.026321, 46.992306], [54.022573, 46.998931], [54.019982, 47.004094], [54.018976, 47.008646], [54.01872, 47.009144], [54.017037, 47.010897], [54.017058, 47.015701], [54.016123, 47.021695], [54.014241, 47.030713], [54.012652, 47.039817], [54.010668, 47.05318], [54.008798, 47.065199], [54.007478, 47.073795], [54.007173, 47.074503], [54.000309, 47.082471], [53.991977, 47.092376], [53.980589, 47.105914], [53.977216, 47.109773], [53.975494, 47.111749], [53.97533, 47.112418], [53.977814, 47.116058], [53.97794, 47.116551], [53.97719, 47.117334], [53.973815, 47.120635], [53.968325, 47.126033], [53.960428, 47.133668], [53.952541, 47.141323], [53.942674, 47.150872], [53.939984, 47.154425], [53.933057, 47.165697], [53.927228, 47.174843], [53.920876, 47.184962], [53.91486, 47.194576], [53.909294, 47.203363], [53.904088, 47.211686], [53.89884, 47.219824], [53.897157, 47.223016], [53.892797, 47.229765], [53.89118, 47.232353], [53.890386, 47.234507], [53.887743, 47.237659], [53.880044, 47.246322], [53.869627, 47.258077], [53.869359, 47.258567], [53.871581, 47.261764], [53.871498, 47.262275], [53.863551, 47.27321], [53.856553, 47.2828], [53.852468, 47.288307], [53.845179, 47.298178], [53.839075, 47.306443], [53.837018, 47.309288], [53.833182, 47.315179], [53.828086, 47.323064], [53.824203, 47.328867], [53.820486, 47.333274], [53.816817, 47.337452], [53.813563, 47.342463], [53.808717, 47.350049], [53.805546, 47.354936], [53.799164, 47.361226], [53.791275, 47.368837], [53.790416, 47.369778], [53.789766, 47.370706], [53.780072, 47.385371], [53.777589, 47.389127], [53.774599, 47.392397], [53.773215, 47.394044], [53.768244, 47.401843], [53.767674, 47.402687], [53.759469, 47.408772], [53.752928, 47.413529], [53.751059, 47.415056], [53.749284, 47.419355], [53.746561, 47.424569], [53.741767, 47.432776], [53.738276, 47.438957], [53.73764, 47.439506], [53.718801, 47.450814], [53.718273, 47.451202], [53.71778, 47.4522], [53.714758, 47.459537], [53.714359, 47.460011], [53.713045, 47.460792], [53.693515, 47.470649], [53.685203, 47.474818], [53.684108, 47.475108], [53.663287, 47.477952], [53.662379, 47.478308], [53.651753, 47.484355], [53.641137, 47.490396], [53.625104, 47.496199], [53.610066, 47.501635], [53.605675, 47.503113], [53.604885, 47.503789], [53.600909, 47.50788], [53.59534, 47.514069], [53.591883, 47.517613], [53.588159, 47.523289], [53.581978, 47.532575], [53.57577, 47.541968], [53.571376, 47.548698], [53.566081, 47.55656], [53.561174, 47.563924], [53.55691, 47.570221], [53.546584, 47.576633], [53.53423, 47.584383], [53.521977, 47.592075], [53.512868, 47.597723], [53.504337, 47.603051], [53.494704, 47.609132], [53.485027, 47.613736], [53.473777, 47.619131], [53.461314, 47.625133], [53.4472, 47.631884], [53.432203, 47.639086], [53.422121, 47.643562], [53.418161, 47.643949], [53.411594, 47.644522], [53.408867, 47.645608], [53.399915, 47.649521], [53.388871, 47.654165], [53.386743, 47.655065], [53.379097, 47.660348], [53.374262, 47.663787], [53.373286, 47.664241], [53.36217, 47.666848], [53.359706, 47.667287], [53.358041, 47.668297], [53.351092, 47.674662], [53.349029, 47.676471]]}},
{"type": "Feature", "id": "way/312518331", "properties": {"ProjectID": "P5771", "@id": "way/312518331", "@relations": [{"role": "", "rel": "8207969", "reltags": {"alt_name": "САЦ", "name": "Средняя Азия — Центр", "type": "pipeline"}}]}, "geometry": {"type": "LineString", "coordinates": [[53.349029, 47.676471], [53.345295, 47.679745], [53.343662, 47.681187], [53.341484, 47.682467], [53.321254, 47.691011], [53.313841, 47.694183], [53.303103, 47.69878], [53.298247, 47.700735], [53.296286, 47.702], [53.283624, 47.710706], [53.275652, 47.716166], [53.266286, 47.722605], [53.254157, 47.730895], [53.244832, 47.736951], [53.23425, 47.743723], [53.229586, 47.746681], [53.212831, 47.757483], [53.210422, 47.758725], [53.205446, 47.760453], [53.192501, 47.764678], [53.174852, 47.770576], [53.159262, 47.775753], [53.142408, 47.781379], [53.12657, 47.786589], [53.109911, 47.792174], [53.108075, 47.792984], [53.088591, 47.80327], [53.078213, 47.808715], [53.062842, 47.81662], [53.045346, 47.825754], [53.029918, 47.833771], [53.02067, 47.838533], [53.019726, 47.83905], [53.012758, 47.841435], [53.005629, 47.843726], [52.997753, 47.846424], [52.982776, 47.851516], [52.970866, 47.855539], [52.955825, 47.86063], [52.952778, 47.861701], [52.944259, 47.865529], [52.937693, 47.868482], [52.935559, 47.869699], [52.932007, 47.871922], [52.925698, 47.875803], [52.914991, 47.882405], [52.907009, 47.88735], [52.903211, 47.889694], [52.901558, 47.890358], [52.890998, 47.894129], [52.885036, 47.896194], [52.883462, 47.896634], [52.872354, 47.898802], [52.864029, 47.900385], [52.858471, 47.90185], [52.842335, 47.907002], [52.827594, 47.911543], [52.809762, 47.916999], [52.795901, 47.92124], [52.778026, 47.926843], [52.76256, 47.93179], [52.759678, 47.932603], [52.757614, 47.932897], [52.755452, 47.933119], [52.739438, 47.934661], [52.723891, 47.936196], [52.721125, 47.936506], [52.719043, 47.936701], [52.71501, 47.937097], [52.713546, 47.937391], [52.711601, 47.93797], [52.709689, 47.938651], [52.708551, 47.939263], [52.707553, 47.939907], [52.702933, 47.942974], [52.695783, 47.947633], [52.688725, 47.95236], [52.681011, 47.957397], [52.673981, 47.962003], [52.67255, 47.962762], [52.663203, 47.966693], [52.652717, 47.971167], [52.641416, 47.975978], [52.627801, 47.981776], [52.614295, 47.987482], [52.611148, 47.988849], [52.609292, 47.989496], [52.608235, 47.989799], [52.60627, 47.990257], [52.599311, 47.991721], [52.597106, 47.992252], [52.595549, 47.992888], [52.593696, 47.99379], [52.591822, 47.995051], [52.589545, 47.997129], [52.587058, 47.999347], [52.584746, 48.001384], [52.583492, 48.002405], [52.582639, 48.003003], [52.580682, 48.00409], [52.570052, 48.010037], [52.568803, 48.010817], [52.567326, 48.012045], [52.558098, 48.020492], [52.549853, 48.027886], [52.540488, 48.036348], [52.533965, 48.042189], [52.532387, 48.043279], [52.530495, 48.044463], [52.522595, 48.049162], [52.504361, 48.059948], [52.497508, 48.063989], [52.491001, 48.067959], [52.484512, 48.072049], [52.480882, 48.074191], [52.473969, 48.07803], [52.468076, 48.081206], [52.461204, 48.084939], [52.451796, 48.09011], [52.444011, 48.094305], [52.435013, 48.09924], [52.42701, 48.103595], [52.425203, 48.104408], [52.412491, 48.108469], [52.395065, 48.114191], [52.393195, 48.114983], [52.391768, 48.11571], [52.378022, 48.122228], [52.36538, 48.128357], [52.354689, 48.133408], [52.342472, 48.139219], [52.331293, 48.144561], [52.319688, 48.150074], [52.307944, 48.155617], [52.292218, 48.163159], [52.281382, 48.168318], [52.270154, 48.173687], [52.258367, 48.179295], [52.246699, 48.184805], [52.233596, 48.191055], [52.220121, 48.197487], [52.206409, 48.203954], [52.196002, 48.208919], [52.186732, 48.213321], [52.178536, 48.217166], [52.16315, 48.224523], [52.154031, 48.228721], [52.141414, 48.234726], [52.12605, 48.24201], [52.11251, 48.249262], [52.096737, 48.257786], [52.069303, 48.272697], [52.051374, 48.282435], [52.038186, 48.289529], [52.023393, 48.297506], [52.013139, 48.303071], [52.004341, 48.30782], [51.989972, 48.315607], [51.974378, 48.324029], [51.960869, 48.33129], [51.946291, 48.339159], [51.93431, 48.34562], [51.921448, 48.35256], [51.906672, 48.360547], [51.890954, 48.36897], [51.876198, 48.376922], [51.87079, 48.379762], [51.865254, 48.382586], [51.855168, 48.387486], [51.84974, 48.390064], [51.849182, 48.390307], [51.844397, 48.392731], [51.843213, 48.393522], [51.841779, 48.394797], [51.840567, 48.396079], [51.836429, 48.400428], [51.816504, 48.421619], [51.805108, 48.433707], [51.792183, 48.447391], [51.785524, 48.454478], [51.775522, 48.464948], [51.767384, 48.473559], [51.760794, 48.480543], [51.754208, 48.48742], [51.745672, 48.496499], [51.737945, 48.504544], [51.731637, 48.511218], [51.72431, 48.519034], [51.721573, 48.521842], [51.720006, 48.523192], [51.71779, 48.524597], [51.714234, 48.526576], [51.702948, 48.532498], [51.692584, 48.537931], [51.685031, 48.541851], [51.683378, 48.542743], [51.68179, 48.544163], [51.681125, 48.54567], [51.68031, 48.548573], [51.67943, 48.551437], [51.678207, 48.55527], [51.675117, 48.559448], [51.672993, 48.562335], [51.671855, 48.563918], [51.668079, 48.568727], [51.663315, 48.576687], [51.660504, 48.581374], [51.657972, 48.585735], [51.655161, 48.590086], [51.651943, 48.595712], [51.64866, 48.601298], [51.644733, 48.607853], [51.641278, 48.613675], [51.640463, 48.61489], [51.640205, 48.615434], [51.639497, 48.616663], [51.637459, 48.617988], [51.629369, 48.623392], [51.621258, 48.628725], [51.611774, 48.634965], [51.602612, 48.640977], [51.593878, 48.646761], [51.585724, 48.652092], [51.57742, 48.657563], [51.568945, 48.663119], [51.558838, 48.669808], [51.55004, 48.67566], [51.544676, 48.679117], [51.536565, 48.684345], [51.529591, 48.688963], [51.525986, 48.691286], [51.517553, 48.695988], [51.485496, 48.713647], [51.481612, 48.71611], [51.478028, 48.718404], [51.472299, 48.722056], [51.46539, 48.72643], [51.458974, 48.730422], [51.455369, 48.73287], [51.45112, 48.735474], [51.442966, 48.740597], [51.441572, 48.741531], [51.440692, 48.741822], [51.435521, 48.743003], [51.423934, 48.745564], [51.414535, 48.747587], [51.402519, 48.750388], [51.401296, 48.750869], [51.392283, 48.755057], [51.388464, 48.756896], [51.3831, 48.760461], [51.37325, 48.767024], [51.367714, 48.770686], [51.363702, 48.774307], [51.358895, 48.778379], [51.35248, 48.784035], [51.345248, 48.790199], [51.33836, 48.796179], [51.335528, 48.798624], [51.328104, 48.804984], [51.326881, 48.806086], [51.325636, 48.806779], [51.309993, 48.813887], [51.300809, 48.818154], [51.291154, 48.822533], [51.285918, 48.825486], [51.276949, 48.83043], [51.271198, 48.833636], [51.261027, 48.839187], [51.25107, 48.844723], [51.24444, 48.84838], [51.241715, 48.849623], [51.233475, 48.853167], [51.221523, 48.858263], [51.20985, 48.863261], [51.201868, 48.866677], [51.188521, 48.872379], [51.182878, 48.874863], [51.174359, 48.879351], [51.162279, 48.885587], [51.157129, 48.888282], [51.153309, 48.890794], [51.147623, 48.894927], [51.140907, 48.899498], [51.13168, 48.906042], [51.123848, 48.911501], [51.119192, 48.91473], [51.114535, 48.917917], [51.108356, 48.922203], [51.100867, 48.92749], [51.093078, 48.932904], [51.082864, 48.940036], [51.074603, 48.9458], [51.070247, 48.94883], [51.066964, 48.950267], [51.060483, 48.953438], [51.051149, 48.957932], [51.040249, 48.963202], [51.032589, 48.966893], [51.022203, 48.971907], [51.013212, 48.976203], [51.004994, 48.980225], [50.999372, 48.982935], [50.98757, 48.988596], [50.980682, 48.991919], [50.967507, 48.998254], [50.955019, 49.004223], [50.943582, 49.00974], [50.936093, 49.013386], [50.923069, 49.019586], [50.908327, 49.026683], [50.891268, 49.034858], [50.874961, 49.04265], [50.873115, 49.043593], [50.86936, 49.044845], [50.855069, 49.049683], [50.846937, 49.052391], [50.829835, 49.058162], [50.801468, 49.067675], [50.781427, 49.074408], [50.767264, 49.079151], [50.594767, 49.136757], [50.580561, 49.141502], [50.566721, 49.146106], [50.550778, 49.151392], [50.544062, 49.153685], [50.542345, 49.154092], [50.540822, 49.154289], [50.538654, 49.154176], [50.523849, 49.152927], [50.499494, 49.15085], [50.493593, 49.150303], [50.492435, 49.150247], [50.491576, 49.150317], [50.479023, 49.151819], [50.453639, 49.15499], [50.439692, 49.15659], [50.436966, 49.156885], [50.43555, 49.157236], [50.433641, 49.158036], [50.422633, 49.162877], [50.40714, 49.169654], [50.400403, 49.172473], [50.398901, 49.173413], [50.398193, 49.174115], [50.393686, 49.181038], [50.389609, 49.187238], [50.386949, 49.191016], [50.385897, 49.192146], [50.380232, 49.19633], [50.371628, 49.202612], [50.360727, 49.210729], [50.352166, 49.216966], [50.348861, 49.219125], [50.341287, 49.224058], [50.335193, 49.228094], [50.32352, 49.235478], [50.32176, 49.236613], [50.311546, 49.243254], [50.303714, 49.248254], [50.295861, 49.253325], [50.286214, 49.259573], [50.27627, 49.266139], [50.263255, 49.274765], [50.250715, 49.28305], [50.23905, 49.290834], [50.227712, 49.298389], [50.215224, 49.306602], [50.200525, 49.31638], [50.185355, 49.326478], [50.17527, 49.333093], [50.162597, 49.341456], [50.148821, 49.350515], [50.135573, 49.359206], [50.134578, 49.359862], [50.123235, 49.36734], [50.1126, 49.37444], [50.099052, 49.383127], [50.086036, 49.391105], [50.070929, 49.400419], [50.056746, 49.409034], [50.042562, 49.41776], [50.029357, 49.425867], [50.016405, 49.43388], [50.004153, 49.441317], [49.991721, 49.448904], [49.978674, 49.456995], [49.965521, 49.464986], [49.957345, 49.47002], [49.956938, 49.470271], [49.956818, 49.470497], [49.958654, 49.475723], [49.961809, 49.483433], [49.962216, 49.484743], [49.962152, 49.485287], [49.961852, 49.486026], [49.960959, 49.487115], [49.959714, 49.488188], [49.957848, 49.489443], [49.952517, 49.493134], [49.940329, 49.501454], [49.929322, 49.508951], [49.917808, 49.516783], [49.904547, 49.525921], [49.89032, 49.535614], [49.878424, 49.543785], [49.866065, 49.552194], [49.85422, 49.560295], [49.844543, 49.566892], [49.833994, 49.574075], [49.822729, 49.581727], [49.810253, 49.590239], [49.799138, 49.597805], [49.78698, 49.606054], [49.774934, 49.614213], [49.726358, 49.647624], [49.677606, 49.683845], [49.66044, 49.696949], [49.656663, 49.699725], [49.652544, 49.702279], [49.627138, 49.71449], [49.591043, 49.731386], [49.577394, 49.737836], [49.564928, 49.743798], [49.555422, 49.748776], [49.543586, 49.755044], [49.530488, 49.761946], [49.522643, 49.766023], [49.51052, 49.772481], [49.501906, 49.776955], [49.500542, 49.77758], [49.495061, 49.779615], [49.483955, 49.783718], [49.473024, 49.787776], [49.456523, 49.793898], [49.441791, 49.799385], [49.416599, 49.808733], [49.40645, 49.812514], [49.39067, 49.818327], [49.374714, 49.824226], [49.355488, 49.831369], [49.339287, 49.837306], [49.326747, 49.841996], [49.313667, 49.846813], [49.301599, 49.851266], [49.300599, 49.851752], [49.288209, 49.858847], [49.280407, 49.863372], [49.270387, 49.869112], [49.260701, 49.874684], [49.243771, 49.884446], [49.231883, 49.891275], [49.218137, 49.899129], [49.203417, 49.907614], [49.18959, 49.915461], [49.176479, 49.922922], [49.161073, 49.931776], [49.147606, 49.939498], [49.136984, 49.945533], [49.128573, 49.950352], [49.119445, 49.955555], [49.114316, 49.958481], [49.113896, 49.958705], [49.096408, 49.968657], [49.080765, 49.977558], [49.068204, 49.984745], [49.058814, 49.990031], [49.047905, 49.996222], [49.036983, 50.002415], [49.029301, 50.006746], [49.018216, 50.013022], [49.010311, 50.017584], [49.002007, 50.02252], [48.993145, 50.027731], [48.984777, 50.032707], [48.974434, 50.038813], [48.967512, 50.042963], [48.958619, 50.04828], [48.950637, 50.053019], [48.941325, 50.058558], [48.930789, 50.064949], [48.920541, 50.071011], [48.914181, 50.074755], [48.90549, 50.079988], [48.905018, 50.080277], [48.895126, 50.086074], [48.886736, 50.091085], [48.875428, 50.097803], [48.874269, 50.098505], [48.873669, 50.098794], [48.872797, 50.098934], [48.855537, 50.102056], [48.838744, 50.105045], [48.816913, 50.108951], [48.80009, 50.111992], [48.784126, 50.114785], [48.770843, 50.11718], [48.751347, 50.120621], [48.736498, 50.123552], [48.734374, 50.124047], [48.733378, 50.124485], [48.730482, 50.126012], [48.729108, 50.126466], [48.725769, 50.127197], [48.713552, 50.129919], [48.700943, 50.132699], [48.686244, 50.135973], [48.671245, 50.13937], [48.665636, 50.140605], [48.660216, 50.141845], [48.654459, 50.143153], [48.649015, 50.144376], [48.64375, 50.145515], [48.642274, 50.145821], [48.641442, 50.146006], [48.639527, 50.146295], [48.636074, 50.14679], [48.635085, 50.146947], [48.632768, 50.147282]]}},
{"type": "Feature", "id": "way/295120334", "properties": {"ProjectID": "P5771", "@id": "way/295120334", "@relations": [{"role": "", "rel": "8207969", "reltags": {"alt_name": "САЦ", "name": "Средняя Азия — Центр", "type": "pipeline"}}]}, "geometry": {"type": "LineString", "coordinates": [[48.632768, 50.147282], [48.627961, 50.14798], [48.624936, 50.148444], [48.620317, 50.149365], [48.619329, 50.149656], [48.617569, 50.150316], [48.615854, 50.151269], [48.613557, 50.152646], [48.611327, 50.154287], [48.610125, 50.155284], [48.607797, 50.157332], [48.606617, 50.158501], [48.606005, 50.159161], [48.605321, 50.160012], [48.601841, 50.164132], [48.597667, 50.169142], [48.595092, 50.172234], [48.591822, 50.17606], [48.588174, 50.180423], [48.584923, 50.184297], [48.580106, 50.18991], [48.576617, 50.194054], [48.573003, 50.198351], [48.569677, 50.202409], [48.567682, 50.204649], [48.565289, 50.206963], [48.562133, 50.209856], [48.55811, 50.21357], [48.555183, 50.216369], [48.551823, 50.219474], [48.54782, 50.223354]]}},
{"type": "Feature", "id": "way/306437466", "properties": {"ProjectID": "P5771", "@id": "way/306437466", "@relations": [{"role": "", "rel": "8207969", "reltags": {"alt_name": "САЦ", "name": "Средняя Азия — Центр", "type": "pipeline"}}]}, "geometry": {"type": "LineString", "coordinates": [[48.54782, 50.223354], [48.544498, 50.226474], [48.535022, 50.235293], [48.520817, 50.247974], [48.503179, 50.264848], [48.482708, 50.283718], [48.464898, 50.300251], [48.455972, 50.308118], [48.442454, 50.324642], [48.426747, 50.34431], [48.412284, 50.36178], [48.400611, 50.376753], [48.383788, 50.397221], [48.379411, 50.402665], [48.370313, 50.416339], [48.358254, 50.433947], [48.344907, 50.454144], [48.336067, 50.467367], [48.326874, 50.480063], [48.31551, 50.496996], [48.301648, 50.516674], [48.28946, 50.534326], [48.273238, 50.557125], [48.257274, 50.57964], [48.255257, 50.583155], [48.252596, 50.587133], [48.247747, 50.592174], [48.239292, 50.600755], [48.218693, 50.620363], [48.203716, 50.633757], [48.187193, 50.648699], [48.170757, 50.662847], [48.15826, 50.674022], [48.15002, 50.681446], [48.135094, 50.694365], [48.114077, 50.712794], [48.109645, 50.716678], [48.091234, 50.733006], [48.076643, 50.745608], [48.074755, 50.747509], [48.073038, 50.750767], [48.071064, 50.752939], [48.055993, 50.767323], [48.047118, 50.776012], [48.028407, 50.794055], [48.01948, 50.802681], [48.006305, 50.815399], [47.987929, 50.833558], [47.982916, 50.837899], [47.969012, 50.851773], [47.952146, 50.868054], [47.940808, 50.879505], [47.929315, 50.890366], [47.918371, 50.900868], [47.90669, 50.911743], [47.887258, 50.930414], [47.872752, 50.94445], [47.857681, 50.959234], [47.843098, 50.973427], [47.836824, 50.979287], [47.817392, 50.998174], [47.811761, 51.00349], [47.800226, 51.014511], [47.796063, 51.019128], [47.791814, 51.023879], [47.785248, 51.030411], [47.782364, 51.033375], [47.771, 51.044983], [47.76349, 51.053077], [47.745294, 51.069826], [47.729501, 51.08266], [47.723141, 51.088102], [47.716154, 51.096192], [47.708086, 51.106136], [47.698903, 51.117102], [47.692036, 51.125452], [47.683152, 51.136413], [47.674784, 51.146456], [47.662854, 51.161099], [47.657017, 51.16928], [47.651331, 51.177958], [47.650483, 51.179807], [47.647511, 51.19013], [47.643898, 51.193891], [47.638048, 51.199484], [47.636203, 51.201466], [47.633958, 51.20483], [47.631268, 51.20726], [47.624187, 51.212919], [47.61805, 51.218], [47.616011, 51.21964], [47.611905, 51.222109], [47.59906, 51.228711], [47.588503, 51.233897], [47.580928, 51.237914], [47.570843, 51.242965], [47.563098, 51.246692]]}},
{"type": "Feature", "id": "way/306442552", "properties": {"ProjectID": "P5771", "@id": "way/306442552", "@relations": [{"role": "", "rel": "8207969", "reltags": {"alt_name": "САЦ", "name": "Средняя Азия — Центр", "type": "pipeline"}}]}, "geometry": {"type": "LineString", "coordinates": [[47.563098, 51.246692], [47.561316, 51.247586], [47.559557, 51.249398], [47.554386, 51.256832], [47.552605, 51.25937], [47.54443, 51.266835], [47.53649, 51.274111], [47.532584, 51.279502], [47.524259, 51.291156], [47.522906, 51.292976], [47.520891, 51.2949], [47.518916, 51.296416], [47.516813, 51.297712], [47.514495, 51.298625], [47.501427, 51.302381], [47.493747, 51.304761], [47.492007, 51.305601], [47.478962, 51.312876], [47.461795, 51.322044], [47.44654, 51.330202], [47.43551, 51.336195], [47.422035, 51.343286], [47.401134, 51.354525], [47.371888, 51.370353], [47.363433, 51.374661], [47.355259, 51.378992], [47.349873, 51.381872], [47.347384, 51.383747], [47.332664, 51.391219], [47.326997, 51.394119], [47.305024, 51.403624], [47.299746, 51.405739], [47.298158, 51.40705], [47.295497, 51.41029], [47.28521, 51.418848], [47.283781, 51.419952], [47.273953, 51.424046], [47.247775, 51.434829], [47.241726, 51.437309], [47.224343, 51.445396], [47.196448, 51.460211], [47.177094, 51.470023], [47.154906, 51.481597], [47.134479, 51.49381], [47.133339, 51.494801], [47.130801, 51.498273], [47.128059, 51.503236], [47.121198, 51.504002], [47.117827, 51.506072], [47.101369, 51.517958], [47.088139, 51.521692], [47.07311, 51.537554], [47.064356, 51.546869], [47.06234, 51.548863], [47.052082, 51.558944], [47.042213, 51.568247], [47.041783, 51.568668], [47.041483, 51.569394], [47.041483, 51.571528], [47.041182, 51.572216], [47.034209, 51.577769], [47.024101, 51.58555], [47.010626, 51.595655], [47.000005, 51.603626], [46.987603, 51.612959], [46.974126, 51.623133], [46.968376, 51.627489], [46.96108, 51.632923], [46.948356, 51.642139], [46.940074, 51.647963], [46.930417, 51.654694], [46.929495, 51.6554], [46.929174, 51.656044], [46.929065, 51.65713], [46.929002, 51.658014], [46.92853, 51.659039], [46.926253, 51.661669], [46.923378, 51.665503], [46.921706, 51.666825], [46.894453, 51.675936], [46.893681, 51.676282], [46.887235, 51.685403], [46.86184, 51.699367], [46.84656, 51.707354], [46.836775, 51.712513], [46.823259, 51.718354], [46.816476, 51.721473], [46.812313, 51.724397], [46.802531, 51.731433], [46.794525, 51.736887], [46.791224, 51.739469], [46.79069, 51.740391], [46.790931, 51.742957], [46.782703, 51.756326], [46.781416, 51.758403], [46.780494, 51.759493], [46.775493, 51.764215], [46.772317, 51.767163], [46.769829, 51.769957], [46.764635, 51.776152], [46.756996, 51.784582], [46.756611, 51.784999], [46.754251, 51.786008], [46.725647, 51.795068], [46.703739, 51.802], [46.698418, 51.803539], [46.685756, 51.807872], [46.660775, 51.815798], [46.619836, 51.828445], [46.584143, 51.838716], [46.575487, 51.841392], [46.571882, 51.842306], [46.565981, 51.842837], [46.552613, 51.843553], [46.543407, 51.843799], [46.531262, 51.844117], [46.515962, 51.844661], [46.50238, 51.845204], [46.497703, 51.845355], [46.49324, 51.845236], [46.480966, 51.844732], [46.46992, 51.844461], [46.468037, 51.843356], [46.451338, 51.842615], [46.444402, 51.845037], [46.436263, 51.848003]]}},
{"type": "Feature", "id": "way/306441486", "properties": {"ProjectID": "P5771", "@id": "way/306441486", "@relations": [{"role": "", "rel": "8207969", "reltags": {"alt_name": "САЦ", "name": "Средняя Азия — Центр", "type": "pipeline"}}]}, "geometry": {"type": "LineString", "coordinates": [[46.436263, 51.848003], [46.429589, 51.850561], [46.42835, 51.850773], [46.41966, 51.850506], [46.402081, 51.850137], [46.401586, 51.850114], [46.401072, 51.850198], [46.390692, 51.854549], [46.389405, 51.854973], [46.382962, 51.855532], [46.374277, 51.856351], [46.373392, 51.856512], [46.370195, 51.857705], [46.361569, 51.861495], [46.354171, 51.864634], [46.351253, 51.865654], [46.349472, 51.866118], [46.343614, 51.867125], [46.337413, 51.868185], [46.335905, 51.868518], [46.334657, 51.868929], [46.319045, 51.876518], [46.316739, 51.877283], [46.307544, 51.879366], [46.299282, 51.881167], [46.296788, 51.881858], [46.29372, 51.88313], [46.290485, 51.884995], [46.284428, 51.888653], [46.279885, 51.891683], [46.264537, 51.900848], [46.254393, 51.906949], [46.245075, 51.91263], [46.2439, 51.91374], [46.242162, 51.915739], [46.235805, 51.918838], [46.223875, 51.925468], [46.215358, 51.930137], [46.213835, 51.930972], [46.213065, 51.931393], [46.210662, 51.932743], [46.20688, 51.934716], [46.192332, 51.941198], [46.175858, 51.949133], [46.173213, 51.950232], [46.157785, 51.955139], [46.155366, 51.955573], [46.150854, 51.957111], [46.145872, 51.958685], [46.139356, 51.961174], [46.132171, 51.963987], [46.125264, 51.967189], [46.116586, 51.9715], [46.10605, 51.976639], [46.094333, 51.982188], [46.084227, 51.987058], [46.074271, 51.991823], [46.07358, 51.991899], [46.070119, 51.991357], [46.068933, 51.991384], [46.04142, 51.997831], [46.02949, 52.000051], [46.028138, 52.000249], [46.026636, 52.000302], [46.024062, 52.000147], [46.02353, 52.000115], [46.02243, 52.000143], [46.005994, 52.003446], [45.986467, 52.007237], [45.978361, 52.008873], [45.971683, 52.012599], [45.970444, 52.013284], [45.969585, 52.013944], [45.96686, 52.016757], [45.961012, 52.023061], [45.937114, 52.037342], [45.931283, 52.039967], [45.916172, 52.046555], [45.906092, 52.050789], [45.904306, 52.051635], [45.901452, 52.053839], [45.900813, 52.05414], [45.89502, 52.05509], [45.892246, 52.055462], [45.890916, 52.055752], [45.888406, 52.056781], [45.872033, 52.064301], [45.859073, 52.069986], [45.854653, 52.072018], [45.840276, 52.078519], [45.836548, 52.08035], [45.829081, 52.082328], [45.817065, 52.085717], [45.797903, 52.091057], [45.775566, 52.097463], [45.764193, 52.100548], [45.75428, 52.10325], [45.751619, 52.104344], [45.74619, 52.105741], [45.743465, 52.106466], [45.742132, 52.107014], [45.734925, 52.11096], [45.719604, 52.119195], [45.71645, 52.120526], [45.706558, 52.125598], [45.69349, 52.132632], [45.677848, 52.140837], [45.666797, 52.146526], [45.665552, 52.14721], [45.652313, 52.158335], [45.64525, 52.16449], [45.636177, 52.166114], [45.633838, 52.167128], [45.631478, 52.167839], [45.628513, 52.169571], [45.627036, 52.170405], [45.620062, 52.173129], [45.61635, 52.174906], [45.60575, 52.180879], [45.588305, 52.190759], [45.578992, 52.196021], [45.577941, 52.196086], [45.572533, 52.195626], [45.560449, 52.201684], [45.546248, 52.209014], [45.543029, 52.210684], [45.526399, 52.218125], [45.506465, 52.227037], [45.484318, 52.237007], [45.480072, 52.238812], [45.472948, 52.242084], [45.464666, 52.245934], [45.451662, 52.251845], [45.43769, 52.25804], [45.426342, 52.263101], [45.418188, 52.266568], [45.417631, 52.266686], [45.417137, 52.266647], [45.413403, 52.265924]]}}
]
}
