{
"type": "FeatureCollection",
"features": [
{"type": "Feature", "properties": {"ProjectID": "P5857"}, "geometry": {"type": "MultiLineString", "coordinates": [[[48.438041, 29.979206], [48.429152, 29.989666], [48.421429, 29.99694], [48.396602, 30.017748], [48.372818, 30.036961], [48.331256, 30.071608], [48.256838, 30.133126], [48.176902, 30.199903], [47.99999, 30.348982], [47.980865, 30.364111], [47.891857, 30.353743], [47.845759, 30.347078], [47.838894, 30.347607], [47.814374, 30.334804], [47.79819, 30.329619], [47.795003, 30.322212], [47.752706, 30.308982], [47.74584, 30.307077], [47.742898, 30.308029], [47.734561, 30.307712], [47.730883, 30.308135], [47.71801, 30.307183], [47.701581, 30.305595], [47.65438, 30.338402], [47.639178, 30.362841]]]}}
]
}
