{
"type": "FeatureCollection",
"features": [
{"type": "Feature", "properties": {"ProjectID": "P5878", "id": 1, "Name": "Barossa DPD"}, "geometry": {"type": "LineString", "coordinates": [[129.905899, -12.022788], [129.936325, -12.062933], [130.057359, -12.10869], [130.095838, -12.109943], [130.11253, -12.111983], [130.145879, -12.139434], [130.408523, -12.230462], [130.570895, -12.286721], [130.643653, -12.31359], [130.707602, -12.364221], [130.748761, -12.397396], [130.79956, -12.460531], [130.836649, -12.528957], [130.86349, -12.525291]]}}
]
}
