{
"type": "FeatureCollection",
"features": [
{"type": "Feature", "properties": {"ProjectID": "P5908", "id": 5908, "Type": "Gas pipeline", "Name": "Daying-Anyue-Tongliang Gas Pipeline"}, "geometry": {"type": "MultiLineString", "coordinates": [[[105.951829, 29.858623], [105.829942, 29.907706], [105.757305, 29.940994], [105.696681, 29.973097], [105.655206, 29.996775], [105.611543, 30.03382], [105.586131, 30.055964], [105.505305, 30.119482], [105.465532, 30.156097], [105.416359, 30.213321], [105.390454, 30.261808], [105.367645, 30.303415], [105.351075, 30.331273], [105.333185, 30.37901], [105.318926, 30.452764]]]}}
]
}
