{
"type": "FeatureCollection",
"features": [
{"type": "Feature", "properties": {"ProjectID": "P5909", "id": 5909, "Type": "Gas pipeline", "Name": "Moujiaping and Laowengchang Gas Storage Pipeline"}, "geometry": {"type": "MultiLineString", "coordinates": [[[105.24206, 29.715365], [105.25277, 29.596304], [105.259863, 29.518418], [105.269925, 29.483708], [105.292987, 29.435738], [105.306941, 29.407908], [105.326081, 29.37477], [105.329911, 29.338208], [105.338596, 29.293955], [105.339162, 29.255277], [105.328612, 29.178996], [105.327207, 29.126014], [105.317672, 29.056882], [105.307827, 28.985365], [105.302912, 28.949606], [105.301905, 28.942277], [105.297096, 28.920457], [105.289075, 28.875184], [105.279696, 28.846363], [105.266934, 28.80598], [105.254, 28.777485], [105.233435, 28.74598], [105.224682, 28.708195], [105.221097, 28.681809], [105.208996, 28.659172], [105.191356, 28.635557], [105.168578, 28.613894], [105.132543, 28.600855], [105.057079, 28.6166], [104.970655, 28.645142]]]}}
]
}
