{
"type": "FeatureCollection",
"features": [
{"type": "Feature", "properties": {"ProjectID": "P5928"}, "geometry": {"type": "LineString", "coordinates": [[57.269461, 50.144534], [57.320448, 50.146184], [57.396157, 50.162684], [57.46929, 50.180167], [57.540364, 50.207533], [57.68251, 50.232907], [57.879764, 50.241801], [57.926116, 50.251023], [57.982769, 50.250364], [58.108435, 50.236201], [58.209894, 50.228953], [58.224315, 50.221705], [58.285088, 50.223023], [58.484917, 50.194346], [58.619853, 50.1739], [58.727493, 50.180496], [58.928352, 50.142554], [58.994276, 50.143544], [59.015392, 50.140243], [59.08389, 50.144204], [59.118396, 50.158394], [59.152388, 50.161364]]}}
]
}
