{
"type": "FeatureCollection",
"features": [
{"type": "Feature", "properties": {"ProjectID": "P5933"}, "geometry": {"type": "LineString", "coordinates": [[29.252336, 46.436824], [29.307995, 46.495607], [29.311705, 46.514761], [29.295008, 46.531356], [29.296863, 46.618079], [29.241205, 46.674119], [29.192968, 46.737731], [29.154007, 46.787297], [29.115046, 46.863462], [29.092783, 46.900236], [29.098349, 46.934452], [29.09, 46.943319], [29.059388, 46.950919], [29.051967, 46.954718], [29.049184, 46.962316]]}}
]
}
