{
"type": "FeatureCollection",
"features": [
{"type": "Feature", "properties": {"ProjectID": "P5931", "fid": 1}, "geometry": {"type": "LineString", "coordinates": [[-93.910518, 29.75858], [-93.916556, 29.759628], [-93.922547, 29.76143], [-93.92849, 29.763989], [-93.934385, 29.767303], [-93.940377, 29.769105], [-93.946321, 29.771663], [-93.951348, 29.774935], [-93.954541, 29.779636], [-93.957734, 29.784336], [-93.960011, 29.789752], [-93.963205, 29.794452], [-93.965482, 29.799868], [-93.967759, 29.805283], [-93.970906, 29.810739], [-93.974101, 29.81544], [-93.978167, 29.820181], [-93.98228, 29.824166], [-93.986394, 29.828152], [-93.991425, 29.831422], [-93.99554, 29.835407], [-94.001489, 29.837962], [-94.007439, 29.840516], [-94.012472, 29.843786], [-94.018375, 29.847096], [-94.024373, 29.848894], [-94.030324, 29.851447], [-94.037969, 29.854838], [-94.043874, 29.858147], [-94.048909, 29.861415], [-94.054908, 29.863211], [-94.061094, 29.861984], [-94.066504, 29.859204], [-94.071089, 29.855627], [-94.077322, 29.853643], [-94.084377, 29.852454], [-94.09047, 29.852737], [-94.096609, 29.852264], [-94.103572, 29.852587], [-94.10971, 29.852113], [-94.116673, 29.852435], [-94.123682, 29.852], [-94.12996, 29.849258], [-94.136144, 29.848027], [-94.142329, 29.846795], [-94.148513, 29.845563], [-94.154697, 29.844331], [-94.161752, 29.843139], [-94.167981, 29.84115], [-94.175081, 29.839201], [-94.18131, 29.837212], [-94.187539, 29.835222], [-94.193814, 29.832476], [-94.199905, 29.832754], [-94.202196, 29.838165], [-94.208106, 29.841466], [-94.214198, 29.841743], [-94.22029, 29.84202], [-94.226382, 29.842296], [-94.232474, 29.842572], [-94.238567, 29.842848], [-94.244704, 29.842368], [-94.250751, 29.843399], [-94.256708, 29.845942], [-94.259918, 29.850635], [-94.265785, 29.85469], [-94.269912, 29.858666], [-94.274955, 29.861925], [-94.280913, 29.864467], [-94.285956, 29.867725], [-94.293657, 29.870345], [-94.300532, 29.872169], [-94.305576, 29.875426], [-94.311536, 29.877967], [-94.318367, 29.880546], [-94.324373, 29.882329], [-94.329419, 29.885586], [-94.336206, 29.88892], [-94.342168, 29.891459], [-94.349045, 29.89328], [-94.355008, 29.895819], [-94.361015, 29.897601], [-94.36872, 29.900216], [-94.374727, 29.901997], [-94.380735, 29.903778], [-94.38757, 29.906353], [-94.393534, 29.90889], [-94.399543, 29.91067], [-94.405508, 29.913206], [-94.4123, 29.916536], [-94.419092, 29.919866], [-94.425058, 29.922401], [-94.431112, 29.923423], [-94.437123, 29.925202], [-94.443133, 29.92698], [-94.449056, 29.93027], [-94.455024, 29.932803], [-94.461906, 29.934619], [-94.467874, 29.937152], [-94.475585, 29.93976], [-94.484168, 29.942405], [-94.49018, 29.944181], [-94.496149, 29.946713], [-94.502119, 29.949244], [-94.508089, 29.951776], [-94.514102, 29.95355], [-94.524473, 29.955512], [-94.530444, 29.958042], [-94.536458, 29.959816], [-94.541515, 29.963064], [-94.547444, 29.966349], [-94.554331, 29.96816], [-94.560432, 29.96842], [-94.568276, 29.968754], [-94.574377, 29.969014], [-94.580521, 29.968518], [-94.586537, 29.970289], [-94.591596, 29.973535], [-94.59757, 29.976062], [-94.601716, 29.980027], [-94.607605, 29.984066], [-94.61358, 29.986592], [-94.618641, 29.989837], [-94.624659, 29.991606], [-94.630719, 29.99262], [-94.63678, 29.993632], [-94.642883, 29.993889], [-94.649028, 29.993389], [-94.655131, 29.993645], [-94.662148, 29.993181], [-94.669164, 29.992717], [-94.675309, 29.992216], [-94.682368, 29.990995], [-94.69117, 29.989846], [-94.697357, 29.988587], [-94.703543, 29.987329], [-94.710642, 29.98535], [-94.716828, 29.984091], [-94.723056, 29.982075], [-94.729241, 29.980815], [-94.736298, 29.979591], [-94.742483, 29.978331], [-94.748627, 29.977826], [-94.754812, 29.976565], [-94.760997, 29.975304], [-94.767223, 29.973286], [-94.773407, 29.972024], [-94.781376, 29.970077], [-94.78756, 29.968814], [-94.793784, 29.966795], [-94.799178, 29.963984], [-94.805444, 29.961208], [-94.813411, 29.959259], [-94.819512, 29.959507], [-94.825654, 29.958999], [-94.831755, 29.959246], [-94.837856, 29.959493], [-94.843958, 29.95974], [-94.8501, 29.959231], [-94.856282, 29.957965], [-94.862424, 29.957455], [-94.869437, 29.956979], [-94.875619, 29.955712], [-94.881881, 29.952933], [-94.887272, 29.950118], [-94.893493, 29.948094], [-94.899675, 29.946826], [-94.905815, 29.946314], [-94.911996, 29.945045], [-94.918217, 29.94302], [-94.917936, 29.948313], [-94.918528, 29.953641], [-94.918247, 29.958934], [-94.917967, 29.964228], [-94.918558, 29.969556], [-94.920022, 29.974918], [-94.920613, 29.980246], [-94.920333, 29.985539], [-94.920052, 29.990833], [-94.920644, 29.99616], [-94.920364, 30.001454], [-94.920955, 30.006781], [-94.922419, 30.012144], [-94.924756, 30.017541], [-94.925348, 30.022869], [-94.92594, 30.028197], [-94.926532, 30.033525], [-94.927997, 30.038887], [-94.932159, 30.042841], [-94.938146, 30.045352], [-94.941396, 30.050027], [-94.942862, 30.055389], [-94.943455, 30.060717], [-94.942303, 30.065975], [-94.942024, 30.071268], [-94.941744, 30.076561], [-94.941465, 30.081854], [-94.941185, 30.087147], [-94.941779, 30.092475], [-94.941499, 30.097768], [-94.942093, 30.103095], [-94.941813, 30.108388], [-94.941534, 30.113681], [-94.941254, 30.118974], [-94.941848, 30.124301], [-94.941568, 30.129594], [-94.941289, 30.134887], [-94.941883, 30.140214], [-94.942476, 30.145542], [-94.943943, 30.150904], [-94.944537, 30.156231], [-94.946878, 30.161627], [-94.950093, 30.167058], [-94.952435, 30.172455], [-94.95569, 30.177129], [-94.953544, 30.184621], [-94.952391, 30.189879], [-94.952112, 30.195172], [-94.952707, 30.200499], [-94.955049, 30.205895], [-94.958266, 30.211326], [-94.959735, 30.216688], [-94.961204, 30.222049], [-94.964462, 30.226723], [-94.96768, 30.232154], [-94.970024, 30.237549], [-94.973282, 30.242223], [-94.977415, 30.246932], [-94.980674, 30.251605], [-94.986636, 30.25487], [-94.992717, 30.255866], [-94.997726, 30.260608], [-95.000073, 30.266003], [-95.003333, 30.270676], [-95.008422, 30.273905], [-95.013512, 30.277134], [-95.018562, 30.281119], [-95.023613, 30.285104], [-95.02779, 30.289054], [-95.032881, 30.292282], [-95.037933, 30.296266], [-95.041197, 30.300938], [-95.041797, 30.306265], [-95.041522, 30.311557], [-95.042123, 30.316884], [-95.041848, 30.322176], [-95.042449, 30.327503], [-95.041299, 30.332762], [-95.041024, 30.338054], [-95.041625, 30.343381], [-95.04135, 30.348673], [-95.0402, 30.353932], [-95.039926, 30.359224], [-95.039651, 30.364517], [-95.0385, 30.369775], [-95.043596, 30.373003], [-95.05239, 30.372585], [-95.058518, 30.372822], [-95.064646, 30.373058], [-95.072525, 30.373361], [-95.078693, 30.372841], [-95.085735, 30.372354], [-95.091902, 30.371833], [-95.09982, 30.371378], [-95.106863, 30.37089], [-95.113944, 30.369645], [-95.120986, 30.369156], [-95.127153, 30.368633], [-95.133319, 30.36811], [-95.139524, 30.366831], [-95.145729, 30.365551], [-95.152733, 30.365816], [-95.159698, 30.366837], [-95.165711, 30.369337], [-95.172638, 30.371114], [-95.17869, 30.372857], [-95.185618, 30.374632], [-95.194335, 30.375717], [-95.20035, 30.378215], [-95.206327, 30.381469], [-95.212343, 30.383967], [-95.218396, 30.385708], [-95.225364, 30.386726], [-95.23138, 30.389222], [-95.237434, 30.390962], [-95.244364, 30.392735], [-95.251257, 30.395263], [-95.257312, 30.397002], [-95.26333, 30.399498], [-95.271137, 30.401301], [-95.277155, 30.403796], [-95.284087, 30.405566], [-95.290982, 30.408092], [-95.297915, 30.409862], [-95.304847, 30.411631], [-95.310942, 30.412611], [-95.317036, 30.413592], [-95.324845, 30.415392], [-95.330903, 30.417128], [-95.336961, 30.418863], [-95.343019, 30.420599], [-95.349077, 30.422334], [-95.356814, 30.425644], [-95.36291, 30.426622], [-95.370537, 30.4322], [-95.368528, 30.43743], [-95.369148, 30.442754], [-95.368891, 30.448047], [-95.369511, 30.453372], [-95.37013, 30.458697], [-95.371626, 30.464053], [-95.373122, 30.469409], [-95.375495, 30.474797], [-95.378745, 30.480216], [-95.382031, 30.484879], [-95.386232, 30.488818], [-95.391309, 30.492787], [-95.3973, 30.496032], [-95.403291, 30.499277], [-95.409319, 30.501765], [-95.414434, 30.504978], [-95.423057, 30.508315], [-95.429086, 30.510803], [-95.435992, 30.513321], [-95.443812, 30.515114], [-95.448929, 30.518325], [-95.455836, 30.520842], [-95.461867, 30.523328], [-95.468811, 30.525088], [-95.474806, 30.528329], [-95.480838, 30.530814], [-95.486906, 30.532542], [-95.492974, 30.53427], [-95.499042, 30.535998], [-95.505146, 30.53697], [-95.511215, 30.538697], [-95.517284, 30.540424], [-95.519667, 30.545809], [-95.521172, 30.551163], [-95.520924, 30.556456], [-95.516359, 30.560084], [-95.514356, 30.565315], [-95.519442, 30.56928], [-95.523652, 30.573214], [-95.529723, 30.57494], [-95.535688, 30.578934], [-95.540812, 30.582142], [-95.54411, 30.586801], [-95.547408, 30.591459], [-95.548916, 30.596813], [-95.553128, 30.600746], [-95.553759, 30.606069], [-95.556146, 30.611453], [-95.557655, 30.616807], [-95.558286, 30.622131], [-95.558039, 30.627423], [-95.55867, 30.632747], [-95.559301, 30.63807], [-95.566361, 30.637557], [-95.573421, 30.637043], [-95.579567, 30.637254], [-95.585749, 30.63671], [-95.592773, 30.636951], [-95.59892, 30.637162], [-95.605066, 30.637372], [-95.611247, 30.636826], [-95.614969, 30.632409], [-95.618689, 30.627992], [-95.625009, 30.624421], [-95.629572, 30.620789], [-95.633326, 30.615616], [-95.637046, 30.611198], [-95.642451, 30.608352], [-95.648734, 30.605536], [-95.653295, 30.601904], [-95.6587, 30.599057], [-95.66579, 30.597782], [-95.671969, 30.597233], [-95.679868, 30.597499], [-95.684998, 30.600701], [-95.691074, 30.60242], [-95.697184, 30.603382], [-95.70326, 30.6051], [-95.709371, 30.606062], [-95.715413, 30.608535], [-95.719599, 30.613219], [-95.722907, 30.617873], [-95.726181, 30.623283], [-95.733171, 30.624273], [-95.739351, 30.623721], [-95.747253, 30.623982], [-95.753399, 30.624186], [-95.759477, 30.625901], [-95.765556, 30.627616], [-95.772513, 30.62936], [-95.778526, 30.632587], [-95.784605, 30.634301], [-95.790652, 30.636771], [-95.795787, 30.639969], [-95.801834, 30.642438], [-95.809671, 30.644209], [-95.815719, 30.646678], [-95.821767, 30.649146], [-95.827815, 30.651615], [-95.834742, 30.654111], [-95.840824, 30.655823], [-95.846907, 30.657534], [-95.852956, 30.660001], [-95.859039, 30.661712], [-95.866, 30.663451], [-95.872083, 30.665161], [-95.878167, 30.666871], [-95.884251, 30.66858], [-95.890302, 30.671046], [-95.896386, 30.672754], [-95.90247, 30.674463], [-95.908555, 30.676171], [-95.916364, 30.678692], [-95.922417, 30.681155], [-95.928437, 30.684375], [-95.934459, 30.687595], [-95.940577, 30.688545], [-95.946631, 30.691008], [-95.952717, 30.692714], [-95.958804, 30.69442], [-95.964891, 30.696126], [-95.970978, 30.697831], [-95.977976, 30.698808], [-95.984942, 30.70054], [-95.99103, 30.702244], [-95.997086, 30.704705], [-96.003142, 30.707165], [-96.009167, 30.710381], [-96.014314, 30.713569], [-96.017639, 30.718216], [-96.020965, 30.722862], [-96.027118, 30.723052], [-96.033303, 30.722486], [-96.042061, 30.723513], [-96.048151, 30.725215], [-96.054242, 30.726916], [-96.060332, 30.728617], [-96.066361, 30.731831], [-96.072483, 30.732775], [-96.078574, 30.734475], [-96.084666, 30.736175], [-96.090727, 30.738631], [-96.096819, 30.74033], [-96.102911, 30.74203], [-96.109034, 30.742972], [-96.115096, 30.745427], [-96.122947, 30.747178], [-96.129041, 30.748876], [-96.135103, 30.75133], [-96.142045, 30.75381], [-96.148988, 30.756289], [-96.155052, 30.758742], [-96.161146, 30.760439], [-96.167271, 30.761378], [-96.173427, 30.761562], [-96.178582, 30.764743], [-96.181008, 30.770116], [-96.185223, 30.774784], [-96.190349, 30.778721], [-96.195505, 30.781902], [-96.200662, 30.785083], [-96.206789, 30.786021], [-96.212916, 30.786959], [-96.219043, 30.787896], [-96.22693, 30.788885], [-96.233028, 30.790578], [-96.239126, 30.79227], [-96.245194, 30.794719], [-96.250353, 30.797898], [-96.256481, 30.798834], [-96.262639, 30.799013], [-96.268798, 30.799191], [-96.274956, 30.79937], [-96.282785, 30.801867], [-96.287946, 30.805045], [-96.293077, 30.808978], [-96.298209, 30.812912], [-96.30604, 30.815408], [-96.312112, 30.817853], [-96.319063, 30.820324], [-96.325194, 30.821256], [-96.332234, 30.821457], [-96.338394, 30.821632], [-96.344583, 30.821051], [-96.352532, 30.820519], [-96.358749, 30.819181], [-96.363294, 30.815524], [-96.366987, 30.811086], [-96.373204, 30.809747], [-96.37743, 30.814408], [-96.382566, 30.818338], [-96.386794, 30.823], [-96.391959, 30.826173], [-96.398004, 30.82937], [-96.403142, 30.8333], [-96.409217, 30.83574], [-96.415292, 30.838181], [-96.42151, 30.83684], [-96.425202, 30.8324], [-96.429744, 30.82874], [-96.435138, 30.825861], [-96.440532, 30.822982], [-96.446748, 30.82164], [-96.45288, 30.822566], [-96.45904, 30.822736], [-96.464208, 30.825906], [-96.471136, 30.829124], [-96.476305, 30.832294], [-96.484086, 30.836292], [-96.487439, 30.840926], [-96.493461, 30.844876], [-96.497723, 30.848777], [-96.502893, 30.851946], [-96.508064, 30.855115], [-96.513235, 30.858283], [-96.518378, 30.862207], [-96.52355, 30.865375], [-96.528722, 30.868543], [-96.533895, 30.871711], [-96.539976, 30.874145], [-96.545149, 30.877312], [-96.55123, 30.879746], [-96.556377, 30.883669], [-96.560616, 30.888325], [-96.564882, 30.892224], [-96.570911, 30.89617], [-96.576086, 30.899335], [-96.581262, 30.902501], [-96.586438, 30.905666], [-96.590706, 30.909565], [-96.595883, 30.91273], [-96.60106, 30.915894], [-96.607173, 30.917569], [-96.614193, 30.918511], [-96.620414, 30.91716], [-96.626634, 30.915809], [-96.632827, 30.915214], [-96.638913, 30.917644], [-96.642277, 30.922274], [-96.647456, 30.925437], [-96.64815, 30.930754], [-96.650607, 30.936117], [-96.656668, 30.939302], [-96.66273, 30.942488], [-96.668819, 30.944916], [-96.674908, 30.947344], [-96.681878, 30.949795], [-96.687034, 30.953713], [-96.693124, 30.95614], [-96.700122, 30.957833], [-96.706239, 30.959504], [-96.711422, 30.962664], [-96.716606, 30.965824], [-96.721764, 30.96974], [-96.726922, 30.973656], [-96.732107, 30.976816], [-96.737292, 30.979975], [-96.74157, 30.983868], [-96.747663, 30.986293], [-96.753835, 30.986448], [-96.760006, 30.986603], [-96.766126, 30.988271], [-96.771313, 30.991429], [-96.777382, 30.994609], [-96.783477, 30.997032], [-96.789572, 30.999454], [-96.79476, 31.002611], [-96.799041, 31.006503], [-96.802416, 31.011128], [-96.804883, 31.016488], [-96.808258, 31.021113], [-96.811633, 31.025739], [-96.817731, 31.02816], [-96.823931, 31.027556], [-96.83013, 31.026951], [-96.836279, 31.027859], [-96.840563, 31.031749], [-96.846662, 31.034169], [-96.852761, 31.036589], [-96.858861, 31.039008], [-96.864054, 31.042162], [-96.86834, 31.046051], [-96.873508, 31.049961], [-96.879584, 31.053136], [-96.885661, 31.056311], [-96.890855, 31.059464], [-96.89605, 31.062616], [-96.902153, 31.065034], [-96.908256, 31.067451], [-96.914359, 31.069868], [-96.921393, 31.070793], [-96.927497, 31.073209], [-96.933576, 31.076381], [-96.938749, 31.080289], [-96.943923, 31.084196], [-96.949121, 31.087347], [-96.955226, 31.089761], [-96.961307, 31.092932], [-96.966506, 31.096082], [-96.971706, 31.099232], [-96.977788, 31.102402], [-96.983847, 31.106329], [-96.989955, 31.108742], [-96.996087, 31.110398], [-97.001264, 31.114303], [-97.007396, 31.115959], [-97.011667, 31.1206], [-97.017776, 31.123012], [-97.025628, 31.12622], [-97.030831, 31.129368], [-97.036011, 31.133271], [-97.041191, 31.137174], [-97.046395, 31.140321], [-97.053366, 31.143508], [-97.058571, 31.146654], [-97.063776, 31.1498], [-97.069889, 31.152209], [-97.076884, 31.154639], [-97.082997, 31.157047], [-97.092551, 31.162561], [-97.103012, 31.167337], [-97.108197, 31.171238], [-97.114312, 31.173645], [-97.120404, 31.176809], [-97.126519, 31.179215], [-97.131729, 31.182359], [-97.138705, 31.185541], [-97.145705, 31.187966], [-97.151822, 31.190372], [-97.157939, 31.192777], [-97.164034, 31.195938], [-97.170129, 31.199099], [-97.177131, 31.201523], [-97.181437, 31.205401], [-97.187556, 31.207805], [-97.19372, 31.208696], [-97.198933, 31.211836], [-97.205053, 31.214239], [-97.211173, 31.216642], [-97.217249, 31.220557], [-97.222463, 31.223697], [-97.229468, 31.226118], [-97.235568, 31.229276], [-97.240783, 31.232415], [-97.246, 31.235553], [-97.253028, 31.237216], [-97.259173, 31.23886], [-97.26439, 31.241998], [-97.270469, 31.245911], [-97.276571, 31.249067], [-97.281789, 31.252204], [-97.288776, 31.255378], [-97.293995, 31.258515], [-97.30012, 31.260913], [-97.30534, 31.264049], [-97.311466, 31.266447], [-97.317592, 31.268845], [-97.324581, 31.272017], [-97.330729, 31.273658], [-97.335951, 31.276793], [-97.342078, 31.279189], [-97.348227, 31.280829], [-97.354334, 31.283981], [-97.360441, 31.287133], [-97.365664, 31.290267], [-97.371772, 31.293419], [-97.37788, 31.29657], [-97.383105, 31.299703], [-97.390098, 31.302871], [-97.394397, 31.307499], [-97.398717, 31.31137], [-97.404827, 31.31452], [-97.410053, 31.317652], [-97.415279, 31.320783], [-97.421412, 31.323176], [-97.426618, 31.327064], [-97.431846, 31.330195], [-97.435262, 31.334803], [-97.439565, 31.339429], [-97.443888, 31.343299], [-97.449096, 31.347186], [-97.454325, 31.350316], [-97.460461, 31.352707], [-97.46569, 31.355836], [-97.470921, 31.358966], [-97.476151, 31.362095], [-97.481382, 31.365224], [-97.486594, 31.369109], [-97.491805, 31.372994], [-97.497923, 31.37614], [-97.504041, 31.379285], [-97.510219, 31.380161], [-97.516377, 31.381792], [-97.522536, 31.383424], [-97.528695, 31.385055], [-97.533023, 31.388922], [-97.536447, 31.393528], [-97.538081, 31.398856], [-97.54241, 31.402722], [-97.547646, 31.405849], [-97.551957, 31.410471], [-97.556268, 31.415093], [-97.559694, 31.419698], [-97.562215, 31.425043], [-97.567433, 31.428925], [-97.569954, 31.43427], [-97.573381, 31.438875], [-97.580508, 31.437494], [-97.588482, 31.437643], [-97.594626, 31.440027], [-97.600752, 31.443168], [-97.607783, 31.445568], [-97.613928, 31.447952], [-97.620073, 31.450335], [-97.6262, 31.453474], [-97.632365, 31.455101], [-97.638493, 31.45824], [-97.64464, 31.460622], [-97.650787, 31.463003], [-97.656953, 31.464629], [-97.664024, 31.465513], [-97.670191, 31.467137], [-97.676376, 31.468005], [-97.68258, 31.468116], [-97.689671, 31.468243], [-97.695893, 31.467597], [-97.70206, 31.46922], [-97.704591, 31.474562], [-97.705348, 31.479872], [-97.707879, 31.485214], [-97.715839, 31.486112], [-97.722008, 31.487734], [-97.728159, 31.490112], [-97.734346, 31.490977], [-97.739593, 31.494095], [-97.746649, 31.495732], [-97.753688, 31.498124], [-97.76335, 31.502075], [-97.770426, 31.502953], [-97.776579, 31.505329], [-97.78275, 31.506948], [-97.788903, 31.509323], [-97.795057, 31.511698], [-97.80302, 31.51259], [-97.809192, 31.514208], [-97.817103, 31.517368], [-97.824162, 31.519], [-97.830353, 31.519861], [-97.83656, 31.519965], [-97.844542, 31.520097], [-97.850749, 31.5202], [-97.856957, 31.520303], [-97.863113, 31.522675], [-97.869287, 31.52429], [-97.875427, 31.527417], [-97.88068, 31.53053], [-97.885013, 31.535141], [-97.889346, 31.539752], [-97.891002, 31.545076], [-97.898014, 31.548974], [-97.905965, 31.550616], [-97.91122, 31.553727], [-97.91738, 31.556096], [-97.923557, 31.557709], [-97.928797, 31.561576], [-97.934941, 31.564701], [-97.940199, 31.567811], [-97.945456, 31.570921], [-97.951651, 31.571776], [-97.957797, 31.5749], [-97.965734, 31.577294], [-97.971913, 31.578905], [-97.97898, 31.580528], [-97.985159, 31.582138], [-97.992194, 31.585273], [-97.998358, 31.587639], [-98.004522, 31.590004], [-98.011527, 31.594651], [-98.017676, 31.597772], [-98.023841, 31.600136], [-98.030007, 31.6025], [-98.036204, 31.603351], [-98.042386, 31.604958], [-98.048553, 31.60732], [-98.054704, 31.61044], [-98.059968, 31.613545], [-98.066151, 31.615151], [-98.072319, 31.617512], [-98.078502, 31.619117], [-98.084655, 31.622235], [-98.090839, 31.62384], [-98.096993, 31.626957], [-98.103178, 31.628561], [-98.109362, 31.630164], [-98.118166, 31.634075], [-98.126985, 31.63723], [-98.134029, 31.640358], [-98.140185, 31.643473], [-98.145453, 31.646575], [-98.15161, 31.649689], [-98.15688, 31.652791], [-98.163911, 31.656674], [-98.170957, 31.6598], [-98.17799, 31.663682], [-98.184149, 31.666795], [-98.190308, 31.669908], [-98.197371, 31.672276], [-98.204405, 31.676157], [-98.210595, 31.677756], [-98.21677, 31.68011], [-98.222946, 31.682465], [-98.229137, 31.684063], [-98.23709, 31.686441], [-98.243281, 31.688038], [-98.249486, 31.688879], [-98.255663, 31.691232], [-98.262729, 31.693596], [-98.268921, 31.695192], [-98.275987, 31.697556], [-98.282179, 31.699152], [-98.289233, 31.702271], [-98.295412, 31.704622], [-98.301591, 31.706973], [-98.313951, 31.711674], [-98.320118, 31.714781], [-98.325383, 31.718632], [-98.330662, 31.721727], [-98.336843, 31.724076], [-98.343025, 31.726425], [-98.348305, 31.729518], [-98.354487, 31.731867], [-98.359768, 31.73496], [-98.366826, 31.738076], [-98.37301, 31.740423], [-98.379193, 31.74277], [-98.382671, 31.747354], [-98.390621, 31.750479], [-98.396806, 31.752825], [-98.402991, 31.755171], [-98.40915, 31.75903], [-98.416225, 31.761386], [-98.422386, 31.765244], [-98.427671, 31.768335], [-98.432956, 31.771425], [-98.43913, 31.774526], [-98.445355, 31.774601], [-98.451568, 31.775432], [-98.457768, 31.777019], [-98.463055, 31.780108], [-98.468342, 31.783197], [-98.472715, 31.787788], [-98.478916, 31.789374], [-98.485118, 31.79096], [-98.491308, 31.793301], [-98.495683, 31.797892], [-98.50007, 31.801726], [-98.505359, 31.804813], [-98.515097, 31.807951], [-98.521312, 31.808779], [-98.526602, 31.811865], [-98.533684, 31.814215], [-98.539877, 31.816555], [-98.54607, 31.818894], [-98.551361, 31.82198], [-98.556642, 31.825821], [-98.561934, 31.828907], [-98.568117, 31.832001], [-98.5743, 31.835096], [-98.580495, 31.837433], [-98.587569, 31.840537], [-98.593764, 31.842874], [-98.599949, 31.845967], [-98.606145, 31.848303], [-98.61233, 31.851396], [-98.618527, 31.853732], [-98.623823, 31.856814], [-98.62912, 31.859897], [-98.634417, 31.862979], [-98.640615, 31.865314], [-98.646835, 31.866135], [-98.655726, 31.866984], [-98.661968, 31.866292], [-98.66909, 31.866365], [-98.67531, 31.867185], [-98.680609, 31.870265], [-98.686798, 31.873354], [-98.693878, 31.876452], [-98.699167, 31.880288], [-98.705368, 31.882619], [-98.710669, 31.885699], [-98.716871, 31.88803], [-98.723942, 31.891882], [-98.729244, 31.894961], [-98.733645, 31.898787], [-98.738948, 31.901865], [-98.74335, 31.90569], [-98.747752, 31.909516], [-98.753946, 31.912602], [-98.760151, 31.914931], [-98.767246, 31.917268], [-98.773451, 31.919596], [-98.779676, 31.920411], [-98.785882, 31.922739], [-98.792107, 31.923554], [-98.798333, 31.924368], [-98.805459, 31.924433], [-98.811684, 31.925247], [-98.818791, 31.926825], [-98.825008, 31.928394], [-98.831224, 31.929963], [-98.837441, 31.931532], [-98.843658, 31.933101], [-98.851639, 31.936198], [-98.857847, 31.938522], [-98.864047, 31.941603], [-98.870256, 31.943927], [-98.875565, 31.946999], [-98.881784, 31.948566], [-98.887094, 31.951638], [-98.893304, 31.95396], [-98.900406, 31.95629], [-98.906617, 31.958613], [-98.912828, 31.960934], [-98.919049, 31.962499], [-98.92526, 31.96482], [-98.930564, 31.968647], [-98.936777, 31.970968], [-98.942989, 31.973288], [-98.948303, 31.976358], [-98.954508, 31.979434], [-98.96073, 31.980997], [-98.966944, 31.983316], [-98.972259, 31.986385], [-98.979365, 31.98871], [-98.986463, 31.991792], [-98.992687, 31.993354], [-98.998911, 31.994915], [-99.005135, 31.996476], [-99.011351, 31.998793], [-99.017559, 32.001866], [-99.023776, 32.004182], [-99.029094, 32.007249], [-99.036203, 32.009571], [-99.042413, 32.012643], [-99.048631, 32.014959], [-99.05485, 32.017274], [-99.06017, 32.020339], [-99.066389, 32.022653], [-99.073492, 32.02573], [-99.079705, 32.028801], [-99.085026, 32.031864], [-99.091246, 32.034178], [-99.098352, 32.037253], [-99.105465, 32.039572], [-99.111679, 32.042641], [-99.117894, 32.04571], [-99.124102, 32.049535], [-99.130318, 32.052603], [-99.135635, 32.056421], [-99.140959, 32.059482], [-99.145385, 32.063295], [-99.15071, 32.066356], [-99.156935, 32.068666], [-99.163166, 32.070219], [-99.169391, 32.072529], [-99.176515, 32.074087], [-99.182741, 32.076396], [-99.187169, 32.080207], [-99.194281, 32.083277], [-99.202286, 32.086353], [-99.206715, 32.090163], [-99.212044, 32.093222], [-99.217373, 32.09628], [-99.222702, 32.099338], [-99.228924, 32.102402], [-99.235147, 32.105465], [-99.240478, 32.108522], [-99.246695, 32.112341], [-99.252925, 32.114647], [-99.259149, 32.117709], [-99.265367, 32.121527], [-99.2707, 32.124583], [-99.276937, 32.126131], [-99.283168, 32.128435], [-99.289389, 32.132252], [-99.294722, 32.135307], [-99.300955, 32.137611], [-99.307188, 32.139914], [-99.313426, 32.14146], [-99.319665, 32.143006], [-99.325894, 32.146065], [-99.332133, 32.14761], [-99.338367, 32.149911], [-99.346382, 32.152978], [-99.352617, 32.155279], [-99.358848, 32.158336], [-99.367762, 32.160649], [-99.375779, 32.163714], [-99.382914, 32.165261], [-99.390039, 32.168321], [-99.395378, 32.171372], [-99.40161, 32.174428], [-99.407839, 32.178239], [-99.413179, 32.181289], [-99.418519, 32.18434], [-99.424753, 32.187394], [-99.430988, 32.190447], [-99.437223, 32.193501], [-99.443458, 32.196554], [-99.448801, 32.199603], [-99.455037, 32.202655], [-99.461278, 32.204951], [-99.467519, 32.207247], [-99.472863, 32.210295], [-99.479097, 32.214103], [-99.484441, 32.21715], [-99.490688, 32.218688], [-99.496927, 32.221738], [-99.503178, 32.222519], [-99.509433, 32.222543], [-99.515689, 32.222566], [-99.521944, 32.222589], [-99.528203, 32.221855], [-99.534458, 32.221878], [-99.540714, 32.2219], [-99.546969, 32.221921], [-99.553221, 32.2227], [-99.559473, 32.223477], [-99.564817, 32.227278], [-99.571062, 32.229569], [-99.578205, 32.231105], [-99.58355, 32.234905], [-99.588899, 32.237949], [-99.595146, 32.240238], [-99.602296, 32.24026], [-99.609447, 32.240281], [-99.615703, 32.2403], [-99.62196, 32.240318], [-99.628216, 32.240336], [-99.63447, 32.24111], [-99.640729, 32.240371], [-99.648773, 32.240393], [-99.65503, 32.24041], [-99.661287, 32.240426], [-99.66844, 32.239688], [-99.674699, 32.238947], [-99.680958, 32.238206], [-99.689009, 32.235955], [-99.69527, 32.234457], [-99.700643, 32.231443], [-99.707795, 32.230702], [-99.714946, 32.229962], [-99.722098, 32.22922], [-99.728356, 32.228477], [-99.734612, 32.22849], [-99.740868, 32.228502], [-99.748911, 32.228518], [-99.755169, 32.227773], [-99.762318, 32.227787], [-99.768574, 32.227798], [-99.77483, 32.227809], [-99.781085, 32.227819], [-99.787341, 32.22783], [-99.794489, 32.228598], [-99.800746, 32.227851], [-99.807005, 32.226347], [-99.812373, 32.223328], [-99.818633, 32.221067], [-99.824893, 32.218806], [-99.83115, 32.217301], [-99.837408, 32.215796], [-99.843664, 32.215047], [-99.853495, 32.214302], [-99.862431, 32.213555], [-99.870473, 32.213563], [-99.877621, 32.21357], [-99.883877, 32.212819], [-99.891025, 32.212825], [-99.89728, 32.21283], [-99.903536, 32.212079], [-99.909791, 32.211326], [-99.916046, 32.211331], [-99.921409, 32.208308], [-99.927664, 32.208311], [-99.933919, 32.207558], [-99.940173, 32.207561], [-99.948215, 32.207564], [-99.954469, 32.207567], [-99.960724, 32.206812], [-99.966977, 32.208327], [-99.974125, 32.209842], [-99.980379, 32.211356], [-99.986634, 32.211357], [-99.99825, 32.212114], [-100.005398, 32.212114], [-100.011653, 32.212114], [-100.018801, 32.212869], [-100.025949, 32.212868], [-100.036671, 32.212109], [-100.042926, 32.212864], [-100.050076, 32.214374], [-100.056332, 32.216642], [-100.063482, 32.218908], [-100.069737, 32.218905], [-100.077779, 32.2189], [-100.084034, 32.218896], [-100.091184, 32.219648], [-100.097439, 32.219644], [-100.103695, 32.220396], [-100.10995, 32.22039], [-100.117993, 32.220383], [-100.124248, 32.220378], [-100.131397, 32.220371], [-100.138546, 32.220363], [-100.144801, 32.220356], [-100.152844, 32.220347], [-100.159991, 32.219582], [-100.166246, 32.219574], [-100.172501, 32.219566], [-100.17965, 32.219557], [-100.186799, 32.219547], [-100.193054, 32.219538], [-100.199308, 32.218772], [-100.204676, 32.22179], [-100.210936, 32.224049], [-100.217195, 32.225552], [-100.223455, 32.227055], [-100.229712, 32.227801], [-100.236863, 32.228545], [-100.243119, 32.228533], [-100.249373, 32.227765], [-100.255629, 32.227753], [-100.261884, 32.22774], [-100.268138, 32.226971], [-100.275285, 32.2262], [-100.281538, 32.22543], [-100.288685, 32.224658], [-100.294939, 32.223887], [-100.302085, 32.223114], [-100.308341, 32.223099], [-100.314596, 32.223085], [-100.323532, 32.223063], [-100.33336, 32.222281], [-100.339615, 32.222265], [-100.34587, 32.222249], [-100.354812, 32.223738], [-100.362858, 32.224473], [-100.369113, 32.224455], [-100.376262, 32.224435], [-100.382521, 32.225173], [-100.388776, 32.225155], [-100.395032, 32.225136], [-100.403075, 32.225111], [-100.409327, 32.224335], [-100.415583, 32.224316], [-100.422732, 32.224293], [-100.428984, 32.223516], [-100.435239, 32.223495], [-100.441494, 32.223474], [-100.447746, 32.222696], [-100.455778, 32.220399], [-100.45933, 32.215847], [-100.465581, 32.215068], [-100.472729, 32.215042], [-100.478984, 32.21502], [-100.486133, 32.214993], [-100.494175, 32.214963], [-100.500429, 32.214939], [-100.506684, 32.214915], [-100.512935, 32.214134], [-100.520079, 32.213349], [-100.526321, 32.211055], [-100.532563, 32.208759], [-100.537902, 32.204955], [-100.544138, 32.201902], [-100.552157, 32.198086], [-100.558397, 32.195789], [-100.564632, 32.192736], [-100.570872, 32.190439], [-100.578893, 32.187378], [-100.585132, 32.18508], [-100.59138, 32.184295], [-100.598526, 32.184263], [-100.605672, 32.18423], [-100.612818, 32.184196], [-100.619964, 32.184163], [-100.626217, 32.184133], [-100.632469, 32.184103], [-100.638722, 32.184072], [-100.646756, 32.183276], [-100.653897, 32.182484], [-100.661032, 32.180935], [-100.667279, 32.180147], [-100.673521, 32.178601], [-100.679756, 32.176299], [-100.686891, 32.174749], [-100.693132, 32.173203], [-100.700265, 32.171651], [-100.706506, 32.170105], [-100.72522, 32.164706], [-100.732353, 32.163153], [-100.738592, 32.161604], [-100.744837, 32.160812], [-100.751076, 32.159263], [-100.757315, 32.157714], [-100.76356, 32.156921], [-100.772471, 32.154599], [-100.778709, 32.153049], [-100.785846, 32.152249], [-100.792084, 32.150699], [-100.800101, 32.14838], [-100.806345, 32.147585], [-100.813468, 32.145271], [-100.821484, 32.142951], [-100.827721, 32.141398], [-100.833957, 32.139845], [-100.841093, 32.139043], [-100.848228, 32.13824], [-100.854457, 32.13593], [-100.860693, 32.134376], [-100.866015, 32.130557], [-100.871343, 32.127496], [-100.878456, 32.124422], [-100.88469, 32.122866], [-100.89181, 32.120548], [-100.897137, 32.117485], [-100.904256, 32.115166], [-100.913167, 32.113591], [-100.9203, 32.112784], [-100.926533, 32.111227], [-100.932758, 32.108913], [-100.938075, 32.105092], [-100.9443, 32.102777], [-100.950516, 32.099705], [-100.956748, 32.098147], [-100.962964, 32.095074], [-100.969187, 32.092758], [-100.975402, 32.089686], [-100.983401, 32.086599], [-100.991408, 32.084269], [-100.99763, 32.081952], [-101.003859, 32.080391], [-101.010981, 32.078822], [-101.018986, 32.07649], [-101.025223, 32.075685], [-101.032344, 32.074115], [-101.039456, 32.071789], [-101.046577, 32.070219], [-101.053688, 32.067892], [-101.060791, 32.064808], [-101.067018, 32.063244], [-101.073246, 32.06168], [-101.079473, 32.060115], [-101.088349, 32.056258], [-101.096359, 32.054678], [-101.102586, 32.053112], [-101.108811, 32.051546], [-101.115929, 32.049972], [-101.123938, 32.04839], [-101.130164, 32.046823], [-101.138163, 32.044484], [-101.144379, 32.04216], [-101.150603, 32.040592], [-101.156828, 32.039023], [-101.163052, 32.037455], [-101.169276, 32.035886], [-101.178175, 32.034293], [-101.184408, 32.03348], [-101.191523, 32.031902], [-101.197736, 32.029575], [-101.203968, 32.028761], [-101.211965, 32.026417], [-101.218197, 32.025602], [-101.226202, 32.024014], [-101.232434, 32.023199], [-101.238666, 32.022383], [-101.244898, 32.021567], [-101.251109, 32.019238], [-101.25733, 32.017665], [-101.263541, 32.015335], [-101.269772, 32.014517], [-101.323924, 31.997333], [-101.330153, 31.996513], [-101.336372, 31.994936], [-101.345264, 31.993332], [-101.354134, 31.990213], [-101.361232, 31.987869], [-101.367449, 31.986291], [-101.375427, 31.983181], [-101.381643, 31.981602], [-101.387838, 31.978509], [-101.409125, 31.971471], [-101.427771, 31.966728], [-101.434865, 31.964381], [-101.441079, 31.962799], [-101.447294, 31.961217], [-101.453508, 31.959634], [-101.459733, 31.958808], [-101.469487, 31.955672], [-101.475701, 31.954088], [-101.481914, 31.952505], [-101.488127, 31.95092], [-101.495218, 31.948569], [-101.50231, 31.946218], [-101.508534, 31.945389], [-101.515637, 31.943794], [-101.521861, 31.942964], [-101.528072, 31.941379], [-101.534284, 31.939792], [-101.540495, 31.938206], [-101.547572, 31.935095], [-101.554673, 31.933497], [-101.560884, 31.93191], [-101.567094, 31.930322], [-101.574195, 31.928723], [-101.580404, 31.927135], [-101.587492, 31.924779], [-101.59547, 31.922411], [-101.602556, 31.920054], [-101.612302, 31.916907], [-101.619401, 31.915306], [-101.625583, 31.912202], [-101.63179, 31.910611], [-101.639753, 31.907485], [-101.645947, 31.905137], [-101.653031, 31.902777], [-101.659251, 31.901941], [-101.665484, 31.901862], [-101.671704, 31.901025], [-101.677897, 31.898676], [-101.68409, 31.896326], [-101.690309, 31.895489], [-101.697405, 31.893883], [-101.702679, 31.890031], [-101.707952, 31.886179], [-101.714143, 31.883827], [-101.720361, 31.882989], [-101.726594, 31.882906], [-101.732826, 31.882823], [-101.74081, 31.881203], [-101.747904, 31.879595], [-101.754984, 31.87723], [-101.762049, 31.874108], [-101.768224, 31.870997], [-101.773493, 31.867142], [-101.777873, 31.863299], [-101.780443, 31.857967], [-101.784821, 31.854124], [-101.790104, 31.851025], [-101.795386, 31.847926], [-101.801601, 31.847083], [-101.807816, 31.84624], [-101.814045, 31.846153], [-101.822915, 31.844516], [-101.822143, 31.850581]]}}
]
}
