{
"type": "FeatureCollection",
"features": [
{"type": "Feature", "properties": {"ProjectID": "P5966"}, "geometry": {"type": "LineString", "coordinates": [[122.040475, 39.788886], [121.967509, 39.797099], [121.905402, 39.824929], [121.886424, 39.823604], [121.855371, 39.803726], [121.841569, 39.762627], [121.84847, 39.746711], [121.831218, 39.744058], [121.826042, 39.725484], [121.803614, 39.705578], [121.789813, 39.698942], [121.753583, 39.690977], [121.720805, 39.648482], [121.713904, 39.645825], [121.658697, 39.600645], [121.650071, 39.58735], [121.656972, 39.580702], [121.648346, 39.568734], [121.558635, 39.532818], [121.537933, 39.51818], [121.520681, 39.492889], [121.520681, 39.491558]]}}
]
}
