{
"type": "FeatureCollection",
"features": [
{"type": "Feature", "properties": {"ProjectID": "P5970", "PipelineName": "High Pine Expansion Project", "SegmentName": "BC Gas Pipeline", "Status": "operating", "Fuel": "Gas", "Route": "56.0876999,-120.6660004:56.0060005,-120.4380035:55.9692993,-120.4209976:55.9388008,-120.2020035:55.9104996,-119.9749985:55.8345985,-119.7929993;49.0008011,-122.2570038:49.1181984,-122.0759964:49.1899986,-121.8460007:49.3530998,-121.6910019:49.3787994,-121.3509979:49.5850983,-121.1819992:49.5970001,-121.0839996:49.6607018,-121.0449982:49.7540016,-121.052002:49.8530006,-120.9440002:50.3628006,-120.8170013:50.4910011,-120.8560028:50.7392998,-120.901001:50.8628998,-120.9960022:50.9510994,-121.0189972:51.3158989,-121.3430023:51.6397018,-121.3320007:51.7713013,-121.4039993:51.8991013,-121.6729965:52.3350983,-122.2600021:52.4169998,-122.2480011:52.5293999,-122.4499969:52.7742996,-122.4349976:52.8478012,-122.4079971:53.0315018,-122.487999:53.5676994,-122.6289978:54.0397987,-122.6230011:54.5130997,-122.651001:55.0033989,-123.0250015:55.1282005,-123.0199966:55.1441994,-122.8860016:55.2398987,-122.6900024:55.3195,-122.723999:55.3609009,-122.6230011:55.4846001,-122.8069992:55.5257988,-122.7180023:55.5004005,-122.5839996:55.6332016,-122.2490005:55.9724998,-122.0859985:56.5345993,-122.1419983:56.6766014,-122.223999:57.0521011,-122.5709991:57.2132988,-122.6179962:57.4412003,-122.6819992:57.4681015,-122.6360016:57.5737991,-122.7220001:58.6430016,-122.6809998;57.2126007,-122.6149979:57.2029991,-123.0090027;\n56.8320999,-122.3669968:56.9402008,-122.1210022:56.9426003,-121.9629974;55.6329994,-122.2490005:55.6488991,-122.2040024:55.6297989,-122.0749969:55.6086006,-122.0319977:55.6212997,-121.8150024:55.6805992,-121.689003:55.8560982,-121.2050018:55.9225006,-121.2070007:55.9273987,-121.0159988:56.0895996,-120.6660004:56.1632004,-120.6669998:56.3633995,-120.0770035:56.3667984,-119.9850006;\n55.9482994,-120.9710007:55.8620987,-120.9520035:55.8541985,-120.8949966:55.8293991,-120.8960037;56.0093994,-120.4400024:56.0486984,-120.3700027;55.9384003,-120.1989975:55.8637009,-120.197998", "RouteType": "Not yet mapped (100 km or longer; route is needed)", "RouteAccuracy": "high", "RouteNotes": "https://gochetwynd.com/agendas/2017/2017-22-78788887/pages/documents/D-1.pdf"}, "geometry": {"type": "MultiLineString", "coordinates": [[[-120.666, 56.0877], [-120.438003, 56.006], [-120.420998, 55.969299], [-120.202004, 55.938801], [-119.974998, 55.9105], [-119.792999, 55.834598]], [[-122.257004, 49.000801], [-122.075996, 49.118198], [-121.846001, 49.189999], [-121.691002, 49.3531], [-121.350998, 49.378799], [-121.181999, 49.585098], [-121.084, 49.597], [-121.044998, 49.660702], [-121.052002, 49.754002], [-120.944, 49.853001], [-120.817001, 50.362801], [-120.856003, 50.491001], [-120.901001, 50.7393], [-120.996002, 50.8629], [-121.018997, 50.951099], [-121.343002, 51.315899], [-121.332001, 51.639702], [-121.403999, 51.771301], [-121.672996, 51.899101], [-122.260002, 52.335098], [-122.248001, 52.417], [-122.449997, 52.5294], [-122.434998, 52.7743], [-122.407997, 52.847801], [-122.487999, 53.031502], [-122.628998, 53.567699], [-122.623001, 54.039799], [-122.651001, 54.5131], [-123.025002, 55.003399], [-123.019997, 55.1282], [-122.886002, 55.144199], [-122.690002, 55.239899], [-122.723999, 55.3195], [-122.623001, 55.360901], [-122.806999, 55.4846], [-122.718002, 55.525799], [-122.584, 55.5004], [-122.249, 55.633202], [-122.085999, 55.9725], [-122.141998, 56.534599], [-122.223999, 56.676601], [-122.570999, 57.052101], [-122.617996, 57.213299], [-122.681999, 57.4412], [-122.636002, 57.468102], [-122.722, 57.573799], [-122.681, 58.643002]], [[-122.614998, 57.212601], [-123.009003, 57.202999]], [[-122.366997, 56.8321], [-122.121002, 56.940201], [-121.962997, 56.9426]], [[-122.249, 55.632999], [-122.204002, 55.648899], [-122.074997, 55.629799], [-122.031998, 55.608601], [-121.815002, 55.6213], [-121.689003, 55.680599], [-121.205002, 55.856098], [-121.207001, 55.922501], [-121.015999, 55.927399], [-120.666, 56.0896], [-120.667, 56.1632], [-120.077004, 56.363399], [-119.985001, 56.366798]], [[-120.971001, 55.948299], [-120.952004, 55.862099], [-120.894997, 55.854199], [-120.896004, 55.829399]], [[-120.440002, 56.009399], [-120.370003, 56.048698]], [[-120.198998, 55.9384], [-120.197998, 55.863701]]]}}
]
}
