{
"type": "FeatureCollection",
"features": [
{"type": "Feature", "properties": {"ProjectID": "P6002", "id": 6002, "Type": "Pipeline", "Name": "Zunyi-Hezhang Gas Pipeline"}, "geometry": {"type": "MultiLineString", "coordinates": [[[107.011071, 27.453287], [106.965696, 27.450766], [106.930405, 27.448245], [106.912759, 27.435641], [106.842176, 27.440683], [106.814446, 27.428079], [106.79428, 27.417995], [106.753946, 27.428079], [106.726217, 27.443204], [106.690925, 27.443204], [106.64555, 27.453287], [106.627905, 27.448245], [106.600175, 27.428079], [106.574967, 27.420516], [106.544717, 27.420516], [106.516988, 27.407912], [106.4943, 27.395308], [106.46405, 27.387745], [106.436321, 27.387745], [106.393467, 27.37262], [106.3733, 27.367579], [106.350613, 27.367579], [106.302717, 27.344891], [106.274988, 27.337329], [106.244738, 27.322204], [106.209446, 27.304558], [106.174154, 27.284391], [106.169113, 27.276829], [106.126258, 27.274308], [106.0708, 27.28187], [106.020383, 27.299516], [105.990133, 27.291954], [105.957363, 27.279349], [105.929633, 27.261704], [105.904425, 27.254141], [105.866613, 27.246579], [105.836363, 27.241537], [105.811154, 27.233974], [105.783425, 27.223891], [105.7683, 27.239016], [105.740571, 27.226412], [105.702758, 27.218849], [105.669987, 27.216329], [105.637217, 27.206245], [105.604446, 27.196162], [105.576717, 27.188599], [105.541425, 27.196162], [105.518737, 27.198683], [105.49605, 27.181037], [105.4658, 27.163391], [105.430508, 27.155829], [105.387654, 27.138183], [105.349841, 27.133141], [105.317071, 27.13062], [105.299425, 27.112974], [105.266654, 27.105412], [105.2238, 27.112974], [105.213716, 27.123058], [105.19355, 27.118016], [105.168341, 27.112974], [105.153216, 27.125579], [105.122966, 27.112974], [105.110362, 27.115495], [105.077591, 27.125579], [105.077591, 27.13062], [105.049862, 27.120537], [104.986841, 27.110454], [104.971716, 27.10037], [104.943987, 27.10037], [104.9213, 27.095329], [104.89105, 27.095329], [104.86332, 27.092808], [104.825508, 27.097849], [104.810383, 27.112974], [104.777612, 27.092808], [104.732237, 27.077683], [104.737279, 27.062558], [104.638966, 27.057516], [104.59107, 27.03987], [104.56082, 27.060037]]]}}
]
}
