{
"type": "FeatureCollection",
"features": [
{"type": "Feature", "properties": {"ProjectID": "P6007"}, "geometry": {"type": "MultiLineString", "coordinates": [[[47.319489, 30.883456], [47.322861, 30.873039], [47.328807, 30.855122], [47.327795, 30.834702], [47.312716, 30.828412], [47.312593, 30.821279], [47.311735, 30.805932], [47.310877, 30.778787], [47.314922, 30.751713], [47.321788, 30.711667], [47.327795, 30.657421], [47.322646, 30.616386], [47.323014, 30.606468], [47.320562, 30.59391], [47.320685, 30.566204], [47.327293, 30.565668]]]}}
]
}
