{"type":"Feature","properties":{},"geometry":{"type":"LineString","coordinates":[[59.1965435,35.4012814],[59.1922675,35.4150122],[59.1911917,35.4173891],[59.19265,35.4230584],[59.1943218,35.4278057],[59.1926903,35.4363486],[59.1929314,35.4393199],[59.1938356,35.4424384],[59.1970376,35.4468002],[59.1982961,35.4488848],[59.1986647,35.4532286],[59.1966264,35.456365],[59.1943514,35.4585518],[59.1941022,35.4594823],[59.194476,35.4611429],[59.1943061,35.4632324],[59.1955973,35.4640488],[59.1984074,35.465878],[59.1990227,35.4672977],[59.2001799,35.4683953],[59.2018058,35.4696718],[59.2024435,35.4705081],[59.2035677,35.4731183],[59.2043331,35.4734689],[59.2068397,35.4738286],[59.2115319,35.4752615],[59.2142942,35.4769657],[59.2147378,35.4778029],[59.2146176,35.4784145],[59.207914,35.4861809],[59.207654,35.4871638],[59.2034613,35.4915199],[59.2024222,35.4931526],[59.1981112,35.4975099],[59.195848,35.5000163],[59.195221,35.5007181],[59.1948488,35.5015954],[59.1923604,35.5031427],[59.1913611,35.5036372],[59.1894834,35.5058933],[59.188906,35.5083791],[59.1890932,35.510998],[59.1889712,35.5115614],[59.1883031,35.5121052],[59.1875605,35.5151416],[59.187364,35.5183057],[59.1855898,35.5294371],[59.1847844,35.5342235],[59.1817676,35.5449831],[59.180195,35.5505256],[59.1804817,35.5532356],[59.1808618,35.5590765],[59.1814184,35.5665595],[59.1820813,35.5775861],[59.183187,35.5912829],[59.185029,35.6182595],[59.1865968,35.6393599],[59.1877157,35.6555853],[59.1884255,35.6669554],[59.188965,35.676299],[59.1909655,35.695118],[59.1916302,35.702064],[59.1906283,35.7114431],[59.1889127,35.7282943],[59.1942638,35.7418722],[59.196257,35.7473824],[59.1976324,35.7573402],[59.2001804,35.7756929],[59.2037949,35.8034519],[59.2044735,35.808323],[59.2045197,35.8101583],[59.2022105,35.8141657],[59.2012868,35.8249884],[59.1992835,35.8448646],[59.196985,35.8721608],[59.2022116,35.8944951],[59.2086961,35.9218941],[59.2134471,35.9428576],[59.2156169,35.9525365],[59.2156169,35.9526849]]}}