{
"type": "FeatureCollection",
"features": [
{"type": "Feature", "properties": {"ProjectID": "P6001", "id": null, "Name": "Lingang-Shanghai Chemical Industry Zone Gas Pipeline", "Type": null}, "geometry": {"type": "MultiLineString", "coordinates": [[[121.774212, 30.854539], [121.773726, 30.858707], [121.773726, 30.862874], [121.774697, 30.867042], [121.769842, 30.868708], [121.769842, 30.872876], [121.770328, 30.877043], [121.770813, 30.881209], [121.771784, 30.885376], [121.769357, 30.889126], [121.764502, 30.889959], [121.759647, 30.890792], [121.754792, 30.891209], [121.749937, 30.891209], [121.745082, 30.890375], [121.740227, 30.890375], [121.735373, 30.889959], [121.730518, 30.889959], [121.725663, 30.889542], [121.720808, 30.889542], [121.715953, 30.889126], [121.711098, 30.889126], [121.706243, 30.888709], [121.701388, 30.888292], [121.696533, 30.887876], [121.691678, 30.887876], [121.686823, 30.887876], [121.681968, 30.887459], [121.677113, 30.886626], [121.672259, 30.886626], [121.667404, 30.886626], [121.662549, 30.887042], [121.657694, 30.888709], [121.652839, 30.889959], [121.648469, 30.892042], [121.644586, 30.894542], [121.639731, 30.894125], [121.634876, 30.892459], [121.630021, 30.891209], [121.625166, 30.890375], [121.620311, 30.888709], [121.615456, 30.887876], [121.610601, 30.887042], [121.605746, 30.885792], [121.600891, 30.884959], [121.596036, 30.884126], [121.591181, 30.883709], [121.586327, 30.882459], [121.581472, 30.882043], [121.576617, 30.881209], [121.571762, 30.879959], [121.567878, 30.877459], [121.563994, 30.874959], [121.559139, 30.873292], [121.55477, 30.871209], [121.5504, 30.869125], [121.545545, 30.868292], [121.541176, 30.866208], [121.536806, 30.863708], [121.531951, 30.862041], [121.528068, 30.85954], [121.528068, 30.855373], [121.524184, 30.852872], [121.519329, 30.851621], [121.514474, 30.850371], [121.509619, 30.849121], [121.504764, 30.847453], [121.500394, 30.845369], [121.49554, 30.844536], [121.490685, 30.842868], [121.48583, 30.842035], [121.488257, 30.838283], [121.49117, 30.834948], [121.494083, 30.831613], [121.496511, 30.827861], [121.497967, 30.823692], [121.494083, 30.821191], [121.494569, 30.817021], [121.493112, 30.812852], [121.488743, 30.810767], [121.484373, 30.808265]]]}}
]
}
