{
"type": "FeatureCollection",
"features": [
{"type": "Feature", "properties": {"ProjectID": "P6008", "id": null, "Name": null, "Type": null}, "geometry": {"type": "MultiLineString", "coordinates": [[[-78.584635, 42.797628], [-78.586232, 42.79185], [-78.580611, 42.788923], [-78.577376, 42.786508], [-78.577332, 42.78524], [-78.57092, 42.78561], [-78.570584, 42.783497], [-78.567239, 42.781007], [-78.567276, 42.775394], [-78.564209, 42.772846], [-78.563812, 42.765939], [-78.567605, 42.763226], [-78.567457, 42.756941], [-78.56771, 42.752058], [-78.566772, 42.750677], [-78.562975, 42.750666], [-78.562685, 42.746842], [-78.561711, 42.745784], [-78.561885, 42.725527], [-78.570409, 42.725793], [-78.574372, 42.725088], [-78.578366, 42.725297], [-78.585184, 42.725646], [-78.585539, 42.724532], [-78.593805, 42.725742], [-78.597334, 42.722605], [-78.598921, 42.721753], [-78.599704, 42.72078], [-78.602448, 42.719324], [-78.604862, 42.716422], [-78.605856, 42.712081], [-78.615411, 42.709707], [-78.615569, 42.706387], [-78.614554, 42.704513], [-78.616046, 42.702658], [-78.615849, 42.700318], [-78.61599, 42.695497], [-78.613703, 42.693601], [-78.614196, 42.685497], [-78.614061, 42.67729], [-78.610111, 42.670983], [-78.611591, 42.662621], [-78.614828, 42.6513], [-78.615377, 42.647449], [-78.613345, 42.645079], [-78.602282, 42.642222], [-78.591301, 42.639593], [-78.591078, 42.630165], [-78.591772, 42.629279], [-78.591156, 42.624535], [-78.586748, 42.611682], [-78.585665, 42.608241], [-78.585107, 42.605015], [-78.585222, 42.5879], [-78.573788, 42.574325], [-78.56672, 42.567086], [-78.566806, 42.564908], [-78.553124, 42.548871], [-78.549719, 42.547512], [-78.542091, 42.544246], [-78.539787, 42.542816], [-78.532312, 42.538114], [-78.522892, 42.529148], [-78.517919, 42.526621], [-78.516018, 42.524384], [-78.51437, 42.519639], [-78.492936, 42.519048], [-78.495244, 42.487358], [-78.495325, 42.484997], [-78.492109, 42.482579], [-78.491912, 42.480934], [-78.494343, 42.478815], [-78.49443, 42.472758], [-78.495713, 42.470989], [-78.49626, 42.448406], [-78.497617, 42.446085], [-78.496108, 42.443772], [-78.497153, 42.432024], [-78.504033, 42.427883], [-78.51278, 42.422975], [-78.521301, 42.417839], [-78.522343, 42.415605], [-78.523253, 42.412904], [-78.517191, 42.40507], [-78.514129, 42.401547], [-78.504899, 42.390114], [-78.502592, 42.388691], [-78.499404, 42.384401], [-78.496684, 42.383525], [-78.497438, 42.383738], [-78.494846, 42.376106], [-78.495344, 42.361314], [-78.494283, 42.35938], [-78.494883, 42.345742], [-78.494483, 42.338145], [-78.49587, 42.334485], [-78.496607, 42.326757], [-78.494657, 42.324065], [-78.494781, 42.317463], [-78.491167, 42.313556], [-78.489848, 42.308014], [-78.489522, 42.302126], [-78.489593, 42.299607], [-78.494143, 42.297582], [-78.494513, 42.292775], [-78.492977, 42.289912], [-78.493044, 42.282229], [-78.493365, 42.273938], [-78.486952, 42.26517], [-78.483323, 42.260799], [-78.472469, 42.25012], [-78.460998, 42.239695], [-78.44618, 42.229919], [-78.439109, 42.226358], [-78.436624, 42.223926], [-78.429924, 42.214996], [-78.42503, 42.208616], [-78.417946, 42.200807], [-78.413604, 42.196769], [-78.407561, 42.192545], [-78.402567, 42.190223], [-78.398522, 42.179761], [-78.39167, 42.17619], [-78.386116, 42.17313], [-78.378755, 42.17352], [-78.377053, 42.171668], [-78.372058, 42.16968], [-78.37058, 42.167235], [-78.36564, 42.161781], [-78.3565, 42.156196], [-78.352633, 42.153518], [-78.343624, 42.143732], [-78.33132, 42.132118], [-78.313348, 42.11567], [-78.307909, 42.108577], [-78.305393, 42.102831], [-78.302022, 42.096889], [-78.301278, 42.092727], [-78.295771, 42.084236], [-78.291664, 42.082388], [-78.290038, 42.079525], [-78.291469, 42.076575], [-78.295797, 42.074563], [-78.298261, 42.073234], [-78.300454, 42.072778], [-78.303076, 42.070422], [-78.301349, 42.067641], [-78.301073, 42.066391], [-78.298957, 42.064473], [-78.29633, 42.062438], [-78.285211, 42.050573], [-78.283945, 42.047385], [-78.283419, 42.045352], [-78.274414, 42.033075], [-78.290722, 42.01058], [-78.29371, 42.006448], [-78.294776, 42.003823], [-78.298435, 42.001201], [-78.305757, 41.989919], [-78.309796, 41.986499], [-78.315445, 41.982207], [-78.32017, 41.977235], [-78.320822, 41.951267], [-78.321114, 41.932544], [-78.329246, 41.924917], [-78.335708, 41.919602], [-78.339529, 41.914144], [-78.344933, 41.906752], [-78.344672, 41.904553], [-78.347072, 41.90131], [-78.347128, 41.896387], [-78.348683, 41.895306], [-78.348129, 41.889359], [-78.345888, 41.886751], [-78.345961, 41.882109], [-78.35009, 41.880573], [-78.351808, 41.878852], [-78.357898, 41.876964], [-78.358586, 41.870024], [-78.358632, 41.866877], [-78.362205, 41.864807], [-78.363043, 41.862807], [-78.371886, 41.862871], [-78.380323, 41.861286], [-78.386024, 41.861668], [-78.389786, 41.859214], [-78.394073, 41.855624], [-78.402012, 41.855707], [-78.405761, 41.851971], [-78.408016, 41.84993], [-78.413942, 41.848653], [-78.423192, 41.849939], [-78.433254, 41.851851], [-78.438786, 41.84909], [-78.442141, 41.848911], [-78.447015, 41.853498], [-78.453744, 41.853453], [-78.456989, 41.849266], [-78.467094, 41.833864], [-78.467041, 41.831903], [-78.470292, 41.824944], [-78.473032, 41.823132], [-78.484498, 41.801946], [-78.483743, 41.797723], [-78.482193, 41.790457], [-78.480958, 41.781215], [-78.48087, 41.775714], [-78.48121, 41.770356], [-78.477596, 41.765685], [-78.474099, 41.76123], [-78.471389, 41.759661], [-78.473534, 41.754642], [-78.474621, 41.753291], [-78.482084, 41.753518], [-78.481063, 41.750168], [-78.480204, 41.745947], [-78.484788, 41.741405], [-78.484985, 41.735344], [-78.486747, 41.731044], [-78.486226, 41.729173], [-78.487861, 41.724484], [-78.494954, 41.719786], [-78.496277, 41.711972], [-78.500676, 41.707266], [-78.501578, 41.703629], [-78.501424, 41.699773]]]}}
]
}
