{
"type": "FeatureCollection",
"features": [
{"type": "Feature", "properties": {"ProjectID": "P6021"}, "geometry": {"type": "LineString", "coordinates": [[58.469924, 35.19361], [58.54899, 35.196225], [58.567047, 35.209378], [58.568451, 35.210419], [58.575468, 35.218365], [58.585934, 35.228888], [58.589787, 35.23297], [58.590775, 35.234095], [58.592161, 35.234391], [58.603217, 35.234468], [58.60552, 35.234671], [58.621029, 35.234946], [58.630233, 35.235881], [58.642747, 35.237155], [58.648701, 35.241315], [58.691021, 35.24292], [58.7223, 35.244084], [58.730865, 35.2446], [58.741089, 35.245686], [58.784149, 35.246899], [58.817837, 35.24784], [58.842225, 35.248688], [58.87134, 35.245683], [58.901128, 35.242459], [58.925478, 35.239834], [58.944477, 35.237952], [58.956369, 35.236824], [58.963093, 35.236066], [58.985643, 35.240825], [59.013547, 35.246848], [59.023675, 35.24899], [59.043831, 35.256116], [59.04727, 35.259739], [59.048213, 35.262507], [59.05066, 35.264481], [59.051161, 35.267874], [59.047274, 35.280017], [59.045993, 35.28407], [59.046324, 35.286292], [59.054152, 35.292211], [59.060764, 35.293966], [59.062994, 35.296913], [59.06403, 35.29986], [59.07906, 35.310453], [59.087462, 35.315878], [59.094365, 35.324252], [59.109685, 35.340158], [59.121027, 35.349906], [59.197012, 35.400209]]}}
]
}
