{
"type": "FeatureCollection",
"features": [
{"type": "Feature", "properties": {"ProjectID": "P6236", "id": 1}, "geometry": {"type": "MultiLineString", "coordinates": [[[118.914503, 42.333102], [118.916912, 42.331766], [118.919321, 42.329762], [118.922332, 42.328315], [118.925344, 42.328204], [118.928355, 42.328204], [118.931367, 42.327536], [118.934378, 42.326868], [118.938293, 42.326423], [118.941304, 42.326868], [118.944316, 42.326868], [118.947327, 42.326868], [118.950338, 42.326868], [118.953651, 42.326645], [118.956662, 42.326423], [118.959674, 42.326423], [118.962685, 42.3262], [118.965697, 42.3262], [118.968708, 42.325978], [118.971719, 42.325755], [118.974731, 42.325755], [118.977742, 42.326645], [118.980754, 42.327313], [118.983765, 42.327759], [118.986776, 42.327313], [118.989487, 42.3262], [118.992498, 42.325978], [118.995509, 42.325978], [118.998521, 42.3262], [119.001532, 42.326645], [119.004544, 42.326645], [119.007555, 42.325755], [119.011771, 42.325087], [119.014782, 42.324419], [119.017794, 42.323528], [119.020805, 42.323083], [119.023515, 42.32197], [119.026527, 42.321079], [119.029538, 42.320411], [119.03255, 42.319521], [119.035561, 42.319075], [119.038572, 42.318407], [119.041584, 42.317962], [119.044595, 42.317294], [119.047607, 42.316626], [119.050618, 42.316181], [119.053629, 42.31529], [119.056641, 42.314845], [119.059652, 42.314399], [119.062814, 42.314288], [119.066127, 42.313954], [119.068987, 42.313731], [119.071698, 42.313508], [119.074709, 42.312618], [119.077721, 42.312172], [119.080732, 42.312172], [119.083743, 42.312395], [119.087056, 42.312395], [119.090971, 42.312618], [119.093982, 42.312395]]]}},
{"type": "Feature", "properties": {"ProjectID": "P6236", "id": 2}, "geometry": {"type": "MultiLineString", "coordinates": [[[119.093982, 42.312395], [119.097897, 42.311282], [119.100607, 42.310168], [119.103317, 42.309055], [119.106329, 42.308164], [119.10934, 42.307718], [119.112653, 42.307941], [119.115664, 42.308164], [119.118676, 42.308386], [119.121687, 42.308386], [119.124698, 42.308386], [119.127409, 42.30705], [119.129818, 42.305491], [119.132528, 42.304378], [119.135238, 42.303264], [119.137647, 42.301928], [119.140056, 42.300369], [119.142466, 42.29881], [119.142767, 42.296582], [119.143068, 42.294355], [119.143971, 42.292127], [119.146983, 42.291459], [119.149994, 42.291013], [119.153608, 42.290345], [119.157221, 42.289899], [119.160534, 42.289454], [119.161739, 42.287226], [119.161437, 42.284998], [119.161136, 42.28277], [119.160233, 42.280542], [119.159329, 42.278314], [119.158727, 42.276086], [119.157221, 42.273858], [119.156017, 42.27163], [119.154812, 42.269401], [119.153608, 42.267173], [119.152403, 42.264944], [119.151801, 42.262716], [119.150596, 42.260487], [119.149392, 42.258258], [119.14879, 42.25603], [119.14879, 42.253801], [119.148488, 42.251572], [119.147886, 42.249343], [119.150897, 42.248451], [119.153909, 42.247559], [119.15692, 42.246445], [119.159932, 42.246222], [119.162943, 42.246445]]]}}
]
}
