{
"type": "FeatureCollection",
"features": [
{"type": "Feature", "properties": {"ProjectID": "P6611"}, "geometry": {"type": "LineString", "coordinates": [[-63.662006, -22.207503], [-62.542455, -22.342179], [-62.437618, -22.232657], [-62.265989, -22.127086], [-62.130715, -22.08322], [-58.654175, -22.08322], [-58.674466, -21.93272], [-58.491846, -21.687818], [-58.213351, -21.656446], [-57.93441, -21.649505], [-57.22704, -21.750659], [-56.942965, -21.744377], [-56.34728, -21.454964], [-56.116356, -21.480247], [-56.007686, -21.410709], [-55.783554, -21.125891], [-55.545838, -21.208228], [-55.260579, -20.992788], [-54.968529, -20.973763], [-54.615351, -20.478284]]}}
]
}
