{
"type": "FeatureCollection",
"features": [
{"type": "Feature", "properties": {"ProjectID": "P6648", "layer": "-5", "location": "underground", "man_made": "pipeline", "substance": "gas", "name": "Trans Mediterranean Pipeline"}, "geometry": {"type": "LineString", "coordinates": [[8.276574, 34.76897], [8.288691, 34.769978], [8.295005, 34.771362], [8.30243, 34.773272], [8.310322, 34.775512], [8.321699, 34.779164], [8.324062, 34.779709], [8.33257, 34.781427], [8.337633, 34.782885], [8.341565, 34.785209], [8.348551, 34.789351], [8.35578, 34.792987], [8.375107, 34.802801], [8.37706, 34.804369], [8.381974, 34.807188], [8.388432, 34.810642], [8.402712, 34.819355], [8.415351, 34.826524], [8.420587, 34.829712], [8.429051, 34.834899], [8.433366, 34.835865], [8.435701, 34.838073], [8.440371, 34.840863], [8.446367, 34.845079], [8.449412, 34.846812], [8.461479, 34.85279], [8.477544, 34.860593], [8.485651, 34.864654], [8.490583, 34.867076], [8.505751, 34.876762], [8.513839, 34.881849], [8.526168, 34.884945], [8.541766, 34.888837], [8.546305, 34.889863], [8.553628, 34.897049], [8.576455, 34.919675], [8.585944, 34.929232], [8.589344, 34.932648], [8.595418, 34.955533], [8.59707, 34.959094], [8.597542, 34.960396], [8.597617, 34.962313], [8.59663, 34.964282], [8.600814, 34.968045], [8.601394, 34.970287], [8.60399, 34.972714], [8.615754, 34.981606], [8.618796, 34.983491], [8.637249, 34.993025], [8.65152, 35.000334], [8.660382, 35.004781], [8.665296, 35.007523], [8.673772, 35.013867], [8.722717, 35.048937], [8.738102, 35.059213], [8.755375, 35.072631], [8.771683, 35.086135], [8.779837, 35.09228], [8.784343, 35.095423], [8.791531, 35.10083], [8.802582, 35.108905], [8.814701, 35.117009], [8.816775, 35.118461], [8.820958, 35.121409], [8.823832, 35.126122], [8.827675, 35.129563], [8.830336, 35.130686], [8.835379, 35.135336], [8.842364, 35.140106], [8.844605, 35.141636], [8.849262, 35.145268], [8.85306, 35.148654], [8.854862, 35.150619], [8.862308, 35.155689], [8.866406, 35.158531], [8.872677, 35.162238], [8.877612, 35.165501], [8.881474, 35.167957], [8.882912, 35.168202], [8.888019, 35.170904], [8.893448, 35.172868], [8.902953, 35.177341], [8.911172, 35.180568], [8.917845, 35.183181], [8.921857, 35.186653], [8.924046, 35.188109], [8.930977, 35.191002], [8.938916, 35.19493], [8.955675, 35.203101], [8.960425, 35.205607], [8.969867, 35.211007], [8.978063, 35.212847], [8.98405, 35.21418], [9.014198, 35.213882], [9.035527, 35.213724], [9.04835, 35.213457], [9.053778, 35.213983], [9.064486, 35.214333], [9.066696, 35.213877], [9.076717, 35.215403], [9.087381, 35.217261], [9.10032, 35.216297], [9.109547, 35.21549], [9.137674, 35.217322], [9.145141, 35.222318], [9.147609, 35.223913], [9.152523, 35.228734], [9.153531, 35.229943], [9.155484, 35.231082], [9.164325, 35.23556], [9.169125, 35.238231], [9.180877, 35.24426], [9.202946, 35.255553], [9.210855, 35.258555], [9.214819, 35.260097], [9.227488, 35.266719], [9.247925, 35.279064], [9.25057, 35.280755], [9.257994, 35.285081], [9.262608, 35.287884], [9.27051, 35.29274], [9.283714, 35.30073], [9.289926, 35.304101], [9.297944, 35.308175], [9.303651, 35.31278], [9.308123, 35.316203], [9.310758, 35.3209], [9.317051, 35.325319], [9.320759, 35.326791], [9.32367, 35.326844], [9.329752, 35.330546], [9.33759, 35.335216], [9.342192, 35.337697], [9.354372, 35.345656], [9.356307, 35.346372], [9.365154, 35.35055], [9.370764, 35.354105], [9.376635, 35.35746], [9.381513, 35.36063], [9.38966, 35.364927], [9.392588, 35.366796], [9.398035, 35.370058], [9.401223, 35.371597], [9.415045, 35.380242], [9.424981, 35.386288], [9.440609, 35.396297], [9.449488, 35.402408], [9.457326, 35.407351], [9.461554, 35.41036], [9.467831, 35.414826], [9.473946, 35.418829], [9.48193, 35.425216], [9.48598, 35.428078], [9.491931, 35.432001], [9.501412, 35.437725], [9.504762, 35.439805], [9.512682, 35.445117], [9.516178, 35.44733], [9.518357, 35.448641], [9.525707, 35.452099], [9.530419, 35.454044], [9.532973, 35.454761], [9.542672, 35.457959], [9.545761, 35.460895], [9.915158, 35.808906], [10.197222, 36.210203], [10.200117, 36.210983], [10.214038, 36.231397], [10.219925, 36.239792], [10.221665, 36.241753], [10.224381, 36.242474], [10.225494, 36.245707], [10.225844, 36.246395], [10.229527, 36.250612], [10.231885, 36.251661], [10.234463, 36.253549], [10.236943, 36.255851], [10.238829, 36.258893], [10.244277, 36.264], [10.248147, 36.267613], [10.250912, 36.270313], [10.25427, 36.272359], [10.256693, 36.275885], [10.258921, 36.279563], [10.25984, 36.280461], [10.264946, 36.285992], [10.269459, 36.290548], [10.277529, 36.297527], [10.285962, 36.304894], [10.29242, 36.31283], [10.293836, 36.314421], [10.296047, 36.318173], [10.299029, 36.326368], [10.299566, 36.330534], [10.309715, 36.345451], [10.316303, 36.356598], [10.318191, 36.359985], [10.322439, 36.367328], [10.430316, 36.422526], [10.510825, 36.462435], [10.539322, 36.470166], [10.603866, 36.517915], [10.665932, 36.561318], [10.667947, 36.563057], [10.675655, 36.570515], [10.679232, 36.574185], [10.685349, 36.579331], [10.693331, 36.583053], [10.712689, 36.595598], [10.717753, 36.603091], [10.719562, 36.604766], [10.727295, 36.611004], [10.740371, 36.624498], [10.74825, 36.631917], [10.759987, 36.644417], [10.764557, 36.649169], [10.769643, 36.657621], [10.775908, 36.664059], [10.781316, 36.670014], [10.784556, 36.673818], [10.791358, 36.680805], [10.795285, 36.684849], [10.806486, 36.697753], [10.80934, 36.702037], [10.814125, 36.707336], [10.816657, 36.710432], [10.822326, 36.716816], [10.824082, 36.719102], [10.90393, 36.810385], [10.973985, 36.879401], [10.974389, 36.879679], [10.974919, 36.880083], [10.982536, 36.885727], [10.991517, 36.895657], [10.991772, 36.899087], [11.0103, 36.915489], [11.01624, 36.920455], [11.018754, 36.925047], [11.020541, 36.928052], [11.021798, 36.929835], [11.024818, 36.938208], [11.025877, 36.941606], [11.027061, 36.945192], [11.027689, 36.949279], [11.028281, 36.954115], [11.030645, 36.956369], [11.031536, 36.959361], [11.033274, 36.963724], [11.034755, 36.967831], [11.035946, 36.970831], [11.036643, 36.973805], [11.037952, 36.978836], [11.038853, 36.981913], [11.040076, 36.983936], [11.041321, 36.986601], [11.044687, 36.99456], [11.045339, 36.996185], [11.046458, 37.002006], [11.047502, 37.006653], [11.047928, 37.00909], [11.048322, 37.010623], [11.048712, 37.013956], [11.049074, 37.016448], [11.049951, 37.016856], [11.055762, 37.017698]]}}
]
}
