{
"type": "FeatureCollection",
"features": [
{"type": "Feature", "properties": {"ProjectID": "P6682"}, "geometry": {"type": "MultiLineString", "coordinates": [[[115.109267, 60.772985], [115.108729, 60.782104], [115.052725, 60.818345], [115.013953, 60.823146], [114.974307, 60.824165], [114.945679, 60.824804], [114.932601, 60.822993], [114.898996, 60.865958], [114.902058, 60.886407], [114.88658, 60.903882], [114.894115, 60.923327], [114.906457, 60.936941], [114.882383, 60.950523], [114.884553, 60.951094], [114.809125, 60.956331], [114.796001, 60.954507], [114.77987, 60.948336], [114.772114, 60.948745], [114.733981, 60.941666], [114.725392, 60.9383], [114.70213, 60.939515], [114.698823, 60.939459], [114.635856, 60.970046], [114.591085, 60.992341], [114.554925, 61.016926], [114.521045, 61.039933], [114.484861, 61.063425], [114.470117, 61.109327], [114.462987, 61.12906], [114.459423, 61.159599], [114.458893, 61.179993], [114.493672, 61.246147], [114.512919, 61.284623], [114.486948, 61.31636], [114.454618, 61.343141], [114.434063, 61.362084], [114.383445, 61.378838], [114.387243, 61.386966], [114.345597, 61.402805], [114.31931, 61.435044], [114.271778, 61.452893], [114.264987, 61.491955], [114.244264, 61.510332], [114.243552, 61.518372], [114.228246, 61.526116], [114.241365, 61.543029], [114.244337, 61.560272], [114.235325, 61.572977], [114.274222, 61.643026], [114.301, 61.685439], [114.296111, 61.689638], [114.303876, 61.704289], [114.286881, 61.78181], [114.183737, 61.781343], [114.095463, 61.779502], [114.069436, 61.778949], [114.0681, 61.781068], [114.011155, 61.783598], [113.746844, 61.794772], [113.516683, 61.803087], [113.473428, 61.80413], [113.376729, 61.796239], [113.23776, 61.781752], [113.199316, 61.780692], [113.172182, 61.779937], [113.154762, 61.774077], [113.130135, 61.789503]]]}}
]
}
