{
"type": "FeatureCollection",
"name": "P6708",
"crs": { "type": "name", "properties": { "name": "urn:ogc:def:crs:OGC:1.3:CRS84" } },
"features": [
{ "type": "Feature", "properties": { "PipelineName": "NC 41-Mellitah Gas Pipeline", "SegmentName": "", "Wiki": "https://www.gem.wiki/NC_41-Mellitah_Gas_Pipeline", "ProjectID": "P6708", "Status": "construction", "LastUpdated": "2025-08-20", "Fuel": "Gas", "OtherEnglishNames": "", "OtherLanguagePrimaryPipelineName": "", "OtherLanguageSegmentName": "", "CountriesOrAreas": "Libya", "Owner": "Libyan National Oil Corp [50.%]; Eni SpA [50.%]", "Parent": "Eni SpA [50.00%]; National Oil Corp [50.00%]", "ParentEntityIDs": "E100001015251; E100000000610", "StartYear1": "2025", "StartYear2": "", "StartYear3": "", "ShelvedYear": "", "CancelledYear": "", "StopYear": "", "Capacity": "", "CapacityUnits": "", "CapacityBcm/y": "--", "CapacityBOEd": "--", "LengthKnownKm": "130.0", "LengthEstimateKm": "793.66", "LengthMergedKm": "130.0", "Diameter": "30", "DiameterUnits": "in", "FuelSource": "", "StartLocation": "", "StartPrefecture/District": "", "StartState/Province": "Bay of Tripoli", "StartCountryOrArea": "Libya", "StartRegion": "Africa", "StartSubRegion": "Northern Africa", "EndLocation": "", "EndPrefecture/District": "Nuqat Al-Khams", "EndState/Province": "", "EndCountryOrArea": "Libya", "EndRegion": "Africa", "EndSubRegion": "Northern Africa", "ProjectLevelCost": "", "ProjectLevelCostUnits": "", "CostUSD": "--", "FIDStatus": "", "FIDYear": "", "PCI3": "", "PCI4": "", "PCI5": "", "PCI6": "", "RouteAccuracy": "medium", "RouteType": "Mapped route (at any accuracy)" }, "geometry": { "type": "LineString", "coordinates": [ [ 13.205158, 32.889799 ], [ 12.894061711722602, 32.798180151363262 ], [ 12.593084265388431, 32.778204479080571 ], [ 12.376173, 32.814907 ], [ 12.190484, 32.861552 ], [ 12.054707, 32.916766 ] ] } }
]
}
