{"type": "FeatureCollection", "name": "P6827", "crs": {"type": "name", "properties": {"name": "urn:ogc:def:crs:OGC:1.3:CRS84"}}, "features": [{"type": "Feature", "properties": {}, "geometry": {"type": "MultiLineString", "coordinates": [[[44.31602626085954, 35.52878925463291], [44.340981969173804, 35.51704417996806], [44.36908426679726, 35.495580695260955], [44.39219542275785, 35.4675723838038], [44.387204281094995, 35.435222575324794], [44.37157983762867, 35.399675834951445], [44.35095747105696, 35.37568729753834], [44.3505098958535, 35.374481877436885], [44.34878740946442, 35.37369668585175], [44.347824444632735, 35.37303313771118], [44.346671599411685, 35.37236958411484], [44.34562725727028, 35.37220369486329], [44.34170758351875, 35.36923974943303], [44.33796422727161, 35.36654113729226], [44.3367164418559, 35.36459454137906], [44.33970027654564, 35.362692140931046], [44.33964602500582, 35.3612321287888], [44.334166619484655, 35.346099539274114], [44.33373260716615, 35.34087769552012], [44.332539073290235, 35.335566999815946], [44.33026050861807, 35.32299696294069], [44.33123703633471, 35.3173309552127], [44.33606542337813, 35.3090968301356], [44.34105656504098, 35.301260352097636], [44.35329028726895, 35.28148868936395], [44.36012598128546, 35.2711027577715], [44.368833353425536, 35.25745951095458], [44.37089491193845, 35.254247698407326], [44.38396953303352, 35.24392473567517], [44.391049358979195, 35.238386123842126], [44.39964822803963, 35.23151771986234], [44.403771345065465, 35.228282721705924], [44.41570668382446, 35.22181233843626], [44.42789651995334, 35.21561245566392], [44.431073987898095, 35.21663585357749], [44.44549480395506, 35.21394004593781], [44.44827508840672, 35.21201798026793], [44.45016934814301, 35.210844748987164], [44.45298018517106, 35.20999601791769], [44.45832688603963, 35.20720013517437], [44.459548989095296, 35.20605179830062], [44.46364303433182, 35.203954793410844], [44.46712602804049, 35.20200752609803], [44.47225886087432, 35.1985372801495], [44.47751390401372, 35.194592503984474], [44.47901098025692, 35.19399328071933], [44.47995811012507, 35.19279482092942], [44.481088555451564, 35.19137162696662], [44.48176071213219, 35.190722442493694], [44.48212734304889, 35.18942405798686], [44.48741293876468, 35.186627467042555], [44.489521066535715, 35.1853165319055], [44.49008628919896, 35.18516670940045], [44.494684451945936, 35.182757026165454], [44.49682313229335, 35.18169574404737], [44.49871739202965, 35.18124625567863], [44.49977145591517, 35.181221284029704], [44.50178792595704, 35.180646933986885], [44.503911330016265, 35.17954816607451], [44.5067679959089, 35.17814971270441], [44.5105412390933, 35.17653896427674], [44.51126304371055, 35.17552754778912], [44.51168314163594, 35.17520289291542], [44.512271278731475, 35.17484701973744], [44.5133558951934, 35.174484901571326], [44.51378363126287, 35.17427886810171], [44.51564733842279, 35.17230591510548], [44.51724371053926, 35.17098226157742], [44.51834360328935, 35.16994580084807], [44.51883244451164, 35.16955244181158], [44.519420581607164, 35.16915283703241], [44.51961917335372, 35.168809425106346], [44.520642684662846, 35.16778542457165], [44.522361267084875, 35.166149494523346], [44.52355281756416, 35.16471958978018], [44.5241867835243, 35.16397652891702], [44.52504989380737, 35.16263400678308], [44.5260122999637, 35.16146006229135], [44.5271503834343, 35.16032981248968], [44.528884242144535, 35.15845643568933], [44.530931264762785, 35.156676687767046], [44.531832565766344, 35.15588359457278], [44.533688634782145, 35.15419122025179], [44.53498711927881, 35.15319201593279], [44.536025906876134, 35.15238015338795], [44.53704941818525, 35.15149958562362], [44.5376070027044, 35.15108740169365], [44.53782850888324, 35.15096249706021], [44.53832498824961, 35.1508500827262], [44.53905061193892, 35.15025678227941], [44.54438203651927, 35.14460459797476], [44.54650544057851, 35.1421125157861], [44.54708593952996, 35.14154413547855], [44.54753659003173, 35.14146918393301], [44.548880903392984, 35.140095060033794], [44.55147023424219, 35.13758410099044], [44.55196671360855, 35.137153107695354], [44.55246319297491, 35.13670337312869], [44.55305896821455, 35.13615369417334], [44.55394499292992, 35.13525421151387], [44.55469353105152, 35.134629564931444], [44.55526639185886, 35.13429225378427], [44.555419154740825, 35.13420480251799], [44.556076035133245, 35.133611380729974], [44.55637392275307, 35.13331779150935], [44.55713009901876, 35.13281806274192], [44.55962013399469, 35.130569245334364], [44.56033048139582, 35.12980088515206], [44.56181991949492, 35.128607726108875], [44.56344684418777, 35.127252126297016], [44.56434050704724, 35.12642126364629], [44.568808821344554, 35.12228556556255], [44.57125302745588, 35.11896186144502], [44.5745832582826, 35.11556304632756], [44.57675249120642, 35.11346370733357], [44.57782183138011, 35.112389024774444], [44.57853981692533, 35.11098941693686], [44.578937000418435, 35.110227120413604], [44.57997578801574, 35.109114904497936], [44.580861812731115, 35.108065158698494], [44.58107949983791, 35.10773711036324], [44.58178220909492, 35.10690604867087], [44.58241999412709, 35.105978123911], [44.58263768123389, 35.10561882360783], [44.63752538472174, 35.04166003113109], [44.64626342156979, 35.04601243068074], [44.655795825404034, 35.04906397483025], [44.665236571509105, 35.05574195646544], [44.66942227447478, 35.06199425322441], [44.672049796044476, 35.063319678626826], [44.67932130922574, 35.067270819107414], [44.68760105742792, 35.076247699463586], [44.691786760393576, 35.080148208774276], [44.694108756199356, 35.081448337106295], [44.70522989400597, 35.08284845213827], [44.71109598867321, 35.08424854313991], [44.71842860700724, 35.08744866090499], [44.72038397189632, 35.08814866992989], [44.7260973036816, 35.08767366446105], [44.73101626848068, 35.087148655198014], [44.73608799616172, 35.08864867269789], [44.73837943939111, 35.08837367155482], [44.739418226988434, 35.087723665167], [44.741068066113584, 35.08814866992989], [44.74277901039153, 35.08912367248824], [44.744337191787515, 35.08894867288734], [44.74720913396833, 35.08932367157233], [44.75716927387206, 35.08859867255903], [44.764868523122786, 35.09144863155106], [44.77188033940472, 35.09414850083061], [44.77964069380824, 35.106846686797134], [44.7853845781699, 35.12414103312217], [44.787950994586815, 35.12516558295407], [44.80032478802549, 35.12204191516773], [44.815662181374186, 35.12631506254611], [44.81795362460356, 35.128239155121626], [44.82097832966635, 35.133586394454504], [44.82366695638883, 35.1335114355822], [44.826325030534925, 35.13521048640905]]]}}]}