{
"type": "FeatureCollection",
"features": [
{"type": "Feature", "properties": {"ProjectID": "P6825", "id": null, "Name": null, "Type": null}, "geometry": {"type": "MultiLineString", "coordinates": [[[138.77702, 37.395912], [138.77702, 37.395912], [138.758372, 37.356541], [138.721809, 37.358777], [138.707746, 37.369954], [138.693683, 37.374424], [138.673994, 37.34089], [138.654306, 37.331945], [138.651493, 37.316288], [138.645868, 37.296154], [138.612117, 37.293916], [138.55024, 37.267061], [138.4968, 37.240196], [138.477112, 37.240196], [138.454611, 37.242435], [138.412422, 37.240196], [138.387108, 37.240196], [138.364608, 37.249152], [138.342107, 37.22676], [138.316793, 37.190919], [138.277417, 37.201001]]]}}
]
}
