{
"type": "FeatureCollection",
"features": [
{"type": "Feature", "properties": {"ProjectID": "P6840", "id": null, "Name": null, "Type": null}, "geometry": {"type": "MultiLineString", "coordinates": [[[139.421051, 36.129802], [139.482894, 36.098127], [139.529654, 36.067959], [139.576413, 36.031758], [139.580939, 36.018183], [139.605073, 36.010641], [139.633732, 35.97444], [139.653341, 35.951814], [139.677475, 35.953323], [139.680491, 35.91863], [139.7001, 35.908071], [139.718201, 35.882429], [139.740826, 35.87187], [139.75591, 35.852261]]]}},
{"type": "Feature", "properties": {"ProjectID": "P6840", "id": null, "Name": null, "Type": null}, "geometry": {"type": "MultiLineString", "coordinates": [[[139.508537, 36.156953], [139.441996, 36.146154], [139.445597, 36.137151], [139.421051, 36.129802]]]}}
]
}
