{
"type": "FeatureCollection",
"features": [
{"type": "Feature", "properties": {"ProjectID": "P6844", "id": null, "Name": null, "Type": null}, "geometry": {"type": "MultiLineString", "coordinates": [[[139.494055, 35.772984], [139.501182, 35.743294], [139.478766, 35.732086], [139.478766, 35.707178], [139.494955, 35.697215], [139.496201, 35.677289], [139.496201, 35.668572], [139.478766, 35.668572], [139.481256, 35.651136], [139.460085, 35.646155], [139.457594, 35.623738], [139.471293, 35.605058], [139.483747, 35.598831], [139.491219, 35.583886], [139.507409, 35.567696], [139.527335, 35.558979], [139.543525, 35.557733], [139.549752, 35.537807], [139.569678, 35.519127], [139.592095, 35.509164], [139.610775, 35.49671], [139.618373, 35.474542]]]}}
]
}
