{
"type": "FeatureCollection",
"features": [
{"type": "Feature", "properties": {"ProjectID": "P6884"}, "geometry": {"type": "MultiLineString", "coordinates": [[[7.595488, 47.834738], [7.595308, 47.834494], [7.595273, 47.834181], [7.595587, 47.833416], [7.594991, 47.830204], [7.592041, 47.814621], [7.591221, 47.810954], [7.590713, 47.808929], [7.590477, 47.807485], [7.59014, 47.805737], [7.589029, 47.803755], [7.588858, 47.802929], [7.584139, 47.793629], [7.582721, 47.790922], [7.578132, 47.781664], [7.569525, 47.763457], [7.569169, 47.763157], [7.567888, 47.761021], [7.567075, 47.759615], [7.567105, 47.75957], [7.567929, 47.759324], [7.567971, 47.759234], [7.56607, 47.756334], [7.567505, 47.753942], [7.567067, 47.751962], [7.5692, 47.75059], [7.571938, 47.749733], [7.572402, 47.74613], [7.572533, 47.742888], [7.573641, 47.737062], [7.577058, 47.72392], [7.578729, 47.721713], [7.580081, 47.72165], [7.583313, 47.719693], [7.587921, 47.716728], [7.592851, 47.713427], [7.59288, 47.712171], [7.596713, 47.710372], [7.60697, 47.702935], [7.612114, 47.69916], [7.619673, 47.692048], [7.622629, 47.691679], [7.625508, 47.691128], [7.629302, 47.692331], [7.633981, 47.692508], [7.637328, 47.691805], [7.640605, 47.688316], [7.642925, 47.684589], [7.6437, 47.683094], [7.644651, 47.683217], [7.650152, 47.676834], [7.652303, 47.674876], [7.661046, 47.672285], [7.664981, 47.670347], [7.66688, 47.668556], [7.669927, 47.666583], [7.671855, 47.665572], [7.675999, 47.66253], [7.676852, 47.661675], [7.679097, 47.66057], [7.67939, 47.660311], [7.679742, 47.65898], [7.68215, 47.656986], [7.683601, 47.655919], [7.685827, 47.654261], [7.691392, 47.652534], [7.693442, 47.651972], [7.696864, 47.650916], [7.705399, 47.6483], [7.705541, 47.648143], [7.707818, 47.646674], [7.7081, 47.645539], [7.7095, 47.644896], [7.711284, 47.645505], [7.711379, 47.645617], [7.713749, 47.64555], [7.715852, 47.646038], [7.717314, 47.645712], [7.722033, 47.645734], [7.722933, 47.642987], [7.722174, 47.641177], [7.722117, 47.640859], [7.724043, 47.639655], [7.727015, 47.63972], [7.727605, 47.638462], [7.728649, 47.638178], [7.730143, 47.638187], [7.730867, 47.637464], [7.732422, 47.637078], [7.733302, 47.636995], [7.73459, 47.637027], [7.734675, 47.636483], [7.735762, 47.635925], [7.736215, 47.634939], [7.736434, 47.632709], [7.735323, 47.632116], [7.735316, 47.632105]]]}}
]
}
