{
"type": "FeatureCollection",
"features": [
{"type": "Feature", "properties": {"ProjectID": "P6897", "id": null, "layer": "Equitrans_Pipeline_Map", "path": "/Users/amaliallano/Amalia/GEM/GGIT/Compressor_Stations/Working_Folder/Equitrans_Pipeline_Map.shp"}, "geometry": {"type": "MultiLineString", "coordinates": [[[-80.883423, 39.823669], [-80.865643, 39.803869], [-80.858381, 39.793783], [-80.854347, 39.776838], [-80.837806, 39.776031], [-80.822072, 39.773611], [-80.818441, 39.763928], [-80.819248, 39.749404], [-80.805127, 39.742949], [-80.784955, 39.731653], [-80.758328, 39.715919], [-80.751873, 39.703009], [-80.740577, 39.68082], [-80.731701, 39.667909], [-80.716774, 39.646527], [-80.717178, 39.636038], [-80.717178, 39.623531], [-80.709512, 39.618286], [-80.695795, 39.619497], [-80.684902, 39.620304], [-80.677237, 39.616269], [-80.674413, 39.609007], [-80.666748, 39.604166], [-80.656258, 39.609814], [-80.646172, 39.611025], [-80.632859, 39.607394], [-80.626, 39.59408], [-80.61188, 39.583591], [-80.604215, 39.577942], [-80.590901, 39.570681], [-80.570326, 39.566646], [-80.54989, 39.557176], [-80.549888, 39.557175]]]}}
]
}
