{
"type": "FeatureCollection",
"features": [
{"type": "Feature", "properties": {"ProjectID": "P6898", "id": null}, "geometry": {"type": "MultiLineString", "coordinates": [[[-111.933555, 41.13483], [-111.918728, 41.13541], [-111.912677, 41.134553], [-111.902843, 41.134956], [-111.892051, 41.136873], [-111.887941, 41.137478], [-111.885016, 41.136419], [-111.880174, 41.136696], [-111.873921, 41.137478], [-111.867617, 41.137402], [-111.86033, 41.136822], [-111.855539, 41.137528], [-111.848454, 41.137932], [-111.843436, 41.138486], [-111.835973, 41.137957], [-111.832064, 41.136822], [-111.828156, 41.136822], [-111.82213, 41.136822], [-111.816103, 41.136217], [-111.809774, 41.134805], [-111.79989, 41.133519], [-111.793032, 41.132107], [-111.786375, 41.128274], [-111.783147, 41.126257], [-111.782542, 41.120205], [-111.777802, 41.116474], [-111.771347, 41.112843], [-111.761967, 41.104572], [-111.747746, 41.090553], [-111.739878, 41.081879], [-111.729187, 41.075323], [-111.716983, 41.067859], [-111.699635, 41.056361], [-111.682792, 41.055252], [-111.668066, 41.045267], [-111.662822, 41.04103], [-111.658989, 41.040728], [-111.653946, 41.04214], [-111.645877, 41.045872], [-111.639019, 41.04567], [-111.629235, 41.041636], [-111.618847, 41.036593], [-111.603213, 41.027314], [-111.590102, 41.019043], [-111.585664, 41.016421], [-111.580822, 41.017228], [-111.574569, 41.020858], [-111.565895, 41.024691], [-111.556414, 41.024288], [-111.545118, 41.023077], [-111.523332, 41.016421], [-111.495697, 41.008554], [-111.482585, 41.003914], [-111.471692, 40.998871], [-111.459387, 40.992214], [-111.453134, 40.986566], [-111.448494, 40.98112], [-111.444662, 40.97406], [-111.441838, 40.969622], [-111.436593, 40.96942], [-111.426507, 40.966798], [-111.410773, 40.961553], [-111.399476, 40.954896], [-111.393425, 40.94945], [-111.393021, 40.944608], [-111.395644, 40.937952], [-111.395946, 40.933917], [-111.389895, 40.926958], [-111.377086, 40.917578], [-111.368409, 40.913908]]]}},
{"type": "Feature", "properties": {"ProjectID": "P6898", "id": null}, "geometry": {"type": "MultiLineString", "coordinates": [[[-111.905229, 40.913317], [-111.877152, 40.913556], [-111.864444, 40.913556], [-111.861216, 40.908917], [-111.857585, 40.905891], [-111.852744, 40.901655], [-111.844675, 40.893384], [-111.840439, 40.890157], [-111.833984, 40.889753], [-111.811996, 40.891367], [-111.795052, 40.892577], [-111.783352, 40.894393], [-111.773468, 40.90226], [-111.76782, 40.909118], [-111.765601, 40.917994], [-111.76076, 40.925659], [-111.755111, 40.927273], [-111.73615, 40.927273], [-111.7303, 40.931308], [-111.72566, 40.931308], [-111.722635, 40.92929], [-111.715171, 40.929492], [-111.710128, 40.932114], [-111.704883, 40.931509], [-111.697621, 40.933728], [-111.692578, 40.940587], [-111.685518, 40.944016], [-111.651427, 40.944823], [-111.645578, 40.942806], [-111.642148, 40.939175], [-111.637105, 40.936552], [-111.627221, 40.933728], [-111.619556, 40.930904], [-111.616127, 40.927071], [-111.613302, 40.926063], [-111.605032, 40.930702], [-111.596963, 40.931509], [-111.59192, 40.932114], [-111.586675, 40.935342], [-111.569529, 40.935947], [-111.561057, 40.93272], [-111.555611, 40.932518], [-111.54613, 40.932921], [-111.535237, 40.930501], [-111.510829, 40.924247], [-111.504576, 40.926466], [-111.490455, 40.924449], [-111.47815, 40.924651], [-111.464837, 40.92808], [-111.456768, 40.929492], [-111.448497, 40.929492], [-111.443656, 40.928685], [-111.431755, 40.927273], [-111.418845, 40.922028], [-111.41239, 40.914767], [-111.410574, 40.909118], [-111.408355, 40.906698], [-111.400892, 40.906899], [-111.383544, 40.910127], [-111.368409, 40.913908]]]}},
{"type": "Feature", "properties": {"ProjectID": "P6898", "id": null}, "geometry": {"type": "MultiLineString", "coordinates": [[[-111.718606, 40.773733], [-111.717245, 40.773531], [-111.714471, 40.772119], [-111.712151, 40.770203], [-111.709781, 40.767127], [-111.705999, 40.764555], [-111.698939, 40.763697], [-111.684213, 40.760823], [-111.670093, 40.759613], [-111.663436, 40.757797], [-111.658393, 40.753561], [-111.652543, 40.750939], [-111.642054, 40.750737], [-111.62874, 40.752956], [-111.619663, 40.75457], [-111.610989, 40.755376], [-111.597676, 40.752552], [-111.587388, 40.755578], [-111.572864, 40.755175], [-111.559954, 40.753964], [-111.545228, 40.751745], [-111.536554, 40.748921], [-111.517391, 40.749123], [-111.508515, 40.753964], [-111.491974, 40.770304], [-111.487133, 40.772724], [-111.472811, 40.773329], [-111.462511, 40.776292], [-111.460084, 40.776904], [-111.458186, 40.777635], [-111.454202, 40.779003], [-111.451, 40.780566], [-111.448453, 40.782861], [-111.443713, 40.787551], [-111.441645, 40.79035], [-111.431408, 40.795569], [-111.419809, 40.803638], [-111.412951, 40.814632], [-111.409421, 40.822499], [-111.404579, 40.831374], [-111.401856, 40.843478], [-111.398427, 40.854774], [-111.393485, 40.864456], [-111.386021, 40.874038], [-111.381886, 40.879484], [-111.375229, 40.890781], [-111.374826, 40.900564], [-111.372304, 40.906111], [-111.368409, 40.913908]]]}},
{"type": "Feature", "properties": {"ProjectID": "P6898", "id": null}, "geometry": {"type": "MultiLineString", "coordinates": [[[-111.368409, 40.913908], [-111.363681, 40.917307], [-111.353191, 40.922098], [-111.344669, 40.923106], [-111.338768, 40.920787], [-111.333725, 40.919274], [-111.328178, 40.92119], [-111.318552, 40.922823]]]}},
{"type": "Feature", "properties": {"ProjectID": "P6898", "id": null}, "geometry": {"type": "MultiLineString", "coordinates": [[[-111.318552, 40.922823], [-111.306997, 40.924418], [-111.29792, 40.926838], [-111.287027, 40.937731], [-111.273108, 40.946808], [-111.258383, 40.954272], [-111.242851, 40.958912], [-111.230949, 40.958912], [-111.20997, 40.953263], [-111.192824, 40.94822], [-111.177897, 40.947615], [-111.15833, 40.950843], [-111.15248, 40.951448]]]}},
{"type": "Feature", "properties": {"ProjectID": "P6898", "id": null}, "geometry": {"type": "MultiLineString", "coordinates": [[[-111.15248, 40.951448], [-111.15103, 40.934239]]]}},
{"type": "Feature", "properties": {"ProjectID": "P6898", "id": null}, "geometry": {"type": "MultiLineString", "coordinates": [[[-111.15248, 40.951448], [-111.136834, 40.952419], [-111.124126, 40.957058], [-111.116259, 40.961093], [-111.106173, 40.962706], [-111.099693, 40.969905], [-111.09591, 40.973158], [-111.091826, 40.974343], [-111.088497, 40.977192], [-111.084891, 40.980874], [-111.080554, 40.985614], [-111.073595, 40.988035], [-111.066737, 40.990859], [-111.063812, 40.994187], [-111.06129, 41.000642], [-111.056651, 41.005585]]]}},
{"type": "Feature", "properties": {"ProjectID": "P6898", "id": null}, "geometry": {"type": "MultiLineString", "coordinates": [[[-111.055037, 41.000844], [-111.056651, 41.005585]]]}},
{"type": "Feature", "properties": {"ProjectID": "P6898", "id": null}, "geometry": {"type": "MultiLineString", "coordinates": [[[-111.056651, 41.005585], [-111.060685, 41.00972], [-111.063913, 41.014763], [-111.063913, 41.024445], [-111.061694, 41.032312], [-111.059676, 41.04724], [-111.05887, 41.061763], [-111.061895, 41.073665], [-111.067342, 41.083347], [-111.07299, 41.09303], [-111.070368, 41.099888], [-111.070569, 41.112193], [-111.066333, 41.128331], [-111.060483, 41.13761], [-111.059475, 41.147293], [-111.057256, 41.165246], [-111.058466, 41.174121], [-111.06129, 41.185216], [-111.062097, 41.206598], [-111.066131, 41.216482], [-111.069561, 41.226367], [-111.070166, 41.237663], [-111.068956, 41.241899], [-111.065325, 41.245934], [-111.065728, 41.254002]]]}},
{"type": "Feature", "properties": {"ProjectID": "P6898", "id": null}, "geometry": {"type": "MultiLineString", "coordinates": [[[-111.065728, 41.254002], [-111.057962, 41.252792], [-111.049086, 41.25138], [-111.041118, 41.249968], [-111.030024, 41.250371], [-111.025888, 41.25017], [-111.019232, 41.251178], [-111.011566, 41.257835], [-111.004204, 41.264189], [-110.997748, 41.272258], [-110.991798, 41.27952], [-110.987259, 41.286883], [-110.9803, 41.29596], [-110.971121, 41.300196], [-110.955791, 41.300499], [-110.944595, 41.300499], [-110.941973, 41.305945], [-110.944797, 41.312703], [-110.95105, 41.322184], [-110.955488, 41.328235], [-110.959724, 41.331765], [-110.965473, 41.337817], [-110.966079, 41.343364], [-110.958817, 41.347903], [-110.951252, 41.353652], [-110.944696, 41.359401], [-110.937535, 41.360107], [-110.934509, 41.36162], [-110.929971, 41.363435], [-110.920792, 41.365452], [-110.907882, 41.366158], [-110.906773, 41.371], [-110.905966, 41.375639], [-110.899511, 41.380682], [-110.895577, 41.387238], [-110.892148, 41.39218], [-110.892249, 41.395408], [-110.896283, 41.398736], [-110.898906, 41.399846], [-110.902335, 41.406099], [-110.900217, 41.409226], [-110.893459, 41.413462], [-110.888517, 41.41558], [-110.885189, 41.421833], [-110.884382, 41.431112], [-110.880549, 41.439282], [-110.87596, 41.445081], [-110.884382, 41.451158]]]}},
{"type": "Feature", "properties": {"ProjectID": "P6898", "id": null}, "geometry": {"type": "MultiLineString", "coordinates": [[[-110.87596, 41.445081], [-110.869984, 41.449721], [-110.865345, 41.452948], [-110.8601, 41.453352]]]}},
{"type": "Feature", "properties": {"ProjectID": "P6898", "id": null}, "geometry": {"type": "MultiLineString", "coordinates": [[[-110.884382, 41.451158], [-110.893581, 41.45333], [-110.899733, 41.454742], [-110.906087, 41.457768], [-110.922528, 41.457364], [-110.937051, 41.463214], [-110.946431, 41.463214], [-110.960753, 41.455347], [-110.974773, 41.455851], [-110.978908, 41.452926], [-110.994239, 41.451716], [-111.012595, 41.45222], [-111.029439, 41.45222], [-111.051628, 41.452119], [-111.075734, 41.452019], [-111.08592, 41.45222], [-111.093586, 41.451615], [-111.102663, 41.449901], [-111.124449, 41.44395], [-111.13161, 41.441529], [-111.139981, 41.43457], [-111.147445, 41.435377], [-111.160355, 41.434267], [-111.168726, 41.437394], [-111.16913, 41.453027], [-111.169332, 41.464525], [-111.168626, 41.476931], [-111.176594, 41.472695], [-111.184662, 41.465736], [-111.207356, 41.465635], [-111.225309, 41.465635], [-111.262829, 41.465836], [-111.274327, 41.467248], [-111.284009, 41.468761], [-111.293389, 41.473502], [-111.29823, 41.472897], [-111.302668, 41.471585], [-111.305694, 41.470375], [-111.30993, 41.473098], [-111.319814, 41.474208], [-111.325362, 41.477334], [-111.333632, 41.478444], [-111.33918, 41.477032], [-111.353804, 41.474611], [-111.366109, 41.472191], [-111.37912, 41.470375], [-111.406251, 41.469669], [-111.41553, 41.466442], [-111.432172, 41.46624], [-111.473323, 41.46624], [-111.487645, 41.466038], [-111.523249, 41.466442], [-111.525972, 41.464525], [-111.528594, 41.463214], [-111.530914, 41.461802], [-111.537672, 41.460793], [-111.546447, 41.463819], [-111.553204, 41.46392], [-111.558146, 41.46624], [-111.580941, 41.466341], [-111.593044, 41.4733], [-111.606862, 41.480461], [-111.607366, 41.487622], [-111.607568, 41.49559], [-111.616342, 41.499524], [-111.629051, 41.509408], [-111.631068, 41.509307], [-111.633791, 41.512434], [-111.634598, 41.51788], [-111.644583, 41.530488], [-111.652148, 41.536337], [-111.652753, 41.542893], [-111.650837, 41.544911], [-111.653358, 41.546625], [-111.651946, 41.55076], [-111.6583, 41.552273], [-111.668285, 41.555803], [-111.672017, 41.561855], [-111.677766, 41.563368], [-111.683515, 41.562158], [-111.688256, 41.56599], [-111.698846, 41.565486], [-111.70641, 41.566394], [-111.71105, 41.565889], [-111.71579, 41.568209], [-111.718312, 41.580514], [-111.724767, 41.577186], [-111.733239, 41.576076], [-111.753411, 41.575168], [-111.763598, 41.577287], [-111.77792, 41.578093], [-111.793118, 41.578636]]]}},
{"type": "Feature", "properties": {"ProjectID": "P6898", "id": null}, "geometry": {"type": "MultiLineString", "coordinates": [[[-111.168626, 41.476931], [-111.169105, 41.48778], [-111.168802, 41.496857], [-111.166785, 41.502001], [-111.166684, 41.509364], [-111.162952, 41.510473], [-111.162952, 41.536999], [-111.154984, 41.550515], [-111.155186, 41.556264], [-111.16265, 41.573611], [-111.1686, 41.586219], [-111.173807, 41.594738], [-111.179052, 41.611078], [-111.179153, 41.635788], [-111.183389, 41.641033], [-111.184599, 41.653136], [-111.185003, 41.657372], [-111.179254, 41.664029], [-111.180666, 41.680772], [-111.172799, 41.695699], [-111.168966, 41.698321], [-111.162914, 41.700339], [-111.159183, 41.705281], [-111.159283, 41.73221], [-111.152828, 41.742599], [-111.138506, 41.75561], [-111.131144, 41.762065], [-111.122167, 41.771041], [-111.110366, 41.785061], [-111.104214, 41.789499], [-111.095439, 41.797265], [-111.091203, 41.803821], [-111.080613, 41.822682], [-111.079806, 41.828128], [-111.074662, 41.837407], [-111.092312, 41.835894], [-111.104718, 41.837912], [-111.115409, 41.837912], [-111.126, 41.838012], [-111.150408, 41.851023], [-111.166344, 41.852032]]]}},
{"type": "Feature", "properties": {"ProjectID": "P6898", "id": null}, "geometry": {"type": "MultiLineString", "coordinates": [[[-111.150408, 41.851023], [-111.150307, 41.864841], [-111.149702, 41.870994], [-111.135985, 41.877449], [-111.116821, 41.880071], [-111.105021, 41.882592], [-111.098868, 41.885316]]]}},
{"type": "Feature", "properties": {"ProjectID": "P6898", "id": null}, "geometry": {"type": "MultiLineString", "coordinates": [[[-111.098868, 41.885316], [-111.084748, 41.89409], [-111.075771, 41.900041], [-111.066694, 41.902664]]]}},
{"type": "Feature", "properties": {"ProjectID": "P6898", "id": null}, "geometry": {"type": "MultiLineString", "coordinates": [[[-111.168726, 41.437394], [-111.178245, 41.429127], [-111.178649, 41.425697], [-111.168563, 41.415208], [-111.170378, 41.410467], [-111.170479, 41.404214], [-111.172597, 41.399373], [-111.171084, 41.391808], [-111.181372, 41.377385], [-111.186717, 41.377083], [-111.199829, 41.353784], [-111.209108, 41.339765], [-111.204368, 41.329174], [-111.194584, 41.319996], [-111.180262, 41.309708], [-111.164831, 41.301438], [-111.144659, 41.292159], [-111.138002, 41.290343], [-111.126605, 41.280963], [-111.114905, 41.27471], [-111.110266, 41.270676], [-111.09786, 41.264725], [-111.075771, 41.257967], [-111.065728, 41.254002]]]}},
{"type": "Feature", "properties": {"ProjectID": "P6898", "id": null}, "geometry": {"type": "MultiLineString", "coordinates": [[[-111.023123, 41.132498], [-111.027737, 41.132977], [-111.033436, 41.133103], [-111.040546, 41.135019], [-111.046875, 41.134918], [-111.052801, 41.137011], [-111.058096, 41.137591], [-111.060483, 41.13761]]]}},
{"type": "Feature", "properties": {"ProjectID": "P6898", "id": null}, "geometry": {"type": "MultiLineString", "coordinates": [[[-111.041101, 41.066384], [-111.055171, 41.062098], [-111.05887, 41.061763]]]}},
{"type": "Feature", "properties": {"ProjectID": "P6898", "id": null}, "geometry": {"type": "MultiLineString", "coordinates": [[[-111.056651, 41.005585], [-111.045108, 41.008937], [-111.029374, 41.021444], [-111.009605, 41.032337], [-110.967648, 41.044843], [-110.951914, 41.047667], [-110.93981, 41.053316], [-110.884539, 41.065419], [-110.847019, 41.086398], [-110.79901, 41.120287], [-110.780855, 41.137231], [-110.746563, 41.159824], [-110.722155, 41.16991], [-110.705009, 41.178584], [-110.684635, 41.19573], [-110.664665, 41.212069], [-110.642879, 41.235469], [-110.625733, 41.245756], [-110.617664, 41.251808], [-110.607578, 41.263104], [-110.599308, 41.269963], [-110.567032, 41.294371], [-110.575303, 41.300019], [-110.592046, 41.311315], [-110.606973, 41.322006], [-110.619301, 41.329885]]]}},
{"type": "Feature", "properties": {"ProjectID": "P6898", "id": null}, "geometry": {"type": "MultiLineString", "coordinates": [[[-110.567032, 41.294371], [-110.556341, 41.300019], [-110.523864, 41.308491], [-110.492396, 41.318779], [-110.461331, 41.300624], [-110.446001, 41.271576], [-110.435108, 41.244142], [-110.425627, 41.217112], [-110.418163, 41.200874], [-110.412011, 41.186652], [-110.409994, 41.178987], [-110.405959, 41.1688], [-110.399403, 41.155285], [-110.388914, 41.133499], [-110.382055, 41.108284], [-110.379231, 41.096988], [-110.372978, 41.091945], [-110.354016, 41.06552], [-110.342115, 41.035665], [-110.330213, 41.00803], [-110.326375, 40.999873]]]}},
{"type": "Feature", "properties": {"ProjectID": "P6898", "id": null}, "geometry": {"type": "MultiLineString", "coordinates": [[[-110.326375, 40.999873], [-110.322736, 41.005043], [-110.321728, 41.012103], [-110.314264, 41.016743], [-110.295101, 41.021181], [-110.291672, 41.021181], [-110.290562, 41.019214], [-110.285519, 41.021433], [-110.283653, 41.021584], [-110.279115, 41.023097], [-110.277346, 41.021991]]]}},
{"type": "Feature", "properties": {"ProjectID": "P6898", "id": null}, "geometry": {"type": "MultiLineString", "coordinates": [[[-110.492396, 41.318779], [-110.454069, 41.332278], [-110.405051, 41.345995], [-110.391535, 41.35003], [-110.373986, 41.359914], [-110.327187, 41.385936], [-110.297131, 41.399854], [-110.273933, 41.416799], [-110.260619, 41.430112], [-110.243088, 41.44213]]]}},
{"type": "Feature", "properties": {"ProjectID": "P6898", "id": null}, "geometry": {"type": "MultiLineString", "coordinates": [[[-110.243088, 41.44213], [-110.21261, 41.462589], [-110.171863, 41.486796], [-110.14806, 41.497688], [-110.133133, 41.50374], [-110.115381, 41.51665], [-110.082703, 41.527139], [-110.051638, 41.533998]]]}},
{"type": "Feature", "properties": {"ProjectID": "P6898", "id": null}, "geometry": {"type": "MultiLineString", "coordinates": [[[-110.051638, 41.533998], [-110.05073, 41.543378], [-110.05333, 41.553621], [-110.053036, 41.553598]]]}},
{"type": "Feature", "properties": {"ProjectID": "P6898", "id": null}, "geometry": {"type": "MultiLineString", "coordinates": [[[-110.05333, 41.553621], [-110.055319, 41.559927], [-110.055319, 41.566155], [-110.055899, 41.579721], [-110.05605, 41.58262], [-110.055445, 41.58547], [-110.054891, 41.592076], [-110.055496, 41.605591], [-110.057614, 41.61013], [-110.057412, 41.630907], [-110.057009, 41.635042], [-110.050251, 41.639379], [-110.042686, 41.650272], [-110.034113, 41.66651], [-110.037845, 41.680833], [-110.044401, 41.702316], [-110.051966, 41.722488], [-110.057715, 41.738827], [-110.067801, 41.765353], [-110.071734, 41.775338], [-110.079399, 41.797931], [-110.089385, 41.824659], [-110.094226, 41.836459], [-110.098361, 41.848764], [-110.09826, 41.851992], [-110.094125, 41.853807], [-110.079097, 41.86238], [-110.077887, 41.864599], [-110.080307, 41.878215], [-110.090166, 41.878203], [-110.090091, 41.881443]]]}},
{"type": "Feature", "properties": {"ProjectID": "P6898", "id": null}, "geometry": {"type": "MultiLineString", "coordinates": [[[-110.051638, 41.533998], [-110.020056, 41.533981], [-109.99353, 41.534081], [-109.981628, 41.534182], [-109.980736, 41.564276]]]}},
{"type": "Feature", "properties": {"ProjectID": "P6898", "id": null}, "geometry": {"type": "MultiLineString", "coordinates": [[[-109.981628, 41.534182], [-109.962487, 41.533092], [-109.960722, 41.532918], [-109.956612, 41.539132]]]}},
{"type": "Feature", "properties": {"ProjectID": "P6898", "id": null}, "geometry": {"type": "MultiLineString", "coordinates": [[[-109.960722, 41.532918], [-109.943551, 41.531744], [-109.928258, 41.530219], [-109.921298, 41.529815], [-109.910153, 41.528706], [-109.897798, 41.527395], [-109.883476, 41.525529], [-109.873894, 41.526184], [-109.867036, 41.527243], [-109.856244, 41.528706], [-109.837534, 41.531328], [-109.826692, 41.532791], [-109.811361, 41.535161], [-109.803948, 41.535363], [-109.793358, 41.535766], [-109.786197, 41.536876], [-109.777926, 41.535665], [-109.763302, 41.535564], [-109.753922, 41.535161]]]}},
{"type": "Feature", "properties": {"ProjectID": "P6898", "id": null}, "geometry": {"type": "MultiLineString", "coordinates": [[[-109.817091, 41.621869], [-109.815774, 41.620142], [-109.825356, 41.609451], [-109.826868, 41.606223], [-109.815976, 41.597146], [-109.812748, 41.577982], [-109.806394, 41.545808], [-109.803948, 41.535363]]]}},
{"type": "Feature", "properties": {"ProjectID": "P6898", "id": null}, "geometry": {"type": "MultiLineString", "coordinates": [[[-109.753922, 41.535161], [-109.7543, 41.554835], [-109.754703, 41.56603], [-109.770942, 41.56946], [-109.763982, 41.576116], [-109.759948, 41.584488], [-109.755661, 41.59122]]]}},
{"type": "Feature", "properties": {"ProjectID": "P6898", "id": null}, "geometry": {"type": "MultiLineString", "coordinates": [[[-109.753922, 41.535161], [-109.698967, 41.534723], [-109.681638, 41.533966], [-109.659752, 41.534471], [-109.642303, 41.533765], [-109.623543, 41.531848], [-109.605388, 41.529024], [-109.575534, 41.525494], [-109.564136, 41.524385], [-109.52934, 41.516619], [-109.5129, 41.517224], [-109.502007, 41.518232], [-109.48597, 41.52388], [-109.481431, 41.522368], [-109.470066, 41.516852], [-109.459728, 41.515894], [-109.450801, 41.515641], [-109.447675, 41.515843], [-109.440968, 41.513826], [-109.427755, 41.516297], [-109.423468, 41.51786], [-109.418829, 41.517558]]]}},
{"type": "Feature", "properties": {"ProjectID": "P6898", "id": null}, "geometry": {"type": "MultiLineString", "coordinates": [[[-110.571793, 41.755426], [-110.566296, 41.752451], [-110.560244, 41.749576], [-110.55568, 41.747559], [-110.550057, 41.746349], [-110.542341, 41.744508], [-110.536744, 41.742869], [-110.532987, 41.740827], [-110.531272, 41.737372], [-110.530339, 41.7348], [-110.517379, 41.733414], [-110.506587, 41.732405], [-110.495795, 41.732102], [-110.480767, 41.731195], [-110.470277, 41.729682], [-110.45182, 41.722924], [-110.434472, 41.716873], [-110.406735, 41.706686], [-110.404012, 41.702046], [-110.392312, 41.70134], [-110.377486, 41.695793], [-110.362597, 41.691695]]]}},
{"type": "Feature", "properties": {"ProjectID": "P6898", "id": null}, "geometry": {"type": "MultiLineString", "coordinates": [[[-109.418829, 41.517558], [-109.398931, 41.523512], [-109.372304, 41.525125], [-109.342853, 41.525125], [-109.328329, 41.525125], [-109.325001, 41.525025], [-109.319681, 41.523285], [-109.319129, 41.524031]]]}},
{"type": "Feature", "properties": {"ProjectID": "P6898", "id": null}, "geometry": {"type": "MultiLineString", "coordinates": [[[-109.319681, 41.523285], [-109.319475, 41.522621]]]}},
{"type": "Feature", "properties": {"ProjectID": "P6898", "id": null}, "geometry": {"type": "MultiLineString", "coordinates": [[[-109.319681, 41.523285], [-109.317966, 41.522427], [-109.315873, 41.522276], [-109.311286, 41.521451]]]}},
{"type": "Feature", "properties": {"ProjectID": "P6898", "id": null}, "geometry": {"type": "MultiLineString", "coordinates": [[[-109.315873, 41.522276], [-109.312066, 41.511812], [-109.306115, 41.503138], [-109.298046, 41.494061], [-109.29966, 41.476309], [-109.298651, 41.470661], [-109.297441, 41.468341], [-109.298954, 41.463399], [-109.302383, 41.431527], [-109.297643, 41.426989], [-109.293306, 41.419223], [-109.292297, 41.414482], [-109.290885, 41.407119], [-109.282413, 41.40016], [-109.271823, 41.37908], [-109.269099, 41.372928], [-109.268141, 41.366019], [-109.270612, 41.358051]]]}},
{"type": "Feature", "properties": {"ProjectID": "P6898", "id": null}, "geometry": {"type": "MultiLineString", "coordinates": [[[-109.269099, 41.372928], [-109.272478, 41.371919], [-109.276059, 41.36728], [-109.274294, 41.360926], [-109.270612, 41.358051]]]}},
{"type": "Feature", "properties": {"ProjectID": "P6898", "id": null}, "geometry": {"type": "MultiLineString", "coordinates": [[[-109.270612, 41.358051], [-109.268343, 41.339997], [-109.258459, 41.32386], [-109.2399, 41.3051], [-109.237681, 41.299653], [-109.232638, 41.295215], [-109.20702, 41.257292], [-109.18705, 41.226026], [-109.184831, 41.216746], [-109.179586, 41.19839], [-109.177569, 41.192137], [-109.173938, 41.189111], [-109.173131, 41.180639], [-109.17535, 41.176402], [-109.172526, 41.168535], [-109.170509, 41.163492], [-109.168492, 41.152801], [-109.169702, 41.139891], [-109.170711, 41.133234], [-109.188865, 41.122947], [-109.187655, 41.116088], [-109.18826, 41.109432], [-109.193505, 41.100758]]]}},
{"type": "Feature", "properties": {"ProjectID": "P6898", "id": null}, "geometry": {"type": "MultiLineString", "coordinates": [[[-109.188865, 41.122947], [-109.20238, 41.11508], [-109.197136, 41.107818], [-109.193505, 41.100758], [-109.19532, 41.094706], [-109.202784, 41.089865], [-109.219123, 41.089058], [-109.232235, 41.089058], [-109.227999, 41.070096], [-109.225377, 41.055169], [-109.22578, 41.039031], [-109.227595, 41.026726], [-109.225578, 41.016842], [-109.225377, 41.006353], [-109.212842, 40.991506]]]}},
{"type": "Feature", "properties": {"ProjectID": "P6898", "id": null}, "geometry": {"type": "MultiLineString", "coordinates": [[[-109.225377, 41.006353], [-109.223561, 40.982953], [-109.217152, 40.984172]]]}},
{"type": "Feature", "properties": {"ProjectID": "P6898", "id": null}, "geometry": {"type": "MultiLineString", "coordinates": [[[-109.223561, 40.982953], [-109.23869, 40.981945], [-109.264107, 40.98134], [-109.285287, 40.980331], [-109.30909, 40.98134], [-109.320992, 40.981541], [-109.336322, 40.981138], [-109.344795, 40.9767], [-109.360529, 40.977507], [-109.376868, 40.978919], [-109.390585, 40.980936], [-109.407328, 40.986786], [-109.42165, 40.991022], [-109.434358, 40.991627], [-109.439199, 40.986181], [-109.451706, 40.979928], [-109.462801, 40.975288], [-109.470908, 40.970639]]]}},
{"type": "Feature", "properties": {"ProjectID": "P6898", "id": null}, "geometry": {"type": "MultiLineString", "coordinates": [[[-109.212842, 40.991506], [-109.196127, 40.982953], [-109.181402, 40.97791], [-109.164054, 40.976095]]]}},
{"type": "Feature", "properties": {"ProjectID": "P6898", "id": null}, "geometry": {"type": "MultiLineString", "coordinates": [[[-109.217152, 40.984172], [-109.209441, 40.979121], [-109.200363, 40.975691], [-109.190479, 40.972262], [-109.174341, 40.971455], [-109.164457, 40.968228], [-109.1578, 40.96258], [-109.155178, 40.954107], [-109.155582, 40.94503], [-109.153363, 40.940189], [-109.145899, 40.935953], [-109.14247, 40.927077], [-109.144285, 40.916991], [-109.147513, 40.91215], [-109.147109, 40.902265], [-109.14247, 40.892986], [-109.134804, 40.882093], [-109.125929, 40.878462], [-109.131577, 40.872007], [-109.137628, 40.867166], [-109.143478, 40.864342], [-109.144084, 40.860308], [-109.139646, 40.852844], [-109.135813, 40.844977], [-109.135006, 40.834286], [-109.13077, 40.827226], [-109.13077, 40.796564], [-109.138032, 40.792933], [-109.145092, 40.790916], [-109.152757, 40.785066], [-109.156489, 40.782545], [-109.169198, 40.776594], [-109.173635, 40.765903], [-109.178678, 40.756624], [-109.181704, 40.752287], [-109.184629, 40.750774], [-109.188664, 40.746538], [-109.192194, 40.737864], [-109.194413, 40.734435], [-109.197438, 40.721323], [-109.199355, 40.707908], [-109.201775, 40.704076], [-109.20117, 40.695301], [-109.203793, 40.689855], [-109.203591, 40.682593], [-109.207222, 40.680575], [-109.210651, 40.677348], [-109.220334, 40.672305], [-109.229613, 40.664841], [-109.249583, 40.653747], [-109.258862, 40.648905], [-109.271167, 40.643862], [-109.279437, 40.636802], [-109.295373, 40.610175], [-109.303442, 40.60957], [-109.312923, 40.598476], [-109.326035, 40.578102], [-109.332086, 40.568016], [-109.344189, 40.551071], [-109.353267, 40.535741], [-109.359117, 40.525856], [-109.362949, 40.512341], [-109.366379, 40.505079], [-109.371522, 40.496531], [-109.371989, 40.490984], [-109.371182, 40.48816], [-109.370728, 40.480696], [-109.369467, 40.463298], [-109.360592, 40.449985], [-109.341832, 40.424568], [-109.343244, 40.413272], [-109.342639, 40.40843], [-109.331948, 40.402782], [-109.318836, 40.38846], [-109.318231, 40.384627], [-109.324282, 40.378979], [-109.330737, 40.373533], [-109.333965, 40.362237], [-109.349295, 40.344687], [-109.343446, 40.326734], [-109.350506, 40.315236], [-109.354944, 40.30636], [-109.355347, 40.281952], [-109.360794, 40.271463], [-109.352523, 40.262789], [-109.34748, 40.252703], [-109.34042, 40.238381], [-109.340016, 40.233741], [-109.334368, 40.231926], [-109.332754, 40.222445], [-109.334772, 40.216393], [-109.340823, 40.208123], [-109.340016, 40.202071], [-109.339815, 40.195818], [-109.33578, 40.184521], [-109.337394, 40.178672], [-109.33578, 40.175646], [-109.336385, 40.170603], [-109.336184, 40.160517], [-109.343042, 40.144379], [-109.349699, 40.135504], [-109.362206, 40.13268], [-109.384193, 40.128847], [-109.399927, 40.125418], [-109.411829, 40.122392], [-109.419494, 40.116945], [-109.424739, 40.109885], [-109.426352, 40.101816], [-109.427764, 40.092941], [-109.43079, 40.087293], [-109.434018, 40.083258], [-109.43664, 40.073777], [-109.436842, 40.066112], [-109.439061, 40.055219], [-109.437649, 40.045537], [-109.438657, 40.041301], [-109.4437, 40.038678], [-109.455948, 40.040204]]]}},
{"type": "Feature", "properties": {"ProjectID": "P6898", "id": null}, "geometry": {"type": "MultiLineString", "coordinates": [[[-109.190479, 40.972262], [-109.193339, 40.981998]]]}},
{"type": "Feature", "properties": {"ProjectID": "P6898", "id": null}, "geometry": {"type": "MultiLineString", "coordinates": [[[-109.455948, 40.040204], [-109.468108, 40.036056], [-109.486667, 40.028189], [-109.503006, 40.019313], [-109.510945, 40.01745], [-109.525271, 40.014248], [-109.546048, 40.009306], [-109.564909, 40.003658], [-109.590124, 39.997505], [-109.610396, 39.993874], [-109.630871, 39.989033], [-109.651245, 39.984898], [-109.658103, 39.983082], [-109.681503, 39.981267], [-109.700666, 39.968558], [-109.707928, 39.963112], [-109.732739, 39.958473], [-109.757954, 39.950605], [-109.796483, 39.943344], [-109.822908, 39.937292], [-109.829767, 39.936283], [-109.832187, 39.932047], [-109.837634, 39.93003], [-109.844694, 39.933258], [-109.851552, 39.937494], [-109.859337, 39.937585]]]}},
{"type": "Feature", "properties": {"ProjectID": "P6898", "id": null}, "geometry": {"type": "MultiLineString", "coordinates": [[[-109.829767, 39.936283], [-109.836266, 39.937963], [-109.843528, 39.939174], [-109.849428, 39.939048], [-109.859337, 39.937585]]]}},
{"type": "Feature", "properties": {"ProjectID": "P6898", "id": null}, "geometry": {"type": "MultiLineString", "coordinates": [[[-109.859337, 39.937585], [-109.870155, 39.936627], [-109.882863, 39.932189], [-109.894159, 39.929567], [-109.911911, 39.927751], [-109.931276, 39.923112], [-109.940757, 39.922305], [-109.946808, 39.92412], [-109.954272, 39.923717], [-109.960929, 39.922103], [-109.967989, 39.921094], [-109.997642, 39.909193], [-110.021848, 39.909193], [-110.03153, 39.906571], [-110.047466, 39.902536], [-110.058561, 39.901729], [-110.075505, 39.901023], [-110.095173, 39.900418], [-110.120287, 39.899006], [-110.136929, 39.888315], [-110.151655, 39.879439], [-110.172633, 39.870362], [-110.188267, 39.8631], [-110.193108, 39.859873], [-110.198151, 39.858057], [-110.203875, 39.847542], [-110.205913, 39.847908]]]}},
{"type": "Feature", "properties": {"ProjectID": "P6898", "id": null}, "geometry": {"type": "MultiLineString", "coordinates": [[[-110.203875, 39.847542], [-110.20564, 39.838793], [-110.206951, 39.834254], [-110.217138, 39.823664], [-110.223391, 39.818923], [-110.234107, 39.808182], [-110.238189, 39.810543], [-110.242224, 39.811703], [-110.247519, 39.810543], [-110.251603, 39.811602], [-110.253419, 39.811652], [-110.257756, 39.808425], [-110.267035, 39.808828], [-110.270162, 39.807668], [-110.273339, 39.811551], [-110.279491, 39.812358], [-110.303294, 39.814577], [-110.312775, 39.815989], [-110.319432, 39.81498], [-110.325282, 39.810543], [-110.331535, 39.807113], [-110.337586, 39.805903], [-110.3392, 39.801062], [-110.342629, 39.798439], [-110.350093, 39.800053], [-110.354733, 39.801667], [-110.358767, 39.800053], [-110.363407, 39.798641], [-110.370063, 39.799045], [-110.374098, 39.801264], [-110.377729, 39.802676], [-110.38842, 39.796422], [-110.392454, 39.791783], [-110.396085, 39.784924], [-110.408794, 39.784319], [-110.414643, 39.786538], [-110.418476, 39.783916], [-110.421502, 39.781092], [-110.426747, 39.780285], [-110.431386, 39.778873], [-110.441876, 39.778873], [-110.449541, 39.778267], [-110.453979, 39.77504], [-110.46346, 39.775242], [-110.467897, 39.777057], [-110.475563, 39.773628], [-110.492306, 39.774637], [-110.501786, 39.774031], [-110.509048, 39.774435], [-110.515302, 39.771006], [-110.522967, 39.762533], [-110.526194, 39.760718], [-110.528413, 39.757087], [-110.534667, 39.753658], [-110.541525, 39.753658], [-110.549896, 39.746597], [-110.553603, 39.74284], [-110.557076, 39.740401], [-110.56483, 39.736499], [-110.573504, 39.729741], [-110.583187, 39.723891], [-110.589642, 39.722681], [-110.597206, 39.721471], [-110.604468, 39.720866], [-110.607292, 39.71199], [-110.611831, 39.700391], [-110.623631, 39.686775], [-110.63755, 39.676487], [-110.652276, 39.664384], [-110.665791, 39.654096], [-110.674868, 39.644616], [-110.691207, 39.639371], [-110.73135, 39.629285], [-110.746435, 39.625427], [-110.751377, 39.623611], [-110.774297, 39.618367], [-110.779996, 39.616703], [-110.784106, 39.617308], [-110.786224, 39.617283], [-110.791544, 39.618342], [-110.795251, 39.619804], [-110.805034, 39.620107], [-110.812599, 39.620107], [-110.821133, 39.617493]]]}},
{"type": "Feature", "properties": {"ProjectID": "P6898", "id": null}, "geometry": {"type": "MultiLineString", "coordinates": [[[-110.774297, 39.618367], [-110.782038, 39.621115], [-110.787787, 39.625452], [-110.794746, 39.625452], [-110.806345, 39.625553], [-110.813506, 39.623334], [-110.821133, 39.617493], [-110.82914, 39.620308], [-110.832165, 39.624141], [-110.833174, 39.626864], [-110.846891, 39.625351], [-110.85738, 39.625351], [-110.869692, 39.619918]]]}},
{"type": "Feature", "properties": {"ProjectID": "P6898", "id": null}, "geometry": {"type": "MultiLineString", "coordinates": [[[-110.821133, 39.617493], [-110.833332, 39.616942], [-110.848864, 39.617144], [-110.85895, 39.619161], [-110.869692, 39.619918]]]}},
{"type": "Feature", "properties": {"ProjectID": "P6898", "id": null}, "geometry": {"type": "MultiLineString", "coordinates": [[[-110.869692, 39.619918], [-110.888199, 39.617547], [-110.905547, 39.619161], [-110.917146, 39.627633], [-110.924509, 39.627961], [-110.926703, 39.624734]]]}},
{"type": "Feature", "properties": {"ProjectID": "P6898", "id": null}, "geometry": {"type": "MultiLineString", "coordinates": [[[-110.924509, 39.627961], [-110.931519, 39.629247], [-110.934948, 39.630987], [-110.943824, 39.631365], [-110.954162, 39.634492], [-110.961676, 39.639383], [-110.965912, 39.644174], [-110.97978, 39.651083], [-110.9801, 39.6533]]]}},
{"type": "Feature", "properties": {"ProjectID": "P6898", "id": null}, "geometry": {"type": "MultiLineString", "coordinates": [[[-110.97978, 39.651083], [-110.979641, 39.653287]]]}},
{"type": "Feature", "properties": {"ProjectID": "P6898", "id": null}, "geometry": {"type": "MultiLineString", "coordinates": [[[-110.97978, 39.651083], [-110.985359, 39.653803], [-111.008153, 39.653904], [-111.032763, 39.653097], [-111.044488, 39.653085]]]}},
{"type": "Feature", "properties": {"ProjectID": "P6898", "id": null}, "geometry": {"type": "MultiLineString", "coordinates": [[[-111.044488, 39.653085], [-111.047345, 39.650741]]]}},
{"type": "Feature", "properties": {"ProjectID": "P6898", "id": null}, "geometry": {"type": "MultiLineString", "coordinates": [[[-111.044488, 39.653085], [-111.054657, 39.655053], [-111.060406, 39.65586], [-111.069181, 39.656692], [-111.076821, 39.658583], [-111.083327, 39.659566], [-111.087361, 39.656868], [-111.090891, 39.658154], [-111.098078, 39.661256], [-111.102591, 39.660953], [-111.112627, 39.657448], [-111.125814, 39.655078], [-111.144473, 39.654372], [-111.153008, 39.652727], [-111.156814, 39.652246], [-111.164202, 39.654793], [-111.173834, 39.655902], [-111.177264, 39.657214], [-111.185685, 39.659029], [-111.19557, 39.660038], [-111.201319, 39.657314], [-111.209085, 39.661651], [-111.21201, 39.665484]]]}},
{"type": "Feature", "properties": {"ProjectID": "P6898", "id": null}, "geometry": {"type": "MultiLineString", "coordinates": [[[-111.19557, 39.660038], [-111.193729, 39.665333], [-111.193679, 39.672595], [-111.189644, 39.676629], [-111.184299, 39.678394], [-111.178146, 39.682328], [-111.185812, 39.682126], [-111.192267, 39.682126], [-111.196099, 39.684143], [-111.200941, 39.684345], [-111.213598, 39.68495], [-111.223533, 39.68379], [-111.22671, 39.689186], [-111.229534, 39.695843], [-111.235182, 39.697961], [-111.237401, 39.701289], [-111.242243, 39.703407], [-111.24779, 39.704214], [-111.252329, 39.713796], [-111.255859, 39.719041], [-111.260095, 39.723882], [-111.274518, 39.729732], [-111.279762, 39.729328], [-111.287327, 39.729228], [-111.291664, 39.727614], [-111.299027, 39.722268], [-111.298825, 39.71783], [-111.301649, 39.717124], [-111.306894, 39.721562], [-111.311937, 39.725193], [-111.31345, 39.733262], [-111.312239, 39.746979]]]}},
{"type": "Feature", "properties": {"ProjectID": "P6898", "id": null}, "geometry": {"type": "MultiLineString", "coordinates": [[[-111.163774, 39.684748], [-111.17275, 39.682832], [-111.178146, 39.682328]]]}},
{"type": "Feature", "properties": {"ProjectID": "P6898", "id": null}, "geometry": {"type": "MultiLineString", "coordinates": [[[-111.21201, 39.665484], [-111.216977, 39.671586], [-111.222121, 39.676024], [-111.223533, 39.68379]]]}},
{"type": "Feature", "properties": {"ProjectID": "P6898", "id": null}, "geometry": {"type": "MultiLineString", "coordinates": [[[-111.274518, 39.729732], [-111.290807, 39.738759], [-111.297665, 39.739767], [-111.302506, 39.744407], [-111.312239, 39.746979], [-111.318442, 39.750055], [-111.325502, 39.7553], [-111.32752, 39.761553], [-111.329537, 39.767605], [-111.358988, 39.781725], [-111.367864, 39.786768], [-111.372503, 39.789592], [-111.384808, 39.791408], [-111.394491, 39.797661], [-111.406795, 39.809361]]]}},
{"type": "Feature", "properties": {"ProjectID": "P6898", "id": null}, "geometry": {"type": "MultiLineString", "coordinates": [[[-111.358988, 39.781725], [-111.357778, 39.786163], [-111.359391, 39.788281], [-111.356466, 39.789794], [-111.358383, 39.791206], [-111.3604, 39.798165], [-111.3604, 39.800989], [-111.368267, 39.803713], [-111.370082, 39.806537], [-111.376941, 39.806335], [-111.385716, 39.808049], [-111.386825, 39.810672], [-111.395398, 39.81158], [-111.406795, 39.809361], [-111.411939, 39.810369], [-111.424547, 39.810168], [-111.43201, 39.810268], [-111.442096, 39.812891], [-111.456721, 39.81632], [-111.464694, 39.819439], [-111.471144, 39.821464], [-111.480423, 39.825498], [-111.481835, 39.826003], [-111.489097, 39.812286], [-111.4894, 39.81158]]]}},
{"type": "Feature", "properties": {"ProjectID": "P6898", "id": null}, "geometry": {"type": "MultiLineString", "coordinates": [[[-111.481835, 39.826003], [-111.488946, 39.830037], [-111.520011, 39.858883], [-111.536552, 39.873205], [-111.541595, 39.873407], [-111.549865, 39.885913], [-111.56217, 39.887527], [-111.59384, 39.894184], [-111.610785, 39.89721], [-111.634587, 39.90669], [-111.668073, 39.9196], [-111.670494, 39.93009], [-111.683605, 39.935536], [-111.697524, 39.944614], [-111.702769, 39.952077], [-111.699541, 39.96761], [-111.700953, 39.975477], [-111.700222, 39.990486], [-111.701804, 39.992566], [-111.704074, 40.000988], [-111.708209, 40.007695], [-111.710176, 40.00825], [-111.71184, 40.013797], [-111.722127, 40.018185], [-111.726918, 40.014604], [-111.732415, 40.012335], [-111.741051, 40.012057], [-111.75961, 40.012057], [-111.761728, 39.997937], [-111.773024, 39.997332], [-111.789061, 39.995718], [-111.798945, 39.988154], [-111.810241, 39.98775], [-111.811048, 39.990776], [-111.821336, 39.990373], [-111.827387, 39.988154], [-111.834044, 39.98886], [-111.842113, 39.982405], [-111.883365, 39.982001], [-111.916749, 39.9819], [-111.942973, 39.981799], [-111.979181, 39.982203], [-111.980543, 39.979328], [-111.97545, 39.962535]]]}},
{"type": "Feature", "properties": {"ProjectID": "P6898", "id": null}, "geometry": {"type": "MultiLineString", "coordinates": [[[-111.97545, 39.962535], [-111.972058, 39.939564], [-111.932925, 39.893169], [-111.92183, 39.892312], [-111.913257, 39.887874], [-111.914316, 39.885302], [-111.913509, 39.883839], [-111.912853, 39.881469], [-111.910332, 39.8792], [-111.908517, 39.878191], [-111.907558, 39.87103], [-111.907558, 39.847379], [-111.908063, 39.83235], [-111.905743, 39.829627], [-111.901154, 39.827862], [-111.893841, 39.823424]]]}},
{"type": "Feature", "properties": {"ProjectID": "P6898", "id": null}, "geometry": {"type": "MultiLineString", "coordinates": [[[-110.905547, 39.619161], [-110.913736, 39.620646], [-110.925839, 39.610963], [-110.931084, 39.600474], [-110.937539, 39.589984], [-110.948028, 39.588572], [-110.951256, 39.578284], [-110.952264, 39.570417], [-110.947625, 39.564971], [-110.937539, 39.562147], [-110.934109, 39.558718], [-110.927856, 39.558314], [-110.91777, 39.550649], [-110.91192, 39.54379], [-110.910508, 39.538344], [-110.897195, 39.533301], [-110.892353, 39.532898], [-110.884285, 39.544194], [-110.879948, 39.550245], [-110.869156, 39.550044], [-110.868853, 39.571426], [-110.875006, 39.581209], [-110.878737, 39.591497], [-110.885495, 39.598053], [-110.887512, 39.60128], [-110.888723, 39.611064], [-110.888199, 39.617547]]]}},
{"type": "Feature", "properties": {"ProjectID": "P6898", "id": null}, "geometry": {"type": "MultiLineString", "coordinates": [[[-110.869692, 39.619918], [-110.866433, 39.612375], [-110.865323, 39.601381], [-110.866533, 39.58948], [-110.868752, 39.575259], [-110.868853, 39.571426]]]}},
{"type": "Feature", "properties": {"ProjectID": "P6898", "id": null}, "geometry": {"type": "MultiLineString", "coordinates": [[[-110.869156, 39.550044], [-110.869004, 39.536629], [-110.868601, 39.525585], [-110.868399, 39.523417], [-110.871066, 39.516848], [-110.872881, 39.50767], [-110.873184, 39.497433], [-110.872831, 39.489112], [-110.873234, 39.440094], [-110.873839, 39.418106], [-110.88564, 39.404289], [-110.896331, 39.393396], [-110.911359, 39.377258], [-110.91963, 39.367954], [-110.936045, 39.348286], [-110.945526, 39.337998], [-110.964689, 39.31823], [-110.971346, 39.302698], [-110.975481, 39.293116], [-110.981835, 39.28182], [-111.003117, 39.251864], [-111.006344, 39.244602], [-111.011589, 39.236533], [-111.023288, 39.229272], [-111.04104, 39.205469], [-111.053546, 39.187314], [-111.065246, 39.174404], [-111.078761, 39.161393], [-111.094496, 39.144953], [-111.09732, 39.13648], [-111.097723, 39.130025], [-111.102968, 39.120746], [-111.110633, 39.102995], [-111.116433, 39.086757], [-111.117841, 39.076664]]]}},
{"type": "Feature", "properties": {"ProjectID": "P6898", "id": null}, "geometry": {"type": "MultiLineString", "coordinates": [[[-110.328487, 40.357484], [-110.31714, 40.3477], [-110.310534, 40.342909], [-110.303625, 40.336656], [-110.302768, 40.334286], [-110.298986, 40.329898], [-110.295052, 40.321779], [-110.290614, 40.314265], [-110.288597, 40.309474], [-110.287185, 40.306953], [-110.289706, 40.303977], [-110.286378, 40.298077], [-110.283504, 40.29026], [-110.278965, 40.287588], [-110.274527, 40.286428], [-110.273065, 40.284764], [-110.267265, 40.283755], [-110.246841, 40.283251], [-110.246387, 40.273165], [-110.238722, 40.265953], [-110.222226, 40.254685], [-110.218851, 40.247594], [-110.210379, 40.240533], [-110.201452, 40.238264], [-110.19646, 40.235642], [-110.192022, 40.231406], [-110.177952, 40.220614], [-110.168068, 40.213251], [-110.151123, 40.20962], [-110.14013, 40.204678], [-110.127497, 40.201589], [-110.123015, 40.195909], [-110.114518, 40.190085], [-110.099489, 40.182318], [-110.091975, 40.179494], [-110.076172, 40.163779]]]}},
{"type": "Feature", "properties": {"ProjectID": "P6898", "id": null}, "geometry": {"type": "MultiLineString", "coordinates": [[[-110.085293, 40.382613], [-110.086302, 40.382639], [-110.086403, 40.368518], [-110.087059, 40.360954], [-110.086554, 40.346379], [-110.085949, 40.332864], [-110.086352, 40.305632], [-110.085949, 40.29363], [-110.084134, 40.283544], [-110.085848, 40.261254], [-110.086352, 40.243502], [-110.084134, 40.224541], [-110.08335, 40.216915], [-110.083048, 40.195684], [-110.079114, 40.189884], [-110.077349, 40.183278], [-110.077248, 40.171931], [-110.076172, 40.163779], [-110.077047, 40.138446], [-110.076038, 40.117265], [-110.074676, 40.108516], [-110.073214, 40.101909], [-110.071651, 40.083805], [-110.070818, 40.073139], [-110.06744, 40.05564], [-110.062397, 40.042528], [-110.059169, 40.03688], [-110.058362, 40.017111], [-110.057757, 39.995729], [-110.05695, 39.987257], [-110.052714, 39.981004], [-110.053319, 39.975356], [-110.056749, 39.971523], [-110.057757, 39.94651], [-110.058362, 39.917059], [-110.058561, 39.901729]]]}},
{"type": "Feature", "properties": {"ProjectID": "P6898", "id": null}, "geometry": {"type": "MultiLineString", "coordinates": [[[-109.4437, 40.038678], [-109.423349, 40.037183], [-109.406303, 40.03567], [-109.387745, 40.032745], [-109.380483, 40.029921], [-109.372314, 40.025281], [-109.348006, 40.021146], [-109.338223, 40.02044], [-109.324506, 40.019734], [-109.29687, 40.017616], [-109.284061, 40.015498], [-109.269638, 40.010757], [-109.262074, 40.010455], [-109.251786, 40.012472], [-109.229496, 40.013178], [-109.19833, 40.01338], [-109.174225, 40.012068], [-109.17019, 40.011917], [-109.163237, 40.011602], [-109.156707, 40.010291], [-109.150176, 40.009585], [-109.141099, 40.004617], [-109.134745, 40.001894], [-109.130004, 39.99786], [-109.127483, 39.993321], [-109.127583, 39.986261], [-109.121431, 39.983437], [-109.118203, 39.984143], [-109.115379, 39.980109], [-109.107815, 39.975872], [-109.100956, 39.976578], [-109.096619, 39.971435], [-109.096115, 39.966795], [-109.086634, 39.962357], [-109.078566, 39.956507], [-109.07907, 39.953582], [-109.073926, 39.950052], [-109.072211, 39.945413], [-109.068076, 39.944808], [-109.061722, 39.941681], [-109.05214, 39.934116], [-109.031867, 39.931292], [-109.015024, 39.929679], [-109.009981, 39.929073], [-109.007762, 39.927258], [-109.00756, 39.924837], [-109.004837, 39.922316], [-109.001004, 39.921206], [-108.998584, 39.917878], [-108.993843, 39.915256], [-108.989103, 39.909809], [-108.980631, 39.898916], [-108.977807, 39.895891], [-108.972562, 39.894277], [-108.963585, 39.895084], [-108.953096, 39.891049], [-108.946036, 39.887317], [-108.944422, 39.887116], [-108.934941, 39.881266], [-108.919913, 39.874004], [-108.908919, 39.870474], [-108.899035, 39.868053], [-108.897018, 39.868154], [-108.893689, 39.863212], [-108.883099, 39.858875], [-108.870492, 39.852723], [-108.86444, 39.851411], [-108.858893, 39.846772], [-108.849009, 39.84768], [-108.837309, 39.847074], [-108.837712, 39.84304], [-108.835796, 39.83951], [-108.833174, 39.835778], [-108.826315, 39.832349], [-108.816128, 39.829726], [-108.80845, 39.828617], [-108.802613, 39.828075], [-108.787572, 39.828794], [-108.780739, 39.829273], [-108.77905, 39.828945], [-108.774763, 39.829979], [-108.77146, 39.830105], [-108.767678, 39.831592], [-108.76382, 39.832374], [-108.76092, 39.833282], [-108.757894, 39.834719], [-108.755234, 39.835324], [-108.753431, 39.835312], [-108.744619, 39.834555], [-108.742097, 39.833395], [-108.738214, 39.832639], [-108.735945, 39.830218], [-108.733776, 39.829159], [-108.728279, 39.832185], [-108.722429, 39.832336], [-108.717487, 39.836371], [-108.711738, 39.834353], [-108.704981, 39.837581], [-108.700039, 39.837581], [-108.693281, 39.834959], [-108.687532, 39.829109], [-108.676236, 39.827798], [-108.66504, 39.829815], [-108.655559, 39.833446], [-108.649104, 39.83516], [-108.641742, 39.83395], [-108.636295, 39.834051], [-108.623486, 39.83274], [-108.60987, 39.832034], [-108.598876, 39.834353], [-108.586369, 39.842826], [-108.579814, 39.847869], [-108.571341, 39.851298], [-108.561457, 39.856946], [-108.547538, 39.857349], [-108.522929, 39.871268], [-108.512036, 39.874697], [-108.499731, 39.877017], [-108.476836, 39.890331], [-108.473306, 39.891541], [-108.464833, 39.900618], [-108.454041, 39.906771], [-108.436259, 39.905434], [-108.431241, 39.905182], [-108.426551, 39.90488], [-108.421886, 39.904552], [-108.418079, 39.904401], [-108.41243, 39.903745], [-108.396999, 39.903014], [-108.381466, 39.901703], [-108.369363, 39.901198], [-108.355898, 39.900896], [-108.346632, 39.900366], [-108.326031, 39.899736], [-108.310297, 39.898727], [-108.306061, 39.89671], [-108.300009, 39.897517], [-108.292908, 39.898613], [-108.290084, 39.899722], [-108.28377, 39.8984], [-108.27629, 39.898365], [-108.2718, 39.897362], [-108.269935, 39.898281], [-108.262893, 39.898324], [-108.234302, 39.898496], [-108.230591, 39.897456], [-108.228023, 39.897259], [-108.226711, 39.897971], [-108.224611, 39.898271], [-108.210065, 39.898684], [-108.208191, 39.898121], [-108.206686, 39.898506], [-108.201481, 39.898646], [-108.196232, 39.897934], [-108.191202, 39.897663], [-108.191224, 39.897121], [-108.178458, 39.895357], [-108.163953, 39.892476], [-108.155112, 39.889223], [-108.145252, 39.885298], [-108.137329, 39.881995], [-108.127618, 39.87822], [-108.118404, 39.874644], [-108.100348, 39.858749], [-108.087657, 39.843201], [-108.085968, 39.836893], [-108.088563, 39.829094], [-108.085434, 39.823978], [-108.085632, 39.816676], [-108.084192, 39.813994], [-108.079076, 39.810815], [-108.075003, 39.805996], [-108.07832, 39.802709], [-108.069444, 39.80049], [-108.063796, 39.797666], [-108.059358, 39.797262], [-108.053508, 39.792824], [-108.038379, 39.787781], [-108.026679, 39.776889], [-108.021838, 39.769627]]]}},
{"type": "Feature", "properties": {"ProjectID": "P6898", "id": null}, "geometry": {"type": "MultiLineString", "coordinates": [[[-108.021838, 39.769627], [-108.015232, 39.765945], [-108.014727, 39.759188], [-108.014929, 39.751119], [-108.006659, 39.740226], [-107.983663, 39.719146], [-107.966718, 39.70664], [-107.94695, 39.699378], [-107.929602, 39.690906], [-107.921129, 39.681626], [-107.911043, 39.672751], [-107.892082, 39.657017], [-107.88361, 39.650158], [-107.877155, 39.646124], [-107.866262, 39.639669], [-107.849721, 39.630793], [-107.84609, 39.620102], [-107.841047, 39.613042], [-107.836205, 39.607595], [-107.832776, 39.59993], [-107.826321, 39.595089], [-107.813815, 39.579556], [-107.816235, 39.573505], [-107.817647, 39.564427], [-107.822085, 39.559183], [-107.823094, 39.548895], [-107.825111, 39.536993], [-107.828338, 39.532152], [-107.833805, 39.532844]]]}},
{"type": "Feature", "properties": {"ProjectID": "P6898", "id": null}, "geometry": {"type": "MultiLineString", "coordinates": [[[-107.817647, 39.564427], [-107.808166, 39.555552], [-107.794651, 39.553736], [-107.785977, 39.551719], [-107.769234, 39.553534], [-107.760359, 39.548088], [-107.754106, 39.544457], [-107.751281, 39.536388], [-107.751887, 39.526101], [-107.74644, 39.524083], [-107.736152, 39.522268], [-107.729496, 39.519444], [-107.717191, 39.513594], [-107.713963, 39.50613], [-107.711139, 39.498969], [-107.709425, 39.492312], [-107.708416, 39.491203], [-107.70771, 39.487169], [-107.705289, 39.477385]]]}},
{"type": "Feature", "properties": {"ProjectID": "P6898", "id": null}, "geometry": {"type": "MultiLineString", "coordinates": [[[-107.705289, 39.477385], [-107.701356, 39.468207], [-107.695909, 39.457112], [-107.680579, 39.442992], [-107.676746, 39.439361], [-107.673922, 39.434318], [-107.659802, 39.433108], [-107.632771, 39.416567], [-107.623139, 39.409456], [-107.620365, 39.402598], [-107.61618, 39.394125], [-107.614616, 39.389788]]]}},
{"type": "Feature", "properties": {"ProjectID": "P6898", "id": null}, "geometry": {"type": "MultiLineString", "coordinates": [[[-109.315873, 41.522276], [-109.30765, 41.52484], [-109.29711, 41.529379], [-109.289747, 41.532506], [-109.271592, 41.536691], [-109.257976, 41.533968], [-109.250916, 41.536994], [-109.241435, 41.537196], [-109.217027, 41.552123], [-109.191409, 41.550106], [-109.18334, 41.552123], [-109.174263, 41.562007], [-109.162159, 41.564831], [-109.155704, 41.573505], [-109.148644, 41.592063], [-109.14461, 41.597913], [-109.127867, 41.601544]]]}},
{"type": "Feature", "properties": {"ProjectID": "P6898", "id": null}, "geometry": {"type": "MultiLineString", "coordinates": [[[-109.14461, 41.597913], [-109.144812, 41.609008], [-109.132305, 41.625952], [-109.122421, 41.639266], [-109.111931, 41.6433], [-109.115562, 41.662262], [-109.12121, 41.685056], [-109.121841, 41.695041], [-109.123102, 41.699933], [-109.12643, 41.714406], [-109.130565, 41.731956], [-109.133994, 41.745975], [-109.140046, 41.771493], [-109.146602, 41.784], [-109.15699, 41.797918], [-109.159209, 41.803667], [-109.157999, 41.824646], [-109.147308, 41.84734], [-109.138432, 41.866301], [-109.125926, 41.894542], [-109.116646, 41.903922], [-109.10999, 41.913604], [-109.108578, 41.918547], [-109.107065, 41.920362], [-109.101417, 41.93307], [-109.095466, 41.947493], [-109.095163, 41.950519], [-109.101417, 41.963127], [-109.105653, 41.978861], [-109.114024, 41.989955], [-109.120983, 41.9952], [-109.120479, 42.009522]]]}},
{"type": "Feature", "properties": {"ProjectID": "P6898", "id": null}, "geometry": {"type": "MultiLineString", "coordinates": [[[-109.213169, 41.486564], [-109.18856, 41.477688], [-109.185332, 41.473654], [-109.159714, 41.480311]]]}},
{"type": "Feature", "properties": {"ProjectID": "P6898", "id": null}, "geometry": {"type": "MultiLineString", "coordinates": [[[-109.185332, 41.473654], [-109.168993, 41.454289], [-109.160924, 41.443194], [-109.157495, 41.431696], [-109.145392, 41.4204], [-109.131876, 41.408297], [-109.128851, 41.400228], [-109.130061, 41.380863], [-109.122799, 41.371382], [-109.121209, 41.364814]]]}},
{"type": "Feature", "properties": {"ProjectID": "P6898", "id": null}, "geometry": {"type": "MultiLineString", "coordinates": [[[-109.121209, 41.364814], [-109.128447, 41.356455], [-109.123606, 41.323776], [-109.116546, 41.306025], [-109.106258, 41.28787], [-109.099803, 41.280406], [-109.088305, 41.274355]]]}},
{"type": "Feature", "properties": {"ProjectID": "P6898", "id": null}, "geometry": {"type": "MultiLineString", "coordinates": [[[-109.088305, 41.274355], [-109.074588, 41.259629], [-109.065309, 41.246719], [-109.062081, 41.22574], [-109.059257, 41.216865], [-109.054416, 41.208796], [-109.051995, 41.198306], [-109.042313, 41.186203], [-109.032227, 41.177731], [-109.033034, 41.166838], [-109.029604, 41.160585], [-109.022343, 41.153928], [-109.008626, 41.148885], [-109.006407, 41.141018], [-108.997934, 41.128915], [-108.984949, 41.125107], [-108.980561, 41.124654], [-108.966542, 41.126822], [-108.961499, 41.127225], [-108.953027, 41.125309], [-108.943697, 41.121476], [-108.936486, 41.119056], [-108.9265, 41.118098], [-108.911775, 41.116484], [-108.900579, 41.113206], [-108.882223, 41.109121], [-108.872137, 41.10781], [-108.859832, 41.103675], [-108.852671, 41.101758], [-108.837845, 41.0949], [-108.822615, 41.08673], [-108.805065, 41.079166], [-108.78802, 41.0714], [-108.763309, 41.06091], [-108.76109, 41.060103], [-108.761647, 41.058612]]]}},
{"type": "Feature", "properties": {"ProjectID": "P6898", "id": null}, "geometry": {"type": "MultiLineString", "coordinates": [[[-108.76109, 41.060103], [-108.748079, 41.054455], [-108.724882, 41.043663], [-108.703701, 41.034989], [-108.686051, 41.030148], [-108.669005, 41.024903], [-108.656398, 41.019558], [-108.64611, 41.011388], [-108.625837, 41.003117], [-108.614137, 40.999486], [-108.601883, 41.000092], [-108.593814, 40.999839], [-108.573945, 40.999133], [-108.561842, 40.999537], [-108.546108, 40.995805], [-108.528054, 40.991771], [-108.508991, 40.986123], [-108.491341, 40.983198], [-108.480347, 40.980071], [-108.4749, 40.978961], [-108.449282, 40.971195], [-108.423361, 40.964639], [-108.417713, 40.96242], [-108.409039, 40.962118], [-108.374141, 40.959798], [-108.366375, 40.959596], [-108.333999, 40.959092], [-108.325426, 40.955562], [-108.311926, 40.950557]]]}},
{"type": "Feature", "properties": {"ProjectID": "P6898", "id": null}, "geometry": {"type": "MultiLineString", "coordinates": [[[-108.311926, 40.950557], [-108.311003, 40.963631], [-108.305758, 40.969884], [-108.302733, 40.986022], [-108.298698, 41.004378], [-108.295874, 41.007807], [-108.298083, 41.01144]]]}},
{"type": "Feature", "properties": {"ProjectID": "P6898", "id": null}, "geometry": {"type": "MultiLineString", "coordinates": [[[-108.298083, 41.01144], [-108.300312, 41.026366], [-108.297891, 41.035645], [-108.308784, 41.04452], [-108.318063, 41.050572], [-108.328956, 41.054203], [-108.341059, 41.054606], [-108.350742, 41.059044], [-108.354373, 41.064692], [-108.354373, 41.073165], [-108.359618, 41.080426], [-108.360021, 41.088092], [-108.367283, 41.096967], [-108.36809, 41.109474], [-108.381, 41.120367], [-108.382009, 41.127125], [-108.382715, 41.13368], [-108.387959, 41.144271], [-108.392296, 41.14891], [-108.394112, 41.159501], [-108.404299, 41.168981], [-108.410653, 41.173924], [-108.42437, 41.179269], [-108.428707, 41.193995], [-108.431531, 41.206098], [-108.432943, 41.219815], [-108.424067, 41.227783], [-108.413779, 41.238474], [-108.40097, 41.241601], [-108.389674, 41.240894], [-108.37868, 41.241096]]]}},
{"type": "Feature", "properties": {"ProjectID": "P6898", "id": null}, "geometry": {"type": "MultiLineString", "coordinates": [[[-108.311926, 40.950557], [-108.294664, 40.953141], [-108.26259, 40.968875], [-108.254723, 40.972506], [-108.227693, 40.974927], [-108.172018, 40.982391], [-108.142971, 40.984206], [-108.099601, 40.989047], [-108.08538, 40.989854], [-108.073788, 40.991171], [-108.047658, 40.995099], [-108.036463, 40.99873], [-108.016694, 41.010531], [-108.018005, 41.013052], [-108.012861, 41.018398], [-108.014274, 41.027475], [-108.02789, 41.040486], [-108.029201, 41.051379], [-108.038278, 41.064692], [-108.031319, 41.094547], [-108.021636, 41.103423], [-108.025368, 41.108667], [-108.02325, 41.128537], [-108.019821, 41.134891], [-108.024864, 41.142758], [-108.022544, 41.148305], [-108.024662, 41.159097], [-108.025469, 41.169587]]]}},
{"type": "Feature", "properties": {"ProjectID": "P6898", "id": null}, "geometry": {"type": "MultiLineString", "coordinates": [[[-108.025469, 41.169587], [-108.015786, 41.177252], [-108.019014, 41.182194], [-108.011323, 41.185447]]]}},
{"type": "Feature", "properties": {"ProjectID": "P6898", "id": null}, "geometry": {"type": "MultiLineString", "coordinates": [[[-108.016694, 41.010531], [-107.984646, 41.027223], [-107.950354, 41.027828], [-107.919087, 41.02924], [-107.910615, 41.025407], [-107.893267, 41.031257], [-107.883181, 41.032064], [-107.872893, 41.036905], [-107.808343, 41.036905], [-107.796467, 41.034107], [-107.786002, 41.032039], [-107.778564, 41.030652], [-107.767243, 41.028736], [-107.748583, 41.023794], [-107.750021, 41.021121]]]}},
{"type": "Feature", "properties": {"ProjectID": "P6898", "id": null}, "geometry": {"type": "MultiLineString", "coordinates": [[[-107.796467, 41.034107], [-107.795256, 41.038242]]]}},
{"type": "Feature", "properties": {"ProjectID": "P6898", "id": null}, "geometry": {"type": "MultiLineString", "coordinates": [[[-107.748583, 41.023794], [-107.7124, 41.015296], [-107.701305, 41.012775], [-107.688799, 41.010455], [-107.659348, 41.011766], [-107.645933, 40.997948], [-107.635242, 40.987661], [-107.631914, 40.968296], [-107.627577, 40.956192], [-107.606699, 40.911511], [-107.596109, 40.889322], [-107.593688, 40.870058], [-107.581585, 40.847465], [-107.560202, 40.824873], [-107.555159, 40.810752], [-107.557177, 40.789975], [-107.55758, 40.758305], [-107.542855, 40.730871], [-107.535593, 40.71897], [-107.527322, 40.709893], [-107.524095, 40.69194], [-107.522481, 40.668137], [-107.525305, 40.654621], [-107.529743, 40.641308], [-107.528331, 40.627591], [-107.523893, 40.6169]]]}},
{"type": "Feature", "properties": {"ProjectID": "P6898", "id": null}, "geometry": {"type": "MultiLineString", "coordinates": [[[-110.944595, 41.300499], [-110.932827, 41.299865], [-110.923349, 41.299865], [-110.916491, 41.299698], [-110.912477, 41.300813], [-110.907459, 41.307949], [-110.903612, 41.310458], [-110.894469, 41.30951], [-110.884433, 41.308841], [-110.873282, 41.309064], [-110.870439, 41.312744], [-110.857253, 41.312479], [-110.857114, 41.317274]]]}},
{"type": "Feature", "properties": {"ProjectID": "P6898", "id": null}, "geometry": {"type": "MultiLineString", "coordinates": [[[-111.062097, 41.206598], [-111.053603, 41.20974], [-111.046187, 41.212137], [-111.04011, 41.215315], [-111.035538, 41.219218], [-111.03381, 41.225852], [-111.029071, 41.231985], [-111.024722, 41.235777], [-111.025888, 41.25017]]]}},
{"type": "Feature", "properties": {"ProjectID": "P6898", "id": null}, "geometry": {"type": "MultiLineString", "coordinates": [[[-111.04011, 41.215315], [-111.034702, 41.209182], [-111.029907, 41.205614], [-111.027008, 41.205837], [-111.01898, 41.21275], [-110.98497, 41.212973], [-110.978614, 41.209405], [-110.973262, 41.208625], [-110.961665, 41.203718], [-110.945608, 41.203049], [-110.939141, 41.209628], [-110.933677, 41.218995]]]}},
{"type": "Feature", "properties": {"ProjectID": "P6898", "id": null}, "geometry": {"type": "MultiLineString", "coordinates": [[[-110.80035, 41.119341], [-110.79901, 41.120287], [-110.803856, 41.123406], [-110.815062, 41.130709], [-110.822031, 41.134333], [-110.82783, 41.137846], [-110.836917, 41.142195], [-110.839475, 41.144536], [-110.843656, 41.146878], [-110.844576, 41.147185]]]}},
{"type": "Feature", "properties": {"ProjectID": "P6898", "id": null}, "geometry": {"type": "MultiLineString", "coordinates": [[[-110.27184, 39.809719], [-110.281545, 39.804303], [-110.282994, 39.799285], [-110.281545, 39.797836], [-110.282771, 39.79594], [-110.28344, 39.792818], [-110.28266, 39.790253], [-110.286562, 39.7878], [-110.292918, 39.780329], [-110.30733, 39.775284], [-110.317143, 39.772329], [-110.320098, 39.767311], [-110.327625, 39.764467], [-110.33175, 39.760174], [-110.335319, 39.757498], [-110.348867, 39.754042], [-110.352212, 39.752871], [-110.354832, 39.750362], [-110.364478, 39.745511], [-110.369718, 39.740047], [-110.371447, 39.736591], [-110.372004, 39.731015], [-110.378137, 39.722652], [-110.380758, 39.719419], [-110.378193, 39.716241], [-110.383043, 39.711725], [-110.387002, 39.706874], [-110.389845, 39.702581], [-110.391741, 39.697842], [-110.396424, 39.695724], [-110.409192, 39.696002], [-110.412704, 39.690538], [-110.417945, 39.683514], [-110.423743, 39.678384], [-110.428148, 39.678552], [-110.430824, 39.677381], [-110.43679, 39.6766], [-110.438574, 39.675095], [-110.438072, 39.670969], [-110.441975, 39.668962], [-110.446881, 39.667847], [-110.453293, 39.664892], [-110.456805, 39.661212], [-110.458589, 39.657477], [-110.46015, 39.655637], [-110.465893, 39.655079], [-110.471691, 39.652738], [-110.477218, 39.653086], [-110.480661, 39.650354], [-110.483936, 39.649936], [-110.491505, 39.649643], [-110.496634, 39.648584], [-110.501847, 39.646326], [-110.508314, 39.644221], [-110.511882, 39.644221], [-110.516817, 39.644821], [-110.521653, 39.645476], [-110.52504, 39.647302], [-110.52649, 39.648027], [-110.533097, 39.648291], [-110.538909, 39.647176], [-110.543299, 39.646884], [-110.547202, 39.647497], [-110.551439, 39.647831], [-110.554924, 39.646577], [-110.557043, 39.646605], [-110.559747, 39.645239], [-110.563203, 39.642646], [-110.566409, 39.642702], [-110.569099, 39.644117], [-110.570591, 39.643734], [-110.571678, 39.643957], [-110.573072, 39.643706], [-110.576974, 39.644681], [-110.580989, 39.647887], [-110.582494, 39.648027], [-110.584613, 39.64956], [-110.585533, 39.651623], [-110.588822, 39.654438], [-110.59469, 39.656599], [-110.596084, 39.657686], [-110.596976, 39.658397], [-110.597547, 39.65848], [-110.600335, 39.661198], [-110.600224, 39.662759], [-110.601353, 39.663721], [-110.602649, 39.665129], [-110.604238, 39.667289], [-110.606119, 39.668613], [-110.60927, 39.669115], [-110.614148, 39.669993], [-110.618037, 39.671108], [-110.622079, 39.672154], [-110.620197, 39.675834], [-110.622818, 39.677381], [-110.622776, 39.679207], [-110.621842, 39.680475], [-110.621898, 39.680726], [-110.623389, 39.681799], [-110.622804, 39.683054], [-110.623264, 39.683751], [-110.623041, 39.684866], [-110.622065, 39.685786], [-110.623456, 39.686978]]]}}
]
}
