{
"type": "FeatureCollection",
"features": [
{"type": "Feature", "properties": {"ProjectID": "P6899", "OBJECTID": 293, "GCOMPID": "GCOMP1262", "NAME": "ROCKSPRINGS (GREEN RIVER BASIN)", "ADDRESS": "RIGHT OFF OF US-191; EAST OF US-191", "CITY": "GREEN RIVER", "STATE": "WY", "ZIP": "82935", "ZIP4": "NOT AVAILABLE", "TYPE": "NATURAL GAS COMPRESSOR STATION", "STATUS": "IN SERVICE", "COUNTY": "SWEETWATER", "COUNTYFIPS": "56037", "COUNTRY": "USA", "LATITUDE": 41.521259, "LONGITUDE": -109.312801, "NAICS_CODE": "486210", "NAICS_DESC": "BOOSTER PUMPING STATION, NATURAL GAS TRANSPORTATION", "SOURCE": "FERC FORM 2, CORPORATE WEBSITE", "SOURCEDATE": "Wed, 15 Jul 2020 00:00:00 GMT", "VAL_METHOD": "IMAGERY/OTHER", "VAL_DATE": "Fri, 17 Jun 2022 00:00:00 GMT", "WEBSITE": "http://www.questarpipeline.com/", "PIPECO": "QUESTAR OVERTHRUST PIPELINE COMPANY", "COMPID": "78", "OPERATOR": "QUESTAR OVERTHRUST PIPELINE COMPANY", "POSREL": "WITHIN 40 FEET", "NUM_UNITS": 2, "CERT_HP": 31000, "PLANT_COST": 36577826, "EXP_FUEL": 1698104, "EXP_OTHER": 254054, "GAS_COMPRE": 653404, "OP_COMP_HR": 7539, "OP_NUM_COM": 2, "OP_DATE_PE": "Mon, 15 Oct 2012 00:00:00 GMT", "EXP_POWER": 0, "ELEC_COMPR": 0}, "geometry": {"type": "Point", "coordinates": [-109.312801, 41.521259]}},
{"type": "Feature", "properties": {"ProjectID": "P6899", "OBJECTID": 391, "GCOMPID": "GCOMP1350", "NAME": "ROBERSON (GREEN RIVER BASIN)", "ADDRESS": "WAGON WHEEL ROAD/5.85 SW OF OPAL; T20N R115W S24", "CITY": "OPAL", "STATE": "WY", "ZIP": "83124", "ZIP4": "NOT AVAILABLE", "TYPE": "NATURAL GAS COMPRESSOR STATION", "STATUS": "IN SERVICE", "COUNTY": "LINCOLN", "COUNTYFIPS": "56023", "COUNTRY": "USA", "LATITUDE": 41.69720438, "LONGITUDE": -110.363755822, "NAICS_CODE": "486210", "NAICS_DESC": "BOOSTER PUMPING STATION, NATURAL GAS TRANSPORTATION", "SOURCE": "FERC FORM 2, CORPORATE WEBSITE", "SOURCEDATE": "Fri, 11 Sep 2015 00:00:00 GMT", "VAL_METHOD": "IMAGERY/OTHER", "VAL_DATE": "Fri, 17 Jun 2022 00:00:00 GMT", "WEBSITE": "http://www.questarpipeline.com/", "PIPECO": "QUESTAR OVERTHRUST PIPELINE COMPANY", "COMPID": "78", "OPERATOR": "QUESTAR OVERTHRUST PIPELINE COMPANY", "POSREL": "WITHIN 40 FEET", "NUM_UNITS": 2, "CERT_HP": 30000, "PLANT_COST": 30301807, "EXP_FUEL": 202920, "EXP_OTHER": 427976, "GAS_COMPRE": 85647, "OP_COMP_HR": 782, "OP_NUM_COM": 2, "OP_DATE_PE": "Tue, 07 Feb 2012 00:00:00 GMT", "EXP_POWER": 0, "ELEC_COMPR": 0}, "geometry": {"type": "Point", "coordinates": [-110.363756, 41.697204]}},
{"type": "Feature", "properties": {"ProjectID": "P6899", "OBJECTID": 1253, "GCOMPID": "GCOMP899", "NAME": "POINT OF ROCKS (GREEN RIVER BASIN)", "ADDRESS": "9 MILE ROAD [HIGHWAY 15]/NORTH OF I-80", "CITY": "POINT OF ROCKS", "STATE": "WY", "ZIP": "82942", "ZIP4": "NOT AVAILABLE", "TYPE": "NATURAL GAS COMPRESSOR STATION", "STATUS": "IN SERVICE", "COUNTY": "SWEETWATER", "COUNTYFIPS": "56037", "COUNTRY": "USA", "LATITUDE": 41.689396, "LONGITUDE": -108.738085, "NAICS_CODE": "486210", "NAICS_DESC": "BOOSTER PUMPING STATION, NATURAL GAS TRANSPORTATION", "SOURCE": "EPA ENVIROFACTS, FERC FORM 2, CORPORATE WEBSITE", "SOURCEDATE": "Wed, 15 Jul 2020 00:00:00 GMT", "VAL_METHOD": "IMAGERY/OTHER", "VAL_DATE": "Fri, 17 Jun 2022 00:00:00 GMT", "WEBSITE": "http://www.questarpipeline.com/", "PIPECO": "QUESTAR OVERTHRUST PIPELINE COMPANY", "COMPID": "78", "OPERATOR": "QUESTAR OVERTHRUST PIPELINE COMPANY", "POSREL": "WITHIN 40 FEET", "NUM_UNITS": 1, "CERT_HP": 16000, "PLANT_COST": 22934734, "EXP_FUEL": 160202, "EXP_OTHER": 61647, "GAS_COMPRE": 69626, "OP_COMP_HR": 924, "OP_NUM_COM": 1, "OP_DATE_PE": "Mon, 02 Jul 2012 00:00:00 GMT", "EXP_POWER": 0, "ELEC_COMPR": 0}, "geometry": {"type": "Point", "coordinates": [-108.738085, 41.689396]}}
]
}
