{
"type": "FeatureCollection",
"features": [
{"type": "Feature", "properties": {"ProjectID": "P6901"}, "geometry": {"type": "LineString", "coordinates": [[121.90482, 41.451548], [121.906975, 41.42925], [121.910528, 41.421701], [121.91645, 41.410155], [121.92178, 41.400383], [121.925333, 41.387056], [121.927109, 41.371948], [121.924741, 41.355948], [121.923556, 41.346613], [121.924741, 41.335942], [121.925925, 41.327494], [121.927109, 41.318599], [121.928294, 41.309258], [121.924741, 41.299917], [121.918819, 41.292353], [121.91645, 41.284789], [121.914673, 41.281229], [121.912897, 41.274553], [121.91112, 41.262535], [121.912897, 41.25007], [121.915266, 41.242501], [121.918227, 41.234931]]}}
]
}
