{
"type": "FeatureCollection",
"features": [
{"type": "Feature", "properties": {"ProjectID": "P7019", "id": 1, "Name": "Manavgat-Alanya-Gazipaşa-Anamur Gas Pipeline"}, "geometry": {"type": "LineString", "coordinates": [[31.437653, 36.78573], [31.484413, 36.779962], [31.535028, 36.760816], [31.660159, 36.670653], [31.696714, 36.652608], [31.743111, 36.652608], [31.774042, 36.635687], [31.797944, 36.610862], [31.828875, 36.606348], [31.875272, 36.598447], [31.901985, 36.592803], [31.920263, 36.575868], [31.970877, 36.566835], [32.004621, 36.563447], [32.028522, 36.55893], [32.064791, 36.533781], [32.127933, 36.46959], [32.150218, 36.441209], [32.192932, 36.409829], [32.217075, 36.385912], [32.256074, 36.360492], [32.285788, 36.32459], [32.308073, 36.290169], [32.352644, 36.257231], [32.400929, 36.231769], [32.423215, 36.194309], [32.460357, 36.167327], [32.516071, 36.125337], [32.575499, 36.105834], [32.638641, 36.081824], [32.69064, 36.06231], [32.75564, 36.0518], [32.790925, 36.056305], [32.837353, 36.080323]]}}
]
}
