{
"type": "FeatureCollection",
"features": [
{"type": "Feature", "properties": {"ProjectID": "P7099", "Fuel": "Gas", "StartCountry": "Nigeria", "EndCountry": "Equatorial Guinea", "Countries": "Nigeria, Equatorial Guinea", "Wiki": "", "PipelineName": "Gulf of Guinea Gas Pipeline", "SegmentName": "Nigeria–Equatorial Guinea", "OtherEnglishNames": "Gulf of Guinea Pipeline Project", "Status": "proposed", "Owner": "Nigerian National Petroleum Corporation (50%); GEPetrol (50%)", "Parent": "", "ParentHQCountry": "", "StartYear1": "", "StartYear2": "", "StartYear3": "", "StopYear": "", "ShelvedYear": "", "Capacity": "", "CancelledYear": "", "CapacityUnits": "", "CapacityBcm/y": "--", "CapacityBOEd": "--", "LengthKnownKm": "200", "LengthEstimateKm": "--", "LengthMergedKm": "200", "Diameter": "", "DiameterUnits": "", "FuelSource": "", "StartLocation": "Nigeria", "StartPrefecture/District": "", "StartState/Province": "", "StartRegion": "Africa", "EndLocation": "Equatorial Guniea", "StartSubRegion": "Sub-Saharan Africa", "EndPrefecture/District": "", "EndState/Province": "", "EndRegion": "Africa", "FIDStatus": "", "EndSubRegion": "Sub-Saharan Africa", "FIDYear": "", "OtherLanguagePrimaryPipelineName": "", "OtherLanguageSegmentName": "", "Cost": "2500000000", "CostUnits": "USD", "CostUSD": "2500000000", "LastUpdated": "2024-09-26"}, "geometry": {"type": "LineString", "coordinates": [[8.712826, 3.769349], [7.211086, 4.406517]]}}
]
}
