{
"type": "FeatureCollection",
"features": [
{"type": "Feature", "properties": {"ProjectID": "P7108", "PrjName": "Southeast Supply Enhancement Project", "OGW_ID": "7412", "Res": "High", "DataSrce": "FERC Application", "SrceDate": 2024, "SrceLink": "https://elibrary.ferc.gov/eLibrary/filelist?accession_number=20241029-5076&optimized=false", "DigName": "KE", "Method": "Georeferenced", "DigDate": "2024-03-12", "Notes": "Route from FracTracker Alliance", "Shape_Leng": 110061.103452, "Additional": 1596.9, "AffectedSt": "VA, NC", "Miles": 54.6, "PipelineDi": "42", "ProductTyp": "Natural Gas", "ProductUni": "MMscf/d", "ProjectTyp": "Expansion", "Mile_check": 55}, "geometry": {"type": "MultiLineString", "coordinates": [[[-79.974551, 36.181803], [-79.975583, 36.180283], [-79.976062, 36.17922], [-79.977729, 36.177325], [-79.978241, 36.177337], [-79.979487, 36.175941], [-79.981955, 36.173165], [-79.981768, 36.172796], [-79.985573, 36.168668], [-79.989293, 36.1647], [-79.991601, 36.162264], [-79.992014, 36.162009], [-79.992136, 36.161627], [-79.992996, 36.160733], [-79.992802, 36.160356], [-79.99486, 36.157977], [-79.995401, 36.157988], [-79.996645, 36.156573], [-79.997598, 36.15548], [-79.999822, 36.152938], [-80.000636, 36.151874], [-80.001871, 36.150326], [-80.003796, 36.148354], [-80.004794, 36.14724], [-80.006006, 36.14625], [-80.008856, 36.143858], [-80.012594, 36.140747], [-80.015067, 36.138627], [-80.017583, 36.136539], [-80.019584, 36.134659], [-80.019895, 36.134627], [-80.020072, 36.134476], [-80.020092, 36.134242], [-80.0232, 36.13125], [-80.024792, 36.129751], [-80.025364, 36.129593], [-80.025861, 36.129096], [-80.025927, 36.128578], [-80.02721, 36.127238], [-80.030237, 36.123961], [-80.033448, 36.120537], [-80.034247, 36.119617], [-80.034848, 36.119549], [-80.035089, 36.119287], [-80.035063, 36.118783], [-80.036035, 36.117727], [-80.038769, 36.114757], [-80.039841, 36.113611], [-80.041195, 36.111371], [-80.042266, 36.108381], [-80.046351, 36.104411], [-80.048737, 36.102142], [-80.050884, 36.100102], [-80.052048, 36.098943], [-80.052388, 36.098843], [-80.053188, 36.098032], [-80.0534, 36.09758], [-80.053889, 36.097159], [-80.053719, 36.096799], [-80.05578, 36.094787], [-80.059506, 36.091094], [-80.060575, 36.09], [-80.061155, 36.089442], [-80.061717, 36.088508], [-80.062081, 36.088471], [-80.0626, 36.087813], [-80.064157, 36.087008], [-80.064666, 36.086887], [-80.0655, 36.086261], [-80.066751, 36.085024], [-80.068852, 36.082964], [-80.071014, 36.080809], [-80.071688, 36.080785], [-80.073927, 36.077736], [-80.076402, 36.075239], [-80.077358, 36.074316], [-80.078589, 36.072287], [-80.079167, 36.071604], [-80.080546, 36.070235], [-80.082005, 36.070283], [-80.083496, 36.067365], [-80.08468, 36.066262], [-80.086497, 36.064498], [-80.088475, 36.062579], [-80.090798, 36.060302], [-80.09516, 36.056152], [-80.095045, 36.055728], [-80.099895, 36.051056], [-80.103955, 36.047152], [-80.106381, 36.044928], [-80.10668, 36.044825], [-80.108247, 36.04329], [-80.110602, 36.041064], [-80.113784, 36.037469], [-80.114332, 36.036964], [-80.11586, 36.035293], [-80.117211, 36.033506], [-80.118923, 36.031598], [-80.119441, 36.031704], [-80.124427, 36.02755], [-80.126398, 36.025927], [-80.131084, 36.022033], [-80.133321, 36.02025], [-80.136568, 36.017514], [-80.137908, 36.016389], [-80.138627, 36.015991], [-80.140679, 36.014783], [-80.140717, 36.01431], [-80.141167, 36.014014], [-80.141911, 36.013277], [-80.143135, 36.01199], [-80.143632, 36.011964], [-80.145994, 36.009518], [-80.146491, 36.009225], [-80.146545, 36.008975], [-80.148614, 36.007609], [-80.148666, 36.007325], [-80.156427, 36.00214], [-80.158715, 36.00055], [-80.160539, 35.99929], [-80.160888, 35.999332], [-80.163893, 35.997311], [-80.163928, 35.997052], [-80.164614, 35.996512], [-80.16558, 35.995861], [-80.166035, 35.995994], [-80.167752, 35.994814], [-80.168112, 35.994756], [-80.169166, 35.994], [-80.171377, 35.992508], [-80.172165, 35.992546], [-80.174363, 35.991097], [-80.17447, 35.990407], [-80.179637, 35.986938], [-80.180829, 35.986081], [-80.181218, 35.985302], [-80.184555, 35.983085], [-80.184617, 35.982691], [-80.186238, 35.981573], [-80.186804, 35.981534], [-80.187767, 35.98084], [-80.190237, 35.978989], [-80.191836, 35.977809], [-80.192794, 35.977053], [-80.194204, 35.976286], [-80.194723, 35.97643], [-80.196554, 35.975207], [-80.200283, 35.97273], [-80.204467, 35.970032], [-80.205804, 35.969154], [-80.209257, 35.967022], [-80.212897, 35.9648], [-80.214845, 35.963591], [-80.216579, 35.962515], [-80.218467, 35.96146], [-80.219707, 35.960792], [-80.219942, 35.960448], [-80.221156, 35.959051], [-80.223116, 35.957403], [-80.223057, 35.957038], [-80.22353, 35.956646], [-80.225893, 35.955342], [-80.228842, 35.95376], [-80.229325, 35.953892], [-80.231654, 35.952254], [-80.234101, 35.950519], [-80.234958, 35.949833], [-80.235914, 35.949582], [-80.236361, 35.949257], [-80.23642, 35.948842], [-80.239598, 35.946614], [-80.242374, 35.944668], [-80.245278, 35.942678], [-80.24538, 35.942459], [-80.246208, 35.941774], [-80.248027, 35.940313], [-80.249989, 35.938707], [-80.251813, 35.937317], [-80.252024, 35.937317], [-80.253583, 35.936006], [-80.255388, 35.934687], [-80.25667, 35.933797], [-80.258462, 35.932564], [-80.260433, 35.931342], [-80.260511, 35.93111], [-80.260981, 35.930774]], [[-79.336458, 36.834271], [-79.339839, 36.831154], [-79.340695, 36.83036], [-79.340802, 36.830146], [-79.342693, 36.828361], [-79.345013, 36.826198], [-79.345662, 36.825507], [-79.348975, 36.82245], [-79.348675, 36.821755], [-79.349507, 36.820962], [-79.350725, 36.81985], [-79.351977, 36.818584], [-79.352687, 36.81779], [-79.353706, 36.816394], [-79.354173, 36.815923], [-79.355188, 36.816052], [-79.356712, 36.814692], [-79.357683, 36.813911], [-79.35928, 36.81256], [-79.36165, 36.810054], [-79.366983, 36.805473], [-79.369567, 36.803221], [-79.374171, 36.799238], [-79.376156, 36.79755], [-79.377456, 36.796442], [-79.378079, 36.79593], [-79.379029, 36.79518], [-79.37919, 36.79462], [-79.380132, 36.793734], [-79.381051, 36.79283], [-79.38181, 36.792117], [-79.382977, 36.7914], [-79.38349, 36.791054], [-79.385379, 36.789888], [-79.387415, 36.788317], [-79.387497, 36.787921], [-79.388224, 36.787292], [-79.389664, 36.786047], [-79.390057, 36.785681], [-79.391457, 36.784384], [-79.392085, 36.783712], [-79.392998, 36.782832], [-79.393272, 36.78309], [-79.393945, 36.78294], [-79.394962, 36.782729], [-79.395463, 36.782282], [-79.395097, 36.781843], [-79.396408, 36.779643], [-79.397797, 36.777119], [-79.397666, 36.776785], [-79.397775, 36.776483], [-79.398611, 36.775945], [-79.401093, 36.774161], [-79.403129, 36.772715], [-79.40457, 36.771637], [-79.405326, 36.771127], [-79.405966, 36.770918], [-79.406395, 36.770652], [-79.407983, 36.769169], [-79.411918, 36.765472], [-79.415265, 36.762113], [-79.4198, 36.757535], [-79.42232, 36.75501], [-79.42523, 36.752048], [-79.428023, 36.748989], [-79.430287, 36.746515], [-79.431789, 36.744845], [-79.433622, 36.742852], [-79.434625, 36.741766], [-79.435732, 36.740545], [-79.438389, 36.737586], [-79.438543, 36.737568], [-79.43987, 36.736053], [-79.440482, 36.735512], [-79.441294, 36.734576], [-79.444215, 36.731446], [-79.445827, 36.729747], [-79.446623, 36.728919], [-79.447287, 36.728239], [-79.448144, 36.727331], [-79.448457, 36.72698], [-79.449999, 36.72613], [-79.451513, 36.725292], [-79.452396, 36.724824], [-79.453239, 36.724042], [-79.454626, 36.722697], [-79.455413, 36.72184], [-79.455926, 36.721248], [-79.45651, 36.720589], [-79.456914, 36.720163], [-79.458374, 36.718529], [-79.459098, 36.717739], [-79.459887, 36.716923], [-79.460721, 36.716118], [-79.461413, 36.715418], [-79.462398, 36.71441], [-79.464486, 36.712258], [-79.465444, 36.711168], [-79.465913, 36.710322], [-79.46692, 36.709325], [-79.468254, 36.707952], [-79.46993, 36.706004], [-79.471023, 36.704848], [-79.47184, 36.704035], [-79.473192, 36.70264], [-79.474575, 36.701187], [-79.476223, 36.69959], [-79.477241, 36.69857], [-79.47846, 36.697342], [-79.482735, 36.693101], [-79.482957, 36.692654], [-79.487431, 36.688177], [-79.489827, 36.685817], [-79.49227, 36.683476], [-79.495829, 36.679757], [-79.498742, 36.676949], [-79.500659, 36.675122], [-79.505639, 36.670225], [-79.506931, 36.668841], [-79.510015, 36.665731], [-79.511044, 36.66472], [-79.513465, 36.662407], [-79.513323, 36.662002], [-79.51456, 36.660707], [-79.515106, 36.660733], [-79.515778, 36.660079], [-79.517123, 36.658607], [-79.51772, 36.658099], [-79.518489, 36.657288], [-79.518783, 36.656638], [-79.51977, 36.655514], [-79.520677, 36.65444], [-79.521829, 36.6531], [-79.52323, 36.651378], [-79.524295, 36.650366], [-79.525343, 36.649068], [-79.525703, 36.648558], [-79.526177, 36.647959], [-79.526989, 36.647499], [-79.526969, 36.647147], [-79.52888, 36.646245], [-79.529726, 36.645555], [-79.530169, 36.645433], [-79.531298, 36.643912], [-79.532288, 36.642645], [-79.53332, 36.641891], [-79.535335, 36.640356], [-79.53595, 36.639751], [-79.537252, 36.638557], [-79.538218, 36.637672], [-79.539, 36.636889], [-79.539574, 36.63661], [-79.540075, 36.635972], [-79.541066, 36.635218], [-79.542314, 36.634122], [-79.543933, 36.632697], [-79.546102, 36.630565], [-79.547377, 36.629315], [-79.54833, 36.62842], [-79.549003, 36.627813], [-79.550355, 36.626465], [-79.55295, 36.623945], [-79.55519, 36.621619], [-79.556833, 36.620002], [-79.55819, 36.618949], [-79.558742, 36.61849], [-79.559454, 36.618129], [-79.560269, 36.617106], [-79.560906, 36.61609], [-79.562387, 36.613936], [-79.563656, 36.6122], [-79.563726, 36.611778], [-79.564847, 36.610534], [-79.566572, 36.608514], [-79.568216, 36.606525], [-79.570318, 36.60409], [-79.572033, 36.602099], [-79.574454, 36.59926], [-79.57575, 36.597781], [-79.577199, 36.596295], [-79.580143, 36.593713], [-79.58365, 36.590451], [-79.586469, 36.587969], [-79.586971, 36.587464], [-79.587866, 36.5866], [-79.590116, 36.584492], [-79.589851, 36.583797], [-79.590783, 36.582779], [-79.591229, 36.582724], [-79.594595, 36.579306], [-79.596138, 36.577816], [-79.596121, 36.57734], [-79.596927, 36.576575], [-79.597524, 36.576476], [-79.598805, 36.575168], [-79.599843, 36.574068], [-79.603361, 36.570493], [-79.605328, 36.568596], [-79.607488, 36.566414], [-79.607896, 36.565918], [-79.609521, 36.564327], [-79.611418, 36.562417], [-79.613314, 36.560579], [-79.615939, 36.55829], [-79.615962, 36.55788], [-79.618458, 36.555552], [-79.619435, 36.555495], [-79.622507, 36.552526], [-79.624724, 36.550286], [-79.626677, 36.54837], [-79.630407, 36.544555], [-79.633349, 36.54161], [-79.635216, 36.53984], [-79.637718, 36.537226], [-79.638386, 36.536552], [-79.638876, 36.536257], [-79.638781, 36.53546], [-79.64064, 36.533567], [-79.64247, 36.531779], [-79.642175, 36.53099], [-79.643215, 36.530006], [-79.647552, 36.525719], [-79.653308, 36.52008], [-79.656198, 36.517079], [-79.657684, 36.515677], [-79.658277, 36.515711], [-79.662229, 36.511915], [-79.664341, 36.509926], [-79.666384, 36.507968], [-79.666465, 36.507555], [-79.667233, 36.506781], [-79.667434, 36.506773], [-79.667889, 36.506298], [-79.667895, 36.506002], [-79.671039, 36.502924], [-79.671688, 36.502918], [-79.675298, 36.499345], [-79.677419, 36.497307], [-79.679542, 36.495317], [-79.680543, 36.494306], [-79.680996, 36.493993], [-79.681273, 36.493877], [-79.681721, 36.493478], [-79.68229, 36.492731], [-79.682266, 36.492689]]]}}
]
}
