{
"type": "FeatureCollection",
"features": [
{"type": "Feature", "properties": {"ProjectID": "P7124", "id": 1, "Name": "Minell", "Type": "Mainline"}, "geometry": {"type": "LineString", "coordinates": [[-101.478098, 50.210148], [-101.474208, 50.225587], [-101.461045, 50.238217], [-101.442946, 50.255052], [-101.428138, 50.273984], [-101.405102, 50.290807], [-101.400166, 50.304471], [-101.387003, 50.324434], [-101.378776, 50.345439], [-101.368904, 50.368533], [-101.360677, 50.38847], [-101.350805, 50.398959], [-101.342578, 50.41364], [-101.334351, 50.425173], [-101.322834, 50.43775], [-101.299798, 50.440894], [-101.288281, 50.434606], [-101.283344, 50.444037], [-101.276763, 50.463942], [-101.271827, 50.477556], [-101.270181, 50.494306], [-101.265245, 50.521513], [-101.265245, 50.54975], [-101.265245, 50.576924], [-101.268536, 50.599906], [-101.273472, 50.616613], [-101.280054, 50.628096], [-101.275118, 50.632271], [-101.275118, 50.656269], [-101.270181, 50.671913], [-101.268536, 50.693806], [-101.266891, 50.71048], [-101.266891, 50.726106], [-101.265245, 50.737562], [-101.265245, 50.75422], [-101.265245, 50.765669], [-101.265245, 50.775034], [-101.261955, 50.784398]]}}
]
}
