{
"type": "FeatureCollection",
"features": [
{"type": "Feature", "properties": {"ProjectID": "P7140", "id": 1, "Name": "TippTown", "Type": "Lateral"}, "geometry": {"type": "MultiLineString", "coordinates": [[[-8.435812, 52.394599], [-8.365978, 52.40738], [-8.359455, 52.409116], [-8.358401, 52.409624], [-8.3533, 52.412735], [-8.348739, 52.416385], [-8.346606, 52.418], [-8.336283, 52.422352], [-8.331452, 52.424355], [-8.325248, 52.426688], [-8.318137, 52.42917], [-8.316077, 52.429873], [-8.312595, 52.431532], [-8.311933, 52.431906], [-8.31159, 52.431936], [-8.31105, 52.43234], [-8.310217, 52.432758], [-8.30747, 52.433805], [-8.306367, 52.434179], [-8.301978, 52.434702], [-8.294302, 52.435584], [-8.28881, 52.436227], [-8.285696, 52.436735], [-8.283415, 52.437153], [-8.281919, 52.437557], [-8.279467, 52.438663], [-8.2778, 52.439485], [-8.276427, 52.439814], [-8.275556, 52.439926], [-8.274857, 52.439956], [-8.273742, 52.440158], [-8.271915, 52.440793], [-8.271302, 52.440965], [-8.270345, 52.441204], [-8.269916, 52.441346], [-8.269242, 52.441787], [-8.266201, 52.443902], [-8.263112, 52.445913], [-8.260218, 52.447661], [-8.257116, 52.448812], [-8.25345, 52.45009], [-8.251231, 52.450867], [-8.250814, 52.451024], [-8.250336, 52.451121], [-8.248436, 52.45136], [-8.247676, 52.451607], [-8.246695, 52.452077], [-8.246082, 52.452772], [-8.245763, 52.45337], [-8.245162, 52.453796], [-8.241901, 52.455223], [-8.240197, 52.455753], [-8.23826, 52.456097], [-8.235906, 52.45668], [-8.234361, 52.456941], [-8.232166, 52.457128], [-8.230719, 52.457173], [-8.229076, 52.457135], [-8.226735, 52.456964], [-8.225276, 52.456844], [-8.224246, 52.456829], [-8.223179, 52.457031], [-8.219427, 52.458196], [-8.214462, 52.459885], [-8.211004, 52.460729], [-8.207657, 52.461229], [-8.202287, 52.46244], [-8.201159, 52.462701], [-8.197971, 52.463642], [-8.197273, 52.463896], [-8.195691, 52.46412], [-8.195103, 52.464217], [-8.193607, 52.464688], [-8.19243, 52.464949], [-8.191522, 52.464987], [-8.187011, 52.465846], [-8.182928, 52.466526], [-8.181996, 52.466593], [-8.178808, 52.467213], [-8.177122, 52.467683]]]}}
]
}
