{
"type": "FeatureCollection",
"features": [
{"type": "Feature", "properties": {"ProjectID": "P7145", "OBJECTID": 4624, "FEATURE_ID": "754799f4-af02-46aa-804d-5219c24d", "NSTAPIPNO": "PL2764", "PIPE_NAME": "30 IN SIRGE GAS EXPORT", "INF_TYPE": "PIPELINE", "REP_GROUP": "PX GROUP", "FLUID": "GAS", "PIPE_SYS": "Sirge Pipeline System", "DESCRIPTIO": "30 IN SIRGE GAS EXPORT (SIRGE) FIRTHS VOE TO MCP01", "STATUS": "ACTIVE", "COMMENTS": "THE LENGTH INCLUDES ONSHORE SECTION OF 6KM FROM SGP GAS PLANT TO FIRTH VOE. COMMISSIONED IN 2014", "DIAMETERMM": 762.0, "LENGTH_M": 233000.0, "INSUL_TYPE": "3 LAYER PP", "INT_DIAM": 0.0, "MX_OP_PRES": 0.0, "THICKNESS": 20.05, "BUNDLE": 0.0, "BUNDLE_FLG": null, "CRS_CODE": 23030, "CRS_NAME": "ED_1950_UTM_Zone_30N", "START_DATE": "20120601", "END_DATE": null, "END_REAS": null, "UNTRENCHED": "U", "EXPOSED": "E", "UPD_DATE": "20241126", "UPD_TYPE": "NO CHANGE", "UPD_REAS": null, "LEGACY_ID": 510000523, "REP_OWNER": "N", "REP_OPERTR": "Y", "REP_HOLDER": "N", "SHAPE_STLe": 2.51567825686125}, "geometry": {"type": "MultiLineString", "coordinates": [[[-1.202481, 60.444272], [-1.170315, 60.450335], [-1.165718, 60.451454], [-1.155428, 60.454499], [-1.151113, 60.455393], [-1.144795, 60.456403], [-1.132608, 60.457773], [-1.126438, 60.458118], [-1.12112, 60.458085], [-1.10763, 60.45741], [-1.095839, 60.457646], [-1.079658, 60.459086], [-1.074482, 60.459768], [-1.059512, 60.462923], [-1.050921, 60.465555], [-1.04607, 60.466761], [-1.020947, 60.470723], [-1.020794, 60.470753], [-1.012428, 60.472316], [-0.976589, 60.477826], [-0.969551, 60.47936], [-0.895856, 60.496875], [-0.891201, 60.497791], [-0.852297, 60.504221], [-0.789386, 60.512544], [-0.78189, 60.513095], [-0.774997, 60.513029], [-0.697642, 60.505898], [-0.692552, 60.505114], [-0.68708, 60.503902], [-0.682511, 60.502535], [-0.678478, 60.500968], [-0.673936, 60.4987], [-0.670109, 60.49613], [-0.613079, 60.449973], [-0.609133, 60.447598], [-0.593307, 60.439347], [-0.579772, 60.433013], [-0.569638, 60.426999], [-0.559515, 60.421594], [-0.556891, 60.419888], [-0.554433, 60.41792], [-0.552287, 60.415699], [-0.550596, 60.413303], [-0.549679, 60.411376], [-0.549128, 60.409531], [-0.548901, 60.407546], [-0.549001, 60.405566], [-0.553633, 60.373958], [-0.554843, 60.366954], [-0.559723, 60.334167], [-0.560422, 60.331552], [-0.561766, 60.328894], [-0.562987, 60.327241], [-0.564449, 60.325639], [-0.568091, 60.32263], [-0.611681, 60.293177], [-0.615161, 60.290367], [-0.617756, 60.287339], [-0.628018, 60.271163], [-0.629165, 60.269608], [-0.630622, 60.267998], [-0.6329, 60.265977], [-0.635675, 60.263999], [-0.645802, 60.258167], [-0.648247, 60.256607], [-0.65079, 60.25455], [-0.653074, 60.252179], [-0.658885, 60.243741], [-0.667352, 60.230998], [-0.668074, 60.229511], [-0.668616, 60.227878], [-0.668905, 60.226454], [-0.669011, 60.224806], [-0.66885, 60.223158], [-0.66828, 60.22109], [-0.667466, 60.219256], [-0.666286, 60.217361], [-0.664685, 60.215432], [-0.649195, 60.1985], [-0.634889, 60.177674], [-0.570597, 60.108308], [-0.569321, 60.106669], [-0.568164, 60.104544], [-0.567609, 60.102912], [-0.567199, 60.100723], [-0.564346, 59.861223], [-0.563665, 59.851748], [-0.564147, 59.840425], [-0.563047, 59.745351], [-0.562906, 59.74172], [-0.562079, 59.738322], [-0.561866, 59.736449], [-0.562029, 59.734477], [-0.562791, 59.73053], [-0.562868, 59.728993], [-0.55791, 59.312119], [-0.557772, 59.310373], [-0.557112, 59.30654], [-0.556923, 59.298264], [-0.556998, 59.296608], [-0.557526, 59.29365], [-0.557632, 59.291893], [-0.55594, 59.14476], [-0.555734, 59.140375], [-0.555052, 59.137974], [-0.553789, 59.135533], [-0.551824, 59.132974], [-0.549712, 59.130928], [-0.459816, 59.056133], [-0.453848, 59.051681], [-0.449153, 59.047239], [-0.411459, 59.015724], [-0.4054, 59.011323], [-0.394258, 59.00067], [-0.388507, 58.996426], [-0.383419, 58.99223], [-0.287123, 58.911288], [-0.253242, 58.882688], [-0.251017, 58.880593], [-0.249449, 58.87864], [-0.24844, 58.876968], [-0.247548, 58.874921], [-0.247124, 58.873295], [-0.246884, 58.871312], [-0.246955, 58.869727], [-0.247445, 58.867277], [-0.24815, 58.865457], [-0.25849, 58.8468], [-0.262036, 58.841617], [-0.265075, 58.837989], [-0.268537, 58.834455], [-0.277311, 58.826772]]]}}
]
}
