{
"type": "FeatureCollection",
"features": [
{"type": "Feature", "properties": {"ProjectID": "P7444"}, "geometry": {"type": "MultiLineString", "coordinates": [[[4.837025, 60.544844], [4.796008, 60.526754], [4.690991, 60.48857], [4.682124, 60.484504], [4.673907, 60.479438], [4.668573, 60.474787], [4.66269, 60.468138], [4.652342, 60.448334], [4.649158, 60.443784], [4.643041, 60.437451], [4.466644, 60.286827], [4.428377, 60.250841], [4.385823, 60.216752], [4.354991, 60.186985], [4.346875, 60.177718], [4.342141, 60.170485], [4.338626, 60.162837], [4.324577, 60.124581], [4.319476, 60.115979], [4.310645, 60.105614], [4.252129, 60.05356], [4.217262, 60.01976], [4.182746, 59.983724], [4.104265, 59.905805], [4.049182, 59.8609], [4.007966, 59.819184], [3.955367, 59.762381], [3.843169, 59.650577], [3.81187, 59.624457], [3.779488, 59.588288], [3.771254, 59.58117], [3.733138, 59.552054], [3.660539, 59.482032], [3.649906, 59.470766], [3.613141, 59.423664], [3.565775, 59.378026], [3.535825, 59.34404], [3.502059, 59.316191], [3.473543, 59.291425], [3.442844, 59.261238], [3.415627, 59.237035], [3.408494, 59.228922], [3.386511, 59.198185], [3.380295, 59.190868], [3.236581, 59.044193], [3.214481, 59.025142], [3.156316, 58.965225], [3.148933, 58.957325], [3.133133, 58.93764], [3.047052, 58.848482], [3.029035, 58.831666], [3.015068, 58.81725], [2.739791, 58.527868], [2.669643, 58.453249], [2.65236, 58.432767], [2.46038, 58.22634], [2.457264, 58.221289], [2.455715, 58.216738], [2.455331, 58.212003], [2.456015, 58.20762], [2.457598, 58.203405], [2.460566, 58.198823], [2.466235, 58.193069]]]}}
]
}
