{
"type": "FeatureCollection",
"features": [
{"type": "Feature", "properties": {"ProjectID": "P7465", "id": 1, "Name": "Trans-Alaska Gas Pipeline", "Type": "Main"}, "geometry": {"type": "LineString", "coordinates": [[-149.606249, 70.324126], [-149.563254, 70.328147], [-149.503538, 70.324126], [-149.4486, 70.318496], [-149.422325, 70.313669], [-149.400828, 70.321714], [-149.312449, 70.320909], [-149.264676, 70.3193], [-149.195406, 70.320105], [-149.173909, 70.316082], [-149.10225, 70.316082], [-149.066421, 70.30562], [-149.044923, 70.3024], [-149.025814, 70.294348], [-148.94699, 70.297569], [-148.906383, 70.287903], [-148.865777, 70.266945], [-148.834724, 70.260492], [-148.775009, 70.258879], [-148.722459, 70.257265], [-148.681853, 70.263719], [-148.607805, 70.263719], [-148.646023, 70.24758], [-148.660355, 70.23466], [-148.660355, 70.223349], [-148.656772, 70.196256], [-148.647218, 70.176825], [-148.635275, 70.156564], [-148.628109, 70.137907], [-148.616166, 70.124918], [-148.601834, 70.107858], [-148.587502, 70.09485], [-148.587502, 70.083055], [-148.612583, 70.06881], [-148.668715, 70.024793], [-148.685436, 70.004792], [-148.717682, 69.977821], [-148.73918, 69.967187], [-148.753511, 69.952044], [-148.77262, 69.934432], [-148.789341, 69.919675], [-148.813227, 69.903677], [-148.794118, 69.884381], [-148.777398, 69.858077], [-148.777398, 69.816087], [-148.727236, 69.792173], [-148.717682, 69.769057], [-148.705739, 69.746744], [-148.724848, 69.718611], [-148.730819, 69.711572], [-148.715891, 69.704117], [-148.715891, 69.659951], [-148.680658, 69.62817], [-148.647218, 69.600296], [-148.641246, 69.577804], [-148.611388, 69.550282], [-148.570782, 69.486762], [-148.563616, 69.475878], [-148.575559, 69.457027], [-148.628109, 69.452416], [-148.647218, 69.44445], [-148.668715, 69.431447], [-148.69499, 69.423893], [-148.733208, 69.416756], [-148.740374, 69.409197], [-148.751123, 69.395332], [-148.758289, 69.379775], [-148.773815, 69.365049], [-148.761872, 69.351997], [-148.74754, 69.341887], [-148.73918, 69.333459], [-148.732014, 69.324184], [-148.736791, 69.311529], [-148.769635, 69.290845], [-148.78098, 69.276058], [-148.782772, 69.24074], [-148.789341, 69.23693], [-148.789341, 69.222742], [-148.815615, 69.20918], [-148.839502, 69.185003], [-148.844279, 69.167595], [-148.832336, 69.161223], [-148.838307, 69.151449], [-148.844279, 69.140395], [-148.852639, 69.134015], [-148.852639, 69.108051], [-148.82517, 69.093565], [-148.81681, 69.084614], [-148.832336, 69.076512], [-148.831142, 69.070113], [-148.818004, 69.06926], [-148.821587, 69.047917], [-148.83353, 69.035955], [-148.85025, 69.02527], [-148.846668, 69.014152], [-148.821587, 69.007307], [-148.815615, 68.998748], [-148.828753, 68.98676], [-148.84189, 68.975194], [-148.851445, 68.966194], [-148.878914, 68.954189], [-148.878914, 68.896212], [-148.865777, 68.889761], [-148.866971, 68.873839], [-148.829947, 68.863075], [-148.831142, 68.852737], [-148.818004, 68.852306], [-148.818004, 68.829889], [-148.807255, 68.828164], [-148.809644, 68.807018], [-148.827559, 68.800973], [-148.834724, 68.788445], [-148.853833, 68.77591], [-148.882497, 68.756878], [-148.921909, 68.73653], [-148.948184, 68.726566], [-149.034174, 68.708793], [-149.072392, 68.685797], [-149.132108, 68.684929], [-149.191823, 68.675376], [-149.270648, 68.657127], [-149.323197, 68.642344], [-149.350667, 68.640604], [-149.359027, 68.644518], [-149.491595, 68.645388], [-149.511898, 68.640604], [-149.51787, 68.632338], [-149.558477, 68.633208], [-149.558477, 68.620585], [-149.515481, 68.590524], [-149.482041, 68.558677], [-149.45696, 68.524161], [-149.4486, 68.506226], [-149.449794, 68.491343], [-149.42352, 68.484774], [-149.417548, 68.478203], [-149.347084, 68.449706], [-149.344695, 68.421612], [-149.327975, 68.417219]]}}
]
}
