{
"type": "FeatureCollection",
"features": [
{"type": "Feature", "properties": {"ProjectID": "P7490", "id": 1, "Name": "WORM"}, "geometry": {"type": "LineString", "coordinates": [[145.016475, -37.578574], [145.016088, -37.567853], [145.016475, -37.555598], [145.017634, -37.5461], [145.016861, -37.532002], [145.013769, -37.515144], [145.001402, -37.507786], [144.963526, -37.50472], [144.957342, -37.505026], [144.951158, -37.512384], [144.928355, -37.509625], [144.917534, -37.510238], [144.907871, -37.513611], [144.898596, -37.520661], [144.893185, -37.529857], [144.890866, -37.5366], [144.88275, -37.545793], [144.873861, -37.550083], [144.865358, -37.552534], [144.866131, -37.555292], [144.859174, -37.558356], [144.856082, -37.564483], [144.85415, -37.571835], [144.851831, -37.57643], [144.847579, -37.583169], [144.84255, -37.587006], [144.840428, -37.593732], [144.833001, -37.595834], [144.829818, -37.600457], [144.822392, -37.601298], [144.814434, -37.606341], [144.80913, -37.610544], [144.803294, -37.615166], [144.792684, -37.613905], [144.782075, -37.613485], [144.778892, -37.613485], [144.770404, -37.615586], [144.774648, -37.62525], [144.770934, -37.628192], [144.763508, -37.626091], [144.757142, -37.626091], [144.756081, -37.631132], [144.752367, -37.634493], [144.748123, -37.639535], [144.738044, -37.642475], [144.7338, -37.643315], [144.728689, -37.646732], [144.712093, -37.718524]]}}
]
}
