{
"type": "FeatureCollection",
"features": [
{"type": "Feature", "properties": {"ProjectID": "P7491", "id": 1, "Name": "Bulloo Interlink Pipeline"}, "geometry": {"type": "LineString", "coordinates": [[142.72845, -27.067199], [142.699453, -27.207385], [142.704904, -27.289774], [142.721259, -27.430179], [142.634037, -27.53174], [142.661294, -27.628378], [142.704904, -27.715279], [142.699453, -27.75388], [142.694002, -27.912962], [142.704904, -28.033324], [142.776005, -28.249866], [142.786289, -28.476104], [142.704016, -28.620643], [142.570324, -28.810048], [142.457199, -28.900121], [142.405778, -29.053064], [142.436631, -29.223733], [142.498335, -29.465774], [142.560039, -29.59105], [142.66288, -29.725102], [142.637865, -29.885453], [142.986287, -30.168428], [142.984715, -30.169944]]}}
]
}
