{
"type": "FeatureCollection",
"features": [
{"type": "Feature", "properties": {"ProjectID": "P7500", "id": 1, "Name": "SGP North Gas Pipeline"}, "geometry": {"type": "LineString", "coordinates": [[150.276291, -26.692581], [150.279227, -26.694748], [150.280624, -26.691546], [150.275067, -26.679659], [150.275403, -26.676402], [150.276673, -26.673421], [150.275548, -26.669078], [150.275911, -26.665123], [150.276269, -26.661312], [150.274746, -26.65927], [150.273532, -26.644251], [150.272686, -26.632306], [150.26475, -26.623783], [150.264115, -26.612466], [150.250939, -26.593613], [150.251173, -26.590731], [150.242253, -26.569565], [150.241625, -26.566196], [150.23953, -26.563911], [150.238718, -26.562277], [150.228368, -26.551976], [150.228362, -26.535992], [150.218283, -26.512654], [150.216847, -26.504596], [150.217565, -26.500859], [150.205353, -26.481826], [150.204285, -26.467754], [150.200051, -26.427482], [150.196082, -26.408921], [150.19868, -26.370194], [150.202049, -26.364912], [150.20209, -26.309751], [150.20209, -26.309751]]}}
]
}
