{
"type": "FeatureCollection",
"features": [
{"type": "Feature", "properties": {"ProjectID": "P7521"}, "geometry": {"type": "MultiLineString", "coordinates": [[[9.382237, 48.745164], [9.382237, 48.745164], [9.38303, 48.744473], [9.383437, 48.744502], [9.385223, 48.74408], [9.386138, 48.74403], [9.38939, 48.743993], [9.391749, 48.743957], [9.392564, 48.743339], [9.39284, 48.742917], [9.393116, 48.742758], [9.393634, 48.742656], [9.395243, 48.742489], [9.397315, 48.74222], [9.398296, 48.742103], [9.400942, 48.741485], [9.402287, 48.741166], [9.404811, 48.740322], [9.405098, 48.740613], [9.405417, 48.740511], [9.408272, 48.73961], [9.408691, 48.73945], [9.40933, 48.739188], [9.409683, 48.739108], [9.410102, 48.739174], [9.411546, 48.739864], [9.411833, 48.74009], [9.412538, 48.740344], [9.413133, 48.740446], [9.413704, 48.740514], [9.413889, 48.740528], [9.415058, 48.740716], [9.416578, 48.740912], [9.418177, 48.741129], [9.4234, 48.741817], [9.423541, 48.74183], [9.423631, 48.741803], [9.423712, 48.741704], [9.42378, 48.74161], [9.423839, 48.741583], [9.423958, 48.741598], [9.426234, 48.741897], [9.428234, 48.742166], [9.430107, 48.742439], [9.431888, 48.742713], [9.432747, 48.742843], [9.432951, 48.742826], [9.433167, 48.742782], [9.433308, 48.742706], [9.433457, 48.742603], [9.433572, 48.74247], [9.433602, 48.74236], [9.433605, 48.742225], [9.433579, 48.742122], [9.433583, 48.742005], [9.433605, 48.741892], [9.433767, 48.741128], [9.43395, 48.739886], [9.433885, 48.739162], [9.433858, 48.738197], [9.433871, 48.7378], [9.433937, 48.73736], [9.433414, 48.735593], [9.433362, 48.735041], [9.433453, 48.734748], [9.433571, 48.73461], [9.433793, 48.734463], [9.434211, 48.734403], [9.435349, 48.734437], [9.439336, 48.73455], [9.445807, 48.734774], [9.447781, 48.734834], [9.448029, 48.734791], [9.448199, 48.734722], [9.448343, 48.734627], [9.449362, 48.733765], [9.450317, 48.73292], [9.450604, 48.732549], [9.450853, 48.731954], [9.450918, 48.730989], [9.450931, 48.730445], [9.451036, 48.730014], [9.451232, 48.729669], [9.451297, 48.729307], [9.451572, 48.728755], [9.452343, 48.727884], [9.452565, 48.727712], [9.45399, 48.7271], [9.454617, 48.726634], [9.455336, 48.726022], [9.456083, 48.726068], [9.459595, 48.726549], [9.460358, 48.726365], [9.462216, 48.725388], [9.463161, 48.724962], [9.464686, 48.724941], [9.465792, 48.723878], [9.466383, 48.723602], [9.468069, 48.723085], [9.470196, 48.722008], [9.473418, 48.721639], [9.475105, 48.721483], [9.475298, 48.721434], [9.475566, 48.721278], [9.478595, 48.719138], [9.478875, 48.71906], [9.480002, 48.718869], [9.481012, 48.718699], [9.482193, 48.717926], [9.483577, 48.716919], [9.483889, 48.716365], [9.486522, 48.715117], [9.48723, 48.714661], [9.488382, 48.714194], [9.488695, 48.713922], [9.489698, 48.713477], [9.490093, 48.713499], [9.491278, 48.713694], [9.492183, 48.712511], [9.492117, 48.712044], [9.491871, 48.711067], [9.49215, 48.709014], [9.491887, 48.70732], [9.491722, 48.706365], [9.493171, 48.702466], [9.493319, 48.70214], [9.495836, 48.700631], [9.496083, 48.700544], [9.496626, 48.700533], [9.499193, 48.700576], [9.504788, 48.700174], [9.505167, 48.700055], [9.505364, 48.699903], [9.505479, 48.69974], [9.50571, 48.699588], [9.506055, 48.699468], [9.510959, 48.698665], [9.514826, 48.698426], [9.51662, 48.697318], [9.516785, 48.697166], [9.516818, 48.69696], [9.516867, 48.694841], [9.516867, 48.694668], [9.516768, 48.694494], [9.516719, 48.694353], [9.516801, 48.693766], [9.517262, 48.691398], [9.517755, 48.688976], [9.517887, 48.68865], [9.518085, 48.687878], [9.518183, 48.687585], [9.518726, 48.687172], [9.520026, 48.684869], [9.520619, 48.683891], [9.520849, 48.683674], [9.521112, 48.683587], [9.5234, 48.683479], [9.524453, 48.683381], [9.524766, 48.683337], [9.525012, 48.683229], [9.526, 48.682131], [9.526148, 48.682001], [9.526477, 48.68186], [9.528156, 48.681436], [9.532006, 48.680436], [9.535166, 48.680686], [9.536466, 48.681338], [9.536877, 48.68174], [9.538029, 48.682349], [9.540201, 48.681012], [9.540596, 48.680762], [9.542686, 48.678372], [9.542916, 48.678187], [9.54471, 48.677481], [9.546767, 48.676666], [9.547261, 48.676373], [9.547524, 48.67621], [9.554238, 48.676112], [9.555538, 48.676449], [9.557809, 48.676427], [9.558484, 48.676525], [9.559356, 48.676557], [9.560804, 48.676416], [9.561479, 48.676373], [9.569624, 48.676242], [9.578461, 48.676101], [9.595114, 48.67584], [9.595723, 48.676101], [9.597895, 48.676188], [9.603836, 48.676623], [9.608871, 48.676177], [9.610171, 48.675623], [9.615503, 48.675514], [9.616211, 48.675514], [9.616424, 48.67546], [9.616787, 48.675275], [9.61705, 48.675156], [9.617461, 48.675112], [9.6235, 48.675047], [9.63211, 48.674877], [9.641429, 48.674751], [9.642, 48.674683], [9.644252, 48.674877], [9.651353, 48.673962], [9.659667, 48.67291], [9.66495, 48.672247], [9.666041, 48.672327], [9.666526, 48.672258], [9.667236, 48.672075], [9.667877, 48.671869], [9.673229, 48.671217], [9.678407, 48.670565], [9.679481, 48.670645], [9.680261, 48.670142], [9.680746, 48.670062], [9.681369, 48.670176], [9.686201, 48.669593], [9.68951, 48.66917], [9.700473, 48.670085], [9.70127, 48.670165], [9.702032, 48.670725], [9.702171, 48.671194], [9.702136, 48.671171], [9.702309, 48.673013], [9.702673, 48.673402], [9.703141, 48.673516], [9.703591, 48.673493], [9.704648, 48.673162], [9.706743, 48.672578], [9.707713, 48.672693], [9.711662, 48.673002], [9.712268, 48.673219], [9.712546, 48.673265], [9.713013, 48.673276], [9.715681, 48.673173], [9.720293, 48.674173], [9.726895, 48.673413], [9.727711, 48.673168], [9.729047, 48.671527], [9.729974, 48.670131], [9.731754, 48.668735], [9.733535, 48.668319], [9.734981, 48.667584], [9.735612, 48.667094], [9.737281, 48.66631], [9.742622, 48.666114], [9.749558, 48.666481], [9.753379, 48.666432], [9.75527, 48.666138], [9.757607, 48.667657], [9.759647, 48.668441], [9.763171, 48.670915], [9.76301, 48.671168], [9.763619, 48.67147], [9.763863, 48.671329], [9.767793, 48.673341], [9.767976, 48.673623], [9.768738, 48.67326], [9.769195, 48.67318], [9.769621, 48.673301], [9.770078, 48.673683], [9.770413, 48.673965], [9.770566, 48.674166], [9.770566, 48.674266], [9.770322, 48.674347], [9.770078, 48.674427], [9.769804, 48.674629], [9.769774, 48.674991], [9.769956, 48.675192], [9.770505, 48.675433], [9.771556, 48.675801], [9.77198, 48.675972], [9.776407, 48.675148], [9.776714, 48.67507], [9.777561, 48.674168], [9.778574, 48.673733], [9.779563, 48.672582], [9.780741, 48.67196], [9.783661, 48.669923], [9.787547, 48.667839], [9.7879, 48.666797], [9.788135, 48.666532], [9.788654, 48.666299], [9.790467, 48.665646], [9.790773, 48.665615], [9.791456, 48.665661], [9.794329, 48.665879], [9.7948, 48.665848], [9.795177, 48.665661], [9.798121, 48.663717], [9.79838, 48.663655], [9.798898, 48.663608], [9.801088, 48.663453], [9.801441, 48.663328], [9.801747, 48.663079], [9.804385, 48.658428], [9.804644, 48.658257], [9.80528, 48.65821], [9.811309, 48.658242], [9.81251, 48.658179], [9.818562, 48.657557], [9.821106, 48.657775], [9.821883, 48.658288], [9.823626, 48.658428], [9.824144, 48.658708], [9.824379, 48.659362], [9.824732, 48.659719], [9.825816, 48.659859], [9.832716, 48.660513], [9.836037, 48.66269], [9.845549, 48.668992], [9.849355, 48.671171], [9.862437, 48.677501], [9.866356, 48.679437], [9.870049, 48.680926], [9.871685, 48.684444], [9.873094, 48.688017], [9.873743, 48.688241], [9.876988, 48.689322], [9.878498, 48.690084], [9.879149, 48.690377], [9.879682, 48.690475], [9.881783, 48.692898], [9.885957, 48.696064], [9.886461, 48.696337], [9.893062, 48.696005], [9.893477, 48.695966], [9.894365, 48.696943], [9.897088, 48.698115], [9.899249, 48.698975], [9.902357, 48.699542], [9.905614, 48.69921], [9.909877, 48.699131], [9.911209, 48.698311], [9.912955, 48.695966], [9.915146, 48.694501], [9.916182, 48.693172], [9.916656, 48.692996], [9.917159, 48.692957], [9.917929, 48.693035], [9.919261, 48.693152], [9.920119, 48.693191], [9.920948, 48.693817], [9.922902, 48.693934], [9.924974, 48.694071], [9.933381, 48.695575], [9.935454, 48.695478], [9.941049, 48.696025], [9.942884, 48.696122], [9.951617, 48.696083], [9.952298, 48.696318], [9.95958, 48.696161], [9.963991, 48.69624], [9.96553, 48.695419], [9.966211, 48.695126], [9.967543, 48.694891], [9.969467, 48.69452], [9.971451, 48.693738], [9.972339, 48.693465], [9.972813, 48.693152], [9.973375, 48.693055], [9.973789, 48.693113], [9.974293, 48.693172], [9.975033, 48.693074], [9.976158, 48.692801], [9.976809, 48.692546], [9.977786, 48.692507], [9.979769, 48.692546], [9.987288, 48.690397], [9.991818, 48.690456], [9.992883, 48.690182], [9.995932, 48.689791], [9.996969, 48.689791], [9.998064, 48.689693], [9.998804, 48.689674], [10.004281, 48.687856], [10.004547, 48.687622], [10.005405, 48.684847], [10.006945, 48.682971], [10.009964, 48.681055], [10.014021, 48.678666], [10.016369, 48.677831], [10.017814, 48.677175], [10.023916, 48.677666], [10.025958, 48.677822], [10.027409, 48.678291], [10.028149, 48.678526], [10.028771, 48.678467], [10.029333, 48.678311], [10.029747, 48.678076], [10.030162, 48.677764], [10.030488, 48.677509], [10.030991, 48.677373], [10.031494, 48.677314], [10.032056, 48.677197], [10.035372, 48.677294], [10.036041, 48.677296], [10.036536, 48.676911], [10.036827, 48.676238], [10.037089, 48.675565], [10.04038, 48.672797], [10.042069, 48.672104], [10.042564, 48.672181], [10.046087, 48.6732], [10.047368, 48.673412], [10.048562, 48.67345], [10.051386, 48.673066], [10.052697, 48.672912], [10.054589, 48.67295], [10.05488, 48.672335], [10.059452, 48.671643], [10.063062, 48.671912], [10.06513, 48.672104], [10.066935, 48.672162], [10.069294, 48.672604], [10.072089, 48.673297], [10.08161, 48.675354], [10.084901, 48.675758], [10.085396, 48.675911], [10.085658, 48.676411], [10.085803, 48.677027], [10.085658, 48.67793], [10.085774, 48.678257], [10.086211, 48.678507], [10.089065, 48.679411], [10.090433, 48.680026], [10.091772, 48.68043], [10.092762, 48.680603], [10.094218, 48.682064], [10.094044, 48.682429], [10.093374, 48.682929], [10.093228, 48.683121], [10.094742, 48.684294], [10.095703, 48.684255], [10.097101, 48.68464], [10.097916, 48.685274], [10.100479, 48.688081], [10.101177, 48.688292], [10.102255, 48.689445], [10.103798, 48.691617], [10.105895, 48.6945], [10.106855, 48.694885], [10.108894, 48.694712], [10.109622, 48.694942], [10.110058, 48.695577], [10.110815, 48.696672], [10.111165, 48.696922], [10.112038, 48.697287], [10.115853, 48.698037], [10.11693, 48.698633], [10.118299, 48.698844], [10.119492, 48.699344], [10.120919, 48.699363], [10.12255, 48.700035], [10.123715, 48.700574], [10.124006, 48.701765], [10.12354, 48.702995], [10.123715, 48.703475], [10.128257, 48.704878], [10.136963, 48.707856], [10.140603, 48.707587], [10.141564, 48.708356], [10.141651, 48.710681], [10.142175, 48.711507], [10.142146, 48.711738], [10.140603, 48.713582], [10.140515, 48.714523], [10.141098, 48.715311], [10.143718, 48.715964], [10.149513, 48.715254], [10.14992, 48.71535], [10.152483, 48.716637], [10.154113, 48.717155], [10.154375, 48.717367], [10.154812, 48.717348], [10.15586, 48.717713], [10.15621, 48.717693], [10.158394, 48.718135], [10.162295, 48.718981], [10.162878, 48.719019], [10.163373, 48.718673], [10.164159, 48.717348], [10.165149, 48.716214], [10.165353, 48.715964], [10.165848, 48.715849], [10.169284, 48.715426], [10.177611, 48.717424], [10.180669, 48.717847], [10.182416, 48.717866], [10.184658, 48.718154], [10.189491, 48.717463], [10.19482, 48.716752], [10.198401, 48.716541], [10.202099, 48.717982], [10.206059, 48.718135], [10.207166, 48.718904], [10.208127, 48.719768], [10.209612, 48.72046], [10.211912, 48.721094], [10.212378, 48.721439], [10.213572, 48.721631], [10.216513, 48.723572], [10.219541, 48.724513], [10.222453, 48.724839], [10.224141, 48.724993], [10.224986, 48.725531], [10.225626, 48.727183], [10.226529, 48.728374], [10.227315, 48.728835], [10.229004, 48.729852], [10.230052, 48.730966], [10.230693, 48.731965], [10.232906, 48.732234], [10.234944, 48.7316], [10.239865, 48.731427], [10.241379, 48.731715], [10.243213, 48.731485], [10.247319, 48.7321], [10.250114, 48.733098], [10.254104, 48.733578], [10.256579, 48.733021], [10.263858, 48.728028], [10.265052, 48.727163], [10.266653, 48.727163], [10.272651, 48.730083], [10.280251, 48.734251], [10.290064, 48.735192], [10.291636, 48.735364], [10.293092, 48.736478], [10.295975, 48.736325], [10.300546, 48.734692], [10.304594, 48.734519], [10.305962, 48.733962], [10.30701, 48.730928], [10.306719, 48.727932], [10.306777, 48.727567], [10.30701, 48.727336], [10.307418, 48.72724], [10.308088, 48.727144], [10.310592, 48.727471], [10.31132, 48.727548], [10.314028, 48.72749], [10.318541, 48.72701], [10.324161, 48.727048], [10.325005, 48.726895], [10.332372, 48.726818], [10.340612, 48.724052], [10.342155, 48.723572], [10.34364, 48.722534], [10.346144, 48.721401], [10.346144, 48.72069], [10.348823, 48.720018], [10.349901, 48.719346], [10.350163, 48.719], [10.351153, 48.718827], [10.352987, 48.718865], [10.357034, 48.718423], [10.358723, 48.718769], [10.360849, 48.719941], [10.365013, 48.719787], [10.367138, 48.720287], [10.371855, 48.720037], [10.373107, 48.718981], [10.37433, 48.718712], [10.375204, 48.719249], [10.384667, 48.717655], [10.386967, 48.717309], [10.387928, 48.718116], [10.389501, 48.718078], [10.392209, 48.718769], [10.393548, 48.719499], [10.397479, 48.72021], [10.400624, 48.720479], [10.402895, 48.720882], [10.407903, 48.722861], [10.40834, 48.723956], [10.412038, 48.724801], [10.417745, 48.726107], [10.425781, 48.724186], [10.428606, 48.723245], [10.43341, 48.723034], [10.436497, 48.721747], [10.442378, 48.720344], [10.447969, 48.719288], [10.450007, 48.719384], [10.455161, 48.71802], [10.470708, 48.714142], [10.478591, 48.71401], [10.480411, 48.714216], [10.485993, 48.717391], [10.492538, 48.72102], [10.49889, 48.723251], [10.502767, 48.72472], [10.503372, 48.725247], [10.506342, 48.725501], [10.507442, 48.725627], [10.507964, 48.725936], [10.507992, 48.726407], [10.507673, 48.727439]]]}}
]
}
