{
"type": "FeatureCollection",
"features": [
{"type": "Feature", "properties": {"ProjectID": "P7530", "id": 1, "Name": "Türkiye-Syria Natural Gas Pipeline"}, "geometry": {"type": "LineString", "coordinates": [[37.132521, 36.22093], [37.080092, 36.256874], [37.032905, 36.341384], [37.011933, 36.400486], [37.022419, 36.486947], [36.998826, 36.577522], [37.07747, 36.636445], [37.101063, 36.699526], [37.107456, 36.750076], [37.101573, 36.889807], [37.074115, 37.018322], [37.040774, 37.11222], [36.958403, 37.301227], [36.889911, 37.363392], [36.854243, 37.399645]]}}
]
}
