{
"type": "FeatureCollection",
"features": [
{"type": "Feature", "properties": {"ProjectID": "P7541", "id": 1, "Name": "Homs-Deir Ammar"}, "geometry": {"type": "LineString", "coordinates": [[36.848355, 34.654335], [36.830582, 34.671815], [36.778173, 34.687804], [36.715619, 34.703789], [36.668918, 34.720466], [36.591994, 34.715602], [36.539585, 34.696144], [36.44491, 34.686413], [36.40687, 34.696839], [36.383201, 34.687109], [36.340936, 34.701009], [36.304587, 34.703789], [36.295321, 34.693118], [36.283473, 34.687221], [36.266012, 34.689016], [36.255099, 34.68235], [36.244186, 34.678504], [36.224854, 34.681068], [36.20677, 34.683119], [36.179332, 34.67876], [36.156571, 34.668503], [36.136927, 34.655937], [36.124144, 34.646447], [36.117596, 34.643625], [36.110193, 34.63304], [36.096649, 34.629015], [36.068808, 34.616631], [36.053213, 34.59588], [36.049469, 34.586635], [36.01765, 34.580471], [35.99519, 34.559407], [35.991446, 34.540908], [35.985831, 34.519321], [35.968986, 34.504412], [35.957132, 34.488986], [35.941693, 34.480259], [35.918731, 34.46568], [35.904184, 34.461682], [35.893333, 34.464122]]}}
]
}
