{
"type": "FeatureCollection",
"features": [
{"type": "Feature", "properties": {"ProjectID": "P7549", "id": null}, "geometry": {"type": "MultiLineString", "coordinates": [[[-73.862337, 7.086065], [-73.832877, 7.074646], [-73.813571, 7.05315], [-73.810039, 7.039831], [-73.822753, 7.027213], [-73.82911, 7.013659], [-73.833113, 6.982345], [-73.841118, 6.937941], [-73.84512, 6.914335], [-73.85854, 6.896571], [-73.863249, 6.887221], [-73.866545, 6.87156], [-73.873609, 6.858236], [-73.88491, 6.841405], [-73.895269, 6.825743], [-73.911044, 6.807041], [-73.922581, 6.784831], [-73.931528, 6.761685], [-73.947538, 6.744383], [-73.976261, 6.715857], [-73.994861, 6.688265], [-74.020289, 6.669557], [-74.046659, 6.653655], [-74.069261, 6.639623], [-74.082446, 6.626059], [-74.102223, 6.615769], [-74.113053, 6.607817], [-74.122942, 6.602672], [-74.127651, 6.587703], [-74.141777, 6.578348], [-74.163438, 6.564782], [-74.179448, 6.555893], [-74.200167, 6.55028], [-74.232187, 6.545602], [-74.252906, 6.53952], [-74.273625, 6.527824], [-74.293873, 6.510046], [-74.317417, 6.503497], [-74.342845, 6.495075], [-74.357913, 6.482911], [-74.376748, 6.474021], [-74.390123, 6.475064], [-74.391492, 6.475188], [-74.392341, 6.475085], [-74.393726, 6.470094], [-74.39888, 6.455773], [-74.392288, 6.441736], [-74.381457, 6.425827], [-74.371569, 6.41834], [-74.366389, 6.408981], [-74.367802, 6.390263], [-74.380986, 6.373416], [-74.407356, 6.366397], [-74.417244, 6.364993], [-74.426662, 6.349549], [-74.439376, 6.338317], [-74.443614, 6.326149], [-74.447381, 6.310236], [-74.453503, 6.302748], [-74.463862, 6.292919], [-74.469513, 6.284026], [-74.477989, 6.276069], [-74.493528, 6.265303], [-74.508125, 6.253133], [-74.514247, 6.246112], [-74.531669, 6.242367], [-74.541087, 6.230197], [-74.550976, 6.218962], [-74.556155, 6.206791], [-74.55693, 6.196742], [-74.558313, 6.192412], [-74.559743, 6.192616], [-74.561188, 6.192791], [-74.561442, 6.192802], [-74.561927, 6.192572], [-74.562336, 6.192331], [-74.562479, 6.192024], [-74.562677, 6.191168], [-74.562986, 6.189381], [-74.563108, 6.188405], [-74.563251, 6.187758], [-74.563607, 6.186476], [-74.563887, 6.185741], [-74.564365, 6.184709], [-74.564656, 6.18419], [-74.565181, 6.183558], [-74.565887, 6.182878], [-74.566715, 6.181968], [-74.567123, 6.181463], [-74.567584, 6.180222], [-74.568073, 6.179084], [-74.568176, 6.178916], [-74.568195, 6.178781], [-74.568974, 6.177417], [-74.569204, 6.176801], [-74.56921, 6.17576], [-74.569283, 6.173169], [-74.56941, 6.172893], [-74.569426, 6.172603], [-74.570027, 6.170747], [-74.570462, 6.169284], [-74.570802, 6.168742], [-74.571529, 6.16783], [-74.572225, 6.167091], [-74.572541, 6.166816], [-74.572969, 6.16632], [-74.574353, 6.164669], [-74.575903, 6.162923], [-74.576962, 6.162043], [-74.577231, 6.16165], [-74.577461, 6.161194], [-74.577563, 6.161123], [-74.577627, 6.160997], [-74.577635, 6.160903], [-74.577832, 6.160667], [-74.577825, 6.160565], [-74.578552, 6.159165], [-74.579517, 6.157105], [-74.580964, 6.154266], [-74.588016, 6.143793], [-74.588921, 6.14083], [-74.589057, 6.140183], [-74.589248, 6.139407], [-74.589634, 6.138153], [-74.589749, 6.137877], [-74.590166, 6.137022], [-74.590336, 6.136608], [-74.590439, 6.136478], [-74.590486, 6.136278], [-74.590532, 6.136172], [-74.590613, 6.136072], [-74.590653, 6.135959], [-74.590666, 6.135852], [-74.592059, 6.133022], [-74.592106, 6.130053], [-74.59221, 6.129769], [-74.592217, 6.129532], [-74.592132, 6.127052], [-74.592048, 6.12608], [-74.591845, 6.12442], [-74.591709, 6.124021], [-74.590941, 6.122249], [-74.590874, 6.12195], [-74.590941, 6.12153], [-74.591015, 6.121184], [-74.591015, 6.120971], [-74.590814, 6.120818], [-74.590593, 6.120838], [-74.589836, 6.121024], [-74.589722, 6.121024], [-74.588463, 6.120798], [-74.588122, 6.120811], [-74.587961, 6.120864], [-74.58772, 6.120971], [-74.587452, 6.121224], [-74.58705, 6.121663], [-74.586782, 6.122069], [-74.586655, 6.122109], [-74.586495, 6.122076], [-74.586307, 6.121916], [-74.586106, 6.12151], [-74.585992, 6.121071], [-74.585925, 6.120558], [-74.585952, 6.120172], [-74.586006, 6.119333], [-74.586006, 6.118834], [-74.585939, 6.11854], [-74.585885, 6.118194], [-74.585932, 6.118028], [-74.586073, 6.117908], [-74.586407, 6.117755], [-74.586662, 6.117242], [-74.587104, 6.116616], [-74.587358, 6.116223], [-74.588296, 6.115091], [-74.58841, 6.114845], [-74.588738, 6.113933], [-74.588925, 6.113753], [-74.590225, 6.112781], [-74.590425, 6.112375], [-74.590452, 6.112095], [-74.590405, 6.111949], [-74.59001, 6.111283], [-74.589334, 6.110204], [-74.589133, 6.109864], [-74.589066, 6.109498], [-74.589171, 6.108812], [-74.589627, 6.107444], [-74.589638, 6.106577], [-74.589543, 6.106306], [-74.589344, 6.106083], [-74.588403, 6.104951], [-74.588237, 6.104781], [-74.58813, 6.104474], [-74.588064, 6.104053], [-74.588031, 6.103929], [-74.587901, 6.103479], [-74.587758, 6.103047], [-74.587644, 6.102736], [-74.587508, 6.102385], [-74.58749, 6.102096], [-74.587541, 6.101887], [-74.587718, 6.101525], [-74.587784, 6.101236], [-74.587795, 6.101046], [-74.587784, 6.100995], [-74.587552, 6.100102], [-74.587368, 6.099726], [-74.587015, 6.099345], [-74.586658, 6.098939], [-74.586463, 6.098844], [-74.586098, 6.098596], [-74.585794, 6.098368], [-74.585547, 6.098186], [-74.585194, 6.09771], [-74.584997, 6.09735], [-74.584874, 6.096938], [-74.584749, 6.096653], [-74.584642, 6.096433], [-74.584337, 6.095801], [-74.584168, 6.095332], [-74.584099, 6.095037], [-74.584042, 6.094544], [-74.58418, 6.094221], [-74.584302, 6.093772], [-74.584331, 6.093485], [-74.584249, 6.093164], [-74.584178, 6.092966], [-74.584066, 6.092751], [-74.58395, 6.092508], [-74.583888, 6.092356], [-74.583846, 6.092209], [-74.583822, 6.091998], [-74.583758, 6.091816], [-74.583619, 6.091627], [-74.583254, 6.09121], [-74.583086, 6.091014], [-74.582694, 6.090503], [-74.582138, 6.089902], [-74.581939, 6.08976], [-74.581719, 6.089657], [-74.581568, 6.089644], [-74.581403, 6.089603], [-74.581225, 6.089499], [-74.580966, 6.089244], [-74.580769, 6.089095], [-74.580537, 6.088733], [-74.580433, 6.088314], [-74.58004, 6.087859], [-74.579875, 6.087654], [-74.579632, 6.087402], [-74.579463, 6.087102], [-74.579319, 6.086838], [-74.579271, 6.086582], [-74.579124, 6.086169], [-74.579043, 6.086034], [-74.578856, 6.085917], [-74.578639, 6.085843], [-74.578384, 6.085779], [-74.578259, 6.085823], [-74.578179, 6.085851], [-74.577999, 6.0858], [-74.577781, 6.085664], [-74.576935, 6.085481], [-74.576785, 6.085268], [-74.576407, 6.08518], [-74.575716, 6.084981], [-74.575176, 6.084829], [-74.574606, 6.084863], [-74.573959, 6.084895], [-74.573754, 6.084866], [-74.573579, 6.084802], [-74.573169, 6.084628], [-74.572582, 6.084289], [-74.572251, 6.084157], [-74.571686, 6.083779], [-74.571518, 6.083649], [-74.571429, 6.08357], [-74.57134, 6.083506], [-74.571202, 6.083469], [-74.57098, 6.083443], [-74.570857, 6.083482], [-74.570602, 6.08358], [-74.570227, 6.083663], [-74.569887, 6.083519], [-74.569593, 6.083381], [-74.569282, 6.083249], [-74.569094, 6.083246], [-74.568968, 6.08328], [-74.568761, 6.083506], [-74.568653, 6.083672], [-74.568505, 6.083884], [-74.568392, 6.084052], [-74.568271, 6.084161], [-74.567965, 6.084288], [-74.567776, 6.084299], [-74.567586, 6.08423], [-74.567387, 6.084121], [-74.567239, 6.084014], [-74.566877, 6.083532], [-74.566746, 6.083429], [-74.566629, 6.083391], [-74.566209, 6.083357], [-74.565962, 6.083326], [-74.565573, 6.083275], [-74.565497, 6.083292], [-74.565307, 6.083367], [-74.565125, 6.08347], [-74.564943, 6.083593], [-74.564763, 6.083693], [-74.564619, 6.083741], [-74.56444, 6.083734], [-74.564171, 6.083515], [-74.563944, 6.083118], [-74.563776, 6.082789], [-74.563583, 6.082419], [-74.56349, 6.082299], [-74.563273, 6.082084], [-74.563094, 6.081937], [-74.562777, 6.08169], [-74.562316, 6.081348], [-74.561913, 6.081016], [-74.561782, 6.080923], [-74.561593, 6.080872], [-74.561369, 6.080879], [-74.561166, 6.080896], [-74.560795, 6.080901], [-74.560469, 6.080887], [-74.560341, 6.080904], [-74.560134, 6.08096], [-74.559988, 6.080973], [-74.55987, 6.080963], [-74.559791, 6.080951], [-74.559709, 6.080948], [-74.559563, 6.08097], [-74.559438, 6.080958], [-74.559317, 6.080904], [-74.55926, 6.080852], [-74.559176, 6.080676], [-74.559145, 6.080552], [-74.559047, 6.08028], [-74.55894, 6.080053], [-74.558759, 6.079873], [-74.558311, 6.07958], [-74.558163, 6.079434], [-74.558003, 6.079208], [-74.557634, 6.078528], [-74.557507, 6.078449], [-74.557266, 6.078415], [-74.556824, 6.078269], [-74.555211, 6.073729], [-74.555499, 6.073219], [-74.554217, 6.055792], [-74.555585, 6.038675], [-74.566044, 5.999372], [-74.561806, 5.989069], [-74.555214, 5.979702], [-74.555214, 5.969399], [-74.563219, 5.960501], [-74.568398, 5.953944], [-74.570753, 5.930058], [-74.571224, 5.906171], [-74.576403, 5.891183], [-74.591942, 5.876194], [-74.607011, 5.863546], [-74.623492, 5.856052], [-74.630555, 5.841999], [-74.637147, 5.833098], [-74.640914, 5.808739], [-74.643269, 5.770791], [-74.640914, 5.747366], [-74.632439, 5.732373], [-74.630084, 5.721129], [-74.630555, 5.700512], [-74.619725, 5.685519], [-74.616428, 5.666307], [-74.620196, 5.651781], [-74.625846, 5.634911], [-74.628201, 5.605388], [-74.626788, 5.536026], [-74.631026, 5.493374], [-74.639031, 5.481656], [-74.645623, 5.468531], [-74.646565, 5.429625], [-74.651274, 5.415092], [-74.657395, 5.407592], [-74.659279, 5.393528], [-74.658808, 5.384621], [-74.664459, 5.374776], [-74.677172, 5.368681], [-74.716256, 5.367275], [-74.731324, 5.348991], [-74.740742, 5.336801], [-74.746863, 5.308669], [-74.75016, 5.288508], [-74.758635, 5.281475], [-74.786888, 5.279599], [-74.8142, 5.288508], [-74.858463, 5.297886], [-74.874473, 5.294603], [-74.870404, 5.220846], [-74.886716, 5.16096], [-74.900372, 5.142669], [-74.899901, 5.104211], [-74.886716, 5.082636], [-74.882478, 5.057777], [-74.887187, 5.028695], [-74.903668, 5.001019], [-74.913556, 4.971935], [-74.919207, 4.943318], [-74.905551, 4.919392], [-74.901784, 4.901564], [-74.900842, 4.883736], [-74.906493, 4.855116], [-74.918736, 4.834471], [-74.929095, 4.818987], [-74.933804, 4.789425], [-74.937101, 4.716689], [-74.940868, 4.658495], [-74.939455, 4.63362], [-74.943693, 4.587153], [-74.946047, 4.556174], [-74.970062, 4.52754], [-74.980422, 4.510641], [-74.981364, 4.475903], [-74.983718, 4.457594], [-74.996903, 4.436937], [-75.011971, 4.41675], [-75.020447, 4.396562], [-75.039282, 4.376373], [-75.050584, 4.350549], [-75.065181, 4.32989], [-75.062827, 4.312047], [-75.045875, 4.2989], [-75.020447, 4.274952], [-75.010558, 4.264621], [-74.992194, 4.25476], [-74.996432, 4.221418], [-74.994548, 4.183379], [-74.98984, 4.15614], [-74.973829, 4.131718], [-74.971004, 4.098842], [-74.971946, 4.05469], [-74.972888, 4.040599], [-74.981364, 4.030265], [-74.976655, 4.0049], [-74.98466, 3.98799], [-74.996903, 3.966851], [-75.00632, 3.951349], [-75.014796, 3.934437], [-75.037399, 3.931618], [-75.039753, 3.899673], [-75.044462, 3.869606], [-75.057647, 3.837188], [-75.068948, 3.798191], [-75.072244, 3.775638], [-75.076011, 3.754964], [-75.077424, 3.723482], [-75.081662, 3.6873], [-75.084958, 3.657225], [-75.090609, 3.636548], [-75.098143, 3.62245], [-75.106148, 3.597073], [-75.1231, 3.574045], [-75.121687, 3.549606], [-75.122158, 3.523757], [-75.125925, 3.503547], [-75.140052, 3.484746], [-75.145702, 3.468296], [-75.154649, 3.453255], [-75.171601, 3.435864], [-75.177722, 3.423172], [-75.189965, 3.408131], [-75.199854, 3.393559], [-75.204563, 3.364415], [-75.210684, 3.351253], [-75.215864, 3.342322], [-75.225282, 3.325868], [-75.238466, 3.307535], [-75.239408, 3.264285], [-75.242704, 3.24783], [-75.253064, 3.207869], [-75.263423, 3.187182], [-75.271428, 3.164614], [-75.275195, 3.12653], [-75.279904, 3.102551], [-75.284613, 3.074809], [-75.27237, 3.040953], [-75.251651, 3.028257], [-75.252122, 3.005686], [-75.259656, 2.99393], [-75.255418, 2.984055], [-75.246, 2.976061], [-75.250709, 2.961483], [-75.268132, 2.959602], [-75.281781, 2.942169]]]}},
{"type": "Feature", "properties": {"ProjectID": "P7549", "id": null}, "geometry": {"type": "MultiLineString", "coordinates": [[[-74.555585, 6.038675], [-74.543677, 6.020679], [-74.51613, 5.991879], [-74.470454, 5.953476], [-74.458918, 5.944811], [-74.445498, 5.922798], [-74.420776, 5.905], [-74.386166, 5.873149], [-74.355559, 5.842233], [-74.339313, 5.834972], [-74.330131, 5.82654], [-74.323774, 5.817639], [-74.316475, 5.809441], [-74.305174, 5.80663], [-74.295285, 5.799369], [-74.287751, 5.793045], [-74.275979, 5.789765], [-74.265384, 5.809675], [-74.252435, 5.815531], [-74.231481, 5.812955], [-74.177564, 5.806396], [-74.14837, 5.807099], [-74.13801, 5.80827], [-74.126474, 5.802883], [-74.124355, 5.793513], [-74.111405, 5.790234], [-74.098927, 5.793045], [-74.07915, 5.812955], [-74.058902, 5.829116], [-74.033474, 5.829351], [-74.026175, 5.825603], [-74.014168, 5.823963], [-74.002631, 5.831927], [-73.986621, 5.835909], [-73.972965, 5.830756], [-73.959074, 5.825603]]]}},
{"type": "Feature", "properties": {"ProjectID": "P7549", "id": null}, "geometry": {"type": "MultiLineString", "coordinates": [[[-73.986621, 5.835909], [-73.984973, 5.812955], [-73.985444, 5.795153], [-73.981441, 5.773837], [-73.974378, 5.75861], [-73.970611, 5.732373], [-73.947067, 5.725814], [-73.923522, 5.728625], [-73.915047, 5.74924]]]}},
{"type": "Feature", "properties": {"ProjectID": "P7549", "id": null}, "geometry": {"type": "MultiLineString", "coordinates": [[[-73.947067, 5.725814], [-73.940003, 5.700981], [-73.931998, 5.682239], [-73.92211, 5.661152], [-73.90092, 5.631631], [-73.880672, 5.607731], [-73.851948, 5.589923], [-73.833113, 5.562272], [-73.823224, 5.543525], [-73.810039, 5.510717], [-73.790733, 5.480718], [-73.789791, 5.466656], [-73.782257, 5.446031], [-73.774723, 5.422593], [-73.764364, 5.401966], [-73.776607, 5.371025], [-73.790733, 5.345709], [-73.773781, 5.323204], [-73.774723, 5.307263], [-73.780374, 5.288508], [-73.791675, 5.271628], [-73.7945, 5.250059], [-73.801093, 5.228489], [-73.817103, 5.208793], [-73.844414, 5.191911], [-73.873609, 5.176905], [-73.90092, 5.170339], [-73.913634, 5.153925], [-73.920226, 5.139855], [-73.925877, 5.126724], [-73.929644, 5.114998], [-73.924464, 5.102804], [-73.920226, 5.087326], [-73.909867, 5.081229], [-73.892915, 5.069034], [-73.881143, 5.060591]]]}},
{"type": "Feature", "properties": {"ProjectID": "P7549", "id": null}, "geometry": {"type": "MultiLineString", "coordinates": [[[-73.920226, 5.087326], [-73.943064, 5.073724], [-73.967079, 5.051679]]]}},
{"type": "Feature", "properties": {"ProjectID": "P7549", "id": null}, "geometry": {"type": "MultiLineString", "coordinates": [[[-73.833113, 5.562272], [-73.843708, 5.550555], [-73.851713, 5.543056], [-73.862543, 5.542119], [-73.869135, 5.545869]]]}},
{"type": "Feature", "properties": {"ProjectID": "P7549", "id": null}, "geometry": {"type": "MultiLineString", "coordinates": [[[-73.810039, 5.510717], [-73.822989, 5.503217], [-73.848887, 5.499936]]]}},
{"type": "Feature", "properties": {"ProjectID": "P7549", "id": null}, "geometry": {"type": "MultiLineString", "coordinates": [[[-73.789791, 5.466656], [-73.806508, 5.4615], [-73.815925, 5.452125]]]}},
{"type": "Feature", "properties": {"ProjectID": "P7549", "id": null}, "geometry": {"type": "MultiLineString", "coordinates": [[[-73.774723, 5.422593], [-73.797796, 5.402435]]]}},
{"type": "Feature", "properties": {"ProjectID": "P7549", "id": null}, "geometry": {"type": "MultiLineString", "coordinates": [[[-73.774367, 5.313296], [-73.794265, 5.308669], [-73.821105, 5.288508], [-73.832877, 5.266939], [-73.840411, 5.263188], [-73.849829, 5.256623], [-73.860189, 5.245838], [-73.860659, 5.231302]]]}},
{"type": "Feature", "properties": {"ProjectID": "P7549", "id": null}, "geometry": {"type": "MultiLineString", "coordinates": [[[-74.878571, 5.177508], [-74.858463, 5.177843], [-74.837273, 5.184408], [-74.804311, 5.196601]]]}},
{"type": "Feature", "properties": {"ProjectID": "P7549", "id": null}, "geometry": {"type": "MultiLineString", "coordinates": [[[-74.929095, 4.818987], [-74.946047, 4.825556], [-74.96865, 4.836817], [-74.98466, 4.843386], [-75.001612, 4.849016], [-75.013855, 4.865907], [-75.026098, 4.882798], [-75.039282, 4.893119], [-75.055292, 4.897811]]]}},
{"type": "Feature", "properties": {"ProjectID": "P7549", "id": null}, "geometry": {"type": "MultiLineString", "coordinates": [[[-74.932737, 4.796124], [-74.90461, 4.795525], [-74.87306, 4.792241], [-74.839628, 4.790833], [-74.817496, 4.778633], [-74.803369, 4.76784], [-74.783121, 4.769717]]]}},
{"type": "Feature", "properties": {"ProjectID": "P7549", "id": null}, "geometry": {"type": "MultiLineString", "coordinates": [[[-74.946047, 4.556174], [-74.933333, 4.548664], [-74.924151, 4.542796], [-74.907906, 4.542327], [-74.884362, 4.543265]]]}},
{"type": "Feature", "properties": {"ProjectID": "P7549", "id": null}, "geometry": {"type": "MultiLineString", "coordinates": [[[-75.011971, 4.41675], [-74.996432, 4.412994], [-74.978303, 4.416985]]]}},
{"type": "Feature", "properties": {"ProjectID": "P7549", "id": null}, "geometry": {"type": "MultiLineString", "coordinates": [[[-74.996432, 4.221418], [-75.014561, 4.205921], [-75.030571, 4.177744], [-75.047052, 4.15661], [-75.071538, 4.132188], [-75.090373, 4.11622], [-75.096966, 4.102599], [-75.107796, 4.088978], [-75.114859, 4.082403], [-75.125219, 4.057039], [-75.140758, 4.050933], [-75.155355, 4.044827]]]}},
{"type": "Feature", "properties": {"ProjectID": "P7549", "id": null}, "geometry": {"type": "MultiLineString", "coordinates": [[[-74.716256, 5.367275], [-74.69862, 5.397022], [-74.690144, 5.412961], [-74.692027, 5.427024], [-74.681668, 5.435462]]]}},
{"type": "Feature", "properties": {"ProjectID": "P7549", "id": null}, "geometry": {"type": "MultiLineString", "coordinates": [[[-73.790733, 5.345709], [-73.801586, 5.344749]]]}},
{"type": "Feature", "properties": {"ProjectID": "P7549", "id": null}, "geometry": {"type": "MultiLineString", "coordinates": [[[-73.90092, 5.170339], [-73.899647, 5.19271]]]}},
{"type": "Feature", "properties": {"ProjectID": "P7549", "id": null}, "geometry": {"type": "MultiLineString", "coordinates": [[[-74.992194, 4.25476], [-74.915347, 4.267188], [-74.861921, 4.277349], [-74.837131, 4.279367], [-74.818664, 4.278358]]]}}
]
}
