{
"type": "FeatureCollection",
"features": [
{"type": "Feature", "properties": {"ProjectID": "P7550", "id": null}, "geometry": {"type": "MultiLineString", "coordinates": [[[-74.870404, 5.220846], [-74.89333, 5.213461], [-74.944186, 5.208302], [-74.982327, 5.190014], [-75.035537, 5.174538], [-75.069912, 5.159531], [-75.097694, 5.144523], [-75.123547, 5.131098], [-75.14612, 5.129545], [-75.161217, 5.118435], [-75.205056, 5.107472], [-75.237076, 5.078393], [-75.261562, 5.072764], [-75.280397, 5.069012], [-75.287931, 5.055879], [-75.311475, 5.05025], [-75.344437, 5.045559], [-75.378341, 5.040869], [-75.402827, 5.034302], [-75.437672, 5.007095], [-75.476285, 5.003343], [-75.49512, 4.993961], [-75.508305, 4.981764], [-75.554452, 4.978011], [-75.610016, 4.981764], [-75.62791, 4.982702], [-75.653337, 4.977073], [-75.669347, 4.970506], [-75.684416, 4.979888], [-75.707018, 4.993961], [-75.724912, 4.997714], [-75.736213, 5.031487], [-75.752223, 5.018353], [-75.759757, 4.988332], [-75.771058, 4.971444], [-75.773884, 4.94142], [-75.784243, 4.919839], [-75.797428, 4.905765], [-75.796486, 4.88043], [-75.785185, 4.862601], [-75.791777, 4.846648], [-75.801195, 4.828818], [-75.816263, 4.816619], [-75.844516, 4.800665], [-75.870886, 4.776264], [-75.880303, 4.756556], [-75.883129, 4.744355], [-75.871828, 4.733092], [-75.871828, 4.717137], [-75.87842, 4.702119], [-75.893488, 4.676776], [-75.912324, 4.670206], [-75.933984, 4.661758], [-75.964121, 4.576336], [-75.996141, 4.513436], [-76.014035, 4.472125], [-76.036637, 4.443958], [-76.04888, 4.410155], [-76.055472, 4.388558], [-76.041346, 4.381046], [-76.04888, 4.358509], [-76.056414, 4.344424], [-76.054531, 4.314373], [-76.070541, 4.294652], [-76.094085, 4.256147], [-76.110095, 4.236424], [-76.133639, 4.225153], [-76.154358, 4.189463], [-76.164717, 4.149074], [-76.174135, 4.119955], [-76.168485, 4.103986], [-76.154358, 4.085199], [-76.151533, 4.071108], [-76.157183, 4.053259], [-76.17131, 4.038229], [-76.189203, 4.032592], [-76.206155, 4.029774], [-76.224991, 4.00159], [-76.236292, 3.980921], [-76.260778, 3.943341], [-76.278671, 3.913275], [-76.297507, 3.890725], [-76.295623, 3.868174], [-76.29939, 3.810855], [-76.307866, 3.772327], [-76.321993, 3.758231], [-76.32576, 3.742255], [-76.332352, 3.715942], [-76.346479, 3.697146], [-76.360605, 3.668011], [-76.367198, 3.655793], [-76.381324, 3.650154], [-76.395451, 3.638876], [-76.399218, 3.623838], [-76.396392, 3.610679], [-76.395451, 3.574022], [-76.401101, 3.555224], [-76.418053, 3.550524], [-76.43218, 3.552404], [-76.441597, 3.543944], [-76.456666, 3.538304], [-76.490478, 3.545451]]]}},
{"type": "Feature", "properties": {"ProjectID": "P7550", "id": null}, "geometry": {"type": "MultiLineString", "coordinates": [[[-76.352148, 3.685453], [-76.321051, 3.67459], [-76.300332, 3.655793], [-76.290914, 3.627597], [-76.289973, 3.593761], [-76.290914, 3.575902], [-76.303157, 3.556164], [-76.30975, 3.541124], [-76.30975, 3.521385], [-76.312575, 3.493184], [-76.302216, 3.480964], [-76.287147, 3.477204], [-76.270196, 3.477204], [-76.256069, 3.458403], [-76.237234, 3.42362], [-76.231583, 3.407639]]]}},
{"type": "Feature", "properties": {"ProjectID": "P7550", "id": null}, "geometry": {"type": "MultiLineString", "coordinates": [[[-76.231583, 3.407639], [-76.257953, 3.395417], [-76.276788, 3.387897], [-76.288089, 3.378495], [-76.302216, 3.381316], [-76.321051, 3.378495], [-76.33141, 3.371914], [-76.339886, 3.353111], [-76.356838, 3.338069], [-76.382184, 3.306161], [-76.472775, 3.287915], [-76.506672, 3.283369], [-76.542087, 3.271752], [-76.55015, 3.263734]]]}},
{"type": "Feature", "properties": {"ProjectID": "P7550", "id": null}, "geometry": {"type": "MultiLineString", "coordinates": [[[-76.379441, 3.42268], [-76.355896, 3.41939], [-76.351658, 3.406699], [-76.355426, 3.378965], [-76.356838, 3.363923], [-76.363901, 3.353581], [-76.367669, 3.340419], [-76.362132, 3.331404]]]}},
{"type": "Feature", "properties": {"ProjectID": "P7550", "id": null}, "geometry": {"type": "MultiLineString", "coordinates": [[[-76.30975, 3.541124], [-76.284793, 3.553344], [-76.269254, 3.563683], [-76.248064, 3.565093], [-76.231583, 3.567913], [-76.216515, 3.577312], [-76.200505, 3.584362], [-76.171781, 3.587651], [-76.143999, 3.586242]]]}},
{"type": "Feature", "properties": {"ProjectID": "P7550", "id": null}, "geometry": {"type": "MultiLineString", "coordinates": [[[-76.314676, 3.668807], [-76.301745, 3.679289], [-76.284322, 3.685398], [-76.271608, 3.690567], [-76.257011, 3.705604], [-76.25654, 3.720641]]]}},
{"type": "Feature", "properties": {"ProjectID": "P7550", "id": null}, "geometry": {"type": "MultiLineString", "coordinates": [[[-76.041346, 4.381046], [-76.017802, 4.382455], [-75.999437, 4.375412], [-75.987194, 4.368839], [-75.972126, 4.373534], [-75.951878, 4.376821], [-75.933984, 4.384802], [-75.905731, 4.39607], [-75.882658, 4.410625], [-75.871357, 4.421892], [-75.850638, 4.428934], [-75.835569, 4.443488], [-75.824739, 4.453816], [-75.781889, 4.460858], [-75.752223, 4.475411], [-75.739038, 4.479167], [-75.740922, 4.507333], [-75.733859, 4.533151], [-75.737626, 4.561315], [-75.751281, 4.587601], [-75.74516, 4.596519], [-75.7348, 4.595111], [-75.727266, 4.589009], [-75.710785, 4.589948], [-75.700897, 4.598866], [-75.683003, 4.604967], [-75.653808, 4.609661], [-75.635444, 4.608253], [-75.614725, 4.616232], [-75.590239, 4.61013], [-75.568578, 4.609192]]]}},
{"type": "Feature", "properties": {"ProjectID": "P7550", "id": null}, "geometry": {"type": "MultiLineString", "coordinates": [[[-75.635444, 4.608253], [-75.640623, 4.596519], [-75.652396, 4.58807], [-75.675469, 4.579621]]]}},
{"type": "Feature", "properties": {"ProjectID": "P7550", "id": null}, "geometry": {"type": "MultiLineString", "coordinates": [[[-75.676282, 4.606048], [-75.671231, 4.629374], [-75.658517, 4.652372]]]}},
{"type": "Feature", "properties": {"ProjectID": "P7550", "id": null}, "geometry": {"type": "MultiLineString", "coordinates": [[[-75.739038, 4.479167], [-75.722557, 4.473533], [-75.710314, 4.465553], [-75.70278, 4.463675], [-75.689125, 4.465553], [-75.678765, 4.477289], [-75.668877, 4.482922], [-75.646274, 4.487617]]]}},
{"type": "Feature", "properties": {"ProjectID": "P7550", "id": null}, "geometry": {"type": "MultiLineString", "coordinates": [[[-76.011561, 4.477835], [-76.024865, 4.494658], [-76.033812, 4.51015], [-76.042758, 4.516252], [-76.063007, 4.514844], [-76.069128, 4.506394], [-76.073366, 4.488086], [-76.081842, 4.474472], [-76.087492, 4.462267], [-76.095027, 4.447244], [-76.098323, 4.435038], [-76.108211, 4.420953], [-76.127047, 4.402643]]]}},
{"type": "Feature", "properties": {"ProjectID": "P7550", "id": null}, "geometry": {"type": "MultiLineString", "coordinates": [[[-75.844516, 4.800665], [-75.863823, 4.798788], [-75.87842, 4.80348], [-75.8836, 4.826472], [-75.892546, 4.840548], [-75.903848, 4.852279], [-75.917503, 4.846179], [-75.932101, 4.827411], [-75.945756, 4.810988], [-75.95847, 4.79738], [-75.967417, 4.790342], [-75.984369, 4.786119]]]}},
{"type": "Feature", "properties": {"ProjectID": "P7550", "id": null}, "geometry": {"type": "MultiLineString", "coordinates": [[[-75.903848, 4.852279], [-75.909969, 4.8687], [-75.93163, 4.886529], [-75.949053, 4.903888], [-75.956587, 4.917494], [-75.950465, 4.931099], [-75.950936, 4.945173], [-75.964592, 4.959247], [-75.981073, 4.984579]]]}},
{"type": "Feature", "properties": {"ProjectID": "P7550", "id": null}, "geometry": {"type": "MultiLineString", "coordinates": [[[-75.909969, 4.8687], [-75.887838, 4.887937]]]}},
{"type": "Feature", "properties": {"ProjectID": "P7550", "id": null}, "geometry": {"type": "MultiLineString", "coordinates": [[[-75.798999, 4.832976], [-75.794132, 4.815211], [-75.786127, 4.805357], [-75.776238, 4.799726]]]}},
{"type": "Feature", "properties": {"ProjectID": "P7550", "id": null}, "geometry": {"type": "MultiLineString", "coordinates": [[[-75.773884, 4.94142], [-75.758815, 4.934852], [-75.739509, 4.926407]]]}},
{"type": "Feature", "properties": {"ProjectID": "P7550", "id": null}, "geometry": {"type": "MultiLineString", "coordinates": [[[-75.62791, 4.982702], [-75.62791, 5.011317]]]}},
{"type": "Feature", "properties": {"ProjectID": "P7550", "id": null}, "geometry": {"type": "MultiLineString", "coordinates": [[[-75.62791, 4.982702], [-75.620375, 4.969567], [-75.618492, 4.958309], [-75.61755, 4.945642], [-75.620375, 4.929222], [-75.623201, 4.917025], [-75.62838, 4.908111], [-75.626497, 4.89732], [-75.62273, 4.888875], [-75.623201, 4.876676], [-75.634502, 4.866823], [-75.640153, 4.856501], [-75.654279, 4.843364]]]}},
{"type": "Feature", "properties": {"ProjectID": "P7550", "id": null}, "geometry": {"type": "MultiLineString", "coordinates": [[[-75.486833, 4.998089], [-75.507363, 5.016477]]]}},
{"type": "Feature", "properties": {"ProjectID": "P7550", "id": null}, "geometry": {"type": "MultiLineString", "coordinates": [[[-75.437672, 5.007095], [-75.445207, 5.021168], [-75.447561, 5.033833], [-75.454624, 5.040869], [-75.4631, 5.054002], [-75.464042, 5.076986], [-75.481936, 5.088711], [-75.481936, 5.107941], [-75.483348, 5.123419], [-75.497004, 5.131861], [-75.514897, 5.143585]]]}},
{"type": "Feature", "properties": {"ProjectID": "P7550", "id": null}, "geometry": {"type": "MultiLineString", "coordinates": [[[-75.237076, 5.078393], [-75.225304, 5.062914], [-75.199405, 5.054471], [-75.187162, 5.050719]]]}},
{"type": "Feature", "properties": {"ProjectID": "P7550", "id": null}, "geometry": {"type": "MultiLineString", "coordinates": [[[-75.05665, 5.165321], [-75.064261, 5.184386], [-75.073208, 5.201268], [-75.086393, 5.220964], [-75.103345, 5.223308], [-75.147608, 5.233156]]]}},
{"type": "Feature", "properties": {"ProjectID": "P7550", "id": null}, "geometry": {"type": "MultiLineString", "coordinates": [[[-75.035537, 5.174538], [-75.03695, 5.151089]]]}},
{"type": "Feature", "properties": {"ProjectID": "P7550", "id": null}, "geometry": {"type": "MultiLineString", "coordinates": [[[-75.897808, 4.401068], [-75.876066, 4.384567], [-75.85464, 4.369543], [-75.838159, 4.343484], [-75.842162, 4.325877], [-75.858878, 4.314138], [-75.865471, 4.300991], [-75.878655, 4.296295], [-75.896549, 4.287843], [-75.91821, 4.261547]]]}},
{"type": "Feature", "properties": {"ProjectID": "P7550", "id": null}, "geometry": {"type": "MultiLineString", "coordinates": [[[-75.794372, 4.458807], [-75.782595, 4.439967]]]}}
]
}
