{
"type": "FeatureCollection",
"features": [
{"type": "Feature", "id": "way/124896822", "properties": {"ProjectID": "P7560", "@id": "way/124896822", "diameter": "325 mm", "flow_direction": "forward", "layer": "-1", "location": "underground", "man_made": "pipeline", "name": "Отвод к ГРС Кондопога", "operator": "ООО «Газпром трансгаз Санкт-Петербург»", "pressure": "54", "substance": "gas", "usage": "transmission"}, "geometry": {"type": "LineString", "coordinates": [[34.244165, 61.744717], [34.237854, 61.744905], [34.237464, 61.744979], [34.218568, 61.753393], [34.218284, 61.753446], [34.199766, 61.754157], [34.199438, 61.75425], [34.169939, 61.780392], [34.169564, 61.780623], [34.117594, 61.804387], [34.117458, 61.804566], [34.120209, 61.814412], [34.120521, 61.814602], [34.128488, 61.816527], [34.128657, 61.816672], [34.128253, 61.819612], [34.128411, 61.819769], [34.141573, 61.823779], [34.141822, 61.823933], [34.147797, 61.831474], [34.148018, 61.831675], [34.151239, 61.833923], [34.151812, 61.834016], [34.157689, 61.8332], [34.158114, 61.833219], [34.176494, 61.838769], [34.176665, 61.838973], [34.175319, 61.84176], [34.175426, 61.841978], [34.181387, 61.845287], [34.181827, 61.845462], [34.192162, 61.848688], [34.192458, 61.848912], [34.19254, 61.849163], [34.192456, 61.856253], [34.192581, 61.856423], [34.195635, 61.857957], [34.195812, 61.858123], [34.196308, 61.859203], [34.196454, 61.859363], [34.201177, 61.86327], [34.201324, 61.863519], [34.202749, 61.877518], [34.202858, 61.87774], [34.211797, 61.888573], [34.211717, 61.888744], [34.208884, 61.889709], [34.20877, 61.889848], [34.209987, 61.894993], [34.209894, 61.895152], [34.20062, 61.900338], [34.200618, 61.900459], [34.202505, 61.901723], [34.205795, 61.904813], [34.205802, 61.904953], [34.204752, 61.906298], [34.20479, 61.908187], [34.202081, 61.911463], [34.202149, 61.911617], [34.203439, 61.912355], [34.203498, 61.912502], [34.202903, 61.913428], [34.203024, 61.913552], [34.208575, 61.915294], [34.209095, 61.915438], [34.210472, 61.915743], [34.218872, 61.917596], [34.219248, 61.917777], [34.219976, 61.918635], [34.22644, 61.926253], [34.226505, 61.926587], [34.224997, 61.932638], [34.222106, 61.940935], [34.222115, 61.941304], [34.226081, 61.952453], [34.226306, 61.95267], [34.230287, 61.954724], [34.230512, 61.954961], [34.2318, 61.958133], [34.231991, 61.958352], [34.232479, 61.958782], [34.232515, 61.958918], [34.232479, 61.959707], [34.232564, 61.959953], [34.233952, 61.962538], [34.234107, 61.962675], [34.234673, 61.962978], [34.234787, 61.963164], [34.234633, 61.965906], [34.234676, 61.966294], [34.237207, 61.977365], [34.237122, 61.977693], [34.236896, 61.977955], [34.236017, 61.978636], [34.235802, 61.978983], [34.23577, 61.979321], [34.236285, 61.980057], [34.236371, 61.980319], [34.236253, 61.980626], [34.235706, 61.981307], [34.235555, 61.981599], [34.235008, 61.983534], [34.234858, 61.983792], [34.229858, 61.989722], [34.229665, 61.99002], [34.228936, 61.991012], [34.228646, 61.991299], [34.226661, 61.992902], [34.226468, 61.993164], [34.224902, 61.997022], [34.224698, 61.99742], [34.220771, 62.004518], [34.220481, 62.004881], [34.205884, 62.019937], [34.205875, 62.020123], [34.209156, 62.024034], [34.209253, 62.024331], [34.206825, 62.037559], [34.206841, 62.037933], [34.209258, 62.051674], [34.209205, 62.052121], [34.204088, 62.066105], [34.203917, 62.066381], [34.189692, 62.081187], [34.149625, 62.122108], [34.149429, 62.122431], [34.14299, 62.13624], [34.142835, 62.136411], [34.14165, 62.137147], [34.14156, 62.13728], [34.138841, 62.152931], [34.138959, 62.153137], [34.140286, 62.154033], [34.145069, 62.157262], [34.147667, 62.159015], [34.147756, 62.159333], [34.138229, 62.184008], [34.138214, 62.184253], [34.138391, 62.184963], [34.1383, 62.18504], [34.13778, 62.185104], [34.137689, 62.185188], [34.138177, 62.186517], [34.138295, 62.186563], [34.13927, 62.186514], [34.139445, 62.186561], [34.147399, 62.192864], [34.14775, 62.19301], [34.153015, 62.193988], [34.153365, 62.194105], [34.165951, 62.203362], [34.16622, 62.203605], [34.169375, 62.206783], [34.169732, 62.207048], [34.179843, 62.214025], [34.18227, 62.215731], [34.187317, 62.219076], [34.187416, 62.219204], [34.187459, 62.219406]]}}
]
}
