{
"type": "FeatureCollection",
"features": [
{"type": "Feature", "id": "way/228023751", "properties": {"ProjectID": "P7612", "@id": "way/228023751", "diameter": "720", "man_made": "pipeline", "name": "Газопровод Мыльджино - Вертикос", "substance": "gas", "usage": "transmission"}, "geometry": {"type": "LineString", "coordinates": [[78.433349, 58.769329], [78.43366, 58.769391], [78.44867, 58.77067], [78.450472, 58.770525], [78.458841, 58.768901], [78.470535, 58.767254], [78.471715, 58.767254], [78.472758, 58.767566], [78.481929, 58.792546], [78.484386, 58.799428], [78.486167, 58.804351], [78.487156, 58.806463], [78.502788, 58.839266], [78.501629, 58.846327], [78.483819, 58.854255], [78.484195, 58.876278], [78.426978, 58.922835], [78.427053, 58.936567], [78.432632, 58.940464], [78.433705, 58.94203], [78.451375, 58.977785], [78.54283, 58.990494], [78.643017, 59.024178], [78.694156, 59.024478], [78.788532, 59.027286], [78.896352, 59.039664], [78.924639, 59.042814], [78.973401, 59.068328], [79.005016, 59.071183], [79.006441, 59.079631], [79.007293, 59.083718], [79.010697, 59.101818], [79.012098, 59.103521], [79.015421, 59.105643], [79.022854, 59.11112], [79.033067, 59.115377], [79.051567, 59.12079], [79.151971, 59.149486], [79.274415, 59.214177], [79.399736, 59.280261], [79.432317, 59.292566], [79.440724, 59.294559], [79.531591, 59.330989], [79.590674, 59.361074], [79.596117, 59.363892], [79.599174, 59.365484], [79.602739, 59.367218], [79.606295, 59.368271], [79.610782, 59.369258], [79.618833, 59.369504], [79.652545, 59.384401]]}}
]
}
