{
"type": "FeatureCollection",
"features": [
{"type": "Feature", "properties": {"ProjectID": "P7627", "id": 1, "Name": "Yemen LNG Gas Pipeline Spur Line"}, "geometry": {"type": "LineString", "coordinates": [[45.767541, 15.554407], [45.697888, 15.529083], [45.627651, 15.534917], [45.57134, 15.512748], [45.549542, 15.484741], [45.483543, 15.4649], [45.445397, 15.452645], [45.412095, 15.432218], [45.378792, 15.406535], [45.211194, 15.391446], [45.106851, 15.422881], [44.950338, 15.485737], [44.87827, 15.501781], [44.811216, 15.479305], [44.735133, 15.391446], [44.611227, 15.240491], [44.504527, 15.091455], [44.423592, 14.989243], [44.367561, 14.899015], [44.316273, 14.823754], [44.299847, 14.798345]]}}
]
}
