{
"type": "FeatureCollection",
"features": [
{"type": "Feature", "properties": {"ProjectID": "P7653", "id": null}, "geometry": {"type": "MultiLineString", "coordinates": [[[-67.435908, -15.615646], [-67.432917, -15.622297], [-67.430874, -15.6282], [-67.428734, -15.631385], [-67.426399, -15.634945], [-67.421535, -15.636725], [-67.41813, -15.63813], [-67.413461, -15.642065], [-67.412877, -15.643376], [-67.415114, -15.645905], [-67.415601, -15.649652], [-67.417838, -15.65546], [-67.418908, -15.659582], [-67.419298, -15.662673], [-67.420757, -15.666419], [-67.420854, -15.669885], [-67.420076, -15.673819], [-67.419103, -15.677378], [-67.418519, -15.679907], [-67.4192, -15.684496], [-67.421438, -15.689554], [-67.423675, -15.693487], [-67.426107, -15.697421], [-67.429415, -15.70098], [-67.431263, -15.703508], [-67.433792, -15.707254], [-67.436322, -15.708565], [-67.43817, -15.709221], [-67.440018, -15.711749], [-67.440699, -15.71409], [-67.443618, -15.71615], [-67.444882, -15.717742], [-67.446633, -15.720552], [-67.449357, -15.72205], [-67.452665, -15.724485], [-67.454902, -15.726451], [-67.455194, -15.728698], [-67.456264, -15.732538], [-67.457237, -15.73441], [-67.458696, -15.736189], [-67.458988, -15.738062], [-67.458794, -15.739935], [-67.459766, -15.742931], [-67.460739, -15.744616], [-67.463171, -15.746395], [-67.466284, -15.747706], [-67.469397, -15.747706], [-67.472218, -15.748081], [-67.474942, -15.75014], [-67.476791, -15.751826], [-67.480001, -15.753792], [-67.482725, -15.756882], [-67.483795, -15.758192], [-67.485351, -15.760533], [-67.487297, -15.762312], [-67.487783, -15.765401], [-67.489632, -15.770176], [-67.491577, -15.77261], [-67.492453, -15.774951], [-67.492453, -15.777478], [-67.493912, -15.779819], [-67.493912, -15.78375], [-67.492647, -15.787588], [-67.491772, -15.789273], [-67.492258, -15.79049], [-67.494593, -15.791426], [-67.497414, -15.793392], [-67.499554, -15.796762], [-67.499943, -15.800132], [-67.498095, -15.802659], [-67.495274, -15.806123], [-67.494885, -15.809867], [-67.494593, -15.814827], [-67.492161, -15.818291], [-67.490021, -15.819975], [-67.489632, -15.821566], [-67.490313, -15.823626], [-67.491091, -15.825965], [-67.490799, -15.829241], [-67.492453, -15.831862], [-67.494593, -15.835325], [-67.496247, -15.838881], [-67.497803, -15.842905], [-67.500527, -15.846087], [-67.502959, -15.848988], [-67.507142, -15.850673], [-67.513271, -15.851796]]]}}
]
}
