{
"type": "FeatureCollection",
"features": [
{"type": "Feature", "properties": {"ProjectID": "P7684", "id": 1, "Name": "ESTIDAMA Package 8"}, "geometry": {"type": "LineString", "coordinates": [[53.731381, 23.913414], [53.732014, 23.90936], [53.724158, 23.90015], [53.696559, 23.875399], [53.68193, 23.867856], [53.667923, 23.854762], [53.652515, 23.858178], [53.645823, 23.854192], [53.642554, 23.844513], [53.633104, 23.85053], [53.615241, 23.827442], [53.506639, 23.827324], [53.458274, 23.82792], [53.355771, 23.847276], [53.28964, 23.848788], [53.101381, 23.95975], [53.02738, 24.008157], [52.876392, 24.057272], [52.676616, 24.125439], [52.656056, 24.134455], [52.661129, 24.141522]]}}
]
}
