{
"type": "FeatureCollection",
"features": [
{"type": "Feature", "properties": {"ProjectID": "P7683", "id": 1, "Name": "ESTIDAMA Package 4"}, "geometry": {"type": "LineString", "coordinates": [[55.800966, 24.745323], [55.658948, 25.32601]]}},
{"type": "Feature", "properties": {"ProjectID": "P7683", "id": 2, "Name": "ESTIDAMA Package 7"}, "geometry": {"type": "LineString", "coordinates": [[55.61763, 24.9779], [55.613834, 24.975812], [55.511679, 24.966138], [55.489946, 24.962522], [55.463231, 24.956567], [55.411181, 24.958783], [55.393315, 24.954093], [55.35068, 24.948969], [55.291245, 24.955318], [55.235945, 24.950152], [55.19141, 24.870298], [55.08081, 24.791758], [55.037969, 24.753434], [54.98493, 24.700085], [54.850952, 24.603815], [54.773117, 24.614334], [54.715916, 24.621121], [54.697595, 24.579818], [54.692483, 24.539499], [54.673995, 24.484274], [54.667539, 24.401655], [54.632539, 24.334694], [54.596069, 24.303475], [54.512493, 24.276158], [54.491645, 24.266264], [54.455344, 24.232335], [54.411948, 24.2129], [54.398454, 24.196466], [54.374645, 24.166575], [54.278667, 24.10689], [54.278667, 24.10689]]}}
]
}
