{
"type": "FeatureCollection",
"features": [
{"type": "Feature", "properties": {"ProjectID": "P7695", "OBJECTID": 632, "NOMBRE": "GASODUCTO COLPA - MINEROS", "longitud_km": 63.67966845, "pais": "BOLIVIA", "Shape__Length": 0.5829209353938267}, "geometry": {"type": "LineString", "coordinates": [[-63.270956, -17.524592], [-63.270901, -17.525039], [-63.270861, -17.525489], [-63.270856, -17.525938], [-63.270854, -17.526389], [-63.27088, -17.526838], [-63.270941, -17.527281], [-63.270968, -17.52773], [-63.270967, -17.528174], [-63.270948, -17.528625], [-63.270932, -17.529075], [-63.270864, -17.52952], [-63.270825, -17.529969], [-63.270782, -17.530416], [-63.270738, -17.530864], [-63.270625, -17.531058], [-63.270437, -17.531193], [-63.270016, -17.531392], [-63.269593, -17.531588], [-63.269173, -17.531789], [-63.268751, -17.531987], [-63.268335, -17.53219], [-63.267913, -17.532389], [-63.267488, -17.53258], [-63.267065, -17.532776], [-63.266636, -17.53296], [-63.26619, -17.533099], [-63.26575, -17.533252], [-63.265337, -17.533456], [-63.264902, -17.533606], [-63.264491, -17.533827], [-63.264068, -17.534023], [-63.263641, -17.534211], [-63.26322, -17.534409], [-63.262796, -17.534605], [-63.262373, -17.534803], [-63.26196, -17.535014], [-63.261549, -17.535229], [-63.261113, -17.5354], [-63.260677, -17.535568], [-63.260247, -17.535753], [-63.259832, -17.535951], [-63.259415, -17.536157], [-63.258994, -17.536357], [-63.25857, -17.536547], [-63.258152, -17.536753], [-63.257725, -17.536939], [-63.257307, -17.537146], [-63.256906, -17.53738], [-63.25657, -17.537695], [-63.256262, -17.538036], [-63.255882, -17.538296], [-63.255455, -17.538486], [-63.255017, -17.538651], [-63.254579, -17.538817], [-63.25414, -17.538957], [-63.2537, -17.539114], [-63.253259, -17.539272], [-63.252818, -17.539431], [-63.252381, -17.539597], [-63.251993, -17.539845], [-63.251652, -17.540155], [-63.251302, -17.540458], [-63.250947, -17.540751], [-63.250588, -17.541043], [-63.25023, -17.541335], [-63.24988, -17.541635], [-63.249524, -17.54193], [-63.249129, -17.542156], [-63.248676, -17.542042], [-63.248236, -17.541886], [-63.247796, -17.541728], [-63.247358, -17.541567], [-63.246921, -17.541401], [-63.246477, -17.541253], [-63.246025, -17.54113], [-63.245579, -17.540986], [-63.245138, -17.54083], [-63.244695, -17.540679], [-63.244251, -17.540532], [-63.24381, -17.540375], [-63.243365, -17.540233], [-63.242919, -17.540089], [-63.242468, -17.539962], [-63.242021, -17.53982], [-63.241577, -17.53967], [-63.241141, -17.539504], [-63.240699, -17.539351], [-63.240262, -17.539184], [-63.239839, -17.538987], [-63.239424, -17.538777], [-63.239007, -17.53857], [-63.238594, -17.538354], [-63.238187, -17.538129], [-63.237776, -17.537911], [-63.237343, -17.537738], [-63.23689, -17.537616], [-63.236439, -17.537486], [-63.235989, -17.537357], [-63.235526, -17.537286], [-63.235057, -17.537255], [-63.234588, -17.537222], [-63.23412, -17.537184], [-63.233661, -17.537097], [-63.233224, -17.536929], [-63.23279, -17.536757], [-63.232355, -17.536585], [-63.231917, -17.536422], [-63.23146, -17.53632], [-63.230991, -17.536301], [-63.23052, -17.536287], [-63.230051, -17.536263], [-63.229581, -17.536243], [-63.229111, -17.536222], [-63.22864, -17.536206], [-63.228172, -17.536186], [-63.227704, -17.536148], [-63.227234, -17.53613], [-63.226763, -17.536132], [-63.2263, -17.536202], [-63.225846, -17.53632], [-63.225395, -17.536444], [-63.224947, -17.53658], [-63.224498, -17.536716], [-63.224052, -17.536858], [-63.223601, -17.536986], [-63.223154, -17.537121], [-63.222706, -17.537258], [-63.222257, -17.537391], [-63.221809, -17.537527], [-63.221365, -17.537674], [-63.220916, -17.537808], [-63.220468, -17.537945], [-63.220019, -17.538077], [-63.219574, -17.538223], [-63.219126, -17.53836], [-63.218676, -17.538492], [-63.218229, -17.53863], [-63.217785, -17.538776], [-63.217329, -17.53888], [-63.216864, -17.538939], [-63.216395, -17.53895], [-63.216195, -17.538901], [-63.216008, -17.538874], [-63.215551, -17.538976], [-63.215091, -17.539075], [-63.214633, -17.539177], [-63.214173, -17.539277], [-63.213716, -17.539382], [-63.213257, -17.539483], [-63.212798, -17.539585], [-63.212339, -17.539685], [-63.211881, -17.539791], [-63.211424, -17.539896], [-63.211348, -17.540056], [-63.211234, -17.540253], [-63.211034, -17.540248], [-63.210809, -17.540187], [-63.21035, -17.540085], [-63.209893, -17.539982], [-63.209435, -17.539879], [-63.208981, -17.539766], [-63.208531, -17.539638], [-63.208082, -17.539505], [-63.207632, -17.539379], [-63.207179, -17.539257], [-63.206726, -17.539141], [-63.206278, -17.539011], [-63.205826, -17.538891], [-63.205379, -17.538755], [-63.204931, -17.538625], [-63.20448, -17.538496], [-63.20403, -17.538365], [-63.203577, -17.538244], [-63.203126, -17.538115], [-63.202675, -17.537987], [-63.202221, -17.53787], [-63.201768, -17.537751], [-63.201318, -17.537622], [-63.200866, -17.537501], [-63.200417, -17.537368], [-63.199963, -17.537254], [-63.19951, -17.537136], [-63.199056, -17.537019], [-63.198603, -17.536899], [-63.198151, -17.536775], [-63.197699, -17.536655], [-63.197246, -17.536531], [-63.196797, -17.536398], [-63.196346, -17.536269], [-63.195894, -17.536146], [-63.195442, -17.536024], [-63.194992, -17.535898], [-63.194541, -17.535769], [-63.194088, -17.535648], [-63.193637, -17.535522], [-63.193185, -17.535399], [-63.192732, -17.535289], [-63.192273, -17.535191], [-63.191813, -17.53511], [-63.191349, -17.535041], [-63.190885, -17.534963], [-63.19042, -17.534895], [-63.189954, -17.534837], [-63.189485, -17.534802], [-63.189016, -17.534768], [-63.188782, -17.53475], [-63.188624, -17.534586], [-63.188316, -17.534244], [-63.188006, -17.533904], [-63.187719, -17.533546], [-63.187583, -17.533363], [-63.187512, -17.533158], [-63.18745, -17.53271], [-63.187369, -17.532266], [-63.187272, -17.531825], [-63.187157, -17.531387], [-63.187052, -17.530947], [-63.18695, -17.530507], [-63.186773, -17.530093], [-63.186542, -17.529708], [-63.186264, -17.529344], [-63.185971, -17.528993], [-63.185706, -17.528622], [-63.185468, -17.528233], [-63.185249, -17.527835], [-63.18508, -17.527414], [-63.184941, -17.526983], [-63.184842, -17.526541], [-63.184756, -17.526097], [-63.184669, -17.525654], [-63.184479, -17.525249], [-63.184179, -17.524902], [-63.183851, -17.524578], [-63.183526, -17.524252], [-63.183241, -17.523894], [-63.183027, -17.523492], [-63.182855, -17.523072], [-63.182685, -17.522651], [-63.182503, -17.522235], [-63.182299, -17.521828], [-63.182032, -17.521458], [-63.181677, -17.521162], [-63.181285, -17.520913], [-63.180862, -17.520715], [-63.180425, -17.520549], [-63.179986, -17.520388], [-63.179543, -17.520237], [-63.179102, -17.520079], [-63.178663, -17.519918], [-63.178221, -17.519761], [-63.177776, -17.519615], [-63.177325, -17.519489], [-63.176879, -17.519346], [-63.17644, -17.519184], [-63.176001, -17.519021], [-63.175563, -17.518856], [-63.175125, -17.518689], [-63.174688, -17.518521], [-63.174253, -17.51835], [-63.173819, -17.518176], [-63.173383, -17.518008], [-63.172944, -17.517844], [-63.172506, -17.51768], [-63.172071, -17.517517], [-63.171631, -17.517358], [-63.171194, -17.517192], [-63.17076, -17.517025], [-63.170323, -17.516859], [-63.169884, -17.516696], [-63.169448, -17.516527], [-63.169015, -17.51635], [-63.168976, -17.516165], [-63.169061, -17.515954], [-63.169237, -17.515535], [-63.169405, -17.515114], [-63.169576, -17.514694], [-63.169752, -17.514276], [-63.16993, -17.513858], [-63.170121, -17.513445], [-63.170298, -17.513027], [-63.170467, -17.512606], [-63.170634, -17.512184], [-63.170811, -17.511767], [-63.170979, -17.511345], [-63.171156, -17.510927], [-63.171323, -17.510505], [-63.171492, -17.510084], [-63.171658, -17.509661], [-63.17183, -17.509241], [-63.171993, -17.508818], [-63.172157, -17.508395], [-63.172326, -17.507974], [-63.172456, -17.507545], [-63.172219, -17.50716], [-63.171947, -17.506792], [-63.171679, -17.506421], [-63.171398, -17.506059], [-63.171125, -17.505691], [-63.170854, -17.505322], [-63.17068, -17.504916], [-63.170778, -17.504483], [-63.170976, -17.504073], [-63.171172, -17.503663], [-63.171372, -17.503254], [-63.17156, -17.502841], [-63.171747, -17.502426], [-63.171938, -17.502014], [-63.172127, -17.501601], [-63.172325, -17.501191], [-63.172522, -17.500781], [-63.17272, -17.500372], [-63.172913, -17.49996], [-63.173114, -17.499552], [-63.173315, -17.499143], [-63.17351, -17.498733], [-63.173717, -17.498327], [-63.173917, -17.497918], [-63.174113, -17.497508], [-63.174314, -17.4971], [-63.174511, -17.496691], [-63.174716, -17.496285], [-63.174901, -17.49587], [-63.175097, -17.49546], [-63.175298, -17.495052], [-63.175493, -17.494641], [-63.175687, -17.494229], [-63.175883, -17.493819], [-63.176073, -17.493407], [-63.176271, -17.492997], [-63.176459, -17.492584], [-63.176649, -17.49217], [-63.176832, -17.491755], [-63.177023, -17.491342], [-63.177218, -17.490931], [-63.177414, -17.490521], [-63.177611, -17.490111], [-63.177804, -17.489699], [-63.177999, -17.489288], [-63.178196, -17.488878], [-63.178399, -17.488471], [-63.178595, -17.488066], [-63.17879, -17.487656], [-63.178985, -17.487245], [-63.17918, -17.486834], [-63.179371, -17.486421], [-63.179567, -17.48601], [-63.179761, -17.485599], [-63.179952, -17.485186], [-63.180144, -17.484774], [-63.180337, -17.484362], [-63.180536, -17.483953], [-63.180731, -17.483542], [-63.180922, -17.48313], [-63.181122, -17.482721], [-63.181322, -17.482313], [-63.18153, -17.481908], [-63.181748, -17.48151], [-63.181949, -17.481102], [-63.182146, -17.480692], [-63.182343, -17.480282], [-63.182534, -17.47987], [-63.182724, -17.479457], [-63.182913, -17.479043], [-63.183091, -17.478626], [-63.183278, -17.478211], [-63.183469, -17.477799], [-63.183657, -17.477385], [-63.183851, -17.476974], [-63.184047, -17.476564], [-63.184245, -17.476154], [-63.184436, -17.475741], [-63.184627, -17.475328], [-63.18482, -17.474917], [-63.185001, -17.4745], [-63.185168, -17.474078], [-63.185301, -17.473646], [-63.185405, -17.473205], [-63.185495, -17.472762], [-63.185586, -17.472319], [-63.185677, -17.471876], [-63.185756, -17.471431], [-63.185848, -17.470988], [-63.185939, -17.470545], [-63.186041, -17.470105], [-63.186138, -17.469663], [-63.186226, -17.469219], [-63.186316, -17.468776], [-63.1864, -17.468332], [-63.186489, -17.467888], [-63.186576, -17.467444], [-63.186661, -17.467], [-63.186752, -17.466557], [-63.186837, -17.466113], [-63.186925, -17.465669], [-63.187013, -17.465225], [-63.187099, -17.464782], [-63.18719, -17.464339], [-63.187277, -17.463895], [-63.187364, -17.463451], [-63.187452, -17.463007], [-63.18754, -17.462564], [-63.18763, -17.462121], [-63.187715, -17.461677], [-63.187804, -17.461235], [-63.18789, -17.460791], [-63.187979, -17.460348], [-63.188066, -17.459904], [-63.188155, -17.459461], [-63.188248, -17.459018], [-63.188337, -17.458575], [-63.188429, -17.458132], [-63.188522, -17.45769], [-63.188609, -17.457246], [-63.188696, -17.456802], [-63.188776, -17.456357], [-63.188878, -17.455917], [-63.188988, -17.455478], [-63.189057, -17.455032], [-63.18913, -17.454586], [-63.1892, -17.45414], [-63.18928, -17.453695], [-63.189369, -17.453252], [-63.189449, -17.452807], [-63.189541, -17.452364], [-63.189629, -17.451921], [-63.189716, -17.451477], [-63.189799, -17.451033], [-63.189898, -17.450591], [-63.189988, -17.450148], [-63.190088, -17.449707], [-63.190187, -17.449267], [-63.190276, -17.448824], [-63.190365, -17.448382], [-63.190454, -17.447939], [-63.190546, -17.447497], [-63.190632, -17.447053], [-63.190714, -17.446609], [-63.190806, -17.446166], [-63.190901, -17.445725], [-63.190987, -17.445281], [-63.191076, -17.444838], [-63.191173, -17.444398], [-63.191263, -17.443955], [-63.19135, -17.443511], [-63.191429, -17.443067], [-63.191513, -17.442623], [-63.191602, -17.44218], [-63.191721, -17.441748], [-63.191777, -17.4413], [-63.191861, -17.440856], [-63.191943, -17.440411], [-63.192029, -17.439968], [-63.192122, -17.439525], [-63.19221, -17.439082], [-63.192288, -17.438636], [-63.192373, -17.438192], [-63.192462, -17.437749], [-63.192552, -17.437306], [-63.192639, -17.436865], [-63.192723, -17.436421], [-63.192811, -17.435978], [-63.19289, -17.435533], [-63.192977, -17.435089], [-63.19306, -17.434644], [-63.193144, -17.4342], [-63.193222, -17.433755], [-63.193309, -17.433311], [-63.193394, -17.432868], [-63.193472, -17.432423], [-63.193562, -17.43198], [-63.193644, -17.431536], [-63.193755, -17.431098], [-63.193845, -17.430655], [-63.193926, -17.43021], [-63.194006, -17.429765], [-63.194097, -17.429322], [-63.194159, -17.428875], [-63.19428, -17.42844], [-63.194362, -17.427999], [-63.194447, -17.427557], [-63.194554, -17.427118], [-63.194606, -17.42667], [-63.194706, -17.42623], [-63.194777, -17.425784], [-63.194872, -17.425343], [-63.194967, -17.424902], [-63.195047, -17.424457], [-63.19512, -17.424012], [-63.19521, -17.423569], [-63.195304, -17.423127], [-63.195391, -17.422683], [-63.195483, -17.42224], [-63.195566, -17.421796], [-63.195646, -17.421351], [-63.195729, -17.420906], [-63.195812, -17.420462], [-63.195909, -17.42002], [-63.196001, -17.419578], [-63.196107, -17.419138], [-63.196217, -17.4187], [-63.196345, -17.418266], [-63.196503, -17.41784], [-63.196657, -17.417416], [-63.196842, -17.417], [-63.19705, -17.416595], [-63.197286, -17.416204], [-63.197534, -17.415821], [-63.197792, -17.415443], [-63.198058, -17.415071], [-63.198356, -17.414729], [-63.198631, -17.414363], [-63.198905, -17.413996], [-63.199192, -17.413638], [-63.199475, -17.413277], [-63.199751, -17.412913], [-63.20003, -17.41255], [-63.200319, -17.412194], [-63.200599, -17.411832], [-63.200875, -17.411467], [-63.201146, -17.411098], [-63.201419, -17.410731], [-63.201699, -17.410369], [-63.201995, -17.410021], [-63.202312, -17.409691], [-63.202585, -17.409326], [-63.20286, -17.40896], [-63.203146, -17.408604], [-63.203434, -17.408247], [-63.203714, -17.407885], [-63.204001, -17.407527], [-63.204285, -17.407167], [-63.204568, -17.406808], [-63.204847, -17.406444], [-63.205128, -17.406082], [-63.205409, -17.405719], [-63.205685, -17.405357], [-63.205976, -17.405003], [-63.206261, -17.404644], [-63.206549, -17.404289], [-63.206833, -17.403929], [-63.207116, -17.403569], [-63.207391, -17.403203], [-63.207669, -17.402839], [-63.207929, -17.402466], [-63.208204, -17.4021], [-63.208491, -17.401746], [-63.208784, -17.401393], [-63.209066, -17.401032], [-63.209353, -17.400675], [-63.209638, -17.400316], [-63.2099, -17.399942], [-63.210181, -17.39958], [-63.210473, -17.399227], [-63.210765, -17.398873], [-63.211061, -17.398522], [-63.211354, -17.39817], [-63.211644, -17.397814], [-63.211929, -17.397456], [-63.21222, -17.397101], [-63.212509, -17.396746], [-63.212782, -17.396378], [-63.21306, -17.396013], [-63.213339, -17.39565], [-63.213628, -17.395295], [-63.213908, -17.394932], [-63.214188, -17.394571], [-63.214468, -17.394208], [-63.214748, -17.393846], [-63.215031, -17.393485], [-63.215316, -17.393127], [-63.215595, -17.392764], [-63.215872, -17.392399], [-63.216154, -17.392038], [-63.216441, -17.391681], [-63.216722, -17.391319], [-63.217012, -17.390964], [-63.217299, -17.390606], [-63.2176, -17.390259], [-63.217908, -17.389919], [-63.218216, -17.389578], [-63.218537, -17.389249], [-63.218849, -17.388911], [-63.219153, -17.388567], [-63.219467, -17.388231], [-63.219766, -17.387884], [-63.220077, -17.387547], [-63.220391, -17.387211], [-63.220711, -17.386881], [-63.221026, -17.386545], [-63.221339, -17.386209], [-63.221646, -17.385867], [-63.221958, -17.385529], [-63.222269, -17.385191], [-63.222579, -17.384852], [-63.222889, -17.384512], [-63.223201, -17.384174], [-63.223513, -17.383836], [-63.223824, -17.383498], [-63.224132, -17.383156], [-63.224447, -17.38282], [-63.224748, -17.382473], [-63.225053, -17.382131], [-63.225369, -17.381797], [-63.225678, -17.381457], [-63.225993, -17.381123], [-63.226316, -17.380798], [-63.22662, -17.380455], [-63.226944, -17.380127], [-63.227236, -17.379775], [-63.227552, -17.379441], [-63.22787, -17.379108], [-63.228185, -17.378774], [-63.228499, -17.378438], [-63.228813, -17.378104], [-63.229125, -17.377767], [-63.229434, -17.377426], [-63.229738, -17.377082], [-63.230042, -17.376742], [-63.230351, -17.376402], [-63.230646, -17.376051], [-63.230959, -17.375715], [-63.231263, -17.375371], [-63.231399, -17.375187], [-63.2314, -17.374976], [-63.231349, -17.374531], [-63.231322, -17.374082], [-63.231235, -17.373638], [-63.23114, -17.373196], [-63.231041, -17.372755], [-63.230943, -17.372314], [-63.230854, -17.371871], [-63.230752, -17.37143], [-63.230651, -17.370989], [-63.230542, -17.37055], [-63.230445, -17.370109], [-63.230342, -17.369668], [-63.230236, -17.369229], [-63.230136, -17.368788], [-63.230036, -17.368347], [-63.229935, -17.367906], [-63.22983, -17.367465], [-63.229731, -17.367024], [-63.229634, -17.366582], [-63.229536, -17.366141], [-63.229436, -17.3657], [-63.229342, -17.365258], [-63.229243, -17.364816], [-63.229145, -17.364375], [-63.229046, -17.363933], [-63.228946, -17.363492], [-63.228844, -17.363052], [-63.228739, -17.362612], [-63.228651, -17.362168], [-63.228562, -17.361725], [-63.228512, -17.361403], [-63.22851, -17.361394], [-63.228508, -17.361377], [-63.228509, -17.361359], [-63.228514, -17.361341], [-63.228521, -17.361324], [-63.228532, -17.361309], [-63.228537, -17.361302], [-63.228543, -17.361295], [-63.228552, -17.361286], [-63.228562, -17.361278], [-63.229026, -17.360933], [-63.229142, -17.360738], [-63.229261, -17.360539], [-63.229378, -17.360344], [-63.229493, -17.360151], [-63.229612, -17.359953], [-63.22973, -17.359756], [-63.229847, -17.359559], [-63.229964, -17.359364], [-63.230081, -17.359168], [-63.230197, -17.358974], [-63.230315, -17.358777], [-63.230432, -17.358581], [-63.230549, -17.358386], [-63.230666, -17.358189], [-63.230785, -17.357991], [-63.230901, -17.357796], [-63.231019, -17.3576], [-63.231136, -17.357404], [-63.231253, -17.357208], [-63.23137, -17.357013], [-63.231488, -17.356816], [-63.231605, -17.356619], [-63.231721, -17.356426], [-63.231839, -17.356228], [-63.231956, -17.356032], [-63.232074, -17.355835], [-63.232189, -17.355643], [-63.232308, -17.355444], [-63.232425, -17.355249], [-63.232542, -17.355052], [-63.232658, -17.354858], [-63.232775, -17.354664], [-63.232892, -17.354468], [-63.23301, -17.354269], [-63.233126, -17.354076], [-63.233245, -17.353879], [-63.233362, -17.353685], [-63.233481, -17.35349], [-63.2336, -17.353293], [-63.233718, -17.353098], [-63.233836, -17.352904], [-63.233956, -17.352707], [-63.234073, -17.352514], [-63.234192, -17.352317], [-63.23431, -17.352122], [-63.234428, -17.351928], [-63.234547, -17.351731], [-63.234666, -17.351536], [-63.234784, -17.351341], [-63.234902, -17.351146], [-63.235139, -17.350756], [-63.235259, -17.350558], [-63.235376, -17.350365], [-63.235495, -17.350169], [-63.235613, -17.349975], [-63.235732, -17.349779], [-63.23585, -17.349584], [-63.235969, -17.349388], [-63.236087, -17.349192], [-63.236203, -17.348999], [-63.236319, -17.348802], [-63.236435, -17.348605], [-63.23655, -17.348409], [-63.236666, -17.348212], [-63.236782, -17.348014], [-63.236898, -17.347817], [-63.237013, -17.347621], [-63.237129, -17.347425], [-63.237244, -17.347228], [-63.23736, -17.347032], [-63.237476, -17.346834], [-63.237592, -17.346637], [-63.237707, -17.346441], [-63.237823, -17.346244], [-63.237938, -17.346048], [-63.23805, -17.345858], [-63.23817, -17.345653], [-63.238285, -17.345458], [-63.238401, -17.345261], [-63.238517, -17.345064], [-63.238634, -17.344866], [-63.238748, -17.34467], [-63.238866, -17.344471], [-63.238981, -17.344275], [-63.239096, -17.344078], [-63.239212, -17.343882], [-63.239327, -17.343687], [-63.239443, -17.343489], [-63.239559, -17.343291], [-63.239674, -17.343096], [-63.23979, -17.342901], [-63.239906, -17.342705], [-63.240022, -17.342509], [-63.24014, -17.342312], [-63.240256, -17.342117], [-63.240373, -17.34192], [-63.24049, -17.341722], [-63.240607, -17.341527], [-63.240723, -17.341331], [-63.24084, -17.341134], [-63.240956, -17.340939], [-63.241074, -17.34074], [-63.24119, -17.340546], [-63.241306, -17.34035], [-63.241423, -17.340154], [-63.241539, -17.339958], [-63.241656, -17.339762], [-63.241773, -17.339565], [-63.241889, -17.339369], [-63.242006, -17.339173], [-63.242123, -17.338976], [-63.24224, -17.338779], [-63.242356, -17.338583], [-63.24247, -17.338388], [-63.242586, -17.33819], [-63.242701, -17.337994], [-63.242816, -17.337797], [-63.242932, -17.3376], [-63.243047, -17.337403], [-63.243163, -17.337206], [-63.243278, -17.337008], [-63.24336, -17.336801], [-63.243434, -17.336612], [-63.243531, -17.336365], [-63.243687, -17.336078], [-63.243992, -17.335591], [-63.244178, -17.335283], [-63.244475, -17.334818], [-63.24472, -17.334445], [-63.244973, -17.334037], [-63.245248, -17.333643], [-63.245501, -17.333299], [-63.245798, -17.332898], [-63.246051, -17.33254], [-63.24617, -17.332389], [-63.246311, -17.332217], [-63.246475, -17.332038], [-63.246645, -17.331839], [-63.246863, -17.331525], [-63.247108, -17.331139], [-63.247367, -17.330763], [-63.247629, -17.330396], [-63.247898, -17.330026], [-63.248157, -17.329649], [-63.248416, -17.329272], [-63.248678, -17.328897], [-63.24894, -17.328522], [-63.249208, -17.328152], [-63.24947, -17.327776], [-63.24973, -17.327401], [-63.249989, -17.327024], [-63.250252, -17.326649], [-63.250525, -17.326283], [-63.250783, -17.325905], [-63.25105, -17.325534], [-63.251339, -17.325178], [-63.25164, -17.324831], [-63.251929, -17.324475], [-63.252229, -17.324128], [-63.252531, -17.323781], [-63.252844, -17.323445], [-63.25315, -17.323102], [-63.253469, -17.322771], [-63.25379, -17.322442], [-63.254085, -17.322091], [-63.254404, -17.321759], [-63.254721, -17.321426], [-63.255038, -17.321091], [-63.255357, -17.32076], [-63.255674, -17.320426], [-63.255993, -17.320094], [-63.256312, -17.319762], [-63.256629, -17.319428], [-63.256947, -17.319096], [-63.257267, -17.318765], [-63.257584, -17.318431], [-63.257902, -17.318098], [-63.25822, -17.317765], [-63.258539, -17.317433], [-63.258857, -17.317101], [-63.259176, -17.316768], [-63.259493, -17.316435], [-63.259812, -17.316103], [-63.260189, -17.315835], [-63.260387, -17.315712], [-63.260355, -17.315528], [-63.260404, -17.315085], [-63.260382, -17.314634], [-63.260347, -17.314184], [-63.26031, -17.313733], [-63.260271, -17.313284], [-63.260225, -17.312834], [-63.260187, -17.312384], [-63.260149, -17.311934], [-63.2601, -17.311485], [-63.260047, -17.311037], [-63.260014, -17.310587], [-63.259981, -17.310137], [-63.259952, -17.309687], [-63.25991, -17.309237], [-63.259836, -17.308791], [-63.259771, -17.308344], [-63.259646, -17.307916], [-63.259408, -17.307527], [-63.259167, -17.307141], [-63.258924, -17.306755], [-63.258675, -17.306373], [-63.258429, -17.305989], [-63.258182, -17.305606], [-63.257925, -17.305228], [-63.25768, -17.304845], [-63.257439, -17.304458], [-63.2572, -17.30407], [-63.256945, -17.303691], [-63.256691, -17.303311], [-63.256447, -17.302925], [-63.256207, -17.302538], [-63.255983, -17.302141], [-63.255775, -17.301737], [-63.255586, -17.301324], [-63.255399, -17.300909], [-63.255208, -17.300497], [-63.255025, -17.300081], [-63.254838, -17.299667], [-63.254659, -17.29925], [-63.254469, -17.298837], [-63.25429, -17.298421], [-63.25411, -17.298006], [-63.25392, -17.297593], [-63.253742, -17.297175], [-63.25356, -17.296759], [-63.253373, -17.296345], [-63.253186, -17.295932], [-63.253005, -17.295515], [-63.252829, -17.295097], [-63.252652, -17.294679], [-63.252467, -17.294264], [-63.25228, -17.29385], [-63.252104, -17.293432], [-63.251922, -17.293015], [-63.251739, -17.2926], [-63.251563, -17.292182], [-63.251375, -17.291769], [-63.251188, -17.291354], [-63.251006, -17.290939], [-63.250819, -17.290525], [-63.250637, -17.290109], [-63.250456, -17.289692], [-63.250271, -17.289278], [-63.250105, -17.288857], [-63.249928, -17.288439], [-63.24975, -17.288021], [-63.249559, -17.287611], [-63.249388, -17.287191], [-63.249209, -17.286773], [-63.249025, -17.286359], [-63.248836, -17.285946], [-63.248657, -17.285528], [-63.24848, -17.28511], [-63.2483, -17.284693], [-63.248118, -17.284277], [-63.24794, -17.283859], [-63.247766, -17.283439], [-63.247576, -17.283027], [-63.247401, -17.282608], [-63.247223, -17.28219], [-63.247042, -17.281774], [-63.246867, -17.281355], [-63.246689, -17.280937], [-63.246515, -17.280518], [-63.24633, -17.280103], [-63.246147, -17.279688], [-63.245971, -17.279269], [-63.24579, -17.278853], [-63.245603, -17.278438], [-63.245422, -17.278022], [-63.245244, -17.277604], [-63.245055, -17.277192], [-63.244869, -17.276778], [-63.244697, -17.276358], [-63.244513, -17.275943], [-63.244322, -17.27553], [-63.244143, -17.275114], [-63.243968, -17.274695], [-63.243792, -17.274276], [-63.243609, -17.27386], [-63.243425, -17.273445], [-63.243243, -17.273028], [-63.243058, -17.272614], [-63.242876, -17.272197], [-63.242692, -17.271782], [-63.242511, -17.271365], [-63.242333, -17.270947], [-63.242153, -17.27053], [-63.241968, -17.270115], [-63.241788, -17.269698], [-63.241603, -17.269284], [-63.241418, -17.268869], [-63.241237, -17.268452], [-63.241053, -17.268037], [-63.240841, -17.267635], [-63.240562, -17.267272], [-63.240273, -17.266917], [-63.239978, -17.266566], [-63.23968, -17.266217], [-63.239381, -17.265869], [-63.239091, -17.265514], [-63.238798, -17.26516], [-63.238506, -17.264807], [-63.238213, -17.264454], [-63.237918, -17.264102], [-63.237625, -17.263749], [-63.237333, -17.263395], [-63.237042, -17.26304], [-63.236734, -17.2627], [-63.236432, -17.262354], [-63.236143, -17.261998], [-63.235852, -17.261644], [-63.235561, -17.261289], [-63.235268, -17.260936], [-63.234975, -17.260583], [-63.234697, -17.26022], [-63.234404, -17.259867], [-63.234104, -17.25952], [-63.233813, -17.259166], [-63.233516, -17.258816], [-63.233211, -17.258473], [-63.232896, -17.25814], [-63.232596, -17.257793], [-63.232306, -17.257438], [-63.232013, -17.257084], [-63.231713, -17.256736], [-63.231429, -17.256377], [-63.231141, -17.25602], [-63.23085, -17.255665], [-63.230556, -17.255313], [-63.230259, -17.254963], [-63.229959, -17.254616], [-63.229663, -17.254265], [-63.22937, -17.253912], [-63.229078, -17.253558], [-63.228791, -17.2532], [-63.228496, -17.252849], [-63.228205, -17.252495], [-63.227911, -17.252143], [-63.227619, -17.251789], [-63.227324, -17.251437], [-63.227028, -17.251086], [-63.226738, -17.250731], [-63.226452, -17.250373], [-63.226165, -17.250015], [-63.225877, -17.249658], [-63.225594, -17.249298], [-63.225306, -17.248941], [-63.225015, -17.248586], [-63.224723, -17.248233], [-63.224431, -17.247879], [-63.224137, -17.247527], [-63.223844, -17.247174], [-63.223549, -17.246822], [-63.223255, -17.24647], [-63.22296, -17.246118], [-63.222666, -17.245766], [-63.222371, -17.245415], [-63.222077, -17.245062], [-63.221784, -17.244709], [-63.22149, -17.244357], [-63.221195, -17.244005], [-63.220905, -17.24365], [-63.22061, -17.243298], [-63.220319, -17.242944], [-63.220025, -17.242591], [-63.219733, -17.242237], [-63.219436, -17.241887], [-63.219141, -17.241536], [-63.218851, -17.241181], [-63.218555, -17.24083], [-63.21826, -17.240478], [-63.217963, -17.240128], [-63.217663, -17.239781], [-63.217362, -17.239434], [-63.217078, -17.239074], [-63.21678, -17.238725], [-63.216487, -17.238373], [-63.216191, -17.238022], [-63.215902, -17.237666], [-63.215603, -17.237317], [-63.215304, -17.236969], [-63.21502, -17.236611], [-63.214798, -17.236214], [-63.214561, -17.235825], [-63.214303, -17.235448], [-63.214022, -17.235087], [-63.21373, -17.234733], [-63.213439, -17.234378], [-63.213155, -17.234019], [-63.213032, -17.23383], [-63.213075, -17.233609], [-63.213222, -17.23318], [-63.213355, -17.232746], [-63.213496, -17.232317], [-63.213631, -17.231884], [-63.213764, -17.231452], [-63.213897, -17.231019], [-63.214031, -17.230586], [-63.214166, -17.230154], [-63.214303, -17.229722], [-63.214435, -17.22929], [-63.214586, -17.228863], [-63.214709, -17.228429], [-63.214856, -17.228], [-63.214993, -17.227568], [-63.215124, -17.227135], [-63.215257, -17.226702], [-63.215392, -17.22627], [-63.215532, -17.225839], [-63.215679, -17.225411], [-63.215814, -17.22498], [-63.215943, -17.224546], [-63.216083, -17.224115], [-63.216229, -17.223686], [-63.216374, -17.223257], [-63.216506, -17.222824], [-63.216642, -17.222392], [-63.216727, -17.22195], [-63.216538, -17.221844], [-63.216311, -17.221785], [-63.215859, -17.221664], [-63.215408, -17.221539], [-63.214954, -17.221425], [-63.214836, -17.221292], [-63.214894, -17.221073], [-63.215015, -17.220637], [-63.21515, -17.220204], [-63.215272, -17.219769], [-63.215408, -17.219336], [-63.215542, -17.218904], [-63.215688, -17.218475], [-63.215823, -17.218042], [-63.215969, -17.217613], [-63.216112, -17.217183], [-63.216249, -17.216751], [-63.216373, -17.216316], [-63.216497, -17.215881], [-63.21661, -17.215443], [-63.216698, -17.215001], [-63.216701, -17.214551], [-63.216694, -17.214102], [-63.216607, -17.213658], [-63.216506, -17.213218], [-63.216424, -17.212774], [-63.216338, -17.212331], [-63.216257, -17.211886], [-63.216199, -17.211438], [-63.216131, -17.210996], [-63.215861, -17.210631], [-63.215568, -17.210278], [-63.215266, -17.209933], [-63.215046, -17.209546], [-63.214965, -17.209102], [-63.214889, -17.208656], [-63.214822, -17.20821], [-63.214769, -17.207761], [-63.214707, -17.207314], [-63.214634, -17.206869], [-63.214561, -17.206422], [-63.2145, -17.205975], [-63.21444, -17.205527], [-63.214387, -17.205079], [-63.214411, -17.204631], [-63.214577, -17.204212], [-63.214798, -17.203814], [-63.214972, -17.203396], [-63.215092, -17.202961], [-63.215113, -17.202512], [-63.21509, -17.202061], [-63.215055, -17.201611], [-63.215026, -17.201161], [-63.214998, -17.200712], [-63.214953, -17.200263], [-63.214904, -17.199814], [-63.214857, -17.199367], [-63.214798, -17.19892], [-63.21476, -17.198471], [-63.21471, -17.198022], [-63.214671, -17.197573], [-63.214641, -17.197123], [-63.21466, -17.196672], [-63.214773, -17.19624], [-63.214925, -17.195814], [-63.21509, -17.195397], [-63.2153, -17.194998], [-63.215451, -17.194571], [-63.215568, -17.194135], [-63.215688, -17.193698], [-63.215772, -17.193255], [-63.21581, -17.192805], [-63.215835, -17.192355], [-63.215898, -17.191917], [-63.215946, -17.191468], [-63.216073, -17.191044], [-63.216303, -17.19065], [-63.216517, -17.190248], [-63.216727, -17.189845], [-63.216935, -17.18944], [-63.217151, -17.189039], [-63.217357, -17.188632], [-63.21757, -17.18823], [-63.217774, -17.187823], [-63.217965, -17.187411], [-63.21817, -17.187004], [-63.218381, -17.186602], [-63.218588, -17.186197], [-63.218796, -17.185792], [-63.218997, -17.185384], [-63.219203, -17.184978], [-63.219402, -17.184569], [-63.219595, -17.184158], [-63.2198, -17.183754], [-63.220008, -17.183351], [-63.22021, -17.182943], [-63.220418, -17.182538], [-63.220627, -17.182133], [-63.220811, -17.181723], [-63.220779, -17.181275], [-63.220742, -17.180825], [-63.2207, -17.180376], [-63.220656, -17.179926], [-63.220615, -17.179477], [-63.220569, -17.179027], [-63.22053, -17.178577], [-63.220492, -17.178127], [-63.220451, -17.177677], [-63.220409, -17.177227], [-63.220368, -17.176777], [-63.220331, -17.176327], [-63.220294, -17.175877], [-63.220238, -17.175429], [-63.220206, -17.174979], [-63.220275, -17.174533], [-63.220376, -17.174092], [-63.220475, -17.173651], [-63.220561, -17.173208], [-63.220654, -17.172766], [-63.22076, -17.172326], [-63.220854, -17.171884], [-63.220951, -17.171442], [-63.221058, -17.171003], [-63.221139, -17.170558], [-63.221227, -17.170114], [-63.221318, -17.169671], [-63.221407, -17.169228], [-63.221502, -17.168786], [-63.221595, -17.168345], [-63.221689, -17.167903], [-63.221787, -17.167461], [-63.221886, -17.167021], [-63.221979, -17.166578], [-63.222065, -17.166135], [-63.222144, -17.16569], [-63.222226, -17.165245], [-63.222325, -17.164804], [-63.222424, -17.164363], [-63.222519, -17.163921], [-63.222617, -17.163479], [-63.222707, -17.163036], [-63.222808, -17.162596], [-63.222901, -17.162153], [-63.222995, -17.161711], [-63.223081, -17.161267], [-63.223161, -17.160823], [-63.223249, -17.160379], [-63.223334, -17.159935], [-63.22342, -17.159493], [-63.223528, -17.159053], [-63.223629, -17.158612], [-63.223733, -17.158172], [-63.223841, -17.157733], [-63.223958, -17.157297], [-63.22405, -17.156854], [-63.224141, -17.156411], [-63.224235, -17.155969], [-63.224327, -17.155526], [-63.224424, -17.155085], [-63.224518, -17.154642], [-63.224614, -17.1542], [-63.224705, -17.153758], [-63.2248, -17.153315], [-63.224895, -17.152873], [-63.224992, -17.152431], [-63.225078, -17.151988], [-63.225168, -17.151545], [-63.225266, -17.151103], [-63.225359, -17.150661], [-63.225453, -17.150218], [-63.225545, -17.149776], [-63.225638, -17.149333], [-63.225731, -17.14889], [-63.225826, -17.148448], [-63.225919, -17.148005], [-63.226007, -17.147562], [-63.226105, -17.147121], [-63.226202, -17.146679], [-63.2263, -17.146237], [-63.226399, -17.145796], [-63.226495, -17.145354], [-63.226599, -17.144914], [-63.226789, -17.144824], [-63.22702, -17.144788], [-63.227481, -17.144702], [-63.227941, -17.144612], [-63.228401, -17.144524], [-63.22886, -17.14443], [-63.229294, -17.144276], [-63.229581, -17.14392], [-63.229831, -17.143538], [-63.230065, -17.143147], [-63.230324, -17.142771], [-63.230575, -17.142391], [-63.230833, -17.142014], [-63.231106, -17.141648], [-63.231384, -17.141285], [-63.231656, -17.140918], [-63.231945, -17.140564], [-63.232284, -17.140257], [-63.232566, -17.139897], [-63.232866, -17.13955], [-63.233135, -17.139182], [-63.233314, -17.138765], [-63.233496, -17.138351], [-63.233677, -17.137935], [-63.233861, -17.137519], [-63.234024, -17.137095], [-63.234188, -17.136673], [-63.234363, -17.136254], [-63.23454, -17.135836], [-63.234713, -17.135416], [-63.234895, -17.135], [-63.235072, -17.134582], [-63.235245, -17.134163], [-63.235419, -17.133743], [-63.235595, -17.133325], [-63.235777, -17.132909], [-63.235955, -17.132491], [-63.236141, -17.132077], [-63.236317, -17.131658], [-63.236488, -17.131239], [-63.236663, -17.130819], [-63.236848, -17.130404], [-63.237023, -17.129985], [-63.237203, -17.129568], [-63.237379, -17.12915], [-63.237559, -17.128733], [-63.237735, -17.128314], [-63.237908, -17.127895], [-63.238079, -17.127474], [-63.238219, -17.127043], [-63.238325, -17.126604], [-63.238415, -17.126161], [-63.2385, -17.125717], [-63.238572, -17.125271], [-63.238641, -17.124824], [-63.238714, -17.124379], [-63.238791, -17.123934], [-63.238873, -17.123489], [-63.238945, -17.123043], [-63.239026, -17.122598], [-63.239102, -17.122153], [-63.239179, -17.121708], [-63.239255, -17.121262], [-63.239335, -17.120818], [-63.239417, -17.120373], [-63.239491, -17.119927], [-63.239563, -17.119481], [-63.239642, -17.119036], [-63.239723, -17.118592], [-63.2398, -17.118146], [-63.239883, -17.117702], [-63.239953, -17.117256], [-63.240041, -17.116813], [-63.240142, -17.116614], [-63.240333, -17.116484], [-63.24079, -17.116432], [-63.241259, -17.116408], [-63.241727, -17.116378], [-63.242196, -17.116347], [-63.242428, -17.116315], [-63.24262, -17.116209], [-63.242785, -17.115787], [-63.24297, -17.115372], [-63.243157, -17.114958], [-63.243343, -17.114544], [-63.243523, -17.114127], [-63.24371, -17.113712], [-63.243898, -17.113299], [-63.244077, -17.112881], [-63.244236, -17.112457], [-63.244345, -17.112018], [-63.244483, -17.111645]]}}
]
}
