{"type":"Feature","properties":{},"geometry":{"type":"LineString","coordinates":[[44.1414706,24.5970394],[44.0555781,24.5871015],[43.9811516,24.5710353],[43.9072581,24.5603156],[43.7620414,24.5387668],[43.6439077,24.520817],[43.5996278,24.5169589],[43.5911003,24.5162593],[43.5828672,24.5181522],[43.575431,24.5169037],[43.566534,24.5141651],[43.5284626,24.5000798],[43.5102929,24.4964559],[43.4926688,24.492553],[43.4827378,24.4905265],[43.4776218,24.4909647],[43.4642602,24.4893762],[43.3917765,24.4807289],[43.3794036,24.4786084],[43.3362375,24.4714823],[43.2997242,24.468681],[43.2332777,24.4569044],[43.1604759,24.4464259],[43.0782142,24.4338519],[43.0137386,24.4236676],[43.0069693,24.42277],[42.9691427,24.4187988],[42.9518633,24.4163549],[42.9385555,24.4142965],[42.9185076,24.4098952],[42.9032284,24.4079562],[42.8973281,24.4070873],[42.8728604,24.4005595],[42.8439861,24.3930288],[42.8115664,24.3842404],[42.7821266,24.3764793],[42.7454999,24.3667414],[42.6703166,24.3470656],[42.6508335,24.3414927],[42.6463719,24.3404262],[42.6287034,24.338119],[42.6109577,24.3342789],[42.5816985,24.3305741],[42.5259587,24.3234709],[42.5050992,24.3207988],[42.4609478,24.3152731],[42.4327823,24.3113049],[42.4037626,24.3058197],[42.352302,24.296357],[42.3057125,24.2852765],[42.2398545,24.2694509],[42.1797201,24.2548353],[42.1335692,24.2515431],[42.0590076,24.2442446],[42.0266738,24.2407917],[41.9636688,24.2332368],[41.9281973,24.2281497],[41.9092958,24.2262333],[41.8628364,24.2198077],[41.8193727,24.2135114],[41.7819535,24.2100326],[41.7606084,24.2077054],[41.7477113,24.2064203],[41.7292562,24.2019459],[41.6941962,24.1984979],[41.6842988,24.1974591],[41.6808822,24.1974591],[41.6706325,24.1989596],[41.6597134,24.1969665],[41.6332822,24.1924017],[41.6007079,24.1866471],[41.574597,24.1817579],[41.5485827,24.177088],[41.4838979,24.1655503],[41.4330181,24.1563478],[41.4225556,24.1543445],[41.3700372,24.1479327],[41.3180281,24.1419022],[41.2968693,24.139622],[41.2171034,24.1235776],[41.1552291,24.1144922],[41.0846655,24.1041461],[41.0374254,24.0971246],[41.0320047,24.0962231],[41.031793,24.0956594],[41.0283347,24.0950795],[41.0256352,24.0954178],[41.0020379,24.0916869],[40.992367,24.0904734],[40.9782398,24.089341],[40.9450924,24.08616],[40.9072217,24.082111],[40.8559034,24.0730467],[40.7379974,24.053958],[40.6822908,24.0453625],[40.6734338,24.0434668],[40.6201533,24.0329765],[40.5032291,24.0185373],[40.412264,24.0072902],[40.3755035,24.0026781],[40.3490976,23.9990526],[40.3490976,23.9990526],[40.3423967,23.9981571],[40.3203109,23.9947569],[40.2830924,23.9888089],[40.2542267,23.98465],[40.2151817,23.9789781],[40.1948462,23.975838],[40.1726529,23.9724688],[40.1604022,23.970632],[40.1382302,23.9673729],[40.1079416,23.9627815],[40.0954653,23.9611377],[40.0643963,23.9572982],[40.0540072,23.9561416]]}}