{
"type": "FeatureCollection",
"features": [
{"type": "Feature", "properties": {"ProjectID": "P7726", "id": null, "Name": null, "Type": null}, "geometry": {"type": "MultiLineString", "coordinates": [[[-41.000349, -21.841662], [-41.013678, -21.843697], [-41.026509, -21.843313], [-41.036854, -21.841407], [-41.042855, -21.840733], [-41.050392, -21.84103], [-41.056164, -21.84255], [-41.061097, -21.846176], [-41.064097, -21.850217], [-41.072472, -21.856577], [-41.083893, -21.861524], [-41.088461, -21.862937], [-41.096836, -21.858697], [-41.101404, -21.85587], [-41.112825, -21.85375], [-41.121962, -21.85163], [-41.132621, -21.846684], [-41.144042, -21.848097], [-41.151655, -21.84951], [-41.167644, -21.846684], [-41.185156, -21.843857], [-41.199622, -21.841737], [-41.211043, -21.840323], [-41.21485, -21.840323], [-41.222464, -21.84315], [-41.233123, -21.846684], [-41.241498, -21.848804], [-41.249873, -21.84739], [-41.255964, -21.84527], [-41.25901, -21.843857], [-41.267385, -21.842443], [-41.274999, -21.84315], [-41.285658, -21.842443], [-41.297079, -21.841737], [-41.306977, -21.840323], [-41.316113, -21.841737], [-41.32525, -21.843857], [-41.337432, -21.848804], [-41.349614, -21.85375], [-41.359512, -21.861524], [-41.365603, -21.86647], [-41.372455, -21.871416], [-41.38083, -21.877068], [-41.393013, -21.885547], [-41.402149, -21.893318], [-41.418138, -21.905328], [-41.433366, -21.91663], [-41.450877, -21.928637], [-41.466866, -21.94135], [-41.481333, -21.951943], [-41.491992, -21.961829], [-41.498844, -21.969596], [-41.505697, -21.972421], [-41.514072, -21.984423], [-41.520924, -21.987953], [-41.524731, -21.993601], [-41.533868, -22.002073], [-41.543004, -22.009132], [-41.548334, -22.016896], [-41.565084, -22.033836], [-41.578028, -22.045128], [-41.591732, -22.05783], [-41.602392, -22.063475], [-41.616097, -22.086759], [-41.628279, -22.10369], [-41.632086, -22.11286], [-41.641222, -22.127672], [-41.650359, -22.137546], [-41.65645, -22.142483], [-41.657972, -22.153061], [-41.662541, -22.165048], [-41.668632, -22.176329], [-41.669393, -22.18902], [-41.668632, -22.199594], [-41.66787, -22.208758], [-41.669393, -22.215102], [-41.675484, -22.221446], [-41.681575, -22.229904], [-41.684621, -22.229904], [-41.69528, -22.242589], [-41.702132, -22.253864], [-41.707462, -22.263025], [-41.713553, -22.272889], [-41.716599, -22.279935], [-41.716765, -22.286391]]]}}
]
}
