{
"type": "FeatureCollection",
"features": [
{"type": "Feature", "properties": {"ProjectID": "P7729", "OBJECTID": 844, "NOMBRE": "LINHARES-GOVERNADOR VALADARES", "longitud_km": 279.36267174, "pais": "BRASIL", "Shape__Length": 2.6218713175271176}, "geometry": {"type": "LineString", "coordinates": [[-39.762764, -19.460006], [-39.772757, -19.469376], [-39.794588, -19.473614], [-39.825999, -19.482833], [-39.853981, -19.493644], [-39.89545, -19.509657], [-39.916095, -19.517626], [-39.946317, -19.510915], [-39.984567, -19.502421], [-40.01063, -19.496806], [-40.03045, -19.492536], [-40.059896, -19.493997], [-40.085373, -19.495262], [-40.112001, -19.497643], [-40.133168, -19.495287], [-40.165395, -19.481468], [-40.192831, -19.488735], [-40.246752, -19.502444], [-40.278125, -19.508686], [-40.302848, -19.51343], [-40.329865, -19.521596], [-40.345685, -19.531041], [-40.361834, -19.538089], [-40.381471, -19.548578], [-40.393005, -19.550736], [-40.41871, -19.561789], [-40.469856, -19.569697], [-40.506773, -19.575968], [-40.519196, -19.579541], [-40.531042, -19.574531], [-40.542428, -19.575445], [-40.556551, -19.57634], [-40.558473, -19.579131], [-40.572772, -19.576586], [-40.576563, -19.576876], [-40.590235, -19.56851], [-40.593811, -19.569269], [-40.5985, -19.566943], [-40.609139, -19.567732], [-40.616528, -19.568174], [-40.62599, -19.561876], [-40.649569, -19.566565], [-40.662708, -19.565496], [-40.678144, -19.561575], [-40.690989, -19.557486], [-40.70022, -19.556409], [-40.720696, -19.549803], [-40.737697, -19.554067], [-40.764467, -19.546443], [-40.776647, -19.544512], [-40.792655, -19.546448], [-40.809449, -19.5436], [-40.817219, -19.540511], [-40.829917, -19.537465], [-40.839063, -19.52874], [-40.849477, -19.521479], [-40.860008, -19.517093], [-40.877595, -19.513916], [-40.89382, -19.521661], [-40.907015, -19.519146], [-40.928455, -19.514814], [-40.945907, -19.51608], [-40.955174, -19.518551], [-40.958901, -19.526086], [-40.967262, -19.534015], [-40.979275, -19.535334], [-40.985727, -19.533603], [-40.99543, -19.534417], [-41.013695, -19.533696], [-41.018214, -19.536357], [-41.022856, -19.536298], [-41.027512, -19.532864], [-41.037006, -19.534333], [-41.048544, -19.536117], [-41.072171, -19.543268], [-41.078082, -19.543455], [-41.093094, -19.543931], [-41.102373, -19.548279], [-41.112815, -19.545316], [-41.123124, -19.526197], [-41.133279, -19.512837], [-41.137713, -19.507805], [-41.140986, -19.499513], [-41.138747, -19.487217], [-41.147779, -19.474784], [-41.152071, -19.471337], [-41.151942, -19.467157], [-41.154772, -19.46158], [-41.154526, -19.460176], [-41.158904, -19.453438], [-41.167856, -19.437721], [-41.174134, -19.43133], [-41.187247, -19.421227], [-41.189953, -19.409694], [-41.189773, -19.400403], [-41.191961, -19.395988], [-41.19556, -19.394186], [-41.208612, -19.387591], [-41.217056, -19.3861], [-41.226826, -19.382997], [-41.232078, -19.376158], [-41.234302, -19.365881], [-41.233629, -19.363175], [-41.240634, -19.356316], [-41.246863, -19.349758], [-41.256148, -19.345505], [-41.261135, -19.340896], [-41.266544, -19.332249], [-41.261198, -19.321307], [-41.25977, -19.316387], [-41.261411, -19.310516], [-41.263059, -19.302559], [-41.272463, -19.294582], [-41.276008, -19.287842], [-41.284718, -19.282322], [-41.295827, -19.267865], [-41.304477, -19.256607], [-41.319132, -19.245959], [-41.322869, -19.242432], [-41.328007, -19.241913], [-41.350052, -19.238106], [-41.364635, -19.230443], [-41.373295, -19.228678], [-41.390859, -19.221664], [-41.410918, -19.213834], [-41.417607, -19.20941], [-41.418088, -19.194116], [-41.423467, -19.183471], [-41.429364, -19.180768], [-41.43773, -19.169236], [-41.451063, -19.162609], [-41.465917, -19.154802], [-41.468068, -19.150501], [-41.466077, -19.141394], [-41.466873, -19.130949], [-41.474123, -19.120088], [-41.487245, -19.10762], [-41.497195, -19.100293], [-41.509054, -19.093191], [-41.51478, -19.0834], [-41.515898, -19.076809], [-41.507752, -19.061018], [-41.509403, -19.05476], [-41.524382, -19.033114], [-41.524993, -19.011181], [-41.530168, -18.992268], [-41.531686, -18.987378], [-41.538217, -18.981254], [-41.54575, -18.982502], [-41.555075, -18.987969], [-41.562014, -18.990479], [-41.568054, -18.989602], [-41.579351, -18.987791], [-41.591503, -18.980634], [-41.61546, -18.960245], [-41.628853, -18.962292], [-41.639224, -18.961545], [-41.653182, -18.962089], [-41.666311, -18.956262], [-41.68746, -18.946875], [-41.695866, -18.943508], [-41.702699, -18.937733], [-41.702564, -18.919678], [-41.703335, -18.900364], [-41.702376, -18.882739], [-41.708614, -18.876015], [-41.718699, -18.868773], [-41.762621, -18.848694], [-41.787527, -18.836982], [-41.799816, -18.838348], [-41.816709, -18.843516], [-41.823155, -18.845783], [-41.834298, -18.846021], [-41.844145, -18.844494], [-41.859962, -18.844801], [-41.863455, -18.845055], [-41.866335, -18.843789]]}}
]
}
