{
"type": "FeatureCollection",
"features": [
{"type": "Feature", "properties": {"ProjectID": "P7722", "id": 1, "Name": "Khazzan-Saih Nihayda Gas Pipeline"}, "geometry": {"type": "LineString", "coordinates": [[56.41069, 21.661084], [56.426609, 21.646486], [56.458511, 21.629043], [56.463015, 21.62032], [56.51857, 21.61373], [56.540215, 21.606036], [56.581804, 21.571697], [56.651156, 21.536169], [56.659682, 21.538091], [56.690503, 21.521957], [56.693923, 21.521396], [56.707807, 21.513534], [56.789003, 21.503376], [56.933278, 21.465029], [56.966987, 21.435892], [56.979211, 21.435646]]}}
]
}
