{
"type": "FeatureCollection",
"features": [
{"type": "Feature", "properties": {"ProjectID": "P7743", "OBJECTID": 778, "NOMBRE": "GASAN II 22 (MAUA - S.B. CAMPO)", "longitud_km": 38.04672756, "pais": "BRASIL", "Shape__Length": 0.356785069265609}, "geometry": {"type": "LineString", "coordinates": [[-46.412075, -23.630011], [-46.412043, -23.630124], [-46.412025, -23.630166], [-46.411992, -23.630214], [-46.411947, -23.630255], [-46.411901, -23.630281], [-46.41112, -23.630624], [-46.411079, -23.630645], [-46.411024, -23.630686], [-46.410694, -23.630984], [-46.410647, -23.631032], [-46.410201, -23.631629], [-46.40958, -23.632735], [-46.409541, -23.632789], [-46.409277, -23.633109], [-46.409225, -23.633164], [-46.406438, -23.635322], [-46.406361, -23.635371], [-46.405618, -23.63578], [-46.405554, -23.635821], [-46.405013, -23.636193], [-46.404182, -23.636908], [-46.404156, -23.636933], [-46.404126, -23.636971], [-46.403591, -23.637755], [-46.403569, -23.637799], [-46.403557, -23.637855], [-46.403559, -23.637904], [-46.403726, -23.639006], [-46.403724, -23.639052], [-46.403637, -23.639784], [-46.403636, -23.639845], [-46.403643, -23.640017], [-46.403657, -23.640079], [-46.403866, -23.640647], [-46.403874, -23.640697], [-46.403875, -23.640764], [-46.403867, -23.640804], [-46.403844, -23.640869], [-46.403825, -23.640905], [-46.403764, -23.641006], [-46.403661, -23.641124], [-46.403602, -23.641184], [-46.403189, -23.641567], [-46.40315, -23.641608], [-46.40294, -23.641897], [-46.402745, -23.642133], [-46.402497, -23.642456], [-46.402464, -23.642494], [-46.40113, -23.643748], [-46.400895, -23.643965], [-46.400835, -23.644037], [-46.400643, -23.644311], [-46.400609, -23.644381], [-46.398903, -23.648973], [-46.398864, -23.649052], [-46.398544, -23.649592], [-46.398508, -23.649645], [-46.398476, -23.649681], [-46.398013, -23.650149], [-46.397948, -23.650197], [-46.397668, -23.650364], [-46.39758, -23.650403], [-46.395932, -23.650964], [-46.395825, -23.651009], [-46.394806, -23.651522], [-46.394746, -23.651556], [-46.394204, -23.651943], [-46.394153, -23.651987], [-46.393966, -23.652181], [-46.393922, -23.652231], [-46.393896, -23.652268], [-46.393712, -23.652544], [-46.393669, -23.652621], [-46.392032, -23.656345], [-46.391989, -23.656411], [-46.391411, -23.657155], [-46.391378, -23.657191], [-46.391342, -23.657223], [-46.389125, -23.65901], [-46.389075, -23.659065], [-46.388564, -23.659702], [-46.387948, -23.660271], [-46.387871, -23.660327], [-46.38628, -23.661305], [-46.386233, -23.661337], [-46.38619, -23.661373], [-46.384696, -23.662765], [-46.384654, -23.662817], [-46.384424, -23.663134], [-46.384392, -23.663192], [-46.384302, -23.663376], [-46.38427, -23.663458], [-46.38422, -23.663639], [-46.384204, -23.66371], [-46.384038, -23.664886], [-46.384021, -23.664946], [-46.383974, -23.665061], [-46.383952, -23.665103], [-46.383926, -23.665143], [-46.383822, -23.665283], [-46.383779, -23.66533], [-46.383487, -23.665576], [-46.383412, -23.665628], [-46.383052, -23.66584], [-46.382987, -23.665882], [-46.382538, -23.666222], [-46.382481, -23.666272], [-46.380642, -23.668379], [-46.380595, -23.668436], [-46.380474, -23.668604], [-46.380443, -23.66865], [-46.380417, -23.668699], [-46.380266, -23.669001], [-46.380244, -23.669052], [-46.380229, -23.669104], [-46.380097, -23.669692], [-46.380091, -23.669746], [-46.380039, -23.670625], [-46.38003, -23.670706], [-46.37993, -23.671191], [-46.379912, -23.671261], [-46.37973, -23.671807], [-46.379707, -23.671857], [-46.379685, -23.671892], [-46.378832, -23.673111], [-46.378792, -23.673173], [-46.378527, -23.673648], [-46.378337, -23.674057], [-46.37831, -23.674143], [-46.378294, -23.674219], [-46.378289, -23.674265], [-46.37829, -23.674311], [-46.378297, -23.674402], [-46.378309, -23.674455], [-46.37834, -23.674542], [-46.378356, -23.674579], [-46.378376, -23.674616], [-46.37844, -23.674704], [-46.378484, -23.674752], [-46.378756, -23.674973], [-46.378823, -23.675034], [-46.378896, -23.675115], [-46.378923, -23.67515], [-46.378963, -23.675211], [-46.378985, -23.675253], [-46.379001, -23.675297], [-46.379012, -23.675344], [-46.379018, -23.675397], [-46.379018, -23.675445], [-46.379013, -23.675485], [-46.379002, -23.675532], [-46.378987, -23.675576], [-46.378966, -23.675618], [-46.378409, -23.67652], [-46.378362, -23.676584], [-46.378224, -23.676721], [-46.378082, -23.676831], [-46.378023, -23.676867], [-46.377618, -23.677084], [-46.377554, -23.677125], [-46.377287, -23.677307], [-46.377217, -23.677365], [-46.377037, -23.677533], [-46.376978, -23.677605], [-46.376133, -23.678838], [-46.376102, -23.678896], [-46.375907, -23.679319], [-46.375883, -23.67938], [-46.375673, -23.680272], [-46.375654, -23.680332], [-46.375634, -23.680374], [-46.375457, -23.680702], [-46.375418, -23.680764], [-46.374728, -23.681568], [-46.374683, -23.681627], [-46.374429, -23.681987], [-46.374387, -23.682058], [-46.374111, -23.682595], [-46.374067, -23.682695], [-46.373827, -23.683318], [-46.373807, -23.683388], [-46.373725, -23.683716], [-46.373714, -23.683802], [-46.373668, -23.68472], [-46.373603, -23.685063], [-46.37358, -23.685169], [-46.373563, -23.685221], [-46.373537, -23.685276], [-46.373516, -23.685307], [-46.373496, -23.68533], [-46.373209, -23.685582], [-46.37316, -23.685643], [-46.373146, -23.685655], [-46.372488, -23.686036], [-46.372425, -23.68608], [-46.372231, -23.686223], [-46.372165, -23.686285], [-46.371957, -23.686509], [-46.371914, -23.686561], [-46.371889, -23.686597], [-46.371758, -23.686799], [-46.371725, -23.686857], [-46.371595, -23.687171], [-46.371581, -23.687231], [-46.371528, -23.687648], [-46.371516, -23.687712], [-46.371412, -23.688048], [-46.371377, -23.688132], [-46.371264, -23.688328], [-46.371223, -23.688389], [-46.370692, -23.688986], [-46.370236, -23.689573], [-46.370189, -23.689642], [-46.369578, -23.690694], [-46.369278, -23.691239], [-46.369246, -23.691315], [-46.369058, -23.691864], [-46.36903, -23.691923], [-46.368865, -23.692227], [-46.368839, -23.692269], [-46.368797, -23.692322], [-46.367791, -23.693377], [-46.367208, -23.693982], [-46.367152, -23.694025], [-46.366959, -23.694139], [-46.366173, -23.694572], [-46.366096, -23.694621], [-46.365958, -23.694729], [-46.365908, -23.694783], [-46.365887, -23.694812], [-46.365865, -23.694854], [-46.365834, -23.694931], [-46.365822, -23.694976], [-46.365811, -23.695051], [-46.36581, -23.695106], [-46.365842, -23.695429], [-46.365855, -23.695493], [-46.365928, -23.695731], [-46.365944, -23.695775], [-46.365965, -23.695818], [-46.366086, -23.696021], [-46.366255, -23.696327], [-46.366277, -23.696377], [-46.36632, -23.696524], [-46.366338, -23.696566], [-46.366363, -23.696605], [-46.366514, -23.696779], [-46.366581, -23.696844], [-46.366684, -23.69692], [-46.366826, -23.697004], [-46.367217, -23.697195], [-46.367278, -23.697232], [-46.367332, -23.697276], [-46.367368, -23.697312], [-46.367437, -23.697393], [-46.367527, -23.697509], [-46.367591, -23.6976], [-46.367658, -23.697705], [-46.367677, -23.697741], [-46.367692, -23.69778], [-46.367713, -23.697854], [-46.367762, -23.698066], [-46.367818, -23.698274], [-46.367869, -23.698541], [-46.367883, -23.698648], [-46.367883, -23.698729], [-46.367866, -23.698882], [-46.367846, -23.69918], [-46.367836, -23.699251], [-46.367585, -23.700667], [-46.36734, -23.702014], [-46.367326, -23.702122], [-46.36725, -23.703069], [-46.367248, -23.703123], [-46.367253, -23.703177], [-46.367323, -23.703686], [-46.367335, -23.703794], [-46.367483, -23.705546], [-46.367484, -23.7056], [-46.36748, -23.705654], [-46.367382, -23.706423], [-46.367142, -23.707249], [-46.367133, -23.70731], [-46.367124, -23.707518], [-46.367128, -23.707626], [-46.367172, -23.708034], [-46.36718, -23.708359], [-46.367197, -23.708521], [-46.367214, -23.708628], [-46.367278, -23.708957], [-46.367294, -23.709028], [-46.367596, -23.710026], [-46.367608, -23.710088], [-46.367615, -23.71016], [-46.367616, -23.710226], [-46.367614, -23.71027], [-46.367582, -23.710464], [-46.367572, -23.71051], [-46.367551, -23.710569], [-46.367484, -23.710717], [-46.367447, -23.710775], [-46.367116, -23.711177], [-46.367079, -23.711229], [-46.367057, -23.71127], [-46.366798, -23.711812], [-46.366775, -23.71187], [-46.366764, -23.711915], [-46.3667, -23.712274], [-46.366692, -23.712338], [-46.366694, -23.71284], [-46.366688, -23.712926], [-46.366671, -23.713019], [-46.36666, -23.713061], [-46.366576, -23.713281], [-46.366564, -23.713326], [-46.366557, -23.713372], [-46.366551, -23.713457], [-46.36656, -23.713802], [-46.366556, -23.713874], [-46.366541, -23.713953], [-46.366526, -23.714006], [-46.366457, -23.714201], [-46.366424, -23.714306], [-46.366403, -23.714388], [-46.366397, -23.714465], [-46.366398, -23.714542], [-46.366402, -23.714583], [-46.36641, -23.714623], [-46.366438, -23.714712], [-46.366471, -23.714783], [-46.366542, -23.71489], [-46.366587, -23.714937], [-46.366697, -23.715031], [-46.366901, -23.715172], [-46.367058, -23.715268], [-46.367093, -23.715294], [-46.367123, -23.715325], [-46.367163, -23.715382], [-46.367182, -23.715414], [-46.367196, -23.715448], [-46.367204, -23.715483], [-46.36722, -23.715588], [-46.36725, -23.715927], [-46.367384, -23.717011], [-46.367395, -23.717083], [-46.367594, -23.71796], [-46.367645, -23.718172], [-46.367703, -23.718382], [-46.367826, -23.718805], [-46.367897, -23.719034], [-46.367978, -23.719261], [-46.368068, -23.719484], [-46.368168, -23.719704], [-46.368277, -23.719923], [-46.368574, -23.720447], [-46.368882, -23.72095], [-46.369209, -23.721444], [-46.369553, -23.721927], [-46.369914, -23.7224], [-46.370292, -23.722861], [-46.370686, -23.72331], [-46.371097, -23.723747], [-46.371523, -23.724171], [-46.375976, -23.728461], [-46.376052, -23.728544], [-46.376128, -23.728639], [-46.376192, -23.72873], [-46.376249, -23.728825], [-46.376299, -23.728923], [-46.376326, -23.728986], [-46.376354, -23.729063], [-46.376374, -23.729128], [-46.376396, -23.729221], [-46.376409, -23.729301], [-46.376414, -23.729355], [-46.376417, -23.72945], [-46.376412, -23.729558], [-46.376398, -23.729652], [-46.376387, -23.729705], [-46.376357, -23.72981], [-46.376179, -23.730356], [-46.376167, -23.73042], [-46.376141, -23.730633], [-46.376136, -23.730818], [-46.37614, -23.730883], [-46.376247, -23.731615], [-46.376258, -23.731668], [-46.376275, -23.73172], [-46.376669, -23.732705], [-46.376864, -23.73314], [-46.37704, -23.73358], [-46.377176, -23.733844], [-46.377341, -23.734229], [-46.377373, -23.734295], [-46.377616, -23.734723], [-46.377654, -23.734778], [-46.37774, -23.734884], [-46.377781, -23.734946], [-46.37915, -23.737321], [-46.379178, -23.737378], [-46.379209, -23.737478], [-46.379223, -23.737541], [-46.379234, -23.73766], [-46.379232, -23.737714], [-46.379226, -23.737754], [-46.379196, -23.737876], [-46.379076, -23.738188], [-46.37906, -23.738248], [-46.379031, -23.738499], [-46.379029, -23.738571], [-46.379032, -23.738755], [-46.379039, -23.738863], [-46.379063, -23.739053], [-46.379072, -23.739095], [-46.379097, -23.739156], [-46.379219, -23.739367], [-46.379259, -23.739416], [-46.379397, -23.739562], [-46.379444, -23.739606], [-46.379668, -23.739755], [-46.379711, -23.739779], [-46.379757, -23.739799], [-46.37996, -23.739874], [-46.380008, -23.739888], [-46.380445, -23.739954], [-46.380521, -23.73997], [-46.380862, -23.740056], [-46.380974, -23.74009], [-46.381301, -23.740211], [-46.381375, -23.740235], [-46.382175, -23.740439], [-46.382355, -23.740505], [-46.382401, -23.740525], [-46.382457, -23.740558], [-46.382599, -23.740658], [-46.382635, -23.740691], [-46.382734, -23.7408], [-46.382805, -23.740886], [-46.38487, -23.743597], [-46.384917, -23.743676], [-46.385145, -23.744149], [-46.385163, -23.744192], [-46.385176, -23.744237], [-46.385327, -23.745085], [-46.385342, -23.745193], [-46.385839, -23.750396], [-46.385853, -23.750504], [-46.385956, -23.751091], [-46.385975, -23.75117], [-46.386714, -23.753318], [-46.386727, -23.753389], [-46.386752, -23.753622], [-46.386753, -23.753712], [-46.386728, -23.75395], [-46.386717, -23.754011], [-46.38664, -23.754218], [-46.386609, -23.754285], [-46.384779, -23.757098], [-46.384757, -23.75714], [-46.384739, -23.757184], [-46.384668, -23.757389], [-46.384646, -23.757468], [-46.384605, -23.757705], [-46.384597, -23.75777], [-46.384598, -23.757914], [-46.384606, -23.757962], [-46.38462, -23.757999], [-46.384647, -23.758051], [-46.384677, -23.758094], [-46.384976, -23.758478], [-46.385183, -23.758726], [-46.385211, -23.758765], [-46.385233, -23.758807], [-46.385433, -23.759239], [-46.385447, -23.759282], [-46.385452, -23.759318], [-46.385435, -23.76053], [-46.385428, -23.760595], [-46.385378, -23.76086], [-46.385365, -23.760913], [-46.385347, -23.760965], [-46.384937, -23.761926], [-46.384921, -23.76197], [-46.384908, -23.76203], [-46.384837, -23.762578], [-46.384836, -23.762665], [-46.385011, -23.765294], [-46.385012, -23.76534], [-46.385007, -23.765387], [-46.38482, -23.766287], [-46.384803, -23.766347], [-46.384784, -23.76639], [-46.384644, -23.766659], [-46.384622, -23.766693], [-46.384174, -23.76722], [-46.383649, -23.767968], [-46.383606, -23.768049], [-46.383344, -23.768677], [-46.383326, -23.76874], [-46.38217, -23.773855], [-46.382165, -23.773927], [-46.382175, -23.774561], [-46.382178, -23.774607], [-46.382187, -23.774653], [-46.383147, -23.778004], [-46.383169, -23.778066], [-46.383542, -23.778833], [-46.383569, -23.778881], [-46.383602, -23.778926], [-46.38374, -23.779093], [-46.384, -23.779366], [-46.384037, -23.779409], [-46.384068, -23.779454], [-46.384207, -23.77968], [-46.384339, -23.779847], [-46.384372, -23.779882], [-46.384409, -23.779914], [-46.385306, -23.780611], [-46.385353, -23.780643], [-46.385404, -23.780671], [-46.386356, -23.781124], [-46.386402, -23.781143], [-46.386466, -23.781162], [-46.387333, -23.781358], [-46.388156, -23.781515], [-46.388508, -23.781599], [-46.388623, -23.781623], [-46.392033, -23.782225], [-46.392113, -23.782249], [-46.392262, -23.782311], [-46.392307, -23.782332], [-46.392349, -23.782358], [-46.392485, -23.782461], [-46.392516, -23.78249], [-46.392545, -23.782521], [-46.393928, -23.784304], [-46.393983, -23.784368], [-46.394124, -23.784507], [-46.394179, -23.784571], [-46.39471, -23.785261], [-46.394852, -23.785487], [-46.394877, -23.78552], [-46.394915, -23.785561], [-46.395329, -23.785944], [-46.395382, -23.785988], [-46.395419, -23.786014], [-46.395843, -23.786286], [-46.39591, -23.786323], [-46.397216, -23.786849], [-46.397588, -23.787036], [-46.397647, -23.787071], [-46.401807, -23.790236], [-46.401871, -23.790278], [-46.402787, -23.790826], [-46.402838, -23.790854], [-46.402969, -23.790915], [-46.403229, -23.79106], [-46.403276, -23.791092], [-46.403412, -23.791196], [-46.403459, -23.791228], [-46.404149, -23.791641], [-46.404195, -23.791663], [-46.404232, -23.791676], [-46.404698, -23.791794], [-46.404811, -23.791826], [-46.405198, -23.791955], [-46.405686, -23.792145], [-46.405789, -23.792198], [-46.406139, -23.792397], [-46.411618, -23.795149], [-46.41406, -23.796195], [-46.414107, -23.796213], [-46.414172, -23.796229], [-46.416863, -23.796708], [-46.416941, -23.796719], [-46.419671, -23.796955], [-46.419789, -23.79696], [-46.420058, -23.796964], [-46.420469, -23.79702], [-46.420584, -23.797033], [-46.422979, -23.797239], [-46.423072, -23.797256], [-46.423981, -23.797472], [-46.424036, -23.797489], [-46.424089, -23.797513], [-46.424979, -23.797988], [-46.426543, -23.798982], [-46.426607, -23.799016], [-46.428455, -23.799619], [-46.42853, -23.799641], [-46.430949, -23.800195], [-46.431024, -23.800218], [-46.435824, -23.802387], [-46.435904, -23.802433], [-46.436107, -23.802568], [-46.436162, -23.802608], [-46.436756, -23.803153], [-46.4368, -23.803189], [-46.436848, -23.803221], [-46.437328, -23.803509], [-46.437369, -23.803531], [-46.437432, -23.80356], [-46.438107, -23.803822], [-46.438214, -23.803867], [-46.439521, -23.804443], [-46.439583, -23.804473], [-46.442236, -23.806155], [-46.44233, -23.80622], [-46.442613, -23.80643], [-46.442664, -23.806457], [-46.442907, -23.806553], [-46.442963, -23.806569], [-46.443006, -23.806576], [-46.443608, -23.806647], [-46.443687, -23.806646], [-46.444265, -23.80661], [-46.444335, -23.806614], [-46.444573, -23.806639], [-46.444642, -23.806654], [-46.444864, -23.806713], [-46.444948, -23.806739], [-46.446533, -23.807384], [-46.446616, -23.80741], [-46.44763, -23.807552], [-46.448745, -23.807617], [-46.451049, -23.807939], [-46.45114, -23.807957], [-46.4516, -23.808098], [-46.45169, -23.808119], [-46.453346, -23.808351], [-46.45363, -23.808387], [-46.4537, -23.808406], [-46.453962, -23.808509], [-46.454298, -23.80867], [-46.454556, -23.808806], [-46.454602, -23.808825], [-46.454684, -23.808851], [-46.454744, -23.808879], [-46.455233, -23.809146], [-46.455281, -23.809178], [-46.455367, -23.809245], [-46.455415, -23.809276], [-46.45579, -23.809484], [-46.458916, -23.811601], [-46.458981, -23.811642], [-46.464445, -23.81449], [-46.464535, -23.814525], [-46.465049, -23.814673], [-46.465135, -23.814689], [-46.465305, -23.814695], [-46.465375, -23.814692], [-46.465531, -23.81467], [-46.465612, -23.81465], [-46.465892, -23.81455], [-46.466096, -23.814491], [-46.466161, -23.814466], [-46.467841, -23.81372], [-46.467917, -23.813678], [-46.468383, -23.813385], [-46.468429, -23.813352], [-46.468472, -23.813315], [-46.469119, -23.812697], [-46.469182, -23.812646], [-46.469378, -23.812528], [-46.469446, -23.812493], [-46.469719, -23.812394], [-46.469799, -23.812372], [-46.470405, -23.812292], [-46.470503, -23.812288], [-46.471049, -23.81233], [-46.471119, -23.812343], [-46.471371, -23.8124], [-46.47159, -23.812434], [-46.471684, -23.812441], [-46.471973, -23.812434], [-46.472031, -23.81243], [-46.472089, -23.812421], [-46.472399, -23.812357], [-46.472434, -23.812352], [-46.472481, -23.812352], [-46.473241, -23.812442], [-46.473677, -23.812526], [-46.474114, -23.812574], [-46.474185, -23.812591], [-46.474324, -23.812642], [-46.474362, -23.81265], [-46.474401, -23.812652], [-46.474642, -23.812648], [-46.47472, -23.812639], [-46.475924, -23.812369], [-46.475994, -23.812361], [-46.476234, -23.812344], [-46.476332, -23.812347], [-46.47669, -23.812387], [-46.476756, -23.812398], [-46.476804, -23.812413], [-46.477093, -23.812516], [-46.477154, -23.812542], [-46.477197, -23.812567], [-46.4788, -23.813595], [-46.478863, -23.813628], [-46.478957, -23.813661], [-46.479022, -23.813693], [-46.479334, -23.813893], [-46.479629, -23.814074], [-46.480228, -23.814467], [-46.480282, -23.814509], [-46.480377, -23.814599], [-46.480431, -23.814641], [-46.48076, -23.814852], [-46.48083, -23.814902], [-46.482251, -23.816082], [-46.482297, -23.816115], [-46.482347, -23.816143], [-46.482871, -23.816388], [-46.482925, -23.81641], [-46.482981, -23.816426], [-46.483455, -23.816534], [-46.483592, -23.816562], [-46.484637, -23.816661], [-46.485383, -23.816641], [-46.485441, -23.816634], [-46.485484, -23.816623], [-46.486497, -23.816322], [-46.48677, -23.816265], [-46.487582, -23.81603], [-46.487658, -23.816014], [-46.487734, -23.816006], [-46.487793, -23.816004], [-46.487956, -23.816019], [-46.488033, -23.816032], [-46.488636, -23.816154], [-46.488752, -23.816174], [-46.489108, -23.816221], [-46.489314, -23.816235], [-46.489412, -23.816231], [-46.489758, -23.816187], [-46.491234, -23.815889], [-46.492249, -23.81574], [-46.492326, -23.815723], [-46.493083, -23.815539], [-46.494463, -23.815282], [-46.49454, -23.815273], [-46.49567, -23.815176], [-46.495736, -23.815166], [-46.495785, -23.815153], [-46.496569, -23.814909], [-46.496681, -23.814877], [-46.49716, -23.814751], [-46.497246, -23.814735], [-46.497583, -23.814692], [-46.49766, -23.814677], [-46.500294, -23.814046], [-46.501841, -23.813547], [-46.50195, -23.813505], [-46.502128, -23.813422], [-46.502216, -23.813391], [-46.502753, -23.813229], [-46.503, -23.813168], [-46.503112, -23.813136], [-46.504355, -23.812735], [-46.504431, -23.812715], [-46.505125, -23.812562], [-46.505218, -23.812551], [-46.506189, -23.812509], [-46.50707, -23.81259], [-46.507129, -23.812604], [-46.507184, -23.812629], [-46.507217, -23.812655], [-46.507262, -23.812706], [-46.507283, -23.812741], [-46.507304, -23.812793], [-46.507314, -23.812826], [-46.507319, -23.81286], [-46.507332, -23.813002], [-46.507331, -23.813067], [-46.507076, -23.815439], [-46.507006, -23.816389], [-46.506932, -23.816926], [-46.506754, -23.818391], [-46.506743, -23.818499], [-46.506595, -23.82037], [-46.506583, -23.820477], [-46.506558, -23.820635], [-46.506534, -23.820722], [-46.506027, -23.822066], [-46.506013, -23.822113], [-46.506008, -23.822149], [-46.505994, -23.822865], [-46.50599, -23.822946], [-46.505766, -23.825421], [-46.505744, -23.825569], [-46.505622, -23.826118], [-46.50561, -23.826198], [-46.505177, -23.830746], [-46.505174, -23.830854], [-46.505188, -23.831314], [-46.505186, -23.831395], [-46.505119, -23.831878], [-46.505051, -23.832158], [-46.505036, -23.832238], [-46.504898, -23.833692], [-46.50489, -23.8338], [-46.504887, -23.833909], [-46.504883, -23.834324], [-46.504848, -23.834983], [-46.504836, -23.835064], [-46.504722, -23.835615], [-46.504706, -23.835723], [-46.504391, -23.839059], [-46.504385, -23.839168], [-46.504374, -23.839555], [-46.504316, -23.839877], [-46.504307, -23.839949], [-46.504263, -23.840424], [-46.504213, -23.84118], [-46.504142, -23.841691], [-46.504015, -23.843037], [-46.504007, -23.843145], [-46.503975, -23.843813], [-46.503942, -23.844193], [-46.503929, -23.844281], [-46.503884, -23.844466], [-46.503872, -23.844546], [-46.503789, -23.84542], [-46.503785, -23.845492], [-46.503783, -23.845689], [-46.503722, -23.84634], [-46.503715, -23.846394], [-46.503688, -23.846514], [-46.503681, -23.846567], [-46.503581, -23.847614], [-46.503517, -23.84797], [-46.503494, -23.848034], [-46.503444, -23.848126], [-46.503415, -23.848173], [-46.503388, -23.848205], [-46.503081, -23.848508], [-46.502538, -23.848985], [-46.502493, -23.849019], [-46.502361, -23.849109], [-46.502301, -23.849155], [-46.501417, -23.849888], [-46.50135, -23.849926], [-46.500761, -23.850179], [-46.500715, -23.850203], [-46.500663, -23.850239], [-46.500545, -23.850342], [-46.500509, -23.850384], [-46.500445, -23.850478], [-46.500404, -23.850556], [-46.500312, -23.850771], [-46.500293, -23.850834], [-46.50022, -23.851141], [-46.500215, -23.851185], [-46.500219, -23.851222], [-46.500229, -23.851265], [-46.500251, -23.851308], [-46.500282, -23.851351], [-46.500315, -23.851383], [-46.500372, -23.851419], [-46.500419, -23.851437], [-46.501168, -23.851567]]}}
]
}
