{
"type": "FeatureCollection",
"features": [
{"type": "Feature", "properties": {"ProjectID": "P7757", "id": 1, "Name": "Murayrat-Al Ghubrah Gas Pipeline"}, "geometry": {"type": "LineString", "coordinates": [[58.20817, 23.479683], [58.212659, 23.479914], [58.236224, 23.478898], [58.258703, 23.480249], [58.277119, 23.48198], [58.290537, 23.480411], [58.300529, 23.47923], [58.302581, 23.480574], [58.304731, 23.48392], [58.313657, 23.488372], [58.326257, 23.498438], [58.34102, 23.51081], [58.345147, 23.518275], [58.346955, 23.522406], [58.351014, 23.526589], [58.360831, 23.537547], [58.374, 23.547057], [58.37901, 23.563459], [58.381379, 23.565118], [58.39041, 23.564655], [58.409325, 23.576834], [58.416098, 23.581323], [58.418426, 23.582221], [58.416785, 23.583268], [58.416135, 23.590211], [58.4157, 23.592707], [58.415737, 23.594703], [58.414807, 23.595726], [58.414676, 23.597278], [58.414006, 23.599154], [58.413764, 23.601405]]}}
]
}
