{
"type": "FeatureCollection",
"features": [
{"type": "Feature", "properties": {"ProjectID": "P7759", "id": 1, "Name": "Murayrat-Mina Al Fahal Gas Pipeline"}, "geometry": {"type": "LineString", "coordinates": [[58.208081, 23.479073], [58.236207, 23.478589], [58.257413, 23.479808], [58.277807, 23.481227], [58.299109, 23.478879], [58.302463, 23.479396], [58.305492, 23.483736], [58.313868, 23.48786], [58.333404, 23.503993], [58.341237, 23.510645], [58.347292, 23.522164], [58.360817, 23.536778], [58.37439, 23.546935], [58.381082, 23.551933], [58.384623, 23.555401], [58.387609, 23.563217], [58.388962, 23.564131], [58.390614, 23.564413], [58.400144, 23.570402], [58.416136, 23.580995], [58.418523, 23.581968], [58.422993, 23.583558], [58.434307, 23.587555], [58.442002, 23.590081], [58.448217, 23.590347], [58.452, 23.590518], [58.459823, 23.590518], [58.465629, 23.591918], [58.470447, 23.594848], [58.475902, 23.596785], [58.479097, 23.598708], [58.483949, 23.59976], [58.488431, 23.599141], [58.495589, 23.601383], [58.502989, 23.602213], [58.509308, 23.601573], [58.51055, 23.602504], [58.511953, 23.60617], [58.513029, 23.608397], [58.519047, 23.611425], [58.519662, 23.612512], [58.519482, 23.614384], [58.52074, 23.615505], [58.520873, 23.617403], [58.522096, 23.619643], [58.522195, 23.622981]]}}
]
}
