{
"type": "FeatureCollection",
"features": [
{"type": "Feature", "properties": {"ProjectID": "P7760", "id": 1, "Name": "Kauther-Fahud Gas Pipeline"}, "geometry": {"type": "LineString", "coordinates": [[56.558612, 22.21922], [56.576638, 22.217532], [56.639848, 22.206827], [56.644684, 22.206007], [56.67404, 22.203548], [56.67547, 22.200206], [56.820315, 22.176879], [56.83491, 22.17608], [56.837461, 22.173891], [56.898036, 22.16303], [57.117269, 22.124015], [57.128238, 22.122857], [57.134131, 22.120888], [57.290682, 22.092825], [57.307841, 22.089566], [57.307841, 22.089095], [57.311443, 22.088114], [57.31462, 22.090194]]}}
]
}
