{
"type": "FeatureCollection",
"features": [
{"type": "Feature", "properties": {"ProjectID": "P7779", "PrjName": "Trident Pipeline", "OGW_ID": "rec_csv2n2s7q3onfi6o0p00", "Res": "Unknown", "DataSrce": "Texas Railroad Commission T-4 Permit 10662", "SrceDate": 2025, "SrceLink": "NA", "DigName": "LM", "Method": "Shapefile from Source", "DigDate": "2025-09-09", "Notes": null, "Shape_Leng": 402285.110301, "Additional": 216.0, "AffectedSt": "TX", "Miles": 216.0, "PipelineDi": "28, 42", "ProductTyp": "Natural Gas", "ProductUni": "MMscf/d", "ProjectTyp": "New Pipeline", "Mile_check": 0}, "geometry": {"type": "MultiLineString", "coordinates": [[[-93.952975, 29.772068], [-93.947834, 29.775289], [-93.944273, 29.771734], [-93.939748, 29.768166]], [[-93.952975, 29.772068], [-93.950652, 29.771081], [-93.948444, 29.770136], [-93.946824, 29.769459], [-93.943792, 29.768662], [-93.939748, 29.768166]], [[-93.939748, 29.768166], [-93.936375, 29.763412], [-93.934831, 29.762229]], [[-95.876203, 29.823249], [-95.878594, 29.823269], [-95.880388, 29.824737], [-95.889612, 29.830199], [-95.890613, 29.830223], [-95.896407, 29.834646], [-95.897, 29.842951], [-95.896479, 29.845358], [-95.896659, 29.854086], [-95.896751, 29.85971], [-95.896836, 29.862766], [-95.896845, 29.863549], [-95.897784, 29.864352], [-95.897844, 29.868589], [-95.898646, 29.87253], [-95.898695, 29.873089], [-95.898725, 29.874677], [-95.898903, 29.875165], [-95.898904, 29.876263], [-95.898783, 29.877061], [-95.898336, 29.887651], [-95.898448, 29.888595], [-95.898411, 29.889474], [-95.898171, 29.890647], [-95.897932, 29.893045], [-95.897651, 29.895972], [-95.89726, 29.910329], [-95.89759, 29.932702], [-95.897738, 29.933653], [-95.897728, 29.933873], [-95.897674, 29.934088], [-95.897622, 29.934585], [-95.898011, 29.956285], [-95.898127, 29.957199], [-95.900773, 29.961473], [-95.901924, 29.968321], [-95.90108, 29.971344], [-95.901119, 29.972659], [-95.900999, 29.976607], [-95.899915, 29.97778], [-95.900104, 29.979293], [-95.900346, 29.980796], [-95.900443, 29.982136], [-95.900642, 29.98327], [-95.900797, 29.984312], [-95.901414, 29.989209], [-95.901402, 29.989429], [-95.90135, 29.989644], [-95.901261, 29.98985], [-95.90101, 29.990232], [-95.900852, 29.990403], [-95.900665, 29.990551], [-95.900454, 29.990672], [-95.900238, 29.990756], [-95.898704, 29.991226], [-95.898568, 29.991267], [-95.89823, 29.991371], [-95.898015, 29.991455], [-95.897803, 29.991576], [-95.897616, 29.991724], [-95.897458, 29.991895], [-95.897333, 29.992086], [-95.897243, 29.992292], [-95.897192, 29.992507], [-95.897075, 29.994636], [-95.897093, 29.998222], [-95.89678, 29.999996], [-95.89609, 30.012522], [-95.896115, 30.017264], [-95.895843, 30.020126], [-95.895758, 30.021022], [-95.895776, 30.021937], [-95.895597, 30.023041], [-95.895722, 30.029239], [-95.895687, 30.029456], [-95.895613, 30.029667], [-95.895503, 30.029864], [-95.895358, 30.030045], [-95.8953, 30.030096], [-95.89046, 30.034458], [-95.889572, 30.035258], [-95.889427, 30.035438], [-95.889316, 30.035636], [-95.889242, 30.035847], [-95.889207, 30.036064], [-95.889207, 30.036976], [-95.889065, 30.037755], [-95.888904, 30.03864], [-95.888222, 30.04047], [-95.888039, 30.040996], [-95.888001, 30.041214], [-95.887964, 30.045613], [-95.888077, 30.05086], [-95.888414, 30.060478], [-95.887894, 30.060958], [-95.887588, 30.061308], [-95.885663, 30.064423], [-95.885463, 30.064954], [-95.885422, 30.065171], [-95.885387, 30.075159], [-95.885422, 30.076951], [-95.885495, 30.080716], [-95.885545, 30.083219], [-95.885509, 30.083437], [-95.885443, 30.083624], [-95.885435, 30.083647], [-95.885382, 30.083742], [-95.885094, 30.084256], [-95.885162, 30.087415], [-95.885225, 30.090294], [-95.885236, 30.090973], [-95.885315, 30.095574], [-95.885626, 30.095836], [-95.885633, 30.096243], [-95.885618, 30.096868], [-95.885612, 30.09818], [-95.885648, 30.100016], [-95.885698, 30.101223], [-95.885772, 30.102599], [-95.886175, 30.110139], [-95.886208, 30.110357], [-95.888063, 30.11699], [-95.888996, 30.120148], [-95.889058, 30.120359], [-95.889608, 30.122222], [-95.890963, 30.125443], [-95.892991, 30.130847], [-95.894842, 30.134792], [-95.896307, 30.139534], [-95.89694, 30.143105], [-95.897198, 30.144896], [-95.898387, 30.152893], [-95.898427, 30.153218], [-95.898718, 30.155057], [-95.899741, 30.161861], [-95.899807, 30.162582], [-95.899897, 30.163536], [-95.90034, 30.163863], [-95.900498, 30.165541], [-95.900532, 30.166231], [-95.900939, 30.174809], [-95.900941, 30.175067], [-95.901474, 30.178441], [-95.901894, 30.181133], [-95.902074, 30.182295], [-95.902146, 30.182506], [-95.902256, 30.182704], [-95.9024, 30.182885], [-95.902574, 30.183045], [-95.903106, 30.183397], [-95.903281, 30.183556], [-95.903425, 30.183737], [-95.903534, 30.183936], [-95.903607, 30.184146], [-95.903916, 30.186144], [-95.904432, 30.187646], [-95.911336, 30.195362], [-95.915184, 30.199495], [-95.917487, 30.201901], [-95.919928, 30.204456], [-95.922357, 30.207104], [-95.926727, 30.211761], [-95.93197, 30.217374], [-95.932684, 30.217973], [-95.932875, 30.218117], [-95.93309, 30.218234], [-95.934643, 30.218806], [-95.934845, 30.220237], [-95.936361, 30.230196], [-95.935096, 30.2312], [-95.936105, 30.237502], [-95.936141, 30.237725], [-95.936319, 30.23884], [-95.936488, 30.240481], [-95.93656, 30.241178], [-95.937623, 30.241949], [-95.937882, 30.242138], [-95.938224, 30.245337], [-95.938851, 30.251795], [-95.939654, 30.26099], [-95.939712, 30.261204], [-95.939809, 30.261407], [-95.93994, 30.261595], [-95.940091, 30.261772], [-95.940207, 30.261968], [-95.940287, 30.262177], [-95.940328, 30.262394], [-95.940628, 30.264435], [-95.941398, 30.271298], [-95.941905, 30.280505], [-95.939997, 30.281569], [-95.933751, 30.28172], [-95.933808, 30.28348], [-95.934207, 30.291189], [-95.934063, 30.291622], [-95.932017, 30.293379], [-95.931869, 30.293675], [-95.93218, 30.304901], [-95.93185, 30.306274], [-95.932082, 30.309467], [-95.929158, 30.314811], [-95.929095, 30.315024], [-95.92908, 30.315234], [-95.930144, 30.332188], [-95.930262, 30.332626], [-95.930413, 30.338548], [-95.930401, 30.339399], [-95.930602, 30.340208], [-95.930603, 30.340428], [-95.930551, 30.340643], [-95.930449, 30.340845], [-95.9299, 30.341556], [-95.927906, 30.343529], [-95.927042, 30.346686], [-95.923622, 30.352918], [-95.923034, 30.353635], [-95.922855, 30.353791], [-95.920947, 30.354996], [-95.920771, 30.355154], [-95.920629, 30.355336], [-95.920515, 30.355532], [-95.919666, 30.357803], [-95.919556, 30.358407], [-95.919778, 30.36411], [-95.91982, 30.364872], [-95.919871, 30.366442], [-95.920225, 30.368481], [-95.91772, 30.372545], [-95.914537, 30.376504], [-95.90976, 30.381789], [-95.910116, 30.388368], [-95.910079, 30.388585], [-95.908955, 30.392406], [-95.907822, 30.395866], [-95.903535, 30.403188], [-95.902632, 30.406424], [-95.902418, 30.407816], [-95.902346, 30.408027], [-95.902014, 30.408621], [-95.901892, 30.408915], [-95.901828, 30.409307], [-95.901669, 30.416555], [-95.901299, 30.418246], [-95.901205, 30.418451], [-95.899288, 30.421036], [-95.89919, 30.421239], [-95.899134, 30.421453], [-95.899121, 30.421682], [-95.899152, 30.423278], [-95.899173, 30.424398], [-95.899124, 30.424613], [-95.899025, 30.424816], [-95.898902, 30.425008], [-95.898735, 30.425174], [-95.898532, 30.425306], [-95.896405, 30.426201], [-95.8962, 30.42633], [-95.896023, 30.426488], [-95.89588, 30.42667], [-95.895643, 30.427129], [-95.887742, 30.445812], [-95.883699, 30.454785], [-95.883749, 30.456874], [-95.883919, 30.461468], [-95.881289, 30.464938], [-95.875754, 30.470161], [-95.869013, 30.476029], [-95.868088, 30.477118], [-95.865075, 30.48196], [-95.850372, 30.49698], [-95.849825, 30.497701], [-95.844736, 30.506684], [-95.841371, 30.509939], [-95.841189, 30.510093], [-95.84098, 30.510218], [-95.840748, 30.510309], [-95.840584, 30.510345], [-95.84003, 30.510416], [-95.839789, 30.510486], [-95.839566, 30.51059], [-95.835985, 30.513048], [-95.830407, 30.515827], [-95.830212, 30.515969], [-95.830048, 30.516137], [-95.829768, 30.516556], [-95.828725, 30.51848], [-95.828477, 30.518816], [-95.825112, 30.522192], [-95.82417, 30.526508], [-95.823702, 30.527375], [-95.823576, 30.527784], [-95.823322, 30.530575], [-95.823228, 30.531042], [-95.822445, 30.532654], [-95.821899, 30.535061], [-95.821136, 30.535888], [-95.82095, 30.536088], [-95.818672, 30.538556], [-95.818554, 30.53875], [-95.81762, 30.541456], [-95.816895, 30.544717], [-95.816919, 30.545778], [-95.817101, 30.547938], [-95.817632, 30.548412], [-95.817555, 30.552483], [-95.816654, 30.557495], [-95.81515, 30.570352], [-95.815077, 30.570562], [-95.814959, 30.570757], [-95.80662, 30.579738], [-95.79149, 30.595857], [-95.786802, 30.604088], [-95.785872, 30.605294], [-95.785064, 30.606623], [-95.785024, 30.606688], [-95.784933, 30.606839], [-95.784624, 30.607346], [-95.782657, 30.611839], [-95.781895, 30.613487], [-95.777435, 30.620204], [-95.77502, 30.624386], [-95.771294, 30.630879], [-95.770769, 30.63206], [-95.770717, 30.632229], [-95.769109, 30.644251], [-95.768898, 30.646053], [-95.768815, 30.646352], [-95.768324, 30.647323], [-95.765412, 30.652857], [-95.763617, 30.656196], [-95.760372, 30.662169], [-95.759791, 30.663228], [-95.758798, 30.665203], [-95.758132, 30.666318], [-95.757225, 30.667627], [-95.757095, 30.667821], [-95.754901, 30.673079], [-95.753824, 30.675394], [-95.752391, 30.678612], [-95.751204, 30.68128], [-95.750314, 30.683206], [-95.750266, 30.683433], [-95.750281, 30.684432], [-95.750263, 30.684587], [-95.750239, 30.684758], [-95.75015, 30.684958], [-95.750051, 30.685082], [-95.749927, 30.685176], [-95.749806, 30.685242], [-95.749376, 30.685473], [-95.7462, 30.687204], [-95.740799, 30.690041], [-95.739976, 30.691811], [-95.738708, 30.693395], [-95.735545, 30.697442], [-95.735508, 30.697517], [-95.734251, 30.701775], [-95.734095, 30.702535], [-95.733414, 30.704855], [-95.731729, 30.712418], [-95.730675, 30.714011], [-95.728694, 30.716674], [-95.728617, 30.716802], [-95.727791, 30.718292], [-95.727727, 30.718505], [-95.727712, 30.718705], [-95.726393, 30.733091], [-95.726321, 30.733302], [-95.722854, 30.738806], [-95.722763, 30.739012], [-95.72271, 30.739247], [-95.722828, 30.744217], [-95.716049, 30.746499], [-95.715971, 30.746671], [-95.715378, 30.747684], [-95.714844, 30.748534], [-95.713798, 30.750278], [-95.713326, 30.751236], [-95.712217, 30.753412], [-95.710409, 30.756823], [-95.707077, 30.763043], [-95.705398, 30.766235], [-95.703344, 30.768911], [-95.686061, 30.780166], [-95.675742, 30.787015], [-95.675555, 30.788246], [-95.67362, 30.789533], [-95.668764, 30.792592], [-95.663617, 30.796578], [-95.663403, 30.796697], [-95.659492, 30.798192], [-95.622879, 30.819743], [-95.618929, 30.820934], [-95.610426, 30.822964], [-95.609821, 30.824102], [-95.603728, 30.826575], [-95.603512, 30.826693], [-95.603314, 30.826832], [-95.603138, 30.82699], [-95.597183, 30.833878], [-95.597003, 30.834035], [-95.589642, 30.838868], [-95.585191, 30.838919], [-95.577169, 30.83772], [-95.515447, 30.838402], [-95.514858, 30.838423], [-95.514609, 30.83847], [-95.514373, 30.838553], [-95.510046, 30.840917], [-95.492271, 30.836995], [-95.491987, 30.836981], [-95.491735, 30.83701], [-95.485603, 30.838888], [-95.485351, 30.838921], [-95.478492, 30.838771], [-95.470318, 30.838564], [-95.470069, 30.838516], [-95.465259, 30.836618], [-95.462867, 30.835166], [-95.462636, 30.835072], [-95.46239, 30.835015], [-95.458337, 30.834691], [-95.457584, 30.834361], [-95.457487, 30.834219], [-95.456906, 30.833262], [-95.454711, 30.830538], [-95.454608, 30.830337], [-95.453894, 30.82739], [-95.453822, 30.827234], [-95.453276, 30.826475], [-95.452622, 30.825463], [-95.451557, 30.823582], [-95.450746, 30.822713], [-95.445292, 30.819976], [-95.44378, 30.820293], [-95.441913, 30.820157], [-95.435921, 30.817835], [-95.435087, 30.817207], [-95.434907, 30.81676], [-95.43428, 30.815755], [-95.432792, 30.814055], [-95.43268, 30.813857], [-95.431843, 30.81117], [-95.431164, 30.810546], [-95.430746, 30.810294], [-95.430276, 30.810124], [-95.428845, 30.809843], [-95.427031, 30.80925], [-95.42678, 30.809213], [-95.418753, 30.809365], [-95.414694, 30.8052], [-95.410961, 30.801754], [-95.403003, 30.793475], [-95.398221, 30.788336], [-95.397053, 30.788295], [-95.392701, 30.785475], [-95.379715, 30.777663], [-95.372813, 30.773112], [-95.3718, 30.771391], [-95.373107, 30.768947], [-95.373648, 30.764096], [-95.369779, 30.759766], [-95.359875, 30.754901], [-95.357037, 30.75288], [-95.352627, 30.750168], [-95.349632, 30.748109], [-95.344273, 30.745502], [-95.337981, 30.742439], [-95.337754, 30.742329], [-95.332366, 30.739706], [-95.33221, 30.738954], [-95.332121, 30.738521], [-95.33173, 30.737487], [-95.331031, 30.736095], [-95.330539, 30.734763], [-95.330415, 30.73457], [-95.325728, 30.729771], [-95.322651, 30.725147], [-95.316727, 30.71963], [-95.31228, 30.715402], [-95.311753, 30.715169], [-95.310179, 30.715344], [-95.309245, 30.71407], [-95.303957, 30.711734], [-95.300134, 30.70842], [-95.290672, 30.69823], [-95.266801, 30.676614], [-95.251382, 30.669084], [-95.25093, 30.669168], [-95.250202, 30.668799], [-95.24978, 30.668564], [-95.249582, 30.668426], [-95.248981, 30.667984], [-95.248562, 30.667559], [-95.247058, 30.666856], [-95.246753, 30.666692], [-95.234789, 30.661008], [-95.232409, 30.65998], [-95.229146, 30.657134], [-95.227563, 30.65633], [-95.205926, 30.643426], [-95.205182, 30.642945], [-95.200723, 30.639843], [-95.200243, 30.639458], [-95.19054, 30.632689], [-95.189596, 30.632862], [-95.184623, 30.631609], [-95.183781, 30.631084], [-95.182143, 30.630665], [-95.181071, 30.630662], [-95.175431, 30.629237], [-95.166415, 30.628291], [-95.163835, 30.627889], [-95.163639, 30.627932], [-95.160626, 30.627472], [-95.160431, 30.62737], [-95.152603, 30.626165], [-95.149785, 30.625087], [-95.149233, 30.625016], [-95.148474, 30.625122], [-95.147807, 30.625922], [-95.147148, 30.626251], [-95.143698, 30.625738], [-95.142676, 30.624327], [-95.142034, 30.62371], [-95.141712, 30.623464], [-95.141497, 30.623243], [-95.141314, 30.622997], [-95.1408, 30.622476], [-95.140591, 30.622225], [-95.13999, 30.622271], [-95.139147, 30.621757], [-95.138082, 30.620453], [-95.135263, 30.619872], [-95.134615, 30.619567], [-95.134455, 30.618958], [-95.134012, 30.617681], [-95.133969, 30.617606], [-95.131072, 30.613171], [-95.128203, 30.610844], [-95.125924, 30.609191], [-95.125052, 30.607272], [-95.123512, 30.605593], [-95.123438, 30.605517], [-95.121816, 30.604193], [-95.120778, 30.603594], [-95.117469, 30.600689], [-95.116804, 30.600427], [-95.115554, 30.599151], [-95.115084, 30.598895], [-95.111255, 30.59862], [-95.109524, 30.597822], [-95.091103, 30.589984], [-95.090898, 30.589854], [-95.090723, 30.589694], [-95.086933, 30.584671], [-95.084557, 30.582397], [-95.075288, 30.574348], [-95.069111, 30.57068], [-95.048326, 30.555294], [-95.047008, 30.553888], [-95.04681, 30.553751], [-95.046582, 30.553653], [-95.046336, 30.553599], [-95.046082, 30.553592], [-95.044772, 30.5538], [-95.044518, 30.55379], [-95.044273, 30.553731], [-95.04405, 30.553625], [-95.042822, 30.552682], [-95.029837, 30.547541], [-95.001135, 30.540074], [-95.000884, 30.540038], [-94.996489, 30.539907], [-94.995896, 30.539357], [-94.975548, 30.535342], [-94.972903, 30.53407], [-94.972662, 30.533999], [-94.972393, 30.533967], [-94.970204, 30.53402], [-94.96943, 30.534194], [-94.964709, 30.534302], [-94.957564, 30.534507], [-94.950884, 30.534627], [-94.948704, 30.534666], [-94.944463, 30.532566], [-94.944273, 30.53242], [-94.944122, 30.532243], [-94.922831, 30.49207], [-94.897244, 30.462828], [-94.897048, 30.462604], [-94.891662, 30.45645], [-94.870918, 30.441759], [-94.86917, 30.440739], [-94.868984, 30.440589], [-94.868827, 30.440416], [-94.86818, 30.439413], [-94.864695, 30.436995], [-94.858352, 30.432764], [-94.844084, 30.424814], [-94.832843, 30.42208], [-94.807537, 30.414709], [-94.807314, 30.414604], [-94.807115, 30.414467], [-94.805272, 30.413051], [-94.797998, 30.405481], [-94.780508, 30.38917], [-94.780375, 30.388982], [-94.780289, 30.388775], [-94.778957, 30.38104], [-94.778859, 30.380837], [-94.778712, 30.380658], [-94.765961, 30.370669], [-94.759192, 30.361971], [-94.759017, 30.361824], [-94.758794, 30.361701], [-94.758557, 30.361623], [-94.758307, 30.361588], [-94.758053, 30.361599], [-94.757056, 30.361821], [-94.756803, 30.361834], [-94.750096, 30.361058], [-94.749858, 30.360982], [-94.749645, 30.360863], [-94.749467, 30.360706], [-94.749332, 30.36052], [-94.746367, 30.353369], [-94.746234, 30.353182], [-94.712072, 30.321998], [-94.711928, 30.321817], [-94.711817, 30.321619], [-94.710091, 30.316638], [-94.706596, 30.306919], [-94.701187, 30.291992], [-94.700343, 30.289649], [-94.699523, 30.287307], [-94.698732, 30.285277], [-94.695929, 30.277603], [-94.693538, 30.270586], [-94.69359, 30.270115], [-94.693587, 30.270047], [-94.693576, 30.269976], [-94.693539, 30.269862], [-94.691893, 30.264968], [-94.691833, 30.264846], [-94.691769, 30.264748], [-94.691398, 30.264193], [-94.691355, 30.264108], [-94.689021, 30.257084], [-94.68785, 30.252666], [-94.687056, 30.24885], [-94.686766, 30.247499], [-94.686337, 30.245954], [-94.685783, 30.244868], [-94.683992, 30.238096], [-94.683302, 30.23772], [-94.68284, 30.236707], [-94.681722, 30.235034], [-94.680568, 30.233307], [-94.678337, 30.229968], [-94.674499, 30.224223], [-94.67433, 30.224059], [-94.673988, 30.22384], [-94.671665, 30.22234], [-94.667069, 30.219387], [-94.662473, 30.216434], [-94.657839, 30.213519], [-94.653232, 30.210547], [-94.648647, 30.20759], [-94.644033, 30.204656], [-94.639239, 30.201559], [-94.635146, 30.198921], [-94.632745, 30.197406], [-94.630547, 30.195879], [-94.62825, 30.194428], [-94.628151, 30.19383], [-94.625032, 30.191825], [-94.624874, 30.191723], [-94.622711, 30.190333], [-94.620206, 30.188719], [-94.611439, 30.183076], [-94.594159, 30.171954], [-94.578658, 30.161706], [-94.578134, 30.161342], [-94.577998, 30.161273], [-94.577445, 30.161063], [-94.572171, 30.158968], [-94.572058, 30.158909], [-94.571905, 30.158803], [-94.571045, 30.158147], [-94.569055, 30.156628], [-94.568904, 30.156531], [-94.568638, 30.15642], [-94.566134, 30.155451], [-94.565899, 30.15539], [-94.565571, 30.155359], [-94.562055, 30.155134], [-94.561833, 30.155104], [-94.561576, 30.155011], [-94.548374, 30.149797], [-94.542273, 30.147393], [-94.515759, 30.136939], [-94.502903, 30.131868], [-94.502697, 30.131741], [-94.502522, 30.131582], [-94.502385, 30.131397], [-94.502291, 30.131192], [-94.502243, 30.130976], [-94.502245, 30.128617], [-94.502189, 30.128402], [-94.502079, 30.128204], [-94.501922, 30.128032], [-94.501724, 30.127894], [-94.501496, 30.127799], [-94.50125, 30.127749], [-94.490727, 30.127727], [-94.49048, 30.12768], [-94.484289, 30.125222], [-94.473717, 30.121045], [-94.461348, 30.116156], [-94.452758, 30.112759], [-94.452174, 30.11272], [-94.450962, 30.112244], [-94.450763, 30.112166], [-94.448485, 30.11127], [-94.448386, 30.111045], [-94.445212, 30.109773], [-94.445025, 30.109697], [-94.445022, 30.109696], [-94.437832, 30.106815], [-94.428563, 30.103172], [-94.418068, 30.099027], [-94.41771, 30.098195], [-94.414086, 30.096756], [-94.412707, 30.096026], [-94.409497, 30.094777], [-94.408202, 30.094421], [-94.403848, 30.09271], [-94.403642, 30.092582], [-94.403468, 30.092423], [-94.374193, 30.051763], [-94.372864, 30.050256], [-94.372864, 30.047621], [-94.372804, 30.04743], [-94.372781, 30.044013], [-94.372463, 30.041629], [-94.366634, 30.037625], [-94.366411, 30.037521], [-94.366171, 30.037452], [-94.36592, 30.037421], [-94.363606, 30.03749], [-94.361403, 30.034163], [-94.361244, 30.033992], [-94.361056, 30.033845], [-94.314071, 30.007335], [-94.301291, 29.999175], [-94.288411, 29.993851], [-94.286301, 29.993842], [-94.279247, 29.990063], [-94.266146, 29.984645], [-94.250532, 29.978658], [-94.249131, 29.978677], [-94.249114, 29.978114], [-94.231299, 29.971279], [-94.218982, 29.961101], [-94.209756, 29.961141], [-94.208899, 29.960953], [-94.20796, 29.960931], [-94.193289, 29.931904], [-94.176177, 29.9309], [-94.153089, 29.932845], [-94.148419, 29.931177], [-94.140502, 29.930794], [-94.140092, 29.919227], [-94.127423, 29.914822], [-94.127327, 29.911088], [-94.127267, 29.910875], [-94.127154, 29.910678], [-94.126995, 29.910507], [-94.126798, 29.91037], [-94.124594, 29.909439], [-94.124396, 29.909302], [-94.124237, 29.909132], [-94.124124, 29.908935], [-94.124063, 29.908722], [-94.124012, 29.907101], [-94.12395, 29.906888], [-94.123835, 29.906692], [-94.123674, 29.906523], [-94.123474, 29.906389], [-94.121998, 29.905791], [-94.121798, 29.905657], [-94.121636, 29.905488], [-94.121521, 29.905293], [-94.121458, 29.90508], [-94.12122, 29.898671], [-94.121113, 29.896683], [-94.121077, 29.896032], [-94.121011, 29.89582], [-94.120893, 29.895625], [-94.12073, 29.895457], [-94.120529, 29.895324], [-94.1203, 29.895232], [-94.120052, 29.895187], [-94.112967, 29.895236], [-94.11272, 29.895193], [-94.112487, 29.895107], [-94.11228, 29.894982], [-94.106964, 29.890106], [-94.106763, 29.889972], [-94.106541, 29.889868], [-94.105965, 29.889691], [-94.091552, 29.885206], [-94.082354, 29.87918], [-94.077719, 29.876408], [-94.075961, 29.874523], [-94.072521, 29.865754], [-94.072098, 29.864674], [-94.063285, 29.86544], [-94.061048, 29.864872], [-94.054327, 29.862376], [-94.051158, 29.860787], [-94.048143, 29.858983], [-94.045096, 29.856944], [-94.042042, 29.854901], [-94.038393, 29.853131], [-94.017677, 29.843429], [-94.014415, 29.841963], [-94.011157, 29.840499], [-93.995305, 29.831778], [-93.99162, 29.829184], [-93.979103, 29.816112], [-93.977734, 29.815015], [-93.968991, 29.793045], [-93.967851, 29.790314], [-93.965346, 29.784982], [-93.963956, 29.782594], [-93.9629, 29.781021], [-93.962306, 29.780226], [-93.961678, 29.779515], [-93.960652, 29.778564], [-93.957808, 29.775895], [-93.952975, 29.772068]]]}}
]
}
