{
"type": "FeatureCollection",
"features": [
{"type": "Feature", "properties": {"ProjectID": "P7804", "id": 9, "Name": null, "Type": null}, "geometry": {"type": "MultiLineString", "coordinates": [[[-46.51912, -23.790899], [-46.517218, -23.792271], [-46.515373, -23.793711], [-46.513805, -23.795021], [-46.512597, -23.796156], [-46.512022, -23.796793], [-46.511657, -23.797236], [-46.511543, -23.797886], [-46.511278, -23.800889], [-46.510341, -23.805466], [-46.509231, -23.809577], [-46.508556, -23.814419], [-46.508045, -23.820048], [-46.507309, -23.828051], [-46.506772, -23.835475], [-46.499662, -23.835772], [-46.49443, -23.83626], [-46.488811, -23.835964], [-46.483579, -23.838997], [-46.473231, -23.845918], [-46.466455, -23.853334], [-46.465078, -23.855281], [-46.462425, -23.859727], [-46.460765, -23.86298], [-46.46066, -23.864157], [-46.460437, -23.864907], [-46.459705, -23.865381], [-46.458963, -23.865621], [-46.457834, -23.865925], [-46.457176, -23.866565], [-46.455394, -23.868719], [-46.453863, -23.870691], [-46.452815, -23.872004], [-46.451784, -23.8746], [-46.449819, -23.875407], [-46.448373, -23.876332], [-46.44737, -23.877288], [-46.446724, -23.876663], [-46.445318, -23.875191], [-46.442784, -23.874841], [-46.439891, -23.875247], [-46.436144, -23.874556], [-46.427294, -23.871761], [-46.424908, -23.870721]]]}}
]
}
