{
"type": "FeatureCollection",
"features": [
{"type": "Feature", "properties": {"ProjectID": "P7802", "PrjName": "Mississippi Crossing Pipeline", "OGW_ID": "rec_ctko8fqab52bjran0oj0", "Res": "High", "DataSrce": "FERC Draft Resource Reports", "SrceDate": 2024, "SrceLink": "https://elibrary.ferc.gov/eLibrary/filelist?accession_number=20241218-5209&optimized=false", "DigName": "LM", "Method": "Georeferenced", "DigDate": "2025-01-10", "Notes": null, "Shape_Leng": 391154.952457, "Additional": 1500.0, "AffectedSt": "MS, AL", "Miles": 206.0, "PipelineDi": "36, 42", "ProductTyp": "Natural Gas", "ProductUni": "MMscf/d", "ProjectTyp": "New Pipeline", "Mile_check": 204}, "geometry": {"type": "MultiLineString", "coordinates": [[[-91.054105, 33.35829], [-91.05414, 33.358934], [-91.053133, 33.358914], [-91.051474, 33.358973], [-91.050064, 33.359805], [-91.044436, 33.363288], [-91.042267, 33.365109], [-91.036651, 33.364792], [-91.034968, 33.364723], [-91.027503, 33.364693], [-91.017158, 33.36463], [-91.0094, 33.364908], [-91.003087, 33.365078], [-91.002161, 33.365047], [-90.996977, 33.364599], [-90.984906, 33.364707], [-90.972594, 33.364784], [-90.969909, 33.364831], [-90.963633, 33.361491], [-90.959893, 33.359156], [-90.957356, 33.357532], [-90.955449, 33.355831], [-90.953968, 33.355784], [-90.952265, 33.355692], [-90.950784, 33.355707], [-90.949488, 33.355351], [-90.939842, 33.351903], [-90.937694, 33.35116], [-90.936898, 33.351176], [-90.934454, 33.350016], [-90.927418, 33.346722], [-90.919587, 33.343072], [-90.919587, 33.342144], [-90.916884, 33.339963], [-90.913773, 33.337426], [-90.9127, 33.337426], [-90.912403, 33.337039], [-90.909904, 33.3354], [-90.909552, 33.335044], [-90.908589, 33.334441], [-90.907275, 33.333605], [-90.905923, 33.332615], [-90.893482, 33.328361], [-90.880059, 33.323612], [-90.874041, 33.321477], [-90.872579, 33.320719], [-90.866895, 33.319559], [-90.858878, 33.317857], [-90.854786, 33.317006], [-90.84677, 33.313881], [-90.843122, 33.312488], [-90.831032, 33.308094], [-90.818831, 33.303746], [-90.816221, 33.302802], [-90.807167, 33.299939], [-90.806038, 33.298949], [-90.802002, 33.29768], [-90.798836, 33.296612], [-90.795688, 33.295343], [-90.794151, 33.294786], [-90.783654, 33.291273], [-90.777007, 33.28906], [-90.764306, 33.284866], [-90.763991, 33.284665], [-90.763621, 33.284603], [-90.756456, 33.282869], [-90.75092, 33.280269], [-90.747865, 33.278845], [-90.746255, 33.278148], [-90.73809, 33.27479], [-90.73722, 33.274031], [-90.734017, 33.270858], [-90.725241, 33.27092], [-90.72189, 33.270099], [-90.72076, 33.269697], [-90.713003, 33.267824], [-90.710318, 33.267189], [-90.709503, 33.266988], [-90.707541, 33.265982], [-90.707004, 33.264372], [-90.70643, 33.262591], [-90.703171, 33.257916], [-90.702801, 33.257359], [-90.698524, 33.254696], [-90.691433, 33.254696], [-90.678158, 33.254696], [-90.669383, 33.254757], [-90.66481, 33.253921], [-90.66418, 33.253782], [-90.658552, 33.253767], [-90.657793, 33.253767], [-90.656108, 33.253565], [-90.654682, 33.253658], [-90.653812, 33.253782], [-90.647202, 33.253736], [-90.640667, 33.253643], [-90.631539, 33.253643], [-90.629799, 33.253643], [-90.627836, 33.253705], [-90.623652, 33.253921], [-90.620856, 33.253999], [-90.617357, 33.253983], [-90.613228, 33.254169], [-90.612266, 33.254231], [-90.606322, 33.253596], [-90.599546, 33.2529], [-90.598232, 33.252869], [-90.597824, 33.251522], [-90.595325, 33.249648], [-90.590437, 33.245808], [-90.590085, 33.245591], [-90.588549, 33.245003], [-90.582698, 33.243424], [-90.581013, 33.241698], [-90.572363, 33.241553], [-90.566664, 33.241577], [-90.563858, 33.241166], [-90.557754, 33.234971], [-90.556359, 33.233525], [-90.549176, 33.231754], [-90.544125, 33.230527], [-90.538111, 33.229053], [-90.532379, 33.227677], [-90.529624, 33.225051], [-90.528899, 33.22432], [-90.521182, 33.222647], [-90.513983, 33.221098], [-90.504341, 33.219016], [-90.501468, 33.218397], [-90.495987, 33.218434], [-90.489915, 33.216439], [-90.480169, 33.213366], [-90.470186, 33.210144], [-90.466527, 33.208979], [-90.462513, 33.208236], [-90.459432, 33.207418], [-90.453286, 33.205745], [-90.452827, 33.205621], [-90.447865, 33.203316], [-90.442769, 33.20101], [-90.437334, 33.200924], [-90.431513, 33.200824], [-90.426891, 33.200775], [-90.426195, 33.20075], [-90.42187, 33.194888], [-90.419812, 33.192074], [-90.411947, 33.192111], [-90.401416, 33.192173], [-90.391507, 33.192322], [-90.383968, 33.192347], [-90.371481, 33.192508], [-90.363705, 33.187414], [-90.36095, 33.185653], [-90.358418, 33.184191], [-90.358047, 33.18398], [-90.353796, 33.180162], [-90.349768, 33.176554], [-90.341118, 33.176319], [-90.335445, 33.171856], [-90.329876, 33.172215], [-90.32758, 33.172724], [-90.320011, 33.174459], [-90.316605, 33.175215], [-90.315879, 33.175414], [-90.311006, 33.17524], [-90.301912, 33.173455], [-90.301615, 33.172786], [-90.291144, 33.169624], [-90.287633, 33.168409], [-90.286256, 33.167988], [-90.281946, 33.162111], [-90.277191, 33.16216], [-90.274377, 33.162222], [-90.268852, 33.161677], [-90.258662, 33.160263], [-90.256173, 33.159866], [-90.249019, 33.158862], [-90.24585, 33.158453], [-90.244487, 33.157572], [-90.242887, 33.157014], [-90.24151, 33.156022], [-90.232979, 33.154249], [-90.217065, 33.150944], [-90.211164, 33.149258], [-90.20517, 33.147669], [-90.199014, 33.14765], [-90.185151, 33.147611], [-90.166104, 33.14763], [-90.158814, 33.143096], [-90.15326, 33.139588], [-90.150019, 33.137544], [-90.148671, 33.136689], [-90.14605, 33.135473], [-90.138555, 33.131851], [-90.130749, 33.128093], [-90.126439, 33.126059], [-90.118974, 33.122461], [-90.115271, 33.120613], [-90.11185, 33.11977], [-90.11025, 33.120067], [-90.105925, 33.119708], [-90.101659, 33.118938], [-90.099749, 33.117797], [-90.096534, 33.118194], [-90.095587, 33.118058], [-90.094713, 33.117202], [-90.092239, 33.115738], [-90.090758, 33.11508], [-90.089943, 33.114361], [-90.084345, 33.110962], [-90.083589, 33.110602], [-90.083352, 33.109944], [-90.077368, 33.106284], [-90.076465, 33.105416], [-90.076124, 33.105205], [-90.075073, 33.104746], [-90.069252, 33.10121], [-90.06857, 33.100478], [-90.066112, 33.099386], [-90.064097, 33.097897], [-90.064941, 33.095874], [-90.064956, 33.095192], [-90.064867, 33.094807], [-90.062957, 33.092412], [-90.062646, 33.092003], [-90.060898, 33.090476], [-90.060631, 33.090191], [-90.060083, 33.089905], [-90.056069, 33.089074], [-90.055166, 33.089062], [-90.0513, 33.089124], [-90.048427, 33.087101], [-90.04188, 33.087088], [-90.039954, 33.086468], [-90.038266, 33.085922], [-90.033082, 33.084209], [-90.025676, 33.08128], [-90.019263, 33.078823], [-90.01039, 33.075547], [-90.00614, 33.074032], [-89.994083, 33.073672], [-89.986292, 33.073474], [-89.977879, 33.073226], [-89.974739, 33.073151], [-89.970918, 33.072704], [-89.970133, 33.072667], [-89.966074, 33.07222], [-89.957543, 33.071203], [-89.956151, 33.071054], [-89.947708, 33.069428], [-89.94165, 33.068298], [-89.937207, 33.067466], [-89.936851, 33.067317], [-89.932097, 33.06692], [-89.928823, 33.066598], [-89.925876, 33.066312], [-89.92315, 33.065915], [-89.916752, 33.065381], [-89.912886, 33.060701], [-89.910872, 33.059187], [-89.903155, 33.053576], [-89.895867, 33.053476], [-89.883396, 33.053228], [-89.874287, 33.053054], [-89.8666, 33.052893], [-89.865578, 33.052434], [-89.856232, 33.052881], [-89.84379, 33.053526], [-89.836725, 33.053861], [-89.829097, 33.049988], [-89.821054, 33.047654], [-89.815085, 33.045667], [-89.811575, 33.044525], [-89.804436, 33.043768], [-89.800762, 33.041632], [-89.794779, 33.038106], [-89.788202, 33.034232], [-89.786247, 33.034244], [-89.780619, 33.032618], [-89.771125, 33.029923], [-89.765704, 33.028383], [-89.764756, 33.028371], [-89.762652, 33.028582], [-89.759216, 33.028334], [-89.757483, 33.028296], [-89.755676, 33.028309], [-89.754032, 33.028383], [-89.752358, 33.028607], [-89.751958, 33.028644], [-89.74984, 33.028296], [-89.741294, 33.028793], [-89.737961, 33.027949], [-89.729637, 33.025937], [-89.717995, 33.023105], [-89.715507, 33.022534], [-89.7141, 33.021665], [-89.708694, 33.021106], [-89.702621, 33.017368], [-89.69446, 33.012313], [-89.69089, 33.010077], [-89.690387, 33.009891], [-89.687054, 33.009543], [-89.68581, 33.009704], [-89.681915, 33.011431], [-89.671843, 33.011319], [-89.667221, 33.011294], [-89.66654, 33.011207], [-89.666111, 33.011232], [-89.657861, 33.008997], [-89.653698, 33.007916], [-89.647492, 33.008003], [-89.635006, 33.008115], [-89.621765, 33.008276], [-89.616951, 33.008375], [-89.610212, 33.008363], [-89.609308, 33.008438], [-89.607901, 33.00845], [-89.604761, 33.008139], [-89.596585, 33.008102], [-89.58398, 33.008077], [-89.575345, 33.008065], [-89.568191, 33.008115], [-89.566755, 33.005059], [-89.566281, 33.00491], [-89.56317, 33.005432], [-89.554017, 33.003916], [-89.550269, 32.998687], [-89.549455, 32.997556], [-89.547737, 32.99255], [-89.547559, 32.9885], [-89.550166, 32.983866], [-89.552299, 32.983555], [-89.552254, 32.983406], [-89.550142, 32.983767], [-89.547734, 32.981987], [-89.547474, 32.981784], [-89.5433, 32.97747], [-89.540901, 32.975045], [-89.540911, 32.972182], [-89.540923, 32.96724], [-89.537576, 32.962145], [-89.537443, 32.960816], [-89.533029, 32.955621], [-89.529696, 32.951681], [-89.525312, 32.946473], [-89.524364, 32.945267], [-89.51998, 32.939115], [-89.516677, 32.93449], [-89.507464, 32.932812], [-89.49911, 32.931345], [-89.495867, 32.929244], [-89.491749, 32.926609], [-89.490283, 32.925651], [-89.483484, 32.922033], [-89.479396, 32.919857], [-89.475071, 32.917532], [-89.474434, 32.917495], [-89.470509, 32.91568], [-89.470272, 32.915108], [-89.464377, 32.911203], [-89.459712, 32.908542], [-89.452039, 32.904103], [-89.447877, 32.900372], [-89.446988, 32.899576], [-89.438561, 32.894179], [-89.435154, 32.892587], [-89.425112, 32.888259], [-89.421587, 32.886754], [-89.415632, 32.882201], [-89.412122, 32.879515], [-89.408375, 32.872113], [-89.40479, 32.865022], [-89.399213, 32.856458], [-89.395001, 32.850042], [-89.389446, 32.843878], [-89.386415, 32.840612], [-89.38417, 32.834662], [-89.382735, 32.831084], [-89.382411, 32.826611], [-89.377991, 32.822799], [-89.373964, 32.819862], [-89.370238, 32.815895], [-89.368965, 32.815895], [-89.365655, 32.810624], [-89.36584, 32.809165], [-89.366326, 32.808387], [-89.366026, 32.805216], [-89.365077, 32.799263], [-89.36466, 32.796871], [-89.36466, 32.796209], [-89.363781, 32.794478], [-89.363665, 32.792221], [-89.362948, 32.791365], [-89.362821, 32.791147], [-89.355843, 32.787182], [-89.354547, 32.786482], [-89.348229, 32.783952], [-89.332977, 32.777648], [-89.331103, 32.777181], [-89.32777, 32.776383], [-89.325641, 32.775722], [-89.321336, 32.774379], [-89.311292, 32.774126], [-89.30472, 32.773776], [-89.298702, 32.770682], [-89.297036, 32.769806], [-89.295648, 32.768697], [-89.292107, 32.766692], [-89.284516, 32.76245], [-89.281947, 32.76099], [-89.278591, 32.759064], [-89.277573, 32.75776], [-89.276508, 32.756689], [-89.274078, 32.75449], [-89.266649, 32.748943], [-89.263872, 32.746899], [-89.261002, 32.744213], [-89.259753, 32.742052], [-89.25929, 32.739638], [-89.259174, 32.738859], [-89.25689, 32.734586], [-89.253708, 32.730632], [-89.250357, 32.725018], [-89.246469, 32.719371], [-89.245682, 32.717716], [-89.245034, 32.716392], [-89.239294, 32.709187], [-89.239155, 32.707084], [-89.23573, 32.703443], [-89.234411, 32.699548], [-89.232791, 32.694971], [-89.230014, 32.692556], [-89.22638, 32.689459], [-89.22527, 32.688407], [-89.221381, 32.685856], [-89.213999, 32.680343], [-89.211823, 32.678921], [-89.202589, 32.675454], [-89.197683, 32.670311], [-89.195693, 32.668187], [-89.195739, 32.665674], [-89.193587, 32.663784], [-89.191643, 32.660102], [-89.186273, 32.654256], [-89.183057, 32.650729], [-89.178127, 32.64728], [-89.175581, 32.644922], [-89.17417, 32.643968], [-89.170027, 32.641161], [-89.164519, 32.637848], [-89.163061, 32.637205], [-89.15996, 32.636016], [-89.15915, 32.635685], [-89.158849, 32.635393], [-89.158918, 32.630871], [-89.159034, 32.624731], [-89.148319, 32.61325], [-89.145102, 32.609956], [-89.145102, 32.609429], [-89.142903, 32.603093], [-89.140427, 32.600344], [-89.138344, 32.592448], [-89.136192, 32.581976], [-89.136293, 32.579776], [-89.136763, 32.578954], [-89.136799, 32.577461], [-89.136849, 32.577058], [-89.137575, 32.574974], [-89.137605, 32.572714], [-89.132124, 32.56133], [-89.130728, 32.558328], [-89.130282, 32.557761], [-89.127931, 32.556594], [-89.125457, 32.553766], [-89.124007, 32.552983], [-89.119771, 32.548397], [-89.117002, 32.544713], [-89.114439, 32.542741], [-89.11435, 32.542591], [-89.114143, 32.541192], [-89.11401, 32.540918], [-89.111995, 32.540843], [-89.111714, 32.540668], [-89.110988, 32.53912], [-89.109744, 32.536173], [-89.106663, 32.529767], [-89.104175, 32.524422], [-89.098161, 32.520775], [-89.095081, 32.518927], [-89.091985, 32.515342], [-89.087423, 32.510096], [-89.081321, 32.503126], [-89.080387, 32.502039], [-89.075203, 32.498817], [-89.072493, 32.497105], [-89.066065, 32.495394], [-89.064939, 32.494744], [-89.063621, 32.494369], [-89.060984, 32.494282], [-89.053549, 32.491896], [-89.052557, 32.490034], [-89.052394, 32.488672], [-89.050779, 32.487098], [-89.04287, 32.48315], [-89.036886, 32.480026], [-89.026162, 32.474379], [-89.025229, 32.473904], [-89.024444, 32.473367], [-89.023793, 32.472917], [-89.019349, 32.468718], [-89.01418, 32.463894], [-89.012551, 32.462307], [-89.007411, 32.459795], [-89.005989, 32.459108], [-88.999931, 32.455009], [-88.99611, 32.452409], [-88.995177, 32.451784], [-88.992422, 32.450497], [-88.990585, 32.449197], [-88.989089, 32.447659], [-88.986601, 32.445147], [-88.982202, 32.440635], [-88.979802, 32.439835], [-88.976025, 32.438672], [-88.972145, 32.435897], [-88.964206, 32.430396], [-88.957644, 32.425908], [-88.955896, 32.424658], [-88.952134, 32.42202], [-88.951349, 32.421995], [-88.946284, 32.418019], [-88.9379, 32.411454], [-88.934212, 32.408553], [-88.93279, 32.408541], [-88.928302, 32.403401], [-88.924214, 32.398824], [-88.917179, 32.395385], [-88.910469, 32.392058], [-88.904382, 32.386605], [-88.900901, 32.385892], [-88.898472, 32.385404], [-88.891896, 32.383616], [-88.887082, 32.382277], [-88.886208, 32.382152], [-88.881039, 32.380551], [-88.87427, 32.377799], [-88.870582, 32.376286], [-88.863768, 32.373396], [-88.86211, 32.367316], [-88.860214, 32.360047], [-88.859473, 32.357157], [-88.856644, 32.35438], [-88.854822, 32.347898], [-88.852971, 32.341341], [-88.851904, 32.337449], [-88.84989, 32.33586], [-88.840944, 32.328801], [-88.835715, 32.324658], [-88.831035, 32.321091], [-88.827969, 32.317662], [-88.823229, 32.314457], [-88.813765, 32.307998], [-88.811469, 32.306395], [-88.798049, 32.297243], [-88.790203, 32.291843], [-88.787287, 32.284546], [-88.78407, 32.275976], [-88.781779, 32.270164], [-88.781062, 32.268599], [-88.777729, 32.267072], [-88.772082, 32.26398], [-88.758219, 32.263472], [-88.75005, 32.261828], [-88.743107, 32.256857], [-88.74276, 32.256622], [-88.728504, 32.251925], [-88.723482, 32.250281], [-88.722625, 32.248852], [-88.722232, 32.247227], [-88.722371, 32.245172], [-88.721746, 32.242843], [-88.720959, 32.240787], [-88.720751, 32.240063], [-88.719918, 32.238791], [-88.719409, 32.236422], [-88.719085, 32.236011], [-88.718714, 32.233173], [-88.718483, 32.232331], [-88.71714, 32.230588], [-88.716724, 32.230138], [-88.713854, 32.228572], [-88.711494, 32.225283], [-88.710498, 32.223071], [-88.710568, 32.221739], [-88.706749, 32.212733], [-88.70631, 32.211597], [-88.700362, 32.205781], [-88.695941, 32.201375], [-88.692678, 32.198105], [-88.691405, 32.197341], [-88.673956, 32.197478], [-88.662407, 32.197595], [-88.654215, 32.197634], [-88.647966, 32.189174], [-88.643939, 32.183748], [-88.630423, 32.179243], [-88.61265, 32.173327], [-88.609016, 32.173386], [-88.597699, 32.167842], [-88.58865, 32.163963], [-88.588697, 32.162768], [-88.58099, 32.159144], [-88.562036, 32.150092], [-88.540652, 32.139883], [-88.524382, 32.132122], [-88.51855, 32.129398], [-88.504803, 32.121009], [-88.504733, 32.120127], [-88.500961, 32.118245], [-88.494041, 32.114168], [-88.485085, 32.108935], [-88.479022, 32.104622], [-88.477054, 32.104308], [-88.469463, 32.097976], [-88.467774, 32.096505], [-88.457614, 32.091192], [-88.451157, 32.0878], [-88.450324, 32.086153], [-88.444006, 32.083761], [-88.442641, 32.083133], [-88.436022, 32.079408], [-88.425677, 32.074721], [-88.417901, 32.071132], [-88.4151, 32.069896], [-88.412786, 32.068602], [-88.410935, 32.068092], [-88.401724, 32.06819], [-88.39934, 32.068641], [-88.391448, 32.066464], [-88.381728, 32.063503], [-88.379344, 32.062738], [-88.37504, 32.060973], [-88.368675, 32.059364], [-88.363468, 32.057442], [-88.360529, 32.057423]], [[-90.564344, 33.241237], [-90.563972, 33.242767], [-90.563765, 33.243647], [-90.563795, 33.24761], [-90.563786, 33.249978], [-90.562846, 33.255845], [-90.564618, 33.259171], [-90.564904, 33.25962], [-90.564998, 33.265749], [-90.565044, 33.270858], [-90.563563, 33.272696], [-90.563471, 33.276856], [-90.559513, 33.281538], [-90.556505, 33.284943], [-90.555741, 33.285794], [-90.54977, 33.290573], [-90.541925, 33.296821], [-90.540027, 33.298369], [-90.5388, 33.299897], [-90.538036, 33.300477], [-90.536486, 33.301173], [-90.530515, 33.306009], [-90.531302, 33.307788], [-90.531695, 33.311483], [-90.529057, 33.311483], [-90.529057, 33.314364], [-90.525748, 33.314345]]]}}
]
}
