{
"type": "FeatureCollection",
"features": [
{"type": "Feature", "properties": {"ProjectID": "P7809", "PrjName": "East Tennessee NaturalGas Alignment Program", "OGW_ID": "5754", "Res": "Medium", "DataSrce": "FERC Application", "SrceDate": 2023, "SrceLink": "https://elibrary.ferc.gov/eLibrary/filelist?accession_number=20230331-5593&optimized=false", "DigName": "LM", "Method": "Georeferenced", "DigDate": "2023-05-18", "Notes": null, "Shape_Leng": 44642.76457340001, "Additional": 0.0, "AffectedSt": "NC, TN, VA", "Miles": 22.44, "PipelineDi": "24", "ProductTyp": "Natural Gas", "ProductUni": "MMscf/d", "ProjectTyp": "Expansion, New Pipeline", "Mile_check": 22}, "geometry": {"type": "MultiLineString", "coordinates": [[[-83.957892, 35.877842], [-83.95606, 35.879623], [-83.950334, 35.883064], [-83.947742, 35.882987], [-83.943169, 35.88213], [-83.941324, 35.882262], [-83.940265, 35.883152], [-83.939288, 35.883691], [-83.938067, 35.884054], [-83.93515, 35.883812], [-83.930184, 35.884713], [-83.926167, 35.886098], [-83.925394, 35.886153], [-83.922096, 35.88744], [-83.910956, 35.889704], [-83.906506, 35.889583], [-83.903344, 35.888836], [-83.902041, 35.888231], [-83.899205, 35.887868], [-83.89314, 35.888099], [-83.89158, 35.888374], [-83.890304, 35.888704], [-83.888554, 35.888913], [-83.887156, 35.889374], [-83.886328, 35.890078], [-83.883832, 35.89121], [-83.882475, 35.890595], [-83.881973, 35.890067], [-83.881213, 35.888429], [-83.880263, 35.888495], [-83.87854, 35.888836], [-83.87778, 35.888924], [-83.876654, 35.889616], [-83.875554, 35.889858], [-83.874523, 35.88999], [-83.87185, 35.889671], [-83.868105, 35.88977], [-83.864998, 35.890573], [-83.862257, 35.891232], [-83.857765, 35.892123], [-83.856558, 35.892573], [-83.854224, 35.893112], [-83.844685, 35.896585], [-83.842962, 35.896684], [-83.841713, 35.896553], [-83.837249, 35.896662], [-83.831536, 35.896509], [-83.828063, 35.896487], [-83.824901, 35.895497], [-83.821916, 35.894442], [-83.816909, 35.891177], [-83.813842, 35.890331], [-83.809392, 35.889902], [-83.807573, 35.890034], [-83.805484, 35.888946], [-83.803652, 35.889737], [-83.800097, 35.891639], [-83.797695, 35.891518], [-83.795104, 35.891342], [-83.794222, 35.891419], [-83.792173, 35.891144], [-83.791223, 35.890474], [-83.790626, 35.889726], [-83.789242, 35.889341], [-83.787993, 35.889352], [-83.787166, 35.889561], [-83.785578, 35.889155], [-83.783638, 35.889122], [-83.781127, 35.889078], [-83.776324, 35.889462], [-83.773189, 35.889891], [-83.767721, 35.890847], [-83.758901, 35.89243], [-83.757164, 35.89276], [-83.751018, 35.893112], [-83.745946, 35.894603], [-83.741875, 35.896063], [-83.733543, 35.899086], [-83.725593, 35.902092], [-83.719974, 35.904187], [-83.70931, 35.908051], [-83.702568, 35.910558], [-83.698285, 35.912361], [-83.693451, 35.914336], [-83.692391, 35.914782]], [[-81.899279, 36.762147], [-81.89302, 36.764272], [-81.888271, 36.764815], [-81.88173, 36.765456], [-81.877131, 36.76575], [-81.875746, 36.766239], [-81.874729, 36.766696], [-81.871825, 36.767457], [-81.870509, 36.76763], [-81.868378, 36.767533], [-81.865366, 36.768533], [-81.862177, 36.770544], [-81.859735, 36.772011], [-81.851227, 36.773978], [-81.850087, 36.774369], [-81.84869, 36.775163], [-81.846546, 36.776337], [-81.845365, 36.776739], [-81.842462, 36.777478], [-81.837088, 36.779749], [-81.832678, 36.781238], [-81.829367, 36.782205], [-81.827658, 36.782629], [-81.82413, 36.783292], [-81.821375, 36.78452], [-81.818824, 36.78564], [-81.815758, 36.786444], [-81.813532, 36.787204], [-81.810316, 36.788704], [-81.802989, 36.790475], [-81.799, 36.792746], [-81.797114, 36.793464], [-81.795472, 36.794496], [-81.793898, 36.795289]]]}}
]
}
