{
"type": "FeatureCollection",
"features": [
{"type": "Feature", "properties": {"ProjectID": "P7810", "id": 1, "Name": "Kosci"}, "geometry": {"type": "LineString", "coordinates": [[-89.551736, 32.994793], [-89.547751, 32.987469], [-89.556939, 32.98711], [-89.554621, 32.953399], [-89.558359, 32.938628], [-89.557028, 32.921869], [-89.543384, 32.921869], [-89.525082, 32.873531], [-89.528222, 32.789859], [-89.518752, 32.791083], [-89.504183, 32.767198], [-89.497627, 32.756784], [-89.502726, 32.749433], [-89.500541, 32.729825], [-89.475045, 32.712666], [-89.439703, 32.688432], [-89.403583, 32.662589], [-89.359337, 32.633697], [-89.357828, 32.614893], [-89.334728, 32.581493], [-89.335352, 32.569129], [-89.330981, 32.55052], [-89.316786, 32.526587], [-89.259212, 32.452495], [-89.247544, 32.402595], [-89.12153, 32.329667], [-89.119197, 32.311918], [-89.105973, 32.309946], [-89.095083, 32.274718], [-89.044805, 32.214798], [-89.012811, 32.203196], [-88.928252, 32.162578], [-88.893972, 32.145164], [-88.882546, 32.110327], [-88.91454, 32.038677], [-88.907063, 32.022851], [-88.831843, 31.971669], [-88.821746, 31.946614], [-88.79599, 31.908242]]}}
]
}
