{
"type": "FeatureCollection",
"features": [
{"type": "Feature", "properties": {"ProjectID": "P7849", "OBJECTID": 141122, "ID_LIC": "0901010", "Gasoducto": 10001012, "Tramo": 10001012001, "TdTrm": "Troncal", "PkiTrm": 0, "PkfTrm": 135100, "Long": 135100, "PrsDsn": 75.48160045, "Mapo": 60, "Diametro": 24, "Espesor": 8.74, "MatNyG": "API - 5L / 52000 / DSAW / 94", "Construc": "Gas del Estado", "FchHab": -31536000000, "PrsMaxPru": 0, "PrsMinPru": 66, "FldPru": "Agua", "FchPru": -31363200000, "Unifilar": "GA-12-AB", "Fuente": "", "Licenciataria": 10001, "ID_TEOS": null, "Obs": "FchHab es FECHA_INSTALACION"}, "geometry": {"type": "LineString", "coordinates": [[-67.94801, -38.059564], [-67.948012, -38.060139], [-67.948041, -38.06882], [-67.948069, -38.077276], [-67.948069, -38.077278], [-67.948102, -38.086832], [-67.948102, -38.086834], [-67.948117, -38.09584], [-67.948117, -38.095842], [-67.948171, -38.113869], [-67.948183, -38.122899], [-67.948183, -38.122901], [-67.948194, -38.131897], [-67.948194, -38.131898], [-67.948216, -38.140924], [-67.948221, -38.143333], [-67.948222, -38.143575], [-67.94825, -38.15527], [-67.948592, -38.157103], [-67.949255, -38.15884], [-67.949255, -38.158841], [-67.949255, -38.158842], [-67.953581, -38.167257], [-67.957825, -38.175552], [-67.957826, -38.175553], [-67.962073, -38.183855], [-67.962074, -38.183856], [-67.966353, -38.192272], [-67.966354, -38.192274], [-67.970626, -38.200614], [-67.973665, -38.20654], [-67.973747, -38.206759], [-67.973768, -38.206943], [-67.973586, -38.207367], [-67.97271, -38.209081], [-67.972709, -38.209082], [-67.968438, -38.217393], [-67.968437, -38.217395], [-67.964143, -38.225751], [-67.964141, -38.225753], [-67.959846, -38.234111], [-67.955665, -38.242496], [-67.955665, -38.242496], [-67.952278, -38.251081], [-67.952277, -38.251082], [-67.948875, -38.259705], [-67.948875, -38.259705], [-67.945471, -38.268302], [-67.94547, -38.268303], [-67.942068, -38.276896], [-67.938674, -38.285466], [-67.938674, -38.285467], [-67.935257, -38.294102], [-67.935257, -38.294103], [-67.931854, -38.3027], [-67.931854, -38.302701], [-67.928451, -38.31129], [-67.92845, -38.311292], [-67.925037, -38.319906], [-67.925037, -38.319907], [-67.925036, -38.319908], [-67.921639, -38.328484], [-67.921638, -38.328486], [-67.918222, -38.337101], [-67.918222, -38.337102], [-67.918222, -38.337103], [-67.914818, -38.345689], [-67.914817, -38.34569], [-67.911407, -38.354293], [-67.911406, -38.354295], [-67.90799, -38.362896], [-67.90799, -38.362896], [-67.907989, -38.362898], [-67.904576, -38.371494], [-67.904575, -38.371495], [-67.901161, -38.380091], [-67.901161, -38.380092], [-67.897749, -38.388692], [-67.897749, -38.388694], [-67.897748, -38.388695], [-67.894336, -38.397296], [-67.894336, -38.397297], [-67.894335, -38.397299], [-67.890922, -38.405903], [-67.890922, -38.405904], [-67.88751, -38.414494], [-67.88751, -38.414496], [-67.887509, -38.414497], [-67.884091, -38.423105], [-67.884091, -38.423107], [-67.880693, -38.431664], [-67.880683, -38.431687], [-67.880683, -38.431689], [-67.879091, -38.435672], [-67.878661, -38.438516], [-67.878374, -38.439411], [-67.87799, -38.44011], [-67.876701, -38.441948], [-67.876341, -38.442558], [-67.873902, -38.448739], [-67.873893, -38.448763], [-67.873893, -38.448764], [-67.870475, -38.457372], [-67.870474, -38.457375], [-67.867053, -38.465944], [-67.867052, -38.465945], [-67.863628, -38.47452], [-67.863627, -38.474521], [-67.863627, -38.474522], [-67.860196, -38.483115], [-67.860196, -38.483115], [-67.860195, -38.483117], [-67.856766, -38.491703], [-67.856766, -38.491705], [-67.856765, -38.491706], [-67.853346, -38.500269], [-67.853332, -38.500304], [-67.853332, -38.500304], [-67.849865, -38.509001], [-67.849865, -38.509002], [-67.846475, -38.517505], [-67.846474, -38.517509], [-67.843053, -38.52609], [-67.843051, -38.526094], [-67.839631, -38.534675], [-67.839631, -38.534676], [-67.839629, -38.534678], [-67.836204, -38.543271], [-67.836204, -38.543272], [-67.836203, -38.543273], [-67.832782, -38.551857], [-67.832781, -38.551858], [-67.83278, -38.551861], [-67.829352, -38.560461], [-67.829352, -38.560462], [-67.829351, -38.560464], [-67.825922, -38.569065], [-67.825921, -38.569067], [-67.822497, -38.577658], [-67.822497, -38.577658], [-67.819069, -38.586258], [-67.819068, -38.586259], [-67.815643, -38.594836], [-67.815642, -38.594837], [-67.812199, -38.603458], [-67.812199, -38.60346], [-67.808779, -38.612021], [-67.808779, -38.612022], [-67.808778, -38.612024], [-67.80535, -38.620608], [-67.805349, -38.620609], [-67.801917, -38.629203], [-67.798473, -38.637797], [-67.798472, -38.637799], [-67.795036, -38.646375], [-67.795036, -38.646377], [-67.791605, -38.654958], [-67.791604, -38.65496], [-67.791604, -38.654961], [-67.788169, -38.66355], [-67.788169, -38.663551], [-67.784729, -38.672156], [-67.784728, -38.672158], [-67.780324, -38.681283], [-67.775462, -38.693401], [-67.768029, -38.71182], [-67.760054, -38.731504], [-67.754267, -38.740066], [-67.741548, -38.759134], [-67.710826, -38.804912], [-67.699287, -38.82221], [-67.684305, -38.844208], [-67.670745, -38.864508], [-67.670544, -38.865082], [-67.67016, -38.868425], [-67.670184, -38.869097], [-67.670285, -38.869429], [-67.67996, -38.896994], [-67.680062, -38.897435], [-67.67985, -38.899499], [-67.678598, -38.911929], [-67.678307, -38.916807], [-67.677642, -38.927936], [-67.67755, -38.928868], [-67.677458, -38.929119], [-67.67728, -38.929225], [-67.677072, -38.929254], [-67.676609, -38.92923], [-67.674361, -38.92932], [-67.669808, -38.930274], [-67.668843, -38.930453], [-67.668246, -38.930638], [-67.667157, -38.931306], [-67.666006, -38.931999], [-67.662501, -38.933915], [-67.656744, -38.937119], [-67.655379, -38.937827], [-67.655003, -38.937977], [-67.654568, -38.938081], [-67.645971, -38.939881], [-67.634732, -38.942109], [-67.623509, -38.944333], [-67.616235, -38.945725], [-67.612332, -38.946549], [-67.605852, -38.947798], [-67.601124, -38.948777], [-67.589962, -38.950975], [-67.578746, -38.953191], [-67.567515, -38.955412], [-67.557834, -38.95735], [-67.556429, -38.957609], [-67.550058, -38.95893], [-67.545252, -38.959818], [-67.539394, -38.961002], [-67.534097, -38.962053], [-67.529417, -38.962918], [-67.522943, -38.964281], [-67.517409, -38.965376], [-67.51342, -38.966174], [-67.512246, -38.966391], [-67.510081, -38.966809], [-67.505745, -38.967621], [-67.500542, -38.968691], [-67.48938, -38.970866], [-67.485218, -38.971709], [-67.480358, -38.972624], [-67.478204, -38.973045], [-67.470695, -38.974511], [-67.469409, -38.97474], [-67.468371, -38.974891], [-67.467666, -38.974963], [-67.467, -38.974984], [-67.465323, -38.974885], [-67.46281, -38.974761], [-67.455779, -38.974502], [-67.444052, -38.973895], [-67.442384, -38.973711], [-67.440571, -38.973589], [-67.438907, -38.973549], [-67.43718, -38.973549], [-67.434118, -38.973794], [-67.432592, -38.973914], [-67.428244, -38.974298], [-67.421087, -38.974921], [-67.418603, -38.975104], [-67.41445, -38.975482], [-67.40968, -38.975898], [-67.404111, -38.976377], [-67.400461, -38.976675], [-67.398617, -38.976875], [-67.393766, -38.977276], [-67.38673, -38.977897], [-67.381511, -38.97832], [-67.375286, -38.978897], [-67.370117, -38.979318], [-67.363834, -38.979885], [-67.359333, -38.980306], [-67.356003, -38.980777], [-67.352458, -38.981312], [-67.341196, -38.983067], [-67.329874, -38.984822], [-67.318544, -38.9866], [-67.307223, -38.988376], [-67.303083, -38.989025]]}}
]
}
