{
"type": "FeatureCollection",
"features": [
{"type": "Feature", "properties": {"ProjectID": "P7847", "OBJECTID": 141121, "ID_LIC": "0304010", "Gasoducto": 10001001, "Tramo": 10001001001, "TdTrm": "Troncal", "PkiTrm": 0, "PkfTrm": 29316, "Long": 29316, "PrsDsn": 43.91984223, "Mapo": 43.9, "Diametro": 36, "Espesor": 9.52, "MatNyG": "API - 5L / 60000 / DSAW / 79", "Construc": "Techint", "FchHab": 556588800000, "PrsMaxPru": 0, "PrsMinPru": 49.5, "FldPru": "Agua", "FchPru": 567993600000, "Unifilar": "GA-14-CE", "Fuente": "", "Licenciataria": 10001, "ID_TEOS": null, "Obs": "FchHab es FECHA_INSTALACION"}, "geometry": {"type": "LineString", "coordinates": [[-58.746755, -35.010333], [-58.746635, -35.010421], [-58.746509, -35.010514], [-58.745902, -35.010959], [-58.74428, -35.012245], [-58.74224, -35.013805], [-58.741259, -35.014484], [-58.740967, -35.014595], [-58.740765, -35.014618], [-58.740637, -35.014618], [-58.739317, -35.014255], [-58.738066, -35.013813], [-58.737276, -35.013492], [-58.737083, -35.013344], [-58.736679, -35.01297], [-58.731417, -35.008125], [-58.730827, -35.00758], [-58.726782, -35.003849], [-58.722855, -35.000227], [-58.722852, -35.000224], [-58.722501, -34.9999], [-58.72014, -34.997718], [-58.71943, -34.997066], [-58.715696, -34.993621], [-58.715229, -34.993118], [-58.713997, -34.991475], [-58.713729, -34.991137], [-58.713723, -34.99113], [-58.71344, -34.990791], [-58.713062, -34.990459], [-58.709874, -34.987613], [-58.701064, -34.979756], [-58.700421, -34.979183], [-58.700421, -34.979182], [-58.70042, -34.979181], [-58.694379, -34.973834], [-58.691784, -34.971537], [-58.691212, -34.971049], [-58.688782, -34.969615], [-58.687374, -34.968792], [-58.686078, -34.968034], [-58.686074, -34.968032], [-58.686073, -34.968032], [-58.685257, -34.96756], [-58.684536, -34.967132], [-58.684143, -34.966847], [-58.684105, -34.966818], [-58.683781, -34.966468], [-58.683289, -34.96596], [-58.682087, -34.964775], [-58.678222, -34.960845], [-58.678188, -34.96081], [-58.677837, -34.960453], [-58.677399, -34.960007], [-58.67712, -34.959694], [-58.677002, -34.959316], [-58.676448, -34.957118], [-58.676304, -34.956955], [-58.676159, -34.95684], [-58.674446, -34.955855], [-58.673725, -34.955441], [-58.672649, -34.954817], [-58.671829, -34.954334], [-58.671047, -34.95356], [-58.669608, -34.952105], [-58.66938, -34.951729], [-58.667034, -34.946999], [-58.667033, -34.946997], [-58.666817, -34.94656], [-58.66663, -34.94619], [-58.666461, -34.945937], [-58.666309, -34.945814], [-58.66301, -34.944], [-58.662102, -34.943464], [-58.661364, -34.94303], [-58.660556, -34.942545], [-58.660369, -34.942431], [-58.660182, -34.942221], [-58.659985, -34.941914], [-58.659926, -34.94179], [-58.658554, -34.939034], [-58.658497, -34.938965], [-58.656241, -34.937338], [-58.655415, -34.936749], [-58.654652, -34.936195], [-58.652953, -34.934973], [-58.652103, -34.934303], [-58.652033, -34.934099], [-58.652022, -34.934056], [-58.651785, -34.933142], [-58.651617, -34.932154], [-58.651595, -34.932085], [-58.65139, -34.931396], [-58.65132, -34.931265], [-58.651213, -34.931189], [-58.651135, -34.93116], [-58.649582, -34.930508], [-58.649254, -34.930267], [-58.647529, -34.927618], [-58.643139, -34.92461], [-58.641334, -34.923084], [-58.639267, -34.92131], [-58.638716, -34.920839], [-58.638715, -34.920839], [-58.638709, -34.920833], [-58.636986, -34.919075], [-58.634533, -34.916588], [-58.634334, -34.916386], [-58.632713, -34.914753], [-58.632341, -34.914342], [-58.629129, -34.910934], [-58.622541, -34.904935], [-58.621298, -34.904083], [-58.619475, -34.902789], [-58.617434, -34.901108], [-58.614575, -34.898687], [-58.609971, -34.894823], [-58.606956, -34.892282], [-58.603247, -34.889162], [-58.602177, -34.888292], [-58.60186, -34.888025], [-58.600277, -34.886694], [-58.597553, -34.884418], [-58.596675, -34.883692], [-58.596518, -34.883323], [-58.59645, -34.882982], [-58.596435, -34.882611], [-58.596575, -34.882195], [-58.59688, -34.881653], [-58.597225, -34.881228], [-58.599125, -34.878733], [-58.601608, -34.875367], [-58.601678, -34.875225], [-58.601713, -34.875049], [-58.601701, -34.874885], [-58.60166, -34.874749], [-58.60089, -34.873228], [-58.600879, -34.873205], [-58.598274, -34.86839], [-58.596703, -34.865487], [-58.595939, -34.864075], [-58.59571, -34.863591], [-58.595695, -34.863522], [-58.595737, -34.863335], [-58.595714, -34.863076], [-58.595691, -34.86303], [-58.595676, -34.863011], [-58.595524, -34.862927], [-58.595485, -34.862866], [-58.595364, -34.862696], [-58.593359, -34.856662], [-58.59119, -34.849308], [-58.590146, -34.846066], [-58.589129, -34.842721], [-58.588794, -34.842117], [-58.587944, -34.840895], [-58.587118, -34.839706], [-58.587118, -34.839706], [-58.58417, -34.835465], [-58.583739, -34.834877], [-58.583362, -34.834343], [-58.583085, -34.83386], [-58.582611, -34.832954], [-58.582412, -34.832554], [-58.582129, -34.831975], [-58.580374, -34.828264], [-58.579372, -34.826297], [-58.579037, -34.825789], [-58.577858, -34.82387], [-58.57656, -34.821876], [-58.574692, -34.819117], [-58.57283, -34.816258], [-58.571946, -34.815004], [-58.571919, -34.814964], [-58.571907, -34.81495], [-58.571891, -34.814939], [-58.571872, -34.81493], [-58.571855, -34.814925], [-58.571838, -34.814922], [-58.571814, -34.814923], [-58.57095, -34.815021], [-58.570927, -34.815025], [-58.57091, -34.815033], [-58.570893, -34.815044], [-58.570883, -34.815054], [-58.570854, -34.815094], [-58.570713, -34.815288], [-58.570687, -34.815324]]}}
]
}
