{
"type": "FeatureCollection",
"features": [
{"type": "Feature", "properties": {"ProjectID": "P7848", "OBJECTID": 141130, "ID_LIC": 1001010, "Gasoducto": 10001009, "Tramo": 10001009001, "TdTrm": "Troncal", "PkiTrm": 0, "PkfTrm": 51800, "Long": 51800, "PrsDsn": 93.0811301, "Mapo": 60, "Diametro": 10, "Espesor": 5.56, "MatNyG": "API - 5L / 42000 / ERW / 116", "Construc": "Gas del Estado", "FchHab": 725846400000, "PrsMaxPru": 0, "PrsMinPru": 0, "FldPru": "Agua", "FchPru": 725846400000, "Unifilar": "GA-22-AS-28-IF", "Fuente": "", "Licenciataria": 10001, "ID_TEOS": null, "Obs": "FchHab es FECHA_INSTALACION"}, "geometry": {"type": "LineString", "coordinates": [[-69.175281, -38.912065], [-69.174455, -38.912191], [-69.173687, -38.912368], [-69.17338, -38.912426], [-69.169973, -38.913311], [-69.169254, -38.913533], [-69.169113, -38.913595], [-69.168782, -38.913778], [-69.16757, -38.914368], [-69.16506, -38.915806], [-69.155625, -38.920964], [-69.147952, -38.92511], [-69.14619, -38.926118], [-69.136689, -38.931229], [-69.12727, -38.936403], [-69.122361, -38.938969], [-69.117709, -38.941468], [-69.107239, -38.944807], [-69.096454, -38.946407], [-69.085131, -38.948082], [-69.073789, -38.949756], [-69.062458, -38.951409], [-69.051124, -38.953042], [-69.0398, -38.954643], [-69.028428, -38.956193], [-69.016997, -38.957725], [-69.005769, -38.959233], [-68.994421, -38.960779], [-68.983051, -38.962341], [-68.971698, -38.963943], [-68.960634, -38.963186], [-68.958001, -38.962266], [-68.953646, -38.961082], [-68.949714, -38.960798], [-68.949226, -38.96073], [-68.948889, -38.960728], [-68.947411, -38.960636], [-68.945774, -38.960696], [-68.944214, -38.960893], [-68.942476, -38.961363], [-68.941371, -38.961947], [-68.939304, -38.963519], [-68.93805, -38.964377], [-68.93794, -38.964435], [-68.937541, -38.964654], [-68.928321, -38.964492], [-68.921732, -38.964281], [-68.921006, -38.964226], [-68.916842, -38.964126], [-68.905316, -38.963761], [-68.894496, -38.963415], [-68.893777, -38.963405], [-68.882272, -38.963013], [-68.870734, -38.962664], [-68.859205, -38.962284], [-68.847695, -38.961913], [-68.836181, -38.961519], [-68.827264, -38.961214], [-68.824669, -38.961134], [-68.813145, -38.960766], [-68.801589, -38.960388], [-68.790086, -38.959993], [-68.778572, -38.959597], [-68.767059, -38.959235], [-68.755542, -38.958852], [-68.743996, -38.958462], [-68.732491, -38.958089], [-68.727432, -38.957823], [-68.720955, -38.957695], [-68.710466, -38.95735], [-68.709441, -38.957385], [-68.69797, -38.95844], [-68.686526, -38.959561], [-68.67506, -38.960662], [-68.66362, -38.961729], [-68.652125, -38.96276], [-68.640678, -38.963793], [-68.629215, -38.964792], [-68.617747, -38.965806], [-68.606273, -38.966791], [-68.595942, -38.967461]]}},
{"type": "Feature", "properties": {"ProjectID": "P7848", "OBJECTID": 141164, "ID_LIC": 1001020, "Gasoducto": 10001009, "Tramo": 10001009002, "TdTrm": "Troncal", "PkiTrm": 51800, "PkfTrm": 67309, "Long": 15509, "PrsDsn": 100.02873243, "Mapo": 60, "Diametro": 8, "Espesor": 4.78, "MatNyG": "API - 5L / 42000 / DSAW / 125", "Construc": "Techint", "FchHab": 725846400000, "PrsMaxPru": 0, "PrsMinPru": 0, "FldPru": "Agua", "FchPru": 725846400000, "Unifilar": "GA-22-AS-28-IF", "Fuente": "", "Licenciataria": 10001, "ID_TEOS": null, "Obs": "FchHab es FECHA_INSTALACION"}, "geometry": {"type": "LineString", "coordinates": [[-68.595942, -38.967461], [-68.595931, -38.967462], [-68.594822, -38.96782], [-68.583321, -38.96884], [-68.571842, -38.969807], [-68.560395, -38.970852], [-68.55843, -38.971044], [-68.557689, -38.971102], [-68.557092, -38.971052], [-68.555727, -38.970843], [-68.549101, -38.969599], [-68.537838, -38.967524], [-68.526618, -38.965445], [-68.515374, -38.963341], [-68.504155, -38.961274], [-68.500641, -38.96058], [-68.497734, -38.960201], [-68.492816, -38.959688], [-68.481372, -38.958525], [-68.473198, -38.957553], [-68.46996, -38.957296], [-68.45852, -38.956082], [-68.447077, -38.954891], [-68.43564, -38.953687], [-68.424211, -38.952424], [-68.420851, -38.952129], [-68.420562, -38.952094]]}}
]
}
