{
"type": "FeatureCollection",
"features": [
{"type": "Feature", "properties": {"ProjectID": "P7853", "id": null}, "geometry": {"type": "MultiLineString", "coordinates": [[[-102.607264, 31.492029], [-102.585416, 31.503129], [-102.566863, 31.506904], [-102.552316, 31.511218], [-102.546202, 31.520923], [-102.533553, 31.531885], [-102.493495, 31.548596], [-102.459552, 31.563148], [-102.429403, 31.578236], [-102.381123, 31.601403], [-102.339168, 31.620615], [-102.267276, 31.652745], [-102.227218, 31.673381], [-102.200022, 31.686479], [-102.14879, 31.710515], [-102.09777, 31.733291], [-102.049912, 31.755343], [-101.982657, 31.787068], [-101.949557, 31.804271], [-101.923203, 31.814841], [-101.899169, 31.826127], [-101.865015, 31.840277], [-101.84604, 31.84959], [-101.820398, 31.849725], [-101.822638, 31.832755], [-101.820108, 31.810362], [-101.811886, 31.79119], [-101.803874, 31.748889], [-101.79162, 31.713116], [-101.781737, 31.68899], [-101.765293, 31.664477], [-101.760655, 31.649043], [-101.763184, 31.636479], [-101.767823, 31.626068], [-101.768666, 31.610987], [-101.769509, 31.591594], [-101.775834, 31.570041], [-101.793965, 31.546328], [-101.812097, 31.527281], [-101.827698, 31.515778], [-101.833601, 31.50787], [-101.835288, 31.491691], [-101.833601, 31.472274]]]}},
{"type": "Feature", "properties": {"ProjectID": "P7853", "id": null}, "geometry": {"type": "MultiLineString", "coordinates": [[[-101.761981, 31.642458], [-101.742102, 31.637915], [-101.719754, 31.632171], [-101.700358, 31.634325], [-101.680961, 31.63971], [-101.67295, 31.640787], [-101.65524, 31.638633]]]}}
]
}
