{
"type": "FeatureCollection",
"features": [
{"type": "Feature", "properties": {"ProjectID": "P7851", "id": null}, "geometry": {"type": "MultiLineString", "coordinates": [[[-101.900566, 31.968292], [-101.890868, 31.949511], [-101.885597, 31.929473], [-101.880115, 31.911399], [-101.862617, 31.891532], [-101.845118, 31.866647], [-101.820398, 31.849725]]]}},
{"type": "Feature", "properties": {"ProjectID": "P7851", "id": null}, "geometry": {"type": "MultiLineString", "coordinates": [[[-101.981366, 31.672036], [-101.950005, 31.67836], [-101.904203, 31.686837], [-101.886704, 31.691412], [-101.881855, 31.698767], [-101.868362, 31.703072], [-101.846435, 31.703072], [-101.833364, 31.704327], [-101.808908, 31.710246], [-101.79162, 31.713116]]]}}
]
}
