{
"type": "FeatureCollection",
"features": [
{"type": "Feature", "properties": {"ProjectID": "P7863", "id": null}, "geometry": {"type": "MultiLineString", "coordinates": [[[-104.590416, 40.285061], [-104.591258, 40.269001], [-104.588273, 40.257202], [-104.582302, 40.247445], [-104.58169, 40.243355], [-104.584599, 40.232779], [-104.584446, 40.22711], [-104.586206, 40.220506], [-104.582379, 40.211562], [-104.514711, 40.211562], [-104.498789, 40.211796], [-104.482867, 40.212264], [-104.473069, 40.211796], [-104.472763, 40.201741], [-104.473375, 40.18841], [-104.472763, 40.17531], [-104.473069, 40.156825], [-104.442144, 40.145123], [-104.417036, 40.136228], [-104.390092, 40.126864], [-104.378763, 40.121714], [-104.375395, 40.117265], [-104.37417, 40.112113], [-104.375701, 40.100872], [-104.373557, 40.091035], [-104.368046, 40.074636], [-104.362228, 40.063857], [-104.355186, 40.054249], [-104.349981, 40.039248], [-104.342938, 40.024243], [-104.334365, 40.004075], [-104.328548, 39.991174], [-104.319974, 39.971936], [-104.31385, 39.961845], [-104.303134, 39.95011], [-104.265779, 39.95011], [-104.265166, 39.922172], [-104.265472, 39.897981], [-104.265166, 39.876366], [-104.266085, 39.84205], [-104.265472, 39.813833], [-104.266085, 39.781839], [-104.266697, 39.759246], [-104.266697, 39.750772], [-104.26685, 39.740767], [-104.26486, 39.736293], [-104.263329, 39.733232], [-104.266544, 39.727816], [-104.26731, 39.72134], [-104.26731, 39.715687], [-104.267003, 39.70285], [-104.26731, 39.688361], [-104.267769, 39.675282], [-104.268841, 39.667387], [-104.274964, 39.666444], [-104.285375, 39.665973], [-104.287365, 39.664205], [-104.287824, 39.65183], [-104.275577, 39.651712], [-104.268381, 39.651004], [-104.268228, 39.63733], [-104.268687, 39.622001], [-104.273127, 39.613982], [-104.276495, 39.602659], [-104.277261, 39.595109], [-104.26685, 39.585081], [-104.261339, 39.575759], [-104.255521, 39.568325], [-104.254756, 39.555932], [-104.255521, 39.552981], [-104.264707, 39.549912], [-104.27129, 39.548732], [-104.275117, 39.546016], [-104.275424, 39.540586], [-104.274811, 39.527125], [-104.275117, 39.520512], [-104.282466, 39.51567], [-104.282007, 39.506812], [-104.282619, 39.49937], [-104.275424, 39.495353], [-104.272056, 39.492045], [-104.269912, 39.487319], [-104.271902, 39.483302], [-104.27573, 39.478457], [-104.27772, 39.472194], [-104.278332, 39.468885], [-104.27772, 39.463211], [-104.276342, 39.456119], [-104.275883, 39.449972], [-104.27573, 39.434721], [-104.275424, 39.421949], [-104.275424, 39.403853], [-104.275424, 39.392495], [-104.274658, 39.384923], [-104.276036, 39.379125], [-104.275424, 39.374509], [-104.270218, 39.368592], [-104.271749, 39.36149], [-104.272209, 39.357584], [-104.268381, 39.350955], [-104.265626, 39.347758], [-104.255368, 39.342549], [-104.253378, 39.340418], [-104.254143, 39.332958], [-104.252919, 39.328221], [-104.246795, 39.321234], [-104.244039, 39.318036], [-104.235619, 39.304769], [-104.23271, 39.300149], [-104.232863, 39.295647], [-104.233169, 39.2915], [-104.234394, 39.283087], [-104.23516, 39.277518], [-104.235619, 39.266732], [-104.234241, 39.257724], [-104.234853, 39.250848], [-104.236078, 39.240652], [-104.236844, 39.234604], [-104.236997, 39.22737], [-104.235925, 39.215273], [-104.236691, 39.196648], [-104.236537, 39.183952], [-104.236997, 39.171609], [-104.237456, 39.16057], [-104.236844, 39.146324], [-104.236231, 39.134569], [-104.236537, 39.126968], [-104.238681, 39.123287], [-104.240977, 39.121861], [-104.245723, 39.120555], [-104.247407, 39.118536], [-104.248632, 39.114972], [-104.253072, 39.112596], [-104.25644, 39.110933], [-104.257052, 39.105588], [-104.257358, 39.100717], [-104.265013, 39.098341], [-104.27573, 39.092875], [-104.286293, 39.089429], [-104.291039, 39.088478], [-104.309258, 39.088241], [-104.324108, 39.088716], [-104.3336, 39.086221], [-104.343092, 39.084319], [-104.358248, 39.084557], [-104.375701, 39.084795], [-104.387489, 39.084795], [-104.390857, 39.082893], [-104.397134, 39.077189], [-104.397287, 39.069582], [-104.396522, 39.057695], [-104.396522, 39.041288], [-104.398665, 39.036769], [-104.398206, 39.034272], [-104.396445, 39.031656], [-104.395373, 39.027434], [-104.395986, 39.024044], [-104.395756, 39.019881], [-104.396216, 39.010841], [-104.396522, 38.998706], [-104.395756, 38.987283], [-104.397593, 38.980976], [-104.399584, 38.97931], [-104.401268, 38.976096], [-104.401574, 38.971455], [-104.400808, 38.966336], [-104.401574, 38.958718], [-104.405248, 38.95598], [-104.407238, 38.952646], [-104.407545, 38.945979], [-104.406779, 38.937524], [-104.407238, 38.927283], [-104.410147, 38.926211], [-104.414587, 38.923829], [-104.41719, 38.919422], [-104.428519, 38.918707], [-104.43158, 38.908939], [-104.439082, 38.89905], [-104.443522, 38.885943], [-104.444134, 38.874144], [-104.445359, 38.86592], [-104.447655, 38.859006], [-104.447349, 38.851137], [-104.44888, 38.847799], [-104.451023, 38.846368], [-104.451942, 38.842195], [-104.451636, 38.834921], [-104.452708, 38.822159], [-104.451023, 38.813809], [-104.452554, 38.809515], [-104.457453, 38.806771], [-104.460975, 38.804146], [-104.461893, 38.799135], [-104.460822, 38.794124], [-104.460668, 38.787442], [-104.461587, 38.783026], [-104.468323, 38.782429], [-104.475672, 38.782191], [-104.500779, 38.782191], [-104.532011, 38.782668], [-104.541656, 38.782429], [-104.550382, 38.782191], [-104.553138, 38.77861], [-104.553291, 38.772165], [-104.5562, 38.760825], [-104.562017, 38.74626], [-104.565998, 38.740767], [-104.575796, 38.73814], [-104.582838, 38.736707], [-104.590799, 38.733841], [-104.595392, 38.72763], [-104.605802, 38.715208], [-104.616825, 38.705412], [-104.622949, 38.698005], [-104.628767, 38.693464], [-104.63091, 38.689162], [-104.633972, 38.685099], [-104.638565, 38.678885], [-104.637952, 38.671474], [-104.635503, 38.662151], [-104.636115, 38.656412], [-104.640708, 38.652347], [-104.649894, 38.651391], [-104.654793, 38.650674], [-104.655405, 38.640869], [-104.658161, 38.633215], [-104.66306, 38.630824], [-104.674083, 38.630584], [-104.690311, 38.631541], [-104.702023, 38.631541]]]}},
{"type": "Feature", "properties": {"ProjectID": "P7863", "id": null}, "geometry": {"type": "MultiLineString", "coordinates": [[[-104.676226, 38.78231], [-104.647904, 38.782429], [-104.63091, 38.782549], [-104.627695, 38.781833], [-104.62693, 38.777894], [-104.626623, 38.774194], [-104.624939, 38.772165], [-104.621112, 38.769659], [-104.616213, 38.767749], [-104.608558, 38.767152], [-104.596157, 38.766794], [-104.554633, 38.766932]]]}}
]
}
