{
"type": "FeatureCollection",
"crs": { "type": "name", "properties": { "name": "urn:ogc:def:crs:OGC:1.3:CRS84" } },
"features": [
{ "type": "Feature", "properties": { "ProjectID": "P7864" }, "geometry": { "type": "LineString", "coordinates": [ [ 34.808088, 31.154678 ], [ 34.808088, 31.154678 ], [ 34.803627, 31.144819 ], [ 34.804149, 31.138035 ], [ 34.805192, 31.132817 ], [ 34.808845, 31.123424 ], [ 34.811976, 31.118206 ], [ 34.814063, 31.11351 ], [ 34.817194, 31.110379 ], [ 34.819803, 31.106726 ], [ 34.822412, 31.103073 ], [ 34.823978, 31.09942 ], [ 34.825543, 31.094724 ], [ 34.827109, 31.091593 ], [ 34.828703, 31.088027 ], [ 34.830097, 31.086458 ], [ 34.831491, 31.084192 ], [ 34.832537, 31.081926 ], [ 34.833931, 31.078789 ], [ 34.834629, 31.075477 ], [ 34.835849, 31.072166 ], [ 34.836371, 31.069377 ], [ 34.836197, 31.067808 ], [ 34.836371, 31.06502 ], [ 34.836197, 31.062405 ], [ 34.835151, 31.060488 ], [ 34.833583, 31.058397 ], [ 34.829923, 31.055259 ], [ 34.822428, 31.05003 ], [ 34.816328, 31.045324 ], [ 34.814236, 31.043582 ], [ 34.811099, 31.04149 ], [ 34.808659, 31.040096 ], [ 34.806393, 31.038527 ], [ 34.801687, 31.034693 ], [ 34.798201, 31.030858 ], [ 34.79611, 31.028069 ], [ 34.794018, 31.025106 ], [ 34.791229, 31.021446 ], [ 34.788266, 31.018657 ], [ 34.78478, 31.014474 ], [ 34.778506, 31.008897 ], [ 34.772928, 31.003668 ], [ 34.769442, 31.001054 ], [ 34.767002, 30.999659 ], [ 34.765434, 30.998265 ], [ 34.764039, 30.995651 ], [ 34.759856, 30.988505 ], [ 34.758811, 30.986064 ], [ 34.757416, 30.984496 ], [ 34.75515, 30.983101 ], [ 34.748527, 30.980138 ], [ 34.739464, 30.976304 ], [ 34.734932, 30.974561 ], [ 34.732666, 30.974038 ], [ 34.730401, 30.973167 ], [ 34.726915, 30.972121 ], [ 34.724997, 30.971249 ], [ 34.722557, 30.969681 ], [ 34.720292, 30.968286 ], [ 34.71454, 30.964103 ], [ 34.708962, 30.96114 ], [ 34.704605, 30.959049 ], [ 34.700771, 30.957655 ], [ 34.698156, 30.955912 ], [ 34.693973, 30.954517 ], [ 34.690662, 30.95382 ], [ 34.686478, 30.953471 ], [ 34.683167, 30.953471 ], [ 34.68003, 30.95382 ], [ 34.674104, 30.954692 ], [ 34.666609, 30.956086 ], [ 34.659811, 30.957132 ], [ 34.65406, 30.958875 ], [ 34.650225, 30.960095 ], [ 34.646739, 30.961663 ], [ 34.644125, 30.962883 ], [ 34.641685, 30.964626 ], [ 34.639593, 30.965498 ], [ 34.636107, 30.966021 ], [ 34.63297, 30.966021 ], [ 34.628787, 30.965498 ], [ 34.623558, 30.963406 ], [ 34.617109, 30.959397 ], [ 34.608743, 30.953297 ], [ 34.604909, 30.95016 ], [ 34.59968, 30.947197 ], [ 34.595323, 30.944234 ], [ 34.588525, 30.939528 ], [ 34.582076, 30.934473 ], [ 34.574233, 30.928547 ], [ 34.570747, 30.925236 ], [ 34.566913, 30.922099 ], [ 34.564298, 30.920356 ], [ 34.560987, 30.91931 ], [ 34.555409, 30.917915 ], [ 34.549832, 30.917567 ], [ 34.547043, 30.916521 ], [ 34.543209, 30.915127 ], [ 34.540071, 30.914778 ], [ 34.537108, 30.91443 ], [ 34.533448, 30.914255 ], [ 34.528917, 30.913732 ], [ 34.523688, 30.912687 ], [ 34.518459, 30.911118 ], [ 34.512184, 30.909201 ], [ 34.504515, 30.906238 ], [ 34.496149, 30.904146 ], [ 34.492663, 30.902752 ], [ 34.488306, 30.901706 ], [ 34.485517, 30.901532 ], [ 34.480637, 30.901358 ], [ 34.475757, 30.901183 ], [ 34.471748, 30.901358 ], [ 34.465474, 30.902055 ], [ 34.459373, 30.902926 ], [ 34.454493, 30.903275 ], [ 34.449613, 30.902578 ], [ 34.443512, 30.901183 ], [ 34.436541, 30.899615 ], [ 34.429918, 30.897872 ], [ 34.423643, 30.895432 ], [ 34.420157, 30.893689 ], [ 34.41824, 30.891597 ], [ 34.415974, 30.889157 ], [ 34.413708, 30.886717 ], [ 34.410397, 30.883754 ], [ 34.406911, 30.881662 ], [ 34.403599, 30.880791 ], [ 34.399242, 30.880268 ], [ 34.394865, 30.880155 ], [ 34.389556, 30.879189 ], [ 34.384489, 30.877018 ], [ 34.379904, 30.874122 ], [ 34.371942, 30.869055 ], [ 34.368322, 30.867125 ], [ 34.360601, 30.862781 ], [ 34.354086, 30.859403 ], [ 34.348536, 30.85699 ], [ 34.339608, 30.85144 ], [ 34.331646, 30.846856 ], [ 34.325372, 30.844202 ], [ 34.318857, 30.840824 ], [ 34.31017, 30.836239 ], [ 34.301243, 30.831896 ], [ 34.277837, 30.820072 ], [ 34.270357, 30.816453 ], [ 34.264566, 30.813557 ], [ 34.259257, 30.81042 ], [ 34.250812, 30.805595 ], [ 34.242367, 30.800769 ], [ 34.234121, 30.797347 ] ] } }
]
}
