{
"type": "FeatureCollection",
"features": [
{"type": "Feature", "properties": {"ProjectID": "P8000"}, "geometry": {"type": "MultiLineString", "coordinates": [[[30.326837, 31.303254], [30.318448, 31.518646], [30.952831, 31.943372], [31.14761, 31.982598], [31.35321, 31.94743], [31.557457, 32.040761], [31.72383, 32.056993], [31.824771, 32.211576], [32.302756, 32.253124], [32.795113, 32.259887], [32.913537, 32.34289], [33.157618, 32.474955], [34.24919, 32.531766], [34.517864, 32.597214], [34.719905, 32.592634], [34.801515, 32.597214]], [[32.913537, 32.34289], [32.862069, 32.614496], [32.865639, 32.776057], [32.914732, 32.877814], [33.271773, 33.17148]]]}}
]
}
