{
"type": "FeatureCollection",
"features": [
{"type": "Feature", "properties": {"ProjectID": "P8020"}, "geometry": {"type": "MultiLineString", "coordinates": [[[43.258425, 35.787976], [43.252479, 35.793893], [43.246931, 35.796777], [43.236848, 35.800009], [43.219714, 35.805726], [43.203715, 35.811393], [43.192497, 35.815258], [43.191064, 35.816302], [43.190558, 35.816557], [43.189141, 35.816669], [43.188114, 35.816719], [43.186436, 35.817241], [43.184275, 35.818005], [43.183731, 35.818154], [43.18308, 35.818228], [43.181532, 35.818272], [43.180735, 35.818303], [43.179969, 35.818508], [43.17921, 35.81939], [43.178766, 35.819856], [43.176942, 35.820478], [43.171624, 35.822292], [43.168582, 35.823348], [43.165494, 35.82446], [43.163035, 35.825398], [43.161923, 35.825796], [43.155656, 35.827958], [43.151035, 35.829573], [43.149939, 35.829927], [43.144139, 35.83199], [43.140913, 35.833145], [43.134798, 35.835257], [43.127289, 35.837941], [43.108163, 35.846985], [43.098294, 35.852947], [43.088057, 35.856972], [43.067766, 35.861542], [43.060488, 35.863146]]]}}
]
}
