{
"type": "FeatureCollection",
"features": [
{"type": "Feature", "properties": {"ProjectID": "P8030"}, "geometry": {"type": "LineString", "coordinates": [[52.62265, 27.509999], [52.614323, 27.512404], [52.604917, 27.52268], [52.596547, 27.529777], [52.593031, 27.531586], [52.58409, 27.542283], [52.579327, 27.546778], [52.576867, 27.549283], [52.577538, 27.551578], [52.576796, 27.55606], [52.57559, 27.559177], [52.565573, 27.565663], [52.555645, 27.572318], [52.54967, 27.575936], [52.542293, 27.579878], [52.541219, 27.581596], [52.541159, 27.584503], [52.535359, 27.587943], [52.530939, 27.589947], [52.528685, 27.592509], [52.527238, 27.593843], [52.524904, 27.596458], [52.522243, 27.597005], [52.520091, 27.59873], [52.518438, 27.601158], [52.511567, 27.603167], [52.507744, 27.606077], [52.502344, 27.609671], [52.500535, 27.61328], [52.495857, 27.617599], [52.492776, 27.619138], [52.491484, 27.619062], [52.489401, 27.619924], [52.486724, 27.622225], [52.481018, 27.626801], [52.477302, 27.629922], [52.472175, 27.636228], [52.462426, 27.643626], [52.45489, 27.648487], [52.446884, 27.652695], [52.444053, 27.654695], [52.436091, 27.660869], [52.432199, 27.661676], [52.415385, 27.661294], [52.41186, 27.659662], [52.407888, 27.658744], [52.405746, 27.658621], [52.401703, 27.660105], [52.395424, 27.663547], [52.391818, 27.665589], [52.390255, 27.667003], [52.388919, 27.668128], [52.386737, 27.668705], [52.384164, 27.668012], [52.378936, 27.66794], [52.375892, 27.666987], [52.373986, 27.667287], [52.366454, 27.670282], [52.3605, 27.672442], [52.357748, 27.673296], [52.351422, 27.677578], [52.349827, 27.680112], [52.344105, 27.68169], [52.34115, 27.683808], [52.331629, 27.685553], [52.321708, 27.687942], [52.317741, 27.689977], [52.312774, 27.690601], [52.310586, 27.691651], [52.308236, 27.691583], [52.291984, 27.692395], [52.282346, 27.692571], [52.264991, 27.695669], [52.255285, 27.697902], [52.237972, 27.703995], [52.230727, 27.708925], [52.228613, 27.712529], [52.226081, 27.714642], [52.224782, 27.717064], [52.218754, 27.72186], [52.211315, 27.724392], [52.201265, 27.730066], [52.190997, 27.737736], [52.187747, 27.74173], [52.178089, 27.752653], [52.171569, 27.759715], [52.168268, 27.763317], [52.159521, 27.766676], [52.150855, 27.778301], [52.141114, 27.78704], [52.134847, 27.788788], [52.125724, 27.794066], [52.114287, 27.806436], [52.110478, 27.812316], [52.109837, 27.814736], [52.10047, 27.825614], [52.09912, 27.830054], [52.088598, 27.841182], [52.082299, 27.850321], [52.076641, 27.858625], [52.058881, 27.863945], [52.04919, 27.877763], [52.032205, 27.898962], [52.016446, 27.917857], [51.996909, 27.930846], [51.995919, 27.93999], [51.982396, 27.93999], [51.969379, 27.954169], [51.944228, 27.969909], [51.932962, 27.978202], [51.932307, 27.984948], [51.906359, 28.003835], [51.901492, 28.005492], [51.897182, 28.009666], [51.871195, 28.022805], [51.848169, 28.035861], [51.845335, 28.040082], [51.82716, 28.050321], [51.819038, 28.049776], [51.795267, 28.071439], [51.770496, 28.090776], [51.746892, 28.108207], [51.719464, 28.128631], [51.711652, 28.131111], [51.692003, 28.147327], [51.657438, 28.173363], [51.634367, 28.191353], [51.621398, 28.200947], [51.606409, 28.226836], [51.597394, 28.242472], [51.586183, 28.258099], [51.575177, 28.271854], [51.566279, 28.288161], [51.563917, 28.293468], [51.564273, 28.29756], [51.561592, 28.303618], [51.559358, 28.314791], [51.542943, 28.349611], [51.538743, 28.358247], [51.536708, 28.368363], [51.530808, 28.379731], [51.530299, 28.384565], [51.530682, 28.389682], [51.533468, 28.406048], [51.534485, 28.416811], [51.536299, 28.420468], [51.516153, 28.453595], [51.51234, 28.465636], [51.499618, 28.474947], [51.489345, 28.477267], [51.46509, 28.49376], [51.439505, 28.517652], [51.418963, 28.537762], [51.402178, 28.55843], [51.38951, 28.600104], [51.396898, 28.623173], [51.40878, 28.640217], [51.418487, 28.647982], [51.414886, 28.666352], [51.379201, 28.693141], [51.3572, 28.710768], [51.34884, 28.712782], [51.332395, 28.725673], [51.316316, 28.742577], [51.301528, 28.762757], [51.298308, 28.778542], [51.296996, 28.792339], [51.283715, 28.820087], [51.282663, 28.830841], [51.285596, 28.839975], [51.293331, 28.868592], [51.296615, 28.872501], [51.302037, 28.873518], [51.310557, 28.891356], [51.309353, 28.902939], [51.305456, 28.921988], [51.290947, 28.943696], [51.291277, 28.957365], [51.285683, 28.975853], [51.278406, 28.999763], [51.273656, 29.011302], [51.266641, 29.053011], [51.264858, 29.078989], [51.256011, 29.118834], [51.210734, 29.171885], [51.195117, 29.176629], [51.129038, 29.176304], [51.100033, 29.175301], [51.085816, 29.182482], [50.991926, 29.206489], [50.975624, 29.221207], [50.953648, 29.26789], [50.935041, 29.292378], [50.916254, 29.31822], [50.879687, 29.364806], [50.859246, 29.390706], [50.810309, 29.449243], [50.785032, 29.475464], [50.773591, 29.482794], [50.746924, 29.516083], [50.702811, 29.563155], [50.685245, 29.579515], [50.661967, 29.6159], [50.641898, 29.642861], [50.631853, 29.65499], [50.614377, 29.668116], [50.600954, 29.68178], [50.593165, 29.693811], [50.586136, 29.728634], [50.575864, 29.738395], [50.541251, 29.753394], [50.525533, 29.757994], [50.517483, 29.768275], [50.509545, 29.796185], [50.495851, 29.822755], [50.483163, 29.840683], [50.466171, 29.864433], [50.46372, 29.891919], [50.463757, 29.897098], [50.45734, 29.906833], [50.432883, 29.915137], [50.407227, 29.951813], [50.386254, 29.990022], [50.377524, 30.006175], [50.372754, 30.029332], [50.371203, 30.03645], [50.366626, 30.042291], [50.350648, 30.045783], [50.34258, 30.074788], [50.32657, 30.132883], [50.319085, 30.164334], [50.304457, 30.188083], [50.290664, 30.20138], [50.289521, 30.238979], [50.289564, 30.251111], [50.277863, 30.279105], [50.276921, 30.307983], [50.272734, 30.322457], [50.24668, 30.351887], [50.23831, 30.358379], [50.230771, 30.363813], [50.208937, 30.370287], [50.180103, 30.378854], [50.175734, 30.383046], [50.169402, 30.391742], [50.16615, 30.397236], [50.162775, 30.404747], [50.16012, 30.410111], [50.153336, 30.417869], [50.147197, 30.425118], [50.137907, 30.433354], [50.124275, 30.445905], [50.114916, 30.452959], [50.107285, 30.461299], [50.103953, 30.469332], [50.100611, 30.472406], [50.098055, 30.477967], [50.094582, 30.48291], [50.090821, 30.490219], [50.083197, 30.502367], [50.068932, 30.531928], [50.062595, 30.542598], [50.063462, 30.547115], [50.066572, 30.558087], [50.067675, 30.562147], [50.063863, 30.568971], [50.06512, 30.574316], [50.06845, 30.579826], [50.064547, 30.586859], [50.056701, 30.600435], [50.05661, 30.605365], [50.050517, 30.613098], [50.043399, 30.6193], [50.037291, 30.633147], [50.033866, 30.639503], [50.028109, 30.645123], [50.013685, 30.648963], [50.004016, 30.652398], [49.994591, 30.658722], [49.979404, 30.657848], [49.97352, 30.6635], [49.963156, 30.667007], [49.955055, 30.673656], [49.940827, 30.679837], [49.931522, 30.69253], [49.928252, 30.700016], [49.917742, 30.715592], [49.916384, 30.719108], [49.907617, 30.730522], [49.896367, 30.742477], [49.883381, 30.75683], [49.858661, 30.786534], [49.856035, 30.793388]]}}
]
}
