{
"type": "FeatureCollection",
"features": [
{"type": "Feature", "properties": {"ProjectID": "P8047", "country": "Libya", "fuel_type": "Natural Gas", "status": "Operating", "region": "Africa", "pipe_type": "National", "operator": "Eni, National Oil Corporation", "Project": "Alrar - Wafa Pipeline", "Shareholde": "Eni, National Oil Corporation", "Length": 21.0, "Diameter": 16.0, "About": "System connects the Alrar and Wafa fields. Pipeline diameter estimated", "Links": " ", "Engineer": " ", "Construct": " ", "Contact": "Javed Akhtar Khan", "Poistion": "Senior Project Engineer", "Co_name": "National Oil Corporation", "Tel": "(+218) 214 446 181", "Web": "https://noc.ly/", "Start": "Alrar field, Libya", "End_": "Wafa field, Libya", "Descript": "Eni and National Oil Corporation operated pipeline from Alrar field to Wafa field", "Comm_1": " ", "email": "", "Cap": "Not specified", "Capacity_mmcfd": 300.0, "Capex": null, "OBJECTID_1": 472, "created_user": null, "created_date": null, "last_edited_user": "SDE", "last_edited_date": 1741686198000}, "geometry": {"type": "LineString", "coordinates": [[9.908876, 28.641782], [9.997981, 28.832768], [10.003922, 28.83537], [10.007882, 28.844042], [10.008872, 28.85705], [10.026693, 28.889995], [10.055343, 28.892682]]}}
]
}
