{
"type": "FeatureCollection",
"name": "P8060",
"crs": { "type": "name", "properties": { "name": "urn:ogc:def:crs:OGC:1.3:CRS84" } },
"features": [
{ "type": "Feature", "properties": { "country": "Libya", "fuel_type": "Natural Gas", "status": "Operating", "region": "Africa", "pipe_type": "National", "operator": "Waha Oil Company", "Project": "Masrab - Gialo", "Shareholde": "Waha Oil Company", "Length": 31.0, "Diameter": 6.0, "About": "", "Links": " ", "Engineer": " ", "Construct": " ", "Contact": "Anne Vedvik", "Poistion": "Technical Manager", "Co_name": "Waha Oil Company", "Tel": "+218 21 3337161", "Web": "https://www.wahaoil.net/", "Start": "Masrab field, Libya", "End_": "Gialo field, Libya", "Descript": "Waha Oil operated pipeline from Masrab field to Gialo field", "Comm_1": " ", "email": "anne.vedvik@conocophillips.com", "Cap": "Not specified", "Capacity_mmcfd": 10000.0, "Capex": null, "OBJECTID_1": 490, "created_user": null, "created_date": null, "last_edited_user": "SDE", "last_edited_date": 1720175285000 }, "geometry": { "type": "LineString", "coordinates": [ [ 21.379219104625619, 28.709247262192104 ], [ 21.432963079923859, 28.71345585214366 ], [ 21.45695592603915, 28.714297549814276 ], [ 21.535012652067575, 28.715419802838486 ], [ 21.592595482744283, 28.716542043820574 ], [ 21.65273755033995, 28.635709931432363 ], [ 21.703922288719252, 28.61212215544165 ], [ 21.818927997765257, 28.472452828903052 ] ] } }
]
}
