{
"type": "FeatureCollection",
"features": [
{"type": "Feature", "properties": {"ProjectID": "P4383", "id": 1, "Name": "Hydeal mix 1"}, "geometry": {"type": "MultiLineString", "coordinates": [[[-6.961544, 37.224731], [-6.946912, 37.278381], [-6.898139, 37.312522], [-6.829857, 37.317399], [-6.77133, 37.341785], [-6.722557, 37.395435], [-6.668907, 37.395435], [-6.59087, 37.390558], [-6.512834, 37.419822], [-6.48357, 37.45884], [-6.48357, 37.497858], [-6.449429, 37.546631], [-6.439674, 37.614913], [-6.444552, 37.673441], [-6.478693, 37.722213], [-6.498202, 37.741723], [-6.478693, 37.770986], [-6.473815, 37.810005], [-6.473815, 37.863655], [-6.449429, 37.922182], [-6.415288, 37.951446], [-6.400656, 38.048991], [-6.420165, 38.151414], [-6.42992, 38.219696], [-6.415288, 38.268469], [-6.444552, 38.341628], [-6.439674, 38.375769], [-6.420165, 38.439174], [-6.371392, 38.541597], [-6.361638, 38.614756], [-6.356761, 38.722057], [-6.342129, 38.785461], [-6.273847, 38.93178], [-6.176301, 39.009816], [-6.108019, 39.165889], [-5.98121, 39.390244], [-5.932437, 39.526808], [-5.971455, 39.643863], [-6.078755, 39.790182], [-6.156792, 39.995028], [-6.19581, 40.121837], [-6.108019, 40.180364], [-6.029982, 40.268156], [-5.951946, 40.307174], [-5.864155, 40.38521], [-5.756855, 40.453492], [-5.727591, 40.599811], [-5.727591, 40.804657], [-5.766609, 40.96073], [-5.786118, 41.136312], [-5.786118, 41.282631], [-5.756855, 41.389931], [-5.742223, 41.448458], [-5.749539, 41.519179], [-5.727591, 41.577706], [-5.744661, 41.819132], [-5.666625, 41.975205], [-5.65687, 42.09226], [-5.65687, 42.141032], [-5.617852, 42.228824], [-5.588588, 42.287351], [-5.598343, 42.336124], [-5.608097, 42.394651], [-5.588588, 42.472688], [-5.617852, 42.501951], [-5.65687, 42.579988], [-5.705643, 42.619006], [-5.734907, 42.658025], [-5.764171, 42.677534], [-5.78368, 42.697043], [-5.764171, 42.745816], [-5.764171, 42.804343], [-5.803189, 42.804343], [-5.851962, 42.833607], [-5.871471, 42.940907], [-5.822698, 42.98968], [-5.78368, 43.028698], [-5.78368, 43.077471], [-5.851962, 43.155507], [-5.803189, 43.223789], [-5.803189, 43.282317], [-5.881225, 43.321335], [-5.803189, 43.389617], [-5.754416, 43.448145], [-5.44227, 43.418881], [-5.227669, 43.399372], [-5.022823, 43.428635], [-4.798468, 43.428635], [-4.593622, 43.379863], [-4.232703, 43.311581], [-4.047367, 43.340844], [-3.86203, 43.370108], [-3.666939, 43.379863], [-3.530375, 43.399372], [-3.423074, 43.33109], [-3.267001, 43.379863], [-3.023137, 43.301826], [-2.906082, 43.321335], [-2.584182, 43.194526], [-2.447618, 43.165262], [-2.447618, 43.09698], [-2.545163, 43.028698], [-2.6232, 42.940907], [-2.710991, 42.88238], [-2.798782, 42.794588], [-2.828046, 42.716552], [-2.769518, 42.609252], [-2.652464, 42.531215], [-2.525654, 42.482442], [-2.418354, 42.472688], [-2.330563, 42.453179], [-2.203753, 42.365388], [-2.086699, 42.30686], [-1.989153, 42.30686], [-1.872098, 42.228824], [-1.745289, 42.170296], [-1.59897, 42.062996], [-1.481915, 41.936187], [-1.374615, 41.85815], [-1.208788, 41.75085], [-1.081978, 41.770359], [-0.886887, 41.702077], [-0.779587, 41.614286], [-0.662532, 41.448458], [-0.555232, 41.341158], [-0.389404, 41.253367], [-0.311367, 41.194839], [-0.096767, 41.165576], [-0.038239, 41.058276], [0.078815, 41.058276], [0.186116, 41.019257], [0.32268, 41.048521], [0.488507, 41.009503]]]}},
{"type": "Feature", "properties": {"ProjectID": "P4383", "id": 2, "Name": "Hydeal mix 2"}, "geometry": {"type": "MultiLineString", "coordinates": [[[0.488507, 41.009503], [0.480386, 40.941217], [0.513277, 40.825601], [0.402699, 40.730915], [0.110444, 40.597739], [0.062874, 40.396037], [0.015682, 40.255028], [-0.024002, 40.15118], [-0.217007, 39.948182], [-0.229102, 39.851375], [-0.309511, 39.725695], [-0.413848, 39.623959], [-0.459606, 39.618255], [-0.58213, 39.559184], [-0.58213, 39.559184], [-0.577878, 39.426355], [-0.589372, 39.294475], [-0.611524, 39.212145], [-0.605975, 39.105294], [-0.644183, 39.032337], [-0.637582, 38.954886], [-0.606775, 38.88261], [-0.566986, 38.825872], [-0.672976, 38.776427], [-0.605524, 38.7071], [-0.616875, 38.644172], [-0.593349, 38.551595], [-0.586742, 38.450767], [-0.652753, 38.360518], [-0.74673, 38.314716], [-0.861401, 38.204652], [-0.930199, 38.183826], [-0.905749, 38.063939], [-0.866893, 37.950435], [-0.882472, 37.8754], [-0.875778, 37.814689], [-0.900758, 37.76198], [-0.899828, 37.718405], [-0.929546, 37.646855], [-0.976298, 37.594964]]]}},
{"type": "Feature", "properties": {"ProjectID": "P4383", "id": 3, "Name": "Hydeal mix 3"}, "geometry": {"type": "MultiLineString", "coordinates": [[[0.503049, 41.006179], [0.608798, 40.982232], [0.628876, 40.944936], [0.712512, 40.949039], [0.863723, 41.023558], [0.955976, 41.050805], [1.024953, 41.090044], [1.117053, 41.112907], [1.281299, 41.168719], [1.450596, 41.240373], [1.547304, 41.274409], [1.611614, 41.303342], [1.667377, 41.333069], [1.719558, 41.344021], [1.866168, 41.44785], [1.945569, 41.484171], [2.007567, 41.466892], [2.058845, 41.391555], [2.08024, 41.340483], [2.135311, 41.324943]]]}},
{"type": "Feature", "properties": {"ProjectID": "P4383", "id": 4, "Name": "Hydeal mix 4"}, "geometry": {"type": "MultiLineString", "coordinates": [[[-6.342129, 38.785461], [-6.141586, 38.813141], [-5.989974, 38.828288], [-5.43771, 39.104332], [-5.25744, 39.143352], [-5.199175, 39.130483], [-5.093729, 39.063453], [-5.020508, 39.014276], [-4.808963, 38.88764], [-4.622106, 38.873207], [-4.401927, 38.775099], [-4.222286, 38.697157]]]}}
]
}
