{
"type": "FeatureCollection",
"features": [
{"type": "Feature", "properties": {"ProjectID": "P5817", "id": null, "Name": null}, "geometry": {"type": "MultiLineString", "coordinates": [[[23.262233, 41.390064], [23.237504, 41.430408], [23.172441, 41.444408], [23.137209, 41.475674], [23.159318, 41.515561], [23.127032, 41.598291], [23.091908, 41.61474], [23.09582, 41.650758], [23.084593, 41.692705], [23.111864, 41.7327], [23.124897, 41.785273], [23.094627, 41.826988], [23.081528, 41.847263], [23.013563, 41.864594], [22.974021, 41.891631], [22.946814, 41.976063], [22.9329, 42.09123], [22.948652, 42.131076], [22.931222, 42.182474], [23.001114, 42.25545], [23.002018, 42.301138], [23.01847, 42.344471], [22.987497, 42.412953], [22.92404, 42.477739], [22.912761, 42.557897], [22.968863, 42.609087], [23.073738, 42.609238], [23.067505, 42.650415], [23.11891, 42.696547], [23.13752, 42.743203], [23.198685, 42.771327], [23.24259, 42.788755], [23.341956, 42.807247], [23.365088, 42.808301], [23.469433, 42.759103], [23.533353, 42.734355]]]}}
]
}
