{
"type": "FeatureCollection",
"features": [
{"type": "Feature", "properties": {"ProjectID": "P5825"}, "geometry": {"type": "LineString", "coordinates": [[24.122825, 65.869454], [24.207492, 65.853578], [24.435971, 65.784279], [24.522829, 65.760829], [24.604577, 65.710285], [24.625687, 65.692235], [24.734965, 65.680683], [24.807824, 65.661229], [24.880832, 65.64234], [24.953985, 65.624019], [25.027277, 65.606265], [25.100705, 65.58908], [25.174263, 65.572465], [25.191668, 65.568226], [25.208736, 65.562788], [25.225385, 65.556179], [25.241536, 65.54843], [25.257109, 65.539577], [25.27203, 65.529665], [25.286227, 65.518741], [25.299631, 65.506858], [25.312177, 65.494072], [25.323806, 65.480446], [25.33446, 65.466046], [25.344089, 65.45094], [25.352646, 65.435203], [25.360089, 65.418909], [25.366383, 65.402138], [25.371498, 65.38497], [25.375408, 65.367489], [25.391184, 65.325148], [25.405219, 65.282199], [25.417488, 65.238712], [25.427972, 65.194761], [25.436653, 65.150418], [25.443517, 65.105758], [25.448552, 65.060855], [25.447466, 65.048547], [25.447167, 65.036194], [25.447658, 65.023848], [25.448936, 65.011558], [25.450996, 64.999375], [25.453829, 64.987348], [25.457424, 64.975527], [25.461766, 64.963959], [25.466837, 64.952691], [25.382513, 64.918142], [25.296908, 64.886902], [25.210151, 64.85902], [25.122374, 64.834537], [25.03371, 64.813491], [24.944293, 64.795914], [24.85426, 64.781833], [24.819829, 64.776233], [24.785823, 64.76846], [24.752378, 64.758545], [24.71963, 64.746528], [24.68771, 64.732457], [24.656748, 64.716389], [24.626868, 64.698388], [24.598189, 64.678528], [24.570829, 64.656889], [24.545215, 64.644645], [24.52021, 64.631199], [24.495872, 64.616581], [24.472255, 64.600824], [24.449413, 64.583964], [24.427397, 64.566039], [24.406256, 64.547088], [24.400585, 64.534049], [24.394093, 64.521397], [24.386808, 64.509185], [24.378759, 64.497463], [24.369979, 64.486278], [24.360503, 64.475675], [24.35037, 64.465698], [24.339622, 64.456388], [24.328302, 64.447783], [24.316456, 64.439916], [24.304132, 64.432822], [24.291381, 64.426527], [24.278255, 64.421059], [24.252105, 64.398469], [24.225964, 64.375868], [24.199832, 64.353256], [24.173709, 64.330634], [24.147596, 64.308001], [24.121491, 64.285358], [24.095396, 64.262704], [24.084748, 64.242721], [24.072673, 64.223567], [24.059234, 64.205345], [24.044502, 64.18815], [24.028557, 64.172074], [24.011483, 64.157202], [23.993371, 64.143615], [23.974317, 64.131383], [23.954422, 64.120572], [23.933792, 64.111239], [23.912537, 64.103435], [23.872118, 64.084065], [23.831188, 64.065796], [23.78978, 64.048641], [23.747922, 64.032613], [23.705646, 64.017723], [23.662983, 64.003982], [23.619963, 63.991402], [23.571955, 63.981296], [23.524223, 63.969955], [23.476799, 63.957386], [23.429715, 63.943598], [23.383003, 63.9286], [23.336694, 63.912402], [23.290817, 63.895014], [23.212118, 63.8708], [23.133913, 63.845031], [23.056234, 63.817718], [22.979112, 63.788871], [22.902576, 63.758502], [22.826657, 63.726623], [22.751384, 63.693246]]}}
]
}
