{
"type": "FeatureCollection",
"features": [
{"type": "Feature", "properties": {"ProjectID": "P5850", "id": null, "Name": null}, "geometry": {"type": "MultiLineString", "coordinates": [[[5.776331, 50.781884], [5.806869, 50.878028], [5.861281, 50.948699], [5.861403, 50.948857]], [[5.86138, 50.948553], [5.861281, 50.948699], [5.835095, 50.987233], [5.877592, 51.031508], [5.86256, 51.053567], [6.004337, 51.127749], [6.064705, 51.160213], [6.071726, 51.242603], [6.111663, 51.27027], [6.108605, 51.287945], [6.071045, 51.318825], [6.033161, 51.351634], [5.978253, 51.399171], [5.890986, 51.546156], [5.747945, 51.637625], [5.704685, 51.741573], [5.658462, 51.780655], [5.605065, 51.774774], [5.564714, 51.729962], [5.507888, 51.702315], [5.42984, 51.663304], [5.32804, 51.561205], [5.262654, 51.596031]], [[3.951401, 51.286175], [3.882995, 51.280059], [3.882989, 51.280042], [3.882904, 51.280034], [3.882885, 51.280032], [3.868626, 51.236713], [3.827732, 51.210531]], [[3.951401, 51.286175], [3.882989, 51.280042], [3.868626, 51.236713]], [[4.283527, 51.432755], [4.143046, 51.424695], [4.063978, 51.454337], [4.057055, 51.473627], [3.894692, 51.465994], [3.786183, 51.432235], [3.728658, 51.461575], [3.757103, 51.446805], [3.71152, 51.43444], [3.691644, 51.449534]], [[5.262127, 51.595787], [5.026735, 51.604598], [4.867825, 51.668641], [4.782537, 51.661509], [4.693259, 51.683946], [4.576394, 51.651576], [4.566689, 51.650977], [4.546878, 51.658523], [4.45178, 51.559478], [4.400394, 51.506994], [4.301278, 51.470309], [4.288732, 51.434942], [4.274213, 51.388191], [4.163684, 51.321899], [4.100557, 51.304248], [3.993112, 51.304085], [3.951401, 51.286175], [3.882926, 51.280101], [3.882904, 51.280034], [3.868626, 51.236713]], [[4.546999, 51.658578], [4.527469, 51.746622], [4.474691, 51.773939], [4.468251, 51.787693], [4.450167, 51.809761], [4.433404, 51.807927], [4.395654, 51.812954], [4.367458, 51.813534], [4.352671, 51.815858], [4.343621, 51.815109], [4.31102, 51.83033], [4.304356, 51.841383], [4.297669, 51.856984], [4.285008, 51.857662], [4.251119, 51.856713], [4.228192, 51.861364], [4.218085, 51.869902], [4.217658, 51.878898], [4.196682, 51.889731], [4.125786, 51.911877], [4.106084, 51.92254], [4.098939, 51.934942], [4.079224, 51.936796], [4.028033, 51.922692], [4.003468, 51.970995], [4.014206, 51.98324]], [[4.236884, 51.906204], [4.2004, 51.890822]], [[6.094739, 51.965525], [6.120362, 51.926498], [6.11778, 51.930443], [6.130281, 51.911397], [6.136749, 51.901539], [6.094788, 51.965546], [6.094787, 51.965546], [6.094739, 51.965525], [6.136874, 51.90127], [6.120362, 51.926498], [6.136821, 51.901412], [6.130281, 51.911397], [6.094788, 51.965546], [6.094725, 51.965642], [6.002693, 51.966441], [5.966593, 51.905653], [5.792102, 51.894234], [5.689537, 51.822002], [5.659194, 51.780735], [5.658462, 51.780655], [5.658246, 51.780837]], [[6.094739, 51.965525], [6.11778, 51.930443], [6.094787, 51.965546], [6.094725, 51.965642]], [[6.808679, 51.994513], [6.708857, 52.017307], [6.492052, 52.102495], [6.435522, 52.115111], [6.492471, 52.102586], [6.708409, 52.017492], [6.807267, 51.995059]], [[6.435522, 52.115111], [6.378313, 52.127876], [6.358657, 52.157772], [6.377718, 52.127821], [6.435522, 52.115111]], [[6.358657, 52.157772], [6.34248, 52.182362], [6.342549, 52.183067], [6.358657, 52.157772]], [[6.342549, 52.183067], [6.344811, 52.206117], [6.342439, 52.18324], [6.342549, 52.183067]], [[6.366475, 52.494247], [6.389736, 52.399259], [6.35562, 52.310228], [6.344811, 52.206117], [6.354953, 52.309339], [6.389374, 52.398737], [6.366457, 52.494183]], [[6.944739, 52.755753], [6.963731, 52.742833], [6.884142, 52.725182], [6.893433, 52.681586], [6.83744, 52.667542], [6.837681, 52.666657], [6.841715, 52.651838], [6.83857, 52.666599], [6.837681, 52.666657], [6.548447, 52.685369]], [[5.049019, 52.760005], [5.012537, 52.759405], [5.003917, 52.746052], [4.921365, 52.720764], [4.912879, 52.69577], [4.866366, 52.673478], [4.82476, 52.594895], [4.776734, 52.602995], [4.75945, 52.576004], [4.725164, 52.568791], [4.69416, 52.532068], [4.700709, 52.487487], [4.664002, 52.443692], [4.751392, 52.363298], [4.692798, 52.320133], [4.728858, 52.29182], [4.597324, 52.200095], [4.563087, 52.052241], [4.568241, 52.030989], [4.715345, 51.94691], [4.713358, 51.927996], [4.613501, 51.899731], [4.581365, 51.873383], [4.575808, 51.822299], [4.514247, 51.80016], [4.473144, 51.791152]], [[5.89154, 53.055549], [5.930911, 53.096726], [5.99233, 53.100977], [5.988049, 53.14898], [6.120301, 53.216956], [6.306258, 53.27476], [6.619946, 53.288499], [6.717999, 53.25023], [6.728969, 53.222848], [6.816032, 53.181976], [6.940539, 53.170472], [6.943346, 53.122318], [6.833332, 53.004424], [6.82858, 52.947056], [6.789634, 52.891449], [6.660749, 52.825231], [6.514807, 52.644166], [6.515554, 52.604376], [6.424067, 52.562921], [6.365477, 52.494704], [6.352073, 52.384968], [6.327211, 52.18225], [6.272734, 52.142025], [6.172558, 51.999378], [6.094788, 51.965546]], [[5.891171, 53.056036], [5.688724, 53.072942], [5.593639, 53.043437], [5.412154, 52.959957], [5.108847, 52.776645], [5.063957, 52.774614], [5.048314, 52.761219], [4.959794, 52.762595], [4.922409, 52.803208], [4.831218, 52.809426], [4.764452, 52.854373], [4.795759, 52.919294]], [[6.915061, 53.091925], [6.93565, 53.08486]], [[6.940539, 53.170472], [6.940634, 53.170463], [6.940524, 53.170739], [6.940539, 53.170472]], [[6.940524, 53.170739], [6.930343, 53.196211], [6.940504, 53.171073], [6.940524, 53.170739]], [[6.930343, 53.196211], [6.907716, 53.252765], [6.887955, 53.265539], [6.907796, 53.251936], [6.930343, 53.196211]], [[7.21621, 53.207458], [7.151486, 53.21855], [7.006914, 53.210211], [6.96452, 53.199608], [6.941187, 53.170412], [6.940832, 53.169968], [6.940634, 53.170463], [6.941187, 53.170412], [6.941216, 53.170409]], [[6.887955, 53.265539], [6.879499, 53.271004], [6.879817, 53.271118], [6.887955, 53.265539]], [[6.863749, 53.42939], [6.824786, 53.39404], [6.808966, 53.323819], [6.820425, 53.297485], [6.879203, 53.271538], [6.879817, 53.271118], [6.973078, 53.304529], [6.969443, 53.315473]]]}}
]
}
