{
"type": "FeatureCollection",
"features": [
{"type": "Feature", "properties": {"ProjectID": "P6206", "id": null, "Name": null}, "geometry": {"type": "MultiLineString", "coordinates": [[[6.488724, 51.372853], [6.506134, 51.372327], [6.513716, 51.371977], [6.544044, 51.373379], [6.564543, 51.378287], [6.576056, 51.382318], [6.581392, 51.387401], [6.588412, 51.39038], [6.601891, 51.390204], [6.610315, 51.389504], [6.630253, 51.384597], [6.652718, 51.379514], [6.671252, 51.377937], [6.695682, 51.371276], [6.723202, 51.36251], [6.752406, 51.348831], [6.763639, 51.343394], [6.788631, 51.335851], [6.808007, 51.334272], [6.825137, 51.334974], [6.82991, 51.3462], [6.831034, 51.358477], [6.827102, 51.37075], [6.81587, 51.380916], [6.810815, 51.389504], [6.80576, 51.404046], [6.804076, 51.424187], [6.803795, 51.445719], [6.799021, 51.47826], [6.796213, 51.49155]], [[6.137015, 51.900986], [6.144673, 51.892573], [6.146826, 51.887755], [6.148579, 51.884601], [6.144776, 51.882385], [6.145976, 51.875956], [6.155826, 51.862651], [6.159714, 51.852612], [6.167853, 51.847871], [6.189881, 51.846793], [6.198858, 51.840449], [6.199396, 51.838298], [6.200513, 51.834098], [6.197371, 51.828406], [6.196412, 51.824368], [6.199183, 51.815374], [6.19925, 51.806779], [6.202443, 51.800757], [6.211617, 51.790486], [6.235793, 51.78693], [6.255868, 51.78293], [6.264642, 51.769397], [6.274351, 51.751594], [6.274331, 51.736081], [6.277161, 51.719402], [6.282222, 51.71229], [6.309176, 51.711605], [6.324361, 51.709061], [6.33831, 51.70797], [6.347064, 51.695663], [6.342928, 51.654041], [6.339442, 51.635389], [6.360923, 51.621776], [6.38072, 51.589928], [6.383071, 51.574584], [6.383293, 51.540455], [6.392617, 51.5283], [6.395112, 51.51052], [6.408668, 51.489971], [6.409713, 51.459214], [6.416068, 51.442963], [6.426543, 51.436428], [6.431079, 51.427344], [6.445258, 51.423677], [6.44909, 51.418439], [6.460108, 51.413377], [6.461278, 51.405402], [6.46845, 51.40088], [6.470719, 51.395394], [6.48815, 51.373201], [6.48638, 51.361678], [6.484771, 51.319288], [6.492032, 51.312543], [6.495343, 51.30737], [6.510453, 51.300394], [6.539666, 51.296327], [6.560167, 51.289201], [6.572301, 51.284391], [6.56912, 51.264739], [6.56954, 51.236072], [6.56679, 51.221048], [6.572708, 51.209727], [6.59128, 51.200007], [6.652707, 51.162477], [6.656994, 51.154706], [6.662233, 51.149813], [6.666872, 51.132359], [6.675322, 51.118512], [6.684724, 51.108789], [6.699132, 51.103503], [6.709669, 51.097768], [6.720708, 51.088588], [6.742471, 51.083866], [6.775986, 51.084443], [6.801003, 51.097019], [6.81055, 51.10034], [6.851169, 51.10092], [6.869826, 51.105947], [6.889028, 51.106065], [6.898346, 51.101327], [6.905435, 51.084985], [6.909807, 51.073095], [6.919119, 51.070699], [6.969746, 51.069636], [7.066315, 51.069347], [7.09108, 51.072873], [7.10571, 51.072662], [7.113206, 51.063284], [7.114146, 51.042969], [7.092412, 51.021477], [7.088433, 50.997532], [7.098691, 50.988995], [7.115429, 50.982534]]]}}
]
}
