{
"type": "FeatureCollection",
"features": [
{"type": "Feature", "properties": {"ProjectID": "P6203"}, "geometry": {"type": "MultiLineString", "coordinates": [[[7.467592, 47.608703], [7.46938, 47.636673], [7.47157, 47.664613], [7.474161, 47.69252], [7.477151, 47.720386], [7.480542, 47.748207]], [[5.227269, 46.33189], [5.226119, 46.331881], [5.224969, 46.331852], [5.223819, 46.331803], [5.222671, 46.331733], [5.221524, 46.331644], [5.220378, 46.331535], [5.219235, 46.331407], [5.218094, 46.331258], [5.216956, 46.331089], [5.215821, 46.330901], [5.214689, 46.330693], [5.213561, 46.330466], [5.212437, 46.330219], [5.211318, 46.329952], [5.210204, 46.329666], [5.209094, 46.329361], [5.20799, 46.329037], [5.206892, 46.328693], [5.2058, 46.32833], [5.204715, 46.327949], [5.203636, 46.327549], [5.202565, 46.32713], [5.2015, 46.326692], [5.200444, 46.326236], [5.199396, 46.325762], [5.198356, 46.32527], [5.197324, 46.32476], [5.196302, 46.324231], [5.195289, 46.323686], [5.194286, 46.323122], [5.193293, 46.322542], [5.19231, 46.321944], [5.191337, 46.321329], [5.190375, 46.320698], [5.189425, 46.320049], [5.188485, 46.319385], [5.187558, 46.318704], [5.186642, 46.318007], [5.185739, 46.317295], [5.184848, 46.316567], [5.18397, 46.315823], [5.183105, 46.315064], [5.182253, 46.314291], [5.181415, 46.313503], [5.180591, 46.3127], [5.17978, 46.311883], [5.178984, 46.311052], [5.178203, 46.310208], [5.177436, 46.30935], [5.176685, 46.308479], [5.175948, 46.307595], [5.175227, 46.306698], [5.174522, 46.305789], [5.173833, 46.304868], [5.173159, 46.303935], [5.172502, 46.30299], [5.171862, 46.302034], [5.171238, 46.301067], [5.170631, 46.30009], [5.170041, 46.299102], [5.169469, 46.298104], [5.168914, 46.297096], [5.168376, 46.296079], [5.167856, 46.295053], [5.167354, 46.294017], [5.16687, 46.292973], [5.166405, 46.291921], [5.165957, 46.290861], [5.165528, 46.289794], [5.165118, 46.288719], [5.164727, 46.287637], [5.164354, 46.286548], [5.164, 46.285453], [5.163665, 46.284352], [5.16335, 46.283246], [5.163054, 46.282134], [5.162777, 46.281017], [5.16256, 46.280073]], [[5.16256, 46.280073], [5.162519, 46.279896], [5.162281, 46.27877], [5.162063, 46.277641], [5.161864, 46.276507], [5.161685, 46.275371], [5.161526, 46.274231], [5.161386, 46.273089], [5.161267, 46.271945], [5.161167, 46.270799], [5.161087, 46.269651], [5.161027, 46.268502], [5.160987, 46.267352], [5.160967, 46.266202], [5.160967, 46.265051], [5.160988, 46.263901], [5.161028, 46.262751], [5.161087, 46.261602], [5.161167, 46.260454], [5.161267, 46.259308], [5.161387, 46.258163], [5.161526, 46.257021], [5.161686, 46.255882], [5.161865, 46.254745], [5.162064, 46.253612], [5.162282, 46.252482], [5.16252, 46.251357], [5.161029, 46.246453], [5.159622, 46.241525], [5.158298, 46.236574], [5.157057, 46.231601], [5.155902, 46.226608], [5.154831, 46.221596], [5.153845, 46.216566], [5.152944, 46.211521], [5.152129, 46.206461], [5.151399, 46.201388], [5.150756, 46.196303], [5.150198, 46.191208], [5.149727, 46.186105], [5.149343, 46.180994], [5.149045, 46.175878], [5.148834, 46.170757], [5.148709, 46.165633], [5.148671, 46.160508], [5.14872, 46.155383], [5.148856, 46.15026], [5.149078, 46.145139], [5.149387, 46.140024], [5.149783, 46.134914], [5.150265, 46.129811], [5.150834, 46.124718], [5.151488, 46.119634], [5.152229, 46.114563], [5.153055, 46.109505], [5.153966, 46.104461], [5.154963, 46.099434], [5.156045, 46.094424], [5.157091, 46.089197], [5.158048, 46.083953], [5.158914, 46.078692], [5.15969, 46.073418], [5.160376, 46.068132], [5.160971, 46.062834], [5.161475, 46.057527], [5.161888, 46.052212], [5.16221, 46.046891], [5.162441, 46.041565], [5.16258, 46.036236], [5.162629, 46.030905], [5.162586, 46.025574], [5.162451, 46.020245], [5.162226, 46.014919], [5.161909, 46.009597], [5.161501, 46.004282], [5.161002, 45.998975], [5.160413, 45.993676], [5.159732, 45.988389], [5.158961, 45.983114], [5.1581, 45.977853], [5.157149, 45.972608], [5.156108, 45.967379], [5.154978, 45.96217], [5.153759, 45.95698], [5.152451, 45.951812], [5.151055, 45.946667], [5.14957, 45.941547], [5.149486, 45.938212], [5.149345, 45.934879], [5.149145, 45.931549], [5.148887, 45.928223], [5.148572, 45.924902], [5.1482, 45.921586], [5.14777, 45.918278], [5.147282, 45.914978], [5.146738, 45.911687], [5.146136, 45.908405], [5.145478, 45.905135], [5.144763, 45.901876], [5.143992, 45.898631], [5.143164, 45.895399], [5.142281, 45.892182], [5.141341, 45.888981], [5.140347, 45.885796], [5.139297, 45.88263], [5.138193, 45.879482], [5.137034, 45.876353], [5.135821, 45.873246], [5.134554, 45.870159], [5.133234, 45.867096], [5.131861, 45.864055], [5.130436, 45.861039], [5.128958, 45.858048], [5.127429, 45.855083], [5.125849, 45.852145], [5.124218, 45.849235], [5.122536, 45.846354], [5.120805, 45.843502], [5.119025, 45.84068], [5.117196, 45.83789], [5.115943, 45.836968], [5.114675, 45.836067], [5.113392, 45.835188], [5.112094, 45.834332], [5.110781, 45.833497], [5.109454, 45.832685], [5.108114, 45.831897], [5.10676, 45.831131], [5.105393, 45.830388], [5.104014, 45.82967], [5.102622, 45.828974], [5.101219, 45.828303], [5.099805, 45.827656], [5.098379, 45.827034], [5.096943, 45.826436], [5.095497, 45.825862], [5.094042, 45.825314], [5.092577, 45.82479], [5.091104, 45.824292], [5.089622, 45.823819], [5.088132, 45.823372], [5.086635, 45.82295], [5.085131, 45.822554], [5.08362, 45.822184], [5.082103, 45.82184], [5.080581, 45.821522], [5.079053, 45.82123], [5.07752, 45.820964], [5.075983, 45.820725], [5.074443, 45.820512], [5.072898, 45.820325], [5.071351, 45.820165], [5.069802, 45.820032], [5.06825, 45.819925], [5.066696, 45.819844], [5.065142, 45.819791], [5.063587, 45.819764], [5.062031, 45.819764], [5.060476, 45.81979], [5.058922, 45.819843], [5.033022, 45.819843], [5.01677, 45.819843]], [[5.01677, 45.819843], [5.007122, 45.819843]], [[5.020072, 45.824356], [5.018108, 45.821711], [5.01677, 45.819843]], [[5.01677, 45.819843], [5.01619, 45.819034], [5.014317, 45.816325], [5.012491, 45.813583], [5.010712, 45.810812], [5.00898, 45.80801], [5.007296, 45.805179], [5.005661, 45.80232], [5.004075, 45.799433], [5.002538, 45.79652], [5.001051, 45.793581], [4.999614, 45.790617], [4.998228, 45.787629], [4.996893, 45.784618], [4.99561, 45.781585], [4.994378, 45.77853], [4.993199, 45.775455], [4.992072, 45.77236], [4.990998, 45.769246], [4.989978, 45.766114], [4.989011, 45.762966], [4.988097, 45.759801], [4.987238, 45.756622], [4.986433, 45.753428], [4.985683, 45.750221], [4.984987, 45.747001], [4.984346, 45.74377], [4.983761, 45.740529], [4.983231, 45.737278], [4.982756, 45.734019], [4.982337, 45.730752], [4.981973, 45.727478], [4.981666, 45.724199], [4.981414, 45.720915], [4.981219, 45.717627], [4.981079, 45.714336], [4.980995, 45.711044], [4.980968, 45.70775], [4.980997, 45.704456], [4.981082, 45.701164], [4.981223, 45.697873], [4.972825, 45.683337], [4.96463, 45.668686], [4.956637, 45.653923], [4.948848, 45.639052], [4.946747, 45.636587], [4.944689, 45.634087], [4.942675, 45.631551], [4.940705, 45.628981], [4.938781, 45.626377], [4.936902, 45.623739], [4.935069, 45.62107], [4.933283, 45.618368], [4.931544, 45.615637], [4.929852, 45.612875], [4.92821, 45.610084], [4.926615, 45.607266], [4.925071, 45.60442], [4.923576, 45.601547], [4.922131, 45.598649], [4.920736, 45.595726], [4.919393, 45.59278], [4.918101, 45.58981], [4.916861, 45.586819], [4.915674, 45.583806], [4.914538, 45.580773], [4.913456, 45.577721], [4.912427, 45.574651], [4.911452, 45.571563], [4.91053, 45.568458], [4.909663, 45.565338], [4.90885, 45.562204], [4.908091, 45.559056], [4.907388, 45.555895], [4.906739, 45.552722], [4.906146, 45.549538], [4.905608, 45.546345], [4.905126, 45.543143], [4.9047, 45.539933], [4.904329, 45.536716], [4.904015, 45.533493], [4.903757, 45.530265], [4.903554, 45.527033], [4.903408, 45.523798], [4.903319, 45.520561], [4.903286, 45.517323], [4.903309, 45.514084], [4.903388, 45.510847], [4.903523, 45.507612], [4.902648, 45.493909], [4.901559, 45.480221], [4.900258, 45.466552], [4.898744, 45.452905], [4.897019, 45.439283], [4.895081, 45.425689], [4.892933, 45.412128], [4.890574, 45.398601], [4.891141, 45.379748], [4.892009, 45.360907], [4.893179, 45.342081], [4.894648, 45.323277], [4.896418, 45.304499], [4.898488, 45.285751], [4.900856, 45.267039], [4.903523, 45.248367], [4.903541, 45.247124], [4.90358, 45.245881], [4.903641, 45.244639], [4.903723, 45.243398], [4.903827, 45.242159], [4.903953, 45.240922], [4.9041, 45.239687], [4.904268, 45.238455], [4.904457, 45.237226], [4.904668, 45.236001], [4.904901, 45.234779], [4.905154, 45.233562], [4.905428, 45.232349], [4.905724, 45.231141], [4.90604, 45.229939], [4.906378, 45.228742], [4.906736, 45.227551], [4.907114, 45.226367], [4.907513, 45.225189], [4.907933, 45.224018], [4.908373, 45.222855], [4.908832, 45.2217], [4.909312, 45.220553], [4.909812, 45.219414], [4.910332, 45.218284], [4.910871, 45.217164], [4.911429, 45.216053], [4.912006, 45.214952], [4.912603, 45.213861], [4.913219, 45.21278], [4.913853, 45.21171], [4.914505, 45.210652], [4.915176, 45.209605], [4.915865, 45.20857], [4.916572, 45.207547], [4.917296, 45.206536], [4.918038, 45.205538], [4.918798, 45.204554], [4.919574, 45.203582], [4.920367, 45.202624], [4.921176, 45.20168], [4.922002, 45.20075], [4.922843, 45.199835], [4.923701, 45.198934], [4.924574, 45.198049], [4.925462, 45.197179], [4.926365, 45.196324], [4.927283, 45.195485], [4.928215, 45.194662], [4.929162, 45.193856], [4.930122, 45.193066], [4.931096, 45.192293], [4.932083, 45.191537], [4.933083, 45.190798], [4.934096, 45.190077], [4.935122, 45.189373], [4.936159, 45.188687], [4.937208, 45.188019], [4.938268, 45.18737], [4.93934, 45.186739], [4.940422, 45.186127], [4.941515, 45.185534], [4.942618, 45.18496], [4.943731, 45.184405], [4.944853, 45.183869], [4.945985, 45.183353], [4.947125, 45.182857], [4.948273, 45.182381], [4.94943, 45.181925], [4.950595, 45.181488], [4.951766, 45.181072], [4.952945, 45.180677], [4.954131, 45.180302], [4.955323, 45.179948], [4.957898, 45.180226], [4.960467, 45.180548], [4.963031, 45.180915], [4.965588, 45.181325], [4.968138, 45.18178], [4.970679, 45.182279], [4.973212, 45.182821], [4.975734, 45.183407], [4.978247, 45.184036], [4.980748, 45.184709], [4.983237, 45.185424], [4.985713, 45.186182], [4.988176, 45.186983], [4.990625, 45.187826], [4.993059, 45.188712], [4.995477, 45.189639], [4.997879, 45.190607], [5.000264, 45.191617], [5.002631, 45.192668], [5.004979, 45.193759], [5.007309, 45.194891], [5.009618, 45.196063], [5.011907, 45.197274], [5.014175, 45.198525], [5.016421, 45.199814], [5.018645, 45.201142], [5.020845, 45.202508], [5.023021, 45.203912], [5.025173, 45.205353], [5.0273, 45.206831], [5.029401, 45.208346], [5.031475, 45.209896], [5.033523, 45.211482], [5.035542, 45.213103], [5.037534, 45.214759], [5.039497, 45.216448], [5.040327, 45.216372], [5.041159, 45.216309], [5.041992, 45.216261], [5.042826, 45.216228], [5.04366, 45.216208], [5.044494, 45.216203], [5.045328, 45.216213], [5.046162, 45.216237], [5.046995, 45.216275], [5.047827, 45.216327], [5.048659, 45.216394], [5.049489, 45.216475], [5.050318, 45.216571], [5.051145, 45.21668], [5.05197, 45.216804], [5.052792, 45.216942], [5.053613, 45.217095], [5.05443, 45.217261], [5.055244, 45.217441], [5.056056, 45.217636], [5.056863, 45.217844], [5.057667, 45.218066], [5.058467, 45.218302], [5.059263, 45.218552], [5.060055, 45.218816], [5.060842, 45.219093], [5.061624, 45.219384], [5.0624, 45.219688], [5.063172, 45.220005], [5.063938, 45.220336], [5.064698, 45.220679], [5.065452, 45.221036], [5.066199, 45.221406], [5.066941, 45.221788], [5.067675, 45.222184], [5.068403, 45.222592], [5.069124, 45.223012], [5.069837, 45.223445], [5.070542, 45.223889], [5.07124, 45.224346], [5.07193, 45.224815], [5.072612, 45.225296], [5.073285, 45.225789], [5.07395, 45.226293], [5.074606, 45.226808], [5.075253, 45.227335], [5.075891, 45.227872], [5.076519, 45.228421], [5.077138, 45.22898], [5.077747, 45.22955], [5.078346, 45.23013]], [[4.935408, 43.62579], [4.891369, 43.651237], [4.845736, 43.673701], [4.798711, 43.693084], [4.750503, 43.7093], [4.701324, 43.722276], [4.651391, 43.731957], [4.600925, 43.738298], [4.546498, 43.740263], [4.492059, 43.741841], [4.43761, 43.743032], [4.383153, 43.743835], [4.328693, 43.74425], [4.274231, 43.744278], [4.21977, 43.743918], [4.178909, 43.738413], [4.137895, 43.734203], [4.096768, 43.731292], [4.05557, 43.729683], [4.014342, 43.729378], [3.973124, 43.730376], [3.931959, 43.732678], [3.87203, 43.725656], [3.812685, 43.714753], [3.754175, 43.700015], [3.696746, 43.681503], [3.640643, 43.659297], [3.586102, 43.63349], [3.533355, 43.604192], [3.482623, 43.571526], [3.434123, 43.535631], [3.370598, 43.513568], [3.307133, 43.491329], [3.24373, 43.468917], [3.180388, 43.446331], [3.117109, 43.42357], [3.053892, 43.400637], [2.990739, 43.377529], [2.96631, 43.373763], [2.942189, 43.368368], [2.918483, 43.361367], [2.895301, 43.352792], [2.872745, 43.342683], [2.850919, 43.331084], [2.829919, 43.318047], [2.80984, 43.303632], [2.790773, 43.287903], [2.772676, 43.272238], [2.754843, 43.251315], [2.740973, 43.233995]], [[4.934844, 45.153976], [4.933292, 45.144891], [4.932391, 45.135718], [4.932147, 45.126505], [4.932561, 45.117297], [4.933631, 45.108143], [4.93535, 45.099088], [4.937711, 45.090179], [4.940701, 45.081461], [4.944306, 45.072978], [4.948506, 45.064774], [4.95328, 45.05689], [4.958605, 45.049367], [4.964452, 45.042243], [4.970793, 45.035554], [4.977595, 45.029334], [4.984822, 45.023615], [4.99244, 45.018426], [4.994054, 44.993075], [4.996045, 44.967751], [4.998413, 44.94246], [5.001157, 44.917206], [5.004276, 44.891996], [5.00777, 44.866836], [5.011638, 44.84173], [5.015455, 44.83297], [5.018638, 44.82396], [5.021171, 44.814746], [5.023042, 44.805376], [5.024241, 44.795896], [5.024762, 44.786355], [5.024602, 44.776801], [5.023762, 44.767282], [5.022246, 44.757848], [5.020063, 44.748545], [5.017222, 44.739422], [5.01374, 44.730524], [5.009632, 44.721896], [5.00492, 44.713583], [4.999629, 44.705627], [4.993784, 44.698067], [4.987416, 44.690943], [4.980557, 44.68429], [4.973241, 44.678143], [4.962901, 44.65486], [4.953691, 44.631108], [4.945633, 44.60694], [4.938744, 44.582414], [4.933042, 44.557584], [4.928538, 44.53251], [4.925245, 44.507248], [4.920678, 44.495502], [4.916967, 44.483459], [4.914132, 44.471179], [4.912186, 44.458728], [4.91114, 44.446169], [4.911, 44.433568], [4.911766, 44.420989], [4.913434, 44.408497], [4.915995, 44.396158], [4.919437, 44.384035], [4.923741, 44.37219], [4.928886, 44.360686], [4.934844, 44.349581], [4.93863, 44.335362], [4.941483, 44.320927], [4.943393, 44.306337], [4.944349, 44.291654], [4.944349, 44.27694], [4.943393, 44.262257], [4.941483, 44.247667], [4.93863, 44.233232], [4.934844, 44.219013], [4.933228, 44.196307], [4.932609, 44.173551], [4.932988, 44.150791], [4.934365, 44.128068], [4.936736, 44.105428], [4.940098, 44.082914], [4.944443, 44.060569], [4.948502, 44.047177], [4.951681, 44.033549], [4.953967, 44.019743], [4.95535, 44.005818], [4.955824, 43.991832], [4.955388, 43.977846], [4.954043, 43.963917], [4.95702, 43.957081], [4.959525, 43.950059], [4.961546, 43.942882], [4.963073, 43.935584], [4.9641, 43.928199], [4.964622, 43.920761], [4.964636, 43.913306], [4.964142, 43.905866], [4.963143, 43.898477], [4.961643, 43.891174], [4.959649, 43.883989], [4.95717, 43.876958], [4.954219, 43.870111], [4.950808, 43.863481], [4.946953, 43.857099], [4.942673, 43.850994], [4.937986, 43.845195], [4.932916, 43.839728], [4.927486, 43.834619], [4.92172, 43.829892], [4.915645, 43.825569], [4.913275, 43.820832], [4.911224, 43.815949], [4.9095, 43.810941], [4.908112, 43.80583], [4.907066, 43.800638], [4.906366, 43.795388], [4.906015, 43.790103], [4.906015, 43.784806], [4.906366, 43.779522], [4.907066, 43.774272], [4.908112, 43.76908], [4.9095, 43.763968], [4.911224, 43.75896], [4.913275, 43.754077], [4.915645, 43.74934], [4.920441, 43.738105], [4.925471, 43.726972], [4.930732, 43.715947], [4.936222, 43.705033], [4.941939, 43.694237], [4.94788, 43.683563], [4.954043, 43.673015]], [[5.031345, 46.983539], [5.045092, 47.010344]], [[5.045092, 47.010344], [5.049267, 47.018486], [5.066176, 47.053934], [5.082058, 47.089854], [5.096899, 47.126216], [5.110687, 47.16299], [5.123411, 47.200146], [5.135061, 47.237653], [5.157119, 47.282374], [5.175849, 47.328589], [5.191148, 47.376049], [5.202936, 47.424502], [5.211148, 47.473686], [5.215742, 47.52334], [5.216692, 47.573197], [5.213994, 47.622989], [5.207662, 47.672451], [5.206077, 47.705354], [5.202242, 47.738071], [5.196175, 47.770449], [5.187905, 47.802336], [5.17747, 47.833581], [5.16492, 47.864037], [5.200385, 47.938194]], [[5.207662, 47.937164], [5.25447, 47.941604], [5.300859, 47.94928], [5.346603, 47.960153], [5.391484, 47.974171], [5.435284, 47.991267], [5.477794, 48.011359], [5.518809, 48.03435], [5.567803, 48.070911], [5.617272, 48.106826], [5.667208, 48.142091], [5.717601, 48.176697], [5.768444, 48.210641], [5.819727, 48.243915], [5.871442, 48.276514], [5.906821, 48.300889], [5.942792, 48.324382], [5.979331, 48.346979], [6.016418, 48.368668], [6.054029, 48.389433], [6.092141, 48.409264], [6.130731, 48.428147], [6.146012, 48.456776], [6.163272, 48.484258], [6.182424, 48.510456], [6.203375, 48.535239], [6.22602, 48.558485], [6.250246, 48.580077], [6.275933, 48.599909], [6.30181, 48.614431], [6.327467, 48.629337], [6.352898, 48.644626], [6.378097, 48.660293], [6.403059, 48.676336], [6.427779, 48.69275], [6.41593, 48.720082]], [[6.41593, 48.720082], [6.406286, 48.742326]], [[7.161883, 49.105759], [7.125032, 49.093532], [7.088121, 49.081486], [7.051152, 49.069623], [7.014124, 49.057941], [6.977039, 49.046443], [6.939898, 49.035128], [6.902702, 49.023996], [6.847796, 48.987569], [6.791353, 48.953574], [6.73348, 48.922074], [6.674287, 48.89313], [6.613888, 48.866797], [6.552397, 48.843125], [6.489931, 48.822159], [6.393938, 48.746259]], [[5.052088, 47.03658], [5.046156, 47.01537], [5.045092, 47.010344]], [[5.045092, 47.010344], [5.041595, 46.993824], [5.038424, 46.97203], [5.036657, 46.950077], [5.036301, 46.928056], [5.037357, 46.906058], [5.039821, 46.884173], [5.043682, 46.862491], [5.048926, 46.8411], [5.055529, 46.82009], [5.063466, 46.799546], [5.072703, 46.779553], [5.083203, 46.760194], [5.088287, 46.723647], [5.093158, 46.687072], [5.097816, 46.650469], [5.102261, 46.613839], [5.106493, 46.577184], [5.110512, 46.540505], [5.114318, 46.503804], [5.117831, 46.47913], [5.121656, 46.454503], [5.125792, 46.429927], [5.130238, 46.405405], [5.134994, 46.38094], [5.140059, 46.356538], [5.145432, 46.332202], [5.144403, 46.32945], [5.143568, 46.326632], [5.142931, 46.323764], [5.142496, 46.320857], [5.142265, 46.317928], [5.142239, 46.314989], [5.142418, 46.312056], [5.142801, 46.309143], [5.143387, 46.306263], [5.144171, 46.303431], [5.145152, 46.300661], [5.146323, 46.297966], [5.14768, 46.295359], [5.149215, 46.292853], [5.150921, 46.290461], [5.152789, 46.288193], [5.154812, 46.286061], [5.156978, 46.284075], [5.159278, 46.282246], [5.161699, 46.280581], [5.16256, 46.280073]], [[5.16256, 46.280073], [5.164231, 46.279089], [5.16686, 46.277777], [5.169575, 46.276652], [5.172362, 46.275719], [5.175207, 46.274983], [5.178096, 46.274447], [5.181016, 46.274114], [5.183951, 46.273985], [5.186889, 46.274062], [5.189814, 46.274343], [5.192712, 46.274827], [5.19557, 46.275513], [5.198373, 46.276396], [5.201107, 46.277473], [5.203759, 46.278737], [5.206317, 46.280184], [5.208768, 46.281805], [5.2111, 46.283594], [5.213301, 46.285541], [5.215361, 46.287636], [5.21727, 46.289871], [5.219018, 46.292232], [5.220597, 46.294711], [5.222, 46.297293], [5.223219, 46.299967]], [[6.358906, 48.73006], [6.403266, 48.722719], [6.41593, 48.720082]], [[6.41593, 48.720082], [6.447285, 48.713555], [6.490889, 48.702584], [6.534003, 48.689824], [6.576555, 48.675298], [6.618471, 48.659029], [6.659681, 48.641046], [6.681512, 48.619839], [6.704618, 48.600029], [6.72891, 48.581692], [6.754294, 48.5649], [6.780671, 48.549717], [6.807941, 48.536201], [6.835998, 48.524406], [6.860096, 48.511341], [6.884066, 48.498046], [6.907908, 48.48452], [6.931619, 48.470766], [6.955197, 48.456785], [6.978639, 48.442578], [7.001943, 48.428147], [7.048546, 48.409334], [7.096219, 48.39343], [7.144783, 48.380497], [7.194052, 48.370583], [7.243839, 48.363727], [7.293953, 48.359954], [7.344205, 48.359279], [7.359122, 48.362327], [7.374215, 48.364326], [7.389411, 48.365265], [7.404635, 48.365139], [7.419814, 48.36395], [7.434872, 48.361704], [7.449737, 48.35841], [7.464335, 48.354086], [7.478595, 48.348752], [7.492447, 48.342434], [7.505824, 48.335164], [7.51866, 48.326977], [7.530893, 48.317913], [7.536035, 48.293537], [7.539476, 48.268863], [7.541201, 48.244011], [7.541201, 48.219098], [7.539476, 48.194245], [7.536035, 48.169572], [7.530893, 48.145195], [7.538001, 48.101061], [7.541954, 48.056534], [7.542732, 48.011838], [7.540332, 47.9672], [7.534764, 47.922845], [7.526059, 47.878998], [7.514258, 47.835881], [7.499423, 47.793712], [7.481628, 47.752704]]]}}
]
}
