{
"type": "FeatureCollection",
"features": [
{"type": "Feature", "properties": {"ProjectID": "P6207"}, "geometry": {"type": "LineString", "coordinates": [[5.822423, 43.850587], [5.823938, 43.849254], [5.825431, 43.847895], [5.8269, 43.846511], [5.828346, 43.845101], [5.829766, 43.843667], [5.831163, 43.842209], [5.832533, 43.840727], [5.833879, 43.839222], [5.835198, 43.837694], [5.836491, 43.836144], [5.837757, 43.834572], [5.838996, 43.832978], [5.840207, 43.831363], [5.84139, 43.829728], [5.842546, 43.828072], [5.843672, 43.826397], [5.84477, 43.824703], [5.845839, 43.822991], [5.846878, 43.82126], [5.847887, 43.819512], [5.848866, 43.817746], [5.849815, 43.815964], [5.850732, 43.814166], [5.851619, 43.812353], [5.852475, 43.810525], [5.853299, 43.808682], [5.854092, 43.806825], [5.854852, 43.804955], [5.855581, 43.803073], [5.856276, 43.801178], [5.85694, 43.799271], [5.85757, 43.797353], [5.858168, 43.795425], [5.858732, 43.793487], [5.859263, 43.791539], [5.859761, 43.789583], [5.860225, 43.787618], [5.860655, 43.785646], [5.861051, 43.783667], [5.861413, 43.781681], [5.861741, 43.779689], [5.862035, 43.777692], [5.862295, 43.77569], [5.86252, 43.773684], [5.862711, 43.771674], [5.865171, 43.769983], [5.867601, 43.76825], [5.870001, 43.766475], [5.87237, 43.764659], [5.874708, 43.762803], [5.877013, 43.760906], [5.879285, 43.758971], [5.881524, 43.756996], [5.883728, 43.754983], [5.885897, 43.752932], [5.888031, 43.750845], [5.890128, 43.748721], [5.892188, 43.746561], [5.894211, 43.744366], [5.896196, 43.742136], [5.898142, 43.739873], [5.900049, 43.737576], [5.901916, 43.735247], [5.728833, 43.687695], [5.479915, 43.614527], [5.371014, 43.535631], [5.339899, 43.479214], [5.27767, 43.462278], [5.176547, 43.529992], [5.083203, 43.558184], [5.052088, 43.575092], [4.966523, 43.603263], [4.935408, 43.608895]]}}
]
}
