{
"type": "FeatureCollection",
"features": [
{"type": "Feature", "properties": {"ProjectID": "P6204", "id": null, "Name": null}, "geometry": {"type": "MultiLineString", "coordinates": [[[7.27517, 53.197298], [7.334682, 53.193397]], [[7.542664, 53.165789], [7.498432, 53.262146], [7.448709, 53.318538], [7.274251, 53.356659], [7.214332, 53.378636], [7.02264, 53.451078]], [[8.049004, 53.638002], [8.054106, 53.579043], [8.036396, 53.54792], [7.996822, 53.486972], [7.336359, 53.193872], [7.336362, 53.192905], [7.28797, 53.083766], [7.293723, 53.009343], [7.300595, 52.889111], [7.269225, 52.786866], [7.265184, 52.701782], [7.280929, 52.479475], [7.291717, 52.340914], [7.540426, 52.06731], [7.517901, 51.964205], [7.558302, 51.84236], [7.608384, 51.793018], [7.655799, 51.67693], [7.640013, 51.662304], [7.008365, 51.48966], [7.013972, 51.4572], [6.456693, 51.368332], [6.260105, 51.369935], [6.201787, 51.371717], [6.117439, 51.372658], [6.084801, 51.389001]]]}}
]
}
