{
"type": "FeatureCollection",
"features": [
{"type": "Feature", "properties": {"ProjectID": "P6212", "id": 1, "Name": "Italy repurposed 1", "Type": null}, "geometry": {"type": "MultiLineString", "coordinates": [[[15.137812, 40.857086], [15.226144, 40.821102], [15.294308, 40.821459], [15.405547, 40.6685], [15.700245, 40.363982], [16.056793, 39.798866], [16.170333, 39.577321], [16.287092, 39.350796], [16.300862, 39.197577], [16.25995, 39.038751], [16.29721, 39.024137], [16.402869, 39.011085], [16.413631, 38.962622], [16.297996, 38.788399], [15.973285, 38.475906], [15.850979, 38.486544], [15.52483, 38.193427], [15.38667, 38.065133], [15.225451, 37.848005], [15.076325, 37.746315], [14.861209, 37.537218], [14.375577, 37.302493], [13.573504, 37.299625], [12.955674, 37.613499], [12.51049, 37.683179]]]}},
{"type": "Feature", "properties": {"ProjectID": "P6212", "id": null, "Name": null, "Type": null}, "geometry": {"type": "MultiLineString", "coordinates": [[[14.579133, 41.42314], [14.527449, 41.468334], [14.449883, 41.508401], [14.354444, 41.524804]]]}},
{"type": "Feature", "properties": {"ProjectID": "P6212", "id": null, "Name": null, "Type": null}, "geometry": {"type": "MultiLineString", "coordinates": [[[13.439751, 42.047538], [13.788473, 41.786779], [14.251877, 41.761736], [14.366105, 41.522255]]]}},
{"type": "Feature", "properties": {"ProjectID": "P6212", "id": null, "Name": null, "Type": null}, "geometry": {"type": "MultiLineString", "coordinates": [[[12.555222, 42.125464], [12.741005, 42.067088], [12.798055, 42.026895], [12.880949, 41.998274]]]}},
{"type": "Feature", "properties": {"ProjectID": "P6212", "id": null, "Name": null, "Type": null}, "geometry": {"type": "MultiLineString", "coordinates": [[[11.040811, 44.65858], [10.991833, 44.806162]], [[11.042128, 44.656566], [11.138283, 44.459615], [11.1789, 44.323811], [11.494576, 44.243385], [11.687332, 44.094626], [11.730457, 43.934206], [11.691604, 43.587595], [11.688585, 43.483449], [11.753613, 43.357311], [11.937315, 43.183767], [12.014806, 43.102353], [12.021141, 43.011883], [11.99857, 42.901126], [12.105079, 42.457525], [12.156537, 42.331272], [12.251762, 42.263123], [12.310043, 42.206163], [12.446633, 42.136858], [12.548269, 42.12564]], [[13.2165, 46.466751], [13.403074, 46.575102]]]}},
{"type": "Feature", "properties": {"ProjectID": "P6212", "id": null, "Name": null, "Type": null}, "geometry": {"type": "MultiLineString", "coordinates": [[[10.993051, 44.801985], [10.908636, 45.112752]]]}},
{"type": "Feature", "properties": {"ProjectID": "P6212", "id": null, "Name": null, "Type": null}, "geometry": {"type": "MultiLineString", "coordinates": [[[8.528753, 45.10059], [9.458808, 45.213718], [9.818689, 44.91666], [9.890231, 44.925871], [9.970446, 44.91666], [10.124371, 44.884412], [10.215425, 44.856756], [10.534115, 44.847534], [10.750911, 44.822936], [10.902669, 44.802943], [10.993723, 44.799866]]]}}
]
}
