{
"type": "FeatureCollection",
"features": [
{"type": "Feature", "properties": {"ProjectID": "P6218", "id": null, "Name": null}, "geometry": {"type": "MultiLineString", "coordinates": [[[13.463009, 50.601268], [13.455474, 50.582779], [13.453577, 50.545756], [13.479737, 50.510889], [13.47295, 50.468459], [13.513405, 50.43004], [13.559267, 50.422979], [13.64905, 50.425257], [13.726217, 50.399188], [13.778081, 50.39009], [13.857232, 50.354882], [13.951056, 50.345471], [14.009331, 50.311247], [14.206181, 50.30137], [14.271552, 50.276348], [14.36387, 50.218331], [14.444277, 50.213465], [14.473903, 50.195411], [14.515282, 50.19103], [14.548168, 50.176691], [14.757033, 50.040507], [14.786959, 50.036232], [14.990307, 49.95157], [15.012453, 49.918456], [15.08299, 49.885567], [15.227401, 49.849543], [15.281417, 49.824954], [15.303814, 49.775412], [15.338606, 49.739592], [15.547537, 49.676799], [15.576103, 49.644112], [15.629391, 49.629578], [15.64457, 49.586096], [15.739712, 49.523444], [15.807285, 49.462128], [15.817997, 49.422432], [15.865474, 49.401475], [15.929903, 49.409074], [15.977173, 49.390865], [16.044264, 49.386134], [16.052402, 49.354032], [16.127973, 49.315362], [16.149106, 49.253277], [16.183887, 49.204756], [16.2603, 49.160243], [16.302892, 49.113474], [16.357739, 49.091844], [16.424925, 49.04056], [16.446631, 49.025301], [16.485737, 49.019202], [16.500405, 49.019858], [16.518017, 48.995984], [16.537707, 48.984448], [16.649921, 48.966428], [16.682389, 48.970047], [16.722388, 48.953266], [16.734555, 48.904958], [16.792268, 48.866004], [16.83026, 48.86004], [16.9322, 48.790948], [16.955928, 48.759507], [17.003646, 48.724238], [17.011671, 48.719087]]]}}
]
}
