{
"type": "FeatureCollection",
"features": [
{"type": "Feature", "properties": {"ProjectID": "P6213", "id": null, "Name": null}, "geometry": {"type": "MultiLineString", "coordinates": [[[13.404114, 46.575069], [13.427756, 46.575277], [14.244191, 46.561481], [14.468829, 46.586948], [14.691929, 46.623548], [14.853215, 46.650974], [15.017811, 46.681853], [15.209114, 46.726574], [15.367764, 46.776445], [15.430528, 46.818827], [15.494278, 46.877688], [15.594685, 46.977822], [15.727126, 47.150146], [15.766436, 47.301857], [15.828998, 47.406173], [15.972313, 47.617567], [16.254159, 47.748145], [16.334656, 47.861823], [16.415838, 47.980844], [16.532342, 48.109238], [16.745536, 48.308999], [16.876304, 48.308056]]]}}
]
}
