{
"type": "FeatureCollection",
"features": [
{"type": "Feature", "properties": {"ProjectID": "P6222", "id": null, "Name": null}, "geometry": {"type": "MultiLineString", "coordinates": [[[18.142297, 47.200339], [18.185841, 47.145866], [18.416779, 47.17295], [18.555042, 47.161461], [18.665078, 47.215837], [18.891828, 47.248911], [18.901306, 47.317359], [19.127818, 47.341078], [19.260302, 47.410581]], [[19.758139, 46.819911], [19.763835, 46.906025], [19.649015, 47.033916], [19.576403, 47.137915], [19.464568, 47.245192], [19.259181, 47.410739], [19.311868, 47.636324], [19.345177, 47.70401], [19.404741, 47.823651], [19.363892, 47.948049], [19.38192, 47.980714], [19.335553, 48.089406]]]}}
]
}
