{
"type": "FeatureCollection",
"features": [
{"type": "Feature", "properties": {"ProjectID": "P6642", "id": 2, "Name": "AtlantHYC 2"}, "geometry": {"type": "MultiLineString", "coordinates": [[[-1.987797, 47.355559], [-1.968633, 47.377745], [-1.857812, 47.453022], [-1.786045, 47.465752], [-1.696768, 47.509043], [-1.560594, 47.534697], [-1.090297, 47.703582], [-1.025314, 47.704144], [-0.974504, 47.726569], [-0.864278, 47.744709], [-0.379895, 47.892741], [-0.347343, 47.919525], [-0.284327, 47.92994], [0.1648, 48.086126], [0.34573, 48.095016], [0.486272, 48.133958], [0.506182, 48.181042], [0.576065, 48.207183], [0.666592, 48.280922], [0.824638, 48.377639], [1.03576, 48.440838], [1.090378, 48.489339], [1.155687, 48.523889], [1.26628, 48.608941], [1.407258, 48.669224], [1.45024, 48.71067], [1.583566, 48.781065], [1.632072, 48.837999], [1.632274, 48.971887], [1.694012, 49.229848]]]}}
]
}
