{
"type": "FeatureCollection",
"features": [
{"type": "Feature", "properties": {"ProjectID": "P6644", "id": null, "Name": null}, "geometry": {"type": "MultiLineString", "coordinates": [[[18.526171, 40.132503], [18.676153, 40.147298], [18.801944, 40.132503], [19.024498, 39.965844], [19.370424, 39.746717], [19.515568, 39.718812], [19.585721, 39.670416], [19.653455, 39.588439], [19.747798, 39.47276], [19.82037, 39.412979], [19.895361, 39.37559], [19.999381, 39.341923], [20.074372, 39.315726], [20.125173, 39.326955], [20.188068, 39.345665], [20.272736, 39.403634], [20.690024, 39.622918], [21.370334, 39.916192], [21.813467, 40.074981], [22.077918, 40.195196], [22.292337, 40.347889], [22.449578, 40.434987], [22.645598, 40.653967], [22.826681, 40.775725], [23.089543, 41.02298], [23.219514, 41.152858], [23.786125, 41.165388], [24.307879, 41.133096], [24.829341, 41.092679], [25.153021, 41.08616], [25.291986, 41.096674], [25.406153, 41.08164], [25.677278, 40.911609], [25.969348, 40.871867], [26.194768, 40.828239]]]}}
]
}
