{
"type": "FeatureCollection",
"features": [
{"type": "Feature", "properties": {"ProjectID": "P6641", "id": null, "Name": null}, "geometry": {"type": "MultiLineString", "coordinates": [[[4.716194, 60.599449], [4.332788, 60.709736], [4.224435, 60.997952], [4.19943, 61.191334], [4.19943, 61.299592], [4.2161, 61.634018], [4.274444, 61.744698], [4.60784, 62.101673], [4.849552, 62.31154], [5.199618, 62.535332], [5.964345, 62.866943], [6.110205, 62.906828], [6.256066, 62.916317], [6.426932, 62.920112], [6.551955, 62.91442], [6.683133, 62.899119], [6.820678, 62.879893], [6.937417, 62.855382]]]}}
]
}
