{
"type": "FeatureCollection",
"features": [
{"type": "Feature", "properties": {"ProjectID": "P6748", "id": null, "Name": null}, "geometry": {"type": "MultiLineString", "coordinates": [[[12.123455, 50.628942], [11.3086, 50.823336], [11.274712, 50.827624], [11.275265, 50.82909]], [[10.318088, 50.862374], [10.318088, 50.861819], [10.318088, 50.82208], [10.817485, 50.846611], [11.261393, 50.792274], [11.274712, 50.827624], [10.820984, 50.885], [10.318088, 50.861819], [9.856605, 50.840536], [9.760041, 50.49303], [9.684371, 50.36142], [9.496139, 50.244976], [9.130579, 50.216131], [9.010427, 50.13884], [8.971731, 50.092838], [8.965311, 49.917005], [8.884979, 49.869571], [8.742681, 49.766531], [8.610549, 49.681747], [8.519883, 49.624224], [8.473877, 49.592063]], [[13.595586, 52.154379], [13.361807, 52.128639], [13.114785, 52.058298], [12.816647, 52.038994], [12.612657, 51.9762], [12.408035, 51.941764], [12.174755, 51.809421], [12.124316, 51.676688], [12.130621, 51.543565], [12.193669, 51.410052], [12.174755, 51.284034], [12.12635, 50.627583]]]}}
]
}
