{
"type": "FeatureCollection",
"features": [
{"type": "Feature", "properties": {"ProjectID": "P6754", "id": null, "Name": null}, "geometry": {"type": "MultiLineString", "coordinates": [[[23.53786, 42.733902], [23.552571, 42.775684], [23.573589, 42.812536], [23.612466, 42.843719], [23.62194, 42.874509], [23.656176, 42.886142], [23.667847, 42.908246], [23.751379, 42.94183], [23.782578, 42.97109], [23.82842, 42.97821], [23.848696, 42.992569], [23.856872, 43.015841], [23.913108, 43.038951], [23.938668, 43.089695], [24.248038, 43.191951], [24.307243, 43.198027], [24.455757, 43.231798], [24.561698, 43.267473], [24.724291, 43.292801], [24.881966, 43.299962], [25.014689, 43.321411], [25.135981, 43.306018], [25.208769, 43.308915], [25.306524, 43.301212], [25.399444, 43.314936], [25.447582, 43.31704], [25.489931, 43.310127], [25.607664, 43.312332], [25.802252, 43.332538], [25.979641, 43.354234], [25.971111, 43.381129], [25.974146, 43.402731], [25.976812, 43.437308], [25.989605, 43.469309], [25.981304, 43.491683], [25.996265, 43.519413], [26.013511, 43.57339], [26.009818, 43.614205], [25.975738, 43.666224], [25.969629, 43.727376], [25.957407, 43.759455], [25.95757, 43.782668], [25.987698, 43.809759], [26.016229, 43.827598], [26.017398, 43.845776], [26.05169, 43.866606], [26.051714, 43.906002]]]}}
]
}
