{
"type": "FeatureCollection",
"features": [
{"type": "Feature", "properties": {"ProjectID": "P6752", "id": null, "Name": null}, "geometry": {"type": "MultiLineString", "coordinates": [[[23.340501, 42.807915], [23.320314, 42.868358], [23.285549, 42.92839], [23.298457, 42.982842], [23.329389, 43.049161], [23.400031, 43.124172], [23.444293, 43.182294], [23.603165, 43.280147], [23.65317, 43.305902], [23.671087, 43.32601], [23.678163, 43.357641], [23.70047, 43.384128], [23.741775, 43.430814], [23.776164, 43.476328], [23.783895, 43.511758], [23.785078, 43.539534], [23.808496, 43.578648], [23.811819, 43.615229], [23.842871, 43.672958], [23.817177, 43.691881], [23.791912, 43.721905], [23.760015, 43.7358], [23.734792, 43.764483]]]}}
]
}
