{
"type": "FeatureCollection",
"features": [
{"type": "Feature", "properties": {"ProjectID": "P6750", "id": null, "Name": null}, "geometry": {"type": "MultiLineString", "coordinates": [[[10.061148, 48.265204], [9.94326, 48.155121], [9.884131, 48.147231], [9.808221, 48.074851], [9.786203, 47.977416], [9.704492, 47.885225], [9.646138, 47.860409], [9.632834, 47.842553], [9.625443, 47.834616], [9.588857, 47.800619], [9.57777, 47.745481], [9.695418, 47.553845]], [[10.313966, 48.351245], [10.065213, 48.264712]], [[9.546884, 48.754903], [9.699772, 48.73006], [9.994013, 48.711695], [10.168, 48.678353], [10.277444, 48.703759], [10.444397, 48.697079], [10.725284, 48.536626]], [[8.392884, 49.01145], [8.354195, 49.043534], [8.276816, 49.056958], [8.450919, 49.494971]]]}}
]
}
