{
"type": "FeatureCollection",
"features": [
{"type": "Feature", "properties": {"ProjectID": "P6761", "id": null, "Name": null}, "geometry": {"type": "MultiLineString", "coordinates": [[[15.403464, 41.403698], [15.412523, 41.308494], [15.407994, 41.236998], [15.385344, 41.097187], [15.358165, 41.018626], [15.317397, 40.943392], [15.265303, 40.883486], [15.161117, 40.859509]]]}},
{"type": "Feature", "properties": {"ProjectID": "P6761", "id": null, "Name": null}, "geometry": {"type": "MultiLineString", "coordinates": [[[15.155648, 40.855373], [15.060522, 40.881064], [14.96766, 40.952947], [14.96313, 40.98715], [14.981532, 41.029878], [14.990592, 41.096479], [14.952089, 41.156192], [14.594231, 41.416584]]]}},
{"type": "Feature", "properties": {"ProjectID": "P6761", "id": null, "Name": null}, "geometry": {"type": "MultiLineString", "coordinates": [[[12.884216, 41.99824], [13.090332, 42.020222], [13.305658, 42.043555], [13.395913, 42.051917], [13.440239, 42.047176]]]}},
{"type": "Feature", "properties": {"ProjectID": "P6761", "id": null, "Name": null}, "geometry": {"type": "MultiLineString", "coordinates": [[[11.692127, 43.613843], [11.380537, 43.61124], [11.236201, 43.631007], [11.103568, 43.631007], [10.963134, 43.676167], [10.795392, 43.704374], [10.413097, 43.701554], [10.319474, 43.693093]]]}},
{"type": "Feature", "properties": {"ProjectID": "P6761", "id": null, "Name": null}, "geometry": {"type": "MultiLineString", "coordinates": [[[11.043103, 44.656566], [11.193291, 44.649976], [11.441002, 44.651363], [11.803793, 44.649976], [12.065158, 44.586111], [12.287513, 44.540252]]]}},
{"type": "Feature", "properties": {"ProjectID": "P6761", "id": null, "Name": null}, "geometry": {"type": "MultiLineString", "coordinates": [[[12.303136, 45.421983], [12.15174, 45.601988]]]}},
{"type": "Feature", "properties": {"ProjectID": "P6761", "id": null, "Name": null}, "geometry": {"type": "MultiLineString", "coordinates": [[[10.912457, 45.116895], [11.166328, 45.315939], [11.442364, 45.417327], [11.637497, 45.454789], [11.867439, 45.499346], [11.959694, 45.521862], [12.064366, 45.568242], [12.133933, 45.591048]]]}},
{"type": "Feature", "properties": {"ProjectID": "P6761", "id": null, "Name": null}, "geometry": {"type": "MultiLineString", "coordinates": [[[12.135344, 45.590516], [12.450778, 45.761558], [12.65175, 45.877659], [12.793892, 45.95464], [12.819018, 45.994287], [12.985681, 46.086491], [13.011911, 46.142187], [13.123369, 46.267974], [13.155049, 46.41215], [13.19277, 46.459399], [13.215683, 46.465264]]]}},
{"type": "Feature", "properties": {"ProjectID": "P6761", "id": null, "Name": null}, "geometry": {"type": "MultiLineString", "coordinates": [[[13.02443, 46.147766], [13.22338, 46.028723], [13.34431, 45.952835], [13.46524, 45.931133], [13.554962, 45.931133], [13.627181, 45.926016]]]}},
{"type": "Feature", "properties": {"ProjectID": "P6761", "id": null, "Name": null}, "geometry": {"type": "MultiLineString", "coordinates": [[[8.359724, 46.438368], [8.413362, 46.275484], [8.359724, 46.063414], [8.340219, 45.968597], [8.422139, 45.846451], [8.422139, 45.743095], [8.398734, 45.579513], [8.398734, 45.448302], [8.441644, 45.281114], [8.527466, 45.09347]]]}},
{"type": "Feature", "properties": {"ProjectID": "P6761", "id": null, "Name": null}, "geometry": {"type": "MultiLineString", "coordinates": [[[16.170333, 39.577321], [16.24281, 39.779529], [16.337937, 40.029722], [16.519131, 40.313549], [16.609727, 40.372243], [16.872458, 40.492922], [17.046857, 40.541133], [17.076955, 40.546047], [17.102466, 40.551264]]]}},
{"type": "Feature", "properties": {"ProjectID": "P6761", "id": null, "Name": null}, "geometry": {"type": "MultiLineString", "coordinates": [[[14.861209, 37.537218], [14.943878, 37.507579], [15.025415, 37.484218], [15.048065, 37.446466], [15.066184, 37.370905], [15.100158, 37.286258], [15.120542, 37.242997], [15.206609, 37.167231]]]}}
]
}
