{
"type": "FeatureCollection",
"features": [
{"type": "Feature", "properties": {"ProjectID": "P6775", "id": null, "Name": null}, "geometry": {"type": "MultiLineString", "coordinates": [[[19.758693, 46.819564], [19.977426, 46.832927], [20.148, 46.840127], [20.209311, 46.865236], [20.355615, 46.862824], [20.672646, 47.059971], [20.803492, 47.143632], [20.855947, 47.204129], [20.937265, 47.292643], [21.095613, 47.392593], [21.393473, 47.443205], [21.320305, 47.582226], [21.177003, 47.735427], [20.964034, 47.88777]]]}},
{"type": "Feature", "properties": {"ProjectID": "P6775", "id": null, "Name": null}, "geometry": {"type": "MultiLineString", "coordinates": [[[21.39393, 47.443677], [21.797436, 47.654629], [22.114691, 47.859544], [22.272363, 47.976499], [22.445325, 48.141423], [22.565113, 48.201423]]]}}
]
}
