{
"type": "FeatureCollection",
"features": [
{"type": "Feature", "properties": {"ProjectID": "P6788", "id": 1, "Name": "Spanish Backbone 2024 (mix)"}, "geometry": {"type": "MultiLineString", "coordinates": [[[-1.745289, 42.170296], [-2.080463, 41.944442], [-2.298222, 41.923867], [-2.450446, 41.762717], [-2.458457, 41.577192], [-2.538575, 41.475226], [-3.083374, 41.403162], [-3.139457, 41.306931], [-3.187527, 41.024213], [-3.127308, 40.724534], [-3.061189, 40.526061], [-3.072079, 40.439176], [-3.072079, 40.439176], [-3.12892, 40.358471], [-3.114775, 40.261357], [-3.120766, 40.099465], [-3.145505, 39.976802], [-3.130029, 39.692038], [-3.035315, 39.571204], [-2.866701, 39.491986], [-2.717781, 39.474168], [-2.589999, 39.376507], [-2.456956, 39.335921], [-2.131264, 39.198038], [-2.003358, 39.120603], [-1.819308, 38.970562], [-1.76514, 38.931299], [-1.586936, 38.927833], [-1.341276, 38.872012], [-1.081106, 38.878387], [-0.891722, 38.824408], [-0.637031, 38.968443]]]}},
{"type": "Feature", "properties": {"ProjectID": "P6788", "id": 2, "Name": "Spanish H2 2040 mix"}, "geometry": {"type": "MultiLineString", "coordinates": [[[-3.169239, 39.761316], [-3.21708, 39.631347], [-3.209821, 39.565728], [-3.193349, 39.459773], [-3.233899, 39.345309], [-3.235783, 39.250671], [-3.255267, 39.179294], [-3.246594, 39.1074], [-3.311114, 38.962059], [-3.359383, 38.832877], [-3.418403, 38.648477], [-3.463933, 38.567785], [-3.470197, 38.520968], [-3.470943, 38.414934], [-3.52306, 38.316989], [-3.622373, 38.202625], [-3.772499, 38.080823], [-3.932724, 38.020245], [-4.094399, 38.00537], [-4.251027, 37.956125], [-4.384078, 37.953711], [-4.512555, 37.908247], [-4.586312, 37.875128]]]}},
{"type": "Feature", "properties": {"ProjectID": "P6788", "id": 3, "Name": "Spanish H2 mix 2040"}, "geometry": {"type": "MultiLineString", "coordinates": [[[-6.954283, 37.195483], [-6.941168, 37.221541], [-6.898139, 37.312522], [-6.255466, 37.325776], [-6.085512, 37.309848], [-5.957066, 37.239877], [-5.781343, 37.193088], [-5.401844, 37.337825], [-5.255939, 37.447055], [-4.979369, 37.590797], [-4.949673, 37.665027], [-4.852337, 37.736006], [-4.800174, 37.807286], [-4.586312, 37.875128], [-4.518579, 37.841275], [-4.481571, 37.753805], [-4.542059, 37.67631], [-4.702938, 37.539314], [-4.870264, 37.419355], [-5.129924, 37.258648], [-5.241946, 37.198574], [-5.349717, 37.119835], [-5.540068, 37.070227], [-5.712967, 36.923908], [-5.866254, 36.696619], [-5.865649, 36.63277], [-5.879181, 36.535735], [-5.906403, 36.491151], [-5.889502, 36.388089], [-5.924134, 36.347894], [-5.957527, 36.25845], [-5.925533, 36.186215], [-5.890532, 36.067633], [-5.896651, 36.04327], [-5.853168, 35.97323], [-5.868454, 35.896358], [-5.808842, 35.793203]]]}}
]
}
