{
"type": "FeatureCollection",
"features": [
{"type": "Feature", "properties": {"ProjectID": "P6785", "id": null, "Name": null}, "geometry": {"type": "MultiLineString", "coordinates": [[[3.889627, 50.338903], [3.876028, 50.332224], [3.856982, 50.215893], [3.738097, 50.165028], [3.554076, 50.074826], [3.508749, 50.018046], [3.323183, 49.919931], [3.227267, 49.846526], [3.011731, 49.741602], [2.817904, 49.608411], [2.80369, 49.5616], [2.730787, 49.50577], [2.567314, 49.445968], [2.442611, 49.418095], [2.306588, 49.397704], [2.120099, 49.339681], [1.948264, 49.28263], [1.693353, 49.229439]]]}}
]
}
