{
"type": "FeatureCollection",
"features": [
{"type": "Feature", "properties": {"ProjectID": "P6792", "id": 1, "Name": "Hysow Med 1"}, "geometry": {"type": "MultiLineString", "coordinates": [[[1.302284, 43.425711], [1.418108, 43.410025], [1.701878, 43.41119], [1.731696, 43.386461], [1.802016, 43.359773], [1.837228, 43.33778], [1.919636, 43.315316], [1.954744, 43.312041], [2.058359, 43.256035], [2.186285, 43.243493], [2.280708, 43.247001], [2.329851, 43.227363], [2.390953, 43.223897], [2.510091, 43.185443], [2.655407, 43.186191], [2.714463, 43.181262], [2.796635, 43.204201], [2.830988, 43.252803], [2.867535, 43.294088], [2.941235, 43.355201]]]}},
{"type": "Feature", "properties": {"ProjectID": "P6792", "id": 2, "Name": "HySoW Med 2"}, "geometry": {"type": "MultiLineString", "coordinates": [[[2.510594, 43.185134], [2.519698, 43.173307], [2.626849, 43.148817], [2.763676, 43.111657], [2.850295, 43.068073], [2.937701, 43.064858], [2.947552, 43.054125], [2.969905, 43.039191], [2.980931, 43.033369], [3.029889, 43.022351], [3.058528, 43.023785]]]}}
]
}
