{
"type": "FeatureCollection",
"features": [
{"type": "Feature", "properties": {"ProjectID": "P6793", "id": 1, "Name": "HySoW Atlantic 2040"}, "geometry": {"type": "MultiLineString", "coordinates": [[[-0.981697, 43.005629], [-0.956478, 43.018218], [-0.924417, 43.023199], [-0.881571, 43.050647], [-0.869197, 43.092406], [-0.863158, 43.118598], [-0.892317, 43.161701], [-0.903452, 43.19977], [-0.866118, 43.244974], [-0.815833, 43.268787], [-0.766811, 43.319414], [-0.701892, 43.332884], [-0.613497, 43.387373], [-0.614458, 43.407573]]]}}
]
}
