{
"type": "FeatureCollection",
"features": [
{"type": "Feature", "properties": {"ProjectID": "P6799", "id": 1, "Name": "Le Havre - Chartres"}, "geometry": {"type": "MultiLineString", "coordinates": [[[1.694012, 49.229848], [1.566739, 49.230766], [1.420835, 49.251376], [1.269924, 49.289958], [1.097293, 49.312304], [1.057659, 49.33558], [1.057659, 49.33558], [0.929867, 49.335867], [0.855842, 49.355303], [0.768136, 49.373021], [0.656279, 49.375233], [0.61215, 49.386325], [0.56101, 49.428023], [0.549058, 49.44914], [0.41949, 49.495067], [0.374418, 49.489551], [0.197938, 49.498664], [0.172783, 49.500695]]]}}
]
}
