{
"type": "FeatureCollection",
"features": [
{"type": "Feature", "properties": {"ProjectID": "P6808", "id": null, "Name": null}, "geometry": {"type": "MultiLineString", "coordinates": [[[18.64693, 54.092226], [18.659391, 54.094354], [18.752253, 53.954419], [18.771403, 53.909322], [18.814489, 53.881112], [18.919812, 53.881112], [18.94126, 53.723234], [18.883045, 53.537913], [18.834022, 53.505124], [18.818702, 53.477781], [18.794191, 53.452245], [18.748232, 53.391993], [18.662441, 53.223564], [18.707175, 53.131085], [18.69737, 53.09813], [18.699331, 53.053365], [18.662074, 53.032144], [18.664035, 52.98849], [18.754237, 52.914059], [18.805221, 52.843054], [18.875814, 52.790909], [19.087593, 52.719702], [19.089554, 52.70307]], [[18.425415, 54.226324], [18.535525, 54.189926], [18.642143, 54.120294], [18.659391, 54.094354], [19.025135, 54.156753], [19.36504, 54.184778]]]}}
]
}
