{
"type": "FeatureCollection",
"features": [
{"type": "Feature", "properties": {"ProjectID": "P6885", "id": null, "Name": null}, "geometry": {"type": "MultiLineString", "coordinates": [[[15.699962, 46.222657], [15.696354, 46.211107], [15.708893, 46.199415], [15.713757, 46.193568], [15.752772, 46.193247], [15.757616, 46.187462], [15.763834, 46.171909], [15.767504, 46.157183], [15.796274, 46.147368], [15.809829, 46.133085], [15.815537, 46.11861], [15.834929, 46.096523], [15.850203, 46.08659], [15.865563, 46.074087], [15.879037, 46.043511], [15.898852, 46.029405], [15.850096, 46.005911], [15.816754, 45.961808], [15.800167, 45.927759], [15.795519, 45.901494], [15.807512, 45.869797], [15.791433, 45.830993], [15.804662, 45.805939], [15.832375, 45.781973], [15.884775, 45.748518], [15.899757, 45.735347]]]}}
]
}
