{
"type": "FeatureCollection",
"features": [
{"type": "Feature", "properties": {"ProjectID": "P0004", "id": 1, "Name": "Line 26"}, "geometry": {"type": "MultiLineString", "coordinates": [[[-101.243284, 49.742221], [-101.312993, 49.6945], [-101.349897, 49.660006], [-101.444208, 49.620175], [-101.54672, 49.569675], [-101.63693, 49.521785], [-101.727141, 49.449862], [-101.854255, 49.401855], [-102.133088, 49.337772], [-102.340162, 49.293666], [-102.41397, 49.277618], [-102.491879, 49.256212], [-102.553387, 49.254874], [-102.594391, 49.288317], [-102.602592, 49.213373], [-102.565688, 49.146363], [-102.590291, 49.087318], [-102.577989, 49.028203], [-102.577989, 49.028203], [-102.557487, 48.977093], [-102.573889, 48.936706], [-102.573889, 48.936706], [-102.58414, 48.87067], [-102.510332, 48.854484], [-102.403719, 48.805897], [-102.313509, 48.757262], [-102.231499, 48.70858], [-102.100284, 48.605652], [-101.854255, 48.415498], [-101.739442, 48.328333]]]}}
]
}
