{
"type": "FeatureCollection",
"features": [
{"type": "Feature", "properties": {"ProjectID": "P0012"}, "geometry": {"type": "LineString", "coordinates": [[-113.591734, 53.54475], [-113.367143, 53.556927], [-113.3325, 53.447345], [-113.254417, 53.445079], [-113.120287, 53.319165], [-113.113738, 53.284857], [-112.891008, 53.195645], [-112.112072, 53.035678], [-111.21255, 52.657243], [-109.559989, 52.113142], [-108.980438, 51.900041], [-108.733582, 51.85947], [-107.536355, 51.526528], [-106.620527, 51.317231], [-106.137393, 51.182546], [-105.397244, 50.882323], [-104.872663, 50.537405], [-104.543991, 50.442237], [-103.999871, 50.358763], [-103.864944, 50.298106], [-103.653609, 50.251244], [-103.181191, 50.190867], [-102.657864, 50.092094], [-102.336086, 50.062032], [-101.093112, 49.775837], [-100.425246, 49.693957], [-99.652615, 49.636685], [-99.049, 49.568185], [-98.367187, 49.309745], [-98.102534, 49.243971], [-97.999329, 49.18418], [-97.208784, 48.864789], [-96.936601, 48.569399], [-96.022592, 47.905656], [-95.122198, 47.606152], [-94.812305, 47.416851], [-94.73672, 47.392702], [-93.933949, 47.325887], [-93.797407, 47.330055], [-93.661525, 47.305197], [-93.045602, 47.018726], [-92.909134, 46.929899], [-92.859477, 46.874782], [-92.500776, 46.645141], [-92.271979, 46.57396]]}}
]
}
