{
"type": "FeatureCollection",
"features": [
{"type": "Feature", "properties": {"ProjectID": "P0032"}, "geometry": {"type": "LineString", "coordinates": [[-122.978471, 49.270491], [-122.906413, 49.260342], [-122.849802, 49.244113], [-122.83171, 49.202166], [-122.703882, 49.187659], [-122.585573, 49.153034], [-122.432969, 49.121915], [-122.248515, 49.078601], [-122.150688, 49.070034], [-122.047431, 49.080572], [-122.041319, 49.108937], [-121.943307, 49.121413], [-121.862876, 49.154689], [-121.741841, 49.198525], [-121.688999, 49.244649], [-121.678989, 49.285801], [-121.620696, 49.329887], [-121.572131, 49.354006], [-121.513592, 49.364838], [-121.431416, 49.36187], [-121.348493, 49.368055], [-121.308169, 49.390551], [-121.313503, 49.425823], [-121.287607, 49.439626], [-121.255226, 49.448566], [-121.247586, 49.474129], [-121.198408, 49.486118], [-121.172106, 49.487886], [-121.118612, 49.533855], [-121.093313, 49.571673], [-120.997643, 49.62522], [-121.016938, 49.751686], [-120.950141, 49.78789], [-120.900761, 49.84512], [-120.911572, 49.894585], [-120.918685, 49.923553], [-120.893724, 49.985494], [-120.86471, 50.014882], [-120.769306, 50.071211], [-120.732567, 50.092863], [-120.746973, 50.117537], [-120.609605, 50.217488], [-120.524359, 50.220384], [-120.457679, 50.247204], [-120.42384, 50.322715], [-120.361806, 50.442498], [-120.356537, 50.510031], [-120.395356, 50.58507], [-120.420984, 50.638189], [-120.370452, 50.695474], [-120.358219, 50.733978], [-120.333818, 50.753367], [-120.29019, 50.782141], [-120.302532, 50.813366], [-120.258104, 50.863499], [-120.244833, 50.91129], [-120.235276, 50.991833], [-120.213702, 51.065361], [-120.181196, 51.134707], [-120.152602, 51.179088], [-120.123478, 51.187105], [-120.159848, 51.232532], [-120.175762, 51.284512], [-120.202743, 51.422814], [-120.216844, 51.493428], [-120.172817, 51.534428], [-120.154648, 51.558833], [-120.100387, 51.574157], [-120.079926, 51.592853], [-120.062677, 51.607957], [-120.024782, 51.629602], [-119.964816, 51.630612], [-119.907718, 51.591556], [-119.82581, 51.571877], [-119.747377, 51.572865], [-119.699494, 51.580872], [-119.678988, 51.611663], [-119.679143, 51.635967], [-119.638883, 51.6518], [-119.57453, 51.653375], [-119.485067, 51.649953], [-119.408724, 51.656475], [-119.367287, 51.669376], [-119.353129, 51.692981], [-119.321499, 51.731614], [-119.313868, 51.760229], [-119.293112, 51.790997], [-119.278898, 51.814612], [-119.294229, 51.903372], [-119.318355, 51.954212], [-119.316201, 52.02155], [-119.271195, 52.111142], [-119.237096, 52.156306], [-119.191913, 52.221554], [-119.168682, 52.283244], [-119.147599, 52.3507], [-119.127567, 52.421055], [-119.128604, 52.448352], [-119.118599, 52.471332], [-119.08317, 52.489252], [-119.106322, 52.512996], [-119.077448, 52.548178], [-119.099485, 52.581277], [-119.177988, 52.651112], [-119.207885, 52.679906], [-119.247783, 52.734608], [-119.252201, 52.782837], [-119.27664, 52.809479], [-119.272189, 52.846927], [-119.314475, 52.895186], [-119.316725, 52.937699], [-119.26548, 52.988878], [-119.187424, 53.007594], [-119.133883, 53.016202], [-119.091542, 53.004618], [-119.022446, 52.997303], [-118.918976, 52.961762], [-118.825546, 52.939879], [-118.777966, 52.901533], [-118.697081, 52.862331], [-118.581741, 52.831576], [-118.491224, 52.86713], [-118.418624, 52.887613], [-118.295521, 52.860904], [-118.171774, 52.844894], [-118.091461, 52.857231], [-118.033189, 52.878358], [-118.024562, 52.919356], [-118.062986, 52.947066], [-118.085676, 52.983295], [-118.117341, 53.018158], [-118.108751, 53.059199], [-118.060066, 53.094151], [-118.006843, 53.129778], [-117.991562, 53.165732], [-117.954083, 53.192831], [-117.903372, 53.209693], [-117.837054, 53.222778], [-117.763511, 53.25526], [-117.704529, 53.328334], [-117.615563, 53.384458], [-117.559747, 53.414185], [-117.516018, 53.451275], [-117.344724, 53.50411], [-117.258045, 53.541304], [-117.189179, 53.548307], [-117.112121, 53.531995], [-117.047773, 53.538274], [-116.992461, 53.543218], [-116.829478, 53.539155], [-116.689634, 53.546902], [-116.619164, 53.563024], [-116.520349, 53.607557], [-116.43021, 53.608018], [-116.358803, 53.593586], [-116.265129, 53.597497], [-116.168861, 53.607814], [-115.947711, 53.613857], [-115.682755, 53.616335], [-115.505099, 53.609728], [-114.833119, 53.597542], [-114.691108, 53.597545], [-114.619234, 53.579349], [-114.559155, 53.583962], [-114.411728, 53.581348], [-114.104288, 53.565088], [-113.971666, 53.548054], [-113.836294, 53.537323], [-113.755387, 53.53504], [-113.705525, 53.525915], [-113.656808, 53.504497], [-113.547766, 53.502473]]}}
]
}
