{
"type": "FeatureCollection",
"features": [
{"type": "Feature", "properties": {"ProjectID": "P0048"}, "geometry": {"type": "MultiLineString", "coordinates": [[[-90.5354, 27.32131], [-90.5285, 27.32498], [-90.527, 27.32592], [-90.5243, 27.32737], [-90.517, 27.33126], [-90.5128, 27.3335], [-90.5087, 27.33572], [-90.5006, 27.3397], [-90.4963, 27.34135], [-90.4927, 27.34242], [-90.4848, 27.34416], [-90.4758, 27.34612], [-90.4683, 27.34779], [-90.4608, 27.34943], [-90.4519, 27.35139], [-90.4451, 27.35288], [-90.437, 27.35673], [-90.4358, 27.35763], [-90.4286, 27.36546], [-90.4213, 27.37376], [-90.4208, 27.37426], [-90.4131, 27.37859], [-90.4063, 27.38184], [-90.405, 27.3825], [-90.3968, 27.38639], [-90.39, 27.38959], [-90.3887, 27.39023], [-90.3809, 27.39563], [-90.379, 27.39781], [-90.3756, 27.40543], [-90.3759, 27.41363], [-90.3796, 27.42151], [-90.3816, 27.42521], [-90.3843, 27.43015], [-90.3884, 27.43755], [-90.3897, 27.44], [-90.3931, 27.44617], [-90.3972, 27.45357], [-90.4019, 27.46221], [-90.4053, 27.46836], [-90.406, 27.46959], [-90.4107, 27.47823], [-90.4133, 27.48269], [-90.4147, 27.48587], [-90.417, 27.49384], [-90.4175, 27.50137], [-90.4172, 27.51033], [-90.4169, 27.51857], [-90.4167, 27.52544], [-90.4163, 27.53368], [-90.416, 27.54192], [-90.4158, 27.55016], [-90.4155, 27.55841], [-90.4152, 27.56657], [-90.4149, 27.57344], [-90.4146, 27.58168], [-90.4143, 27.58992], [-90.414, 27.59817], [-90.4137, 27.60641], [-90.4135, 27.61465], [-90.4135, 27.62153], [-90.4139, 27.62955], [-90.4157, 27.63762], [-90.4175, 27.64568], [-90.4194, 27.65374], [-90.4213, 27.6618], [-90.4231, 27.66986], [-90.4249, 27.67792], [-90.4268, 27.68597], [-90.4287, 27.69404], [-90.4293, 27.69672], [-90.4305, 27.7021], [-90.4324, 27.70946], [-90.4363, 27.71766], [-90.4377, 27.72011], [-90.4406, 27.7257], [-90.4439, 27.73337], [-90.4451, 27.73663], [-90.4468, 27.7419], [-90.4493, 27.74983], [-90.4518, 27.75776], [-90.4534, 27.76304], [-90.4543, 27.76568], [-90.4568, 27.77359], [-90.4593, 27.78151], [-90.4614, 27.78811], [-90.4618, 27.78943], [-90.4643, 27.79736], [-90.4672, 27.80661], [-90.4692, 27.81322], [-90.4696, 27.81453], [-90.4722, 27.82245], [-90.4747, 27.83036], [-90.4773, 27.83827], [-90.4798, 27.84618], [-90.4823, 27.85411], [-90.4848, 27.86203], [-90.4852, 27.86336], [-90.4869, 27.86955], [-90.4903, 27.8777], [-90.4934, 27.88244], [-90.4962, 27.88572], [-90.5015, 27.89066], [-90.5058, 27.89357], [-90.5091, 27.89535], [-90.5172, 27.89943], [-90.5212, 27.90147], [-90.5252, 27.9035], [-90.5333, 27.90758], [-90.5373, 27.90963], [-90.5417, 27.91239], [-90.5479, 27.91756], [-90.5494, 27.91912], [-90.5541, 27.92539], [-90.5574, 27.93001], [-90.5608, 27.93375], [-90.5652, 27.93756], [-90.5706, 27.94145], [-90.5741, 27.94387], [-90.5816, 27.94904], [-90.5822, 27.94942], [-90.5894, 27.95347], [-90.5972, 27.95787], [-90.6064, 27.96298], [-90.6108, 27.96572], [-90.6136, 27.9681], [-90.6181, 27.97368], [-90.6213, 27.9799], [-90.6223, 27.98193], [-90.6259, 27.98935], [-90.6294, 27.99468], [-90.6317, 27.99745], [-90.6376, 28.00286], [-90.6413, 28.00534], [-90.6463, 28.00854], [-90.6538, 28.01339], [-90.6612, 28.0183], [-90.6662, 28.02151], [-90.67, 28.02394], [-90.6774, 28.02883], [-90.6787, 28.02965], [-90.6861, 28.03452], [-90.6911, 28.03775], [-90.6936, 28.03938], [-90.7024, 28.04505], [-90.7036, 28.04586], [-90.7098, 28.04991], [-90.7161, 28.05396], [-90.7173, 28.05478], [-90.726, 28.06046], [-90.7279, 28.06166], [-90.7332, 28.0645], [-90.7425, 28.06785], [-90.7483, 28.06979], [-90.7497, 28.07028], [-90.7584, 28.07314], [-90.7655, 28.076], [-90.7681, 28.07743], [-90.7737, 28.0811], [-90.7785, 28.08556], [-90.7813, 28.08883], [-90.7848, 28.09337], [-90.79, 28.1002], [-90.7908, 28.10133], [-90.793, 28.10393], [-90.7931, 28.10426]], [[-90.0271, 27.19496], [-90.0356, 27.18854], [-90.0392, 27.18546], [-90.0402, 27.18468], [-90.0486, 27.17775], [-90.0563, 27.17144], [-90.0585, 27.16962], [-90.0641, 27.16504], [-90.0679, 27.1619], [-90.072, 27.159], [-90.0803, 27.15458], [-90.0823, 27.15373], [-90.0879, 27.15177], [-90.0958, 27.14988], [-90.1046, 27.14858], [-90.112, 27.14752], [-90.1203, 27.14629], [-90.1229, 27.14586], [-90.1288, 27.14499], [-90.1361, 27.14394], [-90.1449, 27.14253], [-90.1523, 27.14195], [-90.1604, 27.14302], [-90.1678, 27.14597], [-90.1684, 27.14634], [-90.1761, 27.15266], [-90.1774, 27.15429], [-90.1813, 27.16215], [-90.1824, 27.17004], [-90.181, 27.17859], [-90.1799, 27.18645], [-90.1819, 27.19411], [-90.1832, 27.20228], [-90.1826, 27.2102], [-90.1837, 27.21808], [-90.1839, 27.21871], [-90.189, 27.226], [-90.1918, 27.22819], [-90.2005, 27.23181], [-90.2079, 27.23259], [-90.2168, 27.23342], [-90.2228, 27.23397], [-90.2242, 27.23411], [-90.233, 27.23494], [-90.2356, 27.23519], [-90.2358, 27.23545]], [[-90.2685, 27.18854], [-90.2634, 27.19485], [-90.2593, 27.20005], [-90.2584, 27.2012], [-90.2521, 27.20901], [-90.2512, 27.21013], [-90.2462, 27.21704], [-90.2434, 27.22193], [-90.2413, 27.2256], [-90.237, 27.23324], [-90.235, 27.23693], [-90.2329, 27.24061], [-90.228, 27.2492], [-90.2274, 27.25043], [-90.2239, 27.25657], [-90.2193, 27.26505], [-90.2181, 27.27317], [-90.2196, 27.27919], [-90.2206, 27.28106], [-90.228, 27.28879], [-90.2359, 27.29199], [-90.2447, 27.29465], [-90.252, 27.29681], [-90.2607, 27.29949], [-90.268, 27.30169], [-90.2767, 27.30432], [-90.2782, 27.30477], [-90.284, 27.30654], [-90.2928, 27.30915], [-90.3, 27.31135], [-90.3044, 27.31267], [-90.3088, 27.31402], [-90.3161, 27.3162], [-90.3237, 27.31898], [-90.3274, 27.32056], [-90.3329, 27.32289], [-90.3399, 27.32636], [-90.3435, 27.32897], [-90.3479, 27.33376], [-90.3497, 27.3366], [-90.3549, 27.34501], [-90.3557, 27.34621], [-90.3602, 27.3534], [-90.364, 27.35906], [-90.3655, 27.36065], [-90.3722, 27.36586], [-90.3771, 27.36922], [-90.3801, 27.37108], [-90.3879, 27.37414], [-90.3962, 27.37529], [-90.4039, 27.37598], [-90.41, 27.37655], [-90.4131, 27.37681], [-90.4146, 27.37694], [-90.4156, 27.37702]]]}}
]
}
