{
"type": "FeatureCollection",
"features": [
{"type": "Feature", "properties": {"ProjectID": "P0072"}, "geometry": {"type": "LineString", "coordinates": [[-89.091387, 38.774868], [-88.598022, 38.53319], [-88.567112, 38.474502], [-88.57249, 38.421552], [-88.631349, 38.339859], [-88.62282, 38.104946], [-88.67471, 38.044137], [-88.713563, 37.929263], [-88.849132, 37.710008], [-88.882335, 37.601869], [-88.875258, 37.249868], [-88.882355, 37.175701], [-88.914732, 37.120778], [-88.934826, 36.908849], [-89.125774, 36.401325], [-89.208239, 36.132496], [-89.315162, 35.932483], [-89.406994, 35.592947], [-89.513431, 35.435362], [-89.653452, 35.027125], [-89.932377, 34.598412], [-90.138757, 34.369802], [-90.499849, 33.885963], [-90.620353, 33.770677], [-90.718039, 33.604401], [-90.862977, 33.43303], [-90.888589, 33.370107], [-90.959921, 33.330552], [-91.03499, 33.230602], [-91.092846, 33.197499], [-91.197483, 33.169901], [-91.485077, 32.715191], [-91.818048, 32.382402], [-91.864101, 32.31283], [-92.039071, 32.205064], [-92.161245, 32.041771], [-92.223474, 31.887012], [-92.404516, 31.611222], [-92.607329, 31.385662], [-92.736477, 31.196799], [-93.059619, 30.816631], [-93.140825, 30.636568], [-93.251793, 30.546481], [-93.760783, 30.43292], [-93.898998, 30.371311], [-93.908413, 30.164133], [-93.957069, 30.032723], [-94.018739, 29.930239]]}}
]
}
