{
"type": "FeatureCollection",
"features": [
{"type": "Feature", "properties": {"ProjectID": "P0094"}, "geometry": {"type": "MultiLineString", "coordinates": [[[-97.54842, 29.233838], [-97.358906, 29.064732], [-96.775041, 28.912465], [-95.624338, 29.594245], [-95.426584, 29.577526], [-95.329035, 29.551105], [-95.140897, 29.706228], [-95.234281, 29.731726]], [[-95.140897, 29.706228], [-95.133687, 29.744093]], [[-97.82297, 28.953854], [-97.358906, 29.064732]], [[-96.102156, 29.312167], [-95.73585, 29.083668]]]}}
]
}
