{
"type": "FeatureCollection",
"features": [
{"type": "Feature", "properties": {"ProjectID": "P0107"}, "geometry": {"type": "MultiLineString", "coordinates": [[[-88.4409, 29.24844], [-88.4409, 29.2482], [-88.4487, 29.24504], [-88.4559, 29.24605], [-88.4575, 29.24953], [-88.4586, 29.2565], [-88.4586, 29.25668], [-88.4427, 29.24763]], [[-88.4427, 29.24762], [-88.4431, 29.24706], [-88.4492, 29.24361], [-88.4565, 29.2412], [-88.4606, 29.23977], [-88.464, 29.23846], [-88.4713, 29.23609], [-88.4787, 29.23372], [-88.4823, 29.23253], [-88.4856, 29.23177], [-88.4934, 29.22896], [-88.5007, 29.22702], [-88.5067, 29.22506], [-88.5079, 29.22468], [-88.5144, 29.22259], [-88.5211, 29.21955], [-88.523, 29.21828], [-88.5287, 29.21304], [-88.5315, 29.21073], [-88.5363, 29.20665], [-88.5399, 29.20355], [-88.5429, 29.201], [-88.5483, 29.19637], [-88.5503, 29.19466], [-88.5568, 29.18919], [-88.5577, 29.18854], [-88.5647, 29.18604], [-88.5717, 29.18594], [-88.5793, 29.18615], [-88.5876, 29.18625], [-88.5936, 29.18639], [-88.6015, 29.18658], [-88.6079, 29.18671], [-88.6158, 29.18692], [-88.6224, 29.18704], [-88.63, 29.18719], [-88.6366, 29.18733], [-88.6456, 29.18749], [-88.6508, 29.18764], [-88.6586, 29.18757], [-88.6651, 29.18739], [-88.6731, 29.18753], [-88.6807, 29.1881], [-88.6871, 29.18947], [-88.6877, 29.18965], [-88.6942, 29.19209], [-88.7014, 29.19474], [-88.7073, 29.19701], [-88.7085, 29.19748], [-88.7157, 29.20023], [-88.7242, 29.20343], [-88.7265, 29.20428], [-88.73, 29.20565], [-88.7372, 29.20835], [-88.7444, 29.21104], [-88.7457, 29.21155], [-88.7516, 29.21379], [-88.7588, 29.21654], [-88.7639, 29.21845], [-88.766, 29.21927], [-88.7731, 29.22191], [-88.7804, 29.22539], [-88.7814, 29.22605], [-88.7881, 29.2312], [-88.7902, 29.23286], [-88.7951, 29.23662], [-88.8, 29.24041], [-88.802, 29.24191], [-88.8088, 29.24723], [-88.8099, 29.24795], [-88.8166, 29.25327], [-88.8187, 29.25486], [-88.8235, 29.2586], [-88.8279, 29.26198], [-88.8308, 29.26417], [-88.8378, 29.26881], [-88.839, 29.26925], [-88.8457, 29.27133], [-88.8527, 29.27204], [-88.8604, 29.27207], [-88.8669, 29.27201], [-88.8747, 29.27195], [-88.8811, 29.27188], [-88.8891, 29.27184], [-88.8955, 29.27179], [-88.9032, 29.27161], [-88.9099, 29.27169], [-88.9177, 29.27149], [-88.9255, 29.27159], [-88.9322, 29.2715], [-88.9404, 29.27143], [-88.9466, 29.27144], [-88.9542, 29.27134], [-88.9608, 29.27134], [-88.9687, 29.27129], [-88.975, 29.27109], [-88.9822, 29.26875], [-88.9828, 29.26836], [-88.9885, 29.26146], [-88.9893, 29.25962], [-88.9933, 29.25426], [-88.9977, 29.25323], [-89.0043, 29.25367], [-89.011, 29.25413], [-89.0134, 29.25434], [-89.0186, 29.25473], [-89.0209, 29.25482], [-89.0215, 29.2548]], [[-87.7814, 29.22922], [-87.7814, 29.22919], [-87.784, 29.22692], [-87.789, 29.22259], [-87.7914, 29.22043], [-87.7984, 29.21551], [-87.806, 29.21223], [-87.8132, 29.20927], [-87.8159, 29.20815], [-87.8205, 29.20632], [-87.8277, 29.20333], [-87.8332, 29.20111], [-87.835, 29.20035], [-87.8423, 29.19744], [-87.8495, 29.19445], [-87.8505, 29.19398], [-87.8568, 29.1915], [-87.8632, 29.18893], [-87.8684, 29.18666], [-87.8721, 29.18521], [-87.8786, 29.18253], [-87.8848, 29.18002], [-87.8859, 29.17959], [-87.8923, 29.17725], [-87.8996, 29.17615], [-87.9071, 29.17631], [-87.9145, 29.17678], [-87.922, 29.17724], [-87.9282, 29.17761], [-87.9356, 29.17804], [-87.943, 29.17849], [-87.9505, 29.1789], [-87.9567, 29.1793], [-87.9617, 29.17974], [-87.9641, 29.18018], [-87.9712, 29.18249], [-87.9789, 29.18579], [-87.9823, 29.18724], [-87.9857, 29.18863], [-87.9935, 29.19193], [-87.9991, 29.1943], [-88.0002, 29.19478], [-88.0081, 29.19815], [-88.0148, 29.20103], [-88.0159, 29.2015], [-88.0215, 29.20386], [-88.0293, 29.20722], [-88.0327, 29.20866], [-88.0361, 29.21007], [-88.0439, 29.21341], [-88.0495, 29.21583], [-88.0506, 29.21631], [-88.0585, 29.21968], [-88.0653, 29.22256], [-88.0664, 29.22305], [-88.0721, 29.22548], [-88.0799, 29.22881], [-88.0833, 29.23025], [-88.0866, 29.23168], [-88.0936, 29.23468], [-88.1008, 29.23731], [-88.1085, 29.23828], [-88.1164, 29.2385], [-88.123, 29.2387], [-88.1307, 29.23895], [-88.1373, 29.23915], [-88.1452, 29.23939], [-88.1517, 29.23961], [-88.1586, 29.23982], [-88.166, 29.24005], [-88.1739, 29.24027], [-88.1804, 29.24068], [-88.188, 29.24237], [-88.1943, 29.24388], [-88.1976, 29.24449], [-88.2021, 29.24478], [-88.2067, 29.24445], [-88.2093, 29.24415], [-88.2164, 29.24333], [-88.2242, 29.24277], [-88.2307, 29.24237], [-88.2386, 29.24191], [-88.245, 29.24154], [-88.2529, 29.24105], [-88.2595, 29.24067], [-88.2666, 29.24124], [-88.2735, 29.24276], [-88.2811, 29.24442], [-88.2824, 29.24471], [-88.2887, 29.24613], [-88.2963, 29.24786], [-88.3026, 29.24925], [-88.3102, 29.25095], [-88.314, 29.25181], [-88.3178, 29.25266], [-88.3243, 29.25349], [-88.3312, 29.25177], [-88.3317, 29.2515], [-88.3385, 29.24614], [-88.3413, 29.24372], [-88.3458, 29.2404], [-88.3533, 29.23855], [-88.3604, 29.23928], [-88.3681, 29.24044], [-88.3746, 29.24136], [-88.3823, 29.2425], [-88.3888, 29.24343], [-88.3965, 29.24456], [-88.4031, 29.24546], [-88.4107, 29.2466], [-88.4184, 29.24761], [-88.4249, 29.24773], [-88.4324, 29.24783], [-88.4392, 29.24815], [-88.4426, 29.2477], [-88.4427, 29.24763]], [[-88.2378, 29.26986], [-88.2381, 29.26941], [-88.2397, 29.26674], [-88.2409, 29.26423], [-88.243, 29.25961], [-88.2444, 29.25206], [-88.2441, 29.24443], [-88.2439, 29.24178], [-88.2438, 29.24162]], [[-88.4586, 29.25668], [-88.4586, 29.2567], [-88.4633, 29.25658], [-88.4705, 29.2567], [-88.4781, 29.25681], [-88.4855, 29.25711], [-88.4947, 29.25736], [-88.5086, 29.25748], [-88.517, 29.25727], [-88.5209, 29.25726], [-88.5294, 29.25733], [-88.5375, 29.25638], [-88.5438, 29.2563], [-88.5541, 29.25733], [-88.5585, 29.2571], [-88.5668, 29.25675], [-88.5713, 29.25666], [-88.5796, 29.25639], [-88.588, 29.25628], [-88.5964, 29.25634], [-88.6007, 29.25629], [-88.6084, 29.25625], [-88.615, 29.25624], [-88.6234, 29.25643], [-88.6314, 29.25613], [-88.6393, 29.25619], [-88.6434, 29.25614], [-88.6516, 29.25605], [-88.6581, 29.25601], [-88.6723, 29.25601], [-88.6808, 29.25617], [-88.6887, 29.25591], [-88.6952, 29.25602], [-88.7032, 29.25588], [-88.7089, 29.25596], [-88.7172, 29.25573], [-88.7317, 29.25595], [-88.7393, 29.25571], [-88.7447, 29.2558], [-88.7526, 29.25591], [-88.7595, 29.25585], [-88.7661, 29.2556], [-88.7743, 29.25569], [-88.7806, 29.25559], [-88.7874, 29.25596], [-88.7949, 29.25562], [-88.805, 29.25511], [-88.8094, 29.25511], [-88.8178, 29.25537], [-88.8195, 29.25551], [-88.8195, 29.25551]]]}}
]
}
