{
"type": "FeatureCollection",
"features": [
{"type": "Feature", "properties": {"ProjectID": "P0115"}, "geometry": {"type": "MultiLineString", "coordinates": [[[-91.14027, 30.453238], [-89.5556, 31.64505], [-87.74262, 32.876541], [-87.629594, 32.996634], [-86.842341, 33.296973], [-85.907493, 33.565942], [-85.869623, 33.594409], [-85.146413, 33.721144], [-84.635039, 33.812839], [-84.391776, 33.7585], [-83.364415, 33.961852], [-82.651924, 34.502166], [-81.932724, 34.950403], [-81.102259, 35.267808], [-80.846741, 35.230879], [-80.474667, 35.66989], [-79.83133, 36.091301], [-79.338777, 36.403569], [-78.901051, 36.698868], [-78.12293, 37.173346], [-77.428707, 37.535126], [-77.479214, 37.759369], [-77.347229, 38.049551], [-77.459847, 38.303324], [-77.031753, 38.905269]], [[-89.555085, 31.645634], [-89.314287, 31.303184], [-88.555887, 30.366645]], [[-89.5556, 31.64505], [-86.836451, 33.520619]], [[-85.146413, 33.721144], [-84.962061, 32.524281]], [[-85.146413, 33.721144], [-85.175261, 34.187007], [-85.282514, 34.705127], [-85.268915, 35.049324], [-84.877557, 35.15827], [-83.948474, 35.985922]], [[-84.635039, 33.812839], [-84.4277, 33.640728]], [[-85.146413, 33.721144], [-83.631813, 32.839045]], [[-80.846741, 35.230879], [-80.943842, 35.220673]], [[-79.83133, 36.091301], [-78.284522, 35.535866]], [[-79.83133, 36.091301], [-79.872722, 36.691267], [-79.944842, 37.274848]]]}}
]
}
