{
"type": "FeatureCollection",
"features": [
{"type": "Feature", "properties": {"ProjectID": "P0119"}, "geometry": {"type": "MultiLineString", "coordinates": [[[-92.5541, 27.92279], [-92.554, 27.92279], [-92.5539, 27.927], [-92.5534, 27.93533], [-92.5496, 27.94247], [-92.5489, 27.9431], [-92.5409, 27.94611], [-92.5332, 27.94818], [-92.5264, 27.95125], [-92.5258, 27.9515], [-92.518, 27.95953], [-92.512, 27.96777], [-92.5098, 27.97082], [-92.5068, 27.97488], [-92.5018, 27.98161], [-92.5001, 27.98382], [-92.4945, 27.99131], [-92.4938, 27.99229], [-92.4882, 27.99883], [-92.4853, 28.00104], [-92.4767, 28.00754], [-92.4694, 28.01295], [-92.4667, 28.01492], [-92.4619, 28.01801], [-92.4536, 28.01993], [-92.446, 28.02045], [-92.4376, 28.02115], [-92.4289, 28.02179], [-92.4214, 28.02237], [-92.4167, 28.02285], [-92.4133, 28.02322], [-92.4048, 28.02417], [-92.3978, 28.02495], [-92.3893, 28.02591], [-92.3821, 28.02647], [-92.3739, 28.02652], [-92.3658, 28.02659], [-92.3579, 28.02661], [-92.3493, 28.02666], [-92.3421, 28.02672], [-92.3335, 28.02677], [-92.3255, 28.02683], [-92.3179, 28.02692], [-92.3094, 28.027], [-92.3016, 28.02708], [-92.2935, 28.02711], [-92.285, 28.02717], [-92.278, 28.02722], [-92.27, 28.02722], [-92.262, 28.02731], [-92.2535, 28.02745], [-92.2455, 28.02749], [-92.2379, 28.02756], [-92.2293, 28.02763], [-92.2216, 28.02866], [-92.2145, 28.03082], [-92.2139, 28.03101], [-92.206, 28.03334], [-92.1976, 28.03469], [-92.1898, 28.03476], [-92.182, 28.03481], [-92.1734, 28.03479], [-92.1649, 28.03482], [-92.1576, 28.03463], [-92.1497, 28.03169], [-92.1472, 28.03057], [-92.1419, 28.02859], [-92.1333, 28.02825], [-92.1248, 28.02829], [-92.1177, 28.02831], [-92.1093, 28.02837], [-92.1019, 28.02844], [-92.0934, 28.02847], [-92.0848, 28.02853], [-92.0778, 28.02856], [-92.0692, 28.02857], [-92.0619, 28.02865], [-92.0533, 28.02873], [-92.0445, 28.02875], [-92.0378, 28.02877], [-92.0292, 28.0288], [-92.022, 28.02886], [-92.0129, 28.02884], [-92.0058, 28.02861], [-91.9977, 28.02698], [-91.9894, 28.02279], [-91.9881, 28.02219], [-91.9819, 28.01899], [-91.9733, 28.01453], [-91.9659, 28.01071], [-91.9572, 28.00618], [-91.9499, 28.00226], [-91.9443, 27.99861], [-91.9416, 27.99535], [-91.9383, 27.98995], [-91.9336, 27.98204], [-91.9289, 27.97429], [-91.926, 27.96987], [-91.9233, 27.9667], [-91.9176, 27.96326], [-91.9102, 27.95931]], [[-91.9101, 27.95917], [-91.91, 27.9592], [-91.9099, 27.95946], [-91.9067, 27.9632], [-91.9058, 27.96423], [-91.8978, 27.97152], [-91.89, 27.97717], [-91.8873, 27.97936], [-91.8818, 27.98339], [-91.8763, 27.98734], [-91.874, 27.98908], [-91.8655, 27.99518], [-91.8646, 27.99593], [-91.8573, 28.00132], [-91.8547, 28.00331], [-91.8497, 28.00711], [-91.8419, 28.00947], [-91.8331, 28.01131], [-91.8253, 28.01299], [-91.8175, 28.01466], [-91.8094, 28.01639], [-91.8007, 28.01823], [-91.7949, 28.01946], [-91.794, 28.01965], [-91.7856, 28.0215], [-91.7773, 28.02206], [-91.7698, 28.02209], [-91.7609, 28.02229], [-91.7539, 28.02546], [-91.75, 28.02744], [-91.746, 28.02955], [-91.7374, 28.03169], [-91.73, 28.03322], [-91.7216, 28.035], [-91.7203, 28.03527], [-91.7139, 28.0366], [-91.7048, 28.03853], [-91.6974, 28.04008], [-91.69, 28.04168], [-91.6822, 28.04332], [-91.6817, 28.04343], [-91.6735, 28.04513], [-91.6657, 28.04676], [-91.6576, 28.04848], [-91.6496, 28.05023], [-91.6441, 28.05132], [-91.6415, 28.05188], [-91.6335, 28.05355], [-91.6257, 28.0552], [-91.6178, 28.05683], [-91.6097, 28.05859], [-91.6059, 28.05938], [-91.6013, 28.06035], [-91.5937, 28.06193], [-91.5853, 28.06373], [-91.5777, 28.06532], [-91.5692, 28.06713], [-91.5678, 28.06741], [-91.5609, 28.06887], [-91.5536, 28.0704], [-91.5454, 28.07194], [-91.537, 28.07374], [-91.5296, 28.0753], [-91.5218, 28.07698], [-91.514, 28.07864], [-91.5058, 28.08042], [-91.4977, 28.08208], [-91.4894, 28.08177], [-91.4814, 28.0814], [-91.474, 28.08105], [-91.4659, 28.08067], [-91.4579, 28.08029], [-91.4494, 28.07992], [-91.4414, 28.07956], [-91.4337, 28.07919], [-91.4258, 28.07883], [-91.4178, 28.07844], [-91.4093, 28.07806], [-91.4019, 28.07776], [-91.3938, 28.07736], [-91.3857, 28.07698], [-91.3777, 28.07661], [-91.3695, 28.07622], [-91.3612, 28.07584], [-91.3536, 28.07551], [-91.3471, 28.07515], [-91.3455, 28.07511], [-91.3378, 28.07474], [-91.3291, 28.07438], [-91.322, 28.07397], [-91.3136, 28.07359], [-91.3055, 28.07329], [-91.2975, 28.07282], [-91.289, 28.07241], [-91.2819, 28.07211], [-91.2739, 28.07172], [-91.2655, 28.07132], [-91.2574, 28.07094], [-91.249, 28.07053], [-91.2409, 28.07013], [-91.2338, 28.06978], [-91.2256, 28.06937], [-91.2173, 28.06898], [-91.2091, 28.06857], [-91.202, 28.06863], [-91.1938, 28.06969], [-91.1857, 28.06922], [-91.1776, 28.0675], [-91.1755, 28.06706], [-91.1694, 28.06673], [-91.1612, 28.06632], [-91.1529, 28.06594], [-91.1458, 28.0656], [-91.1375, 28.06534], [-91.1298, 28.0633], [-91.1215, 28.05917], [-91.1132, 28.05509], [-91.106, 28.05147], [-91.105, 28.05094], [-91.0957, 28.0463], [-91.0893, 28.04378], [-91.081, 28.04361], [-91.0739, 28.04362], [-91.0656, 28.04361], [-91.0574, 28.04361], [-91.0491, 28.0436], [-91.0413, 28.04348], [-91.0329, 28.04355], [-91.0258, 28.04351], [-91.0175, 28.04351], [-91.0092, 28.04351], [-91.0011, 28.04433], [-90.9933, 28.04673], [-90.9855, 28.0491], [-90.9776, 28.05141], [-90.9697, 28.05372], [-90.9619, 28.0561], [-90.953, 28.0588], [-90.9508, 28.05939], [-90.9452, 28.06114], [-90.9373, 28.06348], [-90.9295, 28.06584], [-90.9238, 28.06749], [-90.9216, 28.06816], [-90.9136, 28.07058], [-90.9059, 28.07285], [-90.8978, 28.07527], [-90.8889, 28.07794], [-90.8813, 28.08022], [-90.8735, 28.08259], [-90.8713, 28.08323], [-90.8656, 28.08496], [-90.8567, 28.08759], [-90.85, 28.08961], [-90.8445, 28.09127], [-90.8411, 28.09227], [-90.8331, 28.09456], [-90.8252, 28.0969], [-90.8177, 28.09926], [-90.8096, 28.10162], [-90.8019, 28.10368], [-90.7938, 28.10392], [-90.7923, 28.10405]], [[-90.2021, 28.10138], [-90.2022, 28.10165], [-90.2104, 28.10239], [-90.2176, 28.1031], [-90.2256, 28.10394], [-90.2335, 28.10514], [-90.235, 28.10559], [-90.2409, 28.10766], [-90.249, 28.11076], [-90.256, 28.11345], [-90.2572, 28.11395], [-90.2649, 28.11772], [-90.2704, 28.12177], [-90.2734, 28.12481], [-90.2777, 28.12956], [-90.2811, 28.13397], [-90.2844, 28.138], [-90.2889, 28.14387], [-90.2904, 28.14572], [-90.297, 28.1542], [-90.3034, 28.16232], [-90.3051, 28.16457], [-90.3098, 28.17003], [-90.3137, 28.17425], [-90.3167, 28.17744], [-90.3213, 28.18237], [-90.3242, 28.18561], [-90.3295, 28.19134], [-90.3319, 28.19395], [-90.3371, 28.19961], [-90.3396, 28.20231], [-90.3451, 28.20825], [-90.3466, 28.20988], [-90.3534, 28.21732], [-90.3542, 28.21821], [-90.361, 28.22556], [-90.3691, 28.23398], [-90.3764, 28.24172], [-90.3775, 28.24269], [-90.385, 28.24944], [-90.3936, 28.25716], [-90.3947, 28.25814], [-90.4014, 28.26409], [-90.4031, 28.2657], [-90.4097, 28.27161], [-90.4123, 28.27387], [-90.4175, 28.27864], [-90.421, 28.28177], [-90.4255, 28.28573], [-90.4301, 28.2899], [-90.4336, 28.29295], [-90.4388, 28.29759], [-90.4411, 28.29973], [-90.4476, 28.30544], [-90.4494, 28.307], [-90.4573, 28.31402], [-90.4651, 28.32107], [-90.466, 28.32185], [-90.473, 28.3281], [-90.4747, 28.32967], [-90.4809, 28.33513], [-90.4835, 28.33748], [-90.4896, 28.34295], [-90.4931, 28.34611], [-90.4975, 28.34996], [-90.5019, 28.35389], [-90.5053, 28.35705], [-90.5106, 28.36173], [-90.5132, 28.36409], [-90.5193, 28.36958], [-90.521, 28.37114], [-90.5289, 28.37814], [-90.5377, 28.38598], [-90.5456, 28.39301], [-90.5465, 28.39376], [-90.5534, 28.40003], [-90.5552, 28.40161], [-90.5613, 28.40709], [-90.5639, 28.4094], [-90.5692, 28.41409], [-90.5736, 28.41799], [-90.5771, 28.4211], [-90.5817, 28.42608], [-90.5852, 28.43061], [-90.588, 28.43423], [-90.5886, 28.43519], [-90.5888, 28.43543]], [[-91.994, 27.73588], [-91.9941, 27.73593], [-91.9945, 27.73991], [-91.9955, 27.74866], [-91.9963, 27.75654], [-91.9971, 27.76441], [-91.9973, 27.77229], [-91.9954, 27.77997], [-91.9931, 27.78488], [-91.9912, 27.78793], [-91.9852, 27.79599], [-91.9814, 27.80401], [-91.9802, 27.81207], [-91.9798, 27.82057], [-91.9793, 27.82855], [-91.9774, 27.83536], [-91.977, 27.83629], [-91.9738, 27.84413], [-91.9703, 27.85251], [-91.9691, 27.85534], [-91.9672, 27.86003], [-91.9637, 27.86844], [-91.9614, 27.87409], [-91.9607, 27.87597], [-91.9571, 27.8844], [-91.954, 27.89189], [-91.9533, 27.89376], [-91.9503, 27.90025], [-91.9451, 27.90674], [-91.9436, 27.90818], [-91.9373, 27.91395], [-91.935, 27.91611], [-91.9287, 27.92191], [-91.9264, 27.92398], [-91.921, 27.92906], [-91.9178, 27.93194], [-91.9131, 27.93624], [-91.9099, 27.94023], [-91.9091, 27.94809], [-91.9099, 27.95659], [-91.9101, 27.95906], [-91.9098, 27.95909]], [[-91.9938, 27.73329], [-91.994, 27.73477], [-91.994, 27.7353], [-91.994, 27.73588]], [[-90.7926, 28.10389], [-90.7927, 28.10419], [-90.7923, 28.10852], [-90.7914, 28.11668], [-90.7903, 28.12455], [-90.7895, 28.13217], [-90.7887, 28.14025], [-90.7886, 28.14157], [-90.788, 28.14814], [-90.7872, 28.15602], [-90.7863, 28.16518], [-90.7856, 28.17223], [-90.7847, 28.18084], [-90.784, 28.18799], [-90.7825, 28.19647], [-90.7801, 28.20111], [-90.7775, 28.2043], [-90.7722, 28.21066], [-90.7705, 28.21275], [-90.7645, 28.22014], [-90.7576, 28.22871], [-90.7559, 28.23085], [-90.7515, 28.23621], [-90.748, 28.24044], [-90.7446, 28.24465], [-90.7402, 28.24996], [-90.7385, 28.25211], [-90.7324, 28.2596], [-90.7315, 28.26067], [-90.7255, 28.2681], [-90.7246, 28.26916], [-90.7186, 28.27657], [-90.716, 28.27978], [-90.7125, 28.28401], [-90.7081, 28.28925], [-90.7056, 28.29238], [-90.7004, 28.29888], [-90.6994, 28.29991], [-90.6926, 28.30835], [-90.6856, 28.31695], [-90.6839, 28.31907], [-90.6795, 28.32438], [-90.6761, 28.32868], [-90.6735, 28.33189], [-90.6682, 28.33828], [-90.6665, 28.34045], [-90.6611, 28.34834], [-90.6605, 28.34959], [-90.6538, 28.3565], [-90.6518, 28.35847], [-90.6466, 28.36487], [-90.6439, 28.36806], [-90.6404, 28.37233], [-90.6361, 28.37771], [-90.6334, 28.38091], [-90.6282, 28.38733], [-90.6273, 28.3884], [-90.6203, 28.39696], [-90.6142, 28.4044], [-90.6125, 28.40654], [-90.6072, 28.41296], [-90.6046, 28.41613], [-90.6011, 28.42041], [-90.5959, 28.42682], [-90.595, 28.4279], [-90.588, 28.43645], [-90.581, 28.44496], [-90.5801, 28.44603], [-90.5749, 28.45245], [-90.5723, 28.45568], [-90.5688, 28.45992], [-90.5644, 28.4653], [-90.5617, 28.46849], [-90.5565, 28.47494], [-90.5556, 28.476], [-90.5486, 28.48456], [-90.5424, 28.49201], [-90.5406, 28.49416], [-90.5386, 28.50051], [-90.5386, 28.5084], [-90.5386, 28.5163], [-90.5385, 28.52422], [-90.5385, 28.53212], [-90.5384, 28.54003], [-90.5384, 28.54792], [-90.5384, 28.55716], [-90.5384, 28.56508], [-90.5383, 28.57299], [-90.5383, 28.58088], [-90.5382, 28.58881], [-90.5382, 28.59674], [-90.5381, 28.60466], [-90.5381, 28.61257], [-90.5381, 28.6205], [-90.5381, 28.6284], [-90.538, 28.63631], [-90.538, 28.64423], [-90.538, 28.65216], [-90.5379, 28.66008], [-90.5379, 28.66802], [-90.5379, 28.67593], [-90.5377, 28.68514], [-90.5378, 28.69305], [-90.5377, 28.70096], [-90.5377, 28.70887], [-90.5377, 28.71677], [-90.5376, 28.72471], [-90.5376, 28.73265], [-90.5376, 28.74058], [-90.5375, 28.74851], [-90.5375, 28.75645], [-90.5374, 28.76427], [-90.5374, 28.77228], [-90.5374, 28.78019], [-90.5374, 28.78812], [-90.5373, 28.79595], [-90.5373, 28.80394], [-90.5372, 28.81319], [-90.5372, 28.82111], [-90.5372, 28.82903], [-90.5371, 28.83695], [-90.5371, 28.84488], [-90.5372, 28.8528], [-90.5369, 28.86075], [-90.5393, 28.86836], [-90.54, 28.87624], [-90.5401, 28.8842], [-90.5369, 28.893], [-90.5368, 28.90098], [-90.5367, 28.90891], [-90.5368, 28.91685], [-90.5367, 28.92477], [-90.5367, 28.93261], [-90.5367, 28.94054], [-90.5366, 28.94849], [-90.5366, 28.95639], [-90.5365, 28.96432], [-90.5365, 28.97234], [-90.5365, 28.98016], [-90.5364, 28.9881], [-90.5364, 28.99602], [-90.5364, 29.00408], [-90.5363, 29.01201], [-90.5363, 29.01994], [-90.5338, 29.02865], [-90.5327, 29.02953], [-90.5235, 29.03408], [-90.5194, 29.03606], [-90.5155, 29.03799], [-90.5077, 29.04191], [-90.5036, 29.04389], [-90.5006, 29.04561], [-90.4913, 29.04983], [-90.4864, 29.05198], [-90.4846, 29.05257], [-90.4763, 29.05612], [-90.474, 29.06078], [-90.4717, 29.06791], [-90.47, 29.07697], [-90.4718, 29.08505], [-90.4729, 29.09198], [-90.4742, 29.1002], [-90.4768, 29.10781], [-90.4779, 29.10881], [-90.483, 29.11181], [-90.4834, 29.11208]], [[-90.3962, 28.4581], [-90.3962, 28.4581], [-90.401, 28.45805], [-90.4086, 28.45788], [-90.4167, 28.45807], [-90.4249, 28.45873], [-90.4329, 28.45942], [-90.441, 28.46006], [-90.449, 28.46161], [-90.4494, 28.46177], [-90.4569, 28.46454], [-90.4649, 28.46742], [-90.4715, 28.46984], [-90.4729, 28.47037], [-90.4808, 28.47326], [-90.4889, 28.4762], [-90.4931, 28.47772], [-90.4969, 28.47911], [-90.5049, 28.48206], [-90.513, 28.485], [-90.5149, 28.48568], [-90.5206, 28.48765], [-90.5291, 28.4906], [-90.5366, 28.49319], [-90.538, 28.49368], [-90.5405, 28.49462], [-90.5406, 28.49463]], [[-90.4412, 27.62493], [-90.4437, 27.62968], [-90.4478, 27.63736], [-90.449, 27.63979], [-90.4523, 27.64588], [-90.4562, 27.65317], [-90.4568, 27.65439], [-90.4607, 27.66169], [-90.4646, 27.66903], [-90.4648, 27.66928], [-90.4692, 27.67802], [-90.472, 27.68551], [-90.4728, 27.6881], [-90.4743, 27.69332], [-90.4762, 27.69975], [-90.4767, 27.70102]], [[-90.4766, 27.70094], [-90.477, 27.70227], [-90.4778, 27.70493], [-90.4782, 27.70626], [-90.4805, 27.7139], [-90.483, 27.7222], [-90.4854, 27.73017], [-90.4858, 27.7315], [-90.4879, 27.73754], [-90.4933, 27.74502], [-90.4939, 27.74553], [-90.5021, 27.75112], [-90.506, 27.75337], [-90.5098, 27.75562], [-90.5176, 27.76009], [-90.5202, 27.76157], [-90.5267, 27.76531], [-90.5332, 27.76902], [-90.5345, 27.76976], [-90.5421, 27.77432], [-90.5454, 27.77718], [-90.5497, 27.78288], [-90.551, 27.78541], [-90.5531, 27.7932], [-90.5548, 27.80132], [-90.5564, 27.80944], [-90.5578, 27.8162], [-90.5581, 27.81755], [-90.5597, 27.82567], [-90.5614, 27.83379], [-90.5631, 27.84188], [-90.5648, 27.85], [-90.5656, 27.85407], [-90.5664, 27.85813], [-90.568, 27.86625], [-90.5695, 27.87301], [-90.5712, 27.88111], [-90.5728, 27.88923], [-90.5736, 27.89329], [-90.5744, 27.89735], [-90.5761, 27.90547], [-90.5778, 27.91358], [-90.5794, 27.9217], [-90.5809, 27.92913], [-90.5816, 27.93112], [-90.5848, 27.93737], [-90.5896, 27.94271], [-90.593, 27.94536], [-90.5977, 27.94895], [-90.6035, 27.95348], [-90.6059, 27.95529], [-90.614, 27.96163], [-90.6222, 27.96798], [-90.6245, 27.9698], [-90.6306, 27.97457], [-90.6338, 27.97705], [-90.6385, 27.98067], [-90.6443, 27.9852], [-90.6466, 27.98701], [-90.6536, 27.99245], [-90.6548, 27.99336], [-90.6618, 27.99877], [-90.6653, 28.00148], [-90.6702, 28.00531], [-90.6758, 28.00965], [-90.6781, 28.01145], [-90.6863, 28.01778], [-90.6944, 28.02412], [-90.6956, 28.02502], [-90.7026, 28.03045], [-90.7061, 28.03317], [-90.7096, 28.03589], [-90.7166, 28.04134], [-90.7177, 28.04225], [-90.7259, 28.04858], [-90.7271, 28.04948], [-90.7341, 28.05492], [-90.7376, 28.05763], [-90.7422, 28.06126], [-90.7485, 28.0652], [-90.75, 28.06589], [-90.7578, 28.06857], [-90.7658, 28.07147], [-90.7691, 28.07322], [-90.7739, 28.07672], [-90.7778, 28.081], [-90.7823, 28.0876], [-90.7839, 28.08995], [-90.7888, 28.097], [-90.7896, 28.09818], [-90.7936, 28.10402], [-90.7934, 28.1041]], [[-90.7167, 29.59367], [-90.6475, 29.56441], [-90.5985, 29.54435], [-90.5667, 29.52594], [-90.5619, 29.50419], [-90.4995, 29.43138], [-90.4697, 29.40877], [-90.4697, 29.33924], [-90.4822, 29.25877], [-90.4764, 29.23947], [-90.4754, 29.22437], [-90.4918, 29.19501], [-90.4908, 29.14632], [-90.4985, 29.11861], [-90.483, 29.11181]]]}}
]
}
