{
"type": "FeatureCollection",
"features": [
{"type": "Feature", "properties": {"ProjectID": "P0125"}, "geometry": {"type": "LineString", "coordinates": [[-102.91221, 48.426606], [-102.705218, 48.433467], [-102.552958, 48.404943], [-102.445905, 48.408203], [-102.084669, 48.46608], [-101.469668, 48.480931], [-100.741964, 48.560902], [-99.056545, 48.574067], [-98.535349, 48.301784], [-98.202375, 48.147609], [-97.792287, 48.039288], [-97.474751, 47.973615], [-96.706233, 47.875127], [-96.209355, 47.902212], [-95.357765, 47.725945], [-95.333227, 47.572772], [-95.101989, 47.274627], [-95.071364, 47.121178], [-95.084259, 46.85015], [-94.883115, 46.847844], [-94.2663, 46.757267], [-94.143366, 46.814024], [-93.938965, 46.848015], [-93.752802, 46.834847], [-93.534776, 46.657896], [-93.404965, 46.642075], [-93.346504, 46.605847], [-93.266006, 46.582774], [-93.205388, 46.503492], [-92.573013, 46.483869], [-92.381881, 46.41099], [-92.150322, 46.444933]]}}
]
}
