{
"type": "FeatureCollection",
"features": [
{"type": "Feature", "properties": {"ProjectID": "P0131"}, "geometry": {"type": "MultiLineString", "coordinates": [[[-98.14, 28.92436], [-97.7716, 29.06496], [-97.4162, 29.29078], [-97.3532, 29.33539], [-97.2594, 29.3456], [-97.1858, 29.34344], [-97.0116, 29.36634], [-96.9606, 29.41365], [-96.6258, 29.47807], [-96.1979, 29.65968]], [[-96.6376, 28.80637], [-96.5129, 29.0763], [-96.1979, 29.65968], [-96.1585, 29.75658], [-96.0422, 29.77488]], [[-97.2939, 29.92166], [-96.8542, 29.95579], [-96.6442, 29.93304], [-96.0422, 29.77488]], [[-95.2211, 29.62703], [-95.2458, 29.60303], [-95.2864, 29.58107], [-95.3983, 29.4357], [-95.4293, 29.39459], [-95.4931, 29.33206], [-95.6076, 29.25789], [-95.6846, 29.14426]], [[-96.5129, 29.0763], [-96.3029, 29.00171]], [[-96.0563, 29.77189], [-96.029, 29.76184], [-95.9537, 29.76615], [-95.9297, 29.75321], [-95.8974, 29.73525], [-95.8866, 29.71584], [-95.8486, 29.70147], [-95.8486, 29.69572], [-95.8701, 29.69212], [-95.8304, 29.53023], [-95.7451, 29.5115], [-95.7062, 29.47837], [-95.6773, 29.44738], [-95.6599, 29.46468], [-95.544, 29.4481], [-95.5208, 29.44882], [-95.5026, 29.43873], [-95.4323, 29.43945], [-95.3926, 29.48917], [-95.3462, 29.49422], [-95.3164, 29.51799], [-95.3206, 29.60005], [-95.1972, 29.60077], [-95.1848, 29.60725]]]}}
]
}
