{
"type": "FeatureCollection",
"features": [
{"type": "Feature", "properties": {"ProjectID": "P0365"}, "geometry": {"type": "LineString", "coordinates": [[-90.52, 26.93305], [-90.5223, 26.94383], [-90.5228, 26.94572], [-90.5233, 26.94815], [-90.5244, 26.95329], [-90.5261, 26.96139], [-90.5278, 26.96922], [-90.5299, 26.97724], [-90.5313, 26.98042], [-90.534, 26.98551], [-90.5382, 26.99314], [-90.5392, 26.99497], [-90.5427, 27.00133], [-90.547, 27.00922], [-90.5474, 27.00996], [-90.5507, 27.01733], [-90.5522, 27.02516], [-90.5527, 27.03367], [-90.5531, 27.04115], [-90.5546, 27.04912], [-90.5552, 27.05131], [-90.5576, 27.05724], [-90.5625, 27.0652], [-90.5633, 27.06633], [-90.57, 27.07315], [-90.5713, 27.07427], [-90.5794, 27.0797], [-90.5824, 27.0812], [-90.5874, 27.08329], [-90.5956, 27.0859], [-90.6037, 27.08832], [-90.6063, 27.08913], [-90.6112, 27.09068], [-90.6193, 27.09451], [-90.6235, 27.09725], [-90.6273, 27.10008], [-90.633, 27.10541], [-90.6352, 27.1077], [-90.6403, 27.11319], [-90.6433, 27.11748], [-90.6459, 27.12148], [-90.651, 27.12932], [-90.6513, 27.12974], [-90.6552, 27.13724], [-90.6573, 27.14526], [-90.6576, 27.15322], [-90.6562, 27.16136], [-90.6544, 27.16944], [-90.6526, 27.17753], [-90.6531, 27.1754], [-90.6519, 27.18049], [-90.6511, 27.18427], [-90.6508, 27.18534], [-90.6491, 27.19312], [-90.6473, 27.20148], [-90.6455, 27.20953], [-90.6437, 27.21734], [-90.6432, 27.21981], [-90.6419, 27.2251], [-90.6405, 27.23329], [-90.6391, 27.24145], [-90.6376, 27.24931], [-90.6358, 27.25739], [-90.6351, 27.26035], [-90.6339, 27.26519], [-90.633, 27.27311], [-90.634, 27.28131], [-90.6352, 27.28566], [-90.6367, 27.28916], [-90.6417, 27.29707], [-90.6435, 27.29959], [-90.6474, 27.30506], [-90.6514, 27.31078], [-90.6531, 27.31337], [-90.6584, 27.32113], [-90.6592, 27.32236], [-90.664, 27.32925], [-90.6672, 27.33403], [-90.6696, 27.33755], [-90.6752, 27.34562], [-90.6754, 27.34598], [-90.6805, 27.3534], [-90.6834, 27.35769], [-90.6857, 27.36116], [-90.6913, 27.36709], [-90.6938, 27.36918], [-90.6992, 27.37281], [-90.7058, 27.3773], [-90.7072, 27.3783], [-90.7153, 27.3838], [-90.7175, 27.3853], [-90.7234, 27.38934], [-90.7269, 27.39176], [-90.7272, 27.39195]]}}
]
}
