{
"type": "FeatureCollection",
"features": [
{"type": "Feature", "properties": {"ProjectID": "P0527", "id": "way/198626835", "@id": "way/198626835", "layer": "-1", "location": "underground", "man_made": "pipeline", "name": "Ronier–Djermaya Oil Pipeline", "operator": "PipeChina", "start_date": "2011", "substance": "oil", "usage": "transmission"}, "geometry": {"type": "LineString", "coordinates": [[15.088289, 12.412568], [15.087004, 12.412565], [15.086507, 12.411979], [15.086596, 12.406835], [15.08666, 12.406606], [15.08683, 12.406502], [15.102035, 12.400849], [15.10321, 12.401026], [15.103547, 12.400947], [15.10527, 12.399714], [15.122263, 12.393424], [15.122547, 12.393236], [15.122959, 12.392057], [15.123194, 12.391912], [15.136885, 12.389352], [15.142069, 12.388471], [15.147402, 12.387514], [15.15532, 12.386106], [15.168855, 12.383695], [15.175027, 12.382661], [15.184659, 12.381972], [15.185092, 12.381822], [15.188604, 12.380178], [15.193988, 12.377662], [15.194676, 12.377231], [15.21481, 12.362195], [15.233389, 12.348351], [15.240718, 12.340192], [15.259491, 12.319433], [15.268603, 12.309251], [15.277658, 12.299093], [15.279189, 12.296995], [15.292218, 12.279136], [15.311009, 12.252629], [15.311779, 12.251542], [15.326828, 12.230853], [15.339977, 12.215074], [15.340886, 12.212194], [15.342536, 12.210252], [15.345432, 12.20683], [15.353513, 12.199474], [15.354288, 12.198273], [15.358381, 12.192037], [15.364736, 12.182431], [15.369141, 12.175713], [15.374733, 12.167072], [15.378983, 12.158819], [15.395145, 12.126396], [15.39863, 12.119995], [15.404864, 12.109728], [15.407182, 12.105843], [15.408109, 12.104289], [15.41536, 12.092261], [15.432861, 12.06311], [15.441322, 12.044729], [15.4448, 12.038778], [15.445743, 12.036846], [15.448909, 12.028091], [15.455631, 12.013278], [15.460671, 12.002204], [15.463423, 11.996052], [15.463309, 11.995192], [15.463347, 11.995018], [15.467367, 11.98762], [15.470419, 11.983047], [15.476906, 11.974502], [15.478874, 11.971843], [15.484526, 11.957966], [15.485147, 11.956495], [15.485266, 11.956221], [15.485692, 11.955285], [15.489919, 11.944797], [15.500459, 11.919105], [15.508151, 11.900254], [15.516243, 11.8802], [15.524335, 11.860415], [15.532302, 11.840824], [15.539793, 11.822262], [15.547434, 11.803576], [15.555426, 11.783932], [15.563167, 11.764753], [15.570393, 11.746934], [15.58505, 11.710697], [15.601585, 11.669892], [15.607073, 11.65658], [15.612233, 11.643821], [15.617598, 11.630688], [15.621555, 11.620919], [15.623649, 11.615722], [15.624703, 11.61315], [15.626067, 11.609784], [15.627456, 11.606366], [15.629102, 11.602286], [15.630084, 11.599873], [15.631504, 11.596366], [15.6329, 11.59295], [15.634027, 11.590124], [15.635991, 11.585277], [15.637129, 11.582386], [15.640759, 11.573419], [15.645122, 11.562801], [15.649269, 11.552487], [15.652479, 11.544617], [15.654746, 11.539452], [15.657777, 11.534577], [15.658446, 11.533451], [15.658884, 11.531607], [15.661066, 11.523355], [15.666424, 11.51012], [15.667247, 11.508092], [15.673234, 11.493263], [15.678391, 11.480562], [15.680916, 11.474329], [15.687256, 11.458764], [15.692311, 11.446168], [15.708557, 11.405848], [15.725486, 11.364512], [15.729252, 11.355085], [15.736798, 11.3033], [15.736476, 11.295239], [15.73704, 11.291209], [15.739012, 11.276183], [15.739073, 11.275751], [15.739268, 11.275041], [15.743144, 11.268896], [15.744012, 11.267564], [15.746743, 11.263216], [15.75043, 11.257347], [15.751824, 11.255154], [15.76271, 11.237788], [15.769503, 11.227012], [15.771289, 11.224198], [15.780775, 11.209068], [15.793323, 11.18907], [15.808105, 11.165517], [15.820209, 11.14626], [15.849208, 11.100014], [15.850254, 11.098346], [15.875633, 11.058054], [15.89908, 11.033849], [15.935234, 10.996562], [15.955789, 10.975427], [15.976804, 10.953846], [15.984511, 10.947476], [16.034094, 10.907016], [16.106707, 10.847705], [16.108161, 10.846512], [16.108769, 10.845848], [16.11003, 10.843769], [16.111895, 10.841027], [16.112058, 10.840762], [16.112509, 10.840601], [16.117271, 10.839075], [16.15183, 10.810822], [16.157856, 10.806076], [16.190721, 10.773414], [16.212487, 10.751606], [16.228631, 10.742212], [16.26707, 10.719458], [16.283646, 10.709355], [16.301472, 10.702462], [16.342698, 10.686267], [16.35101, 10.682868], [16.37662, 10.661431], [16.419383, 10.625495], [16.459399, 10.591721], [16.480832, 10.573785], [16.484303, 10.57088], [16.513488, 10.546198], [16.516835, 10.54142], [16.518601, 10.54048], [16.522374, 10.538473], [16.524427, 10.537096], [16.538222, 10.52538], [16.547934, 10.517262], [16.548113, 10.516172], [16.547657, 10.515323], [16.548087, 10.507769], [16.54906, 10.507098], [16.549328, 10.506679], [16.549514, 10.505354], [16.549709, 10.503557], [16.551649, 10.502329], [16.553214, 10.501197], [16.553449, 10.500659], [16.561073, 10.49026], [16.56804, 10.480552], [16.57574, 10.470018], [16.587454, 10.453633], [16.59348, 10.445382], [16.607326, 10.426307], [16.623234, 10.404385], [16.638214, 10.383728], [16.650167, 10.367048], [16.663418, 10.352203], [16.670601, 10.344091], [16.674418, 10.339806], [16.681472, 10.327724], [16.683173, 10.317397], [16.686201, 10.300007], [16.68941, 10.296037], [16.695727, 10.29568], [16.703164, 10.295272], [16.708039, 10.294976], [16.709533, 10.294751], [16.718028, 10.293455], [16.719127, 10.29318], [16.724905, 10.290812], [16.728099, 10.289547], [16.730371, 10.287934], [16.731543, 10.287067], [16.731014, 10.285107]]}}
]
}
