{
"type": "FeatureCollection",
"features": [
{"type": "Feature", "properties": {"ProjectID": "P0556", "region": "Middle East", "country": "Yemen", "fuel_type": "Oil", "status": "Operating", "pipe_type": "National", "operator": "PetroMasila", "project_na": "Shabwah Bir Ali Pipeline", "start": "West Ayad field, Yemen", "End_": "Bir Ali terminal, Yemen", "Shareholde": "PetroMasila", "length": 128, "diameter": 21, "capacity": "268976", "Scope": "PetroMasila operated pipeline from West Ayad field to Bir Ali terminal", "linked": " ", "eng_co": " ", "con_co": " ", "contact": "Zayed Moahmmed Al-Tamimi", "position": "Corrosion-Inspection Group Supervisor", "co_name": "Petromasila", "phone_no": "+967-5-332168 ", "email": "zal-tamimi@petromasila.com", "website": "", "start_date": "1991", "Shape_STLe": 1631.0, "Shape_ST_1": 0.0, "Shape_ST_2": 1.88243181, "Capacity_Mbpd": 326.0, "OBJECTID_1": 417, "created_user": null, "created_date": null, "last_edited_user": "SDE", "last_edited_date": "2024-07-10T05:42:05", "Shape.STLength()": 213099.08001962543}, "geometry": {"type": "MultiLineString", "coordinates": [[[47.88544, 14.008081], [47.765546, 14.155277], [47.69907, 14.219379], [47.620724, 14.254991], [47.567306, 14.282293], [47.537629, 14.315531], [47.522197, 14.33215], [47.49252, 14.335712], [47.45216, 14.330963], [47.415361, 14.328589], [47.395092, 14.336724], [47.352357, 14.355718], [47.313184, 14.375898], [47.308436, 14.388955], [47.27826, 14.398436], [47.277572, 14.419819], [47.240773, 14.439999], [47.200413, 14.443561], [47.17311, 14.435251], [47.148182, 14.426942], [47.110195, 14.41151], [47.074583, 14.39133], [47.062713, 14.361653], [47.036597, 14.341473], [47.022352, 14.356905], [46.996237, 14.369962], [46.970121, 14.397265], [46.968117, 14.42059], [46.959438, 14.437625], [46.921452, 14.449496], [46.902458, 14.469676], [46.890588, 14.499353], [46.871595, 14.511223], [46.843478, 14.526861], [46.819364, 14.58957], [46.819364, 14.665542], [46.830217, 14.742939], [46.719816, 15.032207]]]}}
]
}
