{
"type": "FeatureCollection",
"features": [
{"type": "Feature", "properties": {"ProjectID": "P0575", "id": null}, "geometry": {"type": "MultiLineString", "coordinates": [[[46.021595, 33.038949], [46.019399, 33.034618], [46.016994, 33.029871], [46.015743, 33.027301], [46.014486, 33.025982], [46.01367, 33.025025], [46.010437, 33.022639], [46.005813, 33.016272], [45.999065, 33.009427], [45.991361, 33.001355], [45.983976, 32.993234], [45.978849, 32.987959], [45.97853, 32.982978], [45.977818, 32.977261], [45.972985, 32.975863], [45.96663, 32.974072], [45.9656, 32.97363], [45.961012, 32.96865], [45.950044, 32.956848], [45.948609, 32.95383], [45.945935, 32.952506], [45.944536, 32.950997], [45.940439, 32.946642], [45.93601, 32.941894], [45.932256, 32.937834], [45.928282, 32.933638], [45.92665, 32.931921], [45.922725, 32.930902], [45.919621, 32.924928], [45.918897, 32.923481], [45.918357, 32.92299], [45.9181, 32.922524], [45.917781, 32.922303], [45.917572, 32.921886], [45.917155, 32.921714], [45.916174, 32.920622], [45.912199, 32.916427], [45.91134, 32.915544], [45.91123, 32.915286], [45.909488, 32.913483], [45.908212, 32.912133], [45.906163, 32.912121], [45.90409, 32.909422], [45.901551, 32.905631], [45.901085, 32.905043], [45.8996, 32.902847], [45.897956, 32.901019], [45.895871, 32.89886], [45.89462, 32.897486], [45.891025, 32.893695], [45.886621, 32.889021], [45.881886, 32.884016], [45.88061, 32.882642], [45.877875, 32.879759], [45.871385, 32.872791], [45.864908, 32.865921], [45.856517, 32.85677], [45.847856, 32.84752], [45.840054, 32.839178], [45.831, 32.829487], [45.824842, 32.822813], [45.820647, 32.818152], [45.818647, 32.816232], [45.817126, 32.814539], [45.815151, 32.81487], [45.813349, 32.815068], [45.809521, 32.810946], [45.80037, 32.800654], [45.778288, 32.776168], [45.760719, 32.756746], [45.75184, 32.73198], [45.746834, 32.718584], [45.739032, 32.697435], [45.721122, 32.648904], [45.707971, 32.612592], [45.694624, 32.577066], [45.694329, 32.57579], [45.689815, 32.569411], [45.685546, 32.558517], [45.684614, 32.54252], [45.684791, 32.540092], [45.686376, 32.530911], [45.689149, 32.516993], [45.689804, 32.513927], [45.689735, 32.50435], [45.701043, 32.491595], [45.707451, 32.484843], [45.711903, 32.471158], [45.712627, 32.470512], [45.713324, 32.470081], [45.763419, 32.43384], [45.764555, 32.433461], [45.770102, 32.421473], [45.780092, 32.39977], [45.791702, 32.392122], [45.79339, 32.392053], [45.800555, 32.387609], [45.801313, 32.387299], [45.803415, 32.383096], [45.808617, 32.371693], [45.808892, 32.371039], [45.810132, 32.370212], [45.814249, 32.367835], [45.808479, 32.359429], [45.805413, 32.347389], [45.807204, 32.34291], [45.8112, 32.336675], [45.81623, 32.332403], [45.827047, 32.325548], [45.832077, 32.322344], [45.840241, 32.315385], [45.844479, 32.304912], [45.838037, 32.281797], [45.836796, 32.277697], [45.828873, 32.271048], [45.818159, 32.25844], [45.80996, 32.256097], [45.806515, 32.251515], [45.802932, 32.24435], [45.804, 32.231569], [45.804724, 32.227194], [45.804999, 32.224645], [45.804414, 32.220648], [45.802278, 32.215929], [45.802174, 32.214379], [45.801072, 32.210968], [45.801038, 32.209142], [45.804724, 32.205973], [45.804827, 32.203182], [45.80462, 32.2027], [45.804724, 32.199772], [45.805447, 32.197326], [45.805068, 32.194742], [45.805206, 32.186543], [45.805424, 32.178488], [45.805591, 32.166664], [45.805883, 32.165877], [45.806964, 32.162959], [45.806073, 32.159625], [45.807264, 32.155311], [45.807007, 32.154857], [45.807671, 32.152893], [45.809206, 32.148353], [45.806197, 32.144284], [45.806251, 32.135454], [45.806315, 32.125041], [45.806111, 32.123397], [45.806245, 32.118681], [45.806481, 32.117536], [45.80662, 32.108656], [45.806814, 32.096215], [45.806063, 32.086508], [45.807352, 32.076982], [45.807694, 32.074454], [45.807822, 32.072344], [45.807398, 32.066753], [45.807834, 32.04244], [45.808375, 32.012231], [45.81037, 32.006863], [45.812444, 32.003997], [45.813093, 32.000904], [45.814494, 31.99411], [45.816065, 31.986491], [45.816869, 31.984434], [45.817556, 31.983178], [45.825479, 31.960662], [45.8302, 31.956893], [45.833875, 31.95053], [45.834041, 31.949497], [45.834333, 31.948559], [45.835234, 31.944256], [45.837992, 31.931087], [45.839794, 31.92166], [45.849508, 31.916837], [45.857914, 31.915183], [45.870936, 31.894995], [45.878653, 31.882525], [45.879273, 31.880871], [45.881064, 31.879149], [45.889952, 31.861028], [45.892777, 31.854896], [45.91014, 31.846697], [45.911449, 31.846008], [45.912, 31.833331], [45.920681, 31.821066], [45.923989, 31.816037], [45.927399, 31.813763], [45.943832, 31.802705], [45.950928, 31.79864], [45.951755, 31.785135], [45.952272, 31.776626], [45.952952, 31.774473], [45.952573, 31.773664], [45.952151, 31.773733], [45.951462, 31.772699], [45.950523, 31.7704], [45.949077, 31.767049], [45.946631, 31.757231], [45.945011, 31.755733], [45.943289, 31.751823], [45.942962, 31.751237], [45.942273, 31.745639], [45.940275, 31.739705], [45.938742, 31.738758], [45.938225, 31.737431], [45.936709, 31.735226], [45.935366, 31.732091], [45.934349, 31.729404], [45.933419, 31.727544], [45.932231, 31.724702], [45.931697, 31.720344], [45.931542, 31.719414], [45.929182, 31.715917], [45.927924, 31.713334], [45.926891, 31.711714], [45.926701, 31.710578], [45.925168, 31.706978], [45.92181, 31.698882], [45.919725, 31.693267], [45.918089, 31.68884], [45.916057, 31.68307], [45.914799, 31.679849], [45.912732, 31.674405], [45.91194, 31.672683], [45.923015, 31.65849], [45.936451, 31.641747], [45.955467, 31.617357], [45.960221, 31.610742], [45.963459, 31.602199], [45.972761, 31.579049], [45.970349, 31.564855], [45.969247, 31.559206], [45.968765, 31.55142], [45.964975, 31.517246], [45.962564, 31.49196], [45.96339, 31.489893], [45.978824, 31.463436], [46.009848, 31.409819], [46.020301, 31.39619], [46.023884, 31.359673], [46.028983, 31.31544], [46.033582, 31.307878], [46.037767, 31.301505], [46.042194, 31.293805], [46.049239, 31.282092], [46.053339, 31.274927], [46.062433, 31.264868], [46.074594, 31.250847], [46.080657, 31.243715], [46.092956, 31.229143], [46.098915, 31.22184], [46.107528, 31.212125], [46.110904, 31.207578], [46.127853, 31.19552], [46.130161, 31.194108], [46.144527, 31.19118], [46.162579, 31.187528], [46.166885, 31.186184], [46.172259, 31.183153], [46.179597, 31.176056], [46.193445, 31.162655], [46.198062, 31.157867], [46.201266, 31.152252], [46.206846, 31.143777], [46.207191, 31.135853], [46.212531, 31.126001], [46.216251, 31.120179], [46.222762, 31.109499], [46.22793, 31.101542], [46.230513, 31.098579], [46.281284, 31.075101], [46.271526, 31.052007], [46.268442, 31.044635], [46.26514, 31.035303], [46.263387, 31.03064], [46.265988, 31.024473], [46.268899, 31.019392], [46.268709, 31.013346], [46.268537, 31.011847], [46.266229, 31.006439], [46.267611, 31.005849], [46.267953, 31.005688], [46.267595, 31.004857], [46.26722, 31.004096], [46.265656, 31.003626], [46.265598, 31.003733], [46.26556, 31.003714], [46.265601, 31.003621], [46.26499, 31.003405], [46.263428, 31.002851], [46.262836, 31.002755], [46.26263, 31.002799], [46.26266, 31.002886], [46.262592, 31.002897], [46.262565, 31.00279], [46.261712, 31.002965], [46.260498, 31.003228], [46.260509, 31.003265], [46.259355, 31.003628], [46.259327, 31.00357], [46.257301, 31.004203], [46.255639, 31.004496], [46.255658, 31.004597], [46.25562, 31.004604], [46.255601, 31.004501], [46.255305, 31.004541], [46.254145, 31.004068], [46.253021, 31.003579], [46.251832, 31.003009]], [[46.251285, 31.002762], [46.250205, 31.002276], [46.249683, 31.002043], [46.248396, 31.001512], [46.247793, 31.001272], [46.247741, 31.001363], [46.247687, 31.001347], [46.247741, 31.001242], [46.246967, 31.000925], [46.246359, 31.000672], [46.245813, 31.000441], [46.245455, 31.000294], [46.244827, 31.000059], [46.243899, 30.999687], [46.243067, 30.999361], [46.242383, 30.999091], [46.241631, 30.998781], [46.239996, 30.998067], [46.239936, 30.998164], [46.23989, 30.99815], [46.239942, 30.99805], [46.238757, 30.99761], [46.238154, 30.997352], [46.237655, 30.997082], [46.236978, 30.996733], [46.236261, 30.996458], [46.236218, 30.996544], [46.236166, 30.996526], [46.236215, 30.996437], [46.235718, 30.996244], [46.23499, 30.995983], [46.232467, 30.995087], [46.232405, 30.995175], [46.232361, 30.995157], [46.232421, 30.995061], [46.231873, 30.994852], [46.2319, 30.994791], [46.231517, 30.994598], [46.2303, 30.994018], [46.228643, 30.993229], [46.228524, 30.993385], [46.228103, 30.993224], [46.228144, 30.993143], [46.227131, 30.992849], [46.227112, 30.992912], [46.227022, 30.992896]], [[46.251734, 31.002965], [46.251696, 31.002944], [46.251285, 31.002762]], [[46.251734, 31.002965], [46.251285, 31.002762]], [[46.251285, 31.002762], [46.250952, 31.002616], [46.251738, 31.002967]], [[46.251832, 31.003009], [46.251734, 31.002965]], [[46.251738, 31.002967], [46.251734, 31.002965]], [[46.251738, 31.002967], [46.251832, 31.003009]], [[46.251832, 31.003009], [46.251758, 31.003116], [46.251712, 31.003088], [46.251788, 31.002995], [46.251738, 31.002967]]]}}
]
}
