{
"type": "FeatureCollection",
"features": [
{"type": "Feature", "properties": {"ProjectID": "P0631"}, "geometry": {"type": "LineString", "coordinates": [[55.2517, 18.1746], [55.2831, 18.2009], [55.329, 18.1951], [55.6256, 18.3124], [55.7044, 18.3875], [55.7659, 18.4876], [56.1212, 18.7212], [56.1836, 19.2658], [56.24, 19.55], [56.2492, 19.8107], [56.2274, 20.047], [56.1824, 20.1982], [56.2181, 20.3379], [56.2807, 20.4915], [56.2993, 20.6105], [56.4323, 20.7538], [56.5182, 20.9128], [56.754, 21.0077], [56.9079, 21.2066], [57.1058, 21.3054], [57.2319, 22.3305], [57.172, 22.388], [57.1931, 22.4943]]}}
]
}
