{
"type": "FeatureCollection",
"features": [
{"type": "Feature", "properties": {"ProjectID": "P0648", "fid": 1}, "geometry": {"type": "MultiLineString", "coordinates": [[[71.613256, 48.648584], [71.636406, 48.635604], [71.613256, 48.648584], [71.787651, 48.548926], [72.078204, 48.488049], [72.191492, 48.477909], [72.2455, 48.470609], [72.311329, 48.456623], [72.33532, 48.451165], [72.346272, 48.449013], [72.372697, 48.439864], [72.373624, 48.439883], [72.380056, 48.441306], [72.382142, 48.442421], [72.387705, 48.443497], [72.38898, 48.443382], [72.407466, 48.43131], [72.435165, 48.406388], [72.625931, 48.330896], [72.674839, 48.270606], [72.702886, 48.27076], [72.704972, 48.26968], [72.76547, 48.268137], [72.805165, 48.257567], [72.804643, 48.255021], [72.823882, 48.248731], [72.854884, 48.234143], [72.857086, 48.235031], [72.879454, 48.229434], [72.886292, 48.231132], [73.134658, 48.127152], [73.230041, 48.106183], [73.294248, 48.083426], [73.335275, 48.063291], [73.403654, 48.055236], [73.440335, 48.044195], [73.446478, 48.039314], [73.615281, 47.984111], [73.652832, 47.959436], [73.67462, 47.93739], [73.73535, 47.892959], [73.796775, 47.864353], [73.970388, 47.812699], [74.125226, 47.808963], [74.128935, 47.807718], [74.161849, 47.807251], [74.170194, 47.812232], [74.604342, 47.688332], [75.155082, 47.657116], [75.383167, 47.653993], [75.772579, 47.688956], [76.027552, 47.687708], [76.251927, 47.660238], [76.573656, 47.663985], [76.663592, 47.669605], [77.380296, 47.521421], [77.558313, 47.512654], [77.702952, 47.443096], [78.020972, 47.455636], [78.300051, 47.441215], [78.374224, 47.42679], [78.689463, 47.216238], [78.844301, 47.153854], [79.393187, 46.900419], [79.586038, 46.824345], [80.573477, 46.404645], [80.762852, 46.323308], [80.765054, 46.323308], [80.909809, 46.240167], [80.916299, 46.238564], [80.970075, 46.198629], [81.010638, 46.210661], [81.024662, 46.20649], [81.071368, 46.180898], [81.109266, 46.168378], [81.268276, 46.069807], [81.287747, 46.017679], [81.297251, 46.009952], [81.316026, 45.974201], [81.323443, 45.968402], [81.377451, 45.960346], [81.448611, 45.984188], [81.457651, 45.984832], [81.557554, 45.947131], [81.611794, 45.887305], [81.611562, 45.879075], [81.625238, 45.860676], [81.652358, 45.853896], [81.731863, 45.811421], [81.758982, 45.805927], [81.768718, 45.802534], [81.787261, 45.792676], [81.809513, 45.789444], [81.851236, 45.801726], [81.913357, 45.806897], [82.018127, 45.780392], [82.045942, 45.76099], [82.098791, 45.702096], [82.113626, 45.687848], [82.12452, 45.660801], [82.142832, 45.657399], [82.161143, 45.611044], [82.199621, 45.570331], [82.23184, 45.54972], [82.255251, 45.54209], [82.266377, 45.541279], [82.300915, 45.519682], [82.312968, 45.493691], [82.371843, 45.470938], [82.406612, 45.396441], [82.50582, 45.294785], [82.535489, 45.226913], [82.557741, 45.211892], [82.565622, 45.194416]]]}}
]
}
