{
"type": "FeatureCollection",
"features": [
{"type": "Feature", "properties": {"ProjectID": "P0653"}, "geometry": {"type": "LineString", "coordinates": [[50.262446, 52.90072], [49.871849, 52.75166], [49.522368, 52.714315], [48.864521, 52.838674], [48.206674, 52.888318], [47.52827, 52.950293], [46.726519, 52.975059], [45.534171, 53.024547], [45.040786, 53.17267], [44.526843, 53.135687], [43.416726, 53.086327], [42.882225, 53.01218], [41.916013, 52.913119], [41.360954, 52.85109], [40.867569, 52.788973], [40.353626, 52.652002], [39.901356, 52.614572], [39.202394, 52.689401], [38.667893, 52.664472], [37.866142, 52.57711], [37.16718, 52.664472], [36.776583, 52.788973], [36.200967, 52.863503], [35.769255, 52.90072], [35.522562, 52.987436], [34.659138, 52.863503], [34.206868, 52.813831], [33.38456, 52.801404], [32.603366, 52.739215], [32.171654, 52.627052], [31.596038, 52.389317], [31.061537, 52.175516], [30.177556, 51.98601], [29.2319, 51.897298], [28.841304, 51.884611]]}}
]
}
