{
"type": "FeatureCollection",
"features": [
{"type": "Feature", "properties": {"ProjectID": "P0651"}, "geometry": {"type": "LineString", "coordinates": [[32.03939, 59.53082], [31.78779, 59.48968], [31.49694, 59.59341], [31.38369, 59.6022], [31.22411, 59.64938], [31.14174, 59.66531], [30.89979, 59.75359], [30.894, 59.78437], [30.8644, 59.81932], [30.91652, 59.86006], [30.91717, 59.86717], [30.84188, 59.91688], [30.7859, 59.92107], [30.77303, 59.95008], [30.70997, 59.97392], [30.62631, 59.97102], [30.42426, 60.10407], [30.35219, 60.13292], [30.19261, 60.22572], [29.99056, 60.22971], [29.83484, 60.28398], [29.65402, 60.31332], [29.2615, 60.33243], [29.16112, 60.31778], [29.04658, 60.33116], [28.96035, 60.32479], [28.78018, 60.38526], [28.74157, 60.37954], [28.71197, 60.34071]]}}
]
}
