{
"type": "FeatureCollection",
"features": [
{"type": "Feature", "properties": {"ProjectID": "P0663"}, "geometry": {"type": "MultiLineString", "coordinates": [[[16.411456, 45.437505], [16.412115, 45.436081], [16.412453, 45.435538], [16.412785, 45.435268], [16.413611, 45.435115], [16.415307, 45.434879], [16.415637, 45.434794], [16.415913, 45.434609], [16.416661, 45.432632], [16.416952, 45.431307], [16.417367, 45.426591], [16.417128, 45.424732], [16.416027, 45.419986], [16.414303, 45.417901], [16.411405, 45.415932], [16.405838, 45.412279], [16.404851, 45.411382], [16.403468, 45.41077], [16.39843, 45.410034], [16.398087, 45.40983], [16.397807, 45.409395], [16.395999, 45.40802], [16.39562, 45.407798], [16.392665, 45.406649], [16.390199, 45.405654], [16.388771, 45.405047], [16.386465, 45.403844], [16.385071, 45.403481], [16.378534, 45.401884], [16.377654, 45.401319], [16.376291, 45.400746], [16.374306, 45.40015], [16.371955, 45.398575], [16.367995, 45.39544], [16.364861, 45.393028], [16.361855, 45.39082], [16.360278, 45.390458], [16.358678, 45.389674], [16.357369, 45.388996], [16.3568, 45.388001], [16.353451, 45.386071], [16.352885, 45.385818], [16.352638, 45.385741], [16.347124, 45.38517], [16.344554, 45.384963], [16.340748, 45.384898], [16.339285, 45.384934], [16.338173, 45.384942], [16.337822, 45.384995], [16.337461, 45.385097], [16.334598, 45.386102], [16.333951, 45.386286], [16.331706, 45.386659], [16.327762, 45.387228], [16.326355, 45.387475], [16.326102, 45.38748], [16.325265, 45.387269], [16.321723, 45.387448], [16.319842, 45.387516], [16.319105, 45.387564], [16.315911, 45.388156], [16.314807, 45.388354], [16.314557, 45.388329], [16.312724, 45.387856], [16.306243, 45.386221], [16.298149, 45.384046], [16.295443, 45.383446], [16.291999, 45.382609], [16.291756, 45.382472], [16.291594, 45.382108], [16.291424, 45.381112], [16.290095, 45.379564], [16.28848, 45.378018], [16.287308, 45.376709], [16.286675, 45.375929], [16.286181, 45.374868], [16.286019, 45.374628], [16.285515, 45.373784], [16.285184, 45.373228], [16.285092, 45.373104], [16.284993, 45.372843], [16.284621, 45.37124], [16.284592, 45.371167], [16.284515, 45.3711], [16.284411, 45.37106], [16.284077, 45.370925], [16.283949, 45.370833], [16.283841, 45.370725], [16.283179, 45.370014], [16.282907, 45.369771], [16.28193, 45.368928], [16.281487, 45.368497], [16.281082, 45.368113], [16.280471, 45.367539], [16.280321, 45.367369], [16.280092, 45.367086], [16.279978, 45.366977], [16.279775, 45.366841], [16.279544, 45.366744], [16.279334, 45.366687], [16.279072, 45.366657], [16.278756, 45.366622], [16.278484, 45.366601], [16.278257, 45.366584], [16.277601, 45.366686], [16.271224, 45.367901], [16.263606, 45.368959], [16.258311, 45.369483], [16.234635, 45.371704], [16.233644, 45.371753], [16.232717, 45.371723], [16.230874, 45.371651], [16.226324, 45.37133], [16.214487, 45.370906], [16.208117, 45.368866], [16.202024, 45.36886], [16.199628, 45.368746], [16.196922, 45.368588], [16.196378, 45.36859], [16.18829, 45.369393], [16.182271, 45.369687], [16.177862, 45.369017], [16.169332, 45.367547], [16.165008, 45.366574], [16.157691, 45.364946], [16.153657, 45.363152], [16.147417, 45.360922], [16.147253, 45.360863], [16.12072, 45.359096], [16.115763, 45.358795], [16.111107, 45.357954], [16.104358, 45.358471], [16.101816, 45.356714], [16.098691, 45.354951], [16.095141, 45.352761], [16.086339, 45.35164], [16.078405, 45.351049], [16.072768, 45.35077], [16.068196, 45.350394], [16.064926, 45.350172], [16.062746, 45.350059], [16.062222, 45.350031], [16.06195, 45.350003], [16.061679, 45.349956], [16.057872, 45.348896], [16.044513, 45.345291], [16.020255, 45.338995], [16.01708, 45.337964], [16.01388, 45.337149], [16.011277, 45.335939], [16.00957, 45.335635], [16.007875, 45.335427], [16.006389, 45.335285], [16.002645, 45.334678], [15.99833, 45.334163], [15.996396, 45.334393], [15.993736, 45.334695], [15.989898, 45.335121], [15.987433, 45.335454], [15.984057, 45.335612], [15.978852, 45.335751], [15.973554, 45.33583], [15.97155, 45.33581], [15.969475, 45.335834], [15.968743, 45.335809], [15.967968, 45.335749], [15.96768, 45.335692], [15.965108, 45.334887], [15.96222, 45.334024], [15.95716, 45.332575], [15.952587, 45.331088], [15.949084, 45.330813], [15.945298, 45.330418], [15.941969, 45.330084], [15.940363, 45.329954], [15.939706, 45.329883], [15.939227, 45.329853], [15.938758, 45.329867], [15.938262, 45.329919], [15.937871, 45.329988], [15.937527, 45.330077], [15.936744, 45.330363], [15.935627, 45.330696], [15.934739, 45.330984], [15.933884, 45.331299], [15.932179, 45.331816], [15.930046, 45.332322], [15.925267, 45.333387], [15.923082, 45.333795], [15.918949, 45.334441], [15.914385, 45.33522], [15.911869, 45.335725], [15.909793, 45.335094], [15.90627, 45.335994], [15.903108, 45.336675], [15.890327, 45.339773], [15.885613, 45.340655], [15.882211, 45.341012], [15.879548, 45.341191], [15.876808, 45.341444], [15.875434, 45.341914], [15.872672, 45.342799], [15.872267, 45.342928], [15.871882, 45.343019], [15.871232, 45.343055], [15.869765, 45.342863], [15.868865, 45.342776], [15.867835, 45.342867], [15.865475, 45.343333], [15.862699, 45.343808], [15.86034, 45.343542], [15.859545, 45.343496], [15.857186, 45.344578], [15.852547, 45.346471], [15.848262, 45.348108], [15.844919, 45.348226], [15.840332, 45.348558], [15.83706, 45.349702], [15.836588, 45.349653], [15.833667, 45.348774], [15.83151, 45.348183], [15.830236, 45.348021], [15.823989, 45.349111], [15.815806, 45.352492], [15.810787, 45.353705], [15.80707, 45.352212], [15.805304, 45.353333], [15.799457, 45.353511], [15.791849, 45.352206], [15.788319, 45.348956], [15.782676, 45.347372], [15.781538, 45.347802], [15.777515, 45.347712], [15.7702, 45.344501], [15.767172, 45.342909], [15.762833, 45.341059], [15.744445, 45.340924], [15.74199, 45.341082], [15.737883, 45.34173], [15.735125, 45.342501], [15.732418, 45.341992], [15.731681, 45.342034], [15.728463, 45.342026], [15.723362, 45.340055], [15.718541, 45.338333], [15.714299, 45.336781], [15.71261, 45.336222], [15.711122, 45.335726], [15.709914, 45.335239], [15.707544, 45.334591], [15.705193, 45.334706], [15.703875, 45.334724], [15.702311, 45.334205], [15.700666, 45.33358], [15.699626, 45.333375], [15.696417, 45.33301], [15.694483, 45.333392], [15.692396, 45.333593], [15.691631, 45.333704], [15.691255, 45.333692], [15.687915, 45.333231], [15.685629, 45.333056], [15.682947, 45.332756], [15.678621, 45.332797], [15.674037, 45.332727], [15.671565, 45.332087], [15.666212, 45.330508], [15.662714, 45.330508], [15.651229, 45.330686], [15.644062, 45.330815], [15.639159, 45.33227], [15.633848, 45.333002], [15.617603, 45.338074], [15.611174, 45.342033], [15.604169, 45.341609], [15.603971, 45.34163], [15.603788, 45.341664], [15.603605, 45.341722], [15.602648, 45.34233], [15.601755, 45.342847], [15.598441, 45.344708], [15.592726, 45.347976], [15.591661, 45.3483], [15.590087, 45.348861], [15.588197, 45.349608], [15.586073, 45.350545], [15.5837, 45.35179], [15.580785, 45.353344], [15.578932, 45.354292], [15.577936, 45.354775], [15.576449, 45.355413], [15.575959, 45.355794], [15.57445, 45.356999], [15.572121, 45.358651], [15.569147, 45.360683], [15.566161, 45.36248], [15.565596, 45.362575], [15.560526, 45.363025], [15.557173, 45.363138], [15.553354, 45.363234], [15.54845, 45.363435], [15.545939, 45.363491], [15.542869, 45.363635], [15.539156, 45.363882], [15.53649, 45.36408], [15.53373, 45.364273], [15.531111, 45.364447], [15.529418, 45.364575], [15.52709, 45.364626], [15.524708, 45.364682], [15.52243, 45.364735], [15.519549, 45.364748], [15.517359, 45.364763], [15.51157, 45.364727], [15.508733, 45.363562], [15.50624, 45.36354], [15.50365, 45.363516], [15.501494, 45.363519], [15.499058, 45.363526], [15.496672, 45.363484], [15.493166, 45.36348], [15.490428, 45.363473], [15.489245, 45.363473], [15.488402, 45.363386], [15.486939, 45.363217], [15.484624, 45.3629], [15.482339, 45.362576], [15.479993, 45.362273], [15.477638, 45.361984], [15.474791, 45.361646], [15.471453, 45.361139], [15.469468, 45.360892], [15.467504, 45.360906], [15.465409, 45.360942], [15.462542, 45.360921], [15.459766, 45.361005], [15.457621, 45.360935], [15.455337, 45.360821], [15.453537, 45.36069], [15.45072, 45.360449], [15.448615, 45.360357], [15.445833, 45.360273], [15.443629, 45.36022], [15.440294, 45.360074], [15.437785, 45.35992], [15.437063, 45.359851], [15.436411, 45.359744], [15.432842, 45.358956], [15.429084, 45.358378], [15.425024, 45.357956], [15.42333, 45.358329], [15.421355, 45.358688], [15.417677, 45.359456], [15.412107, 45.36053], [15.409236, 45.361102], [15.407629, 45.361457], [15.4063, 45.361917], [15.404641, 45.362452], [15.402793, 45.363085], [15.401877, 45.363324], [15.400771, 45.363382], [15.39916, 45.363408], [15.397899, 45.363252], [15.394368, 45.363306], [15.393835, 45.36334], [15.392496, 45.364035], [15.391235, 45.364465], [15.388645, 45.365487], [15.387238, 45.366162], [15.383805, 45.368111], [15.382233, 45.368513], [15.378974, 45.369174], [15.376869, 45.369119], [15.372998, 45.368935], [15.372426, 45.369038], [15.371069, 45.369268], [15.369735, 45.369683], [15.367312, 45.370438], [15.366549, 45.370723], [15.36625, 45.370937], [15.365905, 45.371777], [15.364783, 45.373334], [15.364073, 45.374411], [15.363024, 45.375712], [15.361769, 45.377148], [15.360302, 45.378552], [15.359426, 45.379503], [15.359194, 45.379876], [15.358709, 45.381825], [15.358563, 45.382263], [15.358344, 45.382384], [15.357501, 45.38245], [15.356552, 45.382333], [15.353611, 45.381657], [15.353021, 45.381643], [15.352038, 45.381941], [15.350607, 45.382259], [15.348907, 45.382457], [15.347312, 45.382964], [15.343012, 45.38363], [15.341116, 45.384191], [15.33921, 45.384527], [15.338272, 45.384573], [15.335099, 45.385872], [15.334376, 45.386268], [15.332085, 45.387771], [15.327521, 45.391236], [15.326056, 45.392396], [15.322961, 45.394574], [15.318868, 45.395154], [15.3169, 45.394563], [15.316039, 45.394666], [15.31072, 45.395523], [15.308479, 45.396385], [15.301209, 45.399183], [15.299993, 45.399648], [15.298474, 45.40027], [15.296331, 45.401403], [15.294009, 45.400279], [15.293656, 45.400089], [15.29267, 45.399584], [15.28983, 45.397929], [15.287809, 45.39675], [15.285938, 45.396623], [15.283953, 45.396447], [15.280755, 45.396189], [15.278518, 45.395883], [15.272999, 45.395088], [15.272222, 45.394958], [15.271449, 45.394834], [15.269153, 45.394462], [15.263062, 45.394206], [15.259189, 45.394272], [15.25503, 45.394114], [15.251527, 45.393859], [15.241602, 45.392939], [15.235142, 45.392275], [15.229129, 45.391518], [15.227469, 45.391386], [15.225933, 45.391213], [15.222401, 45.390483], [15.22175, 45.390361], [15.22093, 45.390232], [15.215629, 45.389301], [15.212045, 45.38878], [15.209909, 45.388535], [15.208197, 45.388168], [15.205274, 45.387535], [15.20317, 45.386974], [15.19702, 45.384825], [15.194229, 45.384507], [15.183253, 45.383137], [15.181341, 45.382962], [15.177043, 45.38285], [15.176699, 45.38285], [15.175809, 45.382847], [15.175279, 45.382885], [15.174603, 45.382955], [15.173026, 45.383159], [15.171694, 45.383344], [15.170209, 45.383553], [15.168265, 45.383803], [15.167578, 45.3838], [15.167212, 45.383714], [15.166318, 45.383347], [15.16502, 45.382837], [15.16473, 45.382757], [15.164482, 45.382736], [15.163936, 45.382709], [15.16242, 45.382655], [15.160786, 45.382593], [15.159244, 45.382502], [15.157167, 45.382318], [15.155214, 45.382174], [15.153417, 45.381737], [15.150038, 45.381368], [15.146774, 45.381021], [15.141203, 45.380802], [15.137459, 45.380757], [15.136459, 45.380704], [15.134224, 45.380171], [15.12755, 45.37837], [15.126138, 45.378059], [15.122646, 45.37778], [15.118965, 45.377458], [15.115762, 45.377163], [15.11186, 45.377412], [15.106571, 45.377955], [15.10465, 45.378038], [15.100528, 45.378498], [15.097288, 45.37883], [15.09287, 45.379334], [15.090844, 45.379432], [15.088226, 45.379605], [15.087626, 45.379632], [15.086362, 45.379688], [15.084574, 45.379673], [15.082721, 45.379658], [15.081893, 45.37978], [15.079408, 45.380668], [15.077923, 45.380721], [15.074513, 45.381304], [15.073667, 45.381913], [15.071673, 45.383215], [15.070351, 45.383962], [15.069114, 45.384749], [15.068374, 45.38548], [15.068284, 45.385543], [15.068167, 45.385615], [15.068078, 45.385662], [15.06798, 45.3857], [15.067784, 45.385748], [15.067443, 45.385818], [15.066909, 45.385929], [15.066664, 45.385983], [15.066373, 45.386035], [15.065843, 45.386086], [15.065469, 45.386116], [15.065027, 45.386133], [15.064243, 45.386131], [15.063605, 45.386245], [15.063068, 45.386375], [15.06249, 45.386705], [15.061659, 45.387168], [15.061097, 45.387337], [15.060526, 45.387343], [15.059205, 45.387105], [15.055646, 45.386081], [15.054604, 45.38581], [15.05205, 45.385124], [15.051123, 45.38489], [15.050945, 45.384863], [15.050749, 45.384852], [15.050382, 45.384842], [15.048238, 45.384828], [15.047022, 45.384685], [15.046468, 45.384575], [15.046185, 45.384412], [15.045858, 45.383925], [15.045317, 45.383393], [15.044289, 45.382591], [15.043799, 45.382351], [15.043458, 45.382012], [15.042961, 45.381729], [15.042066, 45.381789], [15.040944, 45.381708], [15.039682, 45.381588], [15.038903, 45.381445], [15.038456, 45.381219], [15.038244, 45.38104], [15.037681, 45.380564], [15.037174, 45.38033], [15.035896, 45.380119], [15.032923, 45.379719], [15.031449, 45.37953], [15.03066, 45.379518], [15.029729, 45.37948], [15.029273, 45.379492], [15.028816, 45.379549], [15.027754, 45.379699], [15.026796, 45.379875], [15.026045, 45.380071], [15.025335, 45.380307], [15.024334, 45.380699], [15.023918, 45.380813], [15.023469, 45.38087], [15.02201, 45.380957], [15.021396, 45.381011], [15.02071, 45.38107], [15.020465, 45.38108], [15.020244, 45.381058], [15.020048, 45.381009], [15.016178, 45.379164], [15.015494, 45.379], [15.014731, 45.378824], [15.014391, 45.378789], [15.014051, 45.378797], [15.011192, 45.379001], [15.009807, 45.379108], [15.008354, 45.379253], [15.005958, 45.379566], [15.003564, 45.37984], [15.002163, 45.380007], [15.000769, 45.38011], [14.997749, 45.380261], [14.994862, 45.380412], [14.991966, 45.380525], [14.988232, 45.380707], [14.984274, 45.38084], [14.978419, 45.380992], [14.974739, 45.381014], [14.972943, 45.381082], [14.972266, 45.381159], [14.971039, 45.381445], [14.970292, 45.381643], [14.969725, 45.381673], [14.968859, 45.381607], [14.96595, 45.380974], [14.964213, 45.380908], [14.963531, 45.380816], [14.963279, 45.380712], [14.963123, 45.380535], [14.962712, 45.379047], [14.960943, 45.37714], [14.960553, 45.376953], [14.959366, 45.376808], [14.958933, 45.376641], [14.958643, 45.376349], [14.958582, 45.376288], [14.957888, 45.375621], [14.957151, 45.375411], [14.956803, 45.375283], [14.955627, 45.37481], [14.955134, 45.374749], [14.953962, 45.374571], [14.951309, 45.373914], [14.950519, 45.37387], [14.949775, 45.373677], [14.949521, 45.373519], [14.949056, 45.373102], [14.948727, 45.372894], [14.947696, 45.372722], [14.945505, 45.372261], [14.944627, 45.371922], [14.943854, 45.371624], [14.943014, 45.371133], [14.942715, 45.370981], [14.941892, 45.370575], [14.941663, 45.37047], [14.940936, 45.370026], [14.940075, 45.369766], [14.938636, 45.369382], [14.938044, 45.368959], [14.937879, 45.368919], [14.935874, 45.368994], [14.930177, 45.368873], [14.926615, 45.369024], [14.922935, 45.369816], [14.922367, 45.369853], [14.920564, 45.371617], [14.917571, 45.37271], [14.915371, 45.373607], [14.914797, 45.374532], [14.914497, 45.375225], [14.913546, 45.376836], [14.912483, 45.378272], [14.911094, 45.378627], [14.909164, 45.378165], [14.904755, 45.378745], [14.899766, 45.378444], [14.897578, 45.378364], [14.896482, 45.378326], [14.895806, 45.378371], [14.895095, 45.378453], [14.891065, 45.379261], [14.890092, 45.379427], [14.88906, 45.3795], [14.882676, 45.379834], [14.879487, 45.379959], [14.877966, 45.379944], [14.873365, 45.379997], [14.870621, 45.379978], [14.869207, 45.380031], [14.8682, 45.380244], [14.865804, 45.3809], [14.863694, 45.381494], [14.862243, 45.38179], [14.860817, 45.381955], [14.858806, 45.382176], [14.857293, 45.382361], [14.855968, 45.382517], [14.853204, 45.382846], [14.850958, 45.383194], [14.848863, 45.383701], [14.847011, 45.384037], [14.845393, 45.384333], [14.843074, 45.385402], [14.840657, 45.386835], [14.839748, 45.387533], [14.839062, 45.387822], [14.837841, 45.388125], [14.836088, 45.388622], [14.835656, 45.388832], [14.834523, 45.389991], [14.831311, 45.392939], [14.830854, 45.393141], [14.830458, 45.393237], [14.829572, 45.393312], [14.828628, 45.393433], [14.827719, 45.393775], [14.826333, 45.394304], [14.824998, 45.394931], [14.823378, 45.395933], [14.822845, 45.396165], [14.822186, 45.396465], [14.821552, 45.396565], [14.821072, 45.396528], [14.820564, 45.396567], [14.819913, 45.39678], [14.818975, 45.397057], [14.817871, 45.397255], [14.816404, 45.397319], [14.815648, 45.397406], [14.81517, 45.397365], [14.814697, 45.397273], [14.814056, 45.396966], [14.812225, 45.395694], [14.811074, 45.394983], [14.810216, 45.3938], [14.808844, 45.392349], [14.808198, 45.391608], [14.807549, 45.391145], [14.805874, 45.390002], [14.801492, 45.386612], [14.801113, 45.386229], [14.801053, 45.386059], [14.801072, 45.385291], [14.800963, 45.385054], [14.800648, 45.384666], [14.79873, 45.382363], [14.798499, 45.38191], [14.798573, 45.381551], [14.798431, 45.381061], [14.798233, 45.38056], [14.7981, 45.380069], [14.795604, 45.377498], [14.79498, 45.377179], [14.793991, 45.376694], [14.792295, 45.375699], [14.790703, 45.374633], [14.790652, 45.37433], [14.791624, 45.37303], [14.791559, 45.372815], [14.78907, 45.371888], [14.785836, 45.370784], [14.783389, 45.370089], [14.780523, 45.369055], [14.779949, 45.36885], [14.779292, 45.368635], [14.778776, 45.368482], [14.778381, 45.36826], [14.777957, 45.367873], [14.777635, 45.36749], [14.777092, 45.366773], [14.776642, 45.366342], [14.776046, 45.365934], [14.77477, 45.365004], [14.773575, 45.364107], [14.772502, 45.363341], [14.772092, 45.363224], [14.770146, 45.362677], [14.768574, 45.361929], [14.767654, 45.36166], [14.767213, 45.361398], [14.766814, 45.360851], [14.766413, 45.36049], [14.765914, 45.360064], [14.765341, 45.359541], [14.764596, 45.358856], [14.764044, 45.358217], [14.762606, 45.35659], [14.762144, 45.355968], [14.761623, 45.355282], [14.761399, 45.355012], [14.761297, 45.354693], [14.761418, 45.35384], [14.761434, 45.353219], [14.761377, 45.352795], [14.761151, 45.352361], [14.760431, 45.351774], [14.75971, 45.351069], [14.759248, 45.350505], [14.758, 45.348842], [14.75781, 45.34828], [14.757972, 45.347932], [14.757838, 45.347441], [14.757544, 45.347105], [14.75689, 45.346697], [14.755975, 45.345923], [14.754188, 45.344158], [14.753259, 45.343249], [14.751946, 45.342156], [14.752861, 45.340565], [14.753319, 45.339589], [14.753386, 45.33922], [14.752981, 45.33861], [14.751786, 45.336695], [14.750404, 45.334723], [14.749054, 45.332569], [14.747834, 45.330805], [14.747019, 45.329886], [14.745743, 45.329151], [14.743288, 45.327657], [14.742201, 45.32711], [14.741502, 45.326383], [14.741373, 45.32574], [14.741193, 45.325461], [14.740671, 45.325085], [14.740089, 45.324545], [14.739237, 45.323725], [14.738005, 45.322537], [14.737553, 45.322102], [14.734661, 45.319381], [14.730921, 45.315708], [14.728496, 45.313401], [14.727821, 45.312874], [14.726528, 45.312065], [14.724811, 45.311537], [14.724548, 45.311261], [14.724456, 45.310987], [14.724657, 45.310068], [14.725356, 45.306414], [14.725549, 45.304821], [14.725468, 45.304407], [14.725108, 45.303379], [14.725076, 45.302924], [14.725208, 45.30127], [14.725544, 45.297846], [14.725738, 45.295952], [14.725625, 45.29569], [14.725293, 45.29546], [14.72485, 45.295341]], [[16.411296, 45.437643], [16.411201, 45.437826], [16.411191, 45.437978], [16.409686, 45.441246], [16.409665, 45.441387], [16.40979, 45.44154], [16.41073, 45.442401], [16.411491, 45.442848], [16.414487, 45.444261], [16.422878, 45.447966], [16.425987, 45.450681], [16.426685, 45.451021], [16.43003, 45.452727], [16.433942, 45.456065], [16.43668, 45.459125], [16.436933, 45.459338], [16.437159, 45.459408], [16.438003, 45.459632], [16.440349, 45.459647], [16.442574, 45.459724], [16.443966, 45.459881], [16.446442, 45.460903], [16.448499, 45.461019], [16.450859, 45.461306], [16.452127, 45.461488], [16.452471, 45.461758], [16.452827, 45.462397], [16.453084, 45.462622], [16.45344, 45.462706], [16.457428, 45.462756], [16.460213, 45.462818], [16.469184, 45.463477], [16.469359, 45.463619], [16.471208, 45.466697], [16.474077, 45.471525], [16.477987, 45.477959], [16.478146, 45.478124], [16.482358, 45.480989], [16.488394, 45.485055], [16.491745, 45.487286], [16.49516, 45.48955], [16.495488, 45.48966], [16.495813, 45.489657], [16.497969, 45.489042], [16.498324, 45.488986], [16.498565, 45.488989], [16.501346, 45.490977], [16.505013, 45.492631], [16.509978, 45.494809], [16.519151, 45.498965], [16.524515, 45.501536], [16.535809, 45.506739], [16.541155, 45.509086], [16.545305, 45.515564], [16.546315, 45.517139], [16.545228, 45.51929], [16.545161, 45.519564], [16.545763, 45.521616], [16.545831, 45.521994], [16.545666, 45.523751], [16.545669, 45.524525], [16.545365, 45.525624], [16.544585, 45.526903], [16.542793, 45.527934], [16.539879, 45.529527], [16.539713, 45.529686], [16.539623, 45.530063], [16.539818, 45.531372], [16.540163, 45.535882], [16.539942, 45.538808], [16.537955, 45.543446], [16.536612, 45.546408], [16.53506, 45.549894], [16.533768, 45.552942], [16.533618, 45.55352], [16.533524, 45.554976], [16.531925, 45.557203], [16.529932, 45.56164], [16.527163, 45.56795], [16.526984, 45.568498], [16.526947, 45.568802], [16.527029, 45.569065], [16.527678, 45.570427], [16.530033, 45.575796], [16.531186, 45.577954], [16.533108, 45.581787], [16.535577, 45.586794], [16.53861, 45.592967], [16.540598, 45.596942], [16.546512, 45.603695], [16.549668, 45.606707], [16.550155, 45.607388], [16.551774, 45.60966], [16.555199, 45.614702], [16.555416, 45.614914], [16.556074, 45.615233], [16.558734, 45.616363], [16.559361, 45.617022], [16.564044, 45.621725], [16.564574, 45.622504], [16.564806, 45.623154], [16.564857, 45.625003], [16.564852, 45.628117], [16.565513, 45.62928], [16.564868, 45.633455], [16.564888, 45.635138], [16.564911, 45.640437], [16.564951, 45.643345], [16.569634, 45.649373], [16.570665, 45.651012], [16.571755, 45.653237], [16.573114, 45.655102], [16.573975, 45.656792], [16.5756, 45.659677], [16.577449, 45.662626], [16.581411, 45.665652], [16.5854, 45.668815], [16.586957, 45.670102], [16.587766, 45.670455], [16.588673, 45.671123], [16.588957, 45.673801], [16.589247, 45.676386], [16.589929, 45.67793], [16.591337, 45.680205], [16.593328, 45.683408], [16.595017, 45.686223], [16.595047, 45.687562], [16.59627, 45.691001], [16.597509, 45.694015], [16.6034, 45.699243], [16.607728, 45.705948], [16.609922, 45.70939], [16.617219, 45.714392], [16.6237, 45.723025], [16.629255, 45.730334], [16.631275, 45.73275], [16.632394, 45.735535], [16.643208, 45.742833], [16.644832, 45.743622], [16.649255, 45.74577], [16.650338, 45.747093], [16.652307, 45.750689], [16.654643, 45.751598], [16.655191, 45.752213], [16.656398, 45.753568], [16.657063, 45.754314], [16.658895, 45.756077], [16.659507, 45.756665], [16.660541, 45.757636], [16.66479, 45.761752], [16.669488, 45.765638], [16.672702, 45.768301], [16.673858, 45.769258], [16.674125, 45.769479], [16.678571, 45.773029], [16.681349, 45.776475], [16.68382, 45.779334], [16.685864, 45.781762], [16.686916, 45.782966], [16.687936, 45.784141], [16.691655, 45.788428], [16.693295, 45.790417], [16.693175, 45.79359], [16.692953, 45.797356], [16.695393, 45.803364], [16.697034, 45.807474], [16.698864, 45.811903], [16.699956, 45.814451], [16.702272, 45.820043], [16.703457, 45.823958], [16.704049, 45.825875], [16.704339, 45.826892], [16.704526, 45.82743], [16.70616, 45.832519], [16.707761, 45.837767], [16.707816, 45.839046], [16.709004, 45.839605], [16.714893, 45.842566], [16.715006, 45.842623], [16.715208, 45.842763], [16.71557, 45.843221], [16.715917, 45.843782], [16.717254, 45.845888], [16.717572, 45.846179], [16.721514, 45.848848], [16.72225, 45.849347], [16.72392, 45.850473], [16.724246, 45.850702], [16.726198, 45.853502], [16.728275, 45.855361], [16.731773, 45.859592], [16.73515, 45.863264], [16.740109, 45.868587], [16.745764, 45.873087], [16.754604, 45.879469], [16.757887, 45.88184], [16.761564, 45.8844], [16.761742, 45.884523], [16.761803, 45.884566], [16.764066, 45.886141], [16.766916, 45.888125], [16.768014, 45.888918], [16.768185, 45.889116], [16.775813, 45.899599], [16.778815, 45.903319], [16.782343, 45.90762], [16.785728, 45.911805], [16.791086, 45.917901], [16.79317, 45.920005], [16.793342, 45.920208], [16.79339, 45.920577], [16.793616, 45.92867], [16.793737, 45.929105], [16.796003, 45.931677], [16.79882, 45.934718], [16.800984, 45.937139], [16.804107, 45.938639], [16.805481, 45.939998], [16.805961, 45.940473], [16.811215, 45.943946], [16.811977, 45.944131], [16.816022, 45.94584], [16.822706, 45.94849], [16.828467, 45.953594], [16.837122, 45.959013], [16.837567, 45.95911], [16.838707, 45.959454], [16.840367, 45.960579], [16.842206, 45.961913], [16.847068, 45.965418], [16.847908, 45.965924], [16.849842, 45.969301], [16.85181, 45.976216], [16.851952, 45.976488], [16.852713, 45.979176], [16.855801, 45.982556], [16.856065, 45.982726], [16.856325, 45.982796], [16.858766, 45.982796], [16.860378, 45.98277], [16.865571, 45.984041], [16.866003, 45.984298], [16.866138, 45.984687], [16.865351, 45.987206], [16.864947, 45.988528], [16.864844, 45.991087], [16.865947, 45.994627], [16.866013, 45.994818], [16.866314, 45.994986], [16.87177, 45.997213], [16.872035, 45.997406], [16.872223, 45.997672], [16.872059, 46.000863], [16.872239, 46.001163], [16.873264, 46.002972], [16.873481, 46.003515], [16.873622, 46.003867], [16.873986, 46.004774], [16.874136, 46.005238], [16.874175, 46.005353], [16.87427, 46.005504], [16.874791, 46.006138], [16.879759, 46.006695], [16.882181, 46.007074], [16.882943, 46.007335], [16.887509, 46.010098], [16.891058, 46.013291], [16.892609, 46.01435], [16.900342, 46.020547], [16.911763, 46.023024], [16.914456, 46.023595], [16.919919, 46.023669], [16.921946, 46.025355], [16.924966, 46.028309], [16.927983, 46.029963], [16.928258, 46.030349], [16.929547, 46.032944], [16.933874, 46.036682], [16.936916, 46.039586], [16.940871, 46.043405], [16.943735, 46.04621], [16.948738, 46.049838], [16.955456, 46.054097], [16.960266, 46.058288], [16.964167, 46.063101], [16.969201, 46.069853], [16.969651, 46.070282], [16.978465, 46.078835], [16.981678, 46.081958], [16.981804, 46.08233], [16.9818, 46.083453], [16.98223, 46.083867], [16.995497, 46.087688], [16.997992, 46.088384], [17.001485, 46.090395], [17.010321, 46.092171], [17.012815, 46.092739], [17.013732, 46.093457], [17.014678, 46.094226], [17.015072, 46.094529]], [[16.411432, 45.437662], [16.4098, 45.441272], [16.409837, 45.441419], [16.409977, 45.441575], [16.410797, 45.442312], [16.41152, 45.442773], [16.414538, 45.444204], [16.422995, 45.447901], [16.42604, 45.45063], [16.430149, 45.452654], [16.434082, 45.456028], [16.436759, 45.459087], [16.436973, 45.459286], [16.43717, 45.459352], [16.438009, 45.459555], [16.440326, 45.459548], [16.442577, 45.459618], [16.443985, 45.459794], [16.446452, 45.460795], [16.448873, 45.460967], [16.452179, 45.461405], [16.452577, 45.461731], [16.453009, 45.462403], [16.45315, 45.462525], [16.453473, 45.462601], [16.45743, 45.462652], [16.460223, 45.46272], [16.468663, 45.463354], [16.469245, 45.463402], [16.46946, 45.463536], [16.471303, 45.466613], [16.474198, 45.47143], [16.477301, 45.476608], [16.47811, 45.477932], [16.478251, 45.478063], [16.482393, 45.480934], [16.488707, 45.485098], [16.491851, 45.487197], [16.49525, 45.489473], [16.495532, 45.489569], [16.495739, 45.489551], [16.498076, 45.488914], [16.498376, 45.488864], [16.498799, 45.488954], [16.501506, 45.490932], [16.5051, 45.492537], [16.51006, 45.494728], [16.51924, 45.498897], [16.524518, 45.501404], [16.53589, 45.506666], [16.541296, 45.508999], [16.545445, 45.51551], [16.551112, 45.515631], [16.555582, 45.515665], [16.561066, 45.515704], [16.577903, 45.515822], [16.582588, 45.515165], [16.588513, 45.514453], [16.593765, 45.513793], [16.599258, 45.513188], [16.600193, 45.514959], [16.604156, 45.515048], [16.614382, 45.51356], [16.621024, 45.511617], [16.627839, 45.511088], [16.63082, 45.511271], [16.637107, 45.511783], [16.63937, 45.511185], [16.649977, 45.510591], [16.653196, 45.510086], [16.657403, 45.506729], [16.659875, 45.504567], [16.664518, 45.500477], [16.669631, 45.497286], [16.675535, 45.494788], [16.682727, 45.492112], [16.687839, 45.490262], [16.698283, 45.486969], [16.705572, 45.484509], [16.711456, 45.482544], [16.716387, 45.480818], [16.721, 45.479153], [16.725733, 45.477182], [16.728762, 45.475933], [16.732276, 45.474448], [16.73499, 45.472963], [16.740067, 45.470184], [16.745347, 45.46715], [16.748951, 45.465207], [16.752447, 45.462908], [16.753844, 45.461561], [16.755262, 45.461288], [16.756176, 45.460991], [16.757768, 45.458377], [16.758627, 45.457692], [16.759384, 45.457492], [16.760977, 45.457415], [16.764428, 45.456017], [16.768953, 45.453604], [16.772679, 45.451765], [16.774577, 45.45136], [16.777817, 45.450636], [16.781309, 45.449846], [16.782402, 45.449608], [16.784839, 45.449392], [16.78615, 45.449267], [16.789997, 45.44895], [16.79376, 45.448628], [16.797486, 45.448223], [16.801973, 45.447859], [16.804105, 45.447671], [16.804957, 45.447431], [16.808283, 45.446318], [16.812167, 45.445036], [16.816063, 45.443741], [16.818432, 45.442689], [16.819495, 45.442121], [16.820252, 45.441655], [16.822742, 45.440075], [16.824739, 45.438571], [16.826762, 45.436908], [16.828709, 45.435071], [16.830604, 45.433302], [16.832134, 45.431848], [16.835415, 45.42871], [16.837543, 45.426674], [16.839536, 45.424781], [16.841993, 45.422288], [16.843913, 45.420602], [16.846792, 45.417642], [16.848576, 45.415775], [16.850658, 45.413645], [16.852495, 45.411113], [16.853791, 45.409266], [16.855049, 45.407196], [16.85663, 45.404827], [16.857792, 45.401593], [16.85835, 45.400368], [16.860447, 45.39778], [16.861341, 45.395519], [16.862804, 45.393749], [16.863391, 45.393543], [16.864123, 45.392544], [16.866026, 45.390514], [16.866311, 45.390118], [16.86659, 45.38934], [16.867398, 45.387804], [16.867692, 45.387115], [16.869224, 45.38481], [16.870248, 45.382621], [16.872343, 45.380716], [16.875711, 45.377287], [16.876668, 45.376374], [16.878152, 45.374947], [16.879697, 45.373299], [16.879635, 45.372963], [16.879772, 45.372568], [16.880346, 45.372241], [16.880953, 45.372084], [16.881582, 45.37178], [16.884798, 45.369817], [16.88954, 45.366846], [16.892865, 45.364671], [16.897438, 45.361847], [16.900479, 45.359914], [16.902011, 45.358341], [16.902984, 45.357843], [16.903368, 45.357292], [16.903568, 45.35695], [16.906917, 45.354114], [16.909924, 45.351617], [16.913277, 45.348149], [16.915154, 45.346104], [16.918012, 45.343049], [16.920597, 45.340341], [16.922239, 45.33862], [16.926833, 45.335946], [16.931632, 45.333121], [16.934324, 45.331585], [16.939046, 45.328829], [16.940051, 45.328182], [16.94045, 45.327117], [16.947143, 45.323788], [16.947718, 45.323783], [16.948847, 45.323779], [16.954155, 45.323621], [16.957735, 45.323639], [16.959807, 45.323541], [16.961555, 45.323555], [16.962497, 45.323422], [16.963438, 45.323236], [16.964544, 45.322685], [16.966733, 45.322016], [16.96951, 45.321035], [16.97221, 45.320111], [16.974171, 45.31915], [16.977345, 45.317374], [16.980817, 45.315393], [16.982069, 45.31468], [16.986933, 45.312581], [16.991159, 45.310685], [16.992685, 45.31006], [16.998467, 45.309255], [17.001679, 45.308814], [17.004939, 45.308379], [17.005659, 45.308149], [17.006678, 45.307587], [17.009117, 45.306259], [17.013643, 45.305512], [17.016831, 45.305845], [17.019416, 45.306174], [17.023314, 45.305637], [17.02711, 45.305009], [17.030863, 45.304493], [17.034568, 45.303939], [17.042378, 45.302695], [17.045228, 45.302345], [17.049474, 45.301139], [17.053739, 45.299855], [17.058405, 45.298306], [17.061648, 45.297134], [17.064953, 45.296017], [17.067674, 45.295034], [17.071634, 45.293706], [17.076067, 45.292775], [17.080161, 45.291953], [17.083511, 45.291279], [17.08795, 45.290366], [17.092553, 45.289382], [17.096797, 45.28829], [17.102199, 45.286618], [17.105199, 45.285452], [17.108799, 45.283857], [17.11156, 45.282515], [17.116757, 45.280073], [17.120003, 45.278496], [17.123842, 45.276653], [17.125899, 45.275703], [17.127691, 45.274775], [17.131274, 45.273083], [17.134731, 45.271416], [17.137302, 45.27037], [17.142525, 45.268448], [17.147308, 45.266592], [17.150408, 45.265394], [17.153823, 45.264227], [17.156252, 45.263286], [17.160467, 45.26142], [17.164722, 45.259446], [17.171545, 45.255246], [17.173414, 45.253934], [17.174273, 45.253273], [17.179156, 45.249227], [17.18012, 45.248447], [17.182756, 45.246284], [17.18667, 45.243014], [17.190113, 45.240208], [17.191049, 45.239512], [17.193655, 45.237286], [17.196196, 45.235374], [17.197685, 45.234348], [17.198034, 45.234015], [17.19839, 45.233383], [17.198107, 45.231503], [17.198193, 45.231346], [17.198306, 45.231195], [17.198443, 45.231093], [17.198628, 45.231005], [17.199241, 45.2308], [17.203591, 45.229506], [17.206394, 45.228637], [17.208955, 45.228371], [17.212098, 45.22801], [17.215961, 45.227635], [17.21908, 45.227261], [17.223571, 45.226815], [17.227957, 45.226751], [17.232301, 45.226783], [17.23351, 45.226834], [17.236177, 45.227373], [17.251417, 45.230741], [17.254672, 45.231527], [17.255667, 45.23184], [17.256797, 45.232054], [17.26832, 45.232732], [17.271152, 45.232923], [17.273405, 45.231678], [17.274334, 45.231689], [17.279751, 45.232072], [17.282626, 45.232712], [17.286927, 45.23211], [17.293394, 45.231232], [17.297249, 45.23121], [17.301217, 45.23143], [17.308003, 45.230576], [17.31581, 45.229588], [17.319818, 45.229043], [17.328509, 45.227965], [17.334899, 45.227168], [17.336429, 45.226988], [17.35003, 45.225793], [17.356392, 45.225467], [17.35936, 45.22539], [17.371914, 45.225096], [17.375021, 45.224976], [17.37795, 45.224984], [17.381723, 45.225121], [17.383392, 45.225236], [17.383857, 45.225258], [17.385558, 45.225354], [17.388039, 45.22545], [17.392262, 45.225637], [17.395146, 45.225844], [17.404396, 45.226222], [17.411026, 45.225571], [17.414934, 45.225928], [17.417466, 45.226003], [17.421774, 45.22782], [17.430118, 45.228452], [17.434946, 45.228771], [17.440447, 45.229149], [17.44709, 45.229296], [17.451607, 45.229352], [17.457712, 45.229225], [17.461862, 45.228623], [17.465914, 45.228089], [17.469253, 45.227646], [17.470527, 45.227312], [17.472989, 45.225654], [17.473922, 45.225472], [17.478405, 45.224668], [17.480905, 45.224568], [17.481869, 45.224524], [17.485217, 45.223542], [17.48783, 45.222651], [17.493812, 45.220615], [17.496772, 45.219708], [17.501538, 45.218456], [17.506827, 45.217235], [17.508837, 45.216897], [17.513732, 45.216125], [17.518632, 45.215375], [17.522137, 45.214826], [17.526817, 45.214104], [17.53138, 45.213372], [17.535899, 45.212511], [17.540387, 45.211667], [17.542317, 45.211227], [17.545805, 45.210332], [17.551448, 45.208829], [17.553101, 45.208363], [17.557582, 45.206903], [17.564519, 45.204541], [17.568841, 45.202662], [17.576448, 45.199398], [17.57997, 45.197758], [17.584996, 45.195451], [17.587015, 45.194536], [17.590569, 45.19338], [17.598078, 45.191488], [17.598841, 45.191328], [17.603918, 45.191133], [17.610614, 45.191022], [17.615451, 45.190923], [17.619679, 45.190808], [17.625604, 45.189922], [17.629759, 45.188623], [17.633581, 45.187408], [17.634086, 45.187065], [17.638643, 45.184493], [17.642722, 45.181559], [17.646368, 45.17929], [17.647016, 45.178812], [17.647749, 45.178174], [17.65036, 45.176569], [17.652895, 45.175103], [17.656145, 45.173597], [17.659023, 45.171911], [17.661906, 45.170751], [17.666401, 45.169144], [17.669221, 45.168268], [17.672676, 45.167168], [17.674355, 45.165661], [17.675056, 45.165099], [17.675525, 45.164924], [17.677424, 45.164629], [17.683982, 45.163597], [17.685616, 45.163373], [17.687408, 45.163302], [17.690411, 45.163894], [17.691201, 45.163962], [17.695554, 45.16377], [17.697673, 45.163409], [17.698003, 45.163352], [17.698617, 45.163141], [17.698975, 45.162884], [17.699208, 45.162668], [17.699737, 45.162448], [17.70421, 45.161955], [17.706332, 45.161666], [17.70733, 45.161719], [17.709053, 45.161526], [17.714255, 45.1596], [17.714655, 45.159529], [17.716058, 45.159955], [17.716632, 45.159987], [17.718878, 45.159209], [17.721801, 45.158352], [17.722508, 45.158023], [17.723001, 45.157712], [17.723358, 45.157583], [17.723966, 45.157417], [17.724684, 45.157288], [17.728115, 45.156284], [17.734381, 45.154241], [17.736822, 45.153615], [17.742718, 45.152287], [17.746113, 45.151759], [17.750292, 45.151055], [17.754751, 45.15046], [17.761171, 45.149981], [17.765859, 45.149791], [17.770343, 45.149851], [17.773807, 45.149978], [17.775355, 45.150044], [17.779969, 45.150371], [17.785004, 45.150999], [17.791287, 45.151953], [17.798062, 45.15291], [17.803754, 45.153699], [17.809265, 45.154467], [17.814583, 45.155248], [17.816291, 45.155428], [17.816555, 45.155382], [17.81678, 45.155167], [17.817079, 45.154351], [17.817376, 45.154122], [17.818074, 45.154053], [17.819755, 45.15427], [17.821108, 45.154505], [17.821512, 45.154662], [17.822936, 45.156403], [17.823395, 45.15654], [17.827035, 45.157125], [17.833111, 45.158125], [17.834894, 45.158468], [17.840557, 45.159675], [17.842109, 45.160012], [17.849354, 45.161649], [17.854298, 45.162772], [17.861795, 45.164526], [17.866657, 45.165252], [17.872133, 45.166203], [17.875136, 45.166703], [17.87836, 45.167239], [17.885391, 45.167963], [17.891855, 45.168207], [17.896373, 45.168411], [17.902963, 45.168689], [17.906129, 45.168728], [17.911496, 45.168883], [17.916608, 45.16895], [17.921776, 45.169108], [17.925544, 45.169218], [17.927662, 45.169302], [17.928297, 45.169337], [17.930687, 45.169294], [17.935116, 45.169333], [17.938427, 45.169363], [17.941129, 45.16978], [17.944823, 45.170553], [17.946295, 45.170702], [17.951452, 45.171195], [17.954983, 45.171582], [17.955273, 45.171686], [17.955856, 45.172402], [17.962801, 45.172867], [17.965124, 45.173109], [17.967969, 45.173351], [17.970924, 45.173515], [17.975941, 45.174493], [17.977709, 45.174117], [17.978278, 45.174043], [17.978578, 45.174048], [17.979189, 45.174327], [17.979727, 45.174552], [17.980453, 45.174868], [17.981531, 45.175387], [17.98248, 45.17581], [17.983341, 45.176301], [17.984943, 45.177047], [17.985686, 45.177319], [17.986208, 45.17744], [17.98717, 45.177629], [17.988576, 45.177805], [17.990914, 45.177955], [17.992087, 45.178306], [17.993125, 45.178447], [17.994578, 45.178582], [17.997489, 45.178804], [17.998523, 45.178846], [18.000603, 45.178888], [18.002647, 45.178963], [18.002747, 45.178988], [18.00284, 45.179057], [18.003055, 45.179556], [18.003951, 45.179726], [18.007132, 45.180262], [18.008955, 45.180693], [18.01163, 45.181472], [18.013771, 45.182067], [18.016279, 45.182748], [18.017794, 45.183193], [18.019593, 45.183536], [18.022136, 45.183874], [18.024262, 45.18414], [18.025502, 45.184204], [18.027984, 45.184167], [18.031013, 45.184142], [18.033033, 45.183959], [18.034721, 45.183741], [18.036834, 45.183381], [18.039338, 45.182902], [18.041648, 45.18252], [18.044691, 45.182026], [18.047158, 45.181606], [18.050783, 45.1809], [18.053894, 45.180354], [18.056032, 45.179939], [18.059944, 45.179402], [18.062178, 45.178996], [18.066454, 45.178206], [18.068585, 45.177728], [18.069248, 45.177397], [18.070826, 45.177317], [18.074577, 45.176676], [18.077554, 45.176094], [18.080998, 45.175214], [18.084723, 45.174524], [18.089607, 45.17359], [18.094786, 45.172552], [18.097679, 45.172001], [18.100213, 45.171409], [18.104743, 45.169565], [18.107927, 45.168749], [18.114739, 45.16688], [18.115619, 45.166604], [18.115928, 45.16699], [18.116582, 45.166825], [18.116988, 45.166765], [18.118868, 45.166879], [18.127429, 45.167328]], [[16.472025, 46.510795], [16.471682, 46.509242], [16.4715, 46.508347], [16.473783, 46.506012], [16.476648, 46.503451], [16.481164, 46.499181], [16.487534, 46.492222], [16.487239, 46.4893], [16.487187, 46.487482], [16.497223, 46.479249], [16.500411, 46.476579], [16.506956, 46.471362], [16.507895, 46.470865], [16.510642, 46.468598], [16.516458, 46.463818], [16.518108, 46.462547], [16.524589, 46.461065], [16.525337, 46.460848], [16.531664, 46.457544], [16.537566, 46.454527], [16.54249, 46.452013], [16.547848, 46.449242], [16.554285, 46.445937], [16.558708, 46.44364], [16.563725, 46.440974], [16.570741, 46.437405], [16.576337, 46.434504], [16.57672, 46.434328], [16.576949, 46.434316], [16.577264, 46.43441], [16.581482, 46.436778], [16.584229, 46.437979], [16.587741, 46.439351], [16.593796, 46.441197], [16.595675, 46.441296], [16.599681, 46.441818], [16.60543, 46.442169], [16.612004, 46.441724], [16.616392, 46.441413], [16.616843, 46.441249], [16.622064, 46.439175], [16.626571, 46.437393], [16.627124, 46.437024], [16.63147, 46.434017], [16.635526, 46.430975], [16.636632, 46.430166], [16.636913, 46.429416], [16.637644, 46.426673], [16.638707, 46.426122], [16.636343, 46.424715], [16.636003, 46.423502], [16.635186, 46.420178], [16.634795, 46.417135], [16.634472, 46.416601], [16.634438, 46.416056], [16.634021, 46.411195], [16.634047, 46.411061], [16.635841, 46.409741], [16.638018, 46.408698], [16.645282, 46.405177], [16.64903, 46.403325], [16.652595, 46.402379], [16.656783, 46.401257], [16.659846, 46.400387], [16.661599, 46.399867], [16.662783, 46.399491], [16.66372, 46.399344], [16.665889, 46.398838], [16.671284, 46.397419], [16.678525, 46.395477], [16.67967, 46.394987], [16.68026, 46.395227], [16.681757, 46.395177], [16.695843, 46.394511], [16.695896, 46.392801], [16.695775, 46.388593], [16.695911, 46.384242], [16.695983, 46.380936], [16.696278, 46.380446], [16.697862, 46.378713], [16.700017, 46.37752], [16.701968, 46.376607], [16.706654, 46.374028], [16.707861, 46.373421], [16.708581, 46.373408], [16.708774, 46.373364], [16.71489, 46.369681], [16.717208, 46.368342], [16.724797, 46.367458], [16.732753, 46.366498], [16.741578, 46.365485], [16.74266, 46.365165], [16.75493, 46.363648], [16.758094, 46.363265], [16.761785, 46.362838], [16.7622, 46.362448], [16.76176, 46.359608], [16.761019, 46.355173], [16.768739, 46.352191], [16.780639, 46.347405], [16.785262, 46.345697], [16.790126, 46.343732], [16.794222, 46.342078], [16.799285, 46.340082], [16.80349, 46.33844], [16.808868, 46.336365], [16.810105, 46.33594], [16.81097, 46.335484], [16.816796, 46.333139], [16.821923, 46.33105], [16.822317, 46.328143], [16.822531, 46.325993], [16.822791, 46.323421], [16.823231, 46.319229], [16.823874, 46.317561], [16.823536, 46.317085], [16.821347, 46.313984], [16.820455, 46.312698], [16.820083, 46.311918], [16.819552, 46.311404], [16.818661, 46.310414], [16.818526, 46.309767], [16.818875, 46.305878], [16.818658, 46.305664], [16.817679, 46.304708], [16.817441, 46.304475], [16.814362, 46.301465], [16.809025, 46.296359], [16.806215, 46.293778], [16.801477, 46.287153], [16.800545, 46.282952], [16.799778, 46.278895], [16.799271, 46.276395], [16.798593, 46.272749], [16.799739, 46.265133], [16.801341, 46.255635], [16.80217, 46.251033], [16.803035, 46.244959], [16.804962, 46.24324], [16.808777, 46.23991], [16.812834, 46.236319], [16.816513, 46.233185], [16.817864, 46.232192], [16.821026, 46.229368], [16.824171, 46.226518], [16.826653, 46.224388], [16.829096, 46.222276], [16.836208, 46.216041], [16.840471, 46.212338], [16.844566, 46.208776], [16.848488, 46.205388], [16.852653, 46.201732], [16.857043, 46.197876], [16.86287, 46.192889], [16.869441, 46.190398], [16.876285, 46.18499], [16.878003, 46.183757], [16.881548, 46.181398], [16.890534, 46.175877], [16.89486, 46.173212], [16.899807, 46.170186], [16.903682, 46.167785], [16.907631, 46.165391], [16.90947, 46.164414], [16.916198, 46.160121], [16.92063, 46.157415], [16.926137, 46.154171], [16.929997, 46.151737], [16.9351, 46.148458], [16.938766, 46.146145], [16.939261, 46.145277], [16.940367, 46.14352], [16.941035, 46.14242], [16.942263, 46.140833], [16.943244, 46.138879], [16.951286, 46.134653], [16.953843, 46.133151], [16.959062, 46.130313], [16.96276, 46.128374], [16.96597, 46.12627], [16.97145, 46.123357], [16.971728, 46.122415], [16.97397, 46.120858], [16.977123, 46.118717], [16.981273, 46.115974], [16.986077, 46.11305], [16.989625, 46.11062], [16.99438, 46.107442], [16.997028, 46.105624], [17.001832, 46.102413], [17.007388, 46.098603], [17.010124, 46.096694], [17.013753, 46.095275], [17.01407, 46.095131], [17.015072, 46.094529]], [[17.015072, 46.094529], [17.019981, 46.098305], [17.020255, 46.098566], [17.021244, 46.101792], [17.022967, 46.107301], [17.024138, 46.111238], [17.025891, 46.115519], [17.027512, 46.119291], [17.027948, 46.119744], [17.031348, 46.120676], [17.036895, 46.122425], [17.03729, 46.123233], [17.037746, 46.1235], [17.043021, 46.124357], [17.051135, 46.125634], [17.05141, 46.12556], [17.052348, 46.125036], [17.052476, 46.12501], [17.056335, 46.125499], [17.06129, 46.126208], [17.066248, 46.126902], [17.066768, 46.127011], [17.067074, 46.127186], [17.067117, 46.127501], [17.067104, 46.12802], [17.067136, 46.128065], [17.072376, 46.128391], [17.072419, 46.128781], [17.072957, 46.129368], [17.075343, 46.131465], [17.07835, 46.134239], [17.080426, 46.136094], [17.082712, 46.137901], [17.085029, 46.140007], [17.083759, 46.158848], [17.083686, 46.159924], [17.083662, 46.160247], [17.083411, 46.163645], [17.083391, 46.163918], [17.082862, 46.17127], [17.082193, 46.180139], [17.081501, 46.181221], [17.080302, 46.182911], [17.079974, 46.183647], [17.079839, 46.184088], [17.079837, 46.184344], [17.081049, 46.185204], [17.082328, 46.186144], [17.083233, 46.186824], [17.091143, 46.192387], [17.092962, 46.1937], [17.100912, 46.19783], [17.10436, 46.199576], [17.112793, 46.204097], [17.113419, 46.205667], [17.113772, 46.206084], [17.118005, 46.209287], [17.124942, 46.21291], [17.124972, 46.216099], [17.125985, 46.216381], [17.127918, 46.216478], [17.130953, 46.222553], [17.133044, 46.223425], [17.133551, 46.2244], [17.132987, 46.224889]], [[17.133192, 46.224983], [17.133917, 46.224557], [17.133983, 46.224536], [17.134056, 46.224534], [17.134165, 46.224549], [17.134263, 46.224569], [17.142765, 46.228325], [17.143035, 46.228425], [17.143509, 46.228562], [17.143981, 46.228653], [17.150316, 46.228688], [17.150539, 46.228685], [17.150729, 46.228744], [17.172296, 46.236753], [17.177497, 46.23999], [17.183826, 46.24485], [17.193578, 46.250098], [17.201412, 46.251428], [17.228466, 46.25582], [17.233659, 46.256721], [17.234215, 46.25683], [17.234706, 46.256947], [17.25886, 46.263634], [17.262971, 46.267033], [17.265431, 46.269994], [17.290566, 46.275516], [17.293305, 46.276013], [17.293958, 46.27645], [17.311816, 46.282434], [17.322092, 46.28572], [17.324527, 46.285853], [17.327381, 46.286465], [17.330308, 46.287282], [17.333317, 46.288078], [17.338924, 46.289529], [17.342988, 46.290513], [17.34413, 46.290787], [17.348545, 46.291827], [17.350778, 46.292099], [17.354651, 46.292497], [17.355672, 46.293381], [17.356997, 46.294525], [17.361703, 46.297193], [17.363924, 46.298524], [17.367261, 46.299813], [17.37272, 46.301812], [17.381694, 46.304643], [17.452671, 46.319146], [17.46417, 46.322922], [17.495119, 46.3327], [17.500881, 46.334535], [17.507706, 46.337022], [17.515908, 46.338116], [17.52164, 46.338819], [17.527466, 46.339561], [17.532432, 46.339992], [17.538684, 46.342101], [17.544292, 46.344016], [17.570421, 46.352751], [17.578983, 46.355616], [17.581031, 46.356524], [17.582599, 46.357116], [17.584812, 46.357959], [17.587041, 46.358916], [17.590151, 46.360137], [17.593321, 46.361461], [17.597581, 46.363493], [17.598849, 46.364097], [17.599523, 46.364854], [17.600114, 46.365843], [17.601773, 46.367299], [17.604369, 46.368622], [17.605308, 46.368933], [17.607462, 46.370067], [17.609292, 46.370956], [17.619159, 46.375477], [17.622983, 46.377539], [17.629057, 46.380678], [17.63262, 46.382378], [17.633523, 46.382848], [17.634217, 46.383323], [17.637014, 46.38501], [17.640233, 46.387005], [17.643387, 46.388904], [17.644963, 46.389857], [17.646719, 46.390872], [17.647968, 46.391594], [17.654424, 46.395509], [17.660277, 46.399056], [17.662442, 46.400246], [17.663987, 46.400945], [17.664489, 46.401119], [17.66858, 46.402649], [17.672023, 46.403879], [17.675685, 46.405262], [17.67823, 46.405935], [17.680732, 46.406942], [17.682376, 46.407573], [17.68578, 46.408979], [17.688039, 46.409717], [17.689279, 46.410179], [17.69434, 46.412009], [17.695006, 46.412303], [17.695473, 46.412458], [17.696248, 46.412781], [17.698099, 46.413462], [17.701292, 46.415459], [17.705056, 46.418494], [17.711534, 46.421565], [17.720261, 46.426849], [17.723765, 46.429018], [17.727355, 46.431154], [17.729563, 46.432445], [17.730144, 46.432789], [17.73445, 46.435322], [17.746243, 46.442281], [17.751799, 46.445601], [17.755822, 46.447913], [17.759658, 46.450211], [17.760928, 46.450854], [17.762662, 46.451612], [17.763913, 46.451995], [17.765541, 46.452414], [17.766092, 46.452782], [17.766808, 46.453404], [17.76741, 46.453743], [17.768333, 46.454054], [17.772631, 46.455485], [17.773674, 46.455918], [17.77554, 46.456835], [17.777194, 46.457578], [17.778507, 46.458278], [17.781303, 46.459597], [17.781617, 46.459771], [17.783128, 46.460471], [17.787517, 46.462677], [17.792488, 46.464902], [17.794618, 46.466755], [17.79912, 46.470654], [17.801883, 46.472776], [17.807082, 46.476399], [17.809321, 46.477697], [17.816363, 46.481956], [17.819806, 46.484257], [17.825873, 46.488317], [17.828843, 46.490383], [17.832371, 46.492496], [17.833033, 46.49279], [17.834006, 46.493151], [17.834575, 46.493445], [17.835705, 46.494083], [17.837884, 46.495576], [17.839899, 46.496901], [17.840378, 46.497286], [17.840754, 46.497552], [17.843874, 46.498459], [17.845389, 46.499215], [17.858617, 46.509663], [17.863608, 46.513497], [17.874186, 46.522111], [17.876963, 46.52421], [17.877214, 46.524372], [17.878152, 46.524866], [17.878485, 46.525145], [17.885109, 46.533194], [17.890053, 46.539278], [17.892993, 46.542662], [17.893302, 46.543104], [17.893586, 46.543299], [17.901186, 46.545057], [17.901614, 46.545271], [17.906193, 46.54869], [17.908524, 46.550545], [17.91261, 46.553363], [17.912877, 46.553613], [17.912962, 46.553839], [17.912804, 46.554639], [17.912307, 46.556282], [17.911058, 46.560725], [17.910282, 46.56436], [17.91027, 46.564944], [17.910379, 46.565369], [17.910902, 46.565865], [17.915358, 46.567787], [17.918786, 46.569384], [17.921083, 46.570427], [17.923847, 46.571686], [17.927454, 46.573329], [17.927827, 46.573727], [17.928004, 46.574143], [17.929034, 46.575958], [17.929379, 46.576611], [17.931167, 46.579815], [17.931402, 46.580393], [17.93159, 46.580517], [17.932187, 46.580482], [17.932538, 46.580581], [17.932793, 46.580756], [17.933229, 46.581443], [17.933411, 46.581702], [17.936179, 46.586123], [17.937917, 46.591882], [17.940635, 46.594271], [17.941493, 46.595821], [17.942506, 46.597461], [17.943302, 46.598469], [17.944966, 46.599724], [17.952127, 46.60367], [17.952361, 46.603923], [17.953016, 46.604497], [17.953318, 46.604645], [17.959504, 46.607296], [17.9634, 46.608884], [17.965669, 46.609824], [17.971303, 46.612184], [17.973419, 46.613191], [17.97772, 46.614956], [17.97795, 46.615081], [17.979416, 46.615656], [17.980861, 46.61627], [17.984618, 46.617858], [17.988505, 46.619349], [17.995246, 46.622226], [18.000564, 46.62447], [18.001057, 46.62475], [18.004883, 46.626771], [18.006283, 46.627576], [18.007452, 46.628188], [18.009574, 46.629403], [18.011838, 46.630685], [18.013759, 46.631885], [18.016503, 46.633459], [18.018693, 46.634751], [18.022543, 46.637031], [18.024045, 46.637927], [18.027539, 46.639968], [18.034476, 46.644086], [18.034718, 46.644337], [18.034868, 46.64463], [18.035207, 46.645707], [18.035394, 46.645977], [18.041036, 46.650185], [18.041804, 46.650722], [18.046852, 46.654019], [18.056735, 46.660998], [18.058749, 46.662404], [18.066867, 46.667966], [18.075523, 46.67227], [18.077119, 46.673133], [18.084151, 46.676641], [18.08987, 46.679501], [18.093796, 46.681449], [18.097557, 46.683472], [18.102762, 46.686167], [18.106021, 46.687796], [18.108038, 46.688776], [18.109728, 46.689619], [18.113016, 46.691284], [18.11954, 46.6947], [18.124549, 46.697296], [18.125795, 46.697754], [18.128439, 46.69906], [18.130908, 46.700372], [18.138453, 46.706178], [18.14157, 46.708495], [18.145401, 46.711262], [18.147278, 46.712659], [18.149897, 46.714708], [18.151855, 46.716178], [18.153908, 46.71801], [18.155819, 46.71953], [18.159161, 46.723296], [18.161859, 46.726558], [18.163281, 46.728185], [18.165401, 46.730739], [18.167491, 46.731982], [18.170798, 46.736108], [18.173369, 46.739332], [18.174776, 46.740977], [18.17621, 46.742807], [18.187783, 46.752452], [18.191539, 46.755512], [18.200222, 46.762721], [18.204119, 46.76594], [18.207272, 46.768572], [18.20757, 46.769272], [18.208136, 46.770196], [18.209661, 46.772654], [18.210734, 46.774462], [18.212872, 46.778056], [18.216916, 46.784953], [18.218648, 46.787638], [18.221915, 46.792984], [18.223483, 46.795328], [18.225064, 46.79769], [18.226421, 46.799553], [18.227916, 46.801926], [18.229197, 46.803871], [18.232157, 46.808225], [18.23498, 46.812441], [18.236298, 46.814445], [18.236562, 46.814847], [18.238069, 46.817321], [18.239401, 46.819224], [18.239778, 46.819773], [18.240016, 46.82012], [18.24127, 46.822046], [18.241678, 46.822542], [18.243463, 46.825206], [18.245534, 46.828293], [18.246221, 46.829491], [18.247151, 46.830723], [18.248612, 46.832916], [18.24981, 46.83469], [18.25043, 46.835099], [18.250981, 46.835891], [18.252985, 46.837443], [18.254152, 46.838334], [18.255695, 46.839562], [18.258796, 46.841961], [18.261111, 46.843246], [18.262971, 46.844487], [18.275942, 46.853367], [18.279169, 46.855968], [18.288681, 46.862431], [18.290753, 46.863706], [18.292555, 46.86453], [18.299861, 46.867573], [18.302675, 46.868851], [18.304653, 46.869588], [18.305256, 46.869845], [18.30787, 46.870976], [18.310487, 46.872032], [18.311646, 46.872679], [18.319797, 46.875977], [18.329112, 46.879867], [18.333154, 46.881642], [18.342886, 46.887375], [18.349738, 46.89148], [18.353271, 46.893706], [18.353729, 46.893957], [18.371423, 46.904343], [18.377765, 46.908099], [18.382397, 46.910985], [18.388744, 46.914598], [18.3963, 46.919297], [18.403715, 46.923449], [18.407179, 46.925544], [18.410995, 46.927849], [18.414602, 46.92992], [18.421375, 46.93392], [18.425136, 46.936165], [18.42807, 46.93801], [18.435825, 46.942649], [18.441902, 46.946392], [18.44905, 46.950797], [18.455271, 46.954215], [18.459706, 46.956647], [18.462805, 46.958424], [18.463136, 46.958619], [18.463169, 46.958845], [18.463202, 46.959463], [18.463335, 46.960223], [18.46425, 46.961096], [18.466633, 46.962105], [18.475322, 46.965908], [18.481556, 46.968615], [18.486974, 46.971017], [18.489019, 46.971929], [18.497893, 46.975772], [18.507489, 46.985561], [18.515952, 46.994282], [18.526692, 47.005342], [18.530888, 47.009707], [18.53179, 47.010573], [18.531836, 47.010866], [18.531169, 47.0122], [18.53115, 47.012337], [18.531288, 47.012561], [18.531626, 47.012717], [18.535309, 47.01415], [18.540563, 47.016143], [18.543819, 47.017321], [18.547163, 47.019486], [18.551838, 47.022299], [18.558339, 47.028031], [18.564732, 47.03308], [18.574988, 47.041447], [18.588902, 47.052656], [18.596035, 47.058172], [18.600551, 47.061899], [18.614337, 47.072848], [18.620222, 47.077842], [18.62693, 47.083587], [18.628484, 47.084933], [18.634505, 47.089854], [18.637383, 47.092344], [18.63807, 47.093038], [18.641362, 47.095788], [18.642244, 47.096881], [18.644932, 47.101003], [18.646029, 47.102635], [18.646809, 47.103617], [18.652506, 47.105479], [18.656585, 47.107221], [18.661546, 47.110218], [18.666312, 47.113273], [18.667106, 47.113779], [18.670497, 47.115848], [18.670933, 47.116218], [18.674444, 47.118417], [18.677176, 47.120121], [18.679507, 47.121483], [18.679901, 47.121722], [18.68024, 47.121999], [18.681713, 47.123887], [18.682911, 47.125556], [18.683934, 47.126928], [18.68884, 47.130942], [18.690606, 47.132328], [18.694678, 47.135695], [18.696671, 47.137356], [18.698633, 47.138871], [18.703323, 47.141931], [18.704826, 47.143121], [18.707639, 47.146622], [18.709223, 47.148172], [18.71293, 47.150818], [18.719692, 47.155309], [18.722683, 47.15762], [18.731909, 47.16354], [18.737018, 47.167059], [18.742704, 47.170872], [18.745074, 47.172618], [18.75563, 47.180458], [18.758648, 47.182827], [18.761509, 47.18496], [18.764592, 47.187385], [18.77329, 47.193677], [18.776622, 47.196221], [18.781506, 47.199846], [18.787629, 47.204035], [18.793923, 47.208592], [18.795715, 47.209993], [18.797021, 47.210905], [18.804864, 47.216811], [18.820223, 47.227998], [18.839708, 47.242207], [18.852898, 47.252046], [18.862131, 47.257955], [18.864326, 47.2586], [18.871168, 47.26151], [18.872692, 47.263162], [18.873303, 47.263868], [18.87353, 47.264237], [18.873653, 47.264627], [18.873735, 47.265058], [18.87373, 47.265556], [18.873708, 47.265977], [18.873703, 47.266152], [18.873791, 47.266481], [18.873931, 47.266774], [18.874017, 47.267001], [18.874042, 47.267384], [18.875407, 47.268123], [18.887993, 47.269754], [18.890549, 47.270105], [18.891349, 47.270165], [18.908564, 47.277659], [18.905907, 47.288809]], [[19.133323, 45.279394], [19.131069, 45.280905], [19.128965, 45.280528], [19.12137, 45.279469], [19.105791, 45.276209], [19.09944, 45.276906], [19.093172, 45.277659], [19.08667, 45.278414], [19.080454, 45.279186], [19.074231, 45.279906], [19.067701, 45.280737], [19.061605, 45.281611], [19.058061, 45.282103], [19.05548, 45.281792], [19.049173, 45.281023], [19.041233, 45.279655], [19.025233, 45.279668], [19.022922, 45.278588], [19.017861, 45.275019], [19.006853, 45.269753], [19.005948, 45.269507], [18.998588, 45.268955], [18.99599, 45.268737], [18.992254, 45.26854], [18.977511, 45.267851], [18.966619, 45.267302], [18.960022, 45.266937], [18.953576, 45.266628], [18.92841, 45.266291], [18.917897, 45.266185], [18.917047, 45.266168], [18.915724, 45.266354], [18.913281, 45.26679], [18.910889, 45.266911], [18.908316, 45.266772], [18.906362, 45.26652], [18.896774, 45.266452], [18.884357, 45.266495], [18.872186, 45.268281], [18.870586, 45.267364], [18.865819, 45.266341], [18.864649, 45.266078], [18.862888, 45.266243], [18.861241, 45.265032], [18.84911, 45.263421], [18.846439, 45.264092], [18.840683, 45.264179], [18.836822, 45.264286], [18.825108, 45.264328], [18.823627, 45.264092], [18.816379, 45.263055], [18.80057, 45.26166], [18.783758, 45.263583], [18.750752, 45.270684], [18.739339, 45.272579], [18.689595, 45.267856], [18.670228, 45.267584], [18.647115, 45.267101], [18.615695, 45.266479], [18.604054, 45.26476], [18.598121, 45.264073], [18.592674, 45.264147], [18.58336, 45.265832], [18.573029, 45.26613], [18.562009, 45.26581], [18.553515, 45.265682], [18.542088, 45.265245], [18.53566, 45.264793], [18.533124, 45.264191], [18.532939, 45.264263], [18.532394, 45.264532], [18.532048, 45.264579], [18.531604, 45.264559], [18.530927, 45.264445], [18.530553, 45.264616], [18.530261, 45.264913], [18.529821, 45.265043], [18.525966, 45.263618], [18.522995, 45.262493], [18.522718, 45.262483], [18.52246, 45.262518], [18.521319, 45.26337], [18.521119, 45.263424], [18.520857, 45.263373], [18.516146, 45.261444], [18.513174, 45.260079], [18.508708, 45.257917], [18.505039, 45.256183], [18.503564, 45.255492], [18.495878, 45.252691], [18.493363, 45.252052], [18.48829, 45.250692], [18.482723, 45.249107], [18.465524, 45.243162], [18.459017, 45.241174], [18.448523, 45.237771], [18.444316, 45.236447], [18.441437, 45.235475], [18.434832, 45.235178], [18.424821, 45.234705], [18.412286, 45.235042], [18.409592, 45.235171], [18.408516, 45.235124], [18.403798, 45.233058], [18.397164, 45.230994], [18.392248, 45.229708], [18.384627, 45.227744], [18.377547, 45.225851], [18.370443, 45.221026], [18.366019, 45.218332], [18.357614, 45.21336], [18.351501, 45.209978], [18.350143, 45.209129], [18.345555, 45.208025], [18.334282, 45.204802], [18.326746, 45.202527], [18.295323, 45.193613], [18.293187, 45.193211], [18.29174, 45.193081], [18.291302, 45.192327], [18.291024, 45.192112], [18.290451, 45.191835], [18.284783, 45.190548], [18.274149, 45.188734], [18.270576, 45.187968], [18.248432, 45.1835], [18.246589, 45.183408], [18.226699, 45.182535], [18.222663, 45.182362], [18.218019, 45.181902], [18.204117, 45.180716], [18.197824, 45.18009], [18.197446, 45.179794], [18.19678, 45.17931], [18.192189, 45.179476], [18.18515, 45.180125], [18.181916, 45.17944], [18.172119, 45.177196], [18.164453, 45.175407], [18.155278, 45.173669], [18.152479, 45.173506], [18.151629, 45.172786], [18.151545, 45.171698], [18.149603, 45.17166], [18.14206, 45.170225], [18.135054, 45.168153], [18.130996, 45.166971]], [[19.873611, 45.307256], [19.873724, 45.308521], [19.872783, 45.308876], [19.871653, 45.310382], [19.867111, 45.3156], [19.866367, 45.316735], [19.864921, 45.317905], [19.865153, 45.318537], [19.861945, 45.319169], [19.839141, 45.324976], [19.817957, 45.321528], [19.794925, 45.319201], [19.792763, 45.319655], [19.791559, 45.319001], [19.784904, 45.319265], [19.778212, 45.31989], [19.771859, 45.32045], [19.754335, 45.320966], [19.747254, 45.32141], [19.740508, 45.32179], [19.734081, 45.322164], [19.729721, 45.322386], [19.718344, 45.323059], [19.706488, 45.324082], [19.703485, 45.325531], [19.701624, 45.32648], [19.7013, 45.326611], [19.701068, 45.326662], [19.700823, 45.326654], [19.700602, 45.326552], [19.70009, 45.326023], [19.697614, 45.323655], [19.687248, 45.313428], [19.683462, 45.309738], [19.681919, 45.308444], [19.680631, 45.307718], [19.679554, 45.307339], [19.67246, 45.305336], [19.666716, 45.303756], [19.660499, 45.302012], [19.654582, 45.300386], [19.648555, 45.298671], [19.642725, 45.297066], [19.637105, 45.295437], [19.630653, 45.295274], [19.61814, 45.295029], [19.61456, 45.294954], [19.598771, 45.294619], [19.592378, 45.294468], [19.586333, 45.294356], [19.579626, 45.294221], [19.566823, 45.293907], [19.5584, 45.293616], [19.546826, 45.293128], [19.541465, 45.292921], [19.535048, 45.292642], [19.528848, 45.292392], [19.520584, 45.292023], [19.515841, 45.291819], [19.510711, 45.291581], [19.50311, 45.291401], [19.496724, 45.291112], [19.490358, 45.290816], [19.483944, 45.290488], [19.477589, 45.290177], [19.469912, 45.289798], [19.463754, 45.289475], [19.458472, 45.289264], [19.456974, 45.289169], [19.455569, 45.289609], [19.452331, 45.289417], [19.445924, 45.289021], [19.438958, 45.288565], [19.433238, 45.288244], [19.426773, 45.287821], [19.424629, 45.287661], [19.421623, 45.287984], [19.408018, 45.285325], [19.395366, 45.284927], [19.388856, 45.284784], [19.382552, 45.284626], [19.377595, 45.284514], [19.369846, 45.284159], [19.366166, 45.283919], [19.363687, 45.283861], [19.357139, 45.283552], [19.350808, 45.283258], [19.338306, 45.282681], [19.331564, 45.282918], [19.326481, 45.283742], [19.321222, 45.284212], [19.319016, 45.284261], [19.312627, 45.284412], [19.311392, 45.284414], [19.309303, 45.283373], [19.302736, 45.283154], [19.300733, 45.283876], [19.28956, 45.288199], [19.277122, 45.288386], [19.271054, 45.288878], [19.261391, 45.291001], [19.252604, 45.290704], [19.250712, 45.291644], [19.247141, 45.291758], [19.240755, 45.291896], [19.234024, 45.292058], [19.228136, 45.292223], [19.221582, 45.292338], [19.214932, 45.292536], [19.209161, 45.29269], [19.203434, 45.29281], [19.196103, 45.292965], [19.189356, 45.293116], [19.183188, 45.293292], [19.177224, 45.29337], [19.17019, 45.293481], [19.167211, 45.293495], [19.163635, 45.293095], [19.160768, 45.29274], [19.157316, 45.292351], [19.154067, 45.291871], [19.148901, 45.288022], [19.14647, 45.287615], [19.144331, 45.285204], [19.143558, 45.284384], [19.142896, 45.284086], [19.142665, 45.284014], [19.140387, 45.281824]], [[19.894005, 45.28514], [19.895978, 45.284711], [19.8972, 45.285261], [19.900772, 45.283701], [19.906355, 45.281471], [19.911912, 45.279549], [19.917479, 45.277864], [19.921356, 45.27692], [19.921982, 45.277105], [19.924076, 45.276635], [19.924691, 45.276079], [19.929743, 45.274967], [19.953847, 45.269446], [19.966149, 45.266671], [19.972218, 45.265219], [19.978086, 45.263897], [19.983684, 45.26274], [19.988336, 45.261685], [19.990623, 45.261069], [19.996533, 45.259544], [19.99895, 45.259007], [20.001586, 45.258184], [20.007672, 45.25605], [20.011043, 45.254675], [20.016935, 45.252411], [20.023013, 45.249703], [20.026586, 45.247918], [20.027241, 45.248123], [20.02865, 45.248192], [20.032778, 45.248919], [20.040835, 45.249337], [20.046607, 45.247266], [20.052372, 45.245291], [20.058025, 45.243327], [20.06381, 45.241326], [20.10382, 45.229471], [20.105483, 45.229384], [20.111615, 45.228553], [20.11765, 45.226698], [20.123427, 45.224986], [20.136216, 45.221159], [20.145357, 45.218408], [20.153001, 45.216103], [20.158741, 45.214387], [20.164787, 45.212596], [20.170757, 45.210789], [20.177833, 45.208688], [20.182693, 45.207191], [20.18875, 45.205354], [20.194307, 45.203714], [20.205986, 45.200248], [20.211884, 45.198444], [20.228049, 45.194548], [20.24054, 45.190877], [20.251966, 45.187406], [20.263937, 45.183802], [20.282213, 45.179481], [20.286035, 45.173451], [20.286548, 45.172487], [20.324396, 45.125961], [20.331702, 45.120036], [20.359078, 45.091811], [20.365573, 45.087278], [20.37741, 45.079152], [20.378564, 45.079228], [20.381794, 45.077134], [20.400435, 45.07616], [20.401048, 45.076092], [20.414168, 45.074045], [20.419611, 45.072371], [20.425692, 45.07047], [20.438381, 45.065789], [20.465407, 45.055301], [20.467213, 45.054119], [20.495094, 45.035436], [20.540108, 45.005418]]]}}
]
}
