{
"type": "FeatureCollection",
"features": [
{"type": "Feature", "properties": {"ProjectID": "P0662"}, "geometry": {"type": "LineString", "coordinates": [[37.334868, 41.113965], [37.316489, 41.113827], [37.294068, 41.113134], [37.267235, 41.112442], [37.257127, 41.107872], [37.253267, 41.102748], [37.2439, 41.097356], [37.235586, 41.097106], [37.22694, 41.089838], [37.216631, 41.086078], [37.210313, 41.080815], [37.207653, 41.074297], [37.202332, 41.066274], [37.199671, 41.058251], [37.202481, 41.049165], [37.213693, 41.042986], [37.219731, 41.038757], [37.224043, 41.031926], [37.219299, 41.022816], [37.203774, 41.015007], [37.190837, 41.005896], [37.180487, 40.997759], [37.168843, 40.986692], [37.158924, 40.978227], [37.148574, 40.963249], [37.141243, 40.953153], [37.129168, 40.947942], [37.126498, 40.935287], [37.116335, 40.927609], [37.104266, 40.91705], [37.091563, 40.906969], [37.080129, 40.896407], [37.070999, 40.880055], [37.060533, 40.87135], [37.046928, 40.870162], [37.041171, 40.862248], [37.038555, 40.85077], [37.012913, 40.830975], [37.009774, 40.821868], [37.014483, 40.810383], [37.023902, 40.798499], [37.027042, 40.793349], [37.038555, 40.785822], [37.043265, 40.775519], [37.04245, 40.76347], [37.04057, 40.750177], [37.039943, 40.731657], [37.035556, 40.716932], [37.021141, 40.704105], [37.002338, 40.696503], [37.002338, 40.68082], [37.004219, 40.666084], [37.006726, 40.655624], [37.007352, 40.629944], [37.010486, 40.614721], [37.01362, 40.601398], [37.012993, 40.589976], [36.994817, 40.579505], [36.975388, 40.576649], [36.962858, 40.561986], [36.933164, 40.565209], [36.921044, 40.550015], [36.914378, 40.525606], [36.901046, 40.518696], [36.868927, 40.515011], [36.841657, 40.511786], [36.81681, 40.504874], [36.788328, 40.490589], [36.767118, 40.471229], [36.743632, 40.44435], [36.724536, 40.421509], [36.709986, 40.399352], [36.69089, 40.373031], [36.668156, 40.36056], [36.645422, 40.347393], [36.615413, 40.332837], [36.568127, 40.317585], [36.555396, 40.310651], [36.552668, 40.286377], [36.553577, 40.262094], [36.553099, 40.233936], [36.53304, 40.218621], [36.492921, 40.178614], [36.49515, 40.158176], [36.490692, 40.130916], [36.490692, 40.10194], [36.490692, 40.084889], [36.501836, 40.065276], [36.518073, 40.006496], [36.530492, 39.970022], [36.54705, 39.938289], [36.571888, 39.914479], [36.596726, 39.895426], [36.613285, 39.884309], [36.642263, 39.882721], [36.697239, 39.860485], [36.724537, 39.82695], [36.740916, 39.74514], [36.637183, 39.671638], [36.604425, 39.627499], [36.639913, 39.587539], [36.67813, 39.530715], [36.67267, 39.482273], [36.620804, 39.427471], [36.53345, 39.387396], [36.454285, 39.359963], [36.478861, 39.297405], [36.498238, 39.245972], [36.523153, 39.200937], [36.54253, 39.013834], [36.498238, 38.96004], [36.489933, 38.891125], [36.49547, 38.815673], [36.481629, 38.76173], [36.465019, 38.720705], [36.476665, 38.674126], [36.468544, 38.624023], [36.457175, 38.592295], [36.417841, 38.490347], [36.401088, 38.40375], [36.384334, 38.335449], [36.344127, 38.282866], [36.25701, 38.267083], [36.206751, 38.253929], [36.153141, 38.172317], [36.109583, 38.103798], [36.079775, 38.042], [36.070148, 37.985112], [36.058114, 37.941468], [36.005163, 37.890201], [35.942585, 37.861703], [35.911296, 37.819888], [35.875194, 37.768535], [35.843905, 37.648575], [35.788547, 37.532239], [35.798175, 37.453943], [35.86316, 37.452032], [35.901669, 37.463496], [35.997943, 37.455854], [36.0533, 37.413809], [36.074961, 37.388953], [36.094216, 37.364089], [36.099201, 37.313286], [36.078772, 37.248978], [36.011307, 37.149836], [35.957023, 37.079142], [35.900581, 37.015269], [35.88866, 36.965661], [35.883749, 36.929034], [35.901788, 36.910863], [35.914054, 36.903651], [35.918433, 36.893078]]}}
]
}
