{
"type": "FeatureCollection",
"features": [
{"type": "Feature", "properties": {"ProjectID": "P0664"}, "geometry": {"type": "MultiLineString", "coordinates": [[[13.027971, 46.664167], [13.02849, 46.664034], [13.028887, 46.66494], [13.03683, 46.656759], [13.045945, 46.652634], [13.046025, 46.652384], [13.046075, 46.652032], [13.049995, 46.650495], [13.061328, 46.647787], [13.064259, 46.649033], [13.066824, 46.648736], [13.069922, 46.648987], [13.069905, 46.649822], [13.070388, 46.649873], [13.07092, 46.649917], [13.072266, 46.650276], [13.079375, 46.649803], [13.083223, 46.64879], [13.090158, 46.648443], [13.091595, 46.64841], [13.092896, 46.647742], [13.093022, 46.647689], [13.097611, 46.646865], [13.102005, 46.645452], [13.103089, 46.6452], [13.103243, 46.645157], [13.103895, 46.644855], [13.10403, 46.644802], [13.10545, 46.644544], [13.10559, 46.644522], [13.107357, 46.644328], [13.107835, 46.644204], [13.108163, 46.644123], [13.108711, 46.644115], [13.110371, 46.644031], [13.111113, 46.643696], [13.112085, 46.64327], [13.11367, 46.641646], [13.113788, 46.641579], [13.115789, 46.641118], [13.115886, 46.641104], [13.117686, 46.641148], [13.117835, 46.641162], [13.118489, 46.641343], [13.118805, 46.641473], [13.119053, 46.641485], [13.121886, 46.640623], [13.122239, 46.640413], [13.123119, 46.639921], [13.125357, 46.63877], [13.126697, 46.637815], [13.126811, 46.63775], [13.126943, 46.6377], [13.130966, 46.637032], [13.133593, 46.637124], [13.13373, 46.637092], [13.136921, 46.635807], [13.137503, 46.635477], [13.137632, 46.635424], [13.140417, 46.635168], [13.140526, 46.635143], [13.142848, 46.6342], [13.143038, 46.634172], [13.144074, 46.634054], [13.146086, 46.633766], [13.149527, 46.633323], [13.150143, 46.633251], [13.15027, 46.633237], [13.151858, 46.63302], [13.152554, 46.632932], [13.154879, 46.632468], [13.156288, 46.632211], [13.156426, 46.632207], [13.158746, 46.633388], [13.158948, 46.633418], [13.160041, 46.633231], [13.161892, 46.632908], [13.163761, 46.632568], [13.165033, 46.63235], [13.167233, 46.631748], [13.167362, 46.631719], [13.169665, 46.63147], [13.171832, 46.631206], [13.172093, 46.631152], [13.17842, 46.629258], [13.180467, 46.628205], [13.181795, 46.627826], [13.18195, 46.627806], [13.184113, 46.628381], [13.184257, 46.628396], [13.187009, 46.627276], [13.192082, 46.626883], [13.196912, 46.626311], [13.203089, 46.625301], [13.203225, 46.625262], [13.203333, 46.625194], [13.2038, 46.624321], [13.203869, 46.624234], [13.203979, 46.624166], [13.209487, 46.623327], [13.210107, 46.623618], [13.213494, 46.62302], [13.213619, 46.622977], [13.214354, 46.622143], [13.214465, 46.622062], [13.214477, 46.622057], [13.215887, 46.621886], [13.215992, 46.621883], [13.217728, 46.62222], [13.228229, 46.622294], [13.228378, 46.622287], [13.234866, 46.620948], [13.235017, 46.620912], [13.237011, 46.620258], [13.238367, 46.620378], [13.238501, 46.620385], [13.241366, 46.619924], [13.241486, 46.619876], [13.242175, 46.618162], [13.242236, 46.618069], [13.242339, 46.617993], [13.245928, 46.617133], [13.246075, 46.617092], [13.248739, 46.615912], [13.252367, 46.614464], [13.255018, 46.614033], [13.258232, 46.613664], [13.259859, 46.613085], [13.260007, 46.613044], [13.263335, 46.612865], [13.266366, 46.612424], [13.266965, 46.612313], [13.267829, 46.612307], [13.269879, 46.611796], [13.270356, 46.61169], [13.270513, 46.611653], [13.272222, 46.611132], [13.272713, 46.610742], [13.272813, 46.610688], [13.274728, 46.610735], [13.277145, 46.610229], [13.277714, 46.60988], [13.278469, 46.609977], [13.278645, 46.60999], [13.287258, 46.608065], [13.287406, 46.608048], [13.28787, 46.608103], [13.288025, 46.60811], [13.289636, 46.607762], [13.289778, 46.607718], [13.291009, 46.606991], [13.292935, 46.606234], [13.293752, 46.606372], [13.293925, 46.6064], [13.296944, 46.606521], [13.297095, 46.606527], [13.301048, 46.606792], [13.30672, 46.608837], [13.308804, 46.609326], [13.313507, 46.609403], [13.313659, 46.609413], [13.320787, 46.611031], [13.320931, 46.611053], [13.328782, 46.610575], [13.32893, 46.610585], [13.330866, 46.61159], [13.337751, 46.612656], [13.337898, 46.612645], [13.338423, 46.612007], [13.338499, 46.611934], [13.338609, 46.611877], [13.346092, 46.610995], [13.346242, 46.610988], [13.349634, 46.611609], [13.349806, 46.611627], [13.350011, 46.611619], [13.356143, 46.610382], [13.356275, 46.610344], [13.360157, 46.606141], [13.36407, 46.604593], [13.36467, 46.604311], [13.365752, 46.604018], [13.366517, 46.603547], [13.366623, 46.603496], [13.367312, 46.603403], [13.368398, 46.603262], [13.373767, 46.603525], [13.373912, 46.603546], [13.377979, 46.605503], [13.379547, 46.605911], [13.383008, 46.606606], [13.385014, 46.606842], [13.385162, 46.606847], [13.390603, 46.605596], [13.396238, 46.605555], [13.398749, 46.60583], [13.39889, 46.605836], [13.405367, 46.60471], [13.415005, 46.60307], [13.417959, 46.601719], [13.42184, 46.601065], [13.423601, 46.601312], [13.425138, 46.600529], [13.425275, 46.600476], [13.442343, 46.599995], [13.44607, 46.599776], [13.451208, 46.600502], [13.45397, 46.600802], [13.454096, 46.600831], [13.455081, 46.601567], [13.455216, 46.601638], [13.458372, 46.601878], [13.459693, 46.601573], [13.459841, 46.60155], [13.460787, 46.601639], [13.462634, 46.601681], [13.466639, 46.602431], [13.466771, 46.602474], [13.468032, 46.603646], [13.47833, 46.606928], [13.478466, 46.606969], [13.478604, 46.607007], [13.488107, 46.609212], [13.488254, 46.60923], [13.488399, 46.609219], [13.496398, 46.605804], [13.501338, 46.603837], [13.502845, 46.603296], [13.505217, 46.602299], [13.508396, 46.601055], [13.508487, 46.600987], [13.517674, 46.590975], [13.517854, 46.590855], [13.51793, 46.590817], [13.520038, 46.590035], [13.52019, 46.589999], [13.521062, 46.590075], [13.523168, 46.589867], [13.523977, 46.589622], [13.525582, 46.589604], [13.525736, 46.589598], [13.526719, 46.589428], [13.526845, 46.589375], [13.527025, 46.588817], [13.532593, 46.587151], [13.532643, 46.587147], [13.533717, 46.586842], [13.533768, 46.58681], [13.536002, 46.58618], [13.53615, 46.586159], [13.536295, 46.586171], [13.537321, 46.586667], [13.537447, 46.586709], [13.542022, 46.586271], [13.549185, 46.585571], [13.558283, 46.583862], [13.56206, 46.58263], [13.564727, 46.581473], [13.569499, 46.581213], [13.571105, 46.581594], [13.571256, 46.581622], [13.572587, 46.581623], [13.581919, 46.580026], [13.592025, 46.577618], [13.594226, 46.576176], [13.594426, 46.57578], [13.596582, 46.574295], [13.599564, 46.573483], [13.599671, 46.572616], [13.599552, 46.571514], [13.599586, 46.571426], [13.600316, 46.571233], [13.601243, 46.57012], [13.602624, 46.570186], [13.606571, 46.570162], [13.606975, 46.57001], [13.607506, 46.569917], [13.608076, 46.570117], [13.608216, 46.570147], [13.608707, 46.570043], [13.613234, 46.569067], [13.616392, 46.568227], [13.618966, 46.567832], [13.620602, 46.567294], [13.623276, 46.566962], [13.624389, 46.566483], [13.625831, 46.566106], [13.628084, 46.564989], [13.630782, 46.564725], [13.630928, 46.564688], [13.631373, 46.564234], [13.631783, 46.563126], [13.631832, 46.562748], [13.63187, 46.562651], [13.633213, 46.561728], [13.633826, 46.560632], [13.634659, 46.560391], [13.63711, 46.559725], [13.638909, 46.559837], [13.644039, 46.558678], [13.652945, 46.559332], [13.660193, 46.560567], [13.660347, 46.560579], [13.66656, 46.559502], [13.669107, 46.55932], [13.669251, 46.559343], [13.670588, 46.561437], [13.670676, 46.561523], [13.674432, 46.56239], [13.674568, 46.562437], [13.674627, 46.562469], [13.675372, 46.563266], [13.675456, 46.563336], [13.67556, 46.563386], [13.676579, 46.563548], [13.676784, 46.56359], [13.682239, 46.565756], [13.686684, 46.567528], [13.687954, 46.569317], [13.688061, 46.569386], [13.689954, 46.568878], [13.692457, 46.567087], [13.692552, 46.567036], [13.693733, 46.566938], [13.693851, 46.56694], [13.695348, 46.567336], [13.698173, 46.568159], [13.698928, 46.567997], [13.700292, 46.567729], [13.700525, 46.56773], [13.709454, 46.568883], [13.711481, 46.568489], [13.711768, 46.569038], [13.719345, 46.569294], [13.720715, 46.569054], [13.721873, 46.569198], [13.722019, 46.569213], [13.724237, 46.569181], [13.73109, 46.568558], [13.731247, 46.568532], [13.739222, 46.565081], [13.739346, 46.565023], [13.739461, 46.564961], [13.747386, 46.559672], [13.7475, 46.559607], [13.747552, 46.559585], [13.747652, 46.559551], [13.747706, 46.559537], [13.758603, 46.558292], [13.758775, 46.558235], [13.759156, 46.557676], [13.759206, 46.557614], [13.759337, 46.557521], [13.75951, 46.557463], [13.759685, 46.557451], [13.761375, 46.55794], [13.764252, 46.557636], [13.766751, 46.557372], [13.770786, 46.556882], [13.770935, 46.556882], [13.771344, 46.557024], [13.771432, 46.557037], [13.771888, 46.556843], [13.774296, 46.556131], [13.775729, 46.555277], [13.775856, 46.555225], [13.775869, 46.555222], [13.77801, 46.555294], [13.778481, 46.55547], [13.778602, 46.55551], [13.779783, 46.555594], [13.780577, 46.555378], [13.780703, 46.555321], [13.781095, 46.554847], [13.781171, 46.554776], [13.781647, 46.554586], [13.781852, 46.554541], [13.788971, 46.555635], [13.789115, 46.555625], [13.789704, 46.554965], [13.791214, 46.553115], [13.791302, 46.553036], [13.792467, 46.552566], [13.792611, 46.552525], [13.792763, 46.552509], [13.798757, 46.553386], [13.798879, 46.553398], [13.799745, 46.553359], [13.800384, 46.553624], [13.805352, 46.554934], [13.822214, 46.55757], [13.82237, 46.557583], [13.824295, 46.557341], [13.824456, 46.557332], [13.824729, 46.557362], [13.824857, 46.557395], [13.826018, 46.558114], [13.826147, 46.558177], [13.829376, 46.558692], [13.829514, 46.558729], [13.829631, 46.558796], [13.831375, 46.561566], [13.833128, 46.563236], [13.83323, 46.563302], [13.834364, 46.563444], [13.836203, 46.564082], [13.837377, 46.564495], [13.838846, 46.564313], [13.839385, 46.564388], [13.840134, 46.564383], [13.840289, 46.564394], [13.845497, 46.566602], [13.845618, 46.566641], [13.847158, 46.566704], [13.847315, 46.566726], [13.84898, 46.567623], [13.849113, 46.567673], [13.849809, 46.567687], [13.851019, 46.567417], [13.852063, 46.567183], [13.852221, 46.567164], [13.852347, 46.567174], [13.85238, 46.567179], [13.852767, 46.567354], [13.854717, 46.568236], [13.85536, 46.568412], [13.855974, 46.568378], [13.856111, 46.568367], [13.856252, 46.56836], [13.856393, 46.568359], [13.857166, 46.569102], [13.857625, 46.569744], [13.857742, 46.569843], [13.861418, 46.570365], [13.861552, 46.570413], [13.862573, 46.573401], [13.862627, 46.5735], [13.862719, 46.573586], [13.86664, 46.575156], [13.87141, 46.577392], [13.873042, 46.579126], [13.882817, 46.585982], [13.883668, 46.586575], [13.883783, 46.586642], [13.88537, 46.587152], [13.885872, 46.587249], [13.886622, 46.587394], [13.887645, 46.587442], [13.888553, 46.587707], [13.889064, 46.589367], [13.889229, 46.589496], [13.891535, 46.591588], [13.894106, 46.592786], [13.894535, 46.593009], [13.895359, 46.593077], [13.901404, 46.594361], [13.90381, 46.595467], [13.906049, 46.596215], [13.906219, 46.596238], [13.908549, 46.595255], [13.908677, 46.595211], [13.908816, 46.595187], [13.909399, 46.595204], [13.90958, 46.595233], [13.91061, 46.595761], [13.910745, 46.595798], [13.912308, 46.595274], [13.912456, 46.595239], [13.913002, 46.59526], [13.913112, 46.59526], [13.913251, 46.595238], [13.914235, 46.594784], [13.91521, 46.594794], [13.915317, 46.594805], [13.91574, 46.594931], [13.916082, 46.595013], [13.918716, 46.595157], [13.920432, 46.594882], [13.920933, 46.594783], [13.921394, 46.59456], [13.922624, 46.593803], [13.924349, 46.592909], [13.924925, 46.59261], [13.925611, 46.592427], [13.925756, 46.592402], [13.927399, 46.592403], [13.927546, 46.592416], [13.928519, 46.592762], [13.930877, 46.593148], [13.932358, 46.593508], [13.932505, 46.593519], [13.93264, 46.593485], [13.933749, 46.592217], [13.933979, 46.591745], [13.935467, 46.589771], [13.937042, 46.588441], [13.937943, 46.586756], [13.938007, 46.586672], [13.93808, 46.586617], [13.943498, 46.584546], [13.945341, 46.584873], [13.945501, 46.58489], [13.946168, 46.584797], [13.946334, 46.584798], [13.947202, 46.585284], [13.948001, 46.585522], [13.948151, 46.585544], [13.948303, 46.585533], [13.949111, 46.585168], [13.94942, 46.584815], [13.949505, 46.584783], [13.949589, 46.58472], [13.949933, 46.584625], [13.950105, 46.584567], [13.95048, 46.584258], [13.950558, 46.584211], [13.952316, 46.584224], [13.952451, 46.584054], [13.95256, 46.583917], [13.952777, 46.583764], [13.953682, 46.583599], [13.954906, 46.58291], [13.95503, 46.582862], [13.955142, 46.582851], [13.956219, 46.58318], [13.956959, 46.583285], [13.957926, 46.583173], [13.959345, 46.583086], [13.960253, 46.583125], [13.96167, 46.583454], [13.962469, 46.583562], [13.963679, 46.583702], [13.964607, 46.583917], [13.965313, 46.583926], [13.96546, 46.583927], [13.965604, 46.583942], [13.965742, 46.583972], [13.966393, 46.584219], [13.966512, 46.584286], [13.966841, 46.584849], [13.966933, 46.584937], [13.96751, 46.585006], [13.968196, 46.584935], [13.968924, 46.584998], [13.970182, 46.585265], [13.971681, 46.585568], [13.972546, 46.585707], [13.973514, 46.585951], [13.97599, 46.586358], [13.97614, 46.586365], [13.9773, 46.586], [13.977453, 46.585934], [13.979643, 46.583964], [13.979708, 46.583875], [13.979682, 46.583419], [13.979701, 46.58331], [13.979777, 46.583214], [13.980691, 46.582856], [13.981207, 46.582597], [13.982036, 46.582166], [13.982935, 46.580677], [13.983419, 46.579962], [13.984261, 46.579559], [13.986204, 46.578667], [13.987022, 46.578383], [13.987798, 46.578113], [13.988048, 46.578032], [13.988153, 46.578045], [13.988461, 46.577954], [13.988515, 46.577885], [13.989183, 46.577645], [13.989805, 46.577415], [13.990792, 46.577312], [13.991878, 46.577029], [13.993387, 46.576491], [13.994789, 46.576123], [13.994918, 46.576066], [13.995069, 46.575872], [13.994966, 46.57394], [13.995399, 46.573403], [13.997803, 46.572693], [13.998859, 46.572492], [13.999895, 46.572165], [14.00245, 46.571023], [14.004548, 46.570953], [14.006281, 46.571298], [14.007515, 46.570464], [14.01122, 46.56996], [14.018962, 46.567603], [14.021688, 46.565987], [14.021804, 46.565926], [14.030217, 46.562789], [14.030359, 46.562754], [14.034666, 46.563148], [14.036284, 46.563423], [14.036421, 46.56347], [14.036663, 46.563738], [14.036746, 46.563806], [14.036773, 46.563818], [14.039124, 46.563989], [14.039285, 46.563981], [14.055575, 46.556976], [14.055718, 46.556944], [14.057337, 46.557378], [14.057472, 46.557395], [14.060934, 46.556208], [14.06836, 46.552945], [14.072348, 46.551356], [14.072793, 46.550848], [14.072905, 46.550752], [14.073468, 46.55059], [14.074364, 46.550153], [14.076957, 46.548055], [14.085901, 46.534904], [14.087323, 46.532554], [14.0874, 46.532458], [14.08929, 46.531312], [14.089417, 46.531254], [14.099664, 46.529663], [14.099799, 46.529625], [14.09991, 46.529555], [14.10047, 46.52836], [14.101082, 46.52805], [14.103497, 46.528375], [14.104775, 46.528375], [14.105705, 46.528517], [14.10806, 46.52908], [14.111355, 46.529782], [14.119565, 46.530904], [14.122557, 46.531543], [14.12271, 46.531554], [14.128058, 46.529613], [14.128181, 46.529552], [14.128762, 46.528949], [14.128869, 46.528868], [14.132914, 46.527936], [14.138674, 46.527722], [14.140349, 46.527068], [14.143601, 46.526825], [14.151777, 46.52698], [14.151922, 46.527005], [14.152037, 46.527068], [14.152373, 46.527852], [14.152439, 46.527954], [14.152546, 46.528036], [14.152574, 46.52805], [14.152685, 46.528092], [14.155764, 46.528238], [14.160383, 46.52822], [14.162657, 46.528783], [14.166232, 46.529046], [14.168454, 46.528956], [14.172415, 46.529409], [14.172556, 46.529446], [14.172946, 46.529772], [14.174525, 46.530366], [14.174693, 46.530509], [14.174746, 46.530586], [14.174835, 46.530826], [14.174913, 46.530944], [14.175265, 46.531135], [14.175395, 46.531168], [14.175524, 46.531155], [14.17569, 46.531138], [14.176588, 46.531527], [14.178069, 46.531959], [14.179079, 46.532167], [14.179222, 46.53218], [14.180763, 46.531874], [14.180917, 46.531834], [14.181972, 46.531379], [14.182095, 46.531338], [14.18403, 46.531195], [14.184182, 46.531177], [14.189365, 46.52978], [14.19209, 46.53004], [14.200083, 46.530926], [14.215529, 46.532375], [14.215677, 46.53237], [14.215784, 46.53234], [14.215896, 46.532271], [14.216022, 46.532043], [14.216057, 46.531986], [14.2161, 46.531947], [14.216167, 46.531907], [14.216247, 46.531879], [14.222524, 46.531497], [14.222681, 46.531467], [14.222813, 46.531402], [14.223056, 46.53108], [14.223123, 46.53101], [14.223218, 46.530957], [14.223332, 46.530927], [14.240094, 46.532018], [14.240247, 46.53201], [14.240669, 46.531827], [14.240801, 46.531775], [14.240947, 46.531743], [14.246838, 46.531667], [14.254011, 46.531691], [14.254153, 46.53171], [14.25472, 46.532057], [14.254854, 46.53211], [14.267564, 46.530515], [14.267717, 46.530508], [14.267867, 46.530527], [14.270208, 46.531464], [14.27033, 46.531526], [14.270432, 46.531604], [14.270512, 46.531696], [14.27057, 46.531758], [14.270651, 46.531808], [14.272727, 46.532609], [14.272991, 46.533062], [14.273672, 46.534276], [14.273761, 46.53439], [14.273887, 46.534486], [14.274045, 46.534559], [14.278773, 46.535302], [14.27892, 46.535333], [14.281044, 46.536222], [14.281175, 46.536266], [14.283308, 46.536547], [14.283458, 46.536573], [14.283506, 46.536585], [14.283604, 46.536611], [14.285739, 46.537494], [14.285899, 46.537524], [14.285936, 46.537522], [14.28602, 46.537476], [14.288112, 46.53631], [14.288159, 46.536286], [14.288281, 46.536241], [14.288417, 46.536216], [14.288555, 46.536213], [14.28971, 46.536455], [14.28984, 46.536481], [14.291536, 46.536729], [14.291695, 46.536763], [14.29184, 46.536813], [14.301642, 46.542827], [14.301764, 46.542889], [14.301899, 46.542933], [14.302816, 46.543047], [14.302973, 46.543061], [14.30674, 46.543142], [14.306819, 46.543141], [14.308297, 46.542864], [14.30846, 46.542837], [14.30862, 46.542821], [14.314051, 46.542744], [14.314203, 46.542732], [14.314349, 46.542698], [14.314479, 46.542648], [14.315443, 46.541967], [14.315568, 46.54191], [14.317476, 46.542066], [14.317623, 46.542083], [14.317767, 46.542106], [14.320245, 46.542631], [14.320373, 46.542655], [14.327825, 46.543368], [14.329533, 46.543166], [14.32968, 46.543141], [14.332161, 46.5424], [14.331922, 46.541317], [14.331921, 46.541211], [14.331978, 46.541112], [14.332082, 46.541038], [14.338551, 46.539945], [14.34554, 46.537543], [14.345665, 46.537517], [14.345817, 46.537524], [14.346669, 46.537962], [14.34978, 46.53842], [14.349927, 46.538421], [14.350794, 46.538085], [14.351762, 46.537569], [14.351895, 46.537515], [14.353483, 46.537338], [14.353633, 46.53735], [14.353833, 46.537517], [14.354702, 46.53824], [14.354777, 46.538294], [14.354897, 46.538345], [14.355033, 46.538372], [14.355743, 46.53835], [14.355897, 46.538354], [14.360787, 46.539452], [14.364863, 46.539613], [14.365012, 46.539645], [14.366181, 46.540955], [14.366274, 46.541027], [14.373387, 46.542356], [14.39025, 46.544387], [14.392437, 46.544233], [14.398296, 46.544886], [14.401352, 46.544701], [14.401499, 46.544723], [14.401883, 46.545179], [14.401972, 46.545265], [14.402093, 46.545328], [14.403123, 46.545487], [14.405145, 46.546111], [14.40858, 46.547755], [14.408711, 46.547787], [14.409619, 46.547498], [14.409728, 46.547446], [14.410319, 46.546864], [14.410384, 46.546777], [14.410426, 46.546575], [14.410453, 46.546474], [14.411057, 46.54567], [14.411926, 46.545057], [14.412032, 46.54501], [14.413794, 46.545295], [14.41395, 46.545315], [14.420595, 46.545183], [14.423864, 46.545654], [14.424015, 46.545669], [14.431076, 46.545295], [14.434713, 46.545372], [14.434842, 46.545351], [14.435634, 46.544511], [14.436678, 46.543882], [14.438609, 46.543183], [14.438736, 46.543126], [14.44269, 46.539894], [14.442801, 46.539827], [14.450692, 46.538385], [14.450846, 46.538367], [14.450996, 46.538365], [14.460872, 46.539927], [14.461009, 46.539974], [14.461099, 46.540059], [14.461089, 46.540658], [14.461126, 46.540749], [14.463083, 46.541292], [14.463477, 46.541463], [14.463599, 46.541527], [14.464327, 46.542041], [14.464389, 46.542101], [14.46451, 46.54308], [14.464529, 46.543175], [14.465011, 46.54406], [14.465188, 46.544249], [14.465784, 46.545069], [14.465813, 46.545105], [14.46669, 46.545671], [14.468258, 46.546782], [14.469906, 46.547727], [14.470022, 46.547778], [14.47119, 46.547949], [14.473187, 46.548921], [14.473654, 46.548958], [14.47381, 46.548977], [14.473874, 46.548997], [14.477163, 46.551366], [14.479633, 46.552688], [14.47977, 46.552737], [14.48299, 46.552605], [14.486706, 46.552802], [14.490381, 46.553313], [14.491703, 46.553655], [14.493446, 46.554761], [14.495952, 46.556617], [14.496087, 46.556677], [14.499714, 46.556321], [14.499853, 46.556331], [14.499971, 46.556391], [14.500867, 46.558327], [14.501492, 46.559277], [14.503424, 46.560561], [14.503543, 46.560638], [14.503589, 46.560755], [14.503177, 46.561272], [14.503019, 46.561643], [14.502947, 46.562034], [14.502977, 46.562136], [14.503967, 46.56309], [14.50411, 46.563643], [14.504151, 46.563727], [14.505293, 46.564383], [14.505871, 46.565583], [14.505498, 46.565877], [14.50562, 46.568135], [14.505631, 46.568239], [14.505719, 46.568744], [14.505782, 46.568836], [14.50682, 46.568997], [14.506943, 46.569026], [14.509545, 46.570923], [14.511613, 46.573965], [14.513142, 46.576792], [14.513171, 46.57689], [14.512704, 46.57799], [14.51268, 46.57809], [14.514319, 46.582723], [14.521695, 46.590948], [14.521801, 46.591021], [14.523708, 46.591171], [14.52383, 46.591198], [14.527146, 46.594933], [14.529916, 46.601829], [14.529994, 46.601921], [14.533415, 46.60262], [14.533557, 46.60265], [14.542736, 46.605133], [14.545179, 46.60622], [14.5453, 46.606288], [14.546162, 46.607286], [14.546248, 46.607368], [14.546724, 46.607652], [14.548229, 46.60883], [14.54831, 46.608904], [14.549569, 46.610912], [14.552703, 46.612958], [14.552924, 46.613065], [14.552959, 46.613077], [14.563371, 46.614495], [14.567687, 46.614993], [14.567842, 46.615041], [14.569311, 46.617271], [14.569443, 46.617357], [14.578032, 46.618274], [14.578194, 46.618255], [14.578786, 46.617698], [14.578896, 46.617632], [14.582456, 46.617919], [14.582599, 46.617911], [14.582733, 46.617863], [14.582927, 46.617635], [14.583014, 46.61756], [14.583141, 46.617518], [14.58538, 46.61785], [14.588084, 46.618549], [14.588233, 46.618579], [14.58974, 46.618649], [14.591933, 46.619129], [14.592064, 46.619181], [14.592154, 46.619265], [14.592193, 46.619674], [14.592229, 46.619774], [14.594387, 46.620919], [14.596349, 46.621048], [14.596458, 46.621062], [14.597515, 46.621515], [14.597664, 46.621553], [14.599357, 46.621242], [14.603661, 46.620682], [14.603804, 46.620685], [14.604102, 46.620831], [14.60422, 46.620879], [14.611648, 46.62081], [14.612094, 46.620875], [14.612243, 46.620909], [14.612423, 46.620976], [14.612505, 46.622993], [14.612659, 46.623664], [14.612602, 46.623916], [14.612596, 46.624033], [14.612723, 46.62432], [14.613916, 46.624345], [14.614393, 46.625239], [14.614476, 46.625325], [14.61571, 46.625538], [14.627253, 46.62829], [14.636788, 46.628061], [14.636936, 46.628039], [14.637898, 46.627502], [14.638009, 46.627402], [14.638086, 46.626193], [14.638135, 46.626068], [14.638265, 46.625974], [14.641505, 46.625776], [14.641701, 46.62579], [14.642513, 46.626044], [14.642654, 46.626062], [14.64278, 46.626036], [14.643153, 46.625696], [14.647744, 46.624142], [14.655749, 46.621087], [14.655891, 46.621042], [14.661572, 46.620217], [14.661702, 46.620211], [14.661883, 46.620245], [14.662803, 46.620947], [14.662958, 46.621022], [14.663146, 46.621035], [14.664128, 46.620562], [14.664395, 46.620222], [14.664493, 46.620106], [14.665164, 46.619703], [14.667984, 46.619294], [14.671922, 46.618623], [14.679268, 46.617593], [14.688515, 46.617331], [14.69375, 46.616977], [14.696911, 46.616771], [14.697064, 46.616737], [14.697181, 46.616662], [14.697281, 46.616404], [14.69734, 46.61631], [14.697452, 46.616245], [14.701682, 46.616222], [14.719155, 46.616367], [14.719302, 46.616341], [14.719902, 46.615695], [14.719981, 46.615626], [14.7201, 46.615565], [14.730074, 46.614191], [14.730229, 46.614179], [14.73165, 46.614289], [14.733326, 46.614249], [14.736357, 46.613756], [14.738436, 46.61362], [14.738577, 46.613614], [14.739468, 46.61363], [14.742491, 46.613448], [14.752868, 46.612758], [14.75301, 46.612724], [14.753343, 46.612433], [14.753458, 46.612363], [14.765171, 46.61157], [14.76859, 46.612442], [14.774423, 46.616153], [14.778129, 46.621445], [14.784785, 46.627095], [14.786037, 46.62777], [14.786115, 46.627881], [14.78612, 46.628043], [14.786124, 46.628322], [14.786368, 46.628548], [14.786375, 46.628667], [14.786421, 46.628754], [14.786507, 46.628826], [14.787006, 46.628883], [14.787155, 46.628912], [14.787876, 46.629401], [14.787999, 46.629462], [14.801758, 46.630625], [14.801945, 46.630615], [14.80275, 46.630238], [14.802757, 46.630234], [14.804968, 46.630524], [14.805146, 46.630584], [14.805464, 46.630979], [14.805568, 46.631047], [14.812614, 46.632498], [14.81277, 46.632507], [14.813409, 46.63228], [14.813541, 46.632252], [14.82128, 46.634231], [14.822828, 46.634042], [14.823517, 46.634182], [14.825686, 46.635038], [14.828953, 46.635529], [14.829094, 46.635575], [14.829694, 46.636437], [14.829393, 46.641568], [14.829416, 46.641671], [14.831283, 46.64307], [14.831406, 46.643129], [14.837247, 46.643027], [14.837398, 46.643047], [14.837521, 46.643111], [14.837738, 46.643612], [14.837809, 46.643706], [14.837932, 46.643768], [14.839792, 46.64372], [14.84108, 46.643746], [14.846856, 46.644819], [14.855077, 46.646543], [14.865114, 46.649227], [14.868219, 46.649629], [14.871016, 46.649526], [14.871798, 46.649581], [14.873237, 46.649876], [14.874087, 46.650366], [14.875674, 46.650662], [14.875795, 46.650657], [14.876717, 46.649841], [14.876826, 46.649762], [14.881471, 46.64828], [14.882698, 46.64784], [14.883995, 46.647395], [14.884235, 46.64723], [14.884347, 46.647161], [14.884655, 46.647101], [14.884772, 46.647113], [14.884802, 46.647126], [14.885908, 46.648942], [14.885991, 46.649023], [14.886065, 46.649056], [14.886661, 46.649067], [14.891764, 46.65304], [14.8948, 46.655654], [14.894918, 46.655722], [14.9038, 46.656291], [14.908012, 46.655881], [14.908164, 46.655889], [14.909027, 46.656383], [14.909809, 46.656605], [14.909956, 46.656615], [14.909997, 46.656608], [14.910687, 46.656122], [14.910815, 46.656062], [14.913715, 46.656297], [14.914597, 46.656529], [14.915993, 46.656898], [14.91614, 46.656928], [14.916443, 46.656934], [14.920473, 46.657018], [14.921504, 46.656642], [14.924697, 46.656503], [14.928638, 46.656944], [14.928786, 46.656965], [14.929427, 46.657099], [14.929782, 46.657283], [14.929905, 46.657335], [14.931437, 46.657371], [14.933102, 46.658546], [14.933407, 46.658743], [14.93361, 46.658873], [14.933985, 46.659135], [14.934163, 46.659186], [14.935295, 46.659892], [14.935733, 46.660004], [14.935871, 46.66005], [14.936068, 46.660224], [14.938426, 46.661392], [14.938519, 46.661479], [14.938431, 46.66175], [14.938414, 46.661825], [14.938444, 46.661908], [14.940225, 46.662989], [14.942015, 46.665472], [14.946635, 46.667924], [14.94677, 46.667974], [14.947757, 46.668014], [14.951728, 46.668756], [14.953662, 46.669894], [14.954081, 46.670287], [14.956528, 46.671335], [14.956518, 46.672339], [14.956531, 46.672427], [14.957104, 46.672998], [14.957371, 46.672866], [14.957477, 46.672834], [14.958625, 46.672964], [14.958775, 46.672993], [14.961645, 46.674097], [14.961779, 46.674143], [14.964917, 46.674893], [14.965058, 46.674917], [14.965202, 46.674923], [14.965629, 46.674873], [14.965778, 46.674868], [14.966911, 46.675176], [14.967051, 46.675193], [14.969086, 46.674515], [14.969814, 46.674032], [14.969893, 46.673996], [14.970005, 46.673988], [14.970801, 46.674282], [14.97551, 46.675567], [14.976959, 46.675798], [14.978851, 46.675912], [14.980388, 46.676601], [14.980973, 46.676894], [14.981457, 46.677243], [14.982524, 46.678104], [14.984539, 46.679465], [14.988201, 46.681789], [14.988309, 46.681868], [14.989014, 46.68267], [14.99506, 46.686352], [14.995176, 46.68642], [14.998121, 46.688015], [15.000578, 46.688862], [15.000722, 46.688896], [15.007346, 46.688558], [15.007502, 46.688556], [15.012074, 46.68905], [15.016625, 46.688405], [15.019648, 46.688191], [15.020409, 46.688137], [15.020559, 46.688133], [15.021971, 46.688278], [15.022978, 46.688758], [15.025058, 46.689749], [15.025186, 46.689796], [15.029548, 46.690219], [15.029696, 46.690202], [15.029807, 46.690131], [15.029897, 46.689997], [15.030046, 46.689468], [15.030093, 46.689377], [15.030747, 46.688921], [15.0327, 46.688287], [15.0367, 46.687993], [15.03833, 46.688179], [15.039605, 46.688533], [15.039743, 46.688561], [15.041404, 46.688627], [15.043827, 46.688893], [15.046655, 46.688415], [15.046801, 46.688383], [15.048251, 46.687857], [15.051244, 46.687235], [15.051394, 46.687229], [15.054172, 46.688668], [15.054313, 46.688708], [15.056295, 46.688177], [15.059075, 46.686912], [15.05921, 46.686871], [15.059358, 46.686865], [15.061766, 46.687655], [15.061886, 46.687714], [15.06323, 46.689597], [15.063313, 46.689688], [15.068113, 46.692392], [15.073398, 46.694423], [15.073536, 46.69446], [15.077254, 46.694186], [15.079153, 46.694062], [15.079309, 46.694075], [15.080623, 46.694904], [15.084325, 46.696765], [15.084428, 46.696844], [15.084656, 46.698276], [15.084629, 46.698382], [15.083845, 46.698781], [15.08355, 46.699129], [15.083498, 46.699222], [15.083447, 46.699715], [15.08376, 46.700305], [15.084129, 46.701228], [15.083895, 46.702196], [15.084421, 46.704859], [15.084476, 46.704957], [15.086688, 46.705872], [15.087298, 46.706683], [15.087971, 46.708431], [15.090266, 46.710549], [15.090326, 46.710642], [15.090237, 46.710984], [15.090243, 46.711076], [15.090699, 46.711369], [15.091287, 46.711966], [15.092347, 46.712353], [15.092476, 46.712387], [15.096816, 46.712687], [15.0979, 46.712484], [15.09934, 46.712022], [15.10016, 46.711577], [15.100894, 46.711276], [15.101666, 46.710727], [15.102274, 46.710331], [15.102839, 46.70989], [15.105019, 46.709501], [15.106731, 46.709291], [15.10751, 46.709495], [15.108376, 46.709947], [15.108514, 46.710641], [15.108554, 46.71074], [15.110811, 46.712121], [15.111729, 46.712274], [15.115054, 46.711481], [15.116058, 46.711389], [15.11824, 46.710993], [15.119763, 46.710261], [15.119907, 46.710217], [15.123867, 46.710651], [15.124014, 46.710661], [15.129107, 46.710254], [15.130733, 46.709929], [15.130873, 46.709913], [15.131431, 46.709977], [15.131568, 46.709979], [15.132579, 46.709633], [15.133489, 46.709471], [15.133647, 46.709474], [15.134177, 46.70984], [15.134277, 46.709894], [15.135875, 46.71004], [15.13602, 46.710071], [15.137403, 46.711096], [15.13867, 46.711379], [15.138796, 46.711418], [15.139105, 46.71161], [15.139268, 46.711682], [15.140163, 46.7117], [15.140784, 46.711921], [15.14113, 46.712201], [15.14148, 46.712302], [15.146467, 46.712659], [15.146617, 46.71266], [15.148115, 46.712408], [15.148182, 46.712399], [15.148329, 46.712393], [15.149214, 46.712483], [15.152314, 46.712292], [15.152472, 46.712283], [15.153507, 46.712255], [15.154183, 46.712452], [15.154285, 46.712473], [15.154319, 46.712475], [15.155754, 46.712104], [15.155886, 46.712056], [15.156816, 46.711428], [15.15694, 46.711381], [15.15753, 46.711497], [15.157649, 46.711512], [15.157802, 46.711492], [15.158529, 46.710997], [15.158643, 46.710941], [15.159909, 46.71087], [15.160059, 46.71088], [15.161092, 46.711318], [15.162861, 46.712238], [15.162968, 46.712315], [15.163332, 46.712981], [15.163379, 46.713045], [15.163474, 46.713113], [15.163596, 46.713156], [15.16459, 46.713183], [15.166485, 46.713334], [15.166638, 46.713348], [15.168045, 46.713525], [15.168169, 46.713552], [15.169133, 46.714078], [15.169246, 46.714155], [15.169334, 46.714245], [15.17042, 46.716601], [15.170772, 46.7172], [15.171058, 46.717431], [15.171153, 46.717509], [15.173657, 46.718391], [15.175223, 46.719305], [15.175342, 46.719367], [15.178035, 46.720334], [15.178175, 46.720366], [15.178641, 46.720327], [15.179808, 46.720514], [15.179845, 46.720529], [15.179867, 46.720648], [15.179889, 46.72073], [15.181217, 46.721789], [15.18133, 46.721835], [15.181417, 46.721837], [15.182265, 46.721584], [15.183671, 46.720718], [15.183803, 46.720673], [15.185576, 46.72114], [15.186182, 46.721606], [15.1863, 46.721681], [15.188608, 46.72226], [15.189376, 46.722499], [15.190026, 46.722749], [15.190154, 46.722808], [15.190474, 46.723033], [15.191281, 46.72339], [15.192368, 46.723718], [15.193305, 46.723899], [15.194942, 46.724077], [15.195088, 46.72411], [15.195854, 46.724646], [15.196702, 46.725338], [15.197517, 46.726552], [15.197572, 46.726607], [15.198097, 46.726866], [15.198489, 46.727211], [15.199273, 46.731297], [15.199302, 46.731398], [15.199508, 46.731747], [15.199534, 46.73252], [15.20049, 46.734501], [15.200795, 46.73554], [15.20081, 46.735641], [15.200722, 46.736098], [15.200716, 46.736215], [15.202135, 46.73906], [15.202495, 46.739554], [15.202563, 46.739629], [15.202679, 46.739716], [15.203703, 46.740131], [15.2045, 46.742748], [15.204552, 46.742847], [15.205113, 46.743485], [15.205674, 46.74406], [15.205745, 46.744141], [15.206354, 46.745121], [15.206441, 46.745203], [15.207076, 46.745344], [15.207204, 46.745387], [15.207673, 46.745844], [15.208356, 46.746281], [15.209441, 46.747318], [15.210231, 46.748434], [15.211816, 46.751097], [15.215846, 46.753558], [15.216041, 46.753896], [15.216097, 46.753969], [15.220645, 46.756569], [15.226107, 46.760907], [15.227375, 46.761758], [15.234906, 46.768588], [15.235277, 46.769715], [15.236247, 46.770045], [15.239686, 46.773862], [15.243536, 46.776334], [15.24888, 46.779971], [15.249634, 46.780847], [15.250703, 46.78131], [15.254921, 46.781676], [15.255728, 46.78198], [15.257228, 46.782099], [15.257829, 46.782083], [15.25905, 46.782393], [15.261275, 46.782834], [15.261634, 46.783809], [15.263018, 46.784425], [15.264259, 46.784565], [15.264819, 46.785969], [15.265273, 46.78605], [15.266146, 46.786224], [15.266881, 46.786917], [15.266979, 46.787346], [15.266821, 46.78803], [15.267573, 46.790231], [15.267662, 46.790945], [15.268147, 46.791294], [15.268617, 46.791927], [15.270263, 46.792823], [15.270679, 46.794082], [15.271293, 46.79541], [15.27256, 46.79612], [15.279411, 46.797039], [15.283412, 46.796337], [15.286453, 46.796884], [15.287779, 46.796562], [15.291808, 46.797917], [15.295347, 46.798224], [15.298678, 46.798971], [15.305007, 46.800126], [15.307286, 46.800875], [15.309153, 46.801895], [15.309429, 46.802046], [15.314879, 46.805911], [15.31587, 46.807554], [15.315991, 46.807586], [15.316635, 46.807758], [15.316593, 46.80952], [15.31797, 46.81035], [15.31919, 46.810653], [15.32002, 46.810838], [15.320442, 46.811327], [15.321399, 46.811587], [15.322626, 46.812589], [15.325701, 46.815168], [15.343253, 46.817829], [15.346602, 46.819475], [15.349685, 46.822292], [15.361241, 46.825761], [15.37259, 46.830602], [15.380779, 46.833245], [15.380074, 46.835061], [15.381634, 46.835632], [15.383774, 46.83638], [15.390451, 46.838357], [15.391489, 46.840581], [15.391654, 46.840745], [15.391723, 46.840793], [15.391766, 46.840814], [15.39266, 46.841149], [15.392711, 46.841177], [15.392753, 46.841211], [15.392801, 46.84126], [15.392831, 46.84131], [15.392851, 46.84138], [15.392854, 46.841421], [15.392712, 46.843339], [15.393292, 46.844778], [15.399357, 46.846396], [15.407931, 46.847169], [15.409574, 46.847087], [15.410191, 46.847269], [15.411671, 46.848689], [15.412247, 46.848921], [15.412941, 46.848936], [15.413122, 46.848907], [15.413896, 46.84837], [15.414048, 46.848294], [15.416903, 46.848204], [15.418738, 46.848318], [15.419518, 46.848184], [15.430906, 46.849952], [15.431759, 46.850458], [15.433215, 46.85105], [15.435153, 46.851363], [15.435341, 46.851363], [15.435512, 46.85131], [15.435997, 46.850773], [15.437522, 46.851], [15.443317, 46.852002], [15.445324, 46.852773], [15.454752, 46.856033], [15.463093, 46.859043], [15.468755, 46.861036], [15.477439, 46.861633], [15.483079, 46.861476], [15.486455, 46.86169], [15.487837, 46.861728], [15.487963, 46.861756], [15.489815, 46.862665], [15.49337, 46.863444], [15.499055, 46.86132], [15.49976, 46.861798], [15.499799, 46.86181], [15.501392, 46.860954], [15.504353, 46.859641], [15.510003, 46.86326], [15.511592, 46.863847], [15.51439, 46.864929], [15.515887, 46.865186], [15.516942, 46.866096], [15.519417, 46.867507], [15.521141, 46.868056], [15.522297, 46.868477], [15.523305, 46.868942], [15.524409, 46.86941], [15.52583, 46.869644], [15.526592, 46.870785], [15.526886, 46.87198], [15.526844, 46.873333], [15.527347, 46.874], [15.527671, 46.874485], [15.529127, 46.875077], [15.529319, 46.875761], [15.53163, 46.876436], [15.532674, 46.87796], [15.533749, 46.87866], [15.535054, 46.879784], [15.546099, 46.88466], [15.547735, 46.885292], [15.554668, 46.888198], [15.56154, 46.889685], [15.562217, 46.890748], [15.564252, 46.891968], [15.574288, 46.898665], [15.575544, 46.898819], [15.588606, 46.901778], [15.59438, 46.905964], [15.598285, 46.909669], [15.600689, 46.910611], [15.603481, 46.910489], [15.604372, 46.910235], [15.607491, 46.910309], [15.608896, 46.910139], [15.611125, 46.910313], [15.614659, 46.911736], [15.618623, 46.913331], [15.621093, 46.913969], [15.622713, 46.915794], [15.625503, 46.915414], [15.626275, 46.915309], [15.62701, 46.915473], [15.628687, 46.916619], [15.62983, 46.917398], [15.631701, 46.918394], [15.633616, 46.918801], [15.635128, 46.921256], [15.63629, 46.922246], [15.637683, 46.924144], [15.638871, 46.923694], [15.63974, 46.923745], [15.640754, 46.926016], [15.640767, 46.926277], [15.640707, 46.926524], [15.640731, 46.927288], [15.643011, 46.92839], [15.644371, 46.929047], [15.645455, 46.929129], [15.647457, 46.930423], [15.649607, 46.931097], [15.653702, 46.933102], [15.654568, 46.933671], [15.656985, 46.935259], [15.657491, 46.935391], [15.658143, 46.935561], [15.66014, 46.935923], [15.660745, 46.936033], [15.661028, 46.936285], [15.662164, 46.937297], [15.662214, 46.937348], [15.663328, 46.938507], [15.664475, 46.938446], [15.666031, 46.938806], [15.66705, 46.939042], [15.668616, 46.939717], [15.674239, 46.94214], [15.6743, 46.942181], [15.6824, 46.947585], [15.684199, 46.947859], [15.686287, 46.95055], [15.687138, 46.951465], [15.687507, 46.952267], [15.68889, 46.95375], [15.689296, 46.955008], [15.6904, 46.956883], [15.690312, 46.957423], [15.692292, 46.960705], [15.693324, 46.961885], [15.693627, 46.962488], [15.69433, 46.963312], [15.695883, 46.964994], [15.696012, 46.965126], [15.696647, 46.965492], [15.697962, 46.966997], [15.697788, 46.968472], [15.700572, 46.969291], [15.701202, 46.969614], [15.702331, 46.969463], [15.702953, 46.969675], [15.705081, 46.970401], [15.706697, 46.970532], [15.708262, 46.97133], [15.708712, 46.972112], [15.709435, 46.972103], [15.716034, 46.975994], [15.72595, 46.976934], [15.726114, 46.977726], [15.730602, 46.980976], [15.733788, 46.983283], [15.733938, 46.984056], [15.741713, 46.988822], [15.744643, 46.993566], [15.750627, 46.994268], [15.75469, 46.996418], [15.755169, 46.996732], [15.755204, 46.996755], [15.757029, 46.997906], [15.757755, 46.998532], [15.75906, 46.999674], [15.761309, 46.999163], [15.762258, 46.999164], [15.763209, 46.999755], [15.763518, 47.000065], [15.76532, 47.0012], [15.765342, 47.001332], [15.765745, 47.003815], [15.76601, 47.005453], [15.770914, 47.007446], [15.770667, 47.00807], [15.770581, 47.008286], [15.764938, 47.02253], [15.769091, 47.026023], [15.770893, 47.026876], [15.772491, 47.02904], [15.77478, 47.031802], [15.775462, 47.03351], [15.776786, 47.035267], [15.777302, 47.036529], [15.778258, 47.037659], [15.778592, 47.038289], [15.780446, 47.041112], [15.783517, 47.042945], [15.784761, 47.044516], [15.791979, 47.047442], [15.792971, 47.047582], [15.794468, 47.0474], [15.795347, 47.047442], [15.797097, 47.047573], [15.79784, 47.047621], [15.799993, 47.04865], [15.802362, 47.048607], [15.806279, 47.050057], [15.808362, 47.051882], [15.810118, 47.053421], [15.811112, 47.054292], [15.811864, 47.055597], [15.812027, 47.056146], [15.812374, 47.057388], [15.81342, 47.058457], [15.814861, 47.058656], [15.817348, 47.062208], [15.818445, 47.062723], [15.819061, 47.064618], [15.819559, 47.06486], [15.82004, 47.066847], [15.8198, 47.070232], [15.824053, 47.072068], [15.824057, 47.072962], [15.823542, 47.074989], [15.825994, 47.075957], [15.826906, 47.076648], [15.826593, 47.079295], [15.826979, 47.080465], [15.827713, 47.080662], [15.828814, 47.082923], [15.829401, 47.085864], [15.829251, 47.087488], [15.829356, 47.090967], [15.830437, 47.091009], [15.831906, 47.094137], [15.834599, 47.096118], [15.834941, 47.096743], [15.838758, 47.099189], [15.839038, 47.105153], [15.844822, 47.110254], [15.844768, 47.110467], [15.844674, 47.110535], [15.84453, 47.110906], [15.84716, 47.111599], [15.849312, 47.112377], [15.851081, 47.112164], [15.852078, 47.11312], [15.855849, 47.116299], [15.85521, 47.117978], [15.854892, 47.118257], [15.853848, 47.123066], [15.85445, 47.124866], [15.854523, 47.12595], [15.853667, 47.127809], [15.855301, 47.12862], [15.856054, 47.128672], [15.861242, 47.131455], [15.865786, 47.13216], [15.867206, 47.136612], [15.868348, 47.13743], [15.86851, 47.138301], [15.872071, 47.139761], [15.873345, 47.139406], [15.873891, 47.139477], [15.874882, 47.140779], [15.880752, 47.143635], [15.886835, 47.153492], [15.891784, 47.158266], [15.895853, 47.160331], [15.898849, 47.1642], [15.907913, 47.175909], [15.907841, 47.17767], [15.908162, 47.178981], [15.908192, 47.17931], [15.908285, 47.180352], [15.907561, 47.182057], [15.907058, 47.182925], [15.90669, 47.184025], [15.906373, 47.184572], [15.908486, 47.185772], [15.911171, 47.186676], [15.912211, 47.187026], [15.913194, 47.189048], [15.916303, 47.193123], [15.929471, 47.203323], [15.933274, 47.20671], [15.933303, 47.20754], [15.937692, 47.209537], [15.938517, 47.210579], [15.939626, 47.212602], [15.94046, 47.213108], [15.943709, 47.217413], [15.944324, 47.2193], [15.948734, 47.222925], [15.947734, 47.225099], [15.952214, 47.229499], [15.95463, 47.230913], [15.962318, 47.242095], [15.96887, 47.243113], [15.971254, 47.245501], [15.97648, 47.246707], [15.976268, 47.249068], [15.976219, 47.250309], [15.978034, 47.251678], [15.979211, 47.252858], [15.984563, 47.25464], [15.986157, 47.25547], [15.986846, 47.257468], [15.990269, 47.25848], [15.988259, 47.263881], [15.988775, 47.264483], [15.995207, 47.265354], [15.999532, 47.272262], [16.00806, 47.277787], [16.009085, 47.278929], [16.009843, 47.279143], [16.012208, 47.27981], [16.012165, 47.280975], [16.012094, 47.281122], [16.01202, 47.281666]], [[16.012015, 47.281729], [16.011996, 47.281954], [16.022398, 47.285767], [16.02388, 47.287436], [16.02354, 47.288276], [16.023605, 47.288774], [16.022604, 47.290462], [16.021133, 47.2931], [16.023727, 47.296171], [16.023431, 47.299169], [16.021127, 47.301215], [16.020299, 47.305496], [16.020956, 47.30836], [16.021482, 47.308891], [16.021509, 47.310656], [16.026319, 47.311125], [16.028287, 47.311698], [16.032473, 47.312106], [16.033719, 47.323707], [16.033969, 47.329239], [16.033148, 47.332011], [16.035019, 47.334801], [16.040192, 47.341317], [16.04127, 47.345886], [16.039269, 47.348574], [16.040597, 47.352167], [16.041588, 47.356461], [16.0406, 47.361155], [16.040846, 47.363831], [16.044336, 47.366511], [16.046224, 47.370289], [16.048204, 47.371448], [16.05138, 47.372974], [16.052146, 47.373377], [16.052204, 47.373596], [16.05037, 47.375735], [16.056617, 47.393321], [16.061034, 47.405092], [16.063253, 47.405353], [16.065772, 47.411405], [16.066754, 47.414896], [16.066832, 47.417503], [16.068319, 47.420079], [16.070659, 47.422985], [16.074783, 47.425359], [16.077238, 47.425137], [16.078864, 47.426044], [16.080651, 47.425844], [16.083377, 47.427489], [16.083531, 47.427463], [16.086162, 47.427025], [16.094152, 47.428358], [16.09453, 47.430093], [16.094933, 47.430968], [16.094874, 47.432112], [16.094973, 47.433265], [16.09417, 47.435587], [16.093991, 47.436714], [16.093011, 47.438634], [16.092933, 47.4393], [16.093229, 47.440058], [16.093599, 47.441578], [16.093839, 47.443504], [16.094126, 47.444462], [16.093585, 47.44621], [16.093124, 47.446949], [16.091337, 47.450232], [16.091046, 47.45064], [16.090698, 47.451262], [16.089778, 47.453257], [16.091548, 47.454806], [16.096071, 47.456668], [16.096128, 47.457815], [16.096436, 47.458683], [16.095992, 47.460659], [16.094974, 47.461484], [16.09338, 47.463654], [16.092985, 47.468306], [16.092512, 47.470029], [16.092629, 47.470726], [16.091985, 47.473096], [16.09131, 47.475026], [16.090737, 47.475977], [16.089696, 47.476947], [16.08802, 47.478903], [16.087059, 47.479792], [16.086581, 47.481712], [16.084711, 47.485646], [16.084663, 47.486557], [16.085729, 47.49196], [16.083175, 47.493744], [16.081792, 47.495635], [16.08161, 47.49588], [16.07986, 47.498438], [16.084218, 47.506385], [16.090374, 47.508499], [16.093071, 47.512289], [16.093424, 47.516027], [16.093897, 47.516296], [16.095403, 47.519305], [16.097878, 47.520821], [16.099673, 47.520761], [16.101557, 47.522516], [16.104595, 47.523827], [16.107336, 47.524341], [16.108808, 47.525014], [16.109661, 47.524594], [16.110855, 47.524971], [16.113611, 47.525513], [16.114175, 47.526609], [16.115705, 47.527584], [16.115819, 47.530221], [16.112695, 47.531492], [16.112746, 47.538327], [16.118634, 47.540114], [16.121482, 47.539892], [16.123392, 47.540347], [16.12477, 47.541396], [16.124781, 47.541976], [16.123673, 47.542741], [16.12378, 47.543273], [16.124575, 47.543856], [16.124508, 47.545877], [16.124644, 47.548176], [16.123955, 47.548751], [16.12597, 47.551644], [16.12622, 47.553323], [16.126635, 47.554379], [16.130444, 47.555041], [16.130331, 47.55591], [16.129923, 47.556575], [16.130143, 47.557513], [16.129975, 47.558324], [16.129507, 47.558914], [16.130012, 47.559862], [16.128519, 47.564365], [16.126407, 47.565762], [16.126671, 47.567267], [16.1271, 47.56814], [16.126081, 47.570233], [16.125637, 47.571059], [16.125127, 47.571868], [16.126795, 47.573814], [16.127462, 47.575245], [16.128866, 47.576679], [16.130686, 47.578836], [16.13119, 47.582535], [16.133211, 47.587604], [16.137079, 47.592301], [16.139515, 47.592837], [16.141525, 47.593778], [16.142325, 47.594], [16.143749, 47.594203], [16.145481, 47.594695], [16.14811, 47.595166], [16.150299, 47.596385], [16.151183, 47.597352], [16.153088, 47.597623], [16.154353, 47.59788], [16.156152, 47.598315], [16.1589, 47.600261], [16.16293, 47.605673], [16.169698, 47.607776], [16.171877, 47.61128], [16.175119, 47.614732], [16.17766, 47.61738], [16.185955, 47.619932], [16.18956, 47.621432], [16.191562, 47.623673], [16.196963, 47.631654], [16.198096, 47.633119], [16.199963, 47.634792], [16.201572, 47.637015], [16.207067, 47.639334], [16.208997, 47.640366], [16.21294, 47.6433], [16.216646, 47.645068], [16.217961, 47.646141], [16.218168, 47.646779], [16.223268, 47.65294], [16.224561, 47.655671], [16.231444, 47.65846], [16.231388, 47.6603], [16.235767, 47.663331], [16.236991, 47.664566], [16.237399, 47.666902], [16.232972, 47.670146], [16.232895, 47.67165], [16.234926, 47.674985], [16.232856, 47.677487], [16.231969, 47.678256], [16.231762, 47.678996], [16.23239, 47.681145], [16.232762, 47.681862], [16.232971, 47.68209], [16.233735, 47.683116], [16.23411, 47.683934], [16.234027, 47.684832], [16.234237, 47.685386], [16.234137, 47.686059], [16.234306, 47.686287], [16.23525, 47.686513], [16.236651, 47.688003], [16.240353, 47.689027], [16.241697, 47.689719], [16.245933, 47.689934], [16.249059, 47.69102], [16.250108, 47.691425], [16.253578, 47.693064], [16.256927, 47.695379], [16.258372, 47.695642], [16.258965, 47.696755], [16.260274, 47.697692], [16.260884, 47.701083], [16.261985, 47.702327], [16.264656, 47.703391], [16.268641, 47.70765], [16.26991, 47.708951], [16.270215, 47.709179], [16.271117, 47.70965], [16.272624, 47.710522], [16.274548, 47.712216], [16.275102, 47.712538], [16.275998, 47.712739], [16.27747, 47.712949], [16.279011, 47.713217], [16.282248, 47.714252], [16.283995, 47.715054], [16.286288, 47.716705], [16.287882, 47.717496], [16.290403, 47.71865], [16.291286, 47.719184], [16.292037, 47.719522], [16.293247, 47.719895], [16.295658, 47.720783], [16.296226, 47.721327], [16.297743, 47.721631], [16.298609, 47.722997], [16.305137, 47.723909], [16.307988, 47.724526], [16.312134, 47.724552], [16.314601, 47.724167], [16.316671, 47.724465], [16.320308, 47.724934], [16.323982, 47.726166], [16.328909, 47.727152], [16.331545, 47.728901], [16.336451, 47.730307], [16.338794, 47.730705], [16.341601, 47.730929], [16.348339, 47.732074], [16.349747, 47.734513], [16.355721, 47.738871], [16.361167, 47.742899], [16.362338, 47.744012], [16.363353, 47.744584], [16.363731, 47.745321], [16.364053, 47.746243], [16.364871, 47.74688], [16.365626, 47.747213], [16.368646, 47.750104], [16.369017, 47.750786], [16.370479, 47.75225], [16.371713, 47.753048], [16.371348, 47.763849], [16.380639, 47.778173], [16.382158, 47.781247], [16.382618, 47.782291], [16.385322, 47.788653], [16.387252, 47.79345], [16.387775, 47.794588], [16.389329, 47.798429], [16.39133, 47.801983], [16.393082, 47.803023], [16.408631, 47.806069], [16.411317, 47.809437], [16.414271, 47.81341], [16.414821, 47.814359], [16.421549, 47.826987], [16.422991, 47.830578], [16.424484, 47.835394], [16.429345, 47.845242], [16.430312, 47.847175], [16.431369, 47.847715], [16.431, 47.848411], [16.43103, 47.848472], [16.433863, 47.854197], [16.434062, 47.85504], [16.436939, 47.860954], [16.437177, 47.865607], [16.427823, 47.878942], [16.43272, 47.88392], [16.434822, 47.886979], [16.43582, 47.899139], [16.451756, 47.90399], [16.453356, 47.905022], [16.453391, 47.905106], [16.453583, 47.905248], [16.453695, 47.905259], [16.45662, 47.907159], [16.466771, 47.912911], [16.473936, 47.916629], [16.478205, 47.920704], [16.48144, 47.924768], [16.486003, 47.931485], [16.487161, 47.932847], [16.487561, 47.934888], [16.487778, 47.935301], [16.490006, 47.936181], [16.493886, 47.94065], [16.494707, 47.941137], [16.494846, 47.943041], [16.501973, 47.952448], [16.501202, 47.956309], [16.507548, 47.966095], [16.511796, 47.971615], [16.519078, 47.976656], [16.519958, 47.980532], [16.522605, 47.983349], [16.541577, 47.992793], [16.5465, 47.993871], [16.55152, 47.997639], [16.55601, 48.00993], [16.56111, 48.016476], [16.567225, 48.022369], [16.56634, 48.023786], [16.571809, 48.025764], [16.571951, 48.027099], [16.576234, 48.03346], [16.580377, 48.043778], [16.586053, 48.047714], [16.592257, 48.055177], [16.593219, 48.055371], [16.59161, 48.059659], [16.595999, 48.062599], [16.596147, 48.062658], [16.597108, 48.062542], [16.597409, 48.062939], [16.598012, 48.063885], [16.600313, 48.065416], [16.601086, 48.067689], [16.600705, 48.076125], [16.566824, 48.09431], [16.544494, 48.106776], [16.537275, 48.111556], [16.537081, 48.111841], [16.535639, 48.11205], [16.535786, 48.112818], [16.53199, 48.115226], [16.507524, 48.131617], [16.505692, 48.134237]]]}}
]
}
