{
"type": "FeatureCollection",
"features": [
{"type": "Feature", "properties": {"ProjectID": "P0676"}, "geometry": {"type": "MultiLineString", "coordinates": [[[18.746622, 54.340156], [18.746393, 54.340096], [18.790838, 54.294781], [18.835099, 54.241568], [18.77242, 54.206867], [18.716411, 54.174537], [18.719217, 54.096075], [18.75222, 54.00145], [18.730438, 53.927534], [18.833286, 53.846726], [18.960068, 53.830237], [18.989755, 53.721678], [19.05121, 53.633488], [19.087265, 53.519436], [19.106877, 53.443686], [19.152149, 53.389702], [19.273616, 53.288843], [19.38499, 53.250191], [19.408649, 53.157015], [19.439997, 53.062154], [19.405398, 52.979736], [19.645337, 52.839263], [19.583673, 52.771773], [19.679923, 52.721242], [19.792952, 52.668172], [19.874935, 52.57785], [19.832766, 52.531427]]]}}
]
}
