{
"type": "FeatureCollection",
"features": [
{"type": "Feature", "properties": {"ProjectID": "P0678"}, "geometry": {"type": "MultiLineString", "coordinates": [[[4.884185, 43.484226], [4.886835, 43.486432], [4.893863, 43.494524], [4.893375, 43.496828], [4.893369, 43.498188], [4.893179, 43.498763], [4.88829, 43.513856], [4.887067, 43.517851], [4.884587, 43.525946], [4.880821, 43.571684], [4.882942, 43.579202], [4.884928, 43.587602], [4.888824, 43.590799], [4.89, 43.593116], [4.890089, 43.593864], [4.896253, 43.599081], [4.896911, 43.599998], [4.898877, 43.602844], [4.901133, 43.605473], [4.913645, 43.624189], [4.915992, 43.628113], [4.916197, 43.628273], [4.916545, 43.628454], [4.918823, 43.629413], [4.91962, 43.629514], [4.92032, 43.629927], [4.925131, 43.632045], [4.932467, 43.635294], [4.935722, 43.639128], [4.935776, 43.640114], [4.93571, 43.643148], [4.938087, 43.648437], [4.942846, 43.659193], [4.945858, 43.666001], [4.947803, 43.675808], [4.946645, 43.679971], [4.946614, 43.680151], [4.94494, 43.683326], [4.943975, 43.685895], [4.942112, 43.695271], [4.941666, 43.698652], [4.941628, 43.698859], [4.941117, 43.702982], [4.941068, 43.703634], [4.940766, 43.704264], [4.938957, 43.706564], [4.937975, 43.707811], [4.936783, 43.709313], [4.935377, 43.710941], [4.934431, 43.711677], [4.933573, 43.712899], [4.932278, 43.714906], [4.929674, 43.718934], [4.928871, 43.721599], [4.927874, 43.724036], [4.926662, 43.725366], [4.925935, 43.725707], [4.925735, 43.725875], [4.925973, 43.72685], [4.925708, 43.72753], [4.925256, 43.728059], [4.92544, 43.728618], [4.926297, 43.73005], [4.926054, 43.731982], [4.923786, 43.733463], [4.922239, 43.734207], [4.920744, 43.735212], [4.920257, 43.739461], [4.92066, 43.740525], [4.920376, 43.741979], [4.920746, 43.743588], [4.921271, 43.746415], [4.921463, 43.746503], [4.921595, 43.746733], [4.921463, 43.747837], [4.921663, 43.748159], [4.922753, 43.750466], [4.92282, 43.751022], [4.923085, 43.751679], [4.923558, 43.75277], [4.923964, 43.753706], [4.924621, 43.755042], [4.924824, 43.756591], [4.92365, 43.758143], [4.920656, 43.760126], [4.916529, 43.762405], [4.916124, 43.762753], [4.915848, 43.763391], [4.913155, 43.767234], [4.912633, 43.767888], [4.911062, 43.770023], [4.910498, 43.770174], [4.908473, 43.770972], [4.90365, 43.772882], [4.899731, 43.774434], [4.896303, 43.776119], [4.896108, 43.777103], [4.894923, 43.784383], [4.893463, 43.78937], [4.894311, 43.792726], [4.894632, 43.794178], [4.922928, 43.88938], [4.923157, 43.891657], [4.923159, 43.891848], [4.92259, 43.894326], [4.922055, 43.895668], [4.921804, 43.896125], [4.921477, 43.896537], [4.921402, 43.897277], [4.921439, 43.898023], [4.921576, 43.898559], [4.921344, 43.899262], [4.921297, 43.899681], [4.921622, 43.90097], [4.922074, 43.904392], [4.922228, 43.905405], [4.922459, 43.906254], [4.922875, 43.907147], [4.923506, 43.909254], [4.923306, 43.91093], [4.922159, 43.913099], [4.92119, 43.914408], [4.919884, 43.915932], [4.919007, 43.917589], [4.91926, 43.918169], [4.92018, 43.918888], [4.920464, 43.919254], [4.921265, 43.923536], [4.921967, 43.92487], [4.923114, 43.927562], [4.924157, 43.931598], [4.924624, 43.933499], [4.923368, 43.938974], [4.922473, 43.943355], [4.922257, 43.946117], [4.922036, 43.948781], [4.92222, 43.949841], [4.921979, 43.950736], [4.921564, 43.952413], [4.921291, 43.953197], [4.920774, 43.955245], [4.920866, 43.955674], [4.921196, 43.956324], [4.921199, 43.956671], [4.920666, 43.957554], [4.9203, 43.958116], [4.919836, 43.958686], [4.918056, 43.959578], [4.917872, 43.960423], [4.917689, 43.96119], [4.917486, 43.961396], [4.916894, 43.961763], [4.916541, 43.962093], [4.916524, 43.962774], [4.916641, 43.963239], [4.916912, 43.964191], [4.917841, 43.965327], [4.918665, 43.966693], [4.918789, 43.967166], [4.918408, 43.968689], [4.918447, 43.969161], [4.918722, 43.969498], [4.919999, 43.970477], [4.920244, 43.972281], [4.920773, 43.975744], [4.920794, 43.976426], [4.920764, 43.976544], [4.920418, 43.977935], [4.920113, 43.979563], [4.919698, 43.980941], [4.91949, 43.982018], [4.919375, 43.982918], [4.919187, 43.983752], [4.919247, 43.98423], [4.919429, 43.98608], [4.919572, 43.986978], [4.919782, 43.988514], [4.918437, 43.989483], [4.916022, 43.991469], [4.915979, 43.991529], [4.915458, 43.992229], [4.915395, 43.992302], [4.915187, 43.993053], [4.914965, 43.993536], [4.913966, 43.995594], [4.913701, 43.996318], [4.913465, 43.996899], [4.913175, 43.997373], [4.912966, 43.998066], [4.912814, 43.998461], [4.912778, 43.998556], [4.91244, 43.999464], [4.912392, 43.99957], [4.911844, 44.000948], [4.911615, 44.001476], [4.911333, 44.002304], [4.911027, 44.003285], [4.910873, 44.003867], [4.911625, 44.005922], [4.911537, 44.008681], [4.912299, 44.009995], [4.912741, 44.010374], [4.914894, 44.01225], [4.917482, 44.014571], [4.918336, 44.015308], [4.91894, 44.01588], [4.919263, 44.01642], [4.919572, 44.018165], [4.919715, 44.018971], [4.919753, 44.020562], [4.92094, 44.023078], [4.921537, 44.024502], [4.922269, 44.026311], [4.922861, 44.027192], [4.923513, 44.028311], [4.924483, 44.030394], [4.925011, 44.031558], [4.925058, 44.03168], [4.926244, 44.03413], [4.927692, 44.037877], [4.926335, 44.040579], [4.925895, 44.041574], [4.924712, 44.043902], [4.9221, 44.048513], [4.920998, 44.050551], [4.920513, 44.051963], [4.918601, 44.057709], [4.917438, 44.060841], [4.917332, 44.065453], [4.916702, 44.066293], [4.915966, 44.067995], [4.915745, 44.069792], [4.915411, 44.071577], [4.914971, 44.073554], [4.914724, 44.074988], [4.914182, 44.077179], [4.91433, 44.07768], [4.914689, 44.078579], [4.915006, 44.07951], [4.915388, 44.080061], [4.915395, 44.080281], [4.915073, 44.081502], [4.914861, 44.082383], [4.914342, 44.0847], [4.913836, 44.086928], [4.913659, 44.087722], [4.913193, 44.089901], [4.913032, 44.090376], [4.912627, 44.091631], [4.912568, 44.093276], [4.91246, 44.096129], [4.912543, 44.099095], [4.91267, 44.101127], [4.912454, 44.101716], [4.913031, 44.102405], [4.913876, 44.103688], [4.913643, 44.104415], [4.914338, 44.105434], [4.914632, 44.105761], [4.915813, 44.110156], [4.915719, 44.111309], [4.914804, 44.115083], [4.913977, 44.117528], [4.913825, 44.117976], [4.912777, 44.121172], [4.912218, 44.123135], [4.912121, 44.123679], [4.911933, 44.127067], [4.909095, 44.131115], [4.907199, 44.136701], [4.898272, 44.15866], [4.897975, 44.160883], [4.898117, 44.164361], [4.898456, 44.165097], [4.898867, 44.166587], [4.899869, 44.169215], [4.899958, 44.170262], [4.900087, 44.171893], [4.900123, 44.173835], [4.900899, 44.176481], [4.901646, 44.178638], [4.903007, 44.180107], [4.903346, 44.181192], [4.90345, 44.183149], [4.903602, 44.184786], [4.904382, 44.185707], [4.905844, 44.18734], [4.911408, 44.193589], [4.912026, 44.194367], [4.91207, 44.194665], [4.911995, 44.194994], [4.911624, 44.196195], [4.910332, 44.200691], [4.90929, 44.203083], [4.90916, 44.20392], [4.909015, 44.204234], [4.907972, 44.205849], [4.907708, 44.206792], [4.907749, 44.209397], [4.908476, 44.214298], [4.909428, 44.219414], [4.909671, 44.220371], [4.910728, 44.226466], [4.911865, 44.232971], [4.911913, 44.233285], [4.912584, 44.237772], [4.914632, 44.244888], [4.914807, 44.245702], [4.918041, 44.249293], [4.922173, 44.254568], [4.926049, 44.260519], [4.938029, 44.270786], [4.938859, 44.273568], [4.940108, 44.274554], [4.940087, 44.274737], [4.939619, 44.277805], [4.939538, 44.279613], [4.93948, 44.280894], [4.940011, 44.281702], [4.940963, 44.283123], [4.941037, 44.285439], [4.941283, 44.286262], [4.94162, 44.287331], [4.941843, 44.292227], [4.940167, 44.303217], [4.940063, 44.303898], [4.939961, 44.307632], [4.939923, 44.309033], [4.939323, 44.313312], [4.94016, 44.319352], [4.940229, 44.32016], [4.940494, 44.321745], [4.940548, 44.324939], [4.939754, 44.326699], [4.939727, 44.327718], [4.940202, 44.331795], [4.940541, 44.334154], [4.940987, 44.338475], [4.940689, 44.341537], [4.941208, 44.345215], [4.941253, 44.345531], [4.941952, 44.347647], [4.943848, 44.352839], [4.944723, 44.355266], [4.944889, 44.359473], [4.944575, 44.36799], [4.944251, 44.369267], [4.943496, 44.372292], [4.942829, 44.375146], [4.942259, 44.380196], [4.941896, 44.383171], [4.941854, 44.383434], [4.94156, 44.386485], [4.941605, 44.388443], [4.941881, 44.390786], [4.941879, 44.392591], [4.941605, 44.393609], [4.94112, 44.395271], [4.940667, 44.396759], [4.940171, 44.400179], [4.939774, 44.403599], [4.939368, 44.404585], [4.939627, 44.408079], [4.940168, 44.41181], [4.940385, 44.414034], [4.940664, 44.415855], [4.940481, 44.4174], [4.940094, 44.419318], [4.939184, 44.420424], [4.93863, 44.423806], [4.938248, 44.426276], [4.938021, 44.428467], [4.937312, 44.43309], [4.93696, 44.435072], [4.936607, 44.436984], [4.935313, 44.440527], [4.934776, 44.442565], [4.934721, 44.442948], [4.933596, 44.445442], [4.93266, 44.448513], [4.932287, 44.450552], [4.932274, 44.451458], [4.932715, 44.454493], [4.933055, 44.455647], [4.933895, 44.459587], [4.935035, 44.462347], [4.935031, 44.464179], [4.934791, 44.46606], [4.934524, 44.468826], [4.934454, 44.470747], [4.933433, 44.477569], [4.938782, 44.486875], [4.940403, 44.48966], [4.941075, 44.490835], [4.940885, 44.491686], [4.940511, 44.492533], [4.938941, 44.493538], [4.938738, 44.493823], [4.938493, 44.49478], [4.937822, 44.496902], [4.937726, 44.497204], [4.937701, 44.497283], [4.937053, 44.499332], [4.937475, 44.499854], [4.936832, 44.502261], [4.9342, 44.504441], [4.93421, 44.504571], [4.934603, 44.506411], [4.934085, 44.509046], [4.934168, 44.511017], [4.934308, 44.51212], [4.934197, 44.512984], [4.933312, 44.514162], [4.933131, 44.514762], [4.933489, 44.515753], [4.933865, 44.516518], [4.934878, 44.517326], [4.935846, 44.519486], [4.935868, 44.519536], [4.936048, 44.519976], [4.935947, 44.520908], [4.935802, 44.521547], [4.93584, 44.521674], [4.935927, 44.521792], [4.936119, 44.522047], [4.936124, 44.522132], [4.936029, 44.522285], [4.935398, 44.523466], [4.934067, 44.525814], [4.932757, 44.528356], [4.932523, 44.528864], [4.932582, 44.529604], [4.933023, 44.533587], [4.933224, 44.534309], [4.934862, 44.53545], [4.936441, 44.536586], [4.937323, 44.537776], [4.941397, 44.543613], [4.941432, 44.543663], [4.941475, 44.543724], [4.942663, 44.545342], [4.945337, 44.548985], [4.947009, 44.551257], [4.95423, 44.561066], [4.955447, 44.56328], [4.955668, 44.563436], [4.96019, 44.565675], [4.966354, 44.569077], [4.969508, 44.573143], [4.974808, 44.580158], [4.97689, 44.583322], [4.975645, 44.58618], [4.978799, 44.590398], [4.979743, 44.592766], [4.979679, 44.595578], [4.979679, 44.599061], [4.978542, 44.6078], [4.97719, 44.609083], [4.976997, 44.611329], [4.976338, 44.615027], [4.977702, 44.619101], [4.983931, 44.621753], [4.985446, 44.622398], [4.986799, 44.624102], [4.987759, 44.625122], [4.987794, 44.627745], [4.987653, 44.634189], [4.987545, 44.63939], [4.98754, 44.639481], [4.987436, 44.640379], [4.987207, 44.641608], [4.986808, 44.642033], [4.986635, 44.642219], [4.986755, 44.646832], [4.985809, 44.650472], [4.984604, 44.652347], [4.98388, 44.654465], [4.983422, 44.656323], [4.982156, 44.659594], [4.981722, 44.661876], [4.981173, 44.66219], [4.980799, 44.663142], [4.979566, 44.666528], [4.9791, 44.668409], [4.979634, 44.670967], [4.979703, 44.67243], [4.98049, 44.674959], [4.981578, 44.678216], [4.981504, 44.680083], [4.981296, 44.682784], [4.980469, 44.685491], [4.980562, 44.686407], [4.981604, 44.690943], [4.981538, 44.6922], [4.979037, 44.69645], [4.976538, 44.701827], [4.975338, 44.703219], [4.973988, 44.705052], [4.973843, 44.705811], [4.973494, 44.708505], [4.973261, 44.710416], [4.972874, 44.711533], [4.971216, 44.715024], [4.970292, 44.718412], [4.970203, 44.719274], [4.970323, 44.721096], [4.970161, 44.724253], [4.970119, 44.72777], [4.969494, 44.730127], [4.969074, 44.733156], [4.968794, 44.735248], [4.968627, 44.737021], [4.96845, 44.738147], [4.968418, 44.738752], [4.966557, 44.739487], [4.964649, 44.737702], [4.960945, 44.738825], [4.960119, 44.739834], [4.959399, 44.740787], [4.959458, 44.741911], [4.960249, 44.744546], [4.960661, 44.745591], [4.96402, 44.752833], [4.964604, 44.754456], [4.965402, 44.755846], [4.966975, 44.758173], [4.96727, 44.759986], [4.967586, 44.761345], [4.967638, 44.763206], [4.966916, 44.766453], [4.967076, 44.767913], [4.967309, 44.769203], [4.967757, 44.771443], [4.967507, 44.772729], [4.966767, 44.77507], [4.96552, 44.775934], [4.964308, 44.777047], [4.964256, 44.777353], [4.962098, 44.779776], [4.962404, 44.781284], [4.962613, 44.782833], [4.962642, 44.785662], [4.962487, 44.789389], [4.962376, 44.792876], [4.962615, 44.794632], [4.962982, 44.794984], [4.964554, 44.79663], [4.966232, 44.798507], [4.968675, 44.801375], [4.968661, 44.802969], [4.971807, 44.806757], [4.974357, 44.811833], [4.976354, 44.816284], [4.978327, 44.819834], [4.979626, 44.822264], [4.980207, 44.823502], [4.981062, 44.824612], [4.983087, 44.827923], [4.984057, 44.830021], [4.984539, 44.832246], [4.98491, 44.834772], [4.98497, 44.837167], [4.985699, 44.841524], [4.986124, 44.843181], [4.985849, 44.845925], [4.985849, 44.846599], [4.986704, 44.847124], [4.986192, 44.853077], [4.986003, 44.854128], [4.985639, 44.855892], [4.985263, 44.858005], [4.984089, 44.864153], [4.983932, 44.865042], [4.9845, 44.86924], [4.984063, 44.870443], [4.983472, 44.871658], [4.983, 44.872604], [4.9826, 44.873466], [4.982031, 44.874721], [4.981566, 44.875664], [4.980296, 44.878475], [4.979586, 44.880011], [4.978881, 44.882709], [4.979024, 44.885404], [4.978126, 44.887083], [4.977147, 44.891479], [4.977177, 44.892631], [4.977214, 44.89421], [4.977323, 44.896548], [4.977396, 44.898754], [4.977409, 44.901225], [4.977518, 44.903405], [4.978478, 44.905985], [4.979451, 44.908903], [4.979696, 44.909206], [4.979787, 44.910491], [4.979864, 44.911233], [4.980289, 44.913846], [4.981598, 44.917369], [4.982278, 44.919044], [4.982356, 44.919507], [4.982892, 44.922759], [4.982279, 44.92519], [4.981877, 44.926222], [4.982063, 44.930098], [4.982244, 44.933126], [4.982241, 44.934498], [4.981911, 44.937061], [4.981765, 44.937268], [4.980613, 44.939756], [4.98001, 44.940937], [4.979615, 44.942024], [4.979242, 44.944475], [4.978917, 44.94746], [4.978658, 44.94929], [4.978496, 44.951544], [4.977633, 44.958431], [4.977129, 44.96256], [4.97689, 44.964593], [4.976563, 44.966747], [4.9763, 44.967925], [4.975825, 44.970499], [4.974041, 44.974867], [4.972494, 44.976567], [4.972086, 44.980198], [4.968012, 44.982579], [4.967803, 44.98268], [4.96707, 44.983925], [4.966873, 44.984693], [4.96644, 44.986585], [4.965565, 44.987649], [4.965602, 44.991822], [4.966231, 44.994781], [4.966019, 45.000749], [4.963508, 45.009967], [4.963333, 45.011338], [4.962945, 45.014199], [4.96296, 45.014569], [4.963966, 45.017432], [4.963071, 45.019329], [4.960842, 45.021598], [4.960402, 45.022725], [4.955909, 45.026884], [4.951704, 45.029862], [4.946479, 45.0319], [4.94557, 45.032808], [4.942997, 45.034633], [4.942523, 45.034868], [4.94083, 45.037292], [4.939516, 45.040388], [4.939427, 45.040551], [4.93556, 45.048751], [4.934304, 45.051157], [4.934162, 45.051588], [4.933816, 45.052967], [4.933992, 45.053673], [4.934064, 45.054137], [4.934528, 45.0555], [4.934757, 45.055531], [4.938853, 45.057858], [4.93971, 45.059114], [4.940168, 45.060106], [4.940911, 45.061582], [4.941269, 45.063678], [4.941044, 45.064366], [4.940556, 45.066167], [4.94171, 45.069637], [4.941329, 45.07094], [4.940251, 45.072774], [4.93947, 45.074226], [4.936536, 45.080249], [4.935879, 45.083199], [4.935595, 45.085402], [4.935402, 45.086849], [4.935102, 45.09182], [4.934857, 45.098196], [4.934677, 45.099029], [4.933147, 45.103802], [4.932723, 45.105818], [4.932069, 45.108819], [4.931578, 45.111169], [4.929877, 45.115862], [4.928967, 45.117521], [4.92849, 45.118392], [4.927092, 45.121108], [4.926788, 45.123228], [4.925872, 45.127222], [4.924816, 45.133487], [4.92555, 45.13632], [4.926275, 45.138653], [4.92671, 45.139777], [4.926976, 45.143651], [4.927759, 45.147324], [4.928513, 45.149473], [4.930358, 45.153044], [4.931417, 45.154495], [4.931895, 45.155327], [4.932181, 45.158682], [4.932183, 45.161737], [4.931276, 45.167487], [4.930437, 45.17152], [4.929074, 45.173067], [4.9257, 45.175862], [4.924324, 45.17805], [4.924622, 45.179886], [4.925007, 45.181288], [4.925244, 45.182264], [4.925156, 45.18486], [4.926323, 45.189196], [4.926161, 45.191476], [4.926557, 45.192588], [4.930508, 45.201473], [4.932666, 45.203578], [4.93268, 45.204428], [4.93579, 45.213506], [4.937734, 45.214374], [4.93637, 45.218342], [4.935461, 45.221036], [4.93534, 45.221432], [4.935153, 45.224826], [4.935927, 45.227387], [4.936657, 45.228842], [4.943561, 45.234108], [4.945084, 45.235224], [4.949733, 45.239524], [4.957909, 45.244008], [4.960448, 45.245201], [4.963925, 45.247079], [4.966009, 45.248458], [4.967531, 45.249632], [4.969657, 45.252117], [4.974031, 45.255884], [4.980323, 45.2615], [4.98162, 45.262704], [4.982851, 45.263776], [4.986384, 45.267181], [4.986913, 45.267691], [4.988132, 45.269431], [4.988348, 45.270111], [4.988486, 45.271338], [4.988155, 45.272709], [4.989396, 45.273897], [4.989231, 45.275614], [4.988977, 45.276689], [4.987487, 45.2774], [4.987586, 45.278872], [4.987577, 45.27924], [4.98879, 45.28071], [4.990633, 45.281425], [4.993656, 45.282782], [4.994192, 45.282951], [4.995701, 45.283558], [4.997023, 45.284154], [4.9979, 45.284525], [5.001682, 45.287027], [5.003123, 45.287988], [5.004461, 45.288834], [5.0048, 45.289048], [5.005791, 45.289882], [5.006369, 45.290432], [5.007689, 45.291511], [5.008909, 45.292575], [5.009027, 45.292677], [5.009753, 45.293389], [5.011437, 45.29488], [5.013511, 45.296881], [5.013626, 45.297013], [5.015403, 45.299036], [5.017811, 45.301751], [5.01824, 45.303348], [5.018798, 45.305667], [5.019423, 45.309337], [5.019626, 45.310525], [5.019558, 45.312371], [5.019564, 45.31562], [5.019458, 45.318426], [5.019423, 45.319628], [5.019489, 45.32255], [5.019009, 45.323941], [5.018838, 45.324418], [5.018725, 45.325746], [5.018771, 45.32692], [5.018373, 45.328462], [5.018322, 45.330599], [5.018416, 45.331395], [5.018486, 45.33233], [5.018736, 45.333576], [5.018982, 45.33574], [5.018877, 45.337622], [5.018752, 45.339723], [5.01872, 45.34056], [5.018662, 45.341827], [5.018482, 45.344713], [5.018487, 45.345853], [5.018929, 45.350883], [5.019645, 45.356226], [5.020137, 45.359841], [5.020618, 45.365503], [5.020943, 45.369528], [5.021249, 45.372693], [5.02135, 45.375432], [5.021303, 45.378192], [5.021288, 45.379058], [5.020337, 45.380817], [5.020162, 45.381152], [5.020017, 45.381491], [5.0197, 45.383989], [5.019758, 45.386563], [5.020141, 45.391682], [5.020226, 45.392291], [5.020301, 45.393274], [5.020312, 45.394636], [5.020394, 45.395688], [5.020543, 45.396437], [5.020972, 45.39696], [5.022892, 45.399629], [5.025003, 45.40138], [5.026271, 45.402865], [5.027262, 45.404372], [5.029764, 45.409928], [5.031321, 45.413574], [5.031972, 45.415705], [5.032406, 45.418568], [5.033198, 45.419776], [5.033921, 45.423079], [5.034558, 45.427651], [5.034605, 45.428438], [5.034591, 45.428804], [5.034178, 45.429989], [5.033774, 45.431155], [5.033349, 45.433893], [5.033349, 45.435012], [5.034613, 45.438044], [5.036873, 45.442088], [5.037369, 45.443049], [5.038165, 45.444675], [5.038848, 45.445877], [5.041123, 45.448081], [5.041868, 45.448448], [5.043917, 45.449389], [5.045716, 45.450241], [5.04707, 45.451103], [5.048452, 45.45205], [5.050126, 45.45395], [5.050625, 45.454856], [5.051058, 45.456156], [5.051687, 45.457292], [5.0521, 45.459805], [5.052568, 45.46053], [5.053521, 45.463084], [5.054481, 45.464792], [5.056196, 45.4674], [5.056808, 45.469696], [5.056964, 45.472011], [5.057694, 45.472564], [5.059629, 45.473122], [5.060453, 45.473344], [5.061967, 45.475344], [5.064655, 45.477897], [5.065877, 45.478756], [5.068187, 45.479435], [5.068815, 45.479604], [5.069241, 45.479864], [5.070091, 45.480827], [5.069717, 45.481733], [5.067996, 45.483552], [5.068308, 45.485079], [5.068507, 45.485793], [5.06965, 45.488824], [5.069198, 45.492003], [5.0691, 45.492699], [5.069088, 45.493628], [5.068889, 45.497143], [5.068376, 45.500163], [5.069122, 45.502802], [5.069228, 45.503423], [5.069485, 45.504676], [5.070067, 45.506913], [5.070449, 45.508392], [5.070753, 45.509683], [5.071079, 45.511331], [5.0709, 45.511924], [5.071922, 45.514522], [5.073604, 45.519], [5.076307, 45.522939], [5.077201, 45.523531], [5.0788, 45.524971], [5.083089, 45.529258], [5.085571, 45.531688], [5.086573, 45.53259], [5.088936, 45.53405], [5.089924, 45.534356], [5.092105, 45.538247], [5.094819, 45.543593], [5.096993, 45.546274], [5.099404, 45.549835], [5.100839, 45.552332], [5.101945, 45.554032], [5.103818, 45.557106], [5.105614, 45.562585], [5.106147, 45.564067], [5.106497, 45.565172], [5.106771, 45.566043], [5.107345, 45.568375], [5.107952, 45.573734], [5.108148, 45.574431], [5.109375, 45.575509], [5.109009, 45.57638], [5.109251, 45.577418], [5.109711, 45.579474], [5.109579, 45.580431], [5.109446, 45.581292], [5.110862, 45.586801], [5.109621, 45.590572], [5.108566, 45.594391], [5.10585, 45.596625], [5.105187, 45.598321], [5.104981, 45.599867], [5.106611, 45.604113], [5.106862, 45.60454], [5.107293, 45.605001], [5.107679, 45.606884], [5.107513, 45.607997], [5.107185, 45.608914], [5.107166, 45.609837], [5.107949, 45.611599], [5.108394, 45.612124], [5.1092, 45.61276], [5.10993, 45.613467], [5.110289, 45.614504], [5.110371, 45.614838], [5.110882, 45.616917], [5.111741, 45.620434], [5.113084, 45.62311], [5.114594, 45.626275], [5.114655, 45.626508], [5.114648, 45.627545], [5.115085, 45.629171], [5.1147, 45.63066], [5.11349, 45.632171], [5.113211, 45.633556], [5.113238, 45.63449], [5.113335, 45.635181], [5.113741, 45.635544], [5.114253, 45.635952], [5.11481, 45.63628], [5.115696, 45.636731], [5.116077, 45.63775], [5.116085, 45.637929], [5.116465, 45.638956], [5.116656, 45.64001], [5.117117, 45.642114], [5.117206, 45.645096], [5.117363, 45.648644], [5.117374, 45.649559], [5.117379, 45.650081], [5.117549, 45.651516], [5.117532, 45.65273], [5.117582, 45.653706], [5.118015, 45.655231], [5.118437, 45.657124], [5.118368, 45.657983], [5.11869, 45.661786], [5.119336, 45.666318], [5.119488, 45.667726], [5.119543, 45.668291], [5.119904, 45.672128], [5.120034, 45.67383], [5.120351, 45.675897], [5.120891, 45.681529], [5.120913, 45.682562], [5.121338, 45.686528], [5.121005, 45.687358], [5.120246, 45.688539], [5.119675, 45.689339], [5.11928, 45.690499], [5.12026, 45.692579], [5.120458, 45.693101], [5.124623, 45.700609], [5.126596, 45.704216], [5.128241, 45.707139], [5.12863, 45.707873], [5.129149, 45.708839], [5.129651, 45.709679], [5.130611, 45.712043], [5.130526, 45.712937], [5.130349, 45.714399], [5.129994, 45.717377], [5.129782, 45.719418], [5.130401, 45.721352], [5.132242, 45.723883], [5.132739, 45.724542], [5.134612, 45.727473], [5.134545, 45.727961], [5.134612, 45.728503], [5.134803, 45.728991], [5.135135, 45.729358], [5.13636, 45.731009], [5.136992, 45.732434], [5.138483, 45.735762], [5.139103, 45.737143], [5.140231, 45.739695], [5.141441, 45.742405], [5.14203, 45.74372], [5.142604, 45.744937], [5.143564, 45.747173], [5.143716, 45.747549], [5.144489, 45.749088], [5.144898, 45.74988], [5.146036, 45.752495], [5.146094, 45.753417], [5.146196, 45.754395], [5.146079, 45.754872], [5.145514, 45.755382], [5.143844, 45.756909], [5.14165, 45.758987], [5.139055, 45.762989], [5.137921, 45.765025], [5.137511, 45.765797], [5.136631, 45.767385], [5.135475, 45.769523], [5.132237, 45.775756], [5.129998, 45.780326], [5.129513, 45.781215], [5.130052, 45.784374], [5.130374, 45.785735], [5.131341, 45.790016], [5.131189, 45.791605], [5.130739, 45.794718], [5.130654, 45.795876], [5.129582, 45.798727], [5.129276, 45.799249], [5.128776, 45.800434], [5.128199, 45.801912], [5.127097, 45.804554], [5.12674, 45.805857], [5.126787, 45.806145], [5.125875, 45.80903], [5.126563, 45.809528], [5.128404, 45.811536], [5.129436, 45.812648], [5.130165, 45.813159], [5.130968, 45.813162], [5.137837, 45.812975], [5.148297, 45.812872], [5.149106, 45.812855], [5.153798, 45.812476], [5.159966, 45.812636], [5.1612, 45.812707], [5.162765, 45.812392], [5.164903, 45.812741], [5.167097, 45.814244], [5.167713, 45.814666], [5.168547, 45.815221], [5.169583, 45.815911], [5.172248, 45.817704], [5.173322, 45.818429], [5.174083, 45.818933], [5.17472, 45.819397], [5.175859, 45.820153], [5.180135, 45.822458], [5.183311, 45.823268], [5.187044, 45.824272], [5.189932, 45.825627], [5.190656, 45.826079], [5.192033, 45.828428], [5.192081, 45.82898], [5.192667, 45.832439], [5.193058, 45.834959], [5.193305, 45.836777], [5.193712, 45.839547], [5.193739, 45.840819], [5.193648, 45.84283], [5.193509, 45.84556], [5.193613, 45.846445], [5.194813, 45.847794], [5.195488, 45.848489], [5.196553, 45.850563], [5.197929, 45.853557], [5.19962, 45.857526], [5.199725, 45.85806], [5.199835, 45.858454], [5.199889, 45.858649], [5.200149, 45.859708], [5.201612, 45.865365], [5.202159, 45.867648], [5.202362, 45.868591], [5.202475, 45.868922], [5.203549, 45.873121], [5.204331, 45.876129], [5.204513, 45.877069], [5.205472, 45.880925], [5.206301, 45.884102], [5.207667, 45.889674], [5.207832, 45.890405], [5.209126, 45.895897], [5.20861, 45.899516], [5.208545, 45.900071], [5.211928, 45.905252], [5.214005, 45.909727], [5.21428, 45.910318], [5.214647, 45.910756], [5.213839, 45.912163], [5.214245, 45.912738], [5.214326, 45.913229], [5.212954, 45.914312], [5.212566, 45.915439], [5.212548, 45.916209], [5.213525, 45.920588], [5.212387, 45.92249], [5.212437, 45.924783], [5.21243, 45.926405], [5.212167, 45.927988], [5.212009, 45.928501], [5.212591, 45.929425], [5.212574, 45.930307], [5.212418, 45.932588], [5.212612, 45.933298], [5.213099, 45.933988], [5.213777, 45.934738], [5.214778, 45.935613], [5.215611, 45.936384], [5.216781, 45.938294], [5.218881, 45.941097], [5.220068, 45.942857], [5.22183, 45.945479], [5.224467, 45.94883], [5.225135, 45.950407], [5.225452, 45.951365], [5.226286, 45.953753], [5.226625, 45.954828], [5.22729, 45.956951], [5.227618, 45.957903], [5.229791, 45.959813], [5.230269, 45.960192], [5.231374, 45.961145], [5.232569, 45.962139], [5.232815, 45.962717], [5.232628, 45.964638], [5.232285, 45.967456], [5.231859, 45.968834], [5.231321, 45.970061], [5.230817, 45.971777], [5.230388, 45.973281], [5.230466, 45.973704], [5.231216, 45.975855], [5.232303, 45.976792], [5.234558, 45.978522], [5.235349, 45.979163], [5.237671, 45.981029], [5.238493, 45.982048], [5.240475, 45.984858], [5.240972, 45.985996], [5.241401, 45.98692], [5.24062, 45.985326], [5.241785, 45.987758], [5.2422, 45.9901], [5.242573, 45.991573], [5.243327, 45.992995], [5.244137, 45.994431], [5.244763, 45.996797], [5.244962, 45.997664], [5.245262, 45.999412], [5.245307, 46.000346], [5.245016, 46.00074], [5.244376, 46.002644], [5.243983, 46.003835], [5.243716, 46.004459], [5.244524, 46.00779], [5.245278, 46.010647], [5.245608, 46.012589], [5.245513, 46.01287], [5.245647, 46.013386], [5.246069, 46.014963], [5.246136, 46.015326], [5.246401, 46.016204], [5.246473, 46.016465], [5.246715, 46.01699], [5.246631, 46.01753], [5.246539, 46.018321], [5.2467, 46.018892], [5.246934, 46.019635], [5.247248, 46.020563], [5.247576, 46.020971], [5.24804, 46.021415], [5.248179, 46.021991], [5.248412, 46.023106], [5.248555, 46.023786], [5.248745, 46.024891], [5.24896, 46.026636], [5.249179, 46.028023], [5.249501, 46.028398], [5.251034, 46.029587], [5.252696, 46.030829], [5.253466, 46.031209], [5.254357, 46.03212], [5.255727, 46.033537], [5.256961, 46.034822], [5.257385, 46.03591], [5.257677, 46.036548], [5.258422, 46.03811], [5.259017, 46.039372], [5.259481, 46.04084], [5.260025, 46.042579], [5.262449, 46.045714], [5.265421, 46.049295], [5.267415, 46.051618], [5.272977, 46.056955], [5.275046, 46.060034], [5.275298, 46.060424], [5.276408, 46.062355], [5.276832, 46.063193], [5.278848, 46.0662], [5.280066, 46.068906], [5.282079, 46.073814], [5.283481, 46.077151], [5.285405, 46.081297], [5.285369, 46.08764], [5.285099, 46.092185], [5.284681, 46.100132], [5.286611, 46.102081], [5.289393, 46.104496], [5.290463, 46.105806], [5.29057, 46.106192], [5.291186, 46.107171], [5.29233, 46.10744], [5.294711, 46.109055], [5.296888, 46.110931], [5.298302, 46.117036], [5.29897, 46.118529], [5.298889, 46.123019], [5.298864, 46.12617], [5.299379, 46.127997], [5.300416, 46.131126], [5.301425, 46.134288], [5.30265, 46.13812], [5.302889, 46.138936], [5.303914, 46.142114], [5.304431, 46.143758], [5.305757, 46.147959], [5.306832, 46.151377], [5.305369, 46.155732], [5.30493, 46.156974], [5.303226, 46.162578], [5.302873, 46.16365], [5.302513, 46.166187], [5.302558, 46.166697], [5.302764, 46.167561], [5.303706, 46.170544], [5.304592, 46.173397], [5.305178, 46.175237], [5.305909, 46.177076], [5.307659, 46.178202], [5.307987, 46.178868], [5.308279, 46.180248], [5.308496, 46.180961], [5.308603, 46.182209], [5.308872, 46.182991], [5.309515, 46.186223], [5.310302, 46.188565], [5.311001, 46.188973], [5.311408, 46.189189], [5.312609, 46.190184], [5.313319, 46.191219], [5.314512, 46.193237], [5.317702, 46.197869], [5.318203, 46.19854], [5.318007, 46.202968], [5.317647, 46.206188], [5.317553, 46.207362], [5.317177, 46.211706], [5.32697, 46.220653], [5.331504, 46.225466], [5.333046, 46.229837], [5.333701, 46.231705], [5.335347, 46.236289], [5.335936, 46.238781], [5.336922, 46.243], [5.33937, 46.249235], [5.339617, 46.251962], [5.3406, 46.255636], [5.341481, 46.259365], [5.337469, 46.264552], [5.337835, 46.26841], [5.339414, 46.276759], [5.339325, 46.279641], [5.339394, 46.281874], [5.339692, 46.282851], [5.33949, 46.283573], [5.339346, 46.288428], [5.339257, 46.291761], [5.339543, 46.293878], [5.341486, 46.2974], [5.342082, 46.297693], [5.341829, 46.300342], [5.341198, 46.303612], [5.340979, 46.304782], [5.341086, 46.306633], [5.341149, 46.307878], [5.341176, 46.309593], [5.341176, 46.313812], [5.340132, 46.318789], [5.339724, 46.321209], [5.339468, 46.322224], [5.339074, 46.32444], [5.338554, 46.326872], [5.338057, 46.328138], [5.336784, 46.330941], [5.336354, 46.334527], [5.336766, 46.337841], [5.336744, 46.341068], [5.336529, 46.34229], [5.335476, 46.348235], [5.335434, 46.34896], [5.335431, 46.366242], [5.333888, 46.371822], [5.333601, 46.376071], [5.334245, 46.380497], [5.334502, 46.382646], [5.334322, 46.388663], [5.333233, 46.392938], [5.332524, 46.395255], [5.331554, 46.399368], [5.333077, 46.402436], [5.333063, 46.406879], [5.333566, 46.409314], [5.333964, 46.411533], [5.334363, 46.413492], [5.333812, 46.415073], [5.331562, 46.419474], [5.327622, 46.426557], [5.327523, 46.427982], [5.327388, 46.429487], [5.327255, 46.43205], [5.327422, 46.435107], [5.328084, 46.436721], [5.329049, 46.438128], [5.329907, 46.439533], [5.335433, 46.445831], [5.337383, 46.447906], [5.337727, 46.448301], [5.340845, 46.452547], [5.342258, 46.454448], [5.343343, 46.455908], [5.344378, 46.457299], [5.346168, 46.459733], [5.34871, 46.463877], [5.349702, 46.46824], [5.350015, 46.46968], [5.3503, 46.470873], [5.350714, 46.472882], [5.356405, 46.481414], [5.357278, 46.482692], [5.359259, 46.486907], [5.360384, 46.487632], [5.360684, 46.48857], [5.360707, 46.488884], [5.361253, 46.489826], [5.368889, 46.498248], [5.371302, 46.502692], [5.37175, 46.510782], [5.373321, 46.514181], [5.374316, 46.51629], [5.375324, 46.518569], [5.375499, 46.518951], [5.375221, 46.5204], [5.373896, 46.525482], [5.374187, 46.52615], [5.375702, 46.528732], [5.376927, 46.530457], [5.378298, 46.53224], [5.379482, 46.533682], [5.388516, 46.544569], [5.392601, 46.549709], [5.394095, 46.552272], [5.396079, 46.555489], [5.396812, 46.556873], [5.397482, 46.557989], [5.397892, 46.558582], [5.398485, 46.55916], [5.401141, 46.561672], [5.408504, 46.568712], [5.41081, 46.57108], [5.418484, 46.57894], [5.421032, 46.581955], [5.421965, 46.583123], [5.424254, 46.586016], [5.425303, 46.587198], [5.42722, 46.589632], [5.428086, 46.590702], [5.429002, 46.591856], [5.429691, 46.592681], [5.43083, 46.593872], [5.432677, 46.595684], [5.433792, 46.596843], [5.434331, 46.597395], [5.434441, 46.597549], [5.436449, 46.599531], [5.438269, 46.600686], [5.440065, 46.601899], [5.441241, 46.60276], [5.442459, 46.604208], [5.442746, 46.604538], [5.443546, 46.605437], [5.444672, 46.606794], [5.446944, 46.608992], [5.448032, 46.609514], [5.450692, 46.610974], [5.453502, 46.612463], [5.454842, 46.613792], [5.45607, 46.615057], [5.456509, 46.615536], [5.4601, 46.618851], [5.461748, 46.619664], [5.463027, 46.6203], [5.463687, 46.620862], [5.464453, 46.621827], [5.465967, 46.623458], [5.466929, 46.624209], [5.468596, 46.625722], [5.469432, 46.626778], [5.470228, 46.627842], [5.470952, 46.628897], [5.471261, 46.629344], [5.472516, 46.633359], [5.472987, 46.635268], [5.473008, 46.636463], [5.473037, 46.638039], [5.473399, 46.639781], [5.474466, 46.641138], [5.47555, 46.64278], [5.476152, 46.643519], [5.476529, 46.644104], [5.477161, 46.644999], [5.477802, 46.645876], [5.479308, 46.648422], [5.479871, 46.649899], [5.480395, 46.651165], [5.480748, 46.651925], [5.482526, 46.655393], [5.482818, 46.656219], [5.483404, 46.657936], [5.484321, 46.660533], [5.484984, 46.661874], [5.485814, 46.664877], [5.485873, 46.665066], [5.486741, 46.667655], [5.487401, 46.6695], [5.487932, 46.671031], [5.488743, 46.674738], [5.488831, 46.674918], [5.489755, 46.676672], [5.489816, 46.676798], [5.489961, 46.677127], [5.490059, 46.677212], [5.49337, 46.678715], [5.494031, 46.679019], [5.497365, 46.680948], [5.499843, 46.68343], [5.501133, 46.684808], [5.502835, 46.687049], [5.503651, 46.688088], [5.504392, 46.68901], [5.504795, 46.689596], [5.506706, 46.69262], [5.508864, 46.695733], [5.511203, 46.698564], [5.511754, 46.699235], [5.511754, 46.700092], [5.511506, 46.701905], [5.510805, 46.70361], [5.507218, 46.708483], [5.507497, 46.710185], [5.50768, 46.711635], [5.507782, 46.712657], [5.507872, 46.713383], [5.507995, 46.714056], [5.509379, 46.718787], [5.507559, 46.720544], [5.507314, 46.722997], [5.508145, 46.726703], [5.510035, 46.729034], [5.510299, 46.730946], [5.510685, 46.735533], [5.513734, 46.74264], [5.516851, 46.749684], [5.517213, 46.750577], [5.518467, 46.753345], [5.518816, 46.754061], [5.518447, 46.755], [5.518243, 46.75526], [5.518307, 46.758603], [5.519411, 46.76222], [5.520868, 46.763404], [5.524903, 46.766694], [5.528257, 46.768485], [5.530869, 46.770122], [5.532114, 46.770986], [5.535196, 46.773251], [5.536624, 46.775741], [5.538815, 46.777259], [5.540918, 46.779241], [5.542334, 46.780884], [5.542988, 46.782443], [5.543575, 46.783867], [5.545723, 46.787629], [5.546729, 46.788986], [5.547813, 46.789972], [5.549623, 46.791738], [5.553439, 46.79862], [5.555327, 46.804171], [5.55821, 46.808989], [5.56089, 46.812661], [5.562297, 46.814898], [5.563888, 46.816482], [5.564624, 46.818816], [5.566302, 46.82123], [5.569312, 46.824748], [5.56993, 46.826106], [5.57072, 46.828516], [5.570973, 46.829012], [5.57112, 46.829774], [5.571203, 46.831019], [5.571268, 46.832884], [5.571774, 46.833771], [5.572175, 46.834359], [5.573023, 46.835636], [5.573573, 46.839355], [5.574051, 46.842963], [5.576294, 46.845902], [5.578185, 46.84788], [5.581187, 46.851628], [5.583881, 46.855048], [5.584543, 46.855907], [5.58619, 46.857844], [5.588769, 46.860729], [5.591263, 46.863636], [5.592807, 46.865376], [5.593439, 46.866094], [5.595483, 46.868168], [5.598011, 46.870422], [5.599417, 46.871726], [5.601537, 46.873598], [5.602654, 46.874786], [5.603833, 46.876734], [5.604452, 46.877816], [5.605931, 46.880329], [5.607358, 46.882577], [5.60885, 46.884904], [5.611778, 46.889483], [5.613077, 46.891707], [5.614427, 46.893455], [5.616332, 46.895809], [5.617948, 46.897938], [5.619864, 46.900253], [5.622278, 46.904478], [5.622807, 46.905441], [5.62381, 46.907365], [5.623877, 46.909139], [5.625622, 46.911581], [5.62643, 46.912842], [5.62809, 46.914798], [5.628331, 46.915127], [5.634393, 46.921672], [5.637616, 46.924528], [5.640565, 46.927121], [5.641283, 46.927899], [5.642298, 46.929696], [5.643932, 46.932688], [5.644736, 46.934124], [5.644933, 46.934452], [5.645518, 46.935521], [5.647788, 46.939561], [5.649089, 46.942482], [5.650729, 46.944575], [5.651254, 46.945315], [5.652505, 46.947193], [5.655101, 46.951017], [5.657777, 46.955719], [5.659138, 46.956881], [5.663526, 46.959459], [5.663893, 46.960745], [5.66517, 46.962705], [5.666559, 46.964903], [5.667849, 46.966913], [5.6691, 46.968832], [5.671375, 46.972038], [5.672772, 46.974256], [5.674096, 46.976365], [5.674862, 46.977562], [5.674965, 46.978325], [5.674733, 46.980226], [5.674436, 46.98281], [5.674053, 46.983505], [5.673718, 46.984265], [5.673576, 46.985711], [5.673499, 46.986776], [5.673986, 46.987696], [5.67512, 46.9895], [5.678502, 46.994874], [5.680224, 46.997844], [5.681969, 46.999413], [5.682446, 47.000291], [5.683555, 47.001987], [5.68451, 47.003487], [5.688076, 47.007502], [5.692225, 47.010234], [5.697423, 47.01367], [5.700179, 47.015487], [5.701387, 47.016232], [5.705902, 47.019207], [5.70978, 47.02181], [5.712278, 47.023393], [5.714673, 47.025055], [5.71825, 47.027382], [5.718891, 47.027798], [5.722464, 47.029325], [5.723625, 47.029753], [5.72515, 47.030442], [5.727612, 47.031543], [5.727852, 47.031788], [5.735851, 47.034788], [5.73979, 47.036203], [5.742364, 47.037328], [5.745009, 47.039549], [5.746824, 47.041078], [5.748276, 47.042318], [5.748764, 47.042477], [5.75469, 47.044342], [5.759713, 47.045936], [5.761932, 47.046537], [5.76407, 47.047148], [5.766365, 47.047786], [5.767481, 47.048058], [5.772715, 47.049541], [5.7753, 47.050548], [5.781697, 47.053163], [5.784871, 47.054461], [5.78829, 47.05625], [5.793076, 47.057877], [5.795961, 47.058692], [5.797446, 47.0596], [5.800928, 47.061517], [5.805738, 47.063639], [5.811434, 47.065576], [5.814821, 47.066756], [5.822913, 47.069679], [5.824867, 47.070362], [5.834977, 47.073955], [5.839619, 47.075066], [5.842793, 47.075812], [5.844889, 47.07641], [5.848232, 47.077215], [5.850535, 47.078703], [5.851229, 47.079782], [5.851791, 47.080109], [5.853079, 47.080146], [5.855857, 47.080558], [5.859638, 47.08288], [5.862117, 47.084492], [5.8641, 47.0857], [5.864738, 47.086352], [5.871265, 47.094355], [5.876657, 47.100935], [5.881887, 47.10524], [5.884531, 47.107325], [5.888624, 47.110085], [5.891025, 47.111963], [5.893562, 47.113865], [5.89665, 47.117551], [5.89748, 47.118696], [5.8996, 47.122607], [5.900815, 47.125202], [5.902088, 47.126985], [5.902348, 47.127004], [5.904358, 47.126839], [5.90509, 47.126861], [5.908311, 47.130984], [5.910912, 47.134169], [5.913527, 47.137191], [5.9154, 47.139357], [5.919272, 47.1428], [5.922711, 47.146689], [5.923491, 47.147966], [5.923996, 47.149078], [5.92462, 47.14961], [5.925827, 47.150427], [5.929238, 47.153098], [5.932741, 47.158023], [5.946307, 47.163972], [5.951094, 47.16611], [5.952371, 47.166809], [5.958812, 47.169265], [5.960991, 47.170457], [5.962925, 47.173205], [5.963562, 47.17571], [5.964274, 47.175836], [5.967046, 47.174958], [5.972755, 47.173158], [5.97335, 47.172878], [5.974832, 47.172752], [5.978194, 47.172829], [5.980235, 47.173201], [5.982369, 47.173727], [5.987658, 47.174922], [5.991705, 47.175937], [5.994236, 47.176451], [5.995538, 47.176751], [6.005208, 47.179023], [6.006985, 47.179616], [6.008561, 47.180371], [6.010057, 47.181174], [6.012117, 47.182716], [6.013042, 47.183237], [6.014889, 47.184863], [6.016279, 47.186577], [6.016574, 47.1869], [6.018554, 47.187921], [6.019084, 47.188693], [6.02017, 47.190095], [6.020927, 47.191118], [6.021365, 47.191849], [6.021588, 47.192109], [6.02631, 47.196128], [6.026991, 47.196599], [6.02839, 47.197268], [6.029992, 47.198556], [6.031039, 47.199032], [6.032793, 47.199555], [6.036326, 47.200274], [6.038478, 47.200836], [6.041033, 47.201016], [6.045571, 47.203376], [6.052604, 47.206309], [6.05466, 47.20717], [6.059827, 47.210128], [6.066446, 47.214278], [6.075096, 47.219683], [6.078958, 47.221489], [6.08393, 47.22379], [6.084872, 47.224978], [6.085462, 47.226132], [6.08601, 47.228459], [6.08645, 47.228819], [6.087893, 47.229594], [6.090184, 47.230778], [6.091305, 47.231887], [6.098129, 47.234705], [6.103962, 47.238062], [6.116723, 47.244345], [6.123484, 47.247544], [6.129706, 47.249015], [6.133409, 47.251369], [6.13409, 47.251697]], [[6.13409, 47.251697], [6.135344, 47.252268], [6.137267, 47.252584], [6.141361, 47.254163], [6.141509, 47.254242]], [[6.13409, 47.251697], [6.136055, 47.249777], [6.136403, 47.24896], [6.136959, 47.248184], [6.137751, 47.247595], [6.138995, 47.246429], [6.141558, 47.246161], [6.142947, 47.246449], [6.144128, 47.24396], [6.144335, 47.243513], [6.14384, 47.243087], [6.142739, 47.239649], [6.144629, 47.237383], [6.146483, 47.234349], [6.148046, 47.231711], [6.149116, 47.2302], [6.149762, 47.227945], [6.153204, 47.223996], [6.155395, 47.221913], [6.155446, 47.221768], [6.156635, 47.21859], [6.157888, 47.217018], [6.157555, 47.216117], [6.160359, 47.212948], [6.161625, 47.21039], [6.168372, 47.202343], [6.168725, 47.201978], [6.170331, 47.200987], [6.172518, 47.199772], [6.173289, 47.198307], [6.173844, 47.195721], [6.17391, 47.195411], [6.18011, 47.190106], [6.184257, 47.188373], [6.18617, 47.187934], [6.190184, 47.185409], [6.193377, 47.181601], [6.197268, 47.178324], [6.198565, 47.176774], [6.20206, 47.17427], [6.208221, 47.169429], [6.214343, 47.166696], [6.225106, 47.161385], [6.227426, 47.160086], [6.232731, 47.158803], [6.241083, 47.153127], [6.247704, 47.151449], [6.253842, 47.150745], [6.257579, 47.149933], [6.280938, 47.141989], [6.288099, 47.140316], [6.296424, 47.137558], [6.303668, 47.134494], [6.308546, 47.133586], [6.314613, 47.132325], [6.321082, 47.13102], [6.327072, 47.130089], [6.337378, 47.127271], [6.340085, 47.126593], [6.34318, 47.125709], [6.344826, 47.125248], [6.354484, 47.122598], [6.364035, 47.119869], [6.36736, 47.118917], [6.369957, 47.117898], [6.378084, 47.114721], [6.379954, 47.11398], [6.391869, 47.111325], [6.393213, 47.111375], [6.397427, 47.111777], [6.404377, 47.11218], [6.408454, 47.112407], [6.410006, 47.112554], [6.413006, 47.112162], [6.416084, 47.111989], [6.418886, 47.111638], [6.419162, 47.11164], [6.421894, 47.111322], [6.422446, 47.111197], [6.424215, 47.110303], [6.429472, 47.107397], [6.431474, 47.106503], [6.432487, 47.105982], [6.436013, 47.105223], [6.438874, 47.104884]], [[6.438984, 47.104871], [6.439562, 47.104894], [6.449241, 47.105429], [6.457696, 47.10405], [6.473532, 47.092239], [6.475207, 47.091488], [6.475721, 47.090948], [6.476124, 47.090647], [6.477326, 47.090058], [6.481552, 47.089287], [6.489403, 47.086827], [6.490952, 47.086643], [6.497061, 47.077972], [6.499646, 47.077724], [6.500205, 47.077758], [6.500663, 47.077825], [6.501329, 47.077997], [6.504743, 47.078176], [6.505489, 47.078048], [6.506009, 47.078043], [6.508943, 47.078226], [6.50972, 47.078188], [6.511379, 47.07739], [6.514517, 47.076554], [6.515795, 47.076117], [6.516885, 47.076201], [6.517175, 47.076174], [6.517648, 47.075929], [6.5197, 47.074297], [6.524883, 47.069554], [6.526436, 47.068911], [6.529504, 47.06281], [6.533984, 47.058902], [6.551012, 47.050641], [6.56344, 47.043464], [6.566309, 47.042882], [6.566452, 47.042853], [6.571549, 47.04182], [6.575519, 47.042593], [6.576877, 47.04101], [6.57585, 47.039404], [6.577794, 47.037913], [6.590564, 47.034935], [6.59887, 47.033597], [6.601837, 47.03133], [6.605442, 47.029341], [6.611627, 47.027829], [6.613015, 47.027119], [6.630153, 47.027254], [6.644008, 47.029778], [6.656344, 47.034134], [6.65875, 47.036146], [6.659534, 47.036773], [6.663916, 47.039364], [6.667131, 47.040066], [6.670505, 47.040111], [6.674868, 47.041474], [6.695689, 47.047976], [6.70136, 47.051145], [6.70656, 47.051737], [6.711893, 47.052146], [6.713727, 47.052019], [6.716044, 47.052401], [6.716467, 47.05259], [6.716581, 47.052685], [6.717351, 47.053283], [6.719129, 47.053929], [6.719259, 47.054156], [6.718942, 47.054588], [6.719904, 47.055239], [6.720402, 47.055823], [6.723522, 47.057316], [6.72957, 47.059457], [6.730162, 47.059442], [6.731337, 47.059892], [6.733911, 47.060811], [6.736047, 47.06171], [6.73614, 47.06189], [6.736732, 47.062602], [6.739663, 47.064255], [6.74073, 47.065089], [6.740958, 47.06576], [6.743075, 47.066761], [6.744197, 47.067324], [6.747203, 47.068359], [6.749591, 47.069625], [6.751994, 47.07188], [6.752953, 47.072422], [6.753215, 47.073968], [6.756897, 47.075399], [6.759475, 47.076478], [6.761966, 47.077789], [6.762837, 47.078314], [6.765571, 47.079623], [6.76686, 47.079917], [6.767932, 47.079617], [6.769785, 47.080506], [6.775272, 47.081806], [6.777994, 47.082124], [6.779592, 47.081674], [6.781366, 47.08177], [6.782352, 47.081954], [6.783474, 47.081727], [6.786534, 47.080998], [6.787188, 47.080684], [6.787983, 47.080053], [6.788804, 47.079406], [6.789889, 47.078565], [6.79216, 47.077313], [6.79372, 47.076487], [6.794619, 47.075696], [6.795852, 47.074927], [6.798177, 47.075106], [6.799651, 47.074833], [6.805611, 47.074002], [6.807037, 47.074156], [6.809313, 47.073548], [6.812913, 47.073532], [6.818186, 47.073977], [6.823404, 47.074681], [6.825682, 47.074394], [6.83303, 47.072618], [6.837519, 47.069977], [6.838397, 47.069741], [6.84477, 47.067228], [6.844996, 47.067139], [6.84522, 47.067023], [6.847475, 47.065855], [6.851359, 47.067715], [6.86006, 47.073871], [6.865558, 47.072248], [6.866327, 47.072032], [6.871856, 47.070484], [6.874705, 47.067875], [6.875719, 47.067474], [6.878562, 47.065062], [6.880096, 47.065033], [6.88177, 47.062935], [6.885139, 47.060845], [6.885643, 47.060684], [6.886136, 47.060626], [6.898624, 47.061944], [6.899151, 47.062025], [6.89968, 47.062095], [6.899987, 47.062131], [6.904275, 47.063767], [6.904561, 47.063649], [6.905507, 47.062651], [6.906481, 47.062435], [6.907589, 47.062209], [6.908077, 47.062067], [6.908442, 47.061929], [6.909198, 47.061877], [6.909375, 47.061717], [6.90942, 47.061676], [6.909756, 47.061374], [6.909895, 47.061248], [6.910239, 47.060939], [6.911011, 47.06039], [6.913117, 47.059148], [6.918346, 47.057048], [6.923163, 47.055127], [6.929049, 47.052812], [6.931662, 47.05173], [6.935213, 47.050267], [6.939128, 47.04882], [6.944687, 47.046639], [6.948262, 47.045534], [6.948638, 47.045437], [6.953056, 47.044109], [6.95481, 47.04365], [6.955905, 47.043396], [6.956834, 47.043724], [6.958704, 47.044431], [6.959087, 47.044526], [6.959776, 47.044508], [6.962327, 47.045038], [6.96418, 47.045438], [6.965883, 47.045745], [6.967272, 47.046359], [6.969083, 47.047333], [6.969557, 47.047587], [6.970525, 47.048221], [6.971088, 47.048722], [6.973754, 47.050081], [6.975762, 47.051368], [6.976979, 47.052357], [6.977354, 47.052276], [6.977336, 47.051878], [6.977457, 47.051686], [6.977962, 47.051555], [6.978363, 47.051507], [6.978775, 47.05156], [6.979042, 47.051693], [6.979716, 47.052434], [6.980176, 47.052762], [6.980786, 47.052982], [6.981835, 47.05329], [6.982895, 47.053908], [6.984047, 47.054526], [6.984841, 47.054815], [6.985334, 47.05493], [6.987, 47.055449], [6.990177, 47.055569], [6.990798, 47.055712], [6.99145, 47.056066], [6.992819, 47.056347], [6.992939, 47.056638]]]}}
]
}
