{
"type": "FeatureCollection",
"features": [
{"type": "Feature", "properties": {"ProjectID": "P0825", "layer": "dos", "path": "/Users/isabelmahon/Documents/oyul/oyulwait/dos.geojson"}, "geometry": {"type": "MultiLineString", "coordinates": [[[30.015267, 39.917777], [29.854525, 39.91586], [29.677603, 39.973991], [29.506999, 40.075602], [29.336396, 40.177062], [29.203704, 40.220498], [29.064694, 40.181889], [28.900409, 40.215673], [28.70453, 40.19637], [28.502334, 40.220498]], [[30.015267, 39.917777], [29.984128, 39.941829], [29.981775, 39.976097], [29.986481, 40.040979], [29.988834, 40.1004], [29.977069, 40.14718], [30.004183, 40.248807], [30.04431, 40.333829], [30.0131, 40.377998], [30.062145, 40.462858], [30.204821, 40.530668], [30.30291, 40.564548], [30.360872, 40.706655], [30.383165, 40.767465], [30.258324, 40.764088], [30.11119, 40.740445], [30.035393, 40.757334], [29.892717, 40.787723], [29.763417, 40.801224], [29.585073, 40.814723], [29.451314, 40.811349], [29.286345, 40.855204], [29.194128, 40.953721], [29.102129, 40.987714], [29.021874, 41.032026], [28.918131, 41.037932], [28.841791, 41.002488], [28.818302, 40.974414]], [[30.60058, 36.840663], [30.598809, 36.855849], [30.591279, 36.862544], [30.576317, 36.867571], [30.568537, 36.871162], [30.568836, 36.876907], [30.571828, 36.884567], [30.577514, 36.891986], [30.584696, 36.89414], [30.600256, 36.895097], [30.608934, 36.898926], [30.612226, 36.903233], [30.614214, 36.912021], [30.61797, 36.924495], [30.622882, 36.930269], [30.638195, 36.934542], [30.641806, 36.935119], [30.640307, 36.939738], [30.636286, 36.946333], [30.632478, 36.948025], [30.627188, 36.950054], [30.621686, 36.955634], [30.616608, 36.965779], [30.610471, 36.973894], [30.604969, 36.982346], [30.601161, 36.988768], [30.595516, 37.002111], [30.598509, 37.016795], [30.600648, 37.031476], [30.597654, 37.04513], [30.594661, 37.06356], [30.601503, 37.073455], [30.610056, 37.085737], [30.609274, 37.09513], [30.605429, 37.100824], [30.597741, 37.105204], [30.587307, 37.10827], [30.580717, 37.115277], [30.587307, 37.120532], [30.601585, 37.122284], [30.601036, 37.132354], [30.592798, 37.138921], [30.585659, 37.145926], [30.587307, 37.152054], [30.593348, 37.159495], [30.597741, 37.165622], [30.602134, 37.173061], [30.594446, 37.179187], [30.582011, 37.180326], [30.569288, 37.180326], [30.547189, 37.187795], [30.530783, 37.193663], [30.521073, 37.19393], [30.503662, 37.193663], [30.496966, 37.197664], [30.48826, 37.205131], [30.479555, 37.209664], [30.476876, 37.213931], [30.478842, 37.219057], [30.486288, 37.227402], [30.490424, 37.233989], [30.49594, 37.241015], [30.495664, 37.254187], [30.497595, 37.261869], [30.500628, 37.267356], [30.499236, 37.283557], [30.493601, 37.302986], [30.489217, 37.319422], [30.50863, 37.340833], [30.521154, 37.351287], [30.531173, 37.360745], [30.539102, 37.38339], [30.551616, 37.412629], [30.559713, 37.434259], [30.562658, 37.447701], [30.566338, 37.458219], [30.571491, 37.478083], [30.566338, 37.493854], [30.558241, 37.506701], [30.5472, 37.509621], [30.526589, 37.510205], [30.515379, 37.516549], [30.501392, 37.523456], [30.488988, 37.526805], [30.480015, 37.529526], [30.463067, 37.541483], [30.450529, 37.548243], [30.437491, 37.552219], [30.436488, 37.559772], [30.439998, 37.567723], [30.441001, 37.576865], [30.433329, 37.590355], [30.420706, 37.595856], [30.404297, 37.605356], [30.392306, 37.615855], [30.385364, 37.627852], [30.385995, 37.636349], [30.387888, 37.66533], [30.387257, 37.681815], [30.385364, 37.688807], [30.372742, 37.695799], [30.356964, 37.697796], [30.349391, 37.698296], [30.333325, 37.708137], [30.317959, 37.721305], [30.3186, 37.734978], [30.328203, 37.746116], [30.342928, 37.758771], [30.360215, 37.768388], [30.380702, 37.782051], [30.389744, 37.797984], [30.395939, 37.814841], [30.405575, 37.827346], [30.413146, 37.839849], [30.417964, 37.849632], [30.420028, 37.864305], [30.416587, 37.88495], [30.411769, 37.894184], [30.395939, 37.899072], [30.352578, 37.903417], [30.320917, 37.905046], [30.282374, 37.912649], [30.250025, 37.91482], [30.241765, 37.916449], [30.229489, 37.931806], [30.215119, 37.947997], [30.211697, 37.959329], [30.197326, 37.976593], [30.187061, 37.993852], [30.178849, 38.011108], [30.178165, 38.02782], [30.174059, 38.050457], [30.167216, 38.06285], [30.163794, 38.067699], [30.17395, 38.082822], [30.179537, 38.109752], [30.190012, 38.117444], [30.195599, 38.126235], [30.200488, 38.143812], [30.201383, 38.163212], [30.201383, 38.183464], [30.201383, 38.201522], [30.183977, 38.209728], [30.177884, 38.241946], [30.179579, 38.266348], [30.184099, 38.292515], [30.187489, 38.307147], [30.182969, 38.316899], [30.171105, 38.327981], [30.16263, 38.33906], [30.157336, 38.354602], [30.158103, 38.369649], [30.165011, 38.378675], [30.17192, 38.3877], [30.179595, 38.405146], [30.188039, 38.42379], [30.190341, 38.435815], [30.192644, 38.452047], [30.197249, 38.460462], [30.197249, 38.476688], [30.196482, 38.486302], [30.194179, 38.497717], [30.191876, 38.507928], [30.189574, 38.521742], [30.188039, 38.524744], [30.184158, 38.540855], [30.182408, 38.551351], [30.183575, 38.562303], [30.183575, 38.56869], [30.18941, 38.574165], [30.196412, 38.578726], [30.204581, 38.580095], [30.227922, 38.579183], [30.239593, 38.575533], [30.250679, 38.573708], [30.264684, 38.57234], [30.269935, 38.574621], [30.286274, 38.582375], [30.296777, 38.588305], [30.309614, 38.591042], [30.323035, 38.593322], [30.331204, 38.596515], [30.342875, 38.597427], [30.355129, 38.600163], [30.358269, 38.607036], [30.358269, 38.619048], [30.353877, 38.630629], [30.347838, 38.639634], [30.345642, 38.646924], [30.339721, 38.659024], [30.333763, 38.676786], [30.329972, 38.68947], [30.32618, 38.701307], [30.322389, 38.713564], [30.315889, 38.723284], [30.313181, 38.730045], [30.326751, 38.755196], [30.334101, 38.762565], [30.3509, 38.77157], [30.373999, 38.770751], [30.393423, 38.775663], [30.413372, 38.788349], [30.425446, 38.799397], [30.432271, 38.814124], [30.430743, 38.826659], [30.431361, 38.837726], [30.423948, 38.845905], [30.404799, 38.855527], [30.395533, 38.86178], [30.390591, 38.87717], [30.38812, 38.888711], [30.378854, 38.905057], [30.362794, 38.928126], [30.351675, 38.941581], [30.348586, 38.954071], [30.32823, 38.964971], [30.295877, 38.972403], [30.285583, 38.978691], [30.273161, 38.990456], [30.270767, 39.005106], [30.256703, 39.006269], [30.243537, 38.996967], [30.235458, 38.988595], [30.228875, 38.992084], [30.218402, 39.011617], [30.214512, 39.019754], [30.210622, 39.028588], [30.204279, 39.040518], [30.200016, 39.052578], [30.198494, 39.060617], [30.196972, 39.071255], [30.196362, 39.078109], [30.182357, 39.071255], [30.179921, 39.066527], [30.169569, 39.072437], [30.160434, 39.079528], [30.149612, 39.088282], [30.139747, 39.095273], [30.143485, 39.108862], [30.149256, 39.11741], [30.156076, 39.127178], [30.146109, 39.144269], [30.135616, 39.160948], [30.124599, 39.169083], [30.100467, 39.182097], [30.087352, 39.18779], [30.080008, 39.191856], [30.082106, 39.199987], [30.088926, 39.206898], [30.095746, 39.216247], [30.099418, 39.221937], [30.10309, 39.227627], [30.092012, 39.246792], [30.07822, 39.260035], [30.060016, 39.270285], [30.052844, 39.276264], [30.053948, 39.296332], [30.064981, 39.312979], [30.069946, 39.326209], [30.075462, 39.333463], [30.083901, 39.357889], [30.096166, 39.376852], [30.113881, 39.397916], [30.13841, 39.417922], [30.145224, 39.425291], [30.158851, 39.437921], [30.167028, 39.449497], [30.162939, 39.462123], [30.158851, 39.481059], [30.156126, 39.490524], [30.182018, 39.50104], [30.192919, 39.506297], [30.197008, 39.526271], [30.19837, 39.548341], [30.186106, 39.566203], [30.184758, 39.574106], [30.222109, 39.609811], [30.24447, 39.671515], [30.257514, 39.737462], [30.229563, 39.811935], [30.132663, 39.866307], [30.015267, 39.917777]], [[30.599651, 36.848622], [30.603568, 36.848556], [30.607678, 36.846582], [30.611787, 36.843533], [30.612318, 36.839695]], [[30.620198, 36.958606], [30.623729, 36.960144], [30.628512, 36.962767], [30.635171, 36.96554], [30.642862, 36.970935], [30.646426, 36.973557], [30.650927, 36.975056], [30.65995, 36.973721], [30.671215, 36.969221], [30.673758, 36.958914], [30.678119, 36.947299], [30.681208, 36.942797], [30.687203, 36.942071], [30.696651, 36.94512], [30.708098, 36.948605], [30.720926, 36.954418], [30.724955, 36.955849], [30.732567, 36.951914], [30.738387, 36.947262], [30.745103, 36.941179], [30.745551, 36.93259], [30.748237, 36.923642], [30.751819, 36.913619], [30.755401, 36.902879], [30.763013, 36.89357], [30.769281, 36.896792], [30.774206, 36.903237], [30.776445, 36.909681], [30.784056, 36.908966], [30.790772, 36.906459], [30.79525, 36.904669]]]}}
]
}
