{
"type": "FeatureCollection",
"features": [
{"type": "Feature", "properties": {"ProjectID": "P0946"}, "geometry": {"type": "LineString", "coordinates": [[69.782004, 22.936038], [70.277191, 23.235929], [70.821897, 23.523798], [71.156149, 23.709064], [71.234554, 23.784608], [71.436755, 23.856334], [71.671969, 23.916704], [71.948449, 24.001551], [72.134144, 24.04678], [72.210485, 24.103294], [72.284763, 24.157901], [72.332219, 24.218129], [72.392054, 24.3291], [72.456016, 24.411795], [72.513788, 24.481293], [72.567433, 24.548875], [72.602509, 24.65393], [72.637584, 24.723293], [72.714957, 24.785125], [72.889305, 24.908696], [73.041987, 25.072331], [73.091506, 25.14893], [73.114202, 25.228281], [73.21324, 25.359797], [73.323625, 25.533067], [73.378302, 25.63449], [73.423694, 25.758129], [73.448454, 25.844507], [73.586693, 25.941027], [73.730091, 26.084732], [73.886901, 26.191238], [74.044742, 26.245843], [74.157191, 26.269898], [74.213931, 26.310595], [74.349076, 26.404883], [74.44605, 26.456616], [74.623492, 26.567394], [74.889655, 26.738889], [75.104236, 26.849394], [75.221843, 26.899086], [75.343577, 26.952435], [75.542683, 27.031492], [75.613867, 27.08937], [75.693303, 27.22889], [75.746948, 27.316001], [75.809878, 27.3719], [75.970814, 27.54217], [76.011048, 27.642744], [76.076042, 27.806207], [76.13794, 27.955757], [76.199838, 28.101459], [76.232851, 28.232423], [76.253484, 28.3487], [76.290623, 28.450338], [76.430926, 28.761902], [76.600115, 29.162665], [76.701216, 29.37505], [76.87053, 29.481547]]}}
]
}
