{
"type": "FeatureCollection",
"features": [
{"type": "Feature", "properties": {"ProjectID": "P0956"}, "geometry": {"type": "LineString", "coordinates": [[69.738814, 22.407234], [69.75515, 22.379039], [69.785645, 22.364939], [69.823763, 22.375011], [69.87604, 22.401193], [69.951187, 22.42435], [70.008909, 22.43341], [70.085146, 22.431397], [70.196234, 22.437437], [70.272471, 22.447503], [70.363955, 22.472665], [70.489201, 22.504866], [70.609001, 22.515933], [70.737514, 22.517945], [70.811573, 22.529011], [70.839889, 22.542088], [70.881275, 22.529011], [70.912859, 22.541083], [70.950977, 22.572262], [70.98365, 22.575279], [71.030481, 22.575279], [71.072956, 22.558182], [71.14048, 22.555164], [71.214538, 22.557176], [71.259191, 22.578296], [72.102151, 22.587346], [72.1272, 22.598407], [72.178388, 22.610472], [72.235021, 22.620525], [72.471354, 22.624547], [72.66957, 22.632589], [72.815509, 22.645656], [72.86234, 22.649676], [72.91026, 22.676811], [73.015902, 22.681836], [73.084515, 22.695903], [73.156396, 22.718006], [73.209761, 22.751154], [73.25986, 22.766218], [73.333918, 22.767223], [73.456986, 22.770235], [73.555004, 22.769231], [73.585499, 22.784294], [73.612727, 22.800359], [73.758665, 22.797347], [73.866486, 22.800359], [73.959059, 22.798351], [74.010246, 22.795339], [74.051632, 22.779273], [74.109354, 22.781281], [74.287966, 22.787306], [74.313015, 22.799355], [74.362024, 22.796343], [74.457865, 22.797347], [74.518854, 22.805378], [74.609249, 22.851553], [74.694198, 22.885671], [74.755188, 22.921788], [74.796573, 22.931818], [74.833603, 22.975944], [74.87281, 23.006022], [74.933799, 23.032083], [75.007858, 23.038097], [75.079738, 23.040101], [75.14944, 23.05814], [75.245281, 23.096214], [75.367259, 23.172329], [75.465278, 23.214375], [75.53498, 23.244399], [75.59597, 23.278418], [75.71577, 23.338431], [75.794185, 23.378424], [75.839927, 23.408411], [75.907451, 23.430398], [75.961906, 23.464369], [76.027251, 23.504325], [76.090419, 23.520303], [76.144874, 23.534283], [76.216754, 23.602164], [76.314773, 23.674], [76.404078, 23.741808], [76.471602, 23.769719], [76.542394, 23.830504], [76.624076, 23.894248], [76.707936, 23.949998], [76.754767, 23.976869], [76.809222, 24.005724], [76.888726, 24.023631], [76.999814, 24.041536], [77.065159, 24.05347], [77.193673, 24.059437], [77.23288, 24.075348], [77.333077, 24.071371], [77.36575, 24.083303], [77.572678, 24.091257], [77.620598, 24.109152], [77.685944, 24.125056], [77.740399, 24.142946], [77.827526, 24.164809], [77.886337, 24.18468], [77.993069, 24.193622], [78.038811, 24.205542], [78.098711, 24.236332], [78.150375, 24.24039]]}}
]
}
