{
"type": "FeatureCollection",
"features": [
{"type": "Feature", "properties": {"ProjectID": "P1077", "id": null, "Length_km": 261.114}, "geometry": {"type": "MultiLineString", "coordinates": [[[143.107206, -6.338386], [143.171648, -6.37756], [143.179156, -6.403674], [143.201053, -6.411134], [143.221074, -6.448437], [143.239218, -6.459627], [143.255172, -6.482008], [143.262054, -6.49817], [143.280198, -6.521791], [143.29709, -6.542303], [143.305849, -6.559086], [143.339008, -6.580839], [143.347767, -6.590162], [143.354024, -6.6057], [143.376547, -6.615022], [143.42785, -6.667224], [143.467892, -6.690216], [143.504805, -6.709478], [143.533585, -6.711964], [143.546098, -6.721905], [143.569246, -6.726255], [143.586765, -6.741167], [143.594898, -6.764776], [143.599278, -6.772232], [143.619298, -6.773474], [143.646201, -6.791491], [143.653083, -6.799567], [143.658088, -6.824417], [143.723156, -6.867278], [143.758817, -6.903925], [143.78572, -6.931253], [143.81012, -6.941811], [143.825136, -6.944296], [143.879567, -6.972863], [143.901465, -6.992736], [143.932747, -7.039308], [143.934624, -7.062903], [143.976543, -7.095809], [144.014081, -7.133059], [144.044738, -7.164719], [144.086031, -7.189549], [144.127323, -7.23548], [144.170493, -7.272098], [144.189888, -7.304369], [144.196145, -7.31678], [144.223673, -7.321744], [144.237437, -7.344704], [144.238689, -7.366421], [144.233683, -7.379451], [144.248699, -7.403649], [144.246196, -7.430326], [144.237437, -7.458864], [144.233683, -7.483677], [144.243068, -7.502286], [144.261212, -7.517173], [144.269345, -7.528338], [144.269345, -7.547565], [144.286863, -7.563691], [144.291243, -7.591599], [144.295622, -7.615784], [144.320023, -7.64803], [144.325028, -7.677793], [144.342546, -7.700114], [144.437019, -7.848889], [144.52586, -7.986458], [144.555266, -8.016816]]]}}
]
}
