{
"type": "FeatureCollection",
"features": [
{"type": "Feature", "properties": {"ProjectID": "P1212"}, "geometry": {"type": "MultiLineString", "coordinates": [[[145.2139, -38.0206], [145.2023, -38.0145], [145.2355, -38.03], [145.2162, -38.0219], [145.1966, -38.0121], [145.1876, -38.0059], [145.0849, -37.9258], [145.0593, -37.9204], [145.0371, -37.9147], [144.9967, -37.9072], [144.9738, -37.8528], [144.9664, -37.8472], [144.9482, -37.841], [144.9384, -37.8368], [144.9259, -37.8315], [144.9138, -37.8348], [144.9097, -37.8347], [144.894, -37.8391], [144.8729, -37.8451], [144.8663, -37.847], [144.383537, -38.077263]], [[145.1948, -38.272], [145.218, -38.2128], [145.2202, -38.2073], [145.246, -38.044], [145.247, -38.038]]]}}
]
}
