{
"type": "FeatureCollection",
"features": [
{"type": "Feature", "properties": {"ProjectID": "P1216"}, "geometry": {"type": "LineString", "coordinates": [[174.361454, -39.362857], [174.353185, -39.363531], [174.338938, -39.363342], [174.301594, -39.363413], [174.287743, -39.364043], [174.276335, -39.353963], [174.240484, -39.277056], [174.229076, -39.23857], [174.21278, -39.199432], [174.189966, -39.179223], [174.166336, -39.166589], [174.110235, -39.135415], [174.043922, -39.110142], [174.023808, -39.088928], [174.019458, -39.073943]]}}
]
}
