{
"type": "FeatureCollection",
"features": [
{"type": "Feature", "properties": {"ProjectID": "P1221", "DUCTO": "El Corcobo-Puesto Hernandez", "TRAMO": "El Corcobo - Puesto Hernandez", "EMPRESA": "PLUSPETROL S.A.", "TIPO_DUCTO": "Oleoducto", "JURIDICCIO": "Nacion", "ESTADO": "Operativo", "FECHA": "2025-07-10 00:00:00-03"}, "geometry": {"type": "MultiLineString", "coordinates": [[[-69.069808, -37.295509], [-69.069818, -37.29577], [-69.069833, -37.296481], [-69.06984, -37.296844], [-69.069836, -37.297084], [-69.069819, -37.297241], [-69.069807, -37.297287], [-69.069802, -37.297308], [-69.069784, -37.29734], [-69.069756, -37.29737], [-69.069711, -37.297424], [-69.069668, -37.297459], [-69.069657, -37.297467], [-69.069644, -37.297474], [-69.069629, -37.297478], [-69.069584, -37.297482], [-69.06952, -37.297489], [-69.069445, -37.2975], [-69.069401, -37.297502], [-69.066535, -37.29749], [-69.066499, -37.297506], [-69.06648, -37.297517], [-69.06647, -37.297522], [-69.066461, -37.297527], [-69.066449, -37.29753], [-69.066436, -37.297532], [-69.066417, -37.297532], [-69.065604, -37.297555], [-69.062333, -37.297589], [-69.062022, -37.297586], [-69.061981, -37.297585], [-69.061902, -37.297594], [-69.061878, -37.297599], [-69.061864, -37.297602], [-69.06183, -37.297613], [-69.061799, -37.297628], [-69.06177, -37.297647], [-69.061745, -37.297666], [-69.061705, -37.297711], [-69.061555, -37.29802], [-69.061353, -37.298446], [-69.060911, -37.299491], [-69.059983, -37.301498], [-69.05849, -37.304649], [-69.056984, -37.307658], [-69.056908, -37.307866], [-69.056783, -37.308196], [-69.056747, -37.308302], [-69.056612, -37.308593], [-69.056585, -37.308661], [-69.056572, -37.308714], [-69.056539, -37.308873], [-69.056451, -37.309368], [-69.056422, -37.309582], [-69.056387, -37.3098], [-69.056365, -37.309982], [-69.056322, -37.310318], [-69.056295, -37.310484], [-69.056275, -37.310652], [-69.056233, -37.31097], [-69.056186, -37.31148], [-69.055893, -37.314656], [-69.055269, -37.320814], [-69.055135, -37.322419], [-69.055015, -37.323474], [-69.054832, -37.325667], [-69.054622, -37.326641], [-69.054568, -37.326912], [-69.054542, -37.327014], [-69.054401, -37.327465], [-69.054329, -37.327701], [-69.054187, -37.328131], [-69.054003, -37.328603], [-69.052471, -37.331784], [-69.051524, -37.333876], [-69.050322, -37.336643], [-69.050039, -37.337256], [-69.049562, -37.338272], [-69.049175, -37.33919], [-69.048725, -37.34014], [-69.048226, -37.341333], [-69.047792, -37.342522], [-69.046096, -37.346488], [-69.046082, -37.346524], [-69.046069, -37.346548], [-69.046056, -37.346572], [-69.046041, -37.346589], [-69.046023, -37.3466], [-69.046003, -37.346612], [-69.04598, -37.346623], [-69.045961, -37.346629], [-69.045936, -37.346632], [-69.045912, -37.346631], [-69.045886, -37.346627], [-69.045874, -37.346625], [-69.045847, -37.346619], [-69.045434, -37.346478], [-69.045247, -37.346408], [-69.045039, -37.34633], [-69.04472, -37.346212], [-69.043894, -37.345925], [-69.043526, -37.345788], [-69.043435, -37.345756], [-69.043411, -37.34574], [-69.043398, -37.345731], [-69.043377, -37.345714], [-69.043337, -37.345669], [-69.043238, -37.345536], [-69.042467, -37.344424], [-69.041725, -37.343618], [-69.041678, -37.34356], [-69.041348, -37.343337], [-69.041204, -37.343239], [-69.041059, -37.34316], [-69.040797, -37.343059], [-69.040428, -37.34297], [-69.040202, -37.34291], [-69.04018, -37.342902], [-69.039996, -37.342828], [-69.039877, -37.34279], [-69.039505, -37.342758], [-69.037813, -37.342609], [-69.037194, -37.342766], [-69.037048, -37.342806], [-69.036941, -37.34283], [-69.036717, -37.342875], [-69.036429, -37.342941], [-69.036317, -37.342958], [-69.036228, -37.34297], [-69.036164, -37.342968], [-69.036099, -37.342965], [-69.035999, -37.342958], [-69.035868, -37.342952], [-69.035776, -37.342952], [-69.034905, -37.342958], [-69.026586, -37.342964], [-69.020314, -37.342983], [-69.01905, -37.343272], [-69.018978, -37.343286], [-69.018907, -37.343301], [-69.018778, -37.343326], [-69.018678, -37.343333], [-69.018572, -37.343336], [-69.018454, -37.343337], [-69.018321, -37.343333], [-69.018176, -37.343325], [-69.018013, -37.343318], [-69.017862, -37.343311], [-69.012223, -37.343169], [-69.007735, -37.342999], [-69.007679, -37.342999], [-69.006277, -37.343018], [-69.006222, -37.343018], [-69.006175, -37.343021], [-69.006112, -37.343025], [-69.006052, -37.343029], [-69.006006, -37.343035], [-69.005925, -37.343047], [-69.005812, -37.343066], [-69.004802, -37.343312], [-68.999437, -37.344532], [-68.998553, -37.344573], [-68.998366, -37.344561], [-68.997889, -37.344501], [-68.997785, -37.344465], [-68.997698, -37.344434], [-68.997613, -37.344402], [-68.997551, -37.344369], [-68.997496, -37.344333], [-68.997428, -37.344288], [-68.997298, -37.344193], [-68.997129, -37.344053], [-68.996955, -37.343919], [-68.996838, -37.343824], [-68.995563, -37.342574], [-68.995478, -37.342505], [-68.99543, -37.342466], [-68.99538, -37.342426], [-68.9953, -37.342365], [-68.995117, -37.342234], [-68.993005, -37.340666], [-68.992973, -37.340638], [-68.992938, -37.340606], [-68.99292, -37.340588], [-68.992904, -37.340571], [-68.99288, -37.340543], [-68.992848, -37.340509], [-68.992815, -37.340474], [-68.992775, -37.340427], [-68.992751, -37.340402], [-68.992724, -37.340367], [-68.992704, -37.34034], [-68.992675, -37.340303], [-68.992652, -37.340274], [-68.992623, -37.340236], [-68.992596, -37.340199], [-68.992563, -37.34015], [-68.992536, -37.340112], [-68.992518, -37.340083], [-68.992497, -37.340041], [-68.992471, -37.33999], [-68.99246, -37.339959], [-68.992449, -37.339928], [-68.992432, -37.339862], [-68.992418, -37.339795], [-68.992406, -37.33972], [-68.992394, -37.339619], [-68.992383, -37.339529], [-68.992377, -37.339476], [-68.992369, -37.33942], [-68.992364, -37.339382], [-68.992368, -37.339341], [-68.992377, -37.339284], [-68.992387, -37.339232], [-68.992402, -37.339171], [-68.992416, -37.339118], [-68.992435, -37.339052], [-68.992778, -37.338062], [-68.992804, -37.337971], [-68.992817, -37.337905], [-68.992826, -37.337846], [-68.992832, -37.337784], [-68.992837, -37.337688], [-68.992833, -37.337589], [-68.992826, -37.337499], [-68.992808, -37.337408], [-68.992793, -37.337371], [-68.992773, -37.337325], [-68.992744, -37.337292], [-68.992729, -37.337275], [-68.992687, -37.33723], [-68.992657, -37.337199], [-68.992598, -37.337149], [-68.992528, -37.337086], [-68.992422, -37.337009], [-68.992335, -37.336942], [-68.992256, -37.336887], [-68.992164, -37.336815], [-68.992058, -37.336733], [-68.991889, -37.336607], [-68.991754, -37.336506], [-68.991564, -37.336354], [-68.991186, -37.336089], [-68.99091, -37.335893], [-68.990591, -37.335684], [-68.990471, -37.335616], [-68.990329, -37.335551], [-68.990151, -37.335483], [-68.989877, -37.335414], [-68.989685, -37.335407], [-68.989321, -37.335428], [-68.985499, -37.335758], [-68.985341, -37.33577], [-68.985253, -37.335778], [-68.985013, -37.335796], [-68.984782, -37.335809], [-68.984525, -37.335818], [-68.984288, -37.335821], [-68.984102, -37.335813], [-68.983895, -37.335796], [-68.983687, -37.335771], [-68.983346, -37.335716], [-68.982989, -37.335653], [-68.982664, -37.335571], [-68.982365, -37.335463], [-68.980659, -37.334858], [-68.978098, -37.333857], [-68.975443, -37.332777], [-68.972072, -37.331422], [-68.971966, -37.331372], [-68.971899, -37.331345], [-68.971795, -37.331304], [-68.971721, -37.331275], [-68.971647, -37.331252], [-68.971527, -37.331218], [-68.971407, -37.331192], [-68.971296, -37.331176], [-68.965888, -37.330205], [-68.965073, -37.330047], [-68.961216, -37.329218], [-68.960648, -37.329081], [-68.960344, -37.32899], [-68.960063, -37.328895], [-68.959716, -37.328779], [-68.959068, -37.328562], [-68.958957, -37.328528], [-68.958833, -37.328491], [-68.958744, -37.328469], [-68.958678, -37.328457], [-68.958501, -37.328449], [-68.958441, -37.328447], [-68.958245, -37.328439], [-68.958078, -37.328433], [-68.957857, -37.328423], [-68.953778, -37.328296], [-68.949766, -37.328155], [-68.94968, -37.328145], [-68.949627, -37.328141], [-68.949599, -37.328141], [-68.949538, -37.32814], [-68.949475, -37.328138], [-68.949412, -37.328139], [-68.94935, -37.328141], [-68.949286, -37.328146], [-68.949227, -37.328152], [-68.949169, -37.328161], [-68.949111, -37.32817], [-68.94906, -37.328181], [-68.949013, -37.328191], [-68.948967, -37.328209], [-68.945931, -37.32896], [-68.944959, -37.329178], [-68.944451, -37.329286], [-68.937831, -37.329315], [-68.937763, -37.329319], [-68.937677, -37.329319], [-68.937594, -37.329317], [-68.937551, -37.329311], [-68.937506, -37.329303], [-68.937462, -37.329294], [-68.937421, -37.329282], [-68.937369, -37.329261], [-68.937284, -37.32922], [-68.937177, -37.329171], [-68.937063, -37.329121], [-68.931862, -37.32737], [-68.930306, -37.326837], [-68.930219, -37.32681], [-68.930157, -37.326788], [-68.930118, -37.326776], [-68.930093, -37.326769], [-68.930041, -37.326755], [-68.930012, -37.326748], [-68.929964, -37.326738], [-68.929896, -37.326728], [-68.929832, -37.326722], [-68.929769, -37.326719], [-68.919152, -37.326728], [-68.91102, -37.326732], [-68.90573, -37.32673], [-68.903788, -37.326729], [-68.898124, -37.326716], [-68.889344, -37.326715], [-68.886839, -37.326696], [-68.882153, -37.326699], [-68.877543, -37.326702], [-68.875554, -37.326693], [-68.874313, -37.326694], [-68.874173, -37.326694], [-68.874067, -37.326689], [-68.874045, -37.326689], [-68.874011, -37.326687], [-68.873978, -37.326685], [-68.873943, -37.326682], [-68.873896, -37.326676], [-68.873813, -37.326666], [-68.873452, -37.326601], [-68.8734, -37.326594], [-68.873335, -37.326588], [-68.873293, -37.326587], [-68.873244, -37.326589], [-68.873196, -37.326593], [-68.873117, -37.326601], [-68.872875, -37.326635], [-68.872692, -37.326658], [-68.872294, -37.326697], [-68.872122, -37.326707], [-68.871776, -37.326703], [-68.870069, -37.326685], [-68.86511, -37.326776], [-68.856821, -37.326894], [-68.856765, -37.326894], [-68.850908, -37.326884], [-68.850515, -37.326868], [-68.850389, -37.326862], [-68.850267, -37.326849], [-68.850013, -37.326826], [-68.849691, -37.326787], [-68.849161, -37.326714], [-68.849029, -37.326695], [-68.849003, -37.326691], [-68.848977, -37.326688], [-68.848951, -37.326686], [-68.848912, -37.326683], [-68.848872, -37.326678], [-68.848843, -37.326676], [-68.848801, -37.326674], [-68.848761, -37.326672], [-68.84872, -37.326671], [-68.848661, -37.326669], [-68.848601, -37.326668], [-68.848545, -37.326669], [-68.848469, -37.326667], [-68.848404, -37.32667], [-68.841855, -37.326657], [-68.840377, -37.326651], [-68.839457, -37.32663], [-68.839172, -37.326626], [-68.833527, -37.327037], [-68.833375, -37.327046], [-68.833213, -37.327052], [-68.83303, -37.327056], [-68.832845, -37.327051], [-68.832623, -37.327033], [-68.83233, -37.327001], [-68.829826, -37.326678], [-68.829646, -37.32666], [-68.829509, -37.326649], [-68.82936, -37.326643], [-68.829239, -37.326637], [-68.829099, -37.326636], [-68.828951, -37.326636], [-68.824995, -37.326636], [-68.820802, -37.326627], [-68.819124, -37.326633], [-68.81902, -37.326633], [-68.818886, -37.326627], [-68.818809, -37.326623], [-68.818773, -37.326619], [-68.818565, -37.326588], [-68.81832, -37.32655], [-68.817163, -37.326359], [-68.817018, -37.326339], [-68.816875, -37.326324], [-68.816759, -37.326323], [-68.816703, -37.326327], [-68.816641, -37.326332], [-68.81655, -37.326332], [-68.81403, -37.326479], [-68.814004, -37.326481], [-68.811853, -37.326601], [-68.811766, -37.326604], [-68.811668, -37.326607], [-68.811575, -37.326609], [-68.811468, -37.326609], [-68.811356, -37.326609], [-68.808069, -37.326606], [-68.79679, -37.326577], [-68.796734, -37.326577], [-68.785513, -37.326565], [-68.785457, -37.326565], [-68.777786, -37.326552], [-68.774232, -37.326546], [-68.774176, -37.326546], [-68.762944, -37.326526], [-68.762888, -37.326526], [-68.751646, -37.326493], [-68.75159, -37.326493], [-68.740367, -37.326474], [-68.74031, -37.326474], [-68.729106, -37.326447], [-68.72905, -37.326447], [-68.728354, -37.326451], [-68.728172, -37.326447], [-68.728061, -37.326448], [-68.72797, -37.326449], [-68.727909, -37.326453], [-68.727772, -37.326464], [-68.727727, -37.326468], [-68.727682, -37.326473], [-68.727651, -37.326477], [-68.727605, -37.326483], [-68.727529, -37.326494], [-68.727472, -37.326503], [-68.727341, -37.326528], [-68.727162, -37.326559], [-68.727041, -37.326585], [-68.725084, -37.326957], [-68.724958, -37.326982], [-68.724953, -37.326983], [-68.724943, -37.326986], [-68.724932, -37.326991], [-68.724921, -37.326995], [-68.724901, -37.327005], [-68.720365, -37.329993], [-68.718955, -37.330922], [-68.715545, -37.333161], [-68.70379, -37.340882], [-68.702181, -37.341939], [-68.693507, -37.347664], [-68.685495, -37.352944], [-68.684795, -37.353387], [-68.679743, -37.356696], [-68.676071, -37.359115], [-68.673324, -37.360916], [-68.667157, -37.36496], [-68.658235, -37.370813], [-68.650691, -37.375781], [-68.649445, -37.376591], [-68.642165, -37.381391], [-68.641911, -37.381563], [-68.641605, -37.381775], [-68.641199, -37.382059], [-68.638308, -37.384128], [-68.636095, -37.385578], [-68.630642, -37.389156], [-68.628705, -37.39041], [-68.626851, -37.391629], [-68.623856, -37.393591], [-68.604427, -37.406359], [-68.598836, -37.410063], [-68.598312, -37.410535], [-68.598056, -37.410721], [-68.596701, -37.41147], [-68.584905, -37.419254], [-68.581653, -37.421393], [-68.57929, -37.422958], [-68.57876, -37.423237], [-68.578141, -37.423369], [-68.577984, -37.423401], [-68.573163, -37.424446], [-68.572994, -37.424469], [-68.572887, -37.424473], [-68.572826, -37.424475], [-68.572576, -37.424476], [-68.570657, -37.42447], [-68.567803, -37.424458], [-68.56422, -37.424436], [-68.558588, -37.424409], [-68.54778, -37.424351], [-68.547263, -37.424349], [-68.54169, -37.424326], [-68.533387, -37.424279], [-68.523921, -37.42423], [-68.512222, -37.424171], [-68.51155, -37.424167], [-68.502633, -37.424119], [-68.497985, -37.4241], [-68.487012, -37.424035], [-68.481328, -37.424004], [-68.474322, -37.423964], [-68.474249, -37.423965], [-68.47418, -37.423973], [-68.474133, -37.423981], [-68.474053, -37.423995], [-68.468788, -37.424863], [-68.468137, -37.424927], [-68.463981, -37.424617], [-68.460751, -37.42438], [-68.458966, -37.424246], [-68.458783, -37.424232], [-68.452635, -37.423768], [-68.451821, -37.423705], [-68.451021, -37.423649], [-68.450517, -37.42342], [-68.447517, -37.420676], [-68.444681, -37.418053], [-68.439888, -37.413628], [-68.439014, -37.412823], [-68.437026, -37.410991], [-68.432993, -37.407258], [-68.431013, -37.405434], [-68.430632, -37.40521], [-68.43024, -37.404978], [-68.428162, -37.404684], [-68.425762, -37.404464], [-68.425331, -37.404453], [-68.419466, -37.404592], [-68.416147, -37.404677], [-68.414787, -37.404712], [-68.414734, -37.404711], [-68.414662, -37.404703], [-68.414599, -37.404688], [-68.414043, -37.404543], [-68.413839, -37.404385], [-68.412628, -37.40348], [-68.412104, -37.403092], [-68.410522, -37.403081], [-68.410214, -37.40308], [-68.408929, -37.403072], [-68.405386, -37.403056], [-68.40191, -37.403036], [-68.400072, -37.402986], [-68.399958, -37.402988], [-68.399856, -37.402999], [-68.399763, -37.403017], [-68.399656, -37.403046], [-68.39957, -37.403075], [-68.398462, -37.403437], [-68.39814, -37.403544], [-68.398054, -37.403566], [-68.397981, -37.403583], [-68.397808, -37.403617], [-68.397466, -37.403683], [-68.397015, -37.40377], [-68.396326, -37.403903], [-68.396261, -37.403918], [-68.396198, -37.403938], [-68.396142, -37.403965], [-68.39609, -37.403998], [-68.396054, -37.404025], [-68.395702, -37.404265], [-68.393802, -37.405557], [-68.391083, -37.407408], [-68.390692, -37.407675], [-68.388746, -37.409], [-68.38809, -37.409446], [-68.386623, -37.410444], [-68.385965, -37.410892], [-68.385689, -37.41108], [-68.384128, -37.412143], [-68.383825, -37.412349], [-68.382613, -37.413173], [-68.382556, -37.413212], [-68.38099, -37.414277], [-68.380225, -37.414783], [-68.379935, -37.414973], [-68.37991, -37.414986], [-68.379877, -37.415007], [-68.379844, -37.415026], [-68.37981, -37.415047], [-68.37978, -37.415063], [-68.379749, -37.415076], [-68.379728, -37.415083], [-68.379696, -37.415091], [-68.379654, -37.415101], [-68.379622, -37.415109], [-68.379588, -37.415112], [-68.379549, -37.415117], [-68.379509, -37.415119], [-68.37948, -37.415123], [-68.379448, -37.415127], [-68.379411, -37.415131], [-68.37937, -37.415137], [-68.379314, -37.415146], [-68.379279, -37.415153], [-68.378887, -37.415197], [-68.371982, -37.416067], [-68.370867, -37.416172], [-68.370529, -37.416222], [-68.370185, -37.416264], [-68.370138, -37.416269], [-68.370112, -37.416272], [-68.370013, -37.416284], [-68.369973, -37.416291], [-68.369941, -37.416296], [-68.369905, -37.416303], [-68.369849, -37.416315], [-68.369814, -37.416322], [-68.369759, -37.416337], [-68.369681, -37.416365], [-68.36443, -37.418462], [-68.364419, -37.418466], [-68.364408, -37.418467], [-68.364399, -37.418468], [-68.364389, -37.418467], [-68.364382, -37.418466], [-68.364379, -37.418465], [-68.364369, -37.418462], [-68.364148, -37.418371], [-68.364137, -37.418367], [-68.364126, -37.418365], [-68.364117, -37.418365], [-68.364108, -37.418365], [-68.364102, -37.418366], [-68.364098, -37.418367], [-68.364087, -37.41837], [-68.363361, -37.418659], [-68.363279, -37.418695], [-68.356491, -37.421394], [-68.356267, -37.421483], [-68.35604, -37.421573], [-68.351948, -37.423199], [-68.344413, -37.426197], [-68.335671, -37.429674], [-68.324124, -37.434265], [-68.317995, -37.436701], [-68.311029, -37.439468], [-68.305897, -37.441507], [-68.30584, -37.441531], [-68.30573, -37.441577], [-68.305651, -37.441608], [-68.30563, -37.441616], [-68.30558, -37.44163], [-68.305518, -37.441648], [-68.305444, -37.441666], [-68.30539, -37.44168], [-68.305324, -37.441697], [-68.305199, -37.441728], [-68.305158, -37.44174], [-68.305129, -37.441747], [-68.30506, -37.441764], [-68.304991, -37.441783], [-68.304968, -37.441789], [-68.304957, -37.441792], [-68.304263, -37.441966], [-68.304168, -37.441995], [-68.304005, -37.442067], [-68.303981, -37.442079], [-68.303935, -37.442106], [-68.303889, -37.442137], [-68.303859, -37.442158], [-68.303827, -37.442184], [-68.303788, -37.442217], [-68.303743, -37.442266], [-68.303729, -37.442305], [-68.303719, -37.44233], [-68.303713, -37.442347], [-68.303707, -37.44237], [-68.303703, -37.442385], [-68.303703, -37.442413], [-68.303703, -37.442433], [-68.303704, -37.442461], [-68.303708, -37.442494], [-68.303712, -37.442513], [-68.30372, -37.442542], [-68.303734, -37.442576], [-68.303755, -37.442613], [-68.303778, -37.442649], [-68.303812, -37.442702], [-68.304982, -37.44463], [-68.304999, -37.444659], [-68.305005, -37.444667], [-68.306507, -37.447148], [-68.307766, -37.449228], [-68.310577, -37.453872], [-68.312142, -37.456442], [-68.312173, -37.456499], [-68.312175, -37.456505], [-68.31218, -37.456529], [-68.312185, -37.456552], [-68.312188, -37.456581], [-68.312188, -37.456601], [-68.312187, -37.456619], [-68.312185, -37.456636], [-68.312146, -37.456937], [-68.312068, -37.457489], [-68.312042, -37.45767], [-68.31176, -37.459662], [-68.311728, -37.459981], [-68.311727, -37.460102], [-68.311722, -37.460847]]]}}
]
}
