{
"type": "FeatureCollection",
"features": [
{"type": "Feature", "properties": {"ProjectID": "P1406"}, "geometry": {"type": "LineString", "coordinates": [[121.5997, -21.674], [121.62, -21.683], [121.657, -21.693], [121.7098, -21.71], [121.719, -21.687], [121.711, -21.678], [121.7099, -21.661], [121.723, -21.625], [121.761, -21.607], [121.777, -21.584], [121.7985, -21.58], [121.8552, -21.5008], [121.7816, -21.4773], [121.6492, -21.4181], [121.6, -21.3694], [121.5567, -21.3532], [121.5563, -21.3395], [121.5086, -21.2886], [121.5106, -21.2814], [121.462, -21.265], [121.3751, -21.1776], [121.3215, -21.0844], [121.0768, -20.8332], [121.0636, -20.7784], [120.7848, -20.6515], [120.315, -20.4479], [120.1782, -20.4266], [119.615, -20.1951], [119.4605, -20.3175], [119.2414, -20.3162], [118.9613, -20.3986], [118.6866, -20.4122], [118.618, -20.3607], [118.6228, -20.304]]}}
]
}
