{
"type": "FeatureCollection",
"features": [
{"type": "Feature", "properties": {"ProjectID": "P1854", "id": null}, "geometry": {"type": "MultiLineString", "coordinates": [[[42.404457, 37.088535], [42.400517, 37.073764], [42.398285, 37.064509], [42.394147, 37.059228], [42.385599, 37.043058], [42.376888, 37.037886], [42.375745, 37.027324], [42.373731, 37.016979], [42.370464, 36.994276], [42.371117, 36.971955], [42.373731, 36.959596], [42.376997, 36.940976], [42.377923, 36.928672], [42.378794, 36.909399], [42.380164, 36.898886], [42.380019, 36.892167], [42.381679, 36.887295], [42.383721, 36.87676], [42.384946, 36.86911], [42.387859, 36.858603], [42.389356, 36.84491], [42.393085, 36.834348], [42.393113, 36.830047], [42.397904, 36.823187], [42.429125, 36.7776], [42.459643, 36.7339], [42.506573, 36.664321], [42.521327, 36.643142], [42.544684, 36.613579], [42.568857, 36.5832], [42.608601, 36.53224], [42.639742, 36.492388], [42.638218, 36.485092], [42.665113, 36.450901], [42.746452, 36.246629], [42.742695, 36.211186], [42.761696, 36.147215], [42.790061, 36.061902], [42.828063, 35.998747], [42.84211, 35.964665], [42.907442, 35.80569], [42.966023, 35.660216], [42.990414, 35.604901], [43.0172, 35.536738], [43.047689, 35.50233], [43.098213, 35.413913], [43.214722, 35.232507], [43.276461, 35.192763], [43.28245, 35.193743], [43.307058, 35.169352], [43.341685, 35.137884], [43.376746, 35.103802], [43.423241, 35.064058], [43.450136, 35.041627], [43.46255, 35.031719], [43.483129, 35.026492], [43.495651, 35.028779], [43.508936, 35.030739], [43.523011, 35.032624]]]}}
]
}
