{
"type": "FeatureCollection",
"features": [
{"type": "Feature", "properties": {"ProjectID": "P1934", "NAME": "Lagunillas-La Salina Oil Pipeline", "ID": "P1934", "LENGTH": 39.3, "name": "Lagunillas-La Salina Oil Pipeline", "id": "P1934"}, "geometry": {"type": "LineString", "coordinates": [[-71.255941, 10.125994], [-71.257504, 10.128719], [-71.262245, 10.138187], [-71.263279, 10.141048], [-71.262682, 10.144848], [-71.263877, 10.148721], [-71.263078, 10.149094], [-71.264773, 10.151978], [-71.270413, 10.148766], [-71.270632, 10.148636], [-71.272918, 10.152713], [-71.276962, 10.150564], [-71.278639, 10.157033], [-71.286589, 10.166011], [-71.288473, 10.166622], [-71.29355, 10.171801], [-71.2944, 10.172185], [-71.301684, 10.17854], [-71.301974, 10.178868], [-71.310096, 10.184363], [-71.313163, 10.186545], [-71.313548, 10.187246], [-71.318695, 10.190503], [-71.323841, 10.1942], [-71.332021, 10.197592], [-71.368461, 10.257647], [-71.37015, 10.259715], [-71.390793, 10.290948], [-71.414413, 10.324042], [-71.417538, 10.335163], [-71.419284, 10.338011], [-71.420708, 10.341808], [-71.423971, 10.345108], [-71.433759, 10.361076], [-71.44442, 10.370388], [-71.452507, 10.375676], [-71.454294, 10.378338], [-71.455942, 10.380004], [-71.459113, 10.377857], [-71.464213, 10.375416], [-71.467913, 10.372117]]}}
]
}
