{
"type": "FeatureCollection",
"features": [
{"type": "Feature", "properties": {"ProjectID": "P1941", "NAME": "Bachaquero-Puerto Miranda", "ID": "P1941", "LENGTH": 102.257, "name": "Bachaquero-Puerto Miranda", "id": "P1941"}, "geometry": {"type": "LineString", "coordinates": [[-71.524546, 10.759404], [-71.524526, 10.75894], [-71.517917, 10.75897], [-71.516641, 10.756079], [-71.515978, 10.754677], [-71.513729, 10.749882], [-71.512302, 10.747277], [-71.510474, 10.743823], [-71.509477, 10.741985], [-71.508614, 10.74159], [-71.507775, 10.741116], [-71.507448, 10.740825], [-71.507323, 10.740643], [-71.507263, 10.740386], [-71.507288, 10.739794], [-71.507353, 10.738383], [-71.507368, 10.738013], [-71.507318, 10.737672], [-71.507122, 10.737317], [-71.506796, 10.736804], [-71.506354, 10.73598], [-71.505605, 10.734554], [-71.504968, 10.733385], [-71.50433, 10.732126], [-71.503888, 10.731214], [-71.502672, 10.728376], [-71.500624, 10.724469], [-71.499438, 10.722258], [-71.49759, 10.719001], [-71.495632, 10.715478], [-71.494537, 10.713218], [-71.492759, 10.709695], [-71.490449, 10.70549], [-71.489324, 10.703655], [-71.488099, 10.701187], [-71.486592, 10.698345], [-71.484884, 10.694871], [-71.482333, 10.689758], [-71.478999, 10.68354], [-71.477552, 10.680481], [-71.47482, 10.675309], [-71.473615, 10.672683], [-71.470923, 10.667827], [-71.469095, 10.664471], [-71.46572, 10.657976], [-71.464937, 10.655982], [-71.461984, 10.650593], [-71.460437, 10.647473], [-71.459151, 10.644986], [-71.457123, 10.640998], [-71.454531, 10.635944], [-71.453145, 10.633041], [-71.450473, 10.627888], [-71.448927, 10.62469], [-71.446154, 10.619596], [-71.445612, 10.617701], [-71.444788, 10.614956], [-71.443503, 10.610375], [-71.442398, 10.606426], [-71.440711, 10.600226], [-71.439224, 10.594915], [-71.437336, 10.58828], [-71.436412, 10.584686], [-71.434985, 10.579019], [-71.43382, 10.575129], [-71.432334, 10.569699], [-71.430887, 10.56492], [-71.429341, 10.559193], [-71.428196, 10.555223], [-71.427151, 10.551333], [-71.425685, 10.545784], [-71.424278, 10.540886], [-71.422792, 10.535297], [-71.420683, 10.528404], [-71.419256, 10.523111], [-71.417187, 10.515468], [-71.416042, 10.511399], [-71.414074, 10.504387], [-71.412989, 10.500733], [-71.411181, 10.494215], [-71.409313, 10.487381], [-71.407304, 10.479717], [-71.405175, 10.472447], [-71.403849, 10.466877], [-71.403306, 10.465297], [-71.402282, 10.461889], [-71.401046, 10.457494], [-71.400343, 10.455084], [-71.399218, 10.451488], [-71.398716, 10.449137], [-71.398736, 10.448683], [-71.398977, 10.446945], [-71.39956, 10.443843], [-71.400042, 10.443507], [-71.400805, 10.443073], [-71.401067, 10.442638], [-71.401348, 10.440959], [-71.40195, 10.437008], [-71.402513, 10.434024], [-71.397423, 10.425828], [-71.396986, 10.425211], [-71.396414, 10.424267], [-71.400692, 10.421975], [-71.402862, 10.420731], [-71.403304, 10.420099], [-71.403786, 10.419229], [-71.403866, 10.418044], [-71.403645, 10.416641], [-71.403203, 10.415219], [-71.400773, 10.406664], [-71.398724, 10.399235], [-71.395751, 10.388367], [-71.393461, 10.379713], [-71.390568, 10.368608], [-71.388921, 10.362601], [-71.387876, 10.360269], [-71.385506, 10.355526], [-71.382251, 10.348768], [-71.380002, 10.344183], [-71.379238, 10.342484], [-71.376948, 10.339875], [-71.373332, 10.335409], [-71.368792, 10.329559], [-71.36598, 10.326042], [-71.363128, 10.322722], [-71.358387, 10.317069], [-71.351959, 10.309045], [-71.348865, 10.305685], [-71.344807, 10.297701], [-71.34083, 10.291139], [-71.335044, 10.281454], [-71.330143, 10.272915], [-71.324116, 10.262755], [-71.31817, 10.252476], [-71.316041, 10.248839], [-71.315077, 10.24702], [-71.312505, 10.242533], [-71.309934, 10.238322], [-71.307061, 10.233202], [-71.305434, 10.230692], [-71.302582, 10.225413], [-71.299388, 10.220397], [-71.298825, 10.219453], [-71.297919, 10.219288], [-71.292174, 10.217825], [-71.286454, 10.208188], [-71.283219, 10.203403], [-71.279945, 10.197729], [-71.277635, 10.193775], [-71.27426, 10.188002], [-71.272472, 10.184898], [-71.270323, 10.181161], [-71.266586, 10.174893], [-71.263252, 10.169179], [-71.261303, 10.165857], [-71.257486, 10.159312], [-71.255678, 10.156168], [-71.253308, 10.152134], [-71.249692, 10.145846], [-71.246619, 10.1411], [-71.244871, 10.137759], [-71.243485, 10.135405], [-71.242219, 10.13326], [-71.241918, 10.132647], [-71.249769, 10.109972], [-71.244566, 10.10036], [-71.231971, 10.078526], [-71.227913, 10.071208], [-71.217146, 10.05309], [-71.206459, 10.03509], [-71.195089, 10.015348], [-71.186612, 10.000709], [-71.1795, 9.988246], [-71.167668, 9.969292], [-71.15208, 9.962961], [-71.14746, 9.95473], [-71.146807, 9.954166]]}}
]
}
