{
"type": "FeatureCollection",
"features": [
{"type": "Feature", "properties": {"ProjectID": "P1947", "NAME": "Traviaso-TAEJ Oil Pipeline", "ID": "P1947", "LENGTH": 149.722, "name": "Traviaso-TAEJ Oil Pipeline", "id": "P1947"}, "geometry": {"type": "LineString", "coordinates": [[-64.851652, 10.065095], [-64.852065, 10.04882], [-64.852062, 10.047048], [-64.850333, 10.047001], [-64.839848, 10.047411], [-64.82993, 10.047858], [-64.825993, 10.04838], [-64.820315, 10.046405], [-64.801618, 10.048176], [-64.785812, 10.049532], [-64.711881, 10.037122], [-64.667391, 10.017252], [-64.635849, 10.00111], [-64.625179, 9.99608], [-64.619715, 9.987692], [-64.613367, 9.976533], [-64.598421, 9.94456], [-64.595529, 9.938624], [-64.591591, 9.935538], [-64.580021, 9.931738], [-64.57528, 9.929047], [-64.571744, 9.923428], [-64.568932, 9.918204], [-64.562745, 9.907043], [-64.560656, 9.902294], [-64.560897, 9.898969], [-64.560816, 9.884167], [-64.561294, 9.852404], [-64.547558, 9.845826], [-64.498823, 9.829612], [-64.495096, 9.82815], [-64.487865, 9.824859], [-64.473867, 9.820668], [-64.457614, 9.813916], [-64.426657, 9.801361], [-64.406788, 9.793659], [-64.3884, 9.786261], [-64.362907, 9.775397], [-64.361421, 9.774961], [-64.354258, 9.76982], [-64.323439, 9.746404], [-64.301952, 9.730045], [-64.29169, 9.724208], [-64.277503, 9.71691], [-64.250506, 9.703198], [-64.233736, 9.695188], [-64.232359, 9.693558], [-64.209839, 9.682764], [-64.166175, 9.669526], [-64.148596, 9.662516], [-64.132517, 9.654933], [-64.119534, 9.652733], [-64.110778, 9.651267], [-64.095798, 9.648552], [-64.091786, 9.645939], [-64.085577, 9.640005], [-64.08395, 9.639147], [-64.081338, 9.63855], [-64.072215, 9.638699], [-64.061063, 9.638674], [-64.042802, 9.638737], [-64.037148, 9.638464], [-64.013483, 9.638765], [-64.002833, 9.638875], [-63.995637, 9.638886], [-63.987724, 9.638886], [-63.985892, 9.638886], [-63.98082, 9.638886], [-63.978294, 9.638604], [-63.97706, 9.638287], [-63.969075, 9.636234], [-63.961226, 9.634333], [-63.959296, 9.634184], [-63.957857, 9.634333], [-63.954801, 9.635441], [-63.948789, 9.637629], [-63.939595, 9.641081], [-63.934357, 9.642834], [-63.92828, 9.644784], [-63.922501, 9.646238], [-63.91387, 9.646163], [-63.896268, 9.64579], [-63.883089, 9.645591], [-63.86659, 9.645342], [-63.850294, 9.645062], [-63.836061, 9.644782], [-63.82338, 9.644596], [-63.805588, 9.644316], [-63.792964, 9.644111], [-63.781608, 9.643849], [-63.77468, 9.643756], [-63.764195, 9.643532], [-63.756643, 9.643439], [-63.746006, 9.643252], [-63.74099, 9.64314], [-63.731299, 9.643028], [-63.721968, 9.64286], [-63.715741, 9.642767], [-63.709665, 9.64286], [-63.705615, 9.642935], [-63.699871, 9.642823], [-63.693227, 9.64273], [-63.682742, 9.642571], [-63.675303, 9.642683]]}}
]
}
