{
"type": "FeatureCollection",
"features": [
{"type": "Feature", "properties": {"ProjectID": "P2219", "layer": "rokanp1", "path": "/Users/isabelmahon/Documents/oyul/oyulwait/rokanp1.geojson"}, "geometry": {"type": "LineString", "coordinates": [[101.469861, 1.678614], [101.466579, 1.67116], [101.45256, 1.657444], [101.438689, 1.648797], [101.432424, 1.632546], [101.381833, 1.628429], [101.333104, 1.624312], [101.181426, 1.560683], [101.119678, 1.580435], [101.073985, 1.615], [101.024587, 1.640924], [100.971485, 1.612531], [100.935671, 1.619938], [100.907267, 1.663144], [100.891213, 1.69277], [100.840861, 1.694722], [100.826565, 1.695921], [100.789287, 1.678318], [100.759982, 1.668926]]}},
{"type": "Feature", "properties": {"ProjectID": "P2219", "layer": "rokanp2", "path": "/Users/isabelmahon/Documents/oyul/oyulwait/rokanp2.geojson"}, "geometry": {"type": "LineString", "coordinates": [[101.469942, 1.678677], [101.466313, 1.670514], [101.452399, 1.657362], [101.451643, 1.642849], [101.446331, 1.628565], [101.43264, 1.608038], [101.409538, 1.594353], [101.396288, 1.57238], [101.383617, 1.545464], [101.374114, 1.51934], [101.358276, 1.501131], [101.349564, 1.462339], [101.299672, 1.42038], [101.269579, 1.401379], [101.248516, 1.364849], [101.247741, 1.353961], [101.243501, 1.344455], [101.240007, 1.305017], [101.238396, 1.277186], [101.215087, 1.265628], [101.209492, 1.26339], [101.215646, 1.248662], [101.230196, 1.205564], [101.249353, 1.189604], [101.268217, 1.159653], [101.263992, 1.10088], [101.256023, 1.059907], [101.248055, 0.997309], [101.23098, 0.943815], [101.22415, 0.886905], [101.275375, 0.841376], [101.316355, 0.828856], [101.359612, 0.793571], [101.401731, 0.759424], [101.454906, 0.742327]]}}
]
}
