{
"type": "FeatureCollection",
"features": [
{"type": "Feature", "properties": {"ProjectID": "P2284"}, "geometry": {"type": "LineString", "coordinates": [[53.32159, 54.38584], [53.3109, 54.367559], [53.285236, 54.356706], [53.27837, 54.351904], [53.207989, 54.332841], [53.129711, 54.298696], [53.022766, 54.20583], [52.844238, 54.123017], [52.654037, 53.996872], [52.583313, 53.762108], [52.386246, 53.664171], [52.25853, 53.654813], [52.15356, 53.6424], [52.135963, 53.635224], [52.110043, 53.636853], [52.071247, 53.620718], [51.968422, 53.612062], [51.888084, 53.594542], [51.839848, 53.588633], [51.672821, 53.523472], [51.654282, 53.508468], [51.636772, 53.484266], [51.61068, 53.464139], [51.436958, 53.389062], [51.423054, 53.3736], [51.383915, 53.347272], [51.31937, 53.325747], [51.18934, 53.2807], [51.143074, 53.267677], [51.11784, 53.270244], [50.915279, 53.250426], [50.878544, 53.222069], [50.746536, 53.158918], [50.656242, 53.103301], [50.623283, 53.086292], [50.612984, 53.063397], [50.544834, 53.036465], [50.53428, 52.99226]]}}
]
}
