{
"type": "FeatureCollection",
"features": [
{"type": "Feature", "properties": {"ProjectID": "P2361"}, "geometry": {"type": "LineString", "coordinates": [[73.23503, 55.08879], [73.528748, 55.031012], [73.542051, 55.0289], [73.590889, 55.017186], [73.60857, 55.012], [73.619771, 55.01974], [73.622088, 55.011877], [73.711567, 55.033651], [73.766155, 55.033712], [73.861256, 55.030079], [73.875675, 55.023645], [73.990002, 55.030472], [74.063644, 55.005714], [74.143896, 55.025511], [74.290924, 55.009153], [74.513397, 55.016228], [74.782562, 55.044514], [75.142708, 55.059042], [75.2069, 55.0716], [75.283813, 55.095338], [75.638466, 55.110436], [75.845146, 55.142965], [75.90999, 55.19858], [76.017494, 55.196403], [76.132507, 55.224365], [76.14109, 55.221433], [76.26194, 55.235897], [76.442184, 55.222215], [76.69693, 55.262269], [76.824303, 55.249378], [76.975365, 55.271447], [77.085228, 55.298186], [77.218781, 55.316717], [77.311821, 55.301893], [77.434731, 55.318082], [77.571373, 55.301112], [77.71934, 55.31028], [77.728615, 55.308915], [77.904739, 55.275156], [78.133392, 55.266956], [78.277931, 55.301503], [78.39, 55.34182], [78.509674, 55.294381], [78.680477, 55.304917], [78.92561, 55.302478], [78.963633, 55.306331], [79.08371, 55.281549], [79.129972, 55.276718], [79.17362, 55.27025], [79.248075, 55.268518], [79.275112, 55.271593], [79.300261, 55.26388], [79.333305, 55.258656], [79.368324, 55.257045], [79.394674, 55.258168], [79.419308, 55.253724], [79.468918, 55.265198], [79.565563, 55.269006], [79.592514, 55.262562], [79.702549, 55.279939], [79.811211, 55.282379], [79.936867, 55.25309], [80.130501, 55.193468], [80.319672, 55.194446], [80.490646, 55.119061], [80.634155, 55.120629], [80.98188, 55.1158], [81.193771, 55.089651], [81.640778, 55.1269], [82.200394, 55.06807], [82.521057, 54.985562], [82.728424, 54.936764], [83.05418, 54.91953], [83.25845, 55.191], [83.296967, 55.161373], [83.571625, 55.255238], [83.805084, 55.460185], [84.079742, 55.560322], [84.421692, 55.627712], [84.64469, 55.72439], [84.81102, 55.719763], [84.968262, 55.738709], [85.082245, 55.758418], [85.2285, 55.787385], [85.382309, 55.789315], [85.490799, 55.892641], [85.525131, 55.988396], [85.745544, 56.038295], [85.776443, 56.037527], [85.842361, 56.06207], [85.978317, 56.136368], [86.05329, 56.15516], [86.149292, 56.134646], [86.215897, 56.134646], [86.32061, 56.162186], [86.489697, 56.180916], [86.602306, 56.188272], [86.75972, 56.162759], [86.938248, 56.134837], [87.255478, 56.106513], [87.295647, 56.081041], [87.310753, 56.080083], [87.649612, 56.1834], [87.7909, 56.18583], [87.887535, 56.195818], [87.975426, 56.202312], [88.120308, 56.183591], [88.166313, 56.184547], [88.340034, 56.170405], [88.416252, 56.152052], [88.733826, 56.113404], [89.053802, 56.117998], [89.2574, 56.11515], [89.572906, 56.166582], [90.027466, 56.209377], [90.168228, 56.266998], [90.352249, 56.308158], [90.49523, 56.32266], [90.683212, 56.321106], [90.936928, 56.313871], [91.163177, 56.257846], [91.206093, 56.228085], [91.361961, 56.193335], [91.476974, 56.17977], [91.530533, 56.186075], [91.599197, 56.180343], [91.65917, 56.19241], [91.778412, 56.216632], [91.870766, 56.223123], [92.012901, 56.212623], [92.120361, 56.238199], [92.315712, 56.204603], [92.533035, 56.144784], [92.778168, 56.06667], [93.2731, 55.97819], [93.370743, 55.94747], [93.486786, 55.959195], [93.521805, 55.948815], [93.588753, 55.945355], [93.675957, 55.918815], [93.725052, 55.888021], [93.78891, 55.87974], [93.864098, 55.893219], [93.921776, 55.88571], [93.98838, 55.886095], [94.299774, 55.847181], [94.332047, 55.834458], [94.376335, 55.835422], [94.55658, 55.790666], [94.709702, 55.781207], [94.752274, 55.796649], [94.79794, 55.79291], [94.909515, 55.800316], [95.151901, 55.93151], [95.381241, 55.981482], [95.465698, 56.00606], [95.516167, 56.013929], [95.581055, 56.083914], [95.646286, 56.113022], [95.833054, 56.202503], [96.009521, 56.206322], [96.268387, 56.198683], [96.479874, 56.226558], [96.65656, 56.19113], [96.822166, 56.173081], [96.912117, 56.129289], [97.041206, 56.130628], [97.169609, 56.148036], [97.287369, 56.143063], [97.398605, 56.135985], [97.526321, 56.111873], [97.712746, 56.071844], [97.833939, 55.982442], [98.001137, 55.909964], [98.03779, 55.90794], [98.066711, 55.899956], [98.209877, 55.72711], [98.355446, 55.69984], [98.566589, 55.579703], [98.623238, 55.515803], [98.617401, 55.4481], [98.634567, 55.424143], [98.623581, 55.399976], [98.62131, 55.38501], [98.619118, 55.365844], [98.630791, 55.348279], [98.673706, 55.305897], [98.696022, 55.275986], [98.700829, 55.242531], [98.75164, 55.147685], [98.762627, 55.144742], [98.821678, 55.054383], [98.817902, 54.996524], [98.97836, 54.89612], [99.039688, 54.84499], [99.278984, 54.855861], [99.451675, 54.789997], [99.557419, 54.771385], [99.599304, 54.738893], [99.748306, 54.672044], [99.924088, 54.650995], [100.106735, 54.656556], [100.171967, 54.638082], [100.248184, 54.614828], [100.55456, 54.61197], [100.603523, 54.614033], [100.667381, 54.538016], [100.756989, 54.519886], [100.868912, 54.512711], [100.998001, 54.472432], [101.283989, 54.417532], [101.47007, 54.350754], [101.87033, 54.1313], [101.912613, 54.03157], [102.074661, 53.812815], [102.258682, 53.631611], [102.672043, 53.39807], [102.763367, 53.336203], [102.850571, 53.147182], [102.938461, 53.012924], [103.18222, 52.915113], [103.40744, 52.842595], [103.549576, 52.754581], [103.796082, 52.562995], [103.967743, 52.440107], [104.092712, 52.373084], [104.236908, 52.328625]]}}
]
}
