{
"type": "FeatureCollection",
"features": [
{"type": "Feature", "properties": {"ProjectID": "P2382"}, "geometry": {"type": "LineString", "coordinates": [[55.86869, 53.43841], [56.093788, 53.345633], [56.171036, 53.270757], [56.212234, 53.179087], [56.206741, 53.090519], [56.287079, 52.98255], [56.399689, 52.913664], [56.485863, 52.871617], [56.578903, 52.811478], [56.65624, 52.71981], [56.68087, 52.701406], [56.691685, 52.666545], [56.71443, 52.652385], [56.769962, 52.601901], [56.814508, 52.58094], [56.849871, 52.564717], [56.878967, 52.50849], [57.004108, 52.487589], [57.05595, 52.466678], [57.143154, 52.371093], [57.154655, 52.348868], [57.158432, 52.336598], [57.251129, 52.323065], [57.322712, 52.264691], [57.358932, 52.252922], [57.421417, 52.202662], [57.482357, 52.20403], [57.516861, 52.18551], [57.529221, 52.166141], [57.560978, 52.143392], [57.59016, 52.135279], [57.6087, 52.128325], [57.629986, 52.114834], [57.669811, 52.099441], [57.685261, 52.083304], [57.761478, 52.047212], [57.781391, 52.02155], [57.861385, 51.992174], [57.944641, 51.956538], [58.038025, 51.86674], [58.214493, 51.835778], [58.320236, 51.749989], [58.333282, 51.616311], [58.3992, 51.488652], [58.380661, 51.345196], [58.498764, 51.258048]]}}
]
}
