{
"type": "FeatureCollection",
"features": [
{"type": "Feature", "properties": {"ProjectID": "P2452"}, "geometry": {"type": "LineString", "coordinates": [[-81.105988, 40.401234], [-81.105945, 40.400523], [-81.105495, 40.399971], [-81.10683, 40.399134], [-81.106846, 40.398317], [-81.107619, 40.397745], [-81.108327, 40.394738], [-81.107748, 40.393153], [-81.108155, 40.392434], [-81.108155, 40.391265], [-81.107565, 40.390857], [-81.105226, 40.390628], [-81.097684, 40.384695], [-81.091107, 40.384294], [-81.089036, 40.383281], [-81.086649, 40.381471], [-81.085786, 40.381042], [-81.083363, 40.378556], [-81.079144, 40.378247], [-80.958531, 40.330434], [-80.949991, 40.333623], [-80.938232, 40.330401], [-80.938103, 40.329771], [-80.93637, 40.329767], [-80.936419, 40.329939], [-80.934986, 40.329963], [-80.934777, 40.329771], [-80.93305, 40.329763], [-80.930711, 40.329256], [-80.930893, 40.328193], [-80.838734, 40.290694], [-80.737818, 40.226254], [-80.682156, 40.213719], [-80.677693, 40.212818], [-80.676802, 40.212187], [-80.675644, 40.212277], [-80.674249, 40.21181], [-80.673519, 40.210794], [-80.660001, 40.208262], [-80.659883, 40.207975], [-80.6591, 40.207844], [-80.659175, 40.207041], [-80.659744, 40.205919], [-80.657212, 40.203698], [-80.657126, 40.20083], [-80.652115, 40.199142], [-80.649261, 40.20015], [-80.540827, 40.235362], [-80.485792, 40.228254], [-80.274954, 40.257701], [-80.272722, 40.258241], [-80.270233, 40.258536], [-80.268838, 40.259519], [-80.267503, 40.260071], [-80.268071, 40.261234], [-80.268232, 40.261799], [-80.26812, 40.261823], [-80.267975, 40.261418], [-80.267004, 40.261586], [-80.265985, 40.260767], [-80.266725, 40.260206], [-80.266049, 40.258651], [-80.264815, 40.258299], [-80.264568, 40.254164], [-80.257509, 40.247577], [-80.207537, 40.233132], [-79.966114, 40.23007], [-79.784045, 40.221388], [-79.77381, 40.22509], [-79.772093, 40.230168], [-79.769862, 40.235705], [-79.755013, 40.235722], [-79.712222, 40.249013], [-79.649796, 40.2965], [-79.633026, 40.329436], [-79.625816, 40.343012], [-79.631653, 40.360542], [-79.608092, 40.41513], [-79.602342, 40.420717], [-79.584918, 40.425095], [-79.578041, 40.430665], [-79.576424, 40.43116], [-79.575906, 40.430526], [-79.574693, 40.430436], [-79.572741, 40.428664], [-79.560027, 40.426598], [-79.537239, 40.42467], [-79.52827, 40.426859], [-79.486513, 40.434797], [-79.430037, 40.438129], [-79.302514, 40.444971], [-79.234686, 40.454197], [-79.210653, 40.451127], [-79.196577, 40.440611], [-78.954105, 40.429374], [-78.946724, 40.427284], [-78.855615, 40.41745], [-78.714579, 40.448625], [-78.71474, 40.449078], [-78.714643, 40.449098], [-78.71445, 40.448653], [-78.69879, 40.452223], [-78.616292, 40.454233], [-78.60338, 40.448564], [-78.604753, 40.447176], [-78.59087, 40.4395], [-78.572502, 40.417417], [-78.553171, 40.407062], [-78.508411, 40.400357], [-78.453798, 40.408333], [-78.414102, 40.406503], [-78.384104, 40.416339], [-78.371272, 40.410719], [-78.351469, 40.413849], [-78.337412, 40.422318], [-78.34136, 40.427284], [-78.321299, 40.447692], [-78.28321, 40.430224], [-78.278275, 40.435679], [-78.216992, 40.421926], [-78.187938, 40.413757], [-78.164463, 40.404477], [-78.164592, 40.402386], [-78.158927, 40.399248], [-78.143349, 40.395588], [-78.140903, 40.398268], [-78.080778, 40.385226], [-78.077645, 40.382251], [-78.079233, 40.380486], [-78.079834, 40.37568], [-78.061295, 40.367997], [-78.031426, 40.361196], [-77.955208, 40.348114], [-77.916116, 40.336797], [-77.863182, 40.345369], [-77.806893, 40.324692], [-77.612572, 40.284371], [-77.517471, 40.269572], [-77.425862, 40.246232], [-77.26877, 40.241904], [-77.262468, 40.241788], [-77.219403, 40.240472], [-77.215154, 40.239882], [-77.207966, 40.243486], [-77.203481, 40.243273], [-77.201443, 40.244911], [-77.19286, 40.243731], [-77.183483, 40.240898], [-77.175372, 40.237949], [-77.168398, 40.236246], [-77.164063, 40.237179], [-77.151103, 40.235017], [-77.151618, 40.23315], [-77.145009, 40.228563], [-77.127671, 40.230758], [-77.104737, 40.231125], [-77.09851, 40.220896], [-77.025418, 40.195696], [-76.9912, 40.196708], [-76.972232, 40.195528], [-76.964035, 40.196151], [-76.95498, 40.197986], [-76.954529, 40.197085], [-76.947277, 40.192807], [-76.925797, 40.19243], [-76.925218, 40.192856], [-76.920905, 40.192217], [-76.858367, 40.190937], [-76.848035, 40.192479], [-76.840739, 40.191529], [-76.812158, 40.192348], [-76.811214, 40.195102], [-76.801343, 40.198888], [-76.782063, 40.203805], [-76.772118, 40.201068], [-76.76641, 40.209786], [-76.743364, 40.214505], [-76.734824, 40.214473], [-76.733537, 40.216111], [-76.725383, 40.218012], [-76.72298, 40.219847], [-76.716596, 40.22151], [-76.716078, 40.220041], [-76.715939, 40.22007], [-76.716456, 40.221539], [-76.645861, 40.24075], [-76.613383, 40.248372], [-76.610306, 40.249471], [-76.556026, 40.262637], [-76.523696, 40.269892], [-76.438262, 40.290974], [-76.270468, 40.284521], [-76.228509, 40.28591], [-76.216922, 40.281032], [-76.19422, 40.279362], [-76.191001, 40.282669], [-76.18186, 40.284109], [-76.107709, 40.284002], [-76.042664, 40.316119], [-76.040282, 40.315399], [-76.037214, 40.31252], [-76.033909, 40.3109], [-76.034746, 40.30964], [-76.029146, 40.307022], [-76.026442, 40.304944], [-76.023266, 40.296892], [-76.029403, 40.290902], [-76.02876, 40.290182], [-76.031613, 40.287596], [-76.02803, 40.280377], [-76.026292, 40.278331], [-76.025582, 40.276058], [-76.022108, 40.27653], [-76.020885, 40.277234], [-76.016936, 40.27599], [-76.016293, 40.276792], [-76.01404, 40.276432], [-76.012065, 40.275318], [-76.007838, 40.27432], [-76.007645, 40.273567], [-75.99241, 40.257717], [-75.991037, 40.257504], [-75.989599, 40.254606], [-75.980651, 40.24514], [-75.974557, 40.24093], [-75.975147, 40.237499], [-75.967723, 40.236369], [-75.948213, 40.223568], [-75.938594, 40.21709], [-75.940558, 40.217061], [-75.940582, 40.216959], [-75.893555, 40.188381], [-75.880423, 40.188775], [-75.876131, 40.186349], [-75.874157, 40.176316], [-75.848794, 40.160575], [-75.840468, 40.153588], [-75.836906, 40.152539], [-75.828538, 40.148012], [-75.791824, 40.124553], [-75.790858, 40.120599], [-75.774937, 40.113822], [-75.771676, 40.111597], [-75.758758, 40.10473], [-75.757127, 40.102892], [-75.753669, 40.101093], [-75.727129, 40.088152], [-75.717988, 40.077448], [-75.711637, 40.069205], [-75.702324, 40.060288], [-75.679836, 40.05334], [-75.662327, 40.045998], [-75.657477, 40.044865], [-75.648744, 40.046655], [-75.646234, 40.045785], [-75.635848, 40.038721], [-75.62778, 40.036618], [-75.623875, 40.035107], [-75.620613, 40.032511], [-75.612588, 40.021666], [-75.609026, 40.022389], [-75.606923, 40.017952], [-75.604177, 40.015915], [-75.599198, 40.013482], [-75.59731, 40.012759], [-75.59216, 40.009078], [-75.586023, 40.007369], [-75.570874, 39.998394], [-75.566454, 39.997638], [-75.561004, 39.995304], [-75.555639, 39.990438], [-75.54349, 39.986943], [-75.531821, 39.971957], [-75.520535, 39.964787], [-75.519462, 39.961794], [-75.510836, 39.950543], [-75.500488, 39.942096], [-75.494528, 39.940245], [-75.489035, 39.939916], [-75.481549, 39.942407], [-75.466204, 39.922244], [-75.465303, 39.921882], [-75.460753, 39.916978], [-75.457835, 39.913752], [-75.457106, 39.911382], [-75.457535, 39.91046], [-75.456934, 39.908024], [-75.45393, 39.905951], [-75.450325, 39.907926], [-75.44436, 39.903119], [-75.44024, 39.901539], [-75.438094, 39.901967], [-75.430799, 39.89367], [-75.42419, 39.888435], [-75.422645, 39.888303], [-75.420284, 39.886689], [-75.419254, 39.883825], [-75.413847, 39.880531], [-75.409405, 39.876856], [-75.412538, 39.874422], [-75.412688, 39.873154], [-75.411851, 39.872709], [-75.411766, 39.87131], [-75.409298, 39.868296], [-75.404084, 39.863734], [-75.39869, 39.85476], [-75.402131, 39.85311], [-75.401444, 39.850029], [-75.407946, 39.846734], [-75.411465, 39.846191], [-75.411465, 39.845762], [-75.415928, 39.844494], [-75.416915, 39.844679], [-75.41787, 39.844502]]}}
]
}
