{
"type": "FeatureCollection",
"features": [
{"type": "Feature", "properties": {"ProjectID": "P2504"}, "geometry": {"type": "LineString", "coordinates": [[-93.330376, 30.158411], [-93.318492, 30.150372], [-93.307222, 30.142738], [-93.300398, 30.137962], [-93.296029, 30.135393], [-93.294119, 30.134086], [-93.292855, 30.137374], [-93.29037, 30.137244], [-93.290361, 30.139134], [-93.287541, 30.139068], [-93.286918, 30.138822], [-93.284184, 30.138953], [-93.282733, 30.138349], [-93.281064, 30.13867], [-93.277814, 30.138565], [-93.277957, 30.14009], [-93.273297, 30.139952], [-93.265807, 30.13984], [-93.262788, 30.138716], [-93.255818, 30.137894], [-93.24874, 30.137063], [-93.240373, 30.136114], [-93.240738, 30.140306], [-93.192644, 30.140558], [-93.192461, 30.134871], [-93.192579, 30.132991], [-93.188509, 30.133376], [-93.188425, 30.133179], [-93.176675, 30.13324], [-93.17368, 30.131927], [-93.173645, 30.125025], [-93.161659, 30.125252], [-93.161755, 30.127151], [-93.155462, 30.127048], [-93.151105, 30.127122], [-93.149447, 30.127348], [-93.147528, 30.127928], [-93.144948, 30.127692], [-93.144155, 30.127052], [-93.121323, 30.126566], [-93.114454, 30.128298], [-93.098133, 30.134003], [-93.087308, 30.138086], [-93.081031, 30.141642], [-93.077643, 30.141566], [-93.076751, 30.142192], [-93.073929, 30.141932], [-93.073218, 30.145528], [-93.072721, 30.147372], [-93.063108, 30.147076], [-93.05482, 30.151508], [-93.048147, 30.153844], [-93.038657, 30.156982], [-93.038599, 30.157449], [-93.029347, 30.157538], [-92.965601, 30.156722], [-92.956504, 30.156442], [-92.956642, 30.155321], [-92.941978, 30.155229], [-92.941114, 30.154299], [-92.939663, 30.154163], [-92.938558, 30.155194], [-92.932703, 30.155072], [-92.932063, 30.156288], [-92.928292, 30.157778], [-92.923225, 30.157872], [-92.914347, 30.158459], [-92.908842, 30.160778], [-92.906454, 30.160999], [-92.905281, 30.160739], [-92.901775, 30.158466], [-92.898407, 30.157851], [-92.89217, 30.158165], [-92.886176, 30.157903], [-92.883228, 30.158075], [-92.878748, 30.158104], [-92.873725, 30.159728], [-92.871098, 30.16008], [-92.862308, 30.160152], [-92.855579, 30.160268], [-92.850096, 30.160052], [-92.847847, 30.16014], [-92.846435, 30.161802], [-92.844922, 30.16151], [-92.843197, 30.160151], [-92.835429, 30.160318], [-92.82749, 30.160468], [-92.822652, 30.160611], [-92.817022, 30.161576], [-92.813738, 30.163062], [-92.811833, 30.164528], [-92.807202, 30.16439], [-92.799415, 30.164702], [-92.791344, 30.164538], [-92.791925, 30.162648], [-92.786783, 30.162462], [-92.783477, 30.162748], [-92.781853, 30.163342], [-92.763067, 30.163509], [-92.760308, 30.163547], [-92.758359, 30.162614], [-92.757168, 30.162501], [-92.754202, 30.162819], [-92.744941, 30.162539], [-92.726195, 30.162405], [-92.696981, 30.162019], [-92.687782, 30.162111], [-92.682794, 30.162084], [-92.680545, 30.162169], [-92.675708, 30.162305], [-92.674138, 30.161109], [-92.67087, 30.161096], [-92.67004, 30.162213], [-92.643552, 30.162075], [-92.635088, 30.162312], [-92.631404, 30.161511], [-92.623395, 30.162239], [-92.621674, 30.160878], [-92.619237, 30.161093], [-92.606668, 30.151662], [-92.604441, 30.15429], [-92.601381, 30.153996], [-92.596544, 30.152784], [-92.588915, 30.154593], [-92.585477, 30.154562], [-92.582738, 30.153102], [-92.573408, 30.153402], [-92.573919, 30.156142], [-92.555844, 30.156197], [-92.554239, 30.15664], [-92.552331, 30.156755], [-92.551047, 30.156033], [-92.546193, 30.156313], [-92.531368, 30.156527], [-92.524834, 30.156494], [-92.522851, 30.1572], [-92.497886, 30.155982], [-92.497528, 30.154751], [-92.487691, 30.153648], [-92.4845, 30.15304], [-92.443164, 30.148035], [-92.439663, 30.147547], [-92.430075, 30.145582], [-92.426239, 30.145061], [-92.41319, 30.142315], [-92.405427, 30.140673], [-92.399213, 30.140969], [-92.398864, 30.141785], [-92.382956, 30.142001], [-92.378862, 30.142167], [-92.361154, 30.13994], [-92.358514, 30.137062], [-92.350955, 30.136959], [-92.344441, 30.136958], [-92.338937, 30.137338], [-92.336418, 30.136667], [-92.333024, 30.135838], [-92.330496, 30.135873], [-92.329251, 30.137308], [-92.323578, 30.137105], [-92.314798, 30.135748], [-92.313262, 30.135667], [-92.31213, 30.134353], [-92.307018, 30.134842], [-92.303642, 30.13451], [-92.296283, 30.133503], [-92.270868, 30.129868], [-92.259987, 30.128664], [-92.25585, 30.128138], [-92.255719, 30.127063], [-92.247354, 30.126709], [-92.246845, 30.127484], [-92.23869, 30.126561], [-92.216398, 30.124827], [-92.207915, 30.124341], [-92.190228, 30.121644], [-92.169076, 30.118482], [-92.15972, 30.117434], [-92.151285, 30.116595], [-92.148593, 30.116445], [-92.145158, 30.115749], [-92.14159, 30.11504], [-92.136709, 30.115026], [-92.133913, 30.114629], [-92.129775, 30.11516], [-92.124868, 30.114317], [-92.117398, 30.114397], [-92.116657, 30.113852], [-92.112358, 30.113541], [-92.11071, 30.112669], [-92.10684, 30.113226], [-92.101398, 30.112328], [-92.092586, 30.113334], [-92.084607, 30.111121], [-92.080448, 30.109762], [-92.066598, 30.112973], [-92.062856, 30.108472], [-92.062068, 30.108275], [-92.057817, 30.101483], [-92.052526, 30.093298], [-92.048516, 30.088563], [-92.044017, 30.083631], [-92.03322, 30.083443], [-92.026642, 30.083829], [-92.023641, 30.083581], [-92.021901, 30.081991], [-92.021549, 30.080966], [-92.01707, 30.081011], [-92.006107, 30.080898], [-92.005511, 30.080485], [-91.993085, 30.080366], [-91.990749, 30.078362], [-91.989376, 30.078295], [-91.986852, 30.076485], [-91.961018, 30.07692], [-91.959532, 30.074648], [-91.957148, 30.07363], [-91.953707, 30.073212], [-91.952274, 30.071157], [-91.948599, 30.071281], [-91.946754, 30.071095], [-91.944427, 30.070859], [-91.943369, 30.070258], [-91.938802, 30.070362], [-91.937444, 30.07079], [-91.932656, 30.07073], [-91.931374, 30.071802], [-91.931008, 30.073321], [-91.922421, 30.073088], [-91.919826, 30.076078], [-91.916204, 30.07762], [-91.909716, 30.076892], [-91.907319, 30.076578], [-91.904935, 30.075559], [-91.90366, 30.074157], [-91.900073, 30.073015], [-91.895759, 30.075477], [-91.892511, 30.077268], [-91.891762, 30.078606], [-91.888788, 30.080779], [-91.885836, 30.082176], [-91.877712, 30.087573], [-91.867169, 30.089188], [-91.864319, 30.089817], [-91.860276, 30.090254], [-91.858112, 30.092438], [-91.852635, 30.092658], [-91.849838, 30.093504], [-91.84597, 30.095655], [-91.844956, 30.09534], [-91.842459, 30.095049], [-91.838684, 30.094899], [-91.832913, 30.093486], [-91.831805, 30.096672], [-91.826907, 30.097822], [-91.826836, 30.099347], [-91.816371, 30.101577], [-91.815813, 30.102699], [-91.808171, 30.105099], [-91.805953, 30.107464], [-91.801094, 30.107321], [-91.79728, 30.108462], [-91.79382, 30.109993], [-91.790549, 30.112133], [-91.784345, 30.112911], [-91.779257, 30.11345], [-91.777779, 30.112356], [-91.776183, 30.113135], [-91.774768, 30.113579], [-91.77163, 30.113729], [-91.755594, 30.121038], [-91.747926, 30.124609], [-91.73656, 30.129449], [-91.730087, 30.139151], [-91.723341, 30.138928], [-91.687594, 30.138657], [-91.684581, 30.139877], [-91.676792, 30.143313], [-91.674628, 30.144268], [-91.641472, 30.143898], [-91.634403, 30.143394], [-91.628908, 30.143616], [-91.618767, 30.144033], [-91.564911, 30.122317], [-91.563349, 30.12091], [-91.560777, 30.119286], [-91.551013, 30.113236], [-91.547413, 30.112465], [-91.5189, 30.108016], [-91.510261, 30.106547], [-91.492049, 30.091131], [-91.490024, 30.091201], [-91.481628, 30.091282], [-91.470672, 30.091546], [-91.463886, 30.091738], [-91.45814, 30.091926], [-91.453029, 30.090824], [-91.446011, 30.089408], [-91.426439, 30.089949], [-91.417885, 30.086505], [-91.40821, 30.085945], [-91.39721, 30.086386], [-91.389237, 30.086863], [-91.379156, 30.086928], [-91.375608, 30.086742], [-91.370189, 30.089089], [-91.36526, 30.090262], [-91.325099, 30.090905], [-91.312727, 30.091098], [-91.300995, 30.091358], [-91.279398, 30.091697], [-91.27488, 30.092252], [-91.258962, 30.092251], [-91.241073, 30.092413], [-91.215733, 30.092435], [-91.202008, 30.091522], [-91.199542, 30.091352], [-91.193183, 30.090388], [-91.17146, 30.090883], [-91.15832, 30.091166], [-91.156202, 30.091598], [-91.138891, 30.091525], [-91.123659, 30.090544], [-91.120541, 30.090396], [-91.109841, 30.090278], [-91.105642, 30.088601], [-91.08917, 30.084188], [-91.089116, 30.083053], [-91.085478, 30.081248], [-91.082424, 30.077623], [-91.080557, 30.075539], [-91.068491, 30.061528], [-91.065225, 30.057881], [-91.064664, 30.05575], [-91.062879, 30.055369], [-91.0571, 30.049101], [-91.055202, 30.047009], [-91.053629, 30.044391], [-91.051298, 30.043292], [-91.048461, 30.04195], [-91.022612, 30.02908], [-91.020936, 30.02907], [-91.01726, 30.027182], [-91.008033, 30.019876], [-91.00348, 30.016935], [-91.001204, 30.014711], [-90.998853, 30.015614], [-90.985798, 30.01577], [-90.966297, 30.00814], [-90.950619, 30.001961], [-90.937944, 29.99693], [-90.932072, 29.994608], [-90.925032, 29.991837], [-90.919701, 29.992042], [-90.919079, 29.991509], [-90.911962, 29.992413], [-90.905654, 29.994264], [-90.900333, 29.995543], [-90.894348, 29.997142], [-90.891043, 29.993847], [-90.88784, 29.988989], [-90.884294, 29.990211], [-90.874804, 29.993321], [-90.8581, 29.999145], [-90.874604, 30.012043]]}}
]
}
