{
"type": "FeatureCollection",
"features": [
{"type": "Feature", "properties": {"ProjectID": "P2513"}, "geometry": {"type": "LineString", "coordinates": [[-89.026654, 38.901504], [-88.591423, 38.686229], [-88.382177, 38.594704], [-88.122712, 38.476857], [-88.005534, 38.430976], [-87.846508, 38.352254], [-87.796289, 38.312861], [-87.679111, 38.286587], [-87.494975, 38.181396], [-87.419646, 38.115575], [-87.335948, 37.990351], [-87.076483, 37.825256], [-86.976045, 37.798806], [-85.69546, 37.845087], [-85.528064, 37.897943], [-85.352297, 37.917755], [-85.109572, 37.950762], [-84.833368, 37.977157], [-84.247479, 37.990351], [-83.67833, 38.128744], [-83.427235, 38.214285], [-83.259839, 38.220861], [-82.640471, 38.424419]]}}
]
}
