{
"type": "FeatureCollection",
"features": [
{"type": "Feature", "properties": {"ProjectID": "P2571"}, "geometry": {"type": "MultiLineString", "coordinates": [[[-101.261, 48.2393], [-101.256, 48.37732], [-101.2, 48.54026], [-101.207, 48.71966], [-101.317, 48.82467], [-101.346, 48.83658], [-101.343, 48.8658], [-101.408, 48.93847], [-101.655, 48.96365]], [[-102.575, 49.43139], [-101.911, 49.40632], [-101.239, 49.73966]], [[-101.718, 48.29857], [-102.426, 48.84702], [-102.594, 48.87707], [-102.575, 49.43139], [-103.373, 49.18719], [-103.498, 49.11544]], [[-104.141, 48.98543], [-104.137, 48.78188], [-103.951, 48.60389], [-102.927, 48.28478], [-102.452, 48.30324], [-101.782, 48.32361], [-101.718, 48.29857], [-101.456, 48.29837], [-101.284, 48.28084], [-101.261, 48.2393], [-100.923, 48.25204], [-100.195, 48.36731], [-99.8151, 48.36259], [-99.2393, 48.27712], [-98.6464, 48.0736], [-96.4296, 47.79004], [-95.4326, 47.69258]], [[-103.951, 48.60389], [-104.457, 48.59988], [-104.791, 48.85622]], [[-102.927, 48.28478], [-103.777, 48.26113], [-103.791, 48.08728], [-103.662, 47.97947]], [[-101.207, 48.71966], [-100.915, 48.7161]]]}}
]
}
