{
"type": "FeatureCollection",
"features": [
{"type": "Feature", "properties": {"ProjectID": "P2581"}, "geometry": {"type": "MultiLineString", "coordinates": [[[-101.926475, 31.946085], [-101.718014, 31.898233], [-101.484753, 31.960276], [-101.375803, 31.968229], [-101.240746, 32.112069], [-101.184812, 32.157853], [-101.165092, 32.202869], [-101.065026, 32.245706], [-101.012957, 32.331547], [-100.930145, 32.421705], [-100.838587, 32.521123]], [[-100.838587, 32.521123], [-100.830817, 32.529547], [-100.848138, 32.523198], [-100.838587, 32.521123]], [[-100.838587, 32.521123], [-100.621914, 32.473818], [-100.503082, 32.459483], [-100.477286, 32.43115], [-100.393254, 32.433599], [-100.298135, 32.472801], [-100.114713, 32.438759], [-100.085367, 32.485257], [-99.817504, 32.623753], [-99.67136, 32.618523], [-99.231857, 32.459123], [-98.636773, 32.509999], [-98.303113, 32.421606], [-98.243255, 32.41039], [-98.125389, 32.3786], [-97.85891, 32.321575], [-97.798628, 32.268638], [-97.742372, 32.274057], [-97.435586, 32.168676], [-97.389298, 32.17565], [-97.371394, 32.146502], [-97.169642, 32.074817], [-97.128293, 32.040803], [-96.923412, 32.056702], [-96.639623, 32.087525], [-96.503983, 32.062527], [-96.480673, 32.058216], [-96.392303, 31.765042], [-96.293492, 31.705717], [-96.122854, 31.582987], [-95.813181, 31.346622], [-95.544366, 31.134522], [-95.315455, 30.958832], [-95.257774, 30.947632], [-95.250785, 30.914039], [-95.205132, 30.879317], [-95.189881, 30.845479], [-95.134665, 30.84384], [-95.102791, 30.811881], [-95.056365, 30.79855], [-95.049356, 30.767335], [-95.048643, 30.717233], [-94.710088, 30.423035], [-94.404351, 30.144425], [-94.275742, 30.12376], [-94.192293, 30.06352], [-94.153838, 30.05138], [-94.04219, 29.98286]]]}}
]
}
