{
"type": "FeatureCollection",
"features": [
{"type": "Feature", "properties": {"ProjectID": "P2609"}, "geometry": {"type": "LineString", "coordinates": [[-104.7647, 40.461744], [-104.770679, 40.366156], [-104.794592, 40.322869], [-104.824484, 40.281835], [-104.821495, 40.181424], [-104.725841, 40.110591], [-104.660079, 40.06714], [-104.561435, 40.037395], [-104.477738, 40.019083], [-100.178533, 38.293561], [-100.026084, 38.239581], [-99.876625, 38.162063], [-99.652435, 38.049161], [-98.628637, 37.546651], [-98.39548, 37.435177], [-98.32374, 37.401941], [-98.257977, 37.342552], [-96.916578, 36.17753], [-96.86875, 36.114771], [-96.776086, 35.947974]]}}
]
}
