{
"type": "FeatureCollection",
"features": [
{"type": "Feature", "properties": {"ProjectID": "P2612", "diameter": "14\"", "layer": "-1", "location": "underground", "man_made": "pipeline", "name": "Seminole Pipeline", "operator": "Enterprise Products Operating, LLC", "ref": "462", "substance": "ngl", "usage": "transmission"}, "geometry": {"type": "LineString", "coordinates": [[-94.906794, 29.854457], [-94.907326, 29.85429], [-94.907709, 29.853307], [-94.908472, 29.852889], [-94.908524, 29.852884], [-94.910057, 29.852174], [-94.910087, 29.852081], [-94.910254, 29.852012], [-94.912347, 29.855075], [-94.91375, 29.854894], [-94.914985, 29.854706], [-94.915284, 29.85435], [-94.915719, 29.854289], [-94.915649, 29.853895], [-94.915667, 29.853892]]}},
{"type": "Feature", "properties": {"ProjectID": "P2612", "diameter": "4.5\"", "layer": "-1", "location": "underground", "man_made": "pipeline", "name": "Seminole Pipeline - Texaco Burleson Lateral", "operator": "Enterprise Products Operating, LLC", "ref": "637", "substance": "ngl", "usage": "transmission"}, "geometry": {"type": "LineString", "coordinates": [[-96.403475, 30.445337], [-96.404016, 30.447302], [-96.405206, 30.44704], [-96.40687, 30.446649], [-96.408151, 30.446445], [-96.408815, 30.44648], [-96.410928, 30.446832], [-96.414362, 30.446462], [-96.416231, 30.445518], [-96.417993, 30.444935], [-96.423128, 30.444837], [-96.423998, 30.444429], [-96.424097, 30.444284], [-96.424616, 30.444332], [-96.431276, 30.443966], [-96.435106, 30.444765], [-96.438318, 30.444784], [-96.445207, 30.449287], [-96.445795, 30.449194], [-96.448892, 30.448601]]}},
{"type": "Feature", "properties": {"ProjectID": "P2612", "diameter": "14\"", "layer": "-1", "location": "underground", "man_made": "pipeline", "name": "Seminole Pipeline", "operator": "Enterprise Products Operating, LLC", "ref": "581", "substance": "ngl", "usage": "transmission"}, "geometry": {"type": "LineString", "coordinates": [[-96.056967, 29.602397], [-96.055751, 29.600867], [-96.055631, 29.600796], [-96.055503, 29.600762], [-96.053414, 29.600781], [-96.05327, 29.600779], [-96.053198, 29.60076], [-96.050366, 29.595412], [-96.04887, 29.593627], [-96.045091, 29.58933], [-96.043681, 29.588465], [-96.043322, 29.588229], [-96.043267, 29.588174], [-96.041154, 29.584927], [-96.039269, 29.582816], [-96.038732, 29.582057], [-96.037931, 29.580978], [-96.031744, 29.57242], [-96.031703, 29.572356], [-96.031685, 29.572223], [-96.031651, 29.570631], [-96.031609, 29.570531], [-96.031491, 29.570452], [-96.026108, 29.567968], [-96.024072, 29.566954], [-96.018648, 29.560321], [-96.010796, 29.550659], [-96.008739, 29.548157], [-96.00592, 29.547145], [-96.005587, 29.547011], [-96.00553, 29.546949], [-96.005503, 29.546909], [-96.005022, 29.545215], [-96.003958, 29.537877], [-96.003056, 29.535944], [-96.002874, 29.535802], [-96.002774, 29.535771], [-95.999338, 29.535034], [-95.997179, 29.534586], [-95.997056, 29.534555], [-95.996848, 29.534431], [-95.994701, 29.531934], [-95.992359, 29.529557], [-95.992274, 29.529387], [-95.992264, 29.529246], [-95.992165, 29.525586], [-95.992089, 29.525425], [-95.992027, 29.525367], [-95.990875, 29.524409], [-95.990805, 29.524331], [-95.990778, 29.52422], [-95.990761, 29.523964], [-95.99047, 29.522906], [-95.990387, 29.522454], [-95.984863, 29.519555], [-95.984787, 29.518891], [-95.980103, 29.515683], [-95.979851, 29.510232], [-95.975128, 29.506206], [-95.974236, 29.505935], [-95.967941, 29.500265], [-95.967003, 29.49892], [-95.96582, 29.498148], [-95.961609, 29.49337], [-95.958969, 29.488928], [-95.953906, 29.484547], [-95.954782, 29.483656], [-95.945655, 29.473139], [-95.945787, 29.47248], [-95.941911, 29.468172], [-95.941652, 29.467635], [-95.939613, 29.467723], [-95.938164, 29.464691], [-95.935242, 29.461409], [-95.932762, 29.460432], [-95.930527, 29.457844], [-95.929848, 29.457667], [-95.924431, 29.452927], [-95.92334, 29.449473], [-95.919792, 29.44534], [-95.916809, 29.44267], [-95.907242, 29.430862], [-95.903954, 29.424235], [-95.892761, 29.415183], [-95.887163, 29.405759], [-95.871148, 29.387497], [-95.87117, 29.38662], [-95.862129, 29.379138], [-95.863236, 29.376899], [-95.861285, 29.375244], [-95.862114, 29.372747], [-95.856522, 29.368234], [-95.853348, 29.36549], [-95.852471, 29.365262], [-95.848796, 29.362195], [-95.846846, 29.359049], [-95.84689, 29.359023], [-95.846962, 29.35901], [-95.850182, 29.359032], [-95.850338, 29.359078], [-95.8505, 29.359211], [-95.850567, 29.359154], [-95.850382, 29.358993], [-95.850271, 29.358952], [-95.846857, 29.358925], [-95.846761, 29.358907], [-95.846731, 29.358879], [-95.845241, 29.35648], [-95.837647, 29.350526], [-95.829808, 29.340697], [-95.832831, 29.337964], [-95.815308, 29.323252], [-95.814705, 29.323235], [-95.79744, 29.308853], [-95.796616, 29.307319], [-95.783624, 29.296409]]}},
{"type": "Feature", "properties": {"ProjectID": "P2612", "diameter": "10.75\"", "layer": "-1", "location": "underground", "man_made": "pipeline", "name": "Seminole Pipeline - Mont Belvieu to Cities Service", "operator": "Enterprise Products Operating, LLC", "ref": "461", "substance": "ngl", "usage": "transmission"}, "geometry": {"type": "LineString", "coordinates": [[-94.915668, 29.853898], [-94.91573, 29.854295], [-94.915285, 29.854359], [-94.914993, 29.854711], [-94.913795, 29.85489], [-94.913757, 29.854906], [-94.91211, 29.855115], [-94.911592, 29.855082], [-94.910738, 29.855416], [-94.910647, 29.855512], [-94.910219, 29.855744], [-94.909754, 29.856266], [-94.907713, 29.857267], [-94.907694, 29.857261]]}},
{"type": "Feature", "properties": {"ProjectID": "P2612", "diameter": "16\"", "layer": "-1", "location": "underground", "man_made": "pipeline", "name": "Seminole Pipeline", "operator": "Enterprise Products Operating, LLC", "ref": "781", "substance": "ngl", "usage": "transmission"}, "geometry": {"type": "LineString", "coordinates": [[-94.899546, 29.859974], [-94.899181, 29.860166], [-94.899783, 29.861003], [-94.902153, 29.861804], [-94.903346, 29.863475], [-94.908244, 29.861101], [-94.908511, 29.861127], [-94.914958, 29.857934], [-94.915982, 29.857689], [-94.916195, 29.857602], [-94.916206, 29.857565], [-94.915699, 29.855056], [-94.915676, 29.855013], [-94.915556, 29.854326], [-94.915739, 29.854298], [-94.915683, 29.853946]]}},
{"type": "Feature", "properties": {"ProjectID": "P2612", "layer": "-1", "location": "underground", "man_made": "pipeline", "name": "Seminole Pipeline"}, "geometry": {"type": "LineString", "coordinates": [[-99.029447, 31.206399], [-99.047771, 31.214401], [-99.05599, 31.217888], [-99.069658, 31.22354], [-99.08588, 31.230439], [-99.094463, 31.23398], [-99.113259, 31.238727], [-99.113579, 31.239327], [-99.11412, 31.240704], [-99.117906, 31.243416], [-99.122074, 31.24536], [-99.121976, 31.245697], [-99.125726, 31.247557], [-99.128824, 31.250784], [-99.138888, 31.256553], [-99.144531, 31.259891], [-99.14908, 31.262569], [-99.153093, 31.267521], [-99.161139, 31.26941], [-99.171396, 31.273519], [-99.181696, 31.276049], [-99.190622, 31.278158], [-99.197596, 31.281111], [-99.204696, 31.284539], [-99.206028, 31.284858], [-99.215126, 31.285006], [-99.22254, 31.2878], [-99.223843, 31.289019], [-99.228122, 31.290889], [-99.23402, 31.29408], [-99.246166, 31.299398], [-99.254835, 31.305338], [-99.268932, 31.311315], [-99.285712, 31.318299], [-99.293158, 31.321892], [-99.302621, 31.324403], [-99.311225, 31.32882], [-99.323435, 31.334997], [-99.329743, 31.337636], [-99.341073, 31.342053], [-99.345686, 31.345352], [-99.34957, 31.34592], [-99.358754, 31.349988], [-99.37371, 31.356566], [-99.382894, 31.361056], [-99.394803, 31.366937], [-99.409823, 31.374412], [-99.430594, 31.384048], [-99.433062, 31.385257], [-99.460099, 31.393427], [-99.468703, 31.402529], [-99.473788, 31.403244], [-99.475376, 31.403006], [-99.477436, 31.40372], [-99.485225, 31.404947], [-99.488766, 31.405918], [-99.494581, 31.407346], [-99.51194, 31.413389], [-99.518592, 31.416026], [-99.531789, 31.420623], [-99.54344, 31.425896], [-99.560134, 31.432012], [-99.569404, 31.435508], [-99.585025, 31.441202], [-99.599616, 31.446969], [-99.610658, 31.451356], [-99.611752, 31.45144], [-99.61244, 31.451703], [-99.613301, 31.452374], [-99.624952, 31.457009], [-99.626022, 31.457208], [-99.627239, 31.457911], [-99.633976, 31.460575], [-99.641218, 31.460774], [-99.647725, 31.460944], [-99.670427, 31.470443], [-99.678103, 31.473528], [-99.67819, 31.473937], [-99.680489, 31.47487], [-99.686525, 31.480291], [-99.69046, 31.483866], [-99.69534, 31.487997]]}},
{"type": "Feature", "properties": {"ProjectID": "P2612", "diameter": "10.75\"", "layer": "-1", "location": "underground", "man_made": "pipeline", "name": "Seminole Pipeline - Mont Belvieu to Warren", "operator": "Enterprise Products Operating, LLC", "ref": "463", "substance": "ngl", "usage": "transmission"}, "geometry": {"type": "LineString", "coordinates": [[-94.905359, 29.843466], [-94.906229, 29.843382], [-94.906285, 29.843611], [-94.906544, 29.846009], [-94.906555, 29.84657], [-94.909116, 29.850334], [-94.910108, 29.851776], [-94.910148, 29.851804], [-94.912351, 29.855068], [-94.91498, 29.8547], [-94.915277, 29.854344], [-94.915711, 29.854283], [-94.915638, 29.853862], [-94.915655, 29.853855]]}},
{"type": "Feature", "properties": {"ProjectID": "P2612", "diameter": "14\"", "layer": "-1", "location": "underground", "man_made": "pipeline", "name": "Seminole Pipeline", "operator": "Enterprise Products Operating, LLC", "ref": "581", "substance": "ngl", "usage": "transmission"}, "geometry": {"type": "LineString", "coordinates": [[-97.273567, 30.421234], [-97.281978, 30.428279], [-97.282469, 30.42867], [-97.285198, 30.430962], [-97.285724, 30.431387], [-97.285934, 30.431448], [-97.286002, 30.431445], [-97.290209, 30.431015], [-97.290296, 30.431017], [-97.290474, 30.431093], [-97.301087, 30.436836], [-97.303381, 30.438779], [-97.308461, 30.441428], [-97.31079, 30.442665], [-97.313859, 30.445222], [-97.314035, 30.445619], [-97.314198, 30.445787], [-97.323355, 30.450543], [-97.327221, 30.45136], [-97.328172, 30.451584], [-97.329351, 30.451806], [-97.336487, 30.453316], [-97.336657, 30.453414], [-97.33839, 30.454934], [-97.338544, 30.45501], [-97.341957, 30.455885], [-97.351829, 30.458371], [-97.351959, 30.458448], [-97.361624, 30.465466], [-97.361716, 30.46556], [-97.361987, 30.466158], [-97.362055, 30.466222], [-97.362438, 30.46636], [-97.368801, 30.468424], [-97.37549, 30.471309], [-97.377094, 30.471513], [-97.377161, 30.471536], [-97.37749, 30.471726], [-97.381477, 30.474309], [-97.38707, 30.476127], [-97.388534, 30.476304], [-97.40315, 30.481711], [-97.403745, 30.481935], [-97.416081, 30.486809], [-97.423173, 30.489591], [-97.425133, 30.490378], [-97.435756, 30.494555], [-97.455008, 30.503684], [-97.490675, 30.513724], [-97.505734, 30.518024], [-97.516297, 30.52264], [-97.523673, 30.526014], [-97.531098, 30.529107], [-97.532069, 30.529349], [-97.535158, 30.53007], [-97.535641, 30.530206], [-97.536842, 30.530459], [-97.536902, 30.530483], [-97.538328, 30.53134], [-97.539073, 30.531956], [-97.54124, 30.532989], [-97.547648, 30.536611], [-97.554627, 30.539588], [-97.556108, 30.540207], [-97.556171, 30.540251], [-97.556262, 30.540364], [-97.556285, 30.540424], [-97.556383, 30.541475], [-97.556404, 30.541893], [-97.556417, 30.541982], [-97.556479, 30.542081], [-97.556625, 30.54215], [-97.561226, 30.543892], [-97.567443, 30.546929], [-97.572191, 30.549587], [-97.577099, 30.552682], [-97.587185, 30.556609], [-97.592982, 30.558198], [-97.593543, 30.558337], [-97.597116, 30.560595], [-97.599371, 30.561826], [-97.599462, 30.56195], [-97.59965, 30.562276], [-97.599706, 30.562339], [-97.599879, 30.56241], [-97.603429, 30.563558], [-97.606728, 30.563902], [-97.612072, 30.565024], [-97.618645, 30.566383], [-97.620095, 30.566323], [-97.620331, 30.566377], [-97.62307, 30.56799], [-97.626948, 30.569967], [-97.638138, 30.57507], [-97.641875, 30.57676], [-97.65004, 30.5811], [-97.650093, 30.581149], [-97.650289, 30.581473], [-97.650492, 30.581625], [-97.652671, 30.582351], [-97.652739, 30.582354], [-97.653128, 30.582298], [-97.653391, 30.582224], [-97.653437, 30.582244], [-97.654575, 30.582412], [-97.656455, 30.583378], [-97.65946, 30.585035], [-97.662665, 30.585991], [-97.662729, 30.586035], [-97.66311, 30.586459], [-97.663233, 30.58656], [-97.671508, 30.590502], [-97.672874, 30.5911], [-97.674866, 30.592124], [-97.679216, 30.59338], [-97.679305, 30.593448], [-97.679342, 30.59351], [-97.679805, 30.594593], [-97.679864, 30.5947], [-97.682093, 30.597096], [-97.682164, 30.597169], [-97.682255, 30.597226], [-97.682411, 30.597259], [-97.682503, 30.597243], [-97.684017, 30.596781], [-97.684081, 30.596769], [-97.684327, 30.59679], [-97.684515, 30.596885], [-97.684568, 30.596933], [-97.684834, 30.597343], [-97.685006, 30.597469], [-97.685421, 30.59761], [-97.687836, 30.598867], [-97.688448, 30.59908], [-97.69169, 30.6001], [-97.690514, 30.602936], [-97.690129, 30.604216], [-97.689995, 30.605026], [-97.689989, 30.605097], [-97.690008, 30.605167], [-97.690265, 30.605681], [-97.690278, 30.606725], [-97.690297, 30.606873], [-97.690354, 30.606999], [-97.690447, 30.607116], [-97.690794, 30.607474], [-97.690985, 30.607637], [-97.691142, 30.607701], [-97.691338, 30.607687], [-97.6983, 30.606539], [-97.698455, 30.606519], [-97.698584, 30.606531], [-97.698692, 30.606597], [-97.698751, 30.60668], [-97.701137, 30.612602], [-97.701254, 30.612717], [-97.701375, 30.61279], [-97.702412, 30.61304], [-97.703089, 30.613259], [-97.703239, 30.613262], [-97.703393, 30.613231], [-97.703471, 30.613191], [-97.704095, 30.612559], [-97.704261, 30.612422], [-97.704827, 30.612056], [-97.706835, 30.611093], [-97.707928, 30.610548], [-97.708378, 30.610233], [-97.708514, 30.61022], [-97.708657, 30.610261], [-97.709202, 30.610644], [-97.710137, 30.613235], [-97.710733, 30.614568], [-97.711345, 30.616107], [-97.711499, 30.616542], [-97.712673, 30.62114], [-97.712732, 30.621321], [-97.71284, 30.621411], [-97.712963, 30.621429], [-97.713353, 30.621409], [-97.714379, 30.621281], [-97.715705, 30.620875], [-97.717036, 30.620978], [-97.722301, 30.621441], [-97.722459, 30.621492], [-97.723589, 30.621964], [-97.725503, 30.622797], [-97.726253, 30.623064], [-97.729555, 30.624439], [-97.729787, 30.624527], [-97.730008, 30.624548], [-97.73008, 30.624538], [-97.731365, 30.624165], [-97.732349, 30.623857], [-97.733252, 30.62345], [-97.736282, 30.622639], [-97.740973, 30.62237], [-97.743084, 30.621804], [-97.746703, 30.62228], [-97.746768, 30.622302], [-97.746885, 30.622386], [-97.748503, 30.62356], [-97.752641, 30.624258], [-97.75273, 30.624246], [-97.754664, 30.623588], [-97.754913, 30.623618], [-97.755739, 30.623771], [-97.757344, 30.62389], [-97.759856, 30.623532], [-97.764967, 30.624129], [-97.76664, 30.624582], [-97.768226, 30.625106], [-97.768308, 30.625114], [-97.768829, 30.625084], [-97.769017, 30.625145], [-97.772285, 30.62653], [-97.775823, 30.626837], [-97.776105, 30.626748], [-97.778335, 30.625943], [-97.77841, 30.625923], [-97.778927, 30.625978], [-97.779072, 30.626091], [-97.779137, 30.626177], [-97.779228, 30.626451], [-97.779467, 30.628048], [-97.779366, 30.628295], [-97.778691, 30.629753], [-97.778273, 30.630973], [-97.778248, 30.631079], [-97.778276, 30.631181], [-97.778751, 30.632419], [-97.779123, 30.633225], [-97.779505, 30.63418], [-97.779602, 30.634264], [-97.77997, 30.634329], [-97.780086, 30.634381], [-97.78015, 30.634502], [-97.780354, 30.635007], [-97.781672, 30.637994], [-97.782635, 30.640402], [-97.786333, 30.649288], [-97.78776, 30.652588], [-97.7878, 30.652668], [-97.788007, 30.65282], [-97.792653, 30.654139], [-97.796547, 30.655204], [-97.799521, 30.655426], [-97.801817, 30.656506], [-97.810997, 30.659182], [-97.817673, 30.660586], [-97.838867, 30.663009], [-97.846273, 30.666826], [-97.846853, 30.666934], [-97.849883, 30.667404], [-97.853661, 30.668024], [-97.855346, 30.668286], [-97.856376, 30.668464], [-97.857318, 30.668706], [-97.85862, 30.669175], [-97.860749, 30.669546], [-97.861941, 30.669671], [-97.862033, 30.669711], [-97.863046, 30.6704], [-97.867547, 30.671913], [-97.870494, 30.673587], [-97.870585, 30.673642], [-97.870629, 30.67369], [-97.871104, 30.674424], [-97.871257, 30.674603], [-97.871809, 30.674757], [-97.872318, 30.675056], [-97.877486, 30.678459], [-97.878118, 30.679002], [-97.87822, 30.679034], [-97.879313, 30.679058], [-97.879536, 30.679137], [-97.880295, 30.679884], [-97.886475, 30.6825], [-97.886765, 30.68254], [-97.888218, 30.682675], [-97.888292, 30.682696], [-97.888455, 30.68281], [-97.888506, 30.682899], [-97.889027, 30.684074], [-97.889076, 30.684158], [-97.889142, 30.684213], [-97.898004, 30.688478], [-97.899127, 30.689361], [-97.899487, 30.689672], [-97.900409, 30.690411], [-97.901159, 30.691038], [-97.901623, 30.691191], [-97.903455, 30.691598], [-97.903785, 30.691687], [-97.903903, 30.691789], [-97.904026, 30.691949], [-97.904743, 30.693622], [-97.904902, 30.693931], [-97.904969, 30.693988], [-97.90653, 30.694713], [-97.909218, 30.695887], [-97.909745, 30.696025], [-97.910782, 30.696471], [-97.910984, 30.696586], [-97.914107, 30.699422], [-97.928153, 30.70449], [-97.933288, 30.706363], [-97.933996, 30.7066], [-97.939505, 30.708622], [-97.944911, 30.71189], [-97.947783, 30.712991], [-97.955581, 30.714947], [-97.959125, 30.716651], [-97.959217, 30.716699], [-97.959459, 30.716931], [-97.96012, 30.717132], [-97.960562, 30.717311], [-97.975437, 30.723401], [-97.975944, 30.723634], [-97.977663, 30.724486], [-97.981279, 30.725925], [-97.981366, 30.726], [-97.981781, 30.726483], [-97.981895, 30.726573], [-97.992159, 30.731618]]}},
{"type": "Feature", "properties": {"ProjectID": "P2612", "diameter": "14\"", "layer": "-1", "location": "underground", "man_made": "pipeline", "name": "Seminole Mainline", "oneway": "yes", "operator": "Enterprise Products Operating, LLC", "ref": "1", "substance": "lpg"}, "geometry": {"type": "LineString", "coordinates": [[-95.783624, 29.296409], [-95.780386, 29.293618], [-95.782065, 29.286782], [-95.777952, 29.283307], [-95.775526, 29.27902], [-95.766363, 29.266426], [-95.755498, 29.254139], [-95.753026, 29.250256], [-95.750226, 29.246489], [-95.73483, 29.225825], [-95.734059, 29.22263], [-95.733647, 29.222519], [-95.732892, 29.21987], [-95.73087, 29.218205], [-95.730954, 29.218052], [-95.728642, 29.216219], [-95.727574, 29.214274], [-95.720837, 29.206889], [-95.71703, 29.203675], [-95.713765, 29.199089], [-95.701497, 29.188748], [-95.694439, 29.173829], [-95.688053, 29.157086], [-95.687115, 29.154645], [-95.686116, 29.150804], [-95.686497, 29.150498], [-95.686039, 29.148831], [-95.684819, 29.147958], [-95.684773, 29.146976], [-95.683247, 29.141551], [-95.679585, 29.135123], [-95.672917, 29.125257], [-95.671703, 29.123559], [-95.671272, 29.122898], [-95.671269, 29.122877], [-95.670892, 29.1223], [-95.670872, 29.122289], [-95.670761, 29.122118], [-95.670278, 29.121256], [-95.668591, 29.117614], [-95.656513, 29.102617], [-95.652126, 29.095232], [-95.647838, 29.091848], [-95.628895, 29.07301], [-95.62688, 29.071443], [-95.626926, 29.070892], [-95.62524, 29.069174], [-95.618785, 29.063213], [-95.618297, 29.062748], [-95.617259, 29.060671], [-95.617015, 29.059641], [-95.615871, 29.058552], [-95.615817, 29.058006], [-95.601457, 29.043704], [-95.600982, 29.043534], [-95.594969, 29.036817], [-95.582624, 29.024351], [-95.580203, 29.021576], [-95.580187, 29.021467], [-95.578863, 29.019968], [-95.578753, 29.019929], [-95.576089, 29.016899], [-95.574579, 29.014818], [-95.572639, 29.012664], [-95.567296, 29.00518], [-95.561957, 29.000346], [-95.554086, 28.992367], [-95.553963, 28.987327], [-95.554882, 28.98731], [-95.55487, 28.986628], [-95.553246, 28.986655], [-95.551617, 28.988255], [-95.550617, 28.989724], [-95.549795, 28.989981], [-95.548803, 28.992596], [-95.546167, 28.997305], [-95.530923, 29.005602], [-95.500221, 29.006547], [-95.497116, 29.006618], [-95.486656, 29.010903], [-95.461379, 29.000645], [-95.460021, 29.000256], [-95.456435, 28.999097], [-95.455443, 28.999571], [-95.450644, 28.998059], [-95.449003, 28.997492], [-95.443769, 28.995265], [-95.442778, 28.994872], [-95.438543, 28.996102], [-95.436056, 29.000742], [-95.435766, 29.000748], [-95.434087, 29.003828], [-95.434202, 29.004231], [-95.430707, 29.010706], [-95.425923, 29.011089], [-95.425351, 29.010939], [-95.422299, 29.009674], [-95.421933, 29.009344], [-95.420674, 29.008966], [-95.419255, 29.008766], [-95.417752, 29.008596], [-95.41663, 29.008539], [-95.406956, 29.00876], [-95.406597, 29.008711], [-95.405575, 29.008482], [-95.405224, 29.008322], [-95.403729, 29.007654], [-95.403256, 29.008406], [-95.402256, 29.008291], [-95.401539, 29.008219], [-95.397831, 29.006689], [-95.395077, 29.010238], [-95.392612, 29.010879], [-95.389019, 29.012264], [-95.386409, 29.014103], [-95.38602, 29.015405], [-95.381274, 29.015436], [-95.375216, 29.021251], [-95.37514, 29.021165], [-95.362139, 29.031384], [-95.361964, 29.031274], [-95.359118, 29.033616], [-95.349863, 29.049929], [-95.351183, 29.05197], [-95.351137, 29.052492], [-95.350328, 29.053383], [-95.348909, 29.056563], [-95.349199, 29.056832], [-95.348932, 29.057745], [-95.347764, 29.059151], [-95.348543, 29.060192], [-95.350717, 29.06024], [-95.350659, 29.062015]]}},
{"type": "Feature", "properties": {"ProjectID": "P2612", "diameter": "8.63\"", "layer": "-1", "location": "underground", "man_made": "pipeline", "name": "Seminole Pipeline - Bryan Lateral", "operator": "Enterprise Products Operating, LLC", "ref": "197", "substance": "ngl", "usage": "transmission"}, "geometry": {"type": "LineString", "coordinates": [[-96.521214, 30.37688], [-96.519464, 30.375197], [-96.515482, 30.371708], [-96.511873, 30.371184], [-96.510507, 30.370072], [-96.507906, 30.365104], [-96.506784, 30.363906], [-96.503163, 30.359171], [-96.503084, 30.359067], [-96.500276, 30.355342], [-96.498476, 30.352682], [-96.498979, 30.34757], [-96.487234, 30.338095], [-96.487109, 30.337893]]}},
{"type": "Feature", "properties": {"ProjectID": "P2612", "diameter": "8.63\"", "layer": "-1", "location": "underground", "man_made": "pipeline", "name": "Seminole Pipeline - La Grange Lateral", "operator": "Enterprise Products Operating, LLC", "ref": "417", "substance": "ngl", "usage": "transmission"}, "geometry": {"type": "LineString", "coordinates": [[-96.470821, 30.070731], [-96.470866, 30.07069], [-96.472972, 30.068808], [-96.473003, 30.06832], [-96.476314, 30.065059], [-96.491641, 30.063975], [-96.500247, 30.061425], [-96.506763, 30.059301], [-96.50986, 30.058973], [-96.510562, 30.058393], [-96.514873, 30.057823], [-96.516582, 30.056226], [-96.522395, 30.053676], [-96.539562, 30.049116], [-96.543475, 30.050945], [-96.54774, 30.047949], [-96.579822, 30.035077], [-96.581027, 30.034745], [-96.588077, 30.031207], [-96.593562, 30.028108], [-96.594341, 30.028775], [-96.596561, 30.026672], [-96.603008, 30.023441], [-96.612163, 30.028844], [-96.61231, 30.028871], [-96.612887, 30.029268], [-96.61397, 30.030132], [-96.619189, 30.025139], [-96.622981, 30.025232], [-96.623476, 30.025556], [-96.623965, 30.025205], [-96.626333, 30.025129], [-96.626537, 30.024872], [-96.632871, 30.024912], [-96.633192, 30.025183], [-96.635483, 30.025194], [-96.638064, 30.025236], [-96.642497, 30.025434], [-96.649836, 30.025926], [-96.652918, 30.026081], [-96.660174, 30.0263], [-96.661021, 30.026602], [-96.661264, 30.026584], [-96.662188, 30.026304], [-96.665347, 30.026336], [-96.668765, 30.026609], [-96.672824, 30.027071], [-96.675608, 30.027301], [-96.676478, 30.02732], [-96.687952, 30.027345], [-96.688685, 30.027967], [-96.70183, 30.027811], [-96.702479, 30.028278], [-96.703036, 30.027742], [-96.711001, 30.028078], [-96.738543, 30.029697], [-96.75033, 30.030031], [-96.750611, 30.029694], [-96.751841, 30.029748], [-96.752567, 30.030036], [-96.757502, 30.03028], [-96.765978, 30.031255], [-96.766684, 30.031731], [-96.767287, 30.031215], [-96.768565, 30.031347], [-96.769213, 30.031667], [-96.7699, 30.030925], [-96.7811, 30.032295], [-96.782046, 30.032581], [-96.783389, 30.032552], [-96.791659, 30.033572], [-96.800189, 30.034211], [-96.800402, 30.033824], [-96.802699, 30.033939], [-96.802889, 30.034261], [-96.812769, 30.035005], [-96.822199, 30.034888], [-96.827235, 30.034597], [-96.831721, 30.029958], [-96.832041, 30.030189], [-96.833811, 30.028528], [-96.83388, 30.028114], [-96.835513, 30.026525], [-96.836314, 30.025964], [-96.837702, 30.024687], [-96.839625, 30.024162], [-96.840296, 30.024248], [-96.842257, 30.023187], [-96.843386, 30.023195], [-96.848643, 30.021925], [-96.858035, 30.013218], [-96.858599, 30.011845], [-96.860735, 30.009276], [-96.861247, 30.009244], [-96.863314, 30.010726], [-96.863909, 30.010945], [-96.872591, 30.008143], [-96.875186, 30.007905], [-96.885279, 30.005822], [-96.886363, 30.00484]]}},
{"type": "Feature", "properties": {"ProjectID": "P2612", "diameter": "14\"", "layer": "-1", "location": "underground", "man_made": "pipeline", "name": "Seminole Pipeline", "operator": "Enterprise Products Operating, LLC", "ref": "10746", "substance": "ngl", "usage": "transmission"}, "geometry": {"type": "LineString", "coordinates": [[-94.965616, 29.885456], [-94.958573, 29.878919], [-94.955134, 29.875694], [-94.937458, 29.859243], [-94.9348, 29.85658], [-94.933068, 29.854969], [-94.933023, 29.854963], [-94.923273, 29.856593], [-94.922028, 29.856715], [-94.921636, 29.856631], [-94.921022, 29.856748], [-94.918513, 29.856965], [-94.918239, 29.856873], [-94.916627, 29.85709], [-94.916016, 29.854073]]}},
{"type": "Feature", "properties": {"ProjectID": "P2612", "diameter": "4.5\"", "layer": "-1", "location": "underground", "man_made": "pipeline", "operator": "Enterprise Products Operating, LLC", "ref": "274", "substance": "ngl", "usage": "transmission", "name": "Seminole Pipeline - Endevco Iola Lateral"}, "geometry": {"type": "LineString", "coordinates": [[-96.387941, 30.499331], [-96.38743, 30.498896], [-96.387201, 30.49882], [-96.386949, 30.498593], [-96.386606, 30.498935], [-96.386354, 30.49886], [-96.384798, 30.500233], [-96.375398, 30.501349], [-96.36963, 30.50187], [-96.368959, 30.502062], [-96.367754, 30.50239], [-96.355318, 30.505751], [-96.355227, 30.505771], [-96.352351, 30.506482], [-96.352415, 30.51005], [-96.350741, 30.513082], [-96.347716, 30.515707], [-96.345892, 30.516372], [-96.343403, 30.518942], [-96.343575, 30.519312], [-96.330915, 30.531012], [-96.329434, 30.531936], [-96.325099, 30.535799], [-96.322696, 30.537314], [-96.317267, 30.538793], [-96.304629, 30.528424], [-96.304457, 30.527629], [-96.299264, 30.528073], [-96.293407, 30.527408], [-96.265383, 30.552856], [-96.265801, 30.554038], [-96.263495, 30.555304], [-96.259782, 30.558214], [-96.260051, 30.558566], [-96.259514, 30.559305], [-96.259997, 30.55985], [-96.258549, 30.561088], [-96.257293, 30.560118], [-96.218154, 30.594036], [-96.200934, 30.6143], [-96.1963, 30.620202], [-96.195002, 30.621859], [-96.192635, 30.624607], [-96.189042, 30.628718], [-96.18177, 30.63581], [-96.177107, 30.640324], [-96.17541, 30.641073], [-96.17233, 30.644115], [-96.164532, 30.651573], [-96.158009, 30.667946], [-96.157837, 30.67112], [-96.155348, 30.680569], [-96.152537, 30.682119], [-96.150413, 30.687674], [-96.142859, 30.693726], [-96.139619, 30.698154], [-96.136937, 30.700497], [-96.136529, 30.701309], [-96.134169, 30.703007], [-96.117228, 30.718263], [-96.115758, 30.721925], [-96.100438, 30.733223], [-96.094269, 30.738562], [-96.089859, 30.743348], [-96.088271, 30.747276], [-96.086737, 30.747968], [-96.083411, 30.75007], [-96.080659, 30.753025], [-96.080525, 30.753449]]}},
{"type": "Feature", "properties": {"ProjectID": "P2612", "diameter": "14\"", "layer": "-1", "location": "underground", "man_made": "pipeline", "name": "Seminole Pipeline", "operator": "Enterprise Products Operating, LLC", "ref": "581", "substance": "ngl", "usage": "transmission"}, "geometry": {"type": "LineString", "coordinates": [[-96.056967, 29.602397], [-96.058266, 29.604084], [-96.058981, 29.604985], [-96.063165, 29.607614], [-96.06446, 29.609431], [-96.064768, 29.609558], [-96.065391, 29.60977], [-96.065693, 29.610067], [-96.066635, 29.611086], [-96.067368, 29.611274], [-96.06989, 29.611857], [-96.070033, 29.611899], [-96.070116, 29.611946], [-96.071063, 29.612545], [-96.074259, 29.615419], [-96.079063, 29.618333], [-96.081075, 29.619569], [-96.08118, 29.619647], [-96.081214, 29.619734], [-96.081219, 29.619833], [-96.081163, 29.619932], [-96.079933, 29.621449], [-96.079898, 29.621603], [-96.080182, 29.622177], [-96.08115, 29.623989], [-96.083, 29.626338], [-96.08351, 29.627989], [-96.083663, 29.628555], [-96.083744, 29.629719], [-96.083446, 29.630108], [-96.08345, 29.630122], [-96.083936, 29.630433], [-96.084834, 29.63109], [-96.085154, 29.631342], [-96.093312, 29.636042], [-96.094929, 29.63698], [-96.095034, 29.637053], [-96.09507, 29.637144], [-96.095103, 29.637462], [-96.095273, 29.640601], [-96.095296, 29.640704], [-96.095371, 29.640793], [-96.09605, 29.641368], [-96.102527, 29.646623], [-96.102861, 29.646912], [-96.102962, 29.646975], [-96.103083, 29.646991], [-96.103465, 29.646919], [-96.103611, 29.646947], [-96.103673, 29.646991], [-96.106018, 29.648989], [-96.109576, 29.651812], [-96.109673, 29.651864], [-96.109802, 29.65187], [-96.110044, 29.651837], [-96.110419, 29.651758], [-96.110523, 29.651778], [-96.110601, 29.651816], [-96.11067, 29.651905], [-96.117589, 29.663614], [-96.121594, 29.670351], [-96.127563, 29.679044], [-96.128522, 29.680461], [-96.130489, 29.683292], [-96.133966, 29.68625], [-96.137731, 29.690392], [-96.140906, 29.693733], [-96.146584, 29.698132], [-96.149448, 29.701849], [-96.153312, 29.708089], [-96.15695, 29.712246], [-96.159013, 29.713785], [-96.164768, 29.718594], [-96.168507, 29.719748], [-96.168655, 29.719797], [-96.168723, 29.719846], [-96.176694, 29.726517], [-96.189272, 29.737186], [-96.189253, 29.737672], [-96.189234, 29.737761], [-96.189169, 29.737842], [-96.187041, 29.739768], [-96.186827, 29.73998], [-96.189694, 29.742449], [-96.189815, 29.742559], [-96.189815, 29.742583], [-96.186913, 29.745178], [-96.186836, 29.745264], [-96.186813, 29.74535], [-96.186787, 29.745623], [-96.186909, 29.745953], [-96.192024, 29.753326], [-96.192092, 29.753411], [-96.192176, 29.753468], [-96.192911, 29.753906], [-96.195516, 29.757647], [-96.199307, 29.760803], [-96.199541, 29.761013], [-96.199656, 29.761202], [-96.199758, 29.761584], [-96.200176, 29.763368], [-96.200519, 29.764914], [-96.203048, 29.769636], [-96.203208, 29.769798], [-96.203258, 29.769829], [-96.208476, 29.772811], [-96.20915, 29.773222], [-96.209501, 29.773488], [-96.214066, 29.777254], [-96.216667, 29.780783], [-96.218764, 29.783859], [-96.219318, 29.784554], [-96.22395, 29.789881], [-96.227036, 29.792303], [-96.233626, 29.797893], [-96.233705, 29.798142], [-96.234806, 29.802361], [-96.235179, 29.802808], [-96.236726, 29.804567], [-96.241383, 29.809754], [-96.24345, 29.812525], [-96.245875, 29.814983], [-96.246845, 29.816442], [-96.247172, 29.816622], [-96.250263, 29.818205], [-96.252014, 29.819095], [-96.252423, 29.819284], [-96.253904, 29.819903], [-96.255291, 29.82006], [-96.25548, 29.820095], [-96.255624, 29.820192], [-96.255694, 29.820355], [-96.255684, 29.820434], [-96.255282, 29.822226], [-96.255252, 29.822389], [-96.255261, 29.822465], [-96.257618, 29.827075], [-96.257956, 29.827716], [-96.258366, 29.828429], [-96.261082, 29.834479], [-96.26228, 29.838528], [-96.263693, 29.843184], [-96.263798, 29.843487], [-96.263882, 29.843578], [-96.263959, 29.843648], [-96.264077, 29.843703], [-96.267097, 29.844987], [-96.269969, 29.845617], [-96.270173, 29.845737], [-96.272093, 29.847975], [-96.273253, 29.848991], [-96.273909, 29.850506], [-96.279726, 29.855384], [-96.280621, 29.856149], [-96.280734, 29.856327], [-96.280766, 29.856451], [-96.28101, 29.857508], [-96.281153, 29.858207], [-96.281272, 29.858352], [-96.282085, 29.858633], [-96.282259, 29.858785], [-96.282332, 29.858814], [-96.285307, 29.859807], [-96.285881, 29.860014], [-96.285946, 29.860071], [-96.288342, 29.862552], [-96.289582, 29.866325], [-96.289608, 29.866398], [-96.2897, 29.866515], [-96.289757, 29.866579], [-96.289976, 29.8667], [-96.293576, 29.868382], [-96.293707, 29.868448], [-96.293886, 29.868607], [-96.295937, 29.87201], [-96.296988, 29.873196], [-96.299357, 29.876306], [-96.299512, 29.87649], [-96.299605, 29.876556], [-96.302113, 29.876772], [-96.305281, 29.877325], [-96.306511, 29.877558], [-96.306626, 29.877574], [-96.306706, 29.877559], [-96.311414, 29.876135], [-96.311933, 29.875972], [-96.312021, 29.875928], [-96.312157, 29.875725], [-96.313329, 29.873654], [-96.313369, 29.87362], [-96.319446, 29.875774], [-96.319517, 29.875805], [-96.319622, 29.87592], [-96.322515, 29.879209], [-96.324887, 29.881936], [-96.328417, 29.885919], [-96.329549, 29.887217], [-96.32958, 29.887264], [-96.329668, 29.887637], [-96.330443, 29.89141], [-96.330537, 29.891838], [-96.330579, 29.891962], [-96.33291, 29.894179], [-96.334746, 29.896345], [-96.335285, 29.896989], [-96.335357, 29.897093], [-96.335397, 29.897379], [-96.335468, 29.897471], [-96.33876, 29.901549], [-96.34232, 29.905891], [-96.342417, 29.906029], [-96.342442, 29.906233], [-96.342356, 29.906454], [-96.339685, 29.912624], [-96.338829, 29.914663], [-96.337646, 29.917399], [-96.336614, 29.919698], [-96.336158, 29.92075], [-96.336188, 29.920945], [-96.337502, 29.922675], [-96.338175, 29.92554], [-96.338211, 29.925643], [-96.338275, 29.925738], [-96.338433, 29.925884], [-96.340538, 29.92758], [-96.349907, 29.934349], [-96.349979, 29.934428], [-96.350064, 29.934567], [-96.350499, 29.935346], [-96.350567, 29.935452], [-96.350658, 29.935537], [-96.351542, 29.936048], [-96.35248, 29.936421], [-96.353536, 29.93701], [-96.354416, 29.937387], [-96.354596, 29.937548], [-96.355637, 29.939893], [-96.356321, 29.941377], [-96.356464, 29.941487], [-96.356755, 29.941662], [-96.357197, 29.94201], [-96.358745, 29.944567], [-96.358799, 29.944632], [-96.359099, 29.944875], [-96.359155, 29.944939], [-96.36093, 29.947848], [-96.361459, 29.948629], [-96.362671, 29.950806], [-96.364256, 29.953086], [-96.371066, 29.958631], [-96.371953, 29.959881], [-96.373633, 29.961742], [-96.374579, 29.962303], [-96.38057, 29.966623], [-96.380656, 29.966765], [-96.38074, 29.967244], [-96.381768, 29.972227], [-96.383139, 29.974007], [-96.383468, 29.974507], [-96.383644, 29.97466], [-96.384443, 29.975016], [-96.385231, 29.975738], [-96.385917, 29.977607], [-96.386495, 29.978178], [-96.386715, 29.978645], [-96.388119, 29.979737], [-96.388338, 29.980252], [-96.388435, 29.980352], [-96.391267, 29.982899], [-96.399509, 29.992484], [-96.404633, 29.998402], [-96.406676, 30.000019], [-96.406898, 30.000085], [-96.407254, 30.000051], [-96.408295, 29.999907], [-96.408528, 29.999962], [-96.408726, 30.000108], [-96.410653, 30.0017], [-96.410779, 30.001888], [-96.410806, 30.001998], [-96.411473, 30.005227], [-96.411607, 30.005401], [-96.411895, 30.005532], [-96.41249, 30.00576], [-96.413821, 30.006791], [-96.413868, 30.006855], [-96.413924, 30.006948], [-96.413947, 30.007057], [-96.414171, 30.008591], [-96.414338, 30.009003], [-96.414557, 30.009313], [-96.415935, 30.011762], [-96.415874, 30.011915], [-96.415885, 30.012072], [-96.416043, 30.012069], [-96.416118, 30.01209], [-96.416596, 30.012937], [-96.416914, 30.013293], [-96.423808, 30.020585], [-96.427197, 30.024036], [-96.431792, 30.029263], [-96.43614, 30.035331], [-96.437966, 30.038902], [-96.438348, 30.039154], [-96.442748, 30.041912], [-96.442812, 30.04198], [-96.453889, 30.054794], [-96.45775, 30.059315], [-96.457805, 30.059394], [-96.457833, 30.059498], [-96.458268, 30.061467], [-96.458306, 30.06158], [-96.458382, 30.06165], [-96.458496, 30.061698], [-96.458617, 30.061702], [-96.459586, 30.061611], [-96.459776, 30.061679], [-96.461492, 30.06366], [-96.46317, 30.064672], [-96.469333, 30.06944], [-96.470741, 30.070545], [-96.470828, 30.07062], [-96.470866, 30.07069], [-96.470914, 30.070812], [-96.470911, 30.070904], [-96.470925, 30.071888]]}},
{"type": "Feature", "properties": {"ProjectID": "P2612", "diameter": "14\"", "layer": "-1", "location": "underground", "man_made": "pipeline", "name": "Seminole Pipeline", "operator": "Enterprise Products Operating, LLC", "ref": "10746", "substance": "ngl", "usage": "transmission"}, "geometry": {"type": "LineString", "coordinates": [[-94.986742, 29.898341], [-94.982771, 29.899003], [-94.980567, 29.899334], [-94.980455, 29.899323], [-94.977243, 29.896322], [-94.973878, 29.893148], [-94.972122, 29.891551], [-94.965616, 29.885456]]}},
{"type": "Feature", "properties": {"ProjectID": "P2612", "layer": "-1", "location": "underground", "man_made": "pipeline", "name": "Seminole Pipeline"}, "geometry": {"type": "LineString", "coordinates": [[-99.69534, 31.487997], [-99.701402, 31.493271], [-99.704365, 31.495577], [-99.710881, 31.49846], [-99.715799, 31.501416], [-99.72138, 31.504592], [-99.722204, 31.505253], [-99.730146, 31.512883], [-99.738642, 31.520838], [-99.739355, 31.521593], [-99.743314, 31.523563], [-99.744408, 31.525439], [-99.744635, 31.526757], [-99.746558, 31.530059], [-99.747967, 31.533116], [-99.750458, 31.538362], [-99.75174, 31.541181], [-99.752517, 31.541611]]}},
{"type": "Feature", "properties": {"ProjectID": "P2612", "diameter": "14\"", "layer": "-1", "location": "underground", "man_made": "pipeline", "name": "Seminole Pipeline", "operator": "Enterprise Products Operating, LLC", "ref": "10746", "substance": "ngl", "usage": "transmission"}, "geometry": {"type": "LineString", "coordinates": [[-95.882662, 29.946699], [-95.875907, 29.945819], [-95.831672, 29.940264], [-95.831688, 29.939923], [-95.830101, 29.939747], [-95.828946, 29.939404], [-95.826853, 29.93895], [-95.825928, 29.939518], [-95.809586, 29.937119], [-95.809499, 29.937075], [-95.809346, 29.937053], [-95.786517, 29.933998], [-95.782664, 29.91797], [-95.781087, 29.913014], [-95.723723, 29.913789], [-95.660522, 29.914983], [-95.652171, 29.914788], [-95.630278, 29.914745], [-95.615135, 29.921819], [-95.606373, 29.925865], [-95.600748, 29.928417], [-95.578682, 29.938283], [-95.572396, 29.938268], [-95.569958, 29.938233], [-95.545481, 29.938339], [-95.539141, 29.938348], [-95.539141, 29.937638], [-95.522937, 29.937934], [-95.518497, 29.93785], [-95.515425, 29.937894], [-95.498637, 29.937936], [-95.483883, 29.938153], [-95.477825, 29.938218], [-95.450718, 29.938586], [-95.445915, 29.938586], [-95.437045, 29.938759], [-95.42928, 29.939019], [-95.412643, 29.93917], [-95.403838, 29.939235], [-95.396483, 29.939322], [-95.392545, 29.939257], [-95.381815, 29.939365], [-95.372966, 29.939408], [-95.372988, 29.939776], [-95.368986, 29.939776], [-95.368986, 29.939408], [-95.356835, 29.939477], [-95.352083, 29.939581], [-95.338021, 29.939625], [-95.333845, 29.939776], [-95.316474, 29.940793], [-95.311069, 29.941057], [-95.303619, 29.940911], [-95.303633, 29.941428], [-95.30172, 29.941444], [-95.301715, 29.94099], [-95.301659, 29.940575], [-95.301565, 29.940515], [-95.300301, 29.940654], [-95.29965, 29.940704], [-95.299344, 29.94076], [-95.299006, 29.940787], [-95.299004, 29.94083], [-95.298851, 29.940861], [-95.298436, 29.940848], [-95.297924, 29.940939], [-95.297494, 29.941214], [-95.297487, 29.941324], [-95.296598, 29.94132], [-95.292436, 29.940785], [-95.292272, 29.940745], [-95.290454, 29.941008], [-95.287769, 29.941181], [-95.28772, 29.941129], [-95.288716, 29.938512], [-95.287567, 29.937635], [-95.28377, 29.934815], [-95.283536, 29.934801], [-95.266126, 29.935085], [-95.257868, 29.931742], [-95.238706, 29.932197], [-95.234487, 29.930331], [-95.211463, 29.918932], [-95.20058, 29.913497], [-95.197422, 29.912058], [-95.196721, 29.912016], [-95.193406, 29.9105], [-95.186617, 29.90752], [-95.182006, 29.905458], [-95.174216, 29.902014], [-95.173993, 29.901966], [-95.168349, 29.901997], [-95.153395, 29.902274], [-95.151839, 29.902364], [-95.151575, 29.902328], [-95.151631, 29.901738], [-95.148615, 29.901756], [-95.146746, 29.901798], [-95.138135, 29.90182], [-95.136683, 29.90185], [-95.133337, 29.90188], [-95.132532, 29.901621], [-95.130573, 29.901638], [-95.127175, 29.90171], [-95.11582, 29.901755], [-95.110854, 29.901789], [-95.098763, 29.901664], [-95.085263, 29.90156], [-95.07999, 29.901702], [-95.079024, 29.901623], [-95.078524, 29.901549], [-95.077469, 29.901446], [-95.063229, 29.901322], [-95.054682, 29.901424], [-95.050504, 29.901336], [-95.050143, 29.901258], [-95.050096, 29.899724], [-95.050071, 29.897344], [-95.049915, 29.893599], [-95.049722, 29.892034], [-95.049126, 29.891672], [-95.03804, 29.891897], [-95.030418, 29.89198], [-95.025834, 29.892012], [-95.015703, 29.893684], [-95.008647, 29.894804], [-95.003979, 29.895585], [-94.999283, 29.896323], [-94.992122, 29.897476], [-94.989877, 29.897815], [-94.986742, 29.898341]]}},
{"type": "Feature", "properties": {"ProjectID": "P2612", "diameter": "8.63\"", "layer": "-1", "location": "underground", "man_made": "pipeline", "name": "Seminole Pipeline - Bryon Lateral", "operator": "Enterprise Products Operating, LLC", "ref": "197", "substance": "ngl", "usage": "transmission"}, "geometry": {"type": "LineString", "coordinates": [[-96.487109, 30.337893], [-96.486304, 30.336696], [-96.485503, 30.33468], [-96.486029, 30.332976], [-96.48638, 30.324344], [-96.48757, 30.322147], [-96.486281, 30.321024], [-96.486662, 30.317022], [-96.486319, 30.315642], [-96.485884, 30.31501], [-96.483359, 30.303887], [-96.483763, 30.301717], [-96.48408, 30.300895], [-96.483422, 30.298627], [-96.48338, 30.298073], [-96.483529, 30.297649], [-96.484312, 30.296276], [-96.484127, 30.293719], [-96.483287, 30.291734], [-96.484342, 30.289111], [-96.484786, 30.281321], [-96.485808, 30.277544], [-96.485075, 30.274333], [-96.485816, 30.271771], [-96.485617, 30.269319], [-96.484541, 30.267688], [-96.48506, 30.266482], [-96.484549, 30.260612], [-96.485197, 30.260334], [-96.48654, 30.25559], [-96.486594, 30.250198], [-96.48622, 30.249348], [-96.486006, 30.244057], [-96.486006, 30.231385], [-96.486357, 30.230739], [-96.486014, 30.230121], [-96.486136, 30.228849], [-96.486639, 30.227085], [-96.486441, 30.219578], [-96.487364, 30.217892], [-96.487128, 30.217009], [-96.486991, 30.216633], [-96.487395, 30.214123], [-96.48725, 30.210564], [-96.486174, 30.201428], [-96.483153, 30.199006], [-96.485716, 30.196462], [-96.485838, 30.195674], [-96.48403, 30.191146], [-96.483328, 30.190065], [-96.483008, 30.187957], [-96.482069, 30.183596], [-96.481558, 30.182661], [-96.483305, 30.180126], [-96.482115, 30.178433], [-96.482169, 30.177306], [-96.482413, 30.176291], [-96.483115, 30.175513], [-96.486029, 30.166486], [-96.486281, 30.161334], [-96.485152, 30.159669], [-96.486884, 30.155214], [-96.486731, 30.154606], [-96.487196, 30.153063], [-96.487585, 30.15226], [-96.488226, 30.151287], [-96.488303, 30.149864], [-96.488349, 30.149365], [-96.48873, 30.147898], [-96.487998, 30.143017], [-96.487906, 30.133199], [-96.48728, 30.130508], [-96.485373, 30.125202], [-96.483885, 30.122013], [-96.484236, 30.121446], [-96.483664, 30.119612], [-96.484236, 30.118736], [-96.482398, 30.117714], [-96.480383, 30.114147], [-96.480261, 30.112923], [-96.476172, 30.109715], [-96.473227, 30.108662], [-96.472037, 30.107867], [-96.471419, 30.107171], [-96.471282, 30.106431], [-96.473059, 30.104281], [-96.472525, 30.102309], [-96.472174, 30.101287], [-96.470007, 30.095512], [-96.470107, 30.093504], [-96.473326, 30.090223], [-96.472502, 30.084646], [-96.472251, 30.082749], [-96.47209, 30.080788], [-96.472113, 30.078516], [-96.471594, 30.077197], [-96.47148, 30.075602], [-96.47048, 30.074855], [-96.470427, 30.074568], [-96.469568, 30.073814], [-96.469893, 30.073456]]}},
{"type": "Feature", "properties": {"ProjectID": "P2612", "layer": "-1", "location": "underground", "man_made": "pipeline", "name": "Seminole Pipeline"}, "geometry": {"type": "LineString", "coordinates": [[-99.752517, 31.541611], [-99.76089, 31.544775], [-99.770529, 31.548631], [-99.772705, 31.549385], [-99.780512, 31.553419], [-99.785577, 31.556049], [-99.794061, 31.56047], [-99.797282, 31.562114], [-99.806245, 31.566252], [-99.82301, 31.574122], [-99.830799, 31.576115], [-99.833439, 31.576626], [-99.835134, 31.576663], [-99.836679, 31.577358], [-99.839125, 31.577969], [-99.840777, 31.578381], [-99.845369, 31.578893], [-99.858287, 31.581928], [-99.880667, 31.586973], [-99.887941, 31.588508], [-99.916587, 31.600425], [-99.931286, 31.606638], [-99.935491, 31.61086], [-99.94092, 31.612632], [-99.953838, 31.620819], [-99.958484, 31.623366], [-100.129437, 31.693082], [-100.137935, 31.69531], [-100.142098, 31.698633], [-100.179219, 31.712726], [-100.185614, 31.716048], [-100.211728, 31.727072], [-100.221598, 31.727802], [-100.228143, 31.730649], [-100.241146, 31.733934], [-100.262475, 31.741836], [-100.264149, 31.7418], [-100.265222, 31.742347], [-100.265372, 31.743515], [-100.268955, 31.745449], [-100.276508, 31.747383], [-100.277731, 31.748788], [-100.285907, 31.750212], [-100.292923, 31.749628], [-100.30848, 31.75689], [-100.31878, 31.763093], [-100.321612, 31.763677], [-100.325432, 31.763093], [-100.339637, 31.764589], [-100.34586, 31.771448], [-100.355022, 31.772835], [-100.355988, 31.773582], [-100.36015, 31.775151], [-100.360665, 31.775534], [-100.364249, 31.776829], [-100.364742, 31.776811], [-100.394139, 31.787719], [-100.394461, 31.788649], [-100.401092, 31.789634], [-100.411456, 31.792917], [-100.424695, 31.794978], [-100.43375, 31.798899], [-100.435488, 31.800212], [-100.441303, 31.799993], [-100.447354, 31.80158], [-100.450187, 31.802947], [-100.456688, 31.804516], [-100.478017, 31.803969], [-100.497372, 31.818301], [-100.503702, 31.818647], [-100.506878, 31.820069], [-100.516233, 31.822932], [-100.520289, 31.82275], [-100.537777, 31.836952], [-100.574341, 31.850659], [-100.577259, 31.852755], [-100.584506, 31.855425], [-100.586432, 31.855539], [-100.617857, 31.865677], [-100.635023, 31.872565], [-100.667124, 31.90576], [-100.678797, 31.915305], [-100.713644, 31.920404], [-100.741282, 31.929948], [-100.744886, 31.929001], [-100.74759, 31.929219], [-100.749908, 31.928527], [-100.75201, 31.928891], [-100.754457, 31.927835], [-100.759049, 31.927981], [-100.768576, 31.925249], [-100.79381, 31.935484], [-100.815311, 31.939963], [-100.821104, 31.94375], [-100.827799, 31.946409], [-100.836382, 31.954784], [-100.836983, 31.958134], [-100.841746, 31.96243], [-100.853162, 31.968183], [-100.855994, 31.968838], [-100.862818, 31.972515], [-100.870543, 31.974408], [-100.873632, 31.975864], [-100.876765, 31.976083], [-100.88419, 31.980961], [-100.903502, 31.981543], [-100.916205, 31.986821], [-100.922814, 31.986748], [-100.934401, 31.988714], [-100.960879, 31.998068], [-100.961952, 32.000215], [-100.971265, 32.002981], [-100.981178, 32.012079], [-101.029244, 32.030199], [-101.039972, 32.034892], [-101.051517, 32.039221], [-101.062975, 32.043223], [-101.076922, 32.048479], [-101.08454, 32.051789], [-101.11752, 32.063556], [-101.169663, 32.084647], [-101.202364, 32.099045], [-101.24073, 32.112386], [-101.256781, 32.113786], [-101.26648, 32.118529], [-101.267896, 32.120146], [-101.271822, 32.121055], [-101.274934, 32.122273], [-101.277101, 32.122418], [-101.277959, 32.123381], [-101.289954, 32.125944], [-101.312935, 32.125289], [-101.321883, 32.12618], [-101.326668, 32.129305], [-101.343792, 32.135956], [-101.36055, 32.137646], [-101.367545, 32.141043], [-101.374605, 32.140226], [-101.378725, 32.138572], [-101.399088, 32.140389], [-101.411769, 32.140535], [-101.417692, 32.140335], [-101.424783, 32.13869], [-101.426361, 32.13869], [-101.434815, 32.138182], [-101.44196, 32.139372], [-101.443892, 32.139263], [-101.476872, 32.146639], [-101.482387, 32.148256], [-101.489897, 32.152144], [-101.503758, 32.162535], [-101.53779, 32.185892], [-101.541953, 32.198676], [-101.552124, 32.204123], [-101.556845, 32.218138], [-101.569505, 32.238196], [-101.607077, 32.254293], [-101.64995, 32.270025], [-101.650357, 32.270969], [-101.692607, 32.287078], [-101.700869, 32.289182], [-101.964369, 32.394312], [-102.007027, 32.406922], [-102.100925, 32.448326], [-102.117663, 32.453939], [-102.195382, 32.484171], [-102.468624, 32.59166], [-102.638163, 32.655119], [-102.653659, 32.660743], [-102.674351, 32.667809], [-102.687086, 32.674542], [-102.695573, 32.676421], [-102.704015, 32.684753], [-102.713821, 32.684392], [-102.732747, 32.692049], [-102.738025, 32.696798], [-102.752252, 32.699453], [-102.776842, 32.709347], [-102.785897, 32.711225], [-102.807291, 32.721732], [-102.821732, 32.725036], [-102.822011, 32.726317], [-102.891748, 32.753309], [-102.893389, 32.757712], [-102.900556, 32.762314], [-102.907208, 32.761042], [-102.915008, 32.769387], [-102.931842, 32.769527], [-102.94639, 32.775388], [-102.960596, 32.775504]]}},
{"type": "Feature", "properties": {"ProjectID": "P2612", "diameter": "14\"", "layer": "-1", "location": "underground", "man_made": "pipeline", "name": "Seminole Pipeline", "operator": "Enterprise Products Operating, LLC", "ref": "581", "substance": "ngl", "usage": "transmission"}, "geometry": {"type": "LineString", "coordinates": [[-97.992159, 30.731618], [-97.99442, 30.732653], [-98.007013, 30.739098], [-98.009364, 30.741657], [-98.01066, 30.742494], [-98.010712, 30.74256], [-98.010979, 30.743194], [-98.011507, 30.743669], [-98.011584, 30.743707], [-98.012376, 30.743966], [-98.013721, 30.744791], [-98.018063, 30.74806], [-98.018991, 30.748478], [-98.022655, 30.750641], [-98.029294, 30.75379], [-98.029391, 30.75381], [-98.029585, 30.753786], [-98.030946, 30.753577], [-98.031701, 30.753619], [-98.031903, 30.753718], [-98.032362, 30.754122], [-98.032432, 30.754298], [-98.032344, 30.755429], [-98.032437, 30.755578], [-98.03643, 30.758382], [-98.037133, 30.75886], [-98.037377, 30.758922], [-98.039086, 30.758886], [-98.039176, 30.758896], [-98.039317, 30.758951], [-98.039381, 30.758993], [-98.039748, 30.759408], [-98.039848, 30.759453], [-98.04079, 30.759468], [-98.043555, 30.760574], [-98.05032, 30.762452], [-98.054316, 30.763533], [-98.056655, 30.764551], [-98.056734, 30.764573], [-98.056896, 30.764585], [-98.057479, 30.764532], [-98.057619, 30.764596], [-98.058777, 30.765233], [-98.058861, 30.765261], [-98.061886, 30.76554], [-98.067654, 30.767395], [-98.071216, 30.76819], [-98.073173, 30.768967], [-98.073492, 30.769059], [-98.08364, 30.77196], [-98.085568, 30.772493], [-98.087924, 30.773179], [-98.091294, 30.774129], [-98.093639, 30.774808], [-98.104476, 30.777891], [-98.105681, 30.778207], [-98.106429, 30.778434], [-98.107702, 30.778654], [-98.108127, 30.778897], [-98.108289, 30.778971], [-98.112285, 30.780736], [-98.122907, 30.784424], [-98.134296, 30.792132], [-98.136442, 30.793641], [-98.145051, 30.799403], [-98.145774, 30.799601], [-98.159803, 30.803205], [-98.16256, 30.803533], [-98.163327, 30.803629], [-98.163389, 30.803648], [-98.175211, 30.808912], [-98.177485, 30.81005], [-98.181067, 30.811511], [-98.192903, 30.816284], [-98.193369, 30.816457], [-98.196303, 30.816802], [-98.1964, 30.816824], [-98.196558, 30.816917], [-98.197149, 30.817318], [-98.200044, 30.819326], [-98.206174, 30.823047], [-98.210332, 30.824562], [-98.210468, 30.8247], [-98.211232, 30.825655], [-98.213613, 30.82764], [-98.214646, 30.828608], [-98.214854, 30.82873], [-98.215885, 30.829237], [-98.219215, 30.830373], [-98.222856, 30.831465], [-98.223786, 30.831774], [-98.230002, 30.833897], [-98.237255, 30.836396], [-98.238363, 30.836755], [-98.244851, 30.838987], [-98.2483, 30.840145], [-98.248566, 30.840238], [-98.250379, 30.841201], [-98.256528, 30.843207], [-98.277791, 30.860561], [-98.283124, 30.875161], [-98.284024, 30.877145], [-98.288587, 30.879062], [-98.291593, 30.883177], [-98.313817, 30.902272], [-98.314847, 30.904428], [-98.316426, 30.905808], [-98.362096, 30.931658], [-98.363668, 30.932724], [-98.377279, 30.944203], [-98.378774, 30.944817], [-98.379537, 30.944833], [-98.380468, 30.94472], [-98.398351, 30.947343], [-98.415525, 30.959844], [-98.423612, 30.959505], [-98.424413, 30.959003], [-98.426969, 30.95977], [-98.428815, 30.959453], [-98.440839, 30.959442], [-98.444257, 30.954962], [-98.448355, 30.954367], [-98.455868, 30.953322], [-98.462734, 30.9545], [-98.512688, 30.979964], [-98.584614, 31.004539], [-98.591824, 31.005863], [-98.60178, 31.012337], [-98.611908, 31.0244], [-98.635426, 31.029254], [-98.667011, 31.048816], [-98.731041, 31.069109], [-98.742199, 31.069256], [-98.798161, 31.097483], [-98.8064, 31.108066], [-98.890171, 31.145243], [-98.916779, 31.147888], [-98.924675, 31.15494], [-98.928452, 31.161991], [-99.029447, 31.206399]]}},
{"type": "Feature", "properties": {"ProjectID": "P2612", "diameter": "14\"", "layer": "-1", "location": "underground", "man_made": "pipeline", "name": "Seminole Pipeline", "operator": "Enterprise Products Operating, LLC", "ref": "581", "substance": "ngl", "usage": "transmission"}, "geometry": {"type": "LineString", "coordinates": [[-96.744746, 30.195167], [-96.746444, 30.195885], [-96.747333, 30.196619], [-96.75169, 30.198967], [-96.75466, 30.200209], [-96.756704, 30.201903], [-96.75877, 30.202938], [-96.761305, 30.203617], [-96.770933, 30.206146], [-96.771207, 30.206229], [-96.772796, 30.20724], [-96.776708, 30.208155], [-96.79052, 30.213986], [-96.80468, 30.219912], [-96.805734, 30.220183], [-96.806342, 30.220287], [-96.808396, 30.221056], [-96.808504, 30.221103], [-96.808566, 30.22115], [-96.809803, 30.222204], [-96.810073, 30.222326], [-96.81736, 30.225435], [-96.827383, 30.22974], [-96.829312, 30.230549], [-96.830887, 30.231299], [-96.834849, 30.232989], [-96.836671, 30.233831], [-96.837809, 30.234118], [-96.840979, 30.235074], [-96.846059, 30.237209], [-96.846678, 30.237506], [-96.848289, 30.238149], [-96.855874, 30.241318], [-96.855951, 30.241352], [-96.856355, 30.241755], [-96.86159, 30.244321], [-96.88221, 30.251909], [-96.88261, 30.252092], [-96.883281, 30.252596], [-96.886294, 30.253972], [-96.886837, 30.254022], [-96.889503, 30.254209], [-96.893841, 30.256534], [-96.901874, 30.260472], [-96.903634, 30.261949], [-96.903762, 30.262209], [-96.903831, 30.262329], [-96.903872, 30.262365], [-96.906827, 30.264678], [-96.910789, 30.267658], [-96.912442, 30.269087], [-96.915478, 30.270682], [-96.915995, 30.270808], [-96.916773, 30.270832], [-96.916852, 30.270845], [-96.917105, 30.270964], [-96.917641, 30.271327], [-96.917765, 30.271351], [-96.926189, 30.272613], [-96.933478, 30.273687], [-96.933551, 30.273698], [-96.933767, 30.273788], [-96.939605, 30.278133], [-96.939754, 30.278316], [-96.940163, 30.279183], [-96.940333, 30.279372], [-96.941475, 30.280124], [-96.942001, 30.2805], [-96.943262, 30.281824], [-96.944502, 30.282884], [-96.946909, 30.284521], [-96.947132, 30.284584], [-96.947827, 30.284515], [-96.947987, 30.284568], [-96.94805, 30.284604], [-96.948204, 30.284784], [-96.948217, 30.284821], [-96.948244, 30.284988], [-96.948222, 30.285217], [-96.94851, 30.286359], [-96.948571, 30.286475], [-96.949726, 30.28758], [-96.956811, 30.291687], [-96.962566, 30.295669], [-96.962773, 30.295891], [-96.962864, 30.296066], [-96.963005, 30.296203], [-96.963218, 30.296266], [-96.967124, 30.297207], [-96.967519, 30.297314], [-96.973451, 30.301124], [-96.975376, 30.303009], [-96.978077, 30.304518], [-96.981048, 30.305443], [-96.985531, 30.305711], [-96.992369, 30.308396], [-96.993927, 30.309048], [-96.994713, 30.309335], [-96.995392, 30.309532], [-96.995593, 30.309604], [-96.998537, 30.310724], [-97.004319, 30.313087], [-97.005734, 30.313623], [-97.007174, 30.314358], [-97.008722, 30.31476], [-97.009075, 30.314889], [-97.021424, 30.31956], [-97.02195, 30.319753], [-97.022187, 30.319816], [-97.022565, 30.319992], [-97.025537, 30.321118], [-97.031401, 30.323393], [-97.03515, 30.325112], [-97.039101, 30.326793], [-97.040332, 30.32688], [-97.040399, 30.326888], [-97.040524, 30.326933], [-97.053567, 30.33199], [-97.053972, 30.33215], [-97.054333, 30.332336], [-97.058051, 30.333485], [-97.058861, 30.333944], [-97.061712, 30.334988], [-97.068117, 30.337301], [-97.068187, 30.337317], [-97.069196, 30.337391], [-97.069298, 30.337421], [-97.084666, 30.342267], [-97.0864, 30.342827], [-97.089357, 30.344474], [-97.09453, 30.347032], [-97.098807, 30.348289], [-97.103652, 30.351448], [-97.103863, 30.351572], [-97.105058, 30.351893], [-97.105463, 30.352066], [-97.120343, 30.358729], [-97.120487, 30.358795], [-97.122145, 30.359694], [-97.125188, 30.36108], [-97.125912, 30.361393], [-97.130581, 30.363499], [-97.135701, 30.367721], [-97.137162, 30.369006], [-97.140602, 30.370286], [-97.148146, 30.375172], [-97.149971, 30.376694], [-97.153974, 30.378396], [-97.154213, 30.378437], [-97.154273, 30.378434], [-97.159785, 30.378054], [-97.163089, 30.37834], [-97.163635, 30.378334], [-97.167157, 30.378614], [-97.167965, 30.378684], [-97.168309, 30.378793], [-97.168419, 30.378804], [-97.174893, 30.379327], [-97.177005, 30.38042], [-97.177247, 30.380474], [-97.178415, 30.380663], [-97.178599, 30.380741], [-97.178761, 30.380874], [-97.179517, 30.381593], [-97.179552, 30.381619], [-97.180029, 30.381822], [-97.181737, 30.382523], [-97.182153, 30.382607], [-97.183454, 30.383003], [-97.187406, 30.384484], [-97.187567, 30.384575], [-97.187939, 30.385013], [-97.187989, 30.385053], [-97.189752, 30.385963], [-97.189978, 30.385999], [-97.191181, 30.386105], [-97.191405, 30.386136], [-97.193252, 30.386934], [-97.194424, 30.387513], [-97.196181, 30.388183], [-97.197968, 30.388936], [-97.198018, 30.38895], [-97.198296, 30.388968], [-97.206292, 30.389401], [-97.206476, 30.389431], [-97.206844, 30.389574], [-97.207297, 30.389759], [-97.20733, 30.389788], [-97.209097, 30.391537], [-97.211804, 30.394173], [-97.214179, 30.395117], [-97.216649, 30.396045], [-97.216705, 30.396074], [-97.217028, 30.396405], [-97.217183, 30.396533], [-97.224233, 30.399234], [-97.228881, 30.400997], [-97.236517, 30.404865], [-97.239206, 30.406464], [-97.241177, 30.407472], [-97.241997, 30.407864], [-97.246245, 30.409762], [-97.248507, 30.410933], [-97.249764, 30.411624], [-97.250734, 30.412092], [-97.25341, 30.41311], [-97.254134, 30.413302], [-97.254348, 30.413354], [-97.254567, 30.413355], [-97.25523, 30.413205], [-97.255336, 30.413214], [-97.259948, 30.414868], [-97.269129, 30.41801], [-97.271609, 30.419647], [-97.273567, 30.421234]]}},
{"type": "Feature", "properties": {"ProjectID": "P2612", "diameter": "14\"", "layer": "-1", "location": "underground", "man_made": "pipeline", "name": "Seminole Pipeline - South Tie-In Site to Mont Belvieu", "operator": "Enterprise Products Operating, LLC", "ref": "10746", "substance": "ngl", "usage": "transmission"}, "geometry": {"type": "LineString", "coordinates": [[-96.103515, 29.991587], [-96.103411, 29.99156], [-96.100047, 29.991022], [-96.099257, 29.990805], [-96.094245, 29.989603], [-96.083648, 29.987452], [-96.08311, 29.987429], [-96.073577, 29.98506], [-96.067112, 29.983332], [-96.059834, 29.982771], [-96.053551, 29.980208], [-96.052762, 29.980265], [-96.051617, 29.978675], [-96.03873, 29.973866], [-96.01561, 29.964735], [-96.013812, 29.964243], [-96.011967, 29.963492], [-96.008687, 29.963105], [-96.008176, 29.963549], [-96.0071, 29.962874], [-96.001096, 29.962248], [-96.001008, 29.961922], [-95.998347, 29.961793], [-95.998173, 29.96136], [-95.989498, 29.960343], [-95.987357, 29.960321], [-95.987054, 29.960019], [-95.974939, 29.958591], [-95.958476, 29.956514], [-95.954192, 29.955902], [-95.945982, 29.95481], [-95.945539, 29.954242], [-95.943116, 29.953918], [-95.94227, 29.954275], [-95.923646, 29.951863], [-95.892212, 29.947861], [-95.883321, 29.946844], [-95.88278, 29.946714], [-95.882662, 29.946699]]}},
{"type": "Feature", "properties": {"ProjectID": "P2612", "diameter": "14\"", "layer": "-1", "location": "underground", "man_made": "pipeline", "name": "Seminole Pipeline", "operator": "Enterprise Products Operating, LLC", "ref": "581", "substance": "ngl", "usage": "transmission"}, "geometry": {"type": "LineString", "coordinates": [[-96.470925, 30.071888], [-96.470809, 30.073164], [-96.470816, 30.073241], [-96.470903, 30.073432], [-96.471309, 30.073766], [-96.471358, 30.073802], [-96.471383, 30.073784], [-96.472496, 30.074625], [-96.472571, 30.074659], [-96.472773, 30.074698], [-96.476162, 30.075238], [-96.479349, 30.076618], [-96.479495, 30.076719], [-96.483974, 30.080201], [-96.484071, 30.080261], [-96.484888, 30.080424], [-96.485017, 30.080463], [-96.485501, 30.081001], [-96.485624, 30.081111], [-96.485861, 30.081177], [-96.487418, 30.081446], [-96.487535, 30.081479], [-96.487625, 30.081555], [-96.488189, 30.082157], [-96.488316, 30.082274], [-96.491224, 30.083843], [-96.493808, 30.084623], [-96.494713, 30.084987], [-96.495455, 30.085046], [-96.495557, 30.085088], [-96.503251, 30.088968], [-96.505269, 30.089695], [-96.505945, 30.089986], [-96.506196, 30.090107], [-96.5065, 30.090311], [-96.51171, 30.092743], [-96.513409, 30.093721], [-96.514474, 30.094033], [-96.516224, 30.094365], [-96.516374, 30.094408], [-96.516673, 30.094649], [-96.516998, 30.095123], [-96.517934, 30.095866], [-96.518727, 30.096089], [-96.519923, 30.096296], [-96.522104, 30.09687], [-96.523433, 30.09796], [-96.524514, 30.098875], [-96.529765, 30.10302], [-96.530011, 30.103061], [-96.530259, 30.102991], [-96.531023, 30.102479], [-96.531138, 30.102415], [-96.532067, 30.102013], [-96.532349, 30.101961], [-96.536229, 30.102388], [-96.539099, 30.103863], [-96.540969, 30.104906], [-96.541443, 30.105158], [-96.542821, 30.105273], [-96.543037, 30.105393], [-96.543305, 30.105761], [-96.545147, 30.106368], [-96.545813, 30.106693], [-96.547681, 30.107197], [-96.547892, 30.107278], [-96.549735, 30.108391], [-96.549802, 30.10842], [-96.549976, 30.108442], [-96.550097, 30.108442], [-96.550213, 30.108391], [-96.550609, 30.108166], [-96.550801, 30.108149], [-96.552154, 30.108578], [-96.55284, 30.108703], [-96.557601, 30.109092], [-96.561937, 30.110686], [-96.563162, 30.110888], [-96.56334, 30.110955], [-96.56349, 30.111064], [-96.565549, 30.11293], [-96.57049, 30.11655], [-96.571142, 30.11704], [-96.572376, 30.118008], [-96.572468, 30.118087], [-96.572493, 30.118127], [-96.572797, 30.118796], [-96.572861, 30.118923], [-96.572912, 30.118983], [-96.578253, 30.123611], [-96.578396, 30.123722], [-96.578574, 30.12381], [-96.58478, 30.125047], [-96.587456, 30.125907], [-96.590243, 30.126895], [-96.596823, 30.127619], [-96.597105, 30.127668], [-96.607838, 30.133207], [-96.611568, 30.134213], [-96.611735, 30.134259], [-96.611802, 30.134293], [-96.61717, 30.138536], [-96.617242, 30.13858], [-96.617402, 30.138598], [-96.617992, 30.138612], [-96.618214, 30.138692], [-96.623399, 30.142643], [-96.62431, 30.143318], [-96.624392, 30.14334], [-96.626601, 30.143604], [-96.627223, 30.144092], [-96.628541, 30.145713], [-96.62883, 30.145833], [-96.634471, 30.147969], [-96.636488, 30.14862], [-96.642206, 30.149417], [-96.645503, 30.150276], [-96.645594, 30.15032], [-96.645664, 30.150391], [-96.645727, 30.150542], [-96.645739, 30.151597], [-96.645751, 30.151657], [-96.645819, 30.151795], [-96.645863, 30.151848], [-96.646023, 30.151974], [-96.646879, 30.152617], [-96.651257, 30.153987], [-96.653387, 30.154719], [-96.653471, 30.154742], [-96.653986, 30.154705], [-96.654242, 30.154768], [-96.655045, 30.155182], [-96.655188, 30.155322], [-96.655456, 30.155982], [-96.655617, 30.156149], [-96.656009, 30.156317], [-96.658821, 30.157477], [-96.659038, 30.157493], [-96.659664, 30.157251], [-96.66014, 30.157262], [-96.666506, 30.160501], [-96.671024, 30.161785], [-96.671846, 30.162266], [-96.673248, 30.163323], [-96.673827, 30.163699], [-96.673894, 30.163751], [-96.674103, 30.164132], [-96.67421, 30.164256], [-96.674517, 30.16448], [-96.674796, 30.164647], [-96.674977, 30.164712], [-96.675205, 30.164748], [-96.67546, 30.164843], [-96.677832, 30.166438], [-96.678064, 30.166579], [-96.683424, 30.168154], [-96.686225, 30.168512], [-96.68651, 30.168569], [-96.687912, 30.169205], [-96.689206, 30.170297], [-96.689263, 30.17034], [-96.689416, 30.170413], [-96.698229, 30.174309], [-96.698323, 30.17434], [-96.698511, 30.174328], [-96.698652, 30.174339], [-96.69876, 30.174376], [-96.699081, 30.174628], [-96.700123, 30.175514], [-96.700212, 30.175558], [-96.700314, 30.175575], [-96.700546, 30.175485], [-96.700652, 30.175458], [-96.700787, 30.175478], [-96.706681, 30.176933], [-96.707885, 30.177218], [-96.70836, 30.177353], [-96.711111, 30.17824], [-96.71131, 30.178297], [-96.712023, 30.178407], [-96.712481, 30.178504], [-96.713192, 30.178712], [-96.714511, 30.179144], [-96.71939, 30.181778], [-96.726669, 30.185742], [-96.743343, 30.194756], [-96.7436, 30.194885], [-96.744102, 30.194965], [-96.744746, 30.195167]]}},
{"type": "Feature", "properties": {"ProjectID": "P2612", "diameter": "14\"", "layer": "-1", "location": "underground", "man_made": "pipeline", "name": "Seminole Pipeline - South Tie-In Site to Mont Belvieu", "operator": "Enterprise Products Operating, LLC", "ref": "10746", "substance": "ngl", "usage": "transmission"}, "geometry": {"type": "LineString", "coordinates": [[-96.415631, 30.012293], [-96.415055, 30.012849], [-96.415074, 30.013115], [-96.415034, 30.013149], [-96.409742, 30.012939], [-96.400778, 30.013123], [-96.393203, 30.012765], [-96.391933, 30.013059], [-96.390475, 30.014182], [-96.388523, 30.013915], [-96.382627, 30.012898], [-96.375997, 30.012122], [-96.371259, 30.011616], [-96.369815, 30.011422], [-96.363721, 30.010719], [-96.359176, 30.010398], [-96.354937, 30.010345], [-96.350685, 30.010478], [-96.346902, 30.010465], [-96.339571, 30.010529], [-96.338614, 30.010464], [-96.334152, 30.010334], [-96.329723, 30.010076], [-96.329563, 30.010555], [-96.32745, 30.010379], [-96.327274, 30.009874], [-96.32054, 30.009301], [-96.318498, 30.009061], [-96.313074, 30.008546], [-96.306173, 30.007962], [-96.30122, 30.007749], [-96.294544, 30.00738], [-96.294529, 30.006667], [-96.293628, 30.006669], [-96.293476, 30.007073], [-96.279364, 30.006253], [-96.264609, 30.005269], [-96.264212, 30.005604], [-96.259434, 30.005004], [-96.250935, 30.003859], [-96.237935, 30.003188], [-96.18972, 30.000381], [-96.179909, 29.99887], [-96.171147, 29.998337], [-96.166488, 29.998091], [-96.166112, 29.997862], [-96.155406, 29.997052], [-96.154878, 29.997346], [-96.137168, 29.996101], [-96.136464, 29.996071], [-96.133932, 29.99592], [-96.130253, 29.995674], [-96.128327, 29.994724], [-96.127674, 29.994545], [-96.12682, 29.994716], [-96.125604, 29.994582], [-96.122986, 29.994156], [-96.108166, 29.992307], [-96.107453, 29.991961], [-96.105867, 29.99181], [-96.104013, 29.991558], [-96.103515, 29.991587]]}},
{"type": "Feature", "properties": {"ProjectID": "P2612", "diameter": "6.63\"", "layer": "-1", "location": "underground", "man_made": "pipeline", "name": "Seminole Pipeline - Snook Lateral", "operator": "Enterprise Products Operating, LLC", "ref": "816", "substance": "ngl", "usage": "transmission"}, "geometry": {"type": "LineString", "coordinates": [[-96.388094, 30.499209], [-96.388506, 30.49874], [-96.389917, 30.496568], [-96.390993, 30.495726], [-96.397928, 30.489515], [-96.406572, 30.483663], [-96.42563, 30.470261], [-96.427873, 30.47065], [-96.428316, 30.470581], [-96.439027, 30.461081], [-96.439409, 30.459037], [-96.444048, 30.454687], [-96.444086, 30.452579], [-96.446527, 30.45043], [-96.447298, 30.450132], [-96.448892, 30.448601], [-96.44895, 30.448539], [-96.452707, 30.444571], [-96.454515, 30.441258], [-96.458452, 30.438265], [-96.468553, 30.429706], [-96.470918, 30.4274], [-96.474252, 30.42475], [-96.475687, 30.423074], [-96.488619, 30.411406], [-96.489481, 30.41025], [-96.491014, 30.40881], [-96.491563, 30.408478], [-96.491571, 30.408293], [-96.490793, 30.407221], [-96.490793, 30.406645], [-96.494325, 30.403302], [-96.495096, 30.40296], [-96.495958, 30.40214], [-96.496713, 30.401208], [-96.500208, 30.398188], [-96.50168, 30.396966], [-96.517374, 30.382738], [-96.517748, 30.381702], [-96.517893, 30.380989], [-96.518205, 30.380344], [-96.518541, 30.379784], [-96.518869, 30.379257], [-96.519136, 30.378849], [-96.519541, 30.378361], [-96.520059, 30.377808], [-96.521214, 30.37688]]}}
]
}
