{
"type": "FeatureCollection",
"features": [
{"type": "Feature", "properties": {"ProjectID": "P2658"}, "geometry": {"type": "LineString", "coordinates": [[-104.607307, 40.206013], [-104.615144, 40.191328], [-104.620795, 40.181335], [-104.61977, 40.142238], [-104.614817, 40.139361], [-104.594323, 40.138338], [-104.590631, 40.132604], [-104.590657, 40.128313], [-104.586965, 40.122579], [-104.582043, 40.114933], [-104.585824, 40.105888], [-104.585911, 40.091586], [-104.581606, 40.084895], [-104.582279, 40.076316], [-104.584164, 40.072509], [-104.583611, 40.061541], [-104.578044, 40.058661], [-104.547022, 40.058543], [-104.545246, 40.045664], [-104.527884, 40.044641], [-104.524205, 40.038428], [-104.523827, 40.003623], [-104.508339, 40.002128], [-104.507209, 39.986866], [-104.505732, 39.9337], [-104.508853, 39.930376], [-104.515059, 39.928495], [-104.52497, 39.928059], [-104.525875, 39.886584], [-104.526053, 39.860838], [-104.529179, 39.856083], [-104.52551, 39.84987], [-104.526958, 39.819124], [-104.517125, 39.810501], [-104.516664, 39.788091], [-104.516904, 39.753763], [-104.537313, 39.750032]]}}
]
}
