{
"type": "FeatureCollection",
"features": [
{"type": "Feature", "properties": {"ProjectID": "P2656"}, "geometry": {"type": "MultiLineString", "coordinates": [[[-97.404001, 27.815398], [-97.415092, 27.816488], [-97.416325, 27.820847], [-97.412628, 27.827387], [-97.426184, 27.843734], [-97.427416, 27.892759], [-97.480409, 27.937408], [-97.482874, 27.94394], [-97.4915, 27.946118], [-97.570373, 27.998362], [-97.577768, 28.005978], [-97.58393, 28.010331], [-97.586394, 28.020122], [-97.633225, 28.060368], [-97.682521, 28.098425], [-97.729351, 28.139728], [-97.762626, 28.163633], [-97.841499, 28.223373], [-97.892026, 28.266799], [-97.899421, 28.27114], [-97.90435, 28.281994], [-97.915442, 28.28959], [-97.932695, 28.298272], [-97.946252, 28.312377], [-97.969667, 28.335159], [-97.983223, 28.346006], [-97.998012, 28.362274], [-98.006639, 28.365527], [-98.007871, 28.374202], [-98.032519, 28.39155], [-98.047307, 28.403475], [-98.067026, 28.41865], [-98.094138, 28.46308], [-98.124948, 28.458746], [-98.142201, 28.455496], [-98.155757, 28.453329], [-98.163152, 28.456579], [-98.161919, 28.470664], [-98.164384, 28.483663], [-98.175476, 28.486913], [-98.173011, 28.497744], [-98.184102, 28.500993], [-98.185335, 28.51074], [-98.211215, 28.512906], [-98.226004, 28.511823], [-98.232165, 28.519403], [-98.274067, 28.529148], [-98.346161, 28.5876], [-98.357253, 28.593011], [-98.370809, 28.594093], [-98.385598, 28.600585], [-98.395457, 28.607077], [-98.410246, 28.605995], [-98.422569, 28.598421], [-98.436126, 28.601667], [-98.524858, 28.603831], [-98.52609, 28.5876], [-98.553202, 28.582189], [-98.560597, 28.585436], [-98.564294, 28.586518], [-98.590174, 28.574613], [-98.609892, 28.612486], [-98.645632, 28.610322], [-98.651794, 28.610322], [-98.662885, 28.628713], [-98.683836, 28.629795], [-98.703554, 28.631958], [-98.766406, 28.630877], [-98.776265, 28.63304], [-98.788589, 28.629795], [-98.894574, 28.628713], [-98.895806, 28.622223], [-98.893342, 28.615732], [-98.91306, 28.594093], [-98.936475, 28.571367], [-98.993165, 28.541058], [-99.005489, 28.561625], [-99.062795, 28.545388], [-99.071422, 28.543223], [-99.087443, 28.54647], [-99.093605, 28.544305], [-99.13797, 28.56379], [-99.155224, 28.547553], [-99.157689, 28.545388], [-99.178639, 28.556213], [-99.22054, 28.494494]], [[-98.160687, 28.456579], [-98.17794, 28.454412], [-98.186567, 28.454412], [-98.192729, 28.457663]], [[-99.032293, 28.554048], [-99.058173, 28.586518]], [[-99.04092, 28.564872], [-99.052011, 28.558378], [-99.054476, 28.549718], [-99.063103, 28.547553], [-99.061871, 28.545388]], [[-98.804301, 28.628713], [-98.806766, 28.644938], [-98.826484, 28.646019], [-98.837576, 28.649264], [-98.837576, 28.656834], [-98.842506, 28.662241], [-98.831414, 28.670892], [-98.842506, 28.681704], [-98.835111, 28.689272], [-98.822787, 28.691434], [-98.821555, 28.697921], [-98.82402, 28.703325], [-98.81909, 28.710892], [-98.810463, 28.710892], [-98.807999, 28.722781], [-98.807999, 28.73683], [-98.804301, 28.741152]], [[-98.81909, 28.730346], [-98.799372, 28.730346]], [[-98.810772, 28.710892], [-98.818782, 28.713054], [-98.821247, 28.718998]], [[-98.822479, 28.694677], [-98.802145, 28.692515], [-98.785508, 28.679001]], [[-98.840965, 28.681164], [-98.847127, 28.681164], [-98.849592, 28.685488], [-98.850824, 28.689813], [-98.855137, 28.688732], [-98.864997, 28.678461]], [[-98.841581, 28.628713], [-98.842197, 28.634663], [-98.842197, 28.645479], [-98.841581, 28.648182], [-98.837268, 28.649805]], [[-98.840965, 28.647101], [-98.853905, 28.648723], [-98.865613, 28.658456], [-98.871775, 28.658997], [-98.913676, 28.658997], [-98.937707, 28.680623], [-98.956809, 28.681704], [-98.979609, 28.689272], [-98.985771, 28.691975], [-98.994397, 28.698461], [-99.001175, 28.701164], [-99.00364, 28.701164], [-99.017813, 28.714134], [-99.018429, 28.72224], [-99.033218, 28.734668], [-99.043693, 28.72224]]]}}
]
}
