{
"type": "FeatureCollection",
"features": [
{"type": "Feature", "properties": {"ProjectID": "P2664"}, "geometry": {"type": "LineString", "coordinates": [[-98.427543, 36.467021], [-98.429572, 36.443358], [-98.417398, 36.436013], [-98.403195, 36.417239], [-98.402181, 36.396827], [-98.397109, 36.375594], [-98.384935, 36.351086], [-98.378848, 36.341281], [-98.37479, 36.329023], [-98.366675, 36.323301], [-98.362617, 36.310223], [-98.360588, 36.206334], [-98.364646, 36.174403], [-98.352472, 36.159662], [-98.349429, 36.135086], [-98.345371, 36.112962], [-98.335226, 36.095749], [-98.332183, 36.074434], [-98.328125, 36.062954], [-98.330154, 36.030965], [-98.326096, 36.021119], [-98.326096, 35.982546], [-98.30885, 35.966948], [-98.309865, 35.948061], [-98.301749, 35.934098], [-98.294648, 35.925062], [-98.257112, 35.877401]]}}
]
}
