{
"type": "FeatureCollection",
"features": [
{"type": "Feature", "properties": {"ProjectID": "P2672"}, "geometry": {"type": "LineString", "coordinates": [[-102.151999, 31.970612], [-101.136885, 31.957353], [-101.045747, 31.918671], [-100.917191, 31.956475], [-100.84472, 31.945353], [-100.761524, 31.895403], [-100.38364, 31.775243], [-99.924173, 31.57664], [-99.878788, 31.526295], [-99.810706, 31.507229], [-99.743648, 31.509496], [-99.477622, 31.375368], [-98.628139, 31.020333], [-98.423803, 31.021413], [-97.800307, 30.926187], [-97.540657, 30.851559], [-97.26835, 30.733612], [-97.259131, 30.405069], [-96.425404, 30.028959], [-96.185777, 29.711237]]}}
]
}
