{
"type": "FeatureCollection",
"features": [
{"type": "Feature", "properties": {"ProjectID": "P2678"}, "geometry": {"type": "MultiLineString", "coordinates": [[[-97.548891, 32.267956], [-97.575825, 32.293005], [-97.583906, 32.333979], [-97.61084, 32.404502], [-97.629695, 32.468153], [-97.635082, 32.572625], [-97.635082, 32.599859], [-97.59468, 32.611204], [-97.578519, 32.633889], [-97.586599, 32.658837], [-97.632388, 32.701911], [-97.659323, 32.744965], [-97.702418, 32.812902], [-97.718579, 32.91471], [-97.793996, 33.081874], [-97.799383, 33.145043], [-97.788609, 33.19239], [-97.764368, 33.221687], [-97.772448, 33.334276], [-97.756288, 33.383769], [-97.675484, 33.518607], [-97.548891, 33.854784], [-97.543504, 34.006193], [-97.554278, 34.191314], [-97.546197, 34.271482], [-97.546197, 34.307088], [-97.559665, 34.367138], [-97.554278, 34.424924], [-97.508489, 34.45158], [-97.365735, 34.469347], [-97.171806, 34.48933], [-96.98865, 34.513746], [-96.727384, 34.515966], [-96.678902, 34.558122], [-96.371847, 34.553686], [-96.383967, 34.721554], [-96.367806, 34.748116], [-96.292389, 34.805637], [-96.273535, 34.869748], [-96.2466, 34.894053]], [[-97.888267, 33.252663], [-97.543504, 33.254915]]]}}
]
}
