{
"type": "FeatureCollection",
"features": [
{"type": "Feature", "properties": {"ProjectID": "P2691"}, "geometry": {"type": "MultiLineString", "coordinates": [[[-104.318915, 31.938263], [-104.281206, 31.965688], [-104.265046, 31.970258], [-104.259659, 32.002241], [-104.238111, 32.011378], [-104.119598, 32.015945], [-104.028021, 32.02508], [-103.947217, 31.919976], [-103.925669, 31.855941], [-103.597066, 31.828483], [-103.494715, 31.814752], [-103.236142, 31.796439], [-103.098775, 31.553461], [-103.036826, 31.447821], [-103.017971, 31.332858], [-102.891378, 31.38116], [-102.840203, 31.413347], [-102.735157, 31.436331], [-102.619339, 31.491469], [-101.88941, 31.801018], [-101.808606, 31.830772], [-101.69548, 31.865091], [-101.303581, 31.970258], [-101.212003, 31.99082], [-101.163521, 31.999957], [-101.066556, 32.022796], [-101.01538, 32.03878], [-100.969591, 32.04563], [-100.786436, 32.111814], [-100.500928, 32.175671], [-100.468607, 32.175671], [-100.19926, 32.18479], [-99.91914, 32.159711], [-99.684808, 32.18479], [-99.608045, 32.196187], [-98.681493, 32.255429], [-98.393292, 32.262262], [-98.315182, 32.266817], [-98.07277, 32.31008], [-98.016207, 32.314633], [-97.87076, 32.287313], [-97.674137, 32.287313], [-97.582559, 32.262262], [-97.550238, 32.269095]], [[-103.234795, 31.795867], [-103.326373, 31.910259]], [[-104.083237, 32.017658], [-104.07785, 32.147739], [-104.045528, 32.209292], [-104.042835, 32.284466], [-104.067076, 32.307234]], [[-97.552931, 32.269095], [-97.534077, 32.241761], [-97.45866, 32.234927], [-97.38863, 32.237205], [-97.313213, 32.257707], [-97.213554, 32.250873], [-97.022318, 32.127783], [-96.92266, 32.059327], [-96.796067, 31.993104], [-96.709876, 31.949691], [-96.604831, 31.878815], [-96.480932, 31.881103], [-96.44053, 31.876528], [-96.392048, 31.812463], [-96.346259, 31.787282], [-96.251987, 31.711699], [-96.144249, 31.631467], [-96.001495, 31.475391], [-95.877596, 31.351837], [-95.837194, 31.301219], [-95.81834, 31.243666], [-95.697134, 30.86756], [-95.659425, 30.856], [-95.47627, 30.846751], [-95.417013, 30.830562], [-95.357757, 30.777352], [-95.244632, 30.705587], [-95.225777, 30.67316], [-95.085717, 30.615227], [-95.026461, 30.568856], [-94.969898, 30.469082], [-94.969898, 30.448186], [-94.94835, 30.436576], [-94.94835, 30.352938], [-94.964511, 30.294814], [-94.967205, 30.259923], [-94.926803, 30.22502], [-94.889094, 30.227347], [-94.824451, 29.847276]]]}}
]
}
