{
"type": "FeatureCollection",
"features": [
{"type": "Feature", "properties": {"ProjectID": "P2690", "diameter": "30\"", "layer": "-1", "location": "underground", "man_made": "pipeline", "name": "Arbuckle II Pipeline", "operator": "Oneok NGL Pipeline, LLC", "substance": "ngl", "usage": "transmission"}, "geometry": {"type": "LineString", "coordinates": [[-94.890414, 29.865103], [-94.89077, 29.865244], [-94.895251, 29.866447], [-94.895499, 29.866287], [-94.899538, 29.871275], [-94.899436, 29.876897], [-94.899327, 29.877381], [-94.899304, 29.878165], [-94.901218, 29.88233], [-94.901354, 29.884743], [-94.901495, 29.885472], [-94.901767, 29.886154], [-94.902479, 29.888051], [-94.902748, 29.888519], [-94.904098, 29.890633], [-94.905942, 29.893709], [-94.912133, 29.893262], [-94.912966, 29.90201], [-94.913125, 29.902129], [-94.913445, 29.905306], [-94.913663, 29.906882], [-94.913728, 29.907043], [-94.91385, 29.907201], [-94.913894, 29.907355], [-94.913878, 29.907495], [-94.913787, 29.907903], [-94.914349, 29.91288], [-94.91403, 29.912897], [-94.914043, 29.913104], [-94.914007, 29.913368], [-94.916876, 29.938522], [-94.917028, 29.939612], [-94.916962, 29.939769], [-94.917264, 29.941957], [-94.917654, 29.945122], [-94.917526, 29.945501], [-94.918268, 29.952993], [-94.92211, 29.956086], [-94.922316, 29.957861], [-94.922322, 29.958178], [-94.922847, 29.962445], [-94.922915, 29.96275], [-94.923397, 29.966672], [-94.92335, 29.967132], [-94.923522, 29.968602], [-94.923652, 29.972244], [-94.924219, 29.973108], [-94.924216, 29.973506], [-94.927154, 29.998315], [-94.927493, 30.001322], [-94.927347, 30.001478], [-94.927661, 30.004355], [-94.928725, 30.013185], [-94.929455, 30.019056], [-94.929247, 30.01927], [-94.929494, 30.021598], [-94.932363, 30.031517], [-94.932844, 30.031748], [-94.934415, 30.037504], [-94.936317, 30.037494], [-94.936349, 30.040713], [-94.936511, 30.040912], [-94.93654, 30.04293], [-94.941654, 30.042921], [-94.942298, 30.045654], [-94.94238, 30.047959], [-94.94267, 30.049284], [-94.943718, 30.049991], [-94.943936, 30.051801], [-94.944991, 30.052292], [-94.945021, 30.053511], [-94.945279, 30.055772], [-94.945245, 30.055832], [-94.945217, 30.056766], [-94.945233, 30.05976], [-94.945204, 30.059909], [-94.945231, 30.067229], [-94.944974, 30.074039], [-94.945531, 30.07448], [-94.945504, 30.078054], [-94.945347, 30.078507], [-94.945356, 30.086157], [-94.950996, 30.091364], [-94.951004, 30.097837], [-94.951371, 30.098136], [-94.951375, 30.098476], [-94.950993, 30.098823], [-94.950993, 30.104957], [-94.945479, 30.112441], [-94.945529, 30.118157], [-94.945719, 30.118816], [-94.945782, 30.120939], [-94.945755, 30.121562], [-94.945502, 30.122217], [-94.945483, 30.12234], [-94.94551, 30.130146], [-94.945555, 30.130397], [-94.945789, 30.137108], [-94.945933, 30.138818], [-94.946054, 30.139009], [-94.946084, 30.139371], [-94.946363, 30.148591], [-94.949647, 30.152358], [-94.950025, 30.152588], [-94.955005, 30.168757], [-94.955082, 30.169655], [-94.955346, 30.1782], [-94.956052, 30.179743], [-94.956105, 30.181169], [-94.95554, 30.182179], [-94.955528, 30.182285], [-94.955617, 30.185941], [-94.954721, 30.193028], [-94.954706, 30.193363], [-94.956742, 30.198356], [-94.956903, 30.198957], [-94.957466, 30.200376], [-94.957938, 30.201674], [-94.963035, 30.214683], [-94.963317, 30.215663], [-94.963924, 30.217217], [-94.970337, 30.219816], [-94.969178, 30.229327], [-94.969128, 30.230697], [-94.970432, 30.233978], [-94.97052, 30.234104], [-94.972122, 30.235145], [-94.972179, 30.235767], [-94.972565, 30.236088], [-94.972618, 30.23909], [-94.974287, 30.24019], [-94.974303, 30.24078], [-94.974428, 30.240919], [-94.974415, 30.242475], [-94.974164, 30.242954], [-94.9745, 30.244428], [-94.974489, 30.245518], [-94.987784, 30.255707], [-94.989066, 30.25569], [-94.989877, 30.255864], [-94.999317, 30.255797], [-94.999355, 30.256374], [-94.999695, 30.263776], [-95.023322, 30.28188], [-95.024852, 30.282167], [-95.024223, 30.284492], [-95.023556, 30.287326], [-95.023605, 30.287705], [-95.023561, 30.287984], [-95.023258, 30.288573], [-95.021336, 30.296962], [-95.021111, 30.297351], [-95.020374, 30.300541], [-95.020501, 30.301725], [-95.019848, 30.302909], [-95.019307, 30.3052], [-95.019375, 30.305384], [-95.018991, 30.307119], [-95.018989, 30.307424], [-95.019424, 30.308854], [-95.019455, 30.309413], [-95.019117, 30.311487], [-95.019266, 30.311725], [-95.019947, 30.313661], [-95.01995, 30.313897], [-95.019545, 30.314204], [-95.019611, 30.316503], [-95.018576, 30.3171], [-95.017646, 30.317111], [-95.016661, 30.316861], [-95.016003, 30.316871], [-95.015429, 30.317032], [-95.014383, 30.317033], [-95.014216, 30.316891], [-95.013128, 30.316903], [-95.012819, 30.317169], [-95.012887, 30.32082], [-95.012793, 30.32091], [-95.012801, 30.321493], [-95.013843, 30.323017], [-95.010789, 30.336198], [-95.010707, 30.33636], [-95.010562, 30.336519], [-95.000381, 30.342728], [-95.000304, 30.342795], [-95.000313, 30.342896], [-95.002378, 30.349606], [-95.002395, 30.349701], [-95.002219, 30.351121], [-95.002278, 30.355463], [-95.00217, 30.356498], [-95.002213, 30.356911], [-95.002278, 30.360334], [-95.003798, 30.360431], [-95.004734, 30.360752], [-95.004979, 30.360902], [-95.006105, 30.362136], [-95.006055, 30.363208], [-95.007079, 30.3643], [-95.007309, 30.364656], [-95.007393, 30.365405], [-95.007574, 30.377909], [-95.007322, 30.38054], [-95.006531, 30.386271], [-95.006493, 30.386459], [-95.006213, 30.386734], [-95.006244, 30.387712], [-95.006411, 30.400861], [-95.006182, 30.40174], [-95.00617, 30.401861], [-95.006348, 30.405444], [-95.006451, 30.405751], [-95.006574, 30.414249], [-95.007085, 30.422431], [-95.007589, 30.424153], [-95.006789, 30.425169], [-95.00753, 30.430163], [-95.012634, 30.435522], [-95.021657, 30.443302], [-95.024319, 30.450594], [-95.026338, 30.45226], [-95.027044, 30.454121], [-95.02679, 30.454923], [-95.032836, 30.475357], [-95.039937, 30.486491], [-95.040109, 30.496572], [-95.0512, 30.509693], [-95.049925, 30.511852], [-95.059179, 30.51869], [-95.066714, 30.527272], [-95.076542, 30.550789], [-95.076542, 30.553202], [-95.08776, 30.566889], [-95.110249, 30.582173], [-95.109429, 30.587712], [-95.107156, 30.590741], [-95.106776, 30.593149], [-95.112661, 30.598598], [-95.11639, 30.599004], [-95.131021, 30.613172], [-95.134635, 30.619503], [-95.139863, 30.620842], [-95.144005, 30.625779], [-95.147473, 30.626152], [-95.148482, 30.625095], [-95.150157, 30.625063], [-95.153558, 30.626233], [-95.175591, 30.629153], [-95.191337, 30.633265], [-95.236792, 30.661857], [-95.266975, 30.676607], [-95.289904, 30.697265], [-95.298945, 30.707181], [-95.303828, 30.711715], [-95.310415, 30.714742], [-95.312485, 30.715892], [-95.3163, 30.719467], [-95.323461, 30.72375], [-95.326513, 30.725512], [-95.328927, 30.726185], [-95.334448, 30.730695], [-95.336622, 30.73293], [-95.339349, 30.735768], [-95.341222, 30.738458], [-95.343772, 30.742124], [-95.34471, 30.74385], [-95.345963, 30.745281], [-95.346965, 30.746142], [-95.35133, 30.749074], [-95.35738, 30.752809], [-95.360629, 30.753591], [-95.36193, 30.755191], [-95.362939, 30.75611], [-95.36799, 30.758477], [-95.370287, 30.759646], [-95.373853, 30.763721], [-95.374007, 30.765021], [-95.373378, 30.768808], [-95.37242, 30.770586], [-95.372397, 30.77154], [-95.373185, 30.772799], [-95.376755, 30.774358], [-95.379231, 30.774983], [-95.388116, 30.774934], [-95.39733, 30.775014], [-95.398027, 30.775545], [-95.39973, 30.777469], [-95.401152, 30.778283], [-95.403951, 30.781425], [-95.405203, 30.782958], [-95.408962, 30.787018], [-95.417743, 30.796605], [-95.419171, 30.799421], [-95.419299, 30.803445], [-95.418868, 30.804233], [-95.418749, 30.807758], [-95.419367, 30.808776], [-95.420869, 30.808892], [-95.429011, 30.808699], [-95.42968, 30.809164], [-95.431962, 30.81114], [-95.4343, 30.814582], [-95.434655, 30.815675], [-95.43539, 30.817008], [-95.436559, 30.817796], [-95.438801, 30.818683], [-95.441004, 30.818859], [-95.442134, 30.819521], [-95.450398, 30.823256], [-95.451118, 30.82405], [-95.451673, 30.825034], [-95.453589, 30.830878], [-95.457815, 30.835424], [-95.462516, 30.835852], [-95.469428, 30.840758], [-95.544115, 30.855415], [-95.553243, 30.856462], [-95.565649, 30.857876], [-95.582468, 30.859807], [-95.594012, 30.861116], [-95.603965, 30.862301], [-95.607588, 30.862722], [-95.613345, 30.863372], [-95.619566, 30.864067], [-95.62519, 30.864749], [-95.626879, 30.864635], [-95.629037, 30.865169], [-95.631282, 30.865444], [-95.636777, 30.866043], [-95.641389, 30.866572], [-95.647481, 30.867272], [-95.652491, 30.867765], [-95.659132, 30.868552], [-95.662347, 30.868948], [-95.670185, 30.869787], [-95.67413, 30.87017], [-95.689063, 30.870565], [-95.720863, 30.880269], [-95.757285, 30.891685], [-95.763788, 30.900291], [-95.775762, 30.929139], [-95.815361, 30.951743], [-95.819436, 30.954071], [-95.82374, 30.957354], [-95.82667, 30.958837], [-95.827086, 30.959567], [-95.828531, 30.961423], [-95.832801, 30.96414], [-95.83329, 30.966206], [-95.833245, 30.967091], [-95.833546, 30.967422], [-95.834747, 30.969685], [-95.836335, 30.97066], [-95.840334, 30.974692], [-95.843198, 30.97541], [-95.84359, 30.977608], [-95.843847, 30.978289], [-95.845242, 30.980331], [-95.846765, 30.983017], [-95.849705, 30.985463], [-95.851937, 30.987799], [-95.856099, 30.993575], [-95.858932, 30.994642], [-95.865004, 30.995672], [-95.865798, 30.99718], [-95.873824, 30.999332], [-95.874017, 31.010018], [-95.875111, 31.01171], [-95.877471, 31.011765], [-95.88054, 31.013347], [-95.880516, 31.018268], [-95.883493, 31.019648], [-95.883618, 31.020821], [-95.887341, 31.02089], [-95.888666, 31.022016], [-95.891826, 31.022154], [-95.892528, 31.022591], [-95.89425, 31.024186], [-95.895506, 31.024669], [-95.897458, 31.027969], [-95.897603, 31.029808], [-95.898681, 31.030865], [-95.900232, 31.032539], [-95.901203, 31.033237], [-95.903831, 31.035696], [-95.906964, 31.038638], [-95.907613, 31.039792], [-95.909534, 31.042899], [-95.911073, 31.045546], [-95.9136, 31.047651], [-95.917634, 31.051011], [-95.921496, 31.054145], [-95.92435, 31.055937], [-95.925444, 31.056222], [-95.933481, 31.062294], [-95.93744, 31.065322], [-95.938368, 31.06551], [-95.941844, 31.066264], [-95.944119, 31.066728], [-95.94995, 31.070045], [-95.949955, 31.071456], [-95.950047, 31.072136], [-95.95035, 31.074073], [-95.953542, 31.075477], [-95.956175, 31.075612], [-95.957308, 31.079172], [-95.958354, 31.082328], [-95.9667, 31.082431], [-95.972158, 31.086807], [-95.972856, 31.086837], [-95.975786, 31.089525], [-95.978559, 31.092094], [-95.985082, 31.096948], [-95.995093, 31.105326], [-95.997325, 31.108073], [-96.001075, 31.113419], [-96.005958, 31.111254], [-96.009115, 31.115928], [-96.01201, 31.118854], [-96.014626, 31.121482], [-96.015568, 31.122094], [-96.01576, 31.122557], [-96.02066, 31.127349], [-96.022147, 31.130011], [-96.02249, 31.13148], [-96.024773, 31.135419], [-96.029413, 31.143375], [-96.034104, 31.145719], [-96.036476, 31.146943], [-96.036877, 31.147495], [-96.037592, 31.147674], [-96.043975, 31.151017], [-96.052591, 31.155555], [-96.053777, 31.158749], [-96.057165, 31.163926], [-96.057594, 31.164799], [-96.058989, 31.167934], [-96.05989, 31.169985], [-96.06584, 31.172166], [-96.068769, 31.173864], [-96.073518, 31.173862], [-96.080003, 31.173967], [-96.083104, 31.173077], [-96.084139, 31.1731], [-96.087154, 31.175954], [-96.091478, 31.175417], [-96.092524, 31.176459], [-96.093956, 31.17735], [-96.098907, 31.180269], [-96.102244, 31.182242], [-96.103419, 31.182444], [-96.106128, 31.183931], [-96.106949, 31.184945], [-96.110221, 31.186689], [-96.112544, 31.188286], [-96.116508, 31.191044], [-96.116696, 31.194279], [-96.116433, 31.194862], [-96.11815, 31.195876], [-96.120885, 31.196698], [-96.121561, 31.196987], [-96.122527, 31.19634], [-96.123922, 31.195431], [-96.128846, 31.195729], [-96.131255, 31.19584], [-96.132478, 31.196514], [-96.135058, 31.196794], [-96.135809, 31.197138], [-96.137875, 31.198368], [-96.141646, 31.199515], [-96.142547, 31.200102], [-96.146565, 31.202832], [-96.147761, 31.203406], [-96.150293, 31.203649], [-96.154016, 31.204815], [-96.159928, 31.206655], [-96.163232, 31.207687], [-96.165351, 31.208871], [-96.167717, 31.209476], [-96.170549, 31.210119], [-96.17188, 31.210899], [-96.172947, 31.211665], [-96.17682, 31.212202], [-96.177201, 31.213101], [-96.180919, 31.213353], [-96.181906, 31.213537], [-96.182619, 31.214615], [-96.184765, 31.215863], [-96.185951, 31.216409], [-96.186294, 31.21678], [-96.187286, 31.217395], [-96.190194, 31.217133], [-96.19205, 31.218569], [-96.194153, 31.221584], [-96.194206, 31.222074], [-96.194641, 31.222368], [-96.195987, 31.223253], [-96.198863, 31.22551], [-96.201443, 31.227487], [-96.201963, 31.228019], [-96.205547, 31.230758], [-96.209688, 31.233978], [-96.210659, 31.234308], [-96.213186, 31.236102], [-96.216812, 31.238468], [-96.221543, 31.241367], [-96.224848, 31.243463], [-96.227203, 31.244582], [-96.227407, 31.245848], [-96.229692, 31.24738], [-96.233463, 31.249843], [-96.237347, 31.252333], [-96.239638, 31.253447], [-96.241767, 31.255396], [-96.246354, 31.255667], [-96.24748, 31.25746], [-96.250479, 31.258969], [-96.254331, 31.261587], [-96.258032, 31.264192], [-96.260334, 31.265741], [-96.261707, 31.266191], [-96.262227, 31.267562], [-96.263144, 31.268181], [-96.267136, 31.271051], [-96.270038, 31.273142], [-96.274571, 31.27582], [-96.275606, 31.277511], [-96.280928, 31.279487], [-96.285396, 31.282201], [-96.287762, 31.284031], [-96.289317, 31.284393], [-96.289977, 31.284893], [-96.290884, 31.285342], [-96.295487, 31.28745], [-96.300229, 31.289711], [-96.301559, 31.289999], [-96.30569, 31.290504], [-96.307106, 31.292493], [-96.307675, 31.292718], [-96.308517, 31.293689], [-96.308454, 31.297195], [-96.309532, 31.298625], [-96.315723, 31.302017], [-96.318013, 31.303346], [-96.318979, 31.304126], [-96.320358, 31.304529], [-96.321377, 31.305166], [-96.324992, 31.307109], [-96.327353, 31.308374], [-96.327889, 31.308883], [-96.333919, 31.311436], [-96.339262, 31.313833], [-96.342518, 31.315281], [-96.347368, 31.317513], [-96.349615, 31.319965], [-96.352507, 31.322889], [-96.352898, 31.323141], [-96.35506, 31.324671], [-96.359169, 31.327663], [-96.359099, 31.328241], [-96.360559, 31.329483], [-96.361154, 31.330211], [-96.362318, 31.329987], [-96.365033, 31.333959], [-96.365548, 31.334216], [-96.367618, 31.337341], [-96.370451, 31.337877], [-96.373685, 31.337263], [-96.377103, 31.338756], [-96.377859, 31.340136], [-96.37987, 31.340553], [-96.381104, 31.342285], [-96.381834, 31.343741], [-96.381673, 31.345386], [-96.382397, 31.346348], [-96.38258, 31.347425], [-96.383019, 31.348337], [-96.385053, 31.34929], [-96.386726, 31.351649], [-96.389156, 31.355172], [-96.390927, 31.357737], [-96.39252, 31.360192], [-96.39561, 31.362029], [-96.399198, 31.364265], [-96.402315, 31.366074], [-96.403034, 31.366816], [-96.406939, 31.369221], [-96.411091, 31.370082], [-96.414004, 31.37113], [-96.416649, 31.372051], [-96.417502, 31.371762], [-96.41784, 31.372271], [-96.418425, 31.373004], [-96.420163, 31.375147], [-96.421225, 31.37708], [-96.421901, 31.377423], [-96.424696, 31.380849], [-96.425522, 31.381298], [-96.426815, 31.382044], [-96.427737, 31.383176], [-96.428633, 31.383863], [-96.431374, 31.386079], [-96.434518, 31.388959], [-96.435065, 31.388781], [-96.438053, 31.390457], [-96.441856, 31.392545], [-96.444125, 31.393868], [-96.446266, 31.394308], [-96.449012, 31.396579], [-96.450236, 31.397133], [-96.452644, 31.39962], [-96.455718, 31.404024], [-96.45589, 31.408264], [-96.455956, 31.410217], [-96.456111, 31.414191], [-96.457259, 31.415239], [-96.458531, 31.41658], [-96.460553, 31.419093], [-96.461733, 31.419277], [-96.464078, 31.421337], [-96.465735, 31.42277], [-96.466674, 31.423291], [-96.469383, 31.426047], [-96.472865, 31.42943], [-96.474538, 31.431458], [-96.476207, 31.432011], [-96.47802, 31.434053], [-96.480932, 31.434968], [-96.484548, 31.439518], [-96.486501, 31.441875], [-96.489274, 31.445481], [-96.489344, 31.446154], [-96.490025, 31.446841], [-96.490251, 31.447664], [-96.491409, 31.449174], [-96.493753, 31.452144], [-96.496023, 31.455082], [-96.497257, 31.456634], [-96.497686, 31.457119], [-96.498903, 31.458725], [-96.502058, 31.459215], [-96.503281, 31.459434], [-96.503688, 31.460464], [-96.504128, 31.460674], [-96.505523, 31.46202], [-96.505979, 31.463347], [-96.507165, 31.463818], [-96.509949, 31.466641], [-96.510984, 31.468046], [-96.511359, 31.46811], [-96.512459, 31.468773], [-96.514111, 31.470091], [-96.514707, 31.470242], [-96.515619, 31.470946], [-96.517877, 31.473005], [-96.518939, 31.473595], [-96.520012, 31.475334], [-96.520388, 31.475755], [-96.521407, 31.476643], [-96.521997, 31.477352], [-96.523923, 31.479996], [-96.52565, 31.481995], [-96.527979, 31.484585], [-96.530934, 31.485564], [-96.53278, 31.485394], [-96.534298, 31.485952], [-96.536782, 31.487055], [-96.538128, 31.488336], [-96.541416, 31.49168], [-96.544072, 31.494392], [-96.544871, 31.495023], [-96.545998, 31.495412], [-96.548181, 31.497411], [-96.551126, 31.499684], [-96.551909, 31.500375], [-96.552794, 31.501024], [-96.55502, 31.504089], [-96.5573, 31.507336], [-96.5584, 31.507455], [-96.559103, 31.507675], [-96.560937, 31.510405], [-96.561989, 31.511996], [-96.563732, 31.514329], [-96.5659, 31.517091], [-96.567198, 31.518705], [-96.568743, 31.520658], [-96.571999, 31.522222], [-96.573485, 31.523187], [-96.576709, 31.525533], [-96.576832, 31.525953], [-96.576709, 31.526904], [-96.580035, 31.531646], [-96.581574, 31.53379], [-96.582454, 31.535281], [-96.584385, 31.536744], [-96.587502, 31.539272], [-96.587765, 31.539885], [-96.590517, 31.541494], [-96.590785, 31.542089], [-96.591144, 31.542235], [-96.593891, 31.54416], [-96.598896, 31.547621], [-96.600328, 31.549249], [-96.607199, 31.557393], [-96.61339, 31.565085], [-96.615579, 31.567731], [-96.617746, 31.57041], [-96.620176, 31.573317], [-96.620482, 31.573956], [-96.621421, 31.575853], [-96.622274, 31.576959], [-96.622499, 31.577951], [-96.623293, 31.579742], [-96.623653, 31.580103], [-96.625439, 31.581776], [-96.625793, 31.582511], [-96.62875, 31.585949], [-96.631157, 31.587732], [-96.635447, 31.590792], [-96.635918, 31.591253], [-96.637121, 31.592263], [-96.641115, 31.595026], [-96.645632, 31.598131], [-96.647586, 31.598398], [-96.650132, 31.602305], [-96.650324, 31.603716], [-96.649992, 31.608484], [-96.652137, 31.611158], [-96.656974, 31.617494], [-96.659999, 31.621194], [-96.662703, 31.624519], [-96.664216, 31.626415], [-96.666136, 31.626881], [-96.669559, 31.631307], [-96.670299, 31.632855], [-96.672386, 31.634933], [-96.674918, 31.637468], [-96.676581, 31.63909], [-96.677278, 31.640017], [-96.678238, 31.640779], [-96.679386, 31.641679], [-96.680953, 31.642821], [-96.682436, 31.645103], [-96.685418, 31.649453], [-96.692331, 31.655017], [-96.695088, 31.657291], [-96.695769, 31.657081], [-96.696456, 31.657428], [-96.697207, 31.658245], [-96.697599, 31.659126], [-96.697976, 31.659484], [-96.700452, 31.66177], [-96.700923, 31.662973], [-96.702057, 31.662661], [-96.7049, 31.665081], [-96.706103, 31.667693], [-96.708527, 31.670127], [-96.708737, 31.670736], [-96.709016, 31.67277], [-96.709521, 31.674091], [-96.714161, 31.678588], [-96.718869, 31.683159], [-96.720514, 31.684463], [-96.725804, 31.687791], [-96.727456, 31.688996], [-96.728985, 31.690027], [-96.730396, 31.691383], [-96.731576, 31.692725], [-96.733555, 31.695272], [-96.734762, 31.697007], [-96.73672, 31.699704], [-96.738582, 31.702392], [-96.739918, 31.704158], [-96.743844, 31.707052], [-96.74657, 31.708809], [-96.747557, 31.710105], [-96.746687, 31.712446], [-96.746087, 31.714582], [-96.745244, 31.716768], [-96.746961, 31.718844], [-96.747642, 31.719743], [-96.748629, 31.720277], [-96.748919, 31.721408], [-96.751258, 31.724648], [-96.75202, 31.724917], [-96.754578, 31.727755], [-96.7571, 31.730132], [-96.760565, 31.733354], [-96.764047, 31.736602], [-96.767732, 31.740042], [-96.769755, 31.74194], [-96.771707, 31.744344], [-96.772453, 31.746087], [-96.773746, 31.747168], [-96.775966, 31.748039], [-96.780843, 31.752277], [-96.782618, 31.753025], [-96.784496, 31.755889], [-96.786508, 31.758198], [-96.790418, 31.761053], [-96.792103, 31.762312], [-96.79537, 31.764743], [-96.797955, 31.768031], [-96.799983, 31.770558], [-96.800777, 31.773841], [-96.801244, 31.775898], [-96.804784, 31.77759], [-96.806667, 31.778771], [-96.809499, 31.782364], [-96.816044, 31.784056], [-96.819005, 31.787093], [-96.822707, 31.790677], [-96.825968, 31.793522], [-96.827352, 31.795241], [-96.831182, 31.799176], [-96.832647, 31.800671], [-96.835431, 31.802691], [-96.836611, 31.803762], [-96.838693, 31.807072], [-96.840345, 31.808139], [-96.841568, 31.808458], [-96.842829, 31.809228], [-96.843714, 31.810022], [-96.84498, 31.81133], [-96.847415, 31.81458], [-96.852002, 31.819658], [-96.853477, 31.821358], [-96.854271, 31.822197], [-96.854217, 31.823528], [-96.854952, 31.824549], [-96.855161, 31.824973], [-96.855633, 31.825652], [-96.856374, 31.827238], [-96.858917, 31.827958], [-96.860215, 31.829622], [-96.8622, 31.83222], [-96.863466, 31.834015], [-96.865236, 31.836349], [-96.866518, 31.837812], [-96.869066, 31.840541], [-96.870128, 31.841813], [-96.871399, 31.843549], [-96.87199, 31.844223], [-96.873674, 31.845791], [-96.875235, 31.848225], [-96.876909, 31.85069], [-96.879317, 31.854472], [-96.880042, 31.854882], [-96.880438, 31.856517], [-96.880589, 31.856613], [-96.880862, 31.856732], [-96.881592, 31.857921], [-96.884365, 31.859871], [-96.888158, 31.862555], [-96.890787, 31.864468], [-96.89231, 31.865557], [-96.893286, 31.866272], [-96.894284, 31.86768], [-96.894863, 31.868003], [-96.896526, 31.870181], [-96.89835, 31.873037], [-96.900147, 31.875743], [-96.901386, 31.877289], [-96.902368, 31.877604], [-96.903317, 31.879216], [-96.903977, 31.879859], [-96.90483, 31.881143], [-96.90593, 31.881603], [-96.907512, 31.883065], [-96.908317, 31.884997], [-96.908843, 31.886814], [-96.910103, 31.88722], [-96.910725, 31.888049], [-96.911353, 31.889624], [-96.911498, 31.890144], [-96.912592, 31.89182], [-96.913274, 31.893637], [-96.914261, 31.895104], [-96.915183, 31.896406], [-96.91557, 31.897581], [-96.915956, 31.898674], [-96.916299, 31.899193], [-96.917624, 31.899963], [-96.918306, 31.900888], [-96.919625, 31.902919], [-96.920178, 31.903738], [-96.921878, 31.904699], [-96.922645, 31.905674], [-96.924346, 31.908065], [-96.925376, 31.90878], [-96.928219, 31.912518], [-96.930515, 31.915683], [-96.932532, 31.917682], [-96.934967, 31.920806], [-96.937961, 31.923091], [-96.939291, 31.924102], [-96.940509, 31.925345], [-96.941061, 31.925413], [-96.943599, 31.927289], [-96.945557, 31.928614], [-96.946125, 31.929315], [-96.948775, 31.931382], [-96.952176, 31.93395], [-96.955695, 31.936495], [-96.95716, 31.937892], [-96.95805, 31.938256], [-96.959965, 31.939804], [-96.961012, 31.941352], [-96.961569, 31.942367], [-96.965941, 31.945053], [-96.968189, 31.946505], [-96.9707, 31.947939], [-96.970812, 31.948071], [-96.970485, 31.948681], [-96.974256, 31.950246], [-96.975319, 31.951075], [-96.978205, 31.953833], [-96.978505, 31.954193], [-96.979235, 31.955581], [-96.980211, 31.956746], [-96.981413, 31.958353], [-96.983762, 31.959532], [-96.984234, 31.959727], [-96.986772, 31.962071], [-96.98991, 31.96487], [-96.990811, 31.965735], [-96.991895, 31.966194], [-96.993949, 31.969221], [-96.994625, 31.970113], [-96.994748, 31.970572], [-96.996647, 31.973203], [-96.997382, 31.974222], [-96.998005, 31.9747], [-97.000188, 31.977689], [-97.001953, 31.980133], [-97.004469, 31.983518], [-97.004855, 31.984023], [-97.006014, 31.984815], [-97.006276, 31.985761], [-97.006389, 31.985962], [-97.007848, 31.98724], [-97.010118, 31.989597], [-97.013218, 31.9926], [-97.015477, 31.994906], [-97.018502, 31.997941], [-97.02098, 32.000466], [-97.023829, 32.003259], [-97.026039, 32.005383], [-97.029392, 32.008795], [-97.031146, 32.010515], [-97.047794, 32.035092], [-97.099679, 32.057354], [-97.100981, 32.059036], [-97.101988, 32.06034], [-97.108365, 32.062561], [-97.115367, 32.065075], [-97.119217, 32.066902], [-97.120379, 32.068326], [-97.12138, 32.070229], [-97.131414, 32.066465], [-97.157121, 32.077593], [-97.164931, 32.089519], [-97.189693, 32.094428], [-97.192247, 32.093173], [-97.19626, 32.0947], [-97.19744, 32.096191], [-97.231934, 32.107547], [-97.237485, 32.109822], [-97.243251, 32.112826], [-97.247253, 32.115091], [-97.248882, 32.115935], [-97.249589, 32.116955], [-97.252915, 32.118689], [-97.256738, 32.12072], [-97.258914, 32.121709], [-97.261871, 32.12249], [-97.266033, 32.123573], [-97.26985, 32.124541], [-97.270969, 32.124942], [-97.401953, 32.182223], [-97.413025, 32.198567], [-97.491839, 32.313559], [-97.567778, 32.384963], [-97.575975, 32.416161], [-97.60461, 32.431375], [-97.611616, 32.463734], [-97.618032, 32.468314], [-97.723539, 32.508314], [-97.758365, 32.54855], [-97.752142, 32.551263], [-97.755189, 32.557159], [-97.771626, 32.586598], [-97.83411, 32.599469], [-97.866039, 32.604459], [-97.872219, 32.62087], [-97.884407, 32.623039], [-97.892904, 32.629762], [-97.891359, 32.640098], [-97.90623, 32.654823], [-97.910543, 32.664903], [-97.918766, 32.66782], [-97.919812, 32.667852], [-97.922178, 32.669067], [-97.922205, 32.669825], [-97.92398, 32.670773], [-97.923996, 32.671722], [-97.925525, 32.672557], [-97.925735, 32.672878], [-97.927768, 32.673934], [-97.927837, 32.6744], [-97.929172, 32.675053], [-97.929631, 32.67472], [-97.929751, 32.674837], [-97.929218, 32.675223], [-97.927161, 32.677511], [-97.927612, 32.67938], [-97.925504, 32.68171], [-97.925981, 32.681945], [-97.925509, 32.682721], [-97.925689, 32.684931], [-97.927835, 32.695062], [-97.927771, 32.698855], [-97.92747, 32.699342], [-97.924591, 32.703158], [-97.927802, 32.707589], [-97.926534, 32.709737], [-97.928042, 32.714085], [-97.92779, 32.715888], [-97.927879, 32.716825], [-97.927919, 32.718834], [-97.928314, 32.719405], [-97.927562, 32.721147], [-97.927562, 32.724382], [-97.92787, 32.724962], [-97.927611, 32.725781], [-97.927626, 32.726865], [-97.928556, 32.727539], [-97.928794, 32.728118], [-97.928782, 32.734531], [-97.923485, 32.739872], [-97.923457, 32.755905], [-97.923728, 32.756675], [-97.923644, 32.759691], [-97.922897, 32.760523], [-97.922916, 32.764309], [-97.918526, 32.769595], [-97.918488, 32.773993], [-97.918871, 32.774464], [-97.918903, 32.791187], [-97.92022, 32.79114], [-97.921168, 32.793139], [-97.921253, 32.793698], [-97.920956, 32.801671], [-97.921296, 32.802861], [-97.9193, 32.803682], [-97.919441, 32.810167], [-97.918351, 32.812214], [-97.918578, 32.82072], [-97.918054, 32.821827], [-97.91828, 32.826681], [-97.918493, 32.827382], [-97.918634, 32.831272], [-97.918365, 32.831391], [-97.91862, 32.839004], [-97.918521, 32.840051], [-97.917714, 32.847889], [-97.917006, 32.849066], [-97.916468, 32.851207], [-97.917941, 32.854644], [-97.917955, 32.856273], [-97.918507, 32.856832], [-97.91845, 32.864348], [-97.918125, 32.868034], [-97.918054, 32.871934], [-97.914968, 32.875964], [-97.915208, 32.878925], [-97.915732, 32.879971], [-97.911103, 32.886724], [-97.911159, 32.888959], [-97.91089, 32.889399], [-97.90745, 32.891431], [-97.908257, 32.895176], [-97.910338, 32.899847], [-97.910423, 32.906396], [-97.910692, 32.908571], [-97.910777, 32.913516], [-97.910282, 32.914276], [-97.910367, 32.915322], [-97.909829, 32.91594], [-97.9098, 32.917259], [-97.910253, 32.917734], [-97.910239, 32.924757], [-97.911159, 32.925886], [-97.910636, 32.927609], [-97.910211, 32.928085], [-97.910168, 32.9314], [-97.909772, 32.932006], [-97.909814, 32.933467], [-97.907927, 32.934912], [-97.913332, 32.939431], [-97.915456, 32.944599], [-97.917087, 32.953908], [-97.919705, 32.970724], [-97.919104, 32.985034], [-97.921829, 32.986582], [-97.926378, 32.986654], [-97.926185, 33.005425], [-97.939768, 33.087299], [-97.949381, 33.093986], [-97.951098, 33.111818], [-97.950411, 33.170534], [-97.959766, 33.207167], [-97.971439, 33.216646], [-97.96423, 33.233949], [-97.962341, 33.259073], [-97.968264, 33.274646], [-97.964144, 33.322281], [-97.957363, 33.327588], [-97.961054, 33.344439], [-97.958565, 33.347021], [-97.954874, 33.403286], [-97.948437, 33.411884], [-97.945733, 33.43624], [-97.94363, 33.461091], [-97.94539, 33.479026], [-97.943029, 33.484896], [-97.9423, 33.492663], [-97.945089, 33.494954], [-97.945948, 33.500859], [-97.937021, 33.509375], [-97.934833, 33.518893], [-97.93582, 33.521898], [-97.936421, 33.550766], [-97.939425, 33.557776], [-97.939339, 33.657496], [-97.928438, 33.715987], [-97.923889, 33.723911], [-97.917023, 33.726624], [-97.916594, 33.736261], [-97.908869, 33.741685], [-97.908869, 33.75082], [-97.91462, 33.75396], [-97.913032, 33.855181], [-97.910929, 33.860955], [-97.906079, 33.867262], [-97.887583, 33.898205], [-97.882948, 33.900199], [-97.883291, 33.917438], [-97.885008, 33.918435], [-97.884836, 33.965146], [-97.880287, 33.995181], [-97.87385, 34.009554], [-97.874451, 34.081029], [-97.86664, 34.085934], [-97.866726, 34.098799], [-97.864323, 34.106333], [-97.866554, 34.116992], [-97.866297, 34.128716], [-97.855053, 34.151946], [-97.855396, 34.158906], [-97.858658, 34.170553], [-97.85883, 34.182838], [-97.854967, 34.209176], [-97.856512, 34.225287], [-97.854366, 34.227203], [-97.854195, 34.241892], [-97.851877, 34.244162], [-97.853165, 34.260054], [-97.851448, 34.298423], [-97.849732, 34.303386], [-97.851362, 34.312248], [-97.851448, 34.339326], [-97.846298, 34.346979], [-97.845011, 34.370503], [-97.842007, 34.375887], [-97.837544, 34.399403], [-97.834025, 34.406272], [-97.834969, 34.421213], [-97.838445, 34.42316], [-97.838745, 34.431974], [-97.84441, 34.434204], [-97.844625, 34.445671], [-97.838659, 34.451051], [-97.838659, 34.454625], [-97.83072, 34.473484], [-97.815399, 34.480878], [-97.797461, 34.50012], [-97.797804, 34.522257], [-97.793856, 34.527561], [-97.796474, 34.535692], [-97.795529, 34.538344], [-97.795529, 34.550256], [-97.808147, 34.55881], [-97.807846, 34.575101], [-97.802267, 34.586655], [-97.80407, 34.602588], [-97.807846, 34.609899], [-97.808361, 34.612637], [-97.806752, 34.613502], [-97.806902, 34.615286], [-97.808554, 34.61608], [-97.812223, 34.616063], [-97.812567, 34.633314], [-97.810593, 34.637904], [-97.810893, 34.654109], [-97.809691, 34.660287], [-97.808232, 34.660711], [-97.804027, 34.671229], [-97.802396, 34.672288], [-97.801967, 34.68344], [-97.804413, 34.68464], [-97.805657, 34.69565], [-97.80334, 34.70073], [-97.80334, 34.704047], [-97.797976, 34.707116], [-97.79274, 34.715971], [-97.792182, 34.724543], [-97.791581, 34.73858], [-97.790294, 34.738615], [-97.789393, 34.742283], [-97.787805, 34.745915], [-97.788191, 34.753002], [-97.789307, 34.753919], [-97.789521, 34.763086], [-97.787461, 34.768268], [-97.788363, 34.773627], [-97.78347, 34.781241], [-97.776947, 34.801118], [-97.773171, 34.80436], [-97.771711, 34.816481], [-97.776647, 34.822118], [-97.776003, 34.836068], [-97.780895, 34.84741], [-97.780466, 34.856919], [-97.788792, 34.870511], [-97.794628, 34.870616], [-97.794671, 34.876672], [-97.79716, 34.881601], [-97.797074, 34.885297], [-97.804799, 34.895787], [-97.805657, 34.913702], [-97.811065, 34.92264], [-97.817202, 34.92278], [-97.822094, 34.926616], [-97.822351, 34.928023], [-97.821364, 34.929043], [-97.821965, 34.932034], [-97.829561, 34.937874], [-97.829561, 34.941322], [-97.831707, 34.944347], [-97.831879, 34.966718], [-97.83617, 34.97354], [-97.837114, 34.983456], [-97.844067, 34.99766], [-97.845697, 35.006378], [-97.84544, 35.020648], [-97.850761, 35.025709], [-97.860117, 35.041452], [-97.86046, 35.055716], [-97.865267, 35.05691], [-97.869129, 35.059791], [-97.868528, 35.074403], [-97.870674, 35.076159], [-97.875738, 35.088451], [-97.88003, 35.091471], [-97.879772, 35.096106], [-97.88415, 35.101723], [-97.88475, 35.105866], [-97.891188, 35.112396], [-97.891531, 35.123138], [-97.899942, 35.125174], [-97.904406, 35.136195], [-97.908783, 35.138651], [-97.910843, 35.145249], [-97.916594, 35.152758], [-97.936592, 35.164336], [-97.94466, 35.179982], [-97.953415, 35.180052], [-97.96114, 35.184472], [-97.960625, 35.189733], [-97.976975, 35.206987], [-97.989721, 35.210598], [-97.999334, 35.215893], [-97.999163, 35.233001], [-98.006973, 35.233281], [-98.009205, 35.235525], [-98.011351, 35.242044], [-98.01487, 35.244638], [-98.014956, 35.249685], [-98.024397, 35.255117], [-98.033195, 35.265209], [-98.033066, 35.268608], [-98.042679, 35.276841], [-98.043366, 35.279819], [-98.048644, 35.283708], [-98.05285, 35.289698], [-98.054051, 35.296178], [-98.057613, 35.303743], [-98.067527, 35.317331], [-98.067913, 35.32514], [-98.070316, 35.328151], [-98.070531, 35.337814], [-98.078985, 35.341035], [-98.091302, 35.348351], [-98.091688, 35.352691], [-98.094091, 35.353566], [-98.094521, 35.360969], [-98.096194, 35.361249], [-98.096344, 35.370803], [-98.097546, 35.371415], [-98.097761, 35.378308], [-98.100808, 35.38053], [-98.099155, 35.405352], [-98.10173, 35.409794], [-98.102288, 35.423189], [-98.098254, 35.427281], [-98.096838, 35.435149], [-98.096795, 35.465633], [-98.1004, 35.478635], [-98.100271, 35.493591], [-98.101773, 35.498622], [-98.101602, 35.504107], [-98.097568, 35.508055], [-98.098426, 35.521783], [-98.097568, 35.524019], [-98.09216, 35.52793], [-98.091989, 35.561173], [-98.089929, 35.575869], [-98.086453, 35.586305], [-98.084875, 35.588103], [-98.083642, 35.58812], [-98.084296, 35.591287], [-98.085337, 35.591898], [-98.083781, 35.593861], [-98.083899, 35.595955], [-98.088105, 35.603841], [-98.088598, 35.609912], [-98.092675, 35.615895], [-98.092675, 35.616916], [-98.096098, 35.620963], [-98.092396, 35.626832], [-98.091946, 35.634192], [-98.091066, 35.634977], [-98.092032, 35.635761], [-98.092074, 35.639023], [-98.092697, 35.63904], [-98.098447, 35.652885], [-98.100979, 35.656564], [-98.103061, 35.659092], [-98.101687, 35.665342], [-98.099048, 35.665386], [-98.100314, 35.679174], [-98.098726, 35.681893], [-98.09864, 35.683653], [-98.100293, 35.686006], [-98.100293, 35.687034], [-98.101022, 35.687174], [-98.104541, 35.694284], [-98.104799, 35.696898], [-98.106194, 35.697125], [-98.106108, 35.701499], [-98.107889, 35.711935], [-98.110228, 35.713504], [-98.109992, 35.725873], [-98.113661, 35.728886], [-98.117716, 35.737682], [-98.119218, 35.738013], [-98.120334, 35.739337], [-98.120291, 35.7412], [-98.118897, 35.74383], [-98.118918, 35.759555], [-98.117094, 35.75952], [-98.117008, 35.761279], [-98.118103, 35.76255], [-98.11806, 35.770716], [-98.120077, 35.770681], [-98.122952, 35.774076], [-98.127952, 35.775869], [-98.127952, 35.790056], [-98.129711, 35.792423], [-98.135977, 35.79479], [-98.150911, 35.796235], [-98.154173, 35.796304], [-98.156426, 35.797122], [-98.156447, 35.79808], [-98.162799, 35.798132], [-98.163507, 35.80826], [-98.170073, 35.81141], [-98.170073, 35.812663], [-98.172133, 35.812541], [-98.172755, 35.83742], [-98.175588, 35.838064], [-98.175716, 35.840256], [-98.176661, 35.840795], [-98.176918, 35.844935], [-98.172476, 35.848257], [-98.175159, 36.021544], [-98.164194, 36.021631], [-98.147843, 36.028711], [-98.148079, 36.050504], [-98.145483, 36.054997], [-98.145268, 36.060982], [-98.135955, 36.071025], [-98.139753, 36.10886], [-98.148809, 36.11517], [-98.148916, 36.188494], [-98.157713, 36.188486], [-98.157734, 36.202659], [-98.176205, 36.202785], [-98.176258, 36.2032], [-98.177143, 36.203456], [-98.177154, 36.204399], [-98.177154, 36.206386], [-98.175561, 36.206378], [-98.175534, 36.208442], [-98.171135, 36.21097], [-98.166554, 36.217557], [-98.160052, 36.224871], [-98.148851, 36.224888], [-98.148551, 36.238164], [-98.146834, 36.241124], [-98.139753, 36.246159], [-98.135269, 36.250918], [-98.134904, 36.252977], [-98.126686, 36.264328], [-98.127565, 36.266421], [-98.123167, 36.273722], [-98.121622, 36.273774], [-98.121707, 36.275625], [-98.118253, 36.281869], [-98.107846, 36.287214], [-98.087761, 36.299545], [-98.087719, 36.301448], [-98.087397, 36.325637], [-98.078642, 36.325637], [-98.075445, 36.333934], [-98.069351, 36.334021], [-98.069029, 36.340364], [-98.046992, 36.340572], [-98.033549, 36.368818], [-98.032444, 36.369354], [-98.032647, 36.389497], [-98.024268, 36.389601], [-98.025169, 36.407226], [-98.025126, 36.410197], [-98.016672, 36.420385], [-98.014269, 36.426013], [-98.003111, 36.445072], [-97.990494, 36.461365], [-97.98867, 36.4624], [-97.98867, 36.467025], [-97.979765, 36.471063], [-97.979529, 36.481743], [-97.974958, 36.490007], [-97.97056, 36.492388], [-97.968049, 36.492319], [-97.965796, 36.494009], [-97.961226, 36.499684], [-97.950583, 36.507618], [-97.949724, 36.513517], [-97.950025, 36.515948], [-97.949102, 36.52038], [-97.942858, 36.535692], [-97.94142, 36.535847], [-97.940326, 36.536847], [-97.939854, 36.538192], [-97.939618, 36.544432], [-97.929983, 36.549604], [-97.916679, 36.578954], [-97.916701, 36.58564], [-97.913809, 36.593457], [-97.912817, 36.597588], [-97.911088, 36.598312], [-97.910929, 36.608759], [-97.90653, 36.615218], [-97.898805, 36.63454], [-97.89814, 36.635676], [-97.896928, 36.635788], [-97.896026, 36.636752], [-97.896026, 36.638026], [-97.896391, 36.638681], [-97.894707, 36.641582], [-97.893435, 36.643295], [-97.893108, 36.643316], [-97.892985, 36.643962], [-97.889396, 36.65149], [-97.887899, 36.656409], [-97.887079, 36.656792], [-97.887068, 36.658358], [-97.884702, 36.659098], [-97.884622, 36.664753], [-97.884514, 36.665347], [-97.884581, 36.666186], [-97.88305, 36.671166], [-97.87636, 36.673582], [-97.876352, 36.68129], [-97.875929, 36.681285], [-97.875918, 36.681479], [-97.866527, 36.68756], [-97.858143, 36.69421], [-97.857655, 36.69421], [-97.85656, 36.694963], [-97.856544, 36.695376], [-97.850204, 36.700012], [-97.844228, 36.702395], [-97.8386, 36.709865], [-97.830894, 36.716138], [-97.829859, 36.716877], [-97.822389, 36.72351], [-97.821504, 36.723561], [-97.821494, 36.724443], [-97.812636, 36.730836], [-97.80835, 36.735183], [-97.804118, 36.739267], [-97.801859, 36.74087], [-97.79539, 36.745134], [-97.795572, 36.745698], [-97.785906, 36.751659], [-97.785906, 36.753181], [-97.78339, 36.753254], [-97.774812, 36.758343], [-97.773471, 36.759297], [-97.771363, 36.760431], [-97.769743, 36.761476], [-97.768519, 36.763904], [-97.767457, 36.763942], [-97.763785, 36.767391], [-97.759845, 36.771128], [-97.761905, 36.774726]]}}
]
}
