{
"type": "FeatureCollection",
"features": [
{"type": "Feature", "properties": {"ProjectID": "P2697"}, "geometry": {"type": "LineString", "coordinates": [[-119.235175, 55.283215], [-119.226146, 55.076993], [-119.135856, 55.014919], [-119.122312, 54.926815], [-119.045566, 54.880094], [-118.860471, 54.684837], [-118.693435, 54.611699], [-118.341304, 54.491258], [-118.223927, 54.446658], [-118.034318, 54.449283], [-117.853739, 54.444033], [-117.682188, 54.428278], [-117.479035, 54.415145], [-117.178821, 54.396752], [-117.00727, 54.394124], [-116.840234, 54.362571], [-116.736401, 54.30993], [-116.587422, 54.265132], [-115.724025, 54.098689], [-115.281604, 54.021848], [-114.803068, 53.944864], [-114.089777, 53.835782], [-113.588668, 53.745107], [-113.204936, 53.699697]]}}
]
}
