{
"type": "FeatureCollection",
"features": [
{"type": "Feature", "properties": {"ProjectID": "P2694"}, "geometry": {"type": "LineString", "coordinates": [[-101.823897, 32.049801], [-100.296578, 32.431299], [-99.867646, 32.339457], [-99.385834, 32.268858], [-97.752747, 31.95706], [-97.559851, 32.013621], [-97.136525, 31.909461], [-96.562838, 31.922313], [-96.40109, 31.865071], [-96.145277, 31.573137], [-95.893656, 31.551753], [-95.81673, 31.446524], [-95.745788, 31.345266], [-95.754631, 31.16129], [-95.73702, 30.94646], [-95.661946, 30.869836], [-95.35554, 30.690653], [-95.309332, 30.440585], [-95.24921, 29.890818], [-95.17826, 29.8381], [-95.097316, 29.831995], [-94.986685, 29.74301]]}}
]
}
