{
"type": "FeatureCollection",
"features": [
{"type": "Feature", "properties": {"ProjectID": "P3117", "ogc_fid": 90, "gml_id": "Ductos2013.90", "createddat": "1993/01/01", "beginstati": 0, "endstation": 0, "stationser": "ONSZ-2", "linedescri": "Oleoducto Carrasco - Caranda", "shape_leng": 0, "product": "Crude Oil", "ruleid": 1, "rulei_desc": "Crude Oil"}, "geometry": {"type": "MultiLineString", "coordinates": [[[-64.539733, -17.244015], [-64.539574, -17.243594], [-64.539374, -17.24319], [-64.539109, -17.242818], [-64.538865, -17.242433], [-64.538674, -17.242033], [-64.538495, -17.241624], [-64.538346, -17.2412], [-64.5382, -17.240773], [-64.538045, -17.240349], [-64.537884, -17.239926], [-64.537727, -17.239501], [-64.537559, -17.239081], [-64.537377, -17.238665], [-64.537202, -17.238247], [-64.537041, -17.237823], [-64.536882, -17.237399], [-64.536672, -17.236997], [-64.536342, -17.236682], [-64.535938, -17.236458], [-64.535578, -17.236176], [-64.535335, -17.235792], [-64.53515, -17.235381], [-64.535007, -17.234956], [-64.5348, -17.234552], [-64.534471, -17.234243], [-64.534226, -17.233864], [-64.534012, -17.233465], [-64.533746, -17.233099], [-64.533468, -17.23274], [-64.533249, -17.232342], [-64.533073, -17.231925], [-64.532931, -17.231496], [-64.532779, -17.231069], [-64.532618, -17.230645], [-64.532469, -17.230217], [-64.532297, -17.229797], [-64.532116, -17.22938], [-64.531999, -17.228943], [-64.531924, -17.228497], [-64.531872, -17.228049], [-64.531808, -17.227601], [-64.531725, -17.227157], [-64.531639, -17.226714], [-64.531548, -17.226271], [-64.531458, -17.225828], [-64.531371, -17.225384], [-64.531297, -17.224938], [-64.531239, -17.224491], [-64.531167, -17.224045], [-64.531067, -17.223604], [-64.53097, -17.223164], [-64.530876, -17.222721], [-64.530834, -17.222272], [-64.530846, -17.221821], [-64.530847, -17.22137], [-64.530827, -17.220919], [-64.530862, -17.22047], [-64.53098, -17.220034], [-64.531103, -17.219598], [-64.531071, -17.219154], [-64.530885, -17.21874], [-64.530708, -17.218321], [-64.530527, -17.217905], [-64.530342, -17.21749], [-64.530151, -17.217078], [-64.529965, -17.216664], [-64.529788, -17.216246], [-64.529609, -17.215829], [-64.529424, -17.215414], [-64.529232, -17.215002], [-64.529026, -17.214596], [-64.528828, -17.214187], [-64.528641, -17.213773], [-64.528455, -17.213359], [-64.528266, -17.212946], [-64.52808, -17.212532], [-64.527897, -17.212117], [-64.527708, -17.211705], [-64.527515, -17.211294], [-64.527328, -17.210881], [-64.527139, -17.210468], [-64.526928, -17.210067], [-64.526713, -17.209668], [-64.526565, -17.209241], [-64.526411, -17.208814], [-64.526241, -17.208393], [-64.52608, -17.207969], [-64.525896, -17.207554], [-64.525671, -17.207158], [-64.525411, -17.206782], [-64.525113, -17.206441], [-64.524825, -17.206085], [-64.524587, -17.205696], [-64.524358, -17.205301], [-64.52415, -17.204897], [-64.524004, -17.204468], [-64.523816, -17.204058], [-64.523644, -17.203934], [-64.523445, -17.203791], [-64.522988, -17.203875], [-64.522554, -17.204047], [-64.522121, -17.204223], [-64.52169, -17.204402], [-64.521256, -17.204574], [-64.520822, -17.204748], [-64.520391, -17.204928], [-64.519959, -17.205105], [-64.519532, -17.205294], [-64.519153, -17.205557], [-64.518752, -17.205791], [-64.518338, -17.206004], [-64.517918, -17.206205], [-64.517488, -17.206388], [-64.517063, -17.206578], [-64.516649, -17.206792], [-64.516242, -17.207018], [-64.515823, -17.207221], [-64.515385, -17.207385], [-64.514965, -17.207583], [-64.514565, -17.207821], [-64.514165, -17.208058], [-64.513758, -17.208282], [-64.513319, -17.208438], [-64.51286, -17.208535], [-64.512401, -17.208622], [-64.511943, -17.208722], [-64.511493, -17.208849], [-64.511046, -17.208985], [-64.510591, -17.20909], [-64.510129, -17.209169], [-64.50966, -17.209205], [-64.509192, -17.209228], [-64.508723, -17.209248], [-64.508269, -17.209364], [-64.507828, -17.209512], [-64.507392, -17.209679], [-64.506957, -17.209847], [-64.506513, -17.209994], [-64.506053, -17.210077], [-64.505585, -17.210103], [-64.505115, -17.210103], [-64.504646, -17.210085], [-64.504178, -17.210066], [-64.503716, -17.209986], [-64.50326, -17.209878], [-64.5028, -17.209789], [-64.502341, -17.209697], [-64.501885, -17.20959], [-64.501417, -17.209564], [-64.500948, -17.209571], [-64.50048, -17.209542], [-64.500014, -17.209487], [-64.499548, -17.209435], [-64.499082, -17.209376], [-64.498615, -17.209326], [-64.498162, -17.209211], [-64.497701, -17.209139], [-64.497231, -17.209143], [-64.496762, -17.209159], [-64.496292, -17.209177], [-64.495823, -17.2092], [-64.495353, -17.209219], [-64.494897, -17.209314], [-64.494469, -17.209495], [-64.494049, -17.209689], [-64.493583, -17.209736], [-64.493114, -17.209741], [-64.492648, -17.209734], [-64.492182, -17.209755], [-64.491713, -17.209771], [-64.491244, -17.209781], [-64.490775, -17.209796], [-64.490306, -17.209805], [-64.489837, -17.209827], [-64.489367, -17.209838], [-64.488898, -17.20984], [-64.488432, -17.209898], [-64.487971, -17.209982], [-64.487531, -17.21014], [-64.487112, -17.210344], [-64.486701, -17.210562], [-64.486296, -17.210791], [-64.485905, -17.211038], [-64.485479, -17.211228], [-64.485049, -17.21141], [-64.484632, -17.211615], [-64.484252, -17.211879], [-64.483936, -17.212212], [-64.483628, -17.212554], [-64.483273, -17.212848], [-64.482899, -17.213121], [-64.482511, -17.213375], [-64.482091, -17.213577], [-64.481669, -17.213775], [-64.481254, -17.213987], [-64.480844, -17.214208], [-64.48044, -17.214438], [-64.480045, -17.214681], [-64.479656, -17.214934], [-64.479266, -17.215184], [-64.478873, -17.21543], [-64.47846, -17.215644], [-64.478042, -17.215848], [-64.477625, -17.216055], [-64.47721, -17.216267], [-64.476784, -17.216456], [-64.476348, -17.21662], [-64.475916, -17.216798], [-64.47549, -17.216986], [-64.475033, -17.217089], [-64.474615, -17.217283], [-64.474209, -17.217507], [-64.473761, -17.217641], [-64.473323, -17.217801], [-64.472901, -17.218001], [-64.472501, -17.218237], [-64.47208, -17.218437], [-64.471647, -17.21861], [-64.471205, -17.218761], [-64.470775, -17.218942], [-64.47035, -17.219133], [-64.46992, -17.219316], [-64.469488, -17.219492], [-64.46905, -17.219656], [-64.468608, -17.219808], [-64.468166, -17.21996], [-64.467729, -17.220122], [-64.467292, -17.220286], [-64.46686, -17.220464], [-64.466424, -17.220631], [-64.465986, -17.22079], [-64.465548, -17.220947], [-64.465112, -17.221116], [-64.464678, -17.221288], [-64.464247, -17.221467], [-64.46381, -17.221632], [-64.463353, -17.221735], [-64.4629, -17.221856], [-64.462469, -17.222036], [-64.46207, -17.222265], [-64.461682, -17.222517], [-64.461256, -17.222707], [-64.46082, -17.222874], [-64.46038, -17.223033], [-64.459947, -17.223209], [-64.459521, -17.223399], [-64.459087, -17.223569], [-64.458646, -17.223726], [-64.458207, -17.223886], [-64.457768, -17.224048], [-64.457325, -17.224195], [-64.456881, -17.224337], [-64.45643, -17.22446], [-64.455968, -17.224538], [-64.455501, -17.224582], [-64.455032, -17.224564], [-64.454565, -17.224523], [-64.454098, -17.224482], [-64.453633, -17.224444], [-64.453179, -17.224335], [-64.452754, -17.224146], [-64.452287, -17.224115], [-64.451819, -17.224085], [-64.451351, -17.224061], [-64.450887, -17.223995], [-64.450418, -17.223989], [-64.449949, -17.22399], [-64.449481, -17.223967], [-64.449012, -17.223942], [-64.448543, -17.223928], [-64.448073, -17.223919], [-64.447603, -17.223907], [-64.447134, -17.223894], [-64.446672, -17.223835], [-64.446237, -17.223666], [-64.44577, -17.223635], [-64.445307, -17.223701], [-64.44484, -17.22374], [-64.444371, -17.223753], [-64.443905, -17.223703], [-64.443443, -17.223624], [-64.442976, -17.223573], [-64.442506, -17.22356], [-64.442037, -17.223536], [-64.441569, -17.22351], [-64.441101, -17.223495], [-64.440632, -17.223485], [-64.440162, -17.223493], [-64.439696, -17.223516], [-64.439229, -17.223541], [-64.438762, -17.2235], [-64.438297, -17.223442], [-64.437829, -17.223399], [-64.437362, -17.223354], [-64.436896, -17.223299], [-64.436429, -17.223251], [-64.435959, -17.22323], [-64.435491, -17.223201], [-64.435023, -17.223172], [-64.434554, -17.223153], [-64.434085, -17.22317], [-64.433618, -17.223211], [-64.433151, -17.223193], [-64.432692, -17.2231], [-64.432244, -17.222963], [-64.431792, -17.222845], [-64.431324, -17.22281], [-64.43086, -17.222756], [-64.430391, -17.222761], [-64.429922, -17.222771], [-64.429453, -17.222754], [-64.428983, -17.222734], [-64.428514, -17.222714], [-64.428044, -17.222701], [-64.427575, -17.222682], [-64.427107, -17.222653], [-64.426639, -17.222617], [-64.42617, -17.222603], [-64.425702, -17.222575], [-64.425233, -17.222571], [-64.424764, -17.222596], [-64.424295, -17.222607], [-64.423826, -17.222585], [-64.42336, -17.222529], [-64.422892, -17.222488], [-64.422425, -17.22244], [-64.421958, -17.222391], [-64.421492, -17.222335], [-64.421025, -17.222304], [-64.420562, -17.222379], [-64.420123, -17.22254], [-64.419705, -17.222745], [-64.419251, -17.222823], [-64.418807, -17.222677], [-64.418343, -17.222609], [-64.417895, -17.222478], [-64.417455, -17.222322], [-64.416987, -17.222293], [-64.416518, -17.222266], [-64.41605, -17.22223], [-64.415581, -17.222197], [-64.41512, -17.222267], [-64.41468, -17.222424], [-64.414247, -17.222599], [-64.413824, -17.222797], [-64.413403, -17.222995], [-64.412974, -17.223181], [-64.412569, -17.223408], [-64.412175, -17.223654], [-64.411789, -17.22391], [-64.411405, -17.224169], [-64.411009, -17.224412], [-64.4106, -17.224635], [-64.410178, -17.224834], [-64.409751, -17.225021], [-64.409333, -17.225228], [-64.408917, -17.225437], [-64.408504, -17.225652], [-64.408107, -17.225893], [-64.407708, -17.226132], [-64.407303, -17.22636], [-64.406909, -17.226606], [-64.40651, -17.226844], [-64.406102, -17.227068], [-64.405704, -17.227308], [-64.405302, -17.227543], [-64.404905, -17.227782], [-64.404515, -17.228035], [-64.404104, -17.228253], [-64.403711, -17.2285], [-64.403309, -17.228733], [-64.402905, -17.228964], [-64.402493, -17.229179], [-64.40207, -17.229376], [-64.401658, -17.22959], [-64.401261, -17.229832], [-64.400861, -17.230069], [-64.400458, -17.2303], [-64.400056, -17.230532], [-64.399656, -17.230767], [-64.399286, -17.231045], [-64.398903, -17.231306], [-64.398506, -17.231547], [-64.398097, -17.231768], [-64.397679, -17.231971], [-64.397257, -17.23217], [-64.396832, -17.232361], [-64.396417, -17.232574], [-64.396022, -17.232816], [-64.395671, -17.233116], [-64.395326, -17.233422], [-64.39494, -17.233676], [-64.394521, -17.23388], [-64.394096, -17.234071], [-64.393711, -17.234329], [-64.393341, -17.234607], [-64.392954, -17.234863], [-64.392566, -17.235117], [-64.392178, -17.235372], [-64.391794, -17.235631], [-64.391417, -17.235901], [-64.391036, -17.236165], [-64.390638, -17.236404], [-64.39024, -17.236645], [-64.389866, -17.236917], [-64.389483, -17.237178], [-64.389094, -17.237433], [-64.388718, -17.237702], [-64.38835, -17.237983], [-64.387999, -17.238282], [-64.387646, -17.238579], [-64.387245, -17.238812], [-64.386807, -17.238975], [-64.386377, -17.239156], [-64.385941, -17.239324], [-64.385535, -17.239551], [-64.385139, -17.239794], [-64.384741, -17.240034], [-64.384343, -17.240275], [-64.383961, -17.240536], [-64.383654, -17.240878], [-64.383314, -17.241187], [-64.382941, -17.241461], [-64.382557, -17.241719], [-64.382123, -17.241892], [-64.381687, -17.242056], [-64.381299, -17.242303], [-64.380992, -17.242645], [-64.38063, -17.242929], [-64.380225, -17.243158], [-64.379802, -17.243353], [-64.37939, -17.243569], [-64.378983, -17.243793], [-64.378579, -17.244022], [-64.378136, -17.24417], [-64.377677, -17.244263], [-64.377239, -17.244414], [-64.376836, -17.244648], [-64.376439, -17.244889], [-64.376089, -17.245184], [-64.375808, -17.245541], [-64.375509, -17.245884], [-64.375113, -17.246123], [-64.374702, -17.246338], [-64.37429, -17.246549], [-64.37387, -17.24675], [-64.373461, -17.24697], [-64.373045, -17.247177], [-64.372635, -17.247396], [-64.372226, -17.247616], [-64.371826, -17.247849], [-64.371425, -17.248084], [-64.371039, -17.24834], [-64.370653, -17.248596], [-64.370261, -17.248844], [-64.369869, -17.249092], [-64.369474, -17.249336], [-64.369081, -17.249581], [-64.368683, -17.249819], [-64.368282, -17.250052], [-64.36788, -17.250286], [-64.36749, -17.250535], [-64.367096, -17.250781], [-64.366702, -17.251026], [-64.366305, -17.251267], [-64.365912, -17.251512], [-64.365521, -17.251761], [-64.365129, -17.252008], [-64.364743, -17.252265], [-64.364351, -17.252513], [-64.363966, -17.252771], [-64.363579, -17.253026], [-64.363192, -17.253279], [-64.362785, -17.253505], [-64.362377, -17.253727], [-64.361972, -17.253955], [-64.36158, -17.254203], [-64.361184, -17.254446], [-64.36079, -17.254692], [-64.360393, -17.254933], [-64.360013, -17.255197], [-64.359608, -17.255426], [-64.359206, -17.255659], [-64.358807, -17.255897], [-64.358408, -17.256134], [-64.358008, -17.256369], [-64.357606, -17.256601], [-64.357198, -17.256824], [-64.356802, -17.257067], [-64.356416, -17.257324], [-64.356018, -17.257565], [-64.355614, -17.257794], [-64.35522, -17.258039], [-64.354807, -17.258253], [-64.354381, -17.258444], [-64.353978, -17.258674], [-64.353598, -17.258939], [-64.353214, -17.259199], [-64.352837, -17.259468], [-64.352457, -17.259733], [-64.352046, -17.259952], [-64.351616, -17.260132], [-64.351222, -17.260378], [-64.350841, -17.260636], [-64.350439, -17.260867], [-64.350039, -17.261104], [-64.349645, -17.261348], [-64.349245, -17.261584], [-64.348834, -17.261799], [-64.348426, -17.26202], [-64.348003, -17.262215], [-64.347579, -17.262407], [-64.34714, -17.262564], [-64.346683, -17.262666], [-64.346221, -17.262746], [-64.345756, -17.262806], [-64.345287, -17.26281], [-64.344818, -17.262812], [-64.344351, -17.262783], [-64.343889, -17.262705], [-64.343425, -17.262636], [-64.342965, -17.262547], [-64.342514, -17.262427], [-64.342073, -17.262277], [-64.341621, -17.262162], [-64.341159, -17.262083], [-64.340696, -17.262], [-64.340233, -17.261922], [-64.33977, -17.261843], [-64.339307, -17.261765], [-64.338844, -17.261686], [-64.33838, -17.261617], [-64.337923, -17.261652], [-64.337637, -17.261669], [-64.337551, -17.261682], [-64.337501, -17.261685], [-64.337401, -17.261675], [-64.337301, -17.261664], [-64.337239, -17.261641], [-64.337168, -17.261554], [-64.337144, -17.261478], [-64.337115, -17.261389], [-64.337079, -17.261278], [-64.33705, -17.261188], [-64.337021, -17.261097], [-64.337003, -17.261039], [-64.336952, -17.260957], [-64.336866, -17.260917], [-64.33681, -17.260904], [-64.336721, -17.260886], [-64.336348, -17.2608], [-64.336247, -17.260778], [-64.336147, -17.260727], [-64.33608, -17.26064], [-64.336066, -17.260609], [-64.336021, -17.26051], [-64.335975, -17.260409], [-64.335931, -17.260306], [-64.335887, -17.260206], [-64.335843, -17.260105], [-64.335798, -17.260003], [-64.335754, -17.259901], [-64.33571, -17.259799], [-64.335666, -17.259699], [-64.335622, -17.259602], [-64.335576, -17.2595], [-64.33553, -17.2594], [-64.335485, -17.259298], [-64.335439, -17.259195], [-64.335395, -17.259094], [-64.33535, -17.258992], [-64.335307, -17.25889], [-64.335261, -17.258788], [-64.335216, -17.258687], [-64.33517, -17.258585], [-64.335127, -17.258488], [-64.335082, -17.258386], [-64.335037, -17.258284], [-64.334992, -17.258182], [-64.334947, -17.258081], [-64.334902, -17.257979], [-64.334858, -17.257878], [-64.334814, -17.257776], [-64.334768, -17.257675], [-64.334722, -17.257573], [-64.334677, -17.257471], [-64.334631, -17.25737], [-64.334586, -17.257268], [-64.334541, -17.257167], [-64.334497, -17.257067], [-64.334452, -17.256965], [-64.334409, -17.256868], [-64.334365, -17.256769], [-64.334322, -17.25667], [-64.334276, -17.256568], [-64.334231, -17.256466], [-64.334187, -17.256366], [-64.334143, -17.256266], [-64.334099, -17.256164], [-64.334054, -17.256062], [-64.33401, -17.25596], [-64.333966, -17.255857], [-64.333924, -17.255754], [-64.33388, -17.255652], [-64.333833, -17.255551], [-64.333766, -17.255461], [-64.333696, -17.255373], [-64.333624, -17.255289], [-64.333535, -17.255221], [-64.333425, -17.255192], [-64.333312, -17.255172], [-64.333199, -17.255151], [-64.333087, -17.25513], [-64.332975, -17.25511], [-64.332862, -17.255088], [-64.332759, -17.255067], [-64.332647, -17.255044], [-64.332534, -17.255022], [-64.332422, -17.255001], [-64.332309, -17.254979], [-64.332198, -17.254958], [-64.332085, -17.254937], [-64.331975, -17.254916], [-64.331862, -17.254894], [-64.331749, -17.254872], [-64.331637, -17.25485], [-64.331523, -17.254829], [-64.331411, -17.254806], [-64.331298, -17.254783], [-64.331185, -17.25476], [-64.331073, -17.254737], [-64.33096, -17.254714], [-64.330849, -17.254695], [-64.330736, -17.254673], [-64.330623, -17.25465], [-64.330511, -17.254629], [-64.330401, -17.254607], [-64.330291, -17.254587], [-64.33018, -17.254566], [-64.33007, -17.254544], [-64.329958, -17.254522], [-64.329846, -17.2545], [-64.329734, -17.254477], [-64.329621, -17.254455], [-64.329508, -17.254433], [-64.329395, -17.254411], [-64.329282, -17.25439], [-64.329171, -17.254369], [-64.329058, -17.254346], [-64.328946, -17.254324], [-64.328834, -17.254302], [-64.328726, -17.25428], [-64.328613, -17.254257], [-64.3285, -17.254235], [-64.328389, -17.254213], [-64.328276, -17.254191], [-64.328164, -17.254169], [-64.328051, -17.254147], [-64.327938, -17.254125], [-64.327825, -17.254102], [-64.327713, -17.254079], [-64.327601, -17.254057], [-64.327489, -17.254035], [-64.327377, -17.254012], [-64.327265, -17.25399], [-64.327154, -17.253969], [-64.327045, -17.253947], [-64.326933, -17.253925], [-64.32682, -17.253903], [-64.326708, -17.253881], [-64.326599, -17.253859], [-64.326486, -17.253838], [-64.326373, -17.253817], [-64.32626, -17.253795], [-64.326148, -17.253773], [-64.326035, -17.25375], [-64.325922, -17.253727], [-64.325809, -17.253706], [-64.325697, -17.253684], [-64.325584, -17.253662], [-64.325474, -17.253641], [-64.325362, -17.253619], [-64.325251, -17.253597], [-64.325139, -17.253573], [-64.325026, -17.253551], [-64.324913, -17.253528], [-64.324803, -17.253506], [-64.32469, -17.253484], [-64.324578, -17.253463], [-64.324467, -17.25344], [-64.324356, -17.253418], [-64.324244, -17.253396], [-64.324133, -17.253375], [-64.32402, -17.253352], [-64.323911, -17.253331], [-64.323801, -17.25331], [-64.323688, -17.253289], [-64.323575, -17.253266], [-64.323467, -17.253244], [-64.323356, -17.253221], [-64.323244, -17.253199], [-64.323132, -17.253175], [-64.323105, -17.253169], [-64.322992, -17.253148], [-64.322883, -17.253127], [-64.322772, -17.253106], [-64.322682, -17.253086], [-64.322569, -17.253064], [-64.322456, -17.253041], [-64.322344, -17.253019], [-64.322235, -17.252999], [-64.322122, -17.252977], [-64.322012, -17.252956], [-64.321902, -17.252933], [-64.32179, -17.252913], [-64.321677, -17.252892], [-64.321565, -17.252871], [-64.321452, -17.252848], [-64.321339, -17.252826], [-64.32123, -17.252804], [-64.32112, -17.252782], [-64.321008, -17.25276], [-64.320895, -17.252738], [-64.320785, -17.252718], [-64.320672, -17.252696], [-64.32056, -17.252674], [-64.320447, -17.252652], [-64.320334, -17.25263], [-64.320221, -17.252608], [-64.320108, -17.252586], [-64.319995, -17.252564], [-64.319882, -17.252542], [-64.319771, -17.252521], [-64.319659, -17.252499], [-64.319545, -17.252477], [-64.319433, -17.252455], [-64.31932, -17.252432], [-64.319207, -17.252411], [-64.319095, -17.252387], [-64.318989, -17.252352], [-64.318881, -17.252314], [-64.318773, -17.252276], [-64.318665, -17.252239], [-64.318557, -17.252204], [-64.318453, -17.25217], [-64.318344, -17.252133], [-64.318236, -17.252096], [-64.318132, -17.25206], [-64.318026, -17.252023], [-64.317918, -17.251986], [-64.31781, -17.251949], [-64.317702, -17.251914], [-64.317594, -17.251877], [-64.317485, -17.251841], [-64.317376, -17.251804], [-64.317268, -17.251767], [-64.317159, -17.251731], [-64.317051, -17.251694], [-64.316943, -17.251659], [-64.316833, -17.251623], [-64.316726, -17.251587], [-64.316617, -17.251551], [-64.316511, -17.251515], [-64.316404, -17.251479], [-64.316298, -17.251444], [-64.316188, -17.251408], [-64.31608, -17.251371], [-64.315972, -17.251334], [-64.315864, -17.251297], [-64.315757, -17.251259], [-64.31565, -17.251223], [-64.315541, -17.251186], [-64.315433, -17.25115], [-64.315324, -17.251113], [-64.315219, -17.251077], [-64.315111, -17.25104], [-64.315003, -17.251002], [-64.314895, -17.250966], [-64.314787, -17.250929], [-64.31468, -17.250893], [-64.314572, -17.250855], [-64.314464, -17.250818], [-64.314355, -17.250781], [-64.314246, -17.250744], [-64.314138, -17.250708], [-64.314029, -17.250671], [-64.313925, -17.250635], [-64.31382, -17.250598], [-64.313712, -17.25056], [-64.313603, -17.250524], [-64.313498, -17.250488], [-64.313393, -17.250452], [-64.313287, -17.250416], [-64.313179, -17.25038], [-64.313073, -17.250344], [-64.312965, -17.250307], [-64.312856, -17.25027], [-64.31275, -17.250233], [-64.312642, -17.250196], [-64.312536, -17.25016], [-64.312429, -17.250125], [-64.312324, -17.250091], [-64.312215, -17.250054], [-64.312107, -17.250019], [-64.311998, -17.249982], [-64.311889, -17.249945], [-64.311782, -17.249909], [-64.311674, -17.249873], [-64.311566, -17.249837], [-64.311459, -17.249801], [-64.311352, -17.249764], [-64.311244, -17.249727], [-64.311135, -17.249691], [-64.311028, -17.249656], [-64.310919, -17.249619], [-64.310824, -17.249586], [-64.310716, -17.24955], [-64.310609, -17.249514], [-64.310504, -17.249479], [-64.310395, -17.249442], [-64.310287, -17.249404], [-64.31018, -17.249367], [-64.310074, -17.249331], [-64.309969, -17.249296], [-64.309862, -17.24926], [-64.309753, -17.249223], [-64.309644, -17.249186], [-64.309537, -17.24915], [-64.309432, -17.249115], [-64.309323, -17.249079], [-64.309215, -17.249041], [-64.309107, -17.249004], [-64.308999, -17.248967], [-64.30889, -17.24893], [-64.308782, -17.248894], [-64.308677, -17.248859], [-64.308568, -17.248823], [-64.308568, -17.248823]], [[-64.308568, -17.248823], [-64.30846, -17.248788], [-64.308355, -17.248752], [-64.308247, -17.248715], [-64.30814, -17.248679], [-64.308032, -17.248642], [-64.307924, -17.248606], [-64.307815, -17.248569], [-64.307707, -17.248532], [-64.307599, -17.248495], [-64.307491, -17.248459], [-64.307382, -17.248423], [-64.307274, -17.248386], [-64.307167, -17.248349], [-64.307059, -17.248311], [-64.306951, -17.248273], [-64.306843, -17.248237], [-64.306738, -17.248204], [-64.306629, -17.24817], [-64.306516, -17.248144], [-64.306408, -17.248138], [-64.306302, -17.248154], [-64.306192, -17.248185], [-64.306086, -17.248214], [-64.305978, -17.248243], [-64.305867, -17.248274], [-64.305756, -17.248303], [-64.305645, -17.248332], [-64.305537, -17.248361], [-64.30543, -17.248389], [-64.30532, -17.248419], [-64.30521, -17.248449], [-64.305105, -17.248477], [-64.304994, -17.248507], [-64.304884, -17.248537], [-64.304773, -17.248568], [-64.304663, -17.248599], [-64.304555, -17.248628], [-64.30447, -17.248647], [-64.304358, -17.248672], [-64.304247, -17.248702], [-64.304136, -17.248731], [-64.304026, -17.248761], [-64.303914, -17.24879], [-64.303804, -17.24882], [-64.303698, -17.248849], [-64.303587, -17.248879], [-64.303476, -17.248908], [-64.303365, -17.248937], [-64.303255, -17.248967], [-64.303146, -17.249003], [-64.303056, -17.249071], [-64.302997, -17.24916], [-64.302949, -17.249257], [-64.302899, -17.249357], [-64.302849, -17.249456], [-64.302799, -17.249556], [-64.302749, -17.249655], [-64.302699, -17.249755], [-64.302651, -17.24985], [-64.302603, -17.249945], [-64.302558, -17.250044], [-64.302511, -17.25016], [-64.302465, -17.250259], [-64.302444, -17.250304], [-64.302397, -17.250402], [-64.302349, -17.250503], [-64.302304, -17.250603], [-64.302296, -17.250621], [-64.302252, -17.250718], [-64.302208, -17.250816], [-64.302148, -17.250909], [-64.302058, -17.250972], [-64.301946, -17.250994], [-64.301876, -17.250992], [-64.301767, -17.250965], [-64.30173, -17.250948], [-64.301714, -17.25094], [-64.301697, -17.250933], [-64.30168, -17.250926], [-64.30112, -17.250776], [-64.30067, -17.250647], [-64.300218, -17.250527], [-64.299766, -17.250405], [-64.299318, -17.250271], [-64.298878, -17.250121], [-64.298431, -17.249981], [-64.297983, -17.249844], [-64.297524, -17.249746], [-64.29707, -17.249629], [-64.296627, -17.24948], [-64.296182, -17.249336], [-64.295733, -17.249205], [-64.295273, -17.249111], [-64.294818, -17.248999], [-64.29437, -17.248865], [-64.293936, -17.248693], [-64.293486, -17.248571], [-64.293037, -17.24844], [-64.292581, -17.248333], [-64.292138, -17.248185], [-64.291691, -17.248043], [-64.291249, -17.247892], [-64.290798, -17.247769], [-64.290348, -17.247639], [-64.289898, -17.247509], [-64.28946, -17.24735], [-64.28902, -17.247192], [-64.288575, -17.247051], [-64.28813, -17.246907], [-64.287693, -17.246742], [-64.287253, -17.246582], [-64.286805, -17.246445], [-64.286357, -17.246308], [-64.285911, -17.246166], [-64.285465, -17.246023], [-64.285014, -17.245898], [-64.284555, -17.2458], [-64.284096, -17.245703], [-64.283648, -17.245574], [-64.283205, -17.245426], [-64.282766, -17.245268], [-64.282319, -17.245128], [-64.281862, -17.245022], [-64.281417, -17.244883], [-64.28097, -17.244744], [-64.280521, -17.244612], [-64.280069, -17.244498], [-64.279607, -17.244418], [-64.279145, -17.244341], [-64.278687, -17.244243], [-64.278227, -17.244149], [-64.277774, -17.244031], [-64.277325, -17.243904], [-64.276867, -17.243817], [-64.276402, -17.243765], [-64.275932, -17.243761], [-64.275462, -17.243762], [-64.274995, -17.243798], [-64.274535, -17.243887], [-64.274085, -17.244017], [-64.27364, -17.244162], [-64.27319, -17.244291], [-64.272741, -17.244419], [-64.272281, -17.244514], [-64.271815, -17.244573], [-64.271351, -17.244646], [-64.270893, -17.244745], [-64.270436, -17.244848], [-64.26998, -17.244959], [-64.269523, -17.245063], [-64.26907, -17.245183], [-64.268621, -17.245318], [-64.268175, -17.245445], [-64.267725, -17.245576], [-64.267272, -17.245696], [-64.266816, -17.245806], [-64.266361, -17.24592], [-64.265905, -17.246032], [-64.265451, -17.246148], [-64.264992, -17.246245], [-64.264531, -17.246327], [-64.26408, -17.246457], [-64.263634, -17.246596], [-64.263186, -17.246735], [-64.262734, -17.246857], [-64.262278, -17.246965], [-64.261822, -17.247069], [-64.261364, -17.247172], [-64.260912, -17.247281], [-64.260464, -17.247412], [-64.260019, -17.247559], [-64.259575, -17.247705], [-64.259126, -17.247839], [-64.258672, -17.247956], [-64.258217, -17.24807], [-64.257763, -17.24819], [-64.257313, -17.248321], [-64.256859, -17.248436], [-64.256402, -17.24854], [-64.255945, -17.248648], [-64.255494, -17.248771], [-64.255043, -17.248898], [-64.254592, -17.249024], [-64.254139, -17.249146], [-64.253685, -17.249263], [-64.25323, -17.249374], [-64.253002, -17.24943], [-64.252788, -17.249484], [-64.252568, -17.249542], [-64.252349, -17.2496], [-64.251898, -17.249726], [-64.251445, -17.249847], [-64.250991, -17.249962], [-64.250537, -17.250078], [-64.250084, -17.250199], [-64.249629, -17.25031], [-64.249175, -17.250426], [-64.248722, -17.250547], [-64.24827, -17.25067], [-64.247816, -17.250789], [-64.247362, -17.250904], [-64.246908, -17.251021], [-64.246454, -17.251136], [-64.245999, -17.251251], [-64.245544, -17.251365], [-64.24509, -17.251481], [-64.244635, -17.251595], [-64.244181, -17.251713], [-64.243729, -17.251834], [-64.243275, -17.251953], [-64.242822, -17.252071], [-64.242365, -17.252174], [-64.241908, -17.252281], [-64.241454, -17.252398], [-64.241001, -17.252509], [-64.240554, -17.252643], [-64.240107, -17.252785], [-64.239658, -17.252917], [-64.239206, -17.25304], [-64.238755, -17.253169], [-64.238304, -17.253295], [-64.237851, -17.253416], [-64.237397, -17.253532], [-64.236942, -17.253644], [-64.236489, -17.253763], [-64.236036, -17.253881], [-64.235583, -17.254001], [-64.23513, -17.254122], [-64.234677, -17.254236], [-64.23422, -17.254341], [-64.233767, -17.254462], [-64.233314, -17.254582], [-64.232862, -17.254704], [-64.232406, -17.254814], [-64.231954, -17.254939], [-64.231501, -17.255058], [-64.231044, -17.255164], [-64.230593, -17.255288], [-64.230138, -17.255404], [-64.229682, -17.255511], [-64.22923, -17.255633], [-64.228776, -17.255749], [-64.228323, -17.25587], [-64.227871, -17.255993], [-64.227417, -17.256107], [-64.22696, -17.256213], [-64.226502, -17.256313], [-64.226049, -17.25643], [-64.225604, -17.256569], [-64.225171, -17.256744], [-64.224732, -17.256904], [-64.22429, -17.257057], [-64.223849, -17.257212], [-64.223414, -17.257383], [-64.222995, -17.257588], [-64.222598, -17.25783], [-64.222222, -17.2581], [-64.221859, -17.258387], [-64.22151, -17.258689], [-64.221157, -17.258987], [-64.220805, -17.259286], [-64.220455, -17.259588], [-64.220102, -17.259886], [-64.219757, -17.260192], [-64.219395, -17.260481], [-64.219032, -17.260768], [-64.218683, -17.26107], [-64.218338, -17.261377], [-64.217986, -17.261676], [-64.217633, -17.261975], [-64.217283, -17.262277], [-64.216934, -17.262579], [-64.216588, -17.262885], [-64.21625, -17.263198], [-64.21592, -17.26352], [-64.215585, -17.263836], [-64.215245, -17.264147], [-64.214897, -17.264447], [-64.214546, -17.264746], [-64.214196, -17.265045], [-64.213862, -17.265361], [-64.213521, -17.265671], [-64.213185, -17.265986], [-64.212829, -17.26628], [-64.212485, -17.266586], [-64.21216, -17.266913], [-64.211836, -17.26724], [-64.211519, -17.267572], [-64.211181, -17.267884], [-64.210828, -17.268179], [-64.210456, -17.268454], [-64.210084, -17.268728], [-64.209713, -17.269005], [-64.209361, -17.269304], [-64.209017, -17.269611], [-64.208685, -17.26993], [-64.208351, -17.270246], [-64.208005, -17.270551], [-64.207648, -17.270844], [-64.207285, -17.271129], [-64.206921, -17.271415], [-64.206559, -17.271702], [-64.206189, -17.27198], [-64.205828, -17.27227], [-64.205464, -17.272556], [-64.205101, -17.272843], [-64.204741, -17.273132], [-64.204383, -17.273425], [-64.204023, -17.273716], [-64.203659, -17.274001], [-64.203297, -17.27429], [-64.202936, -17.274579], [-64.202575, -17.274868], [-64.202222, -17.275166], [-64.20187, -17.275466], [-64.201515, -17.27576], [-64.201148, -17.276042], [-64.20079, -17.276335], [-64.200428, -17.276622], [-64.200077, -17.276923], [-64.199729, -17.277226], [-64.199374, -17.277522], [-64.199039, -17.277839], [-64.198714, -17.278165], [-64.198379, -17.278482], [-64.198033, -17.278787], [-64.197672, -17.279077], [-64.197313, -17.279368], [-64.196955, -17.279661], [-64.196598, -17.279956], [-64.196241, -17.280249], [-64.195887, -17.280547], [-64.195523, -17.280832], [-64.195147, -17.281103], [-64.194778, -17.281383], [-64.19441, -17.281663], [-64.194034, -17.281934], [-64.193666, -17.282214], [-64.193308, -17.282505], [-64.192946, -17.282792], [-64.192586, -17.283082], [-64.192247, -17.283394], [-64.191894, -17.283691], [-64.191529, -17.283975], [-64.191162, -17.284257], [-64.1908, -17.284544], [-64.190455, -17.28485], [-64.1901, -17.285144], [-64.189734, -17.285427], [-64.189374, -17.285715], [-64.189015, -17.286005], [-64.188647, -17.286286], [-64.188283, -17.286571], [-64.18793, -17.286866], [-64.187576, -17.287162], [-64.187202, -17.287433], [-64.186842, -17.287723], [-64.186487, -17.288016], [-64.18612, -17.288299], [-64.185753, -17.288581], [-64.185393, -17.288871], [-64.185034, -17.289162], [-64.184667, -17.289445], [-64.18429, -17.289714], [-64.183916, -17.289988], [-64.183548, -17.290268], [-64.183184, -17.290553], [-64.182813, -17.290829], [-64.182436, -17.291099], [-64.18206, -17.291369], [-64.181695, -17.291653], [-64.181322, -17.291928], [-64.180933, -17.292182], [-64.180572, -17.292471], [-64.18021, -17.292758], [-64.17985, -17.293049], [-64.179486, -17.293335], [-64.179127, -17.293626], [-64.178767, -17.293916], [-64.178386, -17.294181], [-64.178009, -17.29445], [-64.177637, -17.294726], [-64.177258, -17.294994], [-64.176883, -17.295266], [-64.176517, -17.29555], [-64.176145, -17.295825], [-64.175776, -17.296105], [-64.175419, -17.296398], [-64.175047, -17.296676], [-64.174672, -17.296947], [-64.174305, -17.297229], [-64.173937, -17.29751], [-64.173562, -17.297783], [-64.17319, -17.298059], [-64.172817, -17.298334], [-64.172437, -17.2986], [-64.172063, -17.298873], [-64.171696, -17.299156], [-64.171329, -17.299438], [-64.170957, -17.299715], [-64.170585, -17.299991], [-64.170215, -17.300269], [-64.16984, -17.300541], [-64.169466, -17.300816], [-64.1691, -17.301099], [-64.168736, -17.301384], [-64.168376, -17.301674], [-64.168009, -17.301956], [-64.167634, -17.302228], [-64.167272, -17.302516], [-64.166906, -17.302798], [-64.166535, -17.303076], [-64.16617, -17.303361], [-64.1658, -17.303639], [-64.165431, -17.30392], [-64.165066, -17.304204], [-64.164697, -17.304484], [-64.164323, -17.304756], [-64.163966, -17.305048], [-64.16361, -17.305344], [-64.163239, -17.30562], [-64.162856, -17.305883], [-64.162478, -17.306151], [-64.162107, -17.306429], [-64.161741, -17.306712], [-64.161378, -17.307], [-64.161024, -17.307297], [-64.160674, -17.307597], [-64.160305, -17.307877], [-64.159937, -17.308142], [-64.159586, -17.30844], [-64.159222, -17.308726], [-64.158843, -17.308991], [-64.15846, -17.309251], [-64.158074, -17.309507], [-64.157687, -17.309765], [-64.157311, -17.310035], [-64.156935, -17.310307], [-64.156553, -17.31057], [-64.156175, -17.310838], [-64.155811, -17.311123], [-64.155435, -17.311394], [-64.155066, -17.311674], [-64.15472, -17.311978], [-64.154352, -17.31226], [-64.153968, -17.312518], [-64.153578, -17.312769], [-64.15321, -17.313049], [-64.152831, -17.313315], [-64.152471, -17.313605], [-64.152105, -17.313887], [-64.151743, -17.314175], [-64.151379, -17.31446], [-64.151024, -17.314754], [-64.150665, -17.315045], [-64.150308, -17.315339], [-64.149946, -17.315625], [-64.14957, -17.315896], [-64.149191, -17.316164], [-64.148813, -17.316431], [-64.148436, -17.3167], [-64.148041, -17.316944], [-64.147641, -17.317181], [-64.147249, -17.31743], [-64.146865, -17.317691], [-64.14649, -17.317963], [-64.146113, -17.318234], [-64.145723, -17.318485], [-64.145335, -17.318737], [-64.144961, -17.319009], [-64.144608, -17.319308], [-64.144258, -17.319608], [-64.143905, -17.319907], [-64.14354, -17.320191], [-64.143185, -17.320487], [-64.142829, -17.320782], [-64.142484, -17.321089], [-64.142141, -17.321396], [-64.141802, -17.321708], [-64.141436, -17.32199], [-64.141065, -17.322267], [-64.140702, -17.322554], [-64.140362, -17.322866], [-64.140008, -17.323162], [-64.139631, -17.323432], [-64.139257, -17.323706], [-64.138888, -17.323986], [-64.138523, -17.324271], [-64.138156, -17.324553], [-64.137781, -17.324826], [-64.137409, -17.325101], [-64.137033, -17.325373], [-64.136658, -17.325645], [-64.136291, -17.325927], [-64.135926, -17.326211], [-64.135557, -17.326491], [-64.135183, -17.326765], [-64.134812, -17.327042], [-64.134439, -17.327318], [-64.134076, -17.327604], [-64.133722, -17.327902], [-64.133348, -17.328175], [-64.132973, -17.328447], [-64.132604, -17.328726], [-64.132235, -17.329007], [-64.131873, -17.329295], [-64.131515, -17.329588], [-64.131159, -17.329883], [-64.130801, -17.330174], [-64.130431, -17.330454], [-64.13005, -17.330718], [-64.129673, -17.330988], [-64.12931, -17.331275], [-64.128952, -17.331567], [-64.128599, -17.331866], [-64.128264, -17.332183], [-64.127909, -17.332478], [-64.127529, -17.332744], [-64.127161, -17.333026], [-64.126781, -17.333291], [-64.126406, -17.333564], [-64.126023, -17.333825], [-64.125642, -17.334089], [-64.125281, -17.334377], [-64.124917, -17.334662], [-64.124559, -17.334956], [-64.124209, -17.335258], [-64.123853, -17.335552], [-64.123481, -17.335829], [-64.123092, -17.336083], [-64.122689, -17.336315], [-64.122279, -17.336536], [-64.12187, -17.336759], [-64.121461, -17.336983], [-64.121052, -17.337206], [-64.120641, -17.337425], [-64.120226, -17.337637], [-64.119812, -17.337851], [-64.119402, -17.338072], [-64.118996, -17.3383], [-64.118594, -17.338532], [-64.118194, -17.33877], [-64.117794, -17.339008], [-64.117392, -17.339243], [-64.116985, -17.339469], [-64.116576, -17.339691], [-64.116172, -17.339918], [-64.115774, -17.340159], [-64.115363, -17.340378], [-64.114938, -17.34057], [-64.114514, -17.340764], [-64.114126, -17.341017], [-64.11376, -17.341299], [-64.113361, -17.341537], [-64.112943, -17.341745], [-64.112526, -17.341952], [-64.112117, -17.342172], [-64.111706, -17.342393], [-64.111296, -17.342613], [-64.110887, -17.342836], [-64.110472, -17.343048], [-64.110051, -17.343248], [-64.109627, -17.343445], [-64.109203, -17.343637], [-64.10878, -17.343834], [-64.108349, -17.344014], [-64.107911, -17.344179], [-64.107464, -17.344319], [-64.107018, -17.344459], [-64.106574, -17.344604], [-64.106132, -17.344759], [-64.105698, -17.344931], [-64.105269, -17.345116], [-64.104847, -17.345311], [-64.104434, -17.345527], [-64.103993, -17.345677], [-64.103547, -17.345815], [-64.103085, -17.345892], [-64.102618, -17.345945], [-64.102156, -17.346019], [-64.101697, -17.346115], [-64.101237, -17.346206], [-64.100778, -17.346308], [-64.100321, -17.346413], [-64.099867, -17.346529], [-64.099415, -17.346653], [-64.098962, -17.346772], [-64.098498, -17.346846], [-64.098033, -17.34691], [-64.097567, -17.346971], [-64.097109, -17.347072], [-64.096659, -17.3472], [-64.096209, -17.347325], [-64.095758, -17.347449], [-64.095311, -17.347583], [-64.094862, -17.347713], [-64.094414, -17.347837], [-64.093965, -17.347972], [-64.093519, -17.34811], [-64.093072, -17.348252], [-64.092626, -17.348392], [-64.092175, -17.348521], [-64.091734, -17.348674], [-64.091285, -17.348805], [-64.090829, -17.348913], [-64.090376, -17.349033], [-64.089926, -17.349165], [-64.089481, -17.349307], [-64.089035, -17.34944], [-64.088584, -17.349566], [-64.088134, -17.349694], [-64.08768, -17.349806], [-64.087225, -17.349914], [-64.086776, -17.350045], [-64.086327, -17.350174], [-64.085874, -17.350294], [-64.085423, -17.350423], [-64.084986, -17.35058], [-64.084535, -17.350706], [-64.084092, -17.350854], [-64.08366, -17.35103], [-64.083214, -17.351174], [-64.082767, -17.351313], [-64.08232, -17.351455], [-64.081872, -17.35159], [-64.081422, -17.351721], [-64.080976, -17.351864], [-64.080531, -17.352009], [-64.080082, -17.352145], [-64.079636, -17.352287], [-64.079189, -17.352424], [-64.078741, -17.352563], [-64.078294, -17.352703], [-64.077845, -17.352836], [-64.077393, -17.352953], [-64.076946, -17.353088], [-64.076501, -17.353234], [-64.076052, -17.353367], [-64.075598, -17.353485], [-64.075141, -17.353586], [-64.074682, -17.353683], [-64.074228, -17.353802], [-64.073777, -17.353928], [-64.073334, -17.354079], [-64.072892, -17.354231], [-64.072438, -17.35435], [-64.071981, -17.354458], [-64.071521, -17.354547], [-64.071064, -17.354652], [-64.07061, -17.354771], [-64.07016, -17.354901], [-64.069713, -17.355039], [-64.069277, -17.355203], [-64.068845, -17.355381], [-64.068414, -17.355561], [-64.067976, -17.355725], [-64.067546, -17.355896], [-64.067104, -17.356051], [-64.066676, -17.356236], [-64.066249, -17.356425], [-64.065807, -17.356568], [-64.065375, -17.356743], [-64.064943, -17.35692], [-64.064529, -17.357132], [-64.064128, -17.357368], [-64.063722, -17.357596], [-64.063307, -17.357808], [-64.062884, -17.358005], [-64.062449, -17.358177], [-64.06201, -17.358337], [-64.06157, -17.358496], [-64.061139, -17.358676], [-64.060726, -17.358891], [-64.060329, -17.359131], [-64.059919, -17.359351], [-64.059502, -17.359555], [-64.059085, -17.359762], [-64.058665, -17.359966], [-64.05824, -17.360159], [-64.057819, -17.360359], [-64.057403, -17.360571], [-64.056991, -17.360788], [-64.056577, -17.361002], [-64.056159, -17.361209], [-64.055741, -17.361415], [-64.055325, -17.361624], [-64.054913, -17.361841], [-64.054512, -17.362075], [-64.054095, -17.362283], [-64.053669, -17.362473], [-64.05324, -17.362658], [-64.05281, -17.362841], [-64.052391, -17.363042], [-64.051969, -17.36323], [-64.05154, -17.363405], [-64.051131, -17.363626], [-64.050714, -17.363834], [-64.050284, -17.364017], [-64.049849, -17.364189], [-64.049423, -17.364379], [-64.048991, -17.364557], [-64.048554, -17.364722], [-64.04811, -17.364872], [-64.04767, -17.36503], [-64.047214, -17.365138], [-64.046762, -17.365264], [-64.046315, -17.3654], [-64.045866, -17.365534], [-64.04542, -17.365674], [-64.044972, -17.365808], [-64.044522, -17.365935], [-64.044076, -17.366077], [-64.043635, -17.366232], [-64.043193, -17.366385], [-64.042754, -17.366545], [-64.042323, -17.366726], [-64.041888, -17.366896], [-64.041474, -17.367109], [-64.041061, -17.367323], [-64.04065, -17.36754], [-64.040232, -17.367746], [-64.039798, -17.367919], [-64.039346, -17.368038], [-64.038903, -17.368187], [-64.038451, -17.368305], [-64.037987, -17.368374], [-64.037518, -17.368393], [-64.037051, -17.36843], [-64.036587, -17.368483], [-64.036124, -17.368542], [-64.035656, -17.368591], [-64.035189, -17.368555], [-64.034748, -17.368401], [-64.03434, -17.368178], [-64.033934, -17.367951], [-64.033529, -17.367722], [-64.033097, -17.367546], [-64.032646, -17.367417], [-64.032197, -17.367283], [-64.031751, -17.367141], [-64.031309, -17.366988], [-64.030864, -17.36684], [-64.030417, -17.366701], [-64.02996, -17.366595], [-64.029493, -17.366544], [-64.029023, -17.366555], [-64.028555, -17.366588], [-64.028087, -17.366639], [-64.027622, -17.366702], [-64.027166, -17.366812], [-64.02672, -17.366954], [-64.026275, -17.367102], [-64.02583, -17.367247], [-64.025384, -17.36739], [-64.02494, -17.367539], [-64.0245, -17.367683], [-64.024053, -17.367814], [-64.023604, -17.367949], [-64.023154, -17.36808], [-64.02271, -17.368223], [-64.022269, -17.368378], [-64.021822, -17.36852], [-64.021386, -17.368689], [-64.02095, -17.368858], [-64.020512, -17.369021], [-64.020077, -17.369193], [-64.019643, -17.36936], [-64.019199, -17.369499], [-64.01875, -17.369631], [-64.018292, -17.369734], [-64.01783, -17.36982], [-64.01738, -17.369944], [-64.01694, -17.370102], [-64.016488, -17.370225], [-64.016039, -17.370358], [-64.01559, -17.370491], [-64.015147, -17.37064], [-64.014696, -17.370769], [-64.014248, -17.370903], [-64.013806, -17.371053], [-64.013359, -17.371194], [-64.012909, -17.371323], [-64.012463, -17.371465], [-64.012023, -17.371625], [-64.011589, -17.371798], [-64.011146, -17.37195], [-64.010715, -17.37213], [-64.010276, -17.37229], [-64.009819, -17.372396], [-64.009358, -17.372484], [-64.008899, -17.372583], [-64.008444, -17.372695], [-64.007998, -17.372833], [-64.007554, -17.37298], [-64.007107, -17.373118], [-64.006658, -17.373253], [-64.006211, -17.373393], [-64.005768, -17.373543], [-64.005324, -17.373692], [-64.004879, -17.373839], [-64.004433, -17.373982], [-64.003983, -17.374112], [-64.00354, -17.374263], [-64.003106, -17.374436], [-64.00267, -17.374607], [-64.002228, -17.37476], [-64.001787, -17.374917], [-64.001342, -17.375061], [-64.000891, -17.375189], [-64.000437, -17.375309], [-63.999984, -17.375427], [-63.999537, -17.375567], [-63.999094, -17.375715], [-63.998648, -17.375857], [-63.998201, -17.375998], [-63.997755, -17.376143], [-63.997311, -17.37629], [-63.996869, -17.376444], [-63.996421, -17.37658], [-63.995969, -17.376705], [-63.995518, -17.376833], [-63.995067, -17.376961], [-63.994617, -17.377091], [-63.994171, -17.377233], [-63.993728, -17.377386], [-63.993286, -17.377541], [-63.992844, -17.377692], [-63.992409, -17.377865], [-63.991988, -17.378065], [-63.991572, -17.378277], [-63.991158, -17.37849], [-63.990738, -17.378693], [-63.990317, -17.378895], [-63.989894, -17.379093], [-63.989464, -17.379275], [-63.989043, -17.379475], [-63.988625, -17.379678], [-63.988212, -17.379893], [-63.987799, -17.380108], [-63.987392, -17.380335], [-63.986973, -17.380541], [-63.986558, -17.380749], [-63.986145, -17.380965], [-63.985727, -17.381172], [-63.985304, -17.38137], [-63.984885, -17.381574], [-63.984464, -17.381776], [-63.98404, -17.381971], [-63.98362, -17.382169], [-63.983203, -17.382376], [-63.982787, -17.382586], [-63.982371, -17.382796], [-63.981951, -17.383], [-63.981532, -17.383204], [-63.981114, -17.383411], [-63.980695, -17.383617], [-63.980283, -17.383834], [-63.979869, -17.384047], [-63.979452, -17.384257], [-63.979033, -17.384462], [-63.978614, -17.384666], [-63.978193, -17.384868], [-63.977773, -17.385071], [-63.977353, -17.385275], [-63.976932, -17.385475], [-63.976511, -17.385676], [-63.9761, -17.385895], [-63.975681, -17.386099], [-63.975255, -17.386289], [-63.974816, -17.386447], [-63.97439, -17.386637], [-63.97396, -17.386821], [-63.973548, -17.387038], [-63.973128, -17.38724], [-63.972696, -17.387417], [-63.972255, -17.387571], [-63.971802, -17.387688], [-63.971335, -17.387734], [-63.970869, -17.387794], [-63.9704, -17.387823], [-63.969932, -17.387789], [-63.969464, -17.387751], [-63.968999, -17.387696], [-63.968535, -17.387758], [-63.968074, -17.387844], [-63.967607, -17.387904], [-63.967139, -17.387943], [-63.966669, -17.387962], [-63.966199, -17.387956], [-63.965732, -17.387901], [-63.965266, -17.387847], [-63.964797, -17.387808], [-63.964329, -17.387768], [-63.963861, -17.387722], [-63.963393, -17.387682], [-63.962925, -17.387643], [-63.962456, -17.387616], [-63.961986, -17.3876], [-63.961516, -17.38758], [-63.961047, -17.387564], [-63.960577, -17.38759], [-63.960108, -17.387617], [-63.959638, -17.387635], [-63.959168, -17.38765], [-63.958699, -17.387679], [-63.958231, -17.38772], [-63.957762, -17.387763], [-63.957296, -17.387817], [-63.956831, -17.387885], [-63.956369, -17.38797], [-63.955911, -17.388073], [-63.95545, -17.388161], [-63.954991, -17.38826], [-63.954537, -17.388375], [-63.954085, -17.388498], [-63.953642, -17.388644], [-63.95319, -17.388768], [-63.952733, -17.388876], [-63.952287, -17.389014], [-63.951848, -17.389176], [-63.951416, -17.389352], [-63.950981, -17.389518], [-63.950545, -17.389685], [-63.950098, -17.389822], [-63.949655, -17.389969], [-63.94921, -17.390105], [-63.948764, -17.390247], [-63.948327, -17.390412], [-63.947882, -17.390558], [-63.947431, -17.390686], [-63.946991, -17.390837], [-63.946543, -17.390968], [-63.946102, -17.391125], [-63.945659, -17.391274], [-63.945214, -17.391421], [-63.944771, -17.391572], [-63.944328, -17.391723], [-63.943886, -17.391876], [-63.943443, -17.392031], [-63.943, -17.392181], [-63.942559, -17.392338], [-63.94212, -17.392497], [-63.941682, -17.39266], [-63.941247, -17.392832], [-63.940812, -17.393005], [-63.940369, -17.393156], [-63.939923, -17.393297], [-63.939473, -17.393428], [-63.939037, -17.393592], [-63.938597, -17.393747], [-63.938152, -17.393895], [-63.937711, -17.39405], [-63.937267, -17.3942], [-63.936804, -17.394266], [-63.936359, -17.394407], [-63.935914, -17.394554], [-63.93547, -17.3947], [-63.935025, -17.394845], [-63.9346, -17.395035], [-63.93418, -17.395238], [-63.933743, -17.395401], [-63.933295, -17.395536], [-63.932857, -17.395699], [-63.932415, -17.395853], [-63.931977, -17.396014], [-63.931538, -17.396176], [-63.931098, -17.396334], [-63.930656, -17.396489], [-63.93021, -17.396631], [-63.929759, -17.396757], [-63.929307, -17.396881], [-63.928851, -17.396988], [-63.928406, -17.397129], [-63.927978, -17.397316], [-63.927543, -17.397487], [-63.927103, -17.397647], [-63.926653, -17.397776], [-63.926448, -17.397851], [-63.926224, -17.397918], [-63.925783, -17.398074], [-63.925348, -17.398243], [-63.924911, -17.398409], [-63.924473, -17.39857], [-63.924028, -17.398714], [-63.923585, -17.398865], [-63.923144, -17.399023], [-63.922704, -17.399183], [-63.92226, -17.399331], [-63.921812, -17.399468], [-63.921361, -17.399594], [-63.920918, -17.399745], [-63.920468, -17.399877], [-63.920015, -17.399994], [-63.919552, -17.400075], [-63.919088, -17.400141], [-63.918625, -17.40021], [-63.91816, -17.400274], [-63.917692, -17.400313], [-63.917222, -17.400339], [-63.916754, -17.400372], [-63.916287, -17.40043], [-63.915823, -17.400502], [-63.915362, -17.400593], [-63.914903, -17.400689], [-63.914443, -17.400784], [-63.913984, -17.400886], [-63.913525, -17.400981], [-63.913068, -17.40109], [-63.912619, -17.40122], [-63.912177, -17.401371], [-63.911744, -17.401546], [-63.911318, -17.401736], [-63.910893, -17.40193], [-63.910466, -17.402115], [-63.910042, -17.402311], [-63.909614, -17.402493], [-63.909185, -17.402675], [-63.908766, -17.402876], [-63.908345, -17.403074], [-63.907916, -17.403258], [-63.907477, -17.403419], [-63.907041, -17.403583], [-63.906591, -17.403683], [-63.906125, -17.403733], [-63.905656, -17.403755], [-63.905187, -17.403778], [-63.904718, -17.403759], [-63.904249, -17.403735], [-63.903788, -17.403648], [-63.903331, -17.403545], [-63.902872, -17.403448], [-63.902418, -17.403334], [-63.901973, -17.40319], [-63.901757, -17.403103], [-63.901604, -17.402939], [-63.901274, -17.402627], [-63.90082, -17.40252], [-63.900363, -17.402426], [-63.899895, -17.402379], [-63.899426, -17.402356], [-63.898956, -17.402351], [-63.898508, -17.402445], [-63.898155, -17.402744], [-63.897803, -17.403042], [-63.897475, -17.403365], [-63.897139, -17.403681], [-63.896795, -17.403988], [-63.896434, -17.404276], [-63.896063, -17.404554], [-63.895692, -17.404832], [-63.895317, -17.405105], [-63.894947, -17.405384], [-63.894576, -17.405661], [-63.894204, -17.405939], [-63.893834, -17.406217], [-63.893463, -17.406495], [-63.893091, -17.406772], [-63.89272, -17.407049], [-63.892273, -17.407187], [-63.891824, -17.407319], [-63.891374, -17.407449], [-63.890937, -17.407608], [-63.890562, -17.40788], [-63.890189, -17.408155], [-63.88981, -17.408421], [-63.889392, -17.40862], [-63.888932, -17.408709], [-63.888466, -17.408771], [-63.888004, -17.408843], [-63.887536, -17.408879], [-63.887067, -17.408893], [-63.886598, -17.408895], [-63.886128, -17.40891], [-63.88566, -17.408951], [-63.885194, -17.408996], [-63.884732, -17.409072], [-63.884267, -17.409137], [-63.8838, -17.409188], [-63.883332, -17.409232], [-63.882864, -17.40926], [-63.882396, -17.409298], [-63.881929, -17.40934], [-63.881461, -17.409378], [-63.880992, -17.409409], [-63.880524, -17.40945], [-63.880055, -17.409485], [-63.879586, -17.409515], [-63.879117, -17.409541], [-63.878647, -17.409564], [-63.878177, -17.409589], [-63.877708, -17.409615], [-63.87724, -17.409582], [-63.876787, -17.409472], [-63.876363, -17.409279], [-63.875941, -17.40908], [-63.875662, -17.408726], [-63.875405, -17.408348], [-63.87515, -17.407969], [-63.874896, -17.407589], [-63.874644, -17.407208], [-63.874405, -17.406822], [-63.874161, -17.406436], [-63.87388, -17.406075], [-63.873496, -17.405833], [-63.873074, -17.405642], [-63.872639, -17.405472], [-63.872217, -17.405273], [-63.871803, -17.405059], [-63.871441, -17.404771], [-63.871095, -17.404466], [-63.870721, -17.4042], [-63.870286, -17.40403], [-63.86983, -17.403964], [-63.869361, -17.403988], [-63.868893, -17.40402], [-63.868425, -17.404053], [-63.867955, -17.404073], [-63.867486, -17.404089], [-63.867016, -17.404096], [-63.866547, -17.4041], [-63.866077, -17.40412], [-63.865609, -17.404158], [-63.865141, -17.404189], [-63.864673, -17.404227], [-63.864204, -17.404257], [-63.863735, -17.404285], [-63.863266, -17.404312], [-63.862799, -17.404351], [-63.862333, -17.404385], [-63.861868, -17.404442], [-63.861401, -17.404495], [-63.860936, -17.404554], [-63.860469, -17.404607], [-63.860009, -17.404693], [-63.859551, -17.404789], [-63.859094, -17.404896], [-63.858639, -17.405009], [-63.858188, -17.405133], [-63.857737, -17.405259], [-63.857287, -17.405388], [-63.856837, -17.405519], [-63.856398, -17.405679], [-63.855951, -17.40582], [-63.855508, -17.40597], [-63.855072, -17.406137], [-63.854641, -17.406316], [-63.85421, -17.406494], [-63.853772, -17.406659], [-63.85334, -17.406838], [-63.852905, -17.407007], [-63.852464, -17.407161], [-63.85201, -17.407273], [-63.851548, -17.407355], [-63.851091, -17.407453], [-63.850637, -17.407342], [-63.850183, -17.407228], [-63.849744, -17.407071], [-63.84953, -17.406978], [-63.8494, -17.40685], [-63.849398, -17.406676], [-63.84918, -17.406591], [-63.848747, -17.406414], [-63.848314, -17.406238], [-63.84788, -17.406063], [-63.847446, -17.405888], [-63.847013, -17.405711], [-63.846579, -17.405537], [-63.846145, -17.405362], [-63.845712, -17.405185], [-63.845278, -17.405011], [-63.844845, -17.404835], [-63.844411, -17.40466], [-63.843977, -17.404485], [-63.843777, -17.404404], [-63.843543, -17.40431], [-63.843384, -17.404371], [-63.843351, -17.404415], [-63.843266, -17.40453], [-63.842852, -17.404319], [-63.842438, -17.404104], [-63.842023, -17.403893], [-63.841602, -17.403698], [-63.841173, -17.403514], [-63.840735, -17.40335], [-63.840304, -17.40317], [-63.839878, -17.402983], [-63.839453, -17.402792], [-63.839024, -17.402606], [-63.838592, -17.402432], [-63.838178, -17.402221], [-63.837777, -17.401988], [-63.837351, -17.4018], [-63.836941, -17.401584], [-63.836531, -17.401365], [-63.836096, -17.401206], [-63.835685, -17.400991], [-63.835276, -17.40077], [-63.834869, -17.400546], [-63.834671, -17.40048], [-63.834433, -17.4004], [-63.833992, -17.400557], [-63.83356, -17.400733], [-63.833125, -17.400903], [-63.832698, -17.401092], [-63.832282, -17.401303], [-63.831913, -17.401583], [-63.831567, -17.401888], [-63.831233, -17.402206], [-63.830907, -17.402532], [-63.830584, -17.40286], [-63.830245, -17.403173], [-63.8299, -17.40348], [-63.829545, -17.403777], [-63.829155, -17.404025], [-63.828709, -17.404165], [-63.828244, -17.404214], [-63.827775, -17.404238], [-63.827311, -17.404309], [-63.826846, -17.404359], [-63.826385, -17.404445], [-63.825924, -17.404533], [-63.825462, -17.404609], [-63.824999, -17.404692], [-63.824546, -17.404811], [-63.824092, -17.40493], [-63.823639, -17.405051], [-63.823184, -17.405166], [-63.822722, -17.40524], [-63.822255, -17.405274], [-63.821785, -17.405306], [-63.821317, -17.405333], [-63.820848, -17.405374], [-63.82038, -17.405412], [-63.81991, -17.405418], [-63.819441, -17.405403], [-63.818971, -17.405376], [-63.818504, -17.405325], [-63.81804, -17.405255], [-63.817579, -17.405166], [-63.817118, -17.40508], [-63.816663, -17.404971], [-63.816223, -17.404812], [-63.815793, -17.404631], [-63.815365, -17.404445], [-63.814935, -17.404266], [-63.814503, -17.404088], [-63.814068, -17.403916], [-63.813641, -17.40373], [-63.813212, -17.403545], [-63.812792, -17.403344], [-63.812378, -17.403134], [-63.811973, -17.402905], [-63.811581, -17.402656], [-63.81126, -17.402327], [-63.810936, -17.402002], [-63.810607, -17.401679], [-63.810185, -17.401492], [-63.809718, -17.40145], [-63.809251, -17.401418], [-63.808781, -17.401406], [-63.808311, -17.401394], [-63.807841, -17.401383], [-63.807371, -17.40137], [-63.806902, -17.401361], [-63.806432, -17.401347], [-63.805962, -17.401325], [-63.805492, -17.401314], [-63.805022, -17.40131], [-63.804552, -17.401303], [-63.804082, -17.401296], [-63.803612, -17.401278], [-63.803142, -17.401265], [-63.802672, -17.401255], [-63.802203, -17.401241], [-63.801733, -17.401238], [-63.801263, -17.401225], [-63.800793, -17.401213], [-63.80033, -17.401226], [-63.799861, -17.401254], [-63.799393, -17.401253], [-63.798924, -17.401232], [-63.798456, -17.401206], [-63.797989, -17.401171], [-63.797519, -17.401163], [-63.79705, -17.401182], [-63.796581, -17.401223], [-63.796115, -17.401268], [-63.795648, -17.401319], [-63.795181, -17.401369], [-63.794717, -17.401438], [-63.794254, -17.401516], [-63.793791, -17.401596], [-63.793328, -17.401676], [-63.792865, -17.401757], [-63.792402, -17.401838], [-63.791939, -17.401917], [-63.791475, -17.401992], [-63.791011, -17.40206], [-63.790546, -17.402129], [-63.790081, -17.402195], [-63.789615, -17.402257], [-63.789148, -17.402314], [-63.788682, -17.402374], [-63.788216, -17.402436], [-63.787749, -17.40249], [-63.787282, -17.40254], [-63.786814, -17.402588], [-63.786346, -17.402637], [-63.785879, -17.402688], [-63.785413, -17.402746], [-63.784947, -17.402809], [-63.784482, -17.402874], [-63.784015, -17.40293], [-63.783552, -17.402994], [-63.783085, -17.403051], [-63.782619, -17.40311], [-63.782154, -17.403173], [-63.781688, -17.403228], [-63.781223, -17.403287], [-63.780757, -17.403353], [-63.780292, -17.403417], [-63.779828, -17.403485], [-63.779363, -17.403554], [-63.778897, -17.403616], [-63.778432, -17.403675], [-63.777965, -17.403731], [-63.777499, -17.403788], [-63.777031, -17.403835], [-63.776564, -17.403887], [-63.776099, -17.403949], [-63.775633, -17.404009], [-63.775167, -17.404071], [-63.774703, -17.404136], [-63.774237, -17.404194], [-63.773771, -17.404251], [-63.773305, -17.404303], [-63.77284, -17.40437], [-63.772375, -17.404437], [-63.77191, -17.404501], [-63.771444, -17.404555], [-63.770979, -17.404617], [-63.770514, -17.404681], [-63.770048, -17.40473], [-63.769582, -17.404787], [-63.769117, -17.404854], [-63.768653, -17.404925], [-63.768188, -17.404994], [-63.767722, -17.405052], [-63.767255, -17.405107], [-63.766789, -17.405168], [-63.766322, -17.405225], [-63.765855, -17.405277], [-63.765389, -17.405336], [-63.764921, -17.405384], [-63.76446, -17.405465], [-63.76401, -17.405594], [-63.763567, -17.405743], [-63.763118, -17.405872], [-63.762662, -17.405965], [-63.762199, -17.406046], [-63.761738, -17.406127], [-63.76128, -17.406228], [-63.760829, -17.406336], [-63.760375, -17.406432], [-63.759919, -17.406541], [-63.759463, -17.406648], [-63.759006, -17.406752], [-63.758547, -17.406851], [-63.758087, -17.406945], [-63.757631, -17.407057], [-63.757172, -17.407159], [-63.756714, -17.40726], [-63.756251, -17.40734], [-63.755786, -17.407406], [-63.755317, -17.40744], [-63.754847, -17.407462], [-63.754377, -17.407474], [-63.753906, -17.407486], [-63.753436, -17.407497], [-63.752966, -17.407517], [-63.752496, -17.407535], [-63.752026, -17.407535], [-63.751556, -17.407553], [-63.751091, -17.407618], [-63.750625, -17.407683], [-63.750161, -17.407755], [-63.749697, -17.407829], [-63.749239, -17.407928], [-63.748778, -17.40802], [-63.748318, -17.408112], [-63.747858, -17.408207], [-63.747398, -17.408301], [-63.746944, -17.408418], [-63.746511, -17.408587], [-63.746122, -17.408838], [-63.745822, -17.409183], [-63.745586, -17.409573], [-63.745372, -17.409975], [-63.745147, -17.410371], [-63.744816, -17.410692], [-63.744469, -17.410997], [-63.744108, -17.411287], [-63.743753, -17.411583], [-63.74341, -17.411891], [-63.743068, -17.412202], [-63.742726, -17.412512], [-63.742385, -17.412824], [-63.742045, -17.413136], [-63.741707, -17.41345], [-63.741361, -17.413755], [-63.741013, -17.41406], [-63.740662, -17.414361], [-63.740316, -17.414666], [-63.739965, -17.414966], [-63.739593, -17.415241], [-63.739191, -17.415472], [-63.738783, -17.415698], [-63.73839, -17.415944], [-63.737995, -17.41619], [-63.737598, -17.416432], [-63.737214, -17.416693], [-63.736818, -17.416935], [-63.73641, -17.41716], [-63.736002, -17.417384], [-63.735587, -17.417598], [-63.73517, -17.417807], [-63.734753, -17.418014], [-63.734334, -17.41822], [-63.733921, -17.418435], [-63.733504, -17.418644], [-63.733096, -17.418869], [-63.732687, -17.419092], [-63.732283, -17.419324], [-63.731879, -17.419555], [-63.731476, -17.419789], [-63.731074, -17.420023], [-63.730667, -17.420248], [-63.73026, -17.420474], [-63.729852, -17.420699], [-63.729441, -17.420915], [-63.729023, -17.421119], [-63.728639, -17.421376], [-63.728272, -17.421659], [-63.727898, -17.421932], [-63.727519, -17.4222], [-63.727152, -17.422483], [-63.726781, -17.42276], [-63.726405, -17.423032], [-63.72603, -17.423304], [-63.725653, -17.423574], [-63.725269, -17.423835], [-63.724874, -17.42408], [-63.724475, -17.42432], [-63.724093, -17.424582], [-63.723826, -17.424946], [-63.723673, -17.425373], [-63.723511, -17.425797], [-63.723338, -17.426216], [-63.723166, -17.426636], [-63.722986, -17.427052], [-63.722797, -17.427465], [-63.72261, -17.42788], [-63.722424, -17.428294], [-63.722239, -17.428709], [-63.722056, -17.429126], [-63.721877, -17.429543], [-63.7217, -17.429962], [-63.72152, -17.430379], [-63.721346, -17.430799], [-63.721174, -17.431219], [-63.720997, -17.431638], [-63.720738, -17.432009], [-63.720387, -17.43231], [-63.720025, -17.432598], [-63.719658, -17.432881], [-63.719296, -17.43317], [-63.718936, -17.43346], [-63.718576, -17.433751], [-63.718215, -17.43404], [-63.717854, -17.43433], [-63.717495, -17.434622], [-63.717137, -17.434915], [-63.716778, -17.435207], [-63.716414, -17.435493], [-63.716062, -17.435791], [-63.715732, -17.43611], [-63.715393, -17.436421], [-63.715067, -17.436746], [-63.714739, -17.43707], [-63.714417, -17.4374], [-63.7141, -17.437733], [-63.71378, -17.438064], [-63.71346, -17.438395], [-63.713141, -17.438727], [-63.712817, -17.439054], [-63.712497, -17.439386], [-63.712178, -17.439718], [-63.711854, -17.440045], [-63.711532, -17.440374], [-63.711205, -17.440699], [-63.710883, -17.441026], [-63.710563, -17.441357], [-63.710248, -17.441692], [-63.709928, -17.442021], [-63.709611, -17.442355], [-63.709298, -17.442692], [-63.708982, -17.443027], [-63.708664, -17.443359], [-63.708355, -17.443686], [-63.708039, -17.444021], [-63.707716, -17.444345], [-63.707329, -17.444599], [-63.706934, -17.444844], [-63.706534, -17.445076], [-63.706139, -17.44532], [-63.705763, -17.44558], [-63.705371, -17.445824], [-63.704979, -17.44607], [-63.704586, -17.446302], [-63.704409, -17.446424], [-63.704248, -17.446533], [-63.704055, -17.446661], [-63.703896, -17.446776], [-63.703528, -17.447046], [-63.703158, -17.447321], [-63.702774, -17.447575], [-63.702387, -17.447825], [-63.702007, -17.448083], [-63.701628, -17.448322], [-63.701243, -17.448577], [-63.700853, -17.448827], [-63.700466, -17.449083], [-63.700083, -17.449343], [-63.699698, -17.449602], [-63.699271, -17.449776], [-63.698846, -17.449956], [-63.698535, -17.45029], [-63.698179, -17.450573], [-63.697802, -17.450841], [-63.697408, -17.451089], [-63.697032, -17.451357], [-63.696643, -17.45161], [-63.69625, -17.451857], [-63.695857, -17.452104], [-63.695474, -17.452363], [-63.695098, -17.452632], [-63.694714, -17.452891], [-63.694322, -17.453138], [-63.693932, -17.453385], [-63.693544, -17.453637], [-63.69316, -17.453889], [-63.692783, -17.454141], [-63.692398, -17.454397], [-63.69201, -17.454646], [-63.691602, -17.454869], [-63.691188, -17.455085], [-63.690777, -17.455303], [-63.690369, -17.455516], [-63.689951, -17.455721], [-63.689534, -17.455929], [-63.689121, -17.456145], [-63.68871, -17.456357], [-63.6883, -17.456569], [-63.687881, -17.456765], [-63.687447, -17.456934], [-63.687015, -17.457107], [-63.686587, -17.457285], [-63.686158, -17.457463], [-63.685729, -17.457641], [-63.685307, -17.45782], [-63.68488, -17.458003], [-63.684446, -17.458174], [-63.684011, -17.458346], [-63.683581, -17.458516], [-63.683152, -17.458693], [-63.682718, -17.458862], [-63.682285, -17.459034], [-63.681853, -17.459212], [-63.681421, -17.459386], [-63.680987, -17.459561], [-63.680553, -17.459735], [-63.680119, -17.45991], [-63.679685, -17.460083], [-63.67925, -17.460254], [-63.678813, -17.460421], [-63.678372, -17.460579], [-63.677929, -17.460729], [-63.677483, -17.460873], [-63.677037, -17.461014], [-63.676597, -17.461163], [-63.676152, -17.461296], [-63.675703, -17.461424], [-63.675256, -17.461558], [-63.674811, -17.461698], [-63.674378, -17.461863], [-63.673942, -17.462031], [-63.6735, -17.462177], [-63.673047, -17.462297], [-63.672594, -17.462418], [-63.672147, -17.462553], [-63.671702, -17.462696], [-63.671257, -17.462831], [-63.670811, -17.462972], [-63.670369, -17.463125], [-63.669927, -17.463279], [-63.669482, -17.463426], [-63.669041, -17.463583], [-63.668581, -17.463676], [-63.668116, -17.463737], [-63.667653, -17.46382], [-63.667187, -17.463876], [-63.66672, -17.463935], [-63.666253, -17.463981], [-63.665784, -17.464013], [-63.665314, -17.464035], [-63.664845, -17.464068], [-63.664378, -17.464117], [-63.663915, -17.464196], [-63.663452, -17.464273], [-63.66299, -17.464358], [-63.662531, -17.464454], [-63.662072, -17.464536], [-63.66161, -17.464611], [-63.661149, -17.464698], [-63.66069, -17.464794], [-63.66023, -17.464882], [-63.659772, -17.464978], [-63.659317, -17.465068], [-63.658858, -17.465159], [-63.658398, -17.465245], [-63.657939, -17.465342], [-63.657482, -17.465435], [-63.65702, -17.465513], [-63.656559, -17.465582], [-63.656096, -17.465646], [-63.65564, -17.465744], [-63.65518, -17.465824], [-63.65472, -17.465915], [-63.654257, -17.465988], [-63.653797, -17.466067], [-63.653343, -17.466166], [-63.652882, -17.466244], [-63.65242, -17.466321], [-63.651984, -17.466481], [-63.651559, -17.466667], [-63.651139, -17.466862], [-63.650712, -17.467051], [-63.650292, -17.467253], [-63.649875, -17.467458], [-63.649455, -17.467657], [-63.649036, -17.46786], [-63.64862, -17.468062], [-63.648197, -17.468258], [-63.647778, -17.468461], [-63.647374, -17.468689], [-63.646987, -17.468939], [-63.646608, -17.469207], [-63.64624, -17.469488], [-63.645872, -17.469767], [-63.645509, -17.470054], [-63.645139, -17.470333], [-63.64475, -17.470585], [-63.644359, -17.470834], [-63.643974, -17.471088], [-63.643584, -17.471339], [-63.643196, -17.471586], [-63.642803, -17.471824], [-63.642415, -17.472077], [-63.642039, -17.472345], [-63.641654, -17.472604], [-63.641268, -17.47286], [-63.640884, -17.47312], [-63.640509, -17.473381], [-63.640149, -17.47367], [-63.639818, -17.47399], [-63.639494, -17.474317], [-63.639172, -17.474644], [-63.638856, -17.474978], [-63.638542, -17.475311], [-63.638215, -17.475632], [-63.637892, -17.475959], [-63.63758, -17.476293], [-63.637261, -17.476622], [-63.63694, -17.47695], [-63.636619, -17.477279], [-63.636313, -17.477621], [-63.636044, -17.477988], [-63.635917, -17.47842], [-63.635856, -17.47886], [-63.635687, -17.479276], [-63.635425, -17.47964], [-63.635128, -17.479985], [-63.634823, -17.480327], [-63.634438, -17.480577], [-63.634025, -17.480787], [-63.633591, -17.480959], [-63.633145, -17.481099], [-63.632694, -17.481227], [-63.632245, -17.481362], [-63.6318, -17.481508], [-63.631354, -17.481651], [-63.63091, -17.481781], [-63.630463, -17.481913], [-63.630015, -17.48205], [-63.629578, -17.482193], [-63.629131, -17.482332], [-63.628691, -17.482484], [-63.628336, -17.48277], [-63.628005, -17.483079], [-63.627671, -17.483384], [-63.62734, -17.483702], [-63.627052, -17.484044], [-63.626761, -17.484396], [-63.626474, -17.484749], [-63.626186, -17.485104], [-63.625905, -17.485461], [-63.625606, -17.485809], [-63.625317, -17.486154], [-63.62503, -17.486502], [-63.624735, -17.48685], [-63.624453, -17.487196], [-63.624164, -17.487549], [-63.623871, -17.487901], [-63.623579, -17.488251], [-63.623186, -17.488482], [-63.62275, -17.488649], [-63.622311, -17.488806], [-63.621866, -17.488951], [-63.621422, -17.489094], [-63.620977, -17.489241], [-63.620534, -17.489388], [-63.620088, -17.489533], [-63.619641, -17.489674], [-63.619194, -17.489807], [-63.618757, -17.489964], [-63.618315, -17.490117], [-63.617873, -17.490267], [-63.617431, -17.490406], [-63.616985, -17.490546], [-63.616576, -17.490758], [-63.616343, -17.491142], [-63.616193, -17.491564], [-63.616049, -17.491994], [-63.615897, -17.492421], [-63.61574, -17.492847], [-63.615588, -17.493274], [-63.615431, -17.4937], [-63.615274, -17.494125], [-63.615114, -17.49455], [-63.61496, -17.494977], [-63.614802, -17.495402], [-63.614643, -17.495827], [-63.614486, -17.496252], [-63.614333, -17.496679], [-63.614188, -17.497108], [-63.614032, -17.497534], [-63.613863, -17.497955], [-63.613705, -17.49838], [-63.61355, -17.498805], [-63.61338, -17.499215], [-63.613225, -17.499631], [-63.613086, -17.50005], [-63.612887, -17.500443], [-63.61249, -17.500678], [-63.612071, -17.500883], [-63.611668, -17.501115], [-63.611296, -17.50138], [-63.611041, -17.501752], [-63.610944, -17.50218], [-63.6109, -17.502626], [-63.610864, -17.503076], [-63.610884, -17.503525], [-63.610936, -17.503974], [-63.610981, -17.504194], [-63.611126, -17.50437], [-63.611466, -17.504681], [-63.611522, -17.504892], [-63.6114, -17.505084], [-63.61112, -17.505445], [-63.610995, -17.505633], [-63.610978, -17.505857], [-63.610892, -17.506293], [-63.610807, -17.506734], [-63.610687, -17.507157], [-63.610592, -17.507358], [-63.610583, -17.507581], [-63.61064, -17.508028], [-63.610675, -17.508477], [-63.610535, -17.508905], [-63.610331, -17.509309], [-63.610149, -17.509725], [-63.61, -17.510153], [-63.609902, -17.510334], [-63.609785, -17.51055], [-63.60958, -17.510648], [-63.609353, -17.510653], [-63.609124, -17.510611], [-63.608924, -17.510715], [-63.608579, -17.51102], [-63.60815, -17.511182], [-63.607733, -17.511362], [-63.607597, -17.511545], [-63.607536, -17.511574], [-63.607395, -17.51164], [-63.607048, -17.511355], [-63.606653, -17.511124], [-63.606202, -17.510997], [-63.606128, -17.510995], [-63.605969, -17.510992], [-63.605882, -17.511181], [-63.606024, -17.511605], [-63.606178, -17.512029], [-63.606224, -17.512246], [-63.606141, -17.512453], [-63.605948, -17.512572], [-63.605719, -17.512534], [-63.605276, -17.512382], [-63.605072, -17.51233], [-63.604829, -17.512268], [-63.604619, -17.512361], [-63.604497, -17.512549], [-63.604394, -17.51299], [-63.604192, -17.513393], [-63.603836, -17.513675], [-63.603393, -17.513804], [-63.60318, -17.513813], [-63.602927, -17.513824], [-63.602752, -17.513684], [-63.602658, -17.513478], [-63.602569, -17.513269], [-63.602416, -17.513109], [-63.602199, -17.513163], [-63.602055, -17.513336], [-63.601827, -17.513722], [-63.601663, -17.514142], [-63.60157, -17.51458], [-63.601596, -17.51503], [-63.601567, -17.515476], [-63.60151, -17.51592], [-63.601225, -17.516264], [-63.600779, -17.516405], [-63.600399, -17.516656], [-63.600252, -17.516802], [-63.600075, -17.516977], [-63.59985, -17.51701], [-63.599681, -17.516867], [-63.599401, -17.516508], [-63.599241, -17.516348], [-63.599075, -17.516207], [-63.598619, -17.516115], [-63.598153, -17.516118], [-63.597725, -17.51628], [-63.597593, -17.516463], [-63.597557, -17.516683], [-63.59756, -17.516907], [-63.597387, -17.517052], [-63.596994, -17.517299], [-63.596652, -17.517608], [-63.596528, -17.517798], [-63.596508, -17.51802], [-63.596514, -17.518242], [-63.596421, -17.518449], [-63.596141, -17.518804], [-63.595902, -17.519185], [-63.595705, -17.519588], [-63.59551, -17.519988], [-63.595304, -17.520383], [-63.594926, -17.520638], [-63.594483, -17.520761], [-63.594014, -17.52072], [-63.593801, -17.52073], [-63.593553, -17.520741], [-63.593262, -17.52109], [-63.592999, -17.521464], [-63.592872, -17.521891], [-63.592852, -17.522115], [-63.592731, -17.522305], [-63.592531, -17.522424], [-63.592303, -17.522419], [-63.5921, -17.522364], [-63.591862, -17.5223], [-63.591466, -17.522532], [-63.591129, -17.522846], [-63.590796, -17.523163], [-63.590597, -17.523283], [-63.590368, -17.523313], [-63.590134, -17.523297], [-63.589928, -17.523385], [-63.589686, -17.523764], [-63.589504, -17.523883], [-63.589269, -17.52389], [-63.588808, -17.523826], [-63.588592, -17.523794], [-63.588347, -17.523757], [-63.588187, -17.523894], [-63.588146, -17.524117], [-63.587984, -17.524535], [-63.587639, -17.524841], [-63.587257, -17.525104], [-63.586875, -17.525368], [-63.586501, -17.525641], [-63.586118, -17.525902], [-63.585759, -17.526183], [-63.585549, -17.526574], [-63.585427, -17.526738], [-63.58528, -17.526936], [-63.584845, -17.52708], [-63.5844, -17.527208], [-63.583988, -17.527422], [-63.583653, -17.527737], [-63.583327, -17.528062], [-63.583165, -17.528226], [-63.583104, -17.528439], [-63.583096, -17.52866], [-63.582897, -17.528756], [-63.582692, -17.528799], [-63.582445, -17.528851], [-63.582135, -17.529177], [-63.5819, -17.529569], [-63.581593, -17.52991], [-63.581281, -17.530248], [-63.580973, -17.530589], [-63.580564, -17.530803], [-63.580128, -17.530973], [-63.579759, -17.531248], [-63.579401, -17.531537], [-63.578959, -17.531686], [-63.578501, -17.531793], [-63.578081, -17.531972], [-63.577895, -17.532065], [-63.577674, -17.532175], [-63.577227, -17.532054], [-63.576925, -17.531717], [-63.5768, -17.531526], [-63.576603, -17.531412], [-63.576145, -17.531309], [-63.575776, -17.531042], [-63.575474, -17.530699], [-63.575353, -17.530519], [-63.57522, -17.53032], [-63.57501, -17.530306], [-63.574811, -17.530424], [-63.574353, -17.530502], [-63.573935, -17.530686], [-63.573757, -17.5308], [-63.573549, -17.530934], [-63.573098, -17.530847], [-63.572667, -17.530677], [-63.572316, -17.530383], [-63.572162, -17.52996], [-63.571882, -17.529604], [-63.571581, -17.52926], [-63.571382, -17.528853], [-63.5712, -17.528442], [-63.570858, -17.528132], [-63.570682, -17.52802], [-63.570469, -17.527885], [-63.570242, -17.527894], [-63.570044, -17.528015], [-63.569834, -17.528111], [-63.569625, -17.528024], [-63.56924, -17.527774], [-63.568987, -17.527401], [-63.568877, -17.527201], [-63.56869, -17.52708], [-63.568224, -17.527088], [-63.567837, -17.527334], [-63.567492, -17.527639], [-63.567175, -17.527961], [-63.56682, -17.528254], [-63.566399, -17.528442], [-63.56593, -17.528475], [-63.565465, -17.528517], [-63.565242, -17.528591], [-63.565016, -17.528561], [-63.56463, -17.528314], [-63.564384, -17.527937], [-63.564215, -17.527517], [-63.564051, -17.527094], [-63.563891, -17.526671], [-63.563791, -17.526472], [-63.563568, -17.526413], [-63.563104, -17.526385], [-63.562719, -17.526135], [-63.5624, -17.525806], [-63.562246, -17.525635], [-63.562048, -17.525528], [-63.561835, -17.525583], [-63.561765, -17.525793], [-63.561755, -17.526], [-63.561744, -17.526238], [-63.561568, -17.526372], [-63.561348, -17.526451], [-63.560886, -17.526509], [-63.560436, -17.52638], [-63.559988, -17.526248], [-63.559784, -17.526302], [-63.559539, -17.526367], [-63.559335, -17.526292], [-63.559244, -17.526086], [-63.559161, -17.525902], [-63.559061, -17.52568], [-63.558653, -17.525463], [-63.558186, -17.525432], [-63.557977, -17.525398], [-63.557728, -17.525359], [-63.557541, -17.525471], [-63.557377, -17.525632], [-63.55703, -17.525929], [-63.55664, -17.526179], [-63.556251, -17.526428], [-63.555904, -17.526727], [-63.555711, -17.526846], [-63.555482, -17.526889], [-63.555047, -17.527049], [-63.554609, -17.527198], [-63.554143, -17.527257], [-63.553713, -17.527439], [-63.553297, -17.527635], [-63.552859, -17.527795], [-63.552405, -17.527917], [-63.551951, -17.528033], [-63.551499, -17.528156], [-63.55128, -17.528236], [-63.551123, -17.528398], [-63.551106, -17.528839], [-63.551118, -17.529288], [-63.551152, -17.529736], [-63.551164, -17.530187], [-63.55116, -17.530639], [-63.55113, -17.531089], [-63.551091, -17.531535], [-63.55099, -17.531734], [-63.550816, -17.531881], [-63.550413, -17.532105], [-63.549986, -17.532293], [-63.549532, -17.532383], [-63.54932, -17.532378], [-63.549065, -17.532373], [-63.548705, -17.532101], [-63.548447, -17.531726], [-63.548247, -17.531323], [-63.548072, -17.531183], [-63.54784, -17.531172], [-63.547376, -17.531237], [-63.546945, -17.531405], [-63.546634, -17.531741], [-63.546376, -17.532116], [-63.546217, -17.532537], [-63.546098, -17.532972], [-63.545993, -17.533412], [-63.545891, -17.533852], [-63.545767, -17.534286], [-63.545612, -17.534713], [-63.545476, -17.535144], [-63.545367, -17.535584], [-63.545295, -17.536025], [-63.545215, -17.53647], [-63.545118, -17.53691], [-63.545014, -17.537349], [-63.544912, -17.537785], [-63.544947, -17.53796], [-63.545167, -17.537997], [-63.545289, -17.538014]]]}}
]
}
