{
"type": "FeatureCollection",
"features": [
{"type": "Feature", "properties": {"ProjectID": "P3155"}, "geometry": {"type": "LineString", "coordinates": [[-96.5468, 28.64651], [-96.5456, 28.64652], [-96.5456, 28.64606], [-96.5453, 28.64583], [-96.5407, 28.64592], [-96.5407, 28.64556], [-96.5209, 28.6459], [-96.506, 28.66011], [-96.5065, 28.67983], [-96.5061, 28.6928], [-96.5075, 28.69447], [-96.5087, 28.69657], [-96.5088, 28.6974], [-96.5101, 28.69987], [-96.5081, 28.70599], [-96.5081, 28.70599], [-96.506, 28.71197], [-96.5026, 28.72122], [-96.5011, 28.7238], [-96.494, 28.74177], [-96.4926, 28.7468], [-96.5033, 28.76737], [-96.5382, 28.80134], [-96.5385, 28.82425], [-96.5412, 28.82635], [-96.5484, 28.82623], [-96.5525, 28.83178], [-96.5535, 28.83332], [-96.5536, 28.83511], [-96.5527, 28.83866], [-96.553, 28.8407], [-96.557, 28.84074], [-96.5578, 28.84052], [-96.5629, 28.84041], [-96.5658, 28.84436], [-96.5677, 28.84523], [-96.5719, 28.84863], [-96.5714, 28.85254], [-96.5717, 28.85276], [-96.5726, 28.85482], [-96.5736, 28.85733], [-96.5738, 28.85786], [-96.5744, 28.85906], [-96.5761, 28.86256], [-96.5764, 28.863], [-96.5769, 28.86355], [-96.5834, 28.86648], [-96.5845, 28.86699], [-96.5852, 28.87257], [-96.5885, 28.87811], [-96.5884, 28.88403], [-96.5897, 28.88601], [-96.5913, 28.88908], [-96.5921, 28.89019], [-96.5922, 28.89423], [-96.593, 28.89481], [-96.5938, 28.89931], [-96.5949, 28.91308], [-96.5955, 28.91418], [-96.5979, 28.91601], [-96.6079, 28.91825], [-96.6311, 28.91809]]}}
]
}
