{
"type": "FeatureCollection",
"features": [
{"type": "Feature", "properties": {"ProjectID": "P3670"}, "geometry": {"type": "LineString", "coordinates": [[74.953685, 29.911987], [74.949905, 29.889205], [74.921442, 29.830853], [74.760695, 29.576906], [74.626968, 29.386414], [74.481083, 29.089383], [74.347355, 28.823452], [74.316951, 28.730785], [74.253056, 28.576281], [74.094168, 28.269649], [74.036047, 28.224849], [73.983412, 28.185688], [73.979884, 28.179827], [73.957879, 28.163839], [73.948146, 28.153232], [73.94326, 28.129331], [73.937563, 28.100563], [73.933503, 28.083256], [73.928751, 28.065659], [73.927249, 28.061705], [73.923144, 28.054881], [73.916703, 28.043783], [73.914461, 28.041049], [73.910968, 28.035986], [73.907681, 28.029317], [73.8997, 28.017957], [73.875911, 27.972301], [73.866956, 27.959162], [73.862071, 27.952166], [73.843445, 27.923247], [73.832528, 27.914112], [73.805448, 27.887769], [73.780401, 27.855388], [73.707083, 27.78927], [73.591132, 27.661749], [73.471667, 27.543427], [73.418962, 27.45616], [73.383825, 27.346979], [73.271388, 27.175192], [73.201114, 27.04383], [73.113272, 26.890381], [73.03971, 26.596953], [73.035325, 26.592901], [73.031378, 26.587411], [73.030208, 26.584186], [73.025849, 26.574841], [73.014676, 26.553994], [73.003508, 26.535942], [72.919931, 26.473965], [72.810413, 26.34318], [72.723711, 26.126241], [72.614194, 25.892479], [72.559435, 25.756931], [72.495549, 25.633571], [72.431664, 25.526557], [72.396288, 25.353449], [72.375404, 25.289665], [72.378447, 25.218281], [72.369101, 25.203633], [72.360619, 25.192696], [72.315851, 25.126491], [72.207329, 24.964601], [72.174225, 24.85605], [72.151306, 24.749717], [72.102923, 24.57152], [72.102923, 24.464944], [72.100376, 24.355957], [72.074911, 24.251521], [71.962067, 24.150214], [71.935001, 24.126429], [71.911095, 24.101609], [71.898387, 24.098249], [71.77195, 23.983638], [71.687592, 23.923304], [71.584894, 23.866296], [71.423513, 23.836105], [71.240125, 23.812619], [71.071408, 23.752205], [71.00172, 23.654813], [70.899023, 23.530449], [70.799993, 23.463176], [70.688131, 23.447545], [70.674265, 23.447899], [70.668616, 23.445896], [70.66592, 23.441303], [70.648759, 23.408896], [70.644245, 23.401795], [70.59761, 23.363562], [70.573629, 23.343792], [70.54035, 23.324469], [70.515274, 23.313753], [70.50068, 23.311266], [70.469595, 23.314943], [70.435205, 23.311334], [70.403272, 23.306371], [70.304116, 23.286402], [70.173465, 23.207051], [70.067172, 23.137835], [69.98081, 23.103213], [69.878946, 23.029867], [69.763796, 22.93405], [69.698849, 22.795416]]}}
]
}
