{
"type": "FeatureCollection",
"features": [
{"type": "Feature", "properties": {"ProjectID": "P3679"}, "geometry": {"type": "LineString", "coordinates": [[142.973724, 53.086688], [143.020569, 53.080764], [143.064949, 53.067433], [143.079742, 53.03038], [143.072345, 52.984391], [143.050156, 52.942809], [143.035362, 52.924977], [143.064949, 52.846127], [143.099466, 52.811865], [143.136449, 52.711903], [143.138915, 52.6177], [143.099466, 52.566776], [143.099466, 52.470758], [143.09207, 52.431691], [143.09207, 52.376036], [143.064949, 52.341404], [143.09207, 52.232815], [143.050156, 52.192025], [143.050156, 52.151198]]}}
]
}
