{
"type": "FeatureCollection",
"features": [
{"type": "Feature", "properties": {"ProjectID": "P3698"}, "geometry": {"type": "LineString", "coordinates": [[20.346152, 54.887543], [20.32915, 54.884667], [20.326952, 54.882827], [20.317447, 54.881733], [20.309209, 54.879911], [20.306674, 54.879546], [20.306041, 54.877723], [20.302872, 54.877359], [20.300971, 54.878088], [20.299704, 54.878452], [20.296536, 54.878817], [20.292104, 54.878271], [20.288307, 54.877178], [20.285776, 54.876268], [20.284193, 54.875904], [20.283244, 54.875722], [20.280713, 54.875722], [20.278498, 54.875722], [20.277232, 54.874812], [20.275966, 54.873901], [20.275017, 54.872809], [20.273435, 54.872081], [20.272486, 54.871535], [20.270587, 54.87117], [20.269005, 54.870806], [20.268372, 54.870806], [20.267423, 54.870988], [20.26679, 54.87026], [20.265524, 54.868621], [20.263942, 54.867529], [20.262677, 54.867165], [20.261727, 54.8668], [20.260462, 54.866072], [20.258563, 54.864433], [20.25793, 54.863705], [20.256348, 54.86334], [20.255083, 54.863158], [20.25445, 54.862976], [20.2535, 54.862066], [20.250969, 54.860609], [20.24907, 54.858787], [20.248754, 54.858605], [20.248121, 54.858059], [20.247805, 54.856966], [20.247805, 54.855873], [20.246856, 54.855509], [20.245906, 54.854963], [20.244324, 54.853323], [20.242426, 54.851866], [20.241476, 54.850955], [20.238312, 54.847494], [20.233566, 54.842028], [20.230402, 54.838019], [20.229136, 54.83565], [20.229452, 54.833463], [20.228503, 54.831641], [20.228187, 54.829636], [20.225972, 54.827996], [20.225972, 54.826537], [20.226604, 54.824715], [20.22787, 54.823621], [20.227554, 54.821798], [20.226921, 54.819428], [20.226604, 54.817423], [20.226288, 54.815599], [20.225022, 54.814688], [20.22344, 54.8125], [20.221542, 54.810859], [20.220276, 54.809217], [20.216795, 54.807394], [20.212365, 54.806847], [20.208885, 54.8063], [20.204771, 54.803017], [20.203506, 54.801375], [20.203189, 54.799734], [20.203822, 54.796268], [20.203189, 54.794809], [20.20224, 54.794262], [20.206353, 54.792802], [20.208885, 54.79116], [20.212049, 54.788789], [20.215162, 54.784959], [20.216708, 54.783845], [20.21864, 54.782509], [20.21864, 54.779389], [20.219026, 54.776492], [20.219799, 54.774932], [20.220958, 54.774041], [20.221344, 54.772035], [20.222503, 54.771812], [20.224435, 54.770475], [20.224821, 54.768469], [20.224821, 54.767132], [20.225208, 54.765572], [20.227526, 54.761113], [20.227912, 54.757769], [20.227912, 54.75554], [20.224435, 54.753979], [20.221344, 54.752418], [20.219026, 54.750857], [20.217481, 54.749297], [20.215935, 54.746844], [20.215549, 54.74439], [20.215549, 54.741045], [20.214003, 54.738815], [20.211685, 54.737253], [20.21014, 54.735915], [20.212071, 54.732346], [20.206662, 54.732569], [20.204344, 54.730784], [20.204344, 54.729222], [20.203958, 54.727214], [20.203571, 54.725429], [20.203185, 54.724314], [20.202799, 54.722752], [20.190822, 54.719628], [20.188503, 54.718289], [20.188117, 54.71695], [20.190822, 54.715164], [20.192753, 54.713825], [20.192753, 54.712263], [20.192753, 54.709808], [20.194299, 54.706683], [20.195072, 54.705343], [20.195072, 54.703558], [20.192753, 54.702441], [20.186958, 54.700879], [20.187731, 54.698423], [20.198162, 54.68011], [20.230617, 54.679663]]}}
]
}
