{
"type": "FeatureCollection",
"features": [
{"type": "Feature", "properties": {"ProjectID": "P3693"}, "geometry": {"type": "LineString", "coordinates": [[29.673668, 31.041108], [29.674524, 31.040181], [29.671403, 31.036989], [29.657528, 31.029459], [29.653819, 31.027575], [29.648243, 31.024451], [29.644176, 31.021335], [29.641723, 31.019645], [29.635893, 31.01605], [29.624011, 31.009642], [29.619699, 31.006996], [29.611478, 31.001241], [29.600699, 30.994295], [29.589005, 30.987838], [29.58456, 30.985736], [29.574905, 30.978991], [29.564762, 30.972162], [29.560652, 30.969519], [29.552249, 30.965559], [29.546989, 30.962376], [29.537125, 30.958125], [29.521363, 30.949471], [29.509913, 30.945468], [29.508092, 30.944773], [29.501957, 30.94206], [29.4927, 30.937823], [29.479457, 30.931943], [29.474418, 30.929645], [29.461854, 30.92402], [29.456445, 30.921427], [29.440076, 30.912166], [29.43581, 30.909776], [29.423503, 30.904732], [29.413538, 30.900581], [29.395734, 30.892037], [29.388521, 30.888913], [29.378377, 30.885434], [29.369885, 30.881937], [29.363487, 30.879033], [29.349338, 30.874176], [29.335052, 30.868517], [29.329993, 30.865972], [29.32058, 30.863063], [29.313966, 30.861316], [29.30607, 30.857963], [29.288508, 30.850976], [29.280585, 30.848502], [29.270169, 30.845108], [29.257244, 30.841388], [29.247067, 30.838795], [29.233947, 30.835428], [29.224459, 30.832988], [29.203866, 30.82794], [29.158524, 30.819876], [29.135941, 30.816024], [29.099773, 30.812629], [29.064985, 30.812789], [29.042646, 30.814574], [29.016022, 30.821043], [28.985065, 30.824363], [28.959993, 30.835723], [28.944138, 30.845011], [28.937191, 30.846028], [28.918299, 30.848165], [28.906703, 30.85423], [28.896276, 30.859708], [28.883753, 30.868642], [28.869814, 30.878402], [28.861079, 30.884474], [28.84079, 30.899456], [28.826581, 30.908006], [28.817533, 30.912474], [28.829952, 30.931077]]}}
]
}
