{
"type": "FeatureCollection",
"features": [
{"type": "Feature", "properties": {"ProjectID": "P3858"}, "geometry": {"type": "LineString", "coordinates": [[-95.262351, 28.971501], [-95.255331, 28.962629], [-95.250651, 28.957852], [-95.243631, 28.953757], [-95.227251, 28.95171], [-95.203071, 28.957852], [-95.182791, 28.963312], [-95.170312, 28.967406], [-95.160172, 28.969454], [-95.150812, 28.969454], [-95.144572, 28.966724], [-95.139892, 28.961947], [-95.118052, 28.929867], [-95.026793, 28.810333], [-95.003393, 28.778206], [-95.003393, 28.770685], [-95.005733, 28.762481], [-95.019773, 28.749488], [-95.077492, 28.703661], [-95.087632, 28.696819], [-95.097772, 28.689977], [-95.099332, 28.683819], [-95.100112, 28.676976], [-95.107132, 28.562633], [-95.108692, 28.540708], [-95.112592, 28.529744], [-95.118832, 28.522206], [-95.120392, 28.513296], [-95.118052, 28.500959], [-95.113372, 28.494104], [-95.104792, 28.483135], [-95.093872, 28.470108], [-95.086852, 28.455709]]}}
]
}
