{
"type": "FeatureCollection",
"features": [
{"type": "Feature", "properties": {"ProjectID": "P3862"}, "geometry": {"type": "LineString", "coordinates": [[-90.255428, 29.449871], [-90.259466, 29.476501], [-90.26793, 29.492465], [-90.269341, 29.54157], [-90.270751, 29.552615], [-90.277941, 29.56049], [-90.290771, 29.569418], [-90.305801, 29.574519], [-90.323397, 29.578664], [-90.341725, 29.580577], [-90.358221, 29.586634], [-90.383515, 29.599703], [-90.442534, 29.631571], [-90.492754, 29.662474], [-90.516948, 29.678718], [-90.52538, 29.689546], [-90.547008, 29.714064], [-90.567902, 29.730618], [-90.578166, 29.742395], [-90.582565, 29.744305], [-90.590997, 29.744305], [-90.60236, 29.744305], [-90.606759, 29.74526], [-90.611891, 29.747806], [-90.639018, 29.7669], [-90.695104, 29.818436], [-90.708667, 29.833383], [-90.715266, 29.842605], [-90.749724, 29.878846], [-90.763287, 29.895373], [-90.781982, 29.916345], [-90.808376, 29.943349], [-90.819739, 29.951925], [-90.827804, 29.956689], [-90.836968, 29.958912], [-90.849432, 29.960818], [-90.856397, 29.962723], [-90.867028, 29.967804], [-90.874726, 29.973838], [-90.880958, 29.982094], [-90.885723, 29.989714], [-90.88389, 29.993207], [-90.878025, 29.995746], [-90.863362, 30.000508], [-90.854093, 30.006993]]}}
]
}
