{
"type": "FeatureCollection",
"features": [
{"type": "Feature", "properties": {"ProjectID": "P3865"}, "geometry": {"type": "LineString", "coordinates": [[-96.627646, 27.904911], [-96.650272, 27.89166], [-96.735867, 27.88636], [-96.7435, 27.885155], [-96.746771, 27.884914], [-96.75086, 27.885396], [-96.767761, 27.88636], [-96.863988, 27.891419], [-96.894519, 27.893106], [-96.941406, 27.895997], [-96.946312, 27.896238], [-96.951219, 27.895515], [-96.957216, 27.89407], [-96.961033, 27.891901], [-96.964304, 27.889733], [-96.96703, 27.886842], [-96.977661, 27.874794], [-96.986929, 27.863468], [-96.991564, 27.859371], [-96.994835, 27.857443], [-96.998651, 27.855515], [-97.00383, 27.854069], [-97.007102, 27.853587], [-97.011736, 27.853587], [-97.041176, 27.853587]]}}
]
}
