{
"type": "FeatureCollection",
"features": [
{"type": "Feature", "properties": {"ProjectID": "P3870"}, "geometry": {"type": "MultiLineString", "coordinates": [[[-76.295606, 0.299411], [-76.281493, 0.020599], [-76.28176, 0.010904], [-76.660634, 0.059309], [-76.718101, 0.08059], [-76.876216, 0.082819]], [[-76.671808, -0.345964], [-76.655698, -0.200988]], [[-76.128654, -0.529352], [-76.655698, -0.200988]], [[-76.771807, -0.560225], [-76.881672, -0.373535]], [[-76.938223, -0.999003], [-76.887395, -0.707233], [-76.881672, -0.373535], [-76.655698, -0.200988]], [[-76.655698, -0.200988], [-76.876216, 0.082819]]]}}
]
}
