{
"type": "FeatureCollection",
"features": [
{"type": "Feature", "properties": {"ProjectID": "P5121", "full_id": "r11088523", "osm_id": "11088523", "osm_type": "relation", "man_made": "pipeline", "wikipedia:ar": "خط أنابيب سوميد", "wikipedia": "ar:خط أنابيب سوميد", "wikidata": "Q2178499", "type": "route", "substance": "oil", "operator:ar": "الشركة العربية لأنابيب البترول", "operator": "الشركة العربية لأنابيب البترول", "name:en": "Sumed", "name:ar": "سوميد", "name": "سوميد", "length": "354 km", "diameter": "1070 mm, 42 in"}, "geometry": {"type": "MultiLineString", "coordinates": [[[29.672203, 31.053945], [29.651166, 31.092632], [29.595833, 31.09259]], [[29.672431, 31.05412], [29.651166, 31.093532], [29.614586, 31.10763]], [[29.672677, 31.05429], [29.634703, 31.125353]], [[32.321402, 29.606988], [32.321209, 29.607202], [32.320984, 29.607268], [32.320479, 29.607389], [32.319965, 29.607501], [32.319535, 29.607604], [32.319015, 29.607728], [32.318311, 29.607919], [32.304955, 29.612189], [32.304384, 29.612396], [32.30294, 29.612678], [32.293626, 29.614353], [32.278691, 29.616965], [32.270022, 29.618607], [32.260495, 29.61995], [32.252698, 29.620937], [32.251655, 29.621069], [32.245131, 29.62189], [32.234059, 29.622561], [32.218266, 29.623457], [32.212258, 29.623904], [32.210628, 29.62383], [32.209683, 29.623979], [32.208911, 29.624501], [32.208053, 29.624501], [32.183591, 29.623755], [32.155009, 29.625471], [32.144538, 29.625695], [32.13544, 29.625919], [32.134152, 29.626217], [32.107976, 29.63431], [32.106112, 29.634887], [32.104712, 29.635319], [32.078706, 29.643898], [32.060853, 29.650462], [32.050206, 29.653814], [32.040946, 29.654796], [32.030582, 29.655865], [32.018064, 29.657167], [32.008668, 29.656532], [31.97717, 29.654314], [31.945325, 29.651358], [31.930734, 29.650462], [31.912194, 29.651656], [31.899663, 29.653744], [31.881358, 29.657279], [31.880653, 29.657415], [31.874944, 29.658518], [31.854516, 29.66359], [31.847306, 29.667319], [31.819669, 29.671943], [31.804048, 29.677163], [31.793233, 29.678356], [31.78053, 29.677163], [31.773835, 29.677163], [31.751863, 29.683128], [31.739331, 29.695208], [31.692296, 29.722344], [31.662084, 29.734865], [31.651097, 29.738741], [31.604062, 29.737548], [31.586553, 29.740976], [31.551705, 29.764672], [31.527329, 29.77406], [31.503125, 29.773911], [31.467849, 29.764672], [31.448794, 29.774954], [31.437636, 29.77853], [31.428195, 29.778232], [31.425231, 29.778326], [31.424055, 29.778287], [31.423475, 29.777977], [31.421019, 29.776129], [31.415615, 29.774488], [31.409482, 29.772653], [31.404643, 29.771167], [31.400073, 29.769836], [31.392854, 29.76764], [31.392377, 29.767627], [31.390055, 29.768286], [31.387003, 29.769139], [31.381212, 29.77078], [31.37566, 29.77246], [31.374246, 29.77286], [31.373189, 29.773506], [31.370345, 29.776039], [31.367442, 29.778649], [31.362887, 29.782577], [31.360044, 29.785096], [31.357327, 29.787544], [31.3556, 29.789056], [31.353501, 29.790193], [31.352295, 29.79058], [31.348243, 29.794809], [31.332922, 29.801066], [31.324607, 29.802034], [31.321109, 29.803151], [31.316636, 29.806931], [31.314887, 29.807955], [31.31118, 29.807685], [31.310429, 29.807385], [31.308667, 29.806637], [31.302114, 29.80252], [31.300827, 29.801841], [31.299617, 29.801156], [31.287121, 29.802308], [31.279685, 29.801], [31.278473, 29.80127], [31.273989, 29.800279], [31.271373, 29.802516], [31.268605, 29.802585], [31.268372, 29.802723], [31.267192, 29.802867], [31.265202, 29.806074], [31.259424, 29.806568], [31.259258, 29.807187], [31.255492, 29.807154], [31.246984, 29.807229], [31.243991, 29.807042], [31.242156, 29.80654], [31.23794, 29.805022], [31.235574, 29.805148], [31.234994, 29.804631], [31.233401, 29.804752], [31.232371, 29.805004], [31.227479, 29.804817], [31.225483, 29.803696], [31.216729, 29.803933], [31.205238, 29.805292], [31.20317, 29.806791], [31.189358, 29.818031], [31.163975, 29.83819], [31.160341, 29.840139], [31.14817, 29.844936], [31.130544, 29.855997], [31.129813, 29.856435], [31.129188, 29.856933], [31.117314, 29.868487], [31.101733, 29.882022], [31.099013, 29.884509], [31.099019, 29.884841], [31.100113, 29.885675], [31.10013, 29.886005], [31.097994, 29.888039], [31.09277, 29.893025], [31.091326, 29.894294], [31.087996, 29.897039], [31.078604, 29.904695], [31.063394, 29.916981], [31.046416, 29.929201], [31.030623, 29.940949], [31.010038, 29.957084], [30.964688, 29.992635], [30.96226, 29.994538], [30.960324, 29.996172], [30.956997, 29.998656], [30.956882, 29.998742], [30.951316, 30.003102], [30.950359, 30.003862], [30.928721, 30.019966], [30.735563, 30.156488], [30.731439, 30.159418], [30.708699, 30.175575], [30.696235, 30.184412], [30.673666, 30.20046], [30.658194, 30.210905], [30.639331, 30.224348], [30.635413, 30.227139], [30.634389, 30.227869], [30.582515, 30.264108], [30.558944, 30.280602], [30.519301, 30.308328], [30.51002, 30.314913], [30.477051, 30.334306], [30.443426, 30.352907], [30.370339, 30.393415], [30.337436, 30.416916], [30.319562, 30.428323], [30.293652, 30.445196], [30.291925, 30.446482], [30.290476, 30.44823], [30.285122, 30.455758], [30.273991, 30.46668], [30.225105, 30.514302], [30.152085, 30.585068], [30.141608, 30.595123], [30.103875, 30.631745], [30.082476, 30.652588], [30.055794, 30.67829], [30.036927, 30.696422], [30.032383, 30.700285], [30.029328, 30.702898], [30.029454, 30.704782], [30.024583, 30.709017], [30.021806, 30.711543], [30.019527, 30.713651], [30.012465, 30.720299], [30.005679, 30.726776], [29.98663, 30.744939], [29.968139, 30.760286], [29.920337, 30.79894], [29.905493, 30.810938], [29.885817, 30.826763], [29.883746, 30.828435], [29.883387, 30.828987], [29.872652, 30.846182], [29.753637, 30.966451], [29.750816, 30.969689], [29.749313, 30.971078], [29.747565, 30.97278], [29.73837, 30.98059], [29.735538, 30.983], [29.733306, 30.985051], [29.730913, 30.986992], [29.727201, 30.990192], [29.723618, 30.993632], [29.720517, 30.997154], [29.718071, 30.999463], [29.717481, 31.000217], [29.712181, 31.005072], [29.709971, 31.007234], [29.709627, 31.007316], [29.709306, 31.007408], [29.709198, 31.007482], [29.708707, 31.00804], [29.708361, 31.008357], [29.708286, 31.008502], [29.708319, 31.008815], [29.708319, 31.009201], [29.707943, 31.009781], [29.707439, 31.010719], [29.704525, 31.014938], [29.696817, 31.026202], [29.691182, 31.034262], [29.691112, 31.034362], [29.690884, 31.034688], [29.690262, 31.035359], [29.686174, 31.041086], [29.68494, 31.045213], [29.684458, 31.046178], [29.684061, 31.046721], [29.683739, 31.047024], [29.683471, 31.047842], [29.6825, 31.051011]]]}}
]
}
