{
"type": "FeatureCollection",
"features": [
{"type": "Feature", "properties": {"ProjectID": "P5122"}, "geometry": {"type": "LineString", "coordinates": [[33.576066, 27.811443], [33.570224, 27.815594], [33.555616, 27.821676], [33.527461, 27.825034], [33.514612, 27.830291], [33.510121, 27.832905], [33.492726, 27.839239], [33.472991, 27.837247], [33.462378, 27.825221], [33.464619, 27.81081], [33.494222, 27.775488], [33.513283, 27.753891], [33.520837, 27.723267], [33.515387, 27.705426], [33.525997, 27.692685], [33.504269, 27.68234], [33.496887, 27.670301], [33.491083, 27.659234], [33.486565, 27.641541], [33.524886, 27.571897], [33.572059, 27.499637], [33.584503, 27.469505], [33.616535, 27.415825], [33.627032, 27.381844], [33.653797, 27.337321], [33.665438, 27.329006], [33.659608, 27.311175], [33.702334, 27.232025], [33.746152, 27.228226], [33.75497, 27.235087]]}}
]
}
