{
"type": "FeatureCollection",
"features": [
{"type": "Feature", "properties": {"ProjectID": "P5129"}, "geometry": {"type": "LineString", "coordinates": [[6.21717, 51.379032], [6.217058, 51.379851], [6.21751, 51.380043], [6.217982, 51.380112], [6.222975, 51.38022], [6.226197, 51.380266], [6.226743, 51.380934], [6.22777, 51.382186], [6.22888, 51.38615], [6.230151, 51.388083], [6.231241, 51.389678], [6.234121, 51.390866], [6.238813, 51.392231], [6.242091, 51.393129], [6.242761, 51.394371], [6.243889, 51.395501], [6.248048, 51.398559], [6.249889, 51.399294], [6.251741, 51.399783], [6.253775, 51.401417], [6.260645, 51.402818], [6.261529, 51.403011], [6.265144, 51.405897], [6.27009, 51.40789], [6.275694, 51.410138], [6.283238, 51.412753], [6.290707, 51.415355], [6.293153, 51.416036], [6.29532, 51.41723], [6.296263, 51.417746], [6.302677, 51.419605], [6.308724, 51.421383], [6.30989, 51.421493], [6.311949, 51.423355], [6.313476, 51.423524], [6.316869, 51.423692], [6.318566, 51.424663], [6.322836, 51.426896], [6.326109, 51.428605], [6.327227, 51.429188], [6.332804, 51.431412], [6.334372, 51.432006], [6.337001, 51.433244], [6.338573, 51.433842], [6.340255, 51.434251], [6.34593, 51.43429], [6.348305, 51.43432], [6.348962, 51.434743], [6.350261, 51.434822], [6.35171, 51.43482], [6.354417, 51.434865], [6.356468, 51.435363], [6.358099, 51.435387], [6.358621, 51.435323], [6.359607, 51.435359], [6.364446, 51.435725], [6.366702, 51.435895], [6.368487, 51.436178], [6.370863, 51.436313], [6.3723, 51.437077], [6.373646, 51.437793], [6.373747, 51.437848], [6.37554, 51.438812], [6.377537, 51.439886], [6.379115, 51.440745], [6.385457, 51.444359], [6.38657, 51.444985], [6.393026, 51.448203], [6.395935, 51.449674], [6.401056, 51.450448], [6.411375, 51.452018], [6.416396, 51.452753], [6.416626, 51.452787], [6.417954, 51.452985], [6.421595, 51.453501], [6.424535, 51.453921], [6.425403, 51.455609], [6.427126, 51.45777], [6.427346, 51.45856], [6.428667, 51.462881], [6.429438, 51.465444], [6.43814, 51.470042], [6.443875, 51.474511], [6.445813, 51.476015], [6.451704, 51.480631], [6.458661, 51.486098], [6.461059, 51.487412], [6.461917, 51.487975], [6.463132, 51.489094], [6.464481, 51.490149], [6.472134, 51.494468], [6.474181, 51.49544], [6.479994, 51.499545], [6.480857, 51.500312], [6.481822, 51.501183], [6.482315, 51.501622], [6.482584, 51.50185], [6.483224, 51.502422], [6.48572, 51.504739], [6.490993, 51.506326], [6.493498, 51.507081], [6.49432, 51.507359], [6.495605, 51.507686], [6.499768, 51.510676], [6.502711, 51.512923], [6.505142, 51.514751], [6.505374, 51.514954], [6.506535, 51.515789], [6.508828, 51.519143], [6.512278, 51.524103], [6.513108, 51.525274], [6.513999, 51.526695], [6.517015, 51.530779], [6.51947, 51.534479], [6.522841, 51.538471], [6.524056, 51.539912], [6.524344, 51.540226], [6.524786, 51.541067], [6.52646, 51.542829], [6.528292, 51.549145], [6.528397, 51.549552], [6.528648, 51.550472], [6.529492, 51.55166], [6.531388, 51.555145], [6.53394, 51.559524], [6.539264, 51.56371], [6.546223, 51.568922], [6.547855, 51.570137], [6.550395, 51.571546], [6.551591, 51.572111], [6.556721, 51.574391], [6.561941, 51.575582], [6.563627, 51.576007], [6.566301, 51.576641], [6.571217, 51.579198], [6.574431, 51.581522], [6.576194, 51.582878], [6.580778, 51.587013], [6.583131, 51.590401], [6.583605, 51.590788], [6.584641, 51.590741], [6.586128, 51.593164], [6.586349, 51.593699], [6.586293, 51.594524], [6.58573, 51.595839], [6.585877, 51.596042], [6.584618, 51.598257], [6.583573, 51.599491], [6.583537, 51.599668], [6.583642, 51.599924], [6.584226, 51.600407], [6.589633, 51.602703], [6.598782, 51.606451], [6.601024, 51.609967], [6.604637, 51.609088], [6.605574, 51.609212], [6.605988, 51.609214], [6.606912, 51.608914], [6.609075, 51.608898], [6.612098, 51.611702], [6.61402, 51.613315], [6.617797, 51.614213], [6.623444, 51.61738], [6.62536, 51.618596], [6.629955, 51.62158], [6.630915, 51.623556], [6.627968, 51.625176], [6.62812, 51.626799], [6.627783, 51.627834]]}}
]
}
