{
"type": "FeatureCollection",
"features": [
{"type": "Feature", "properties": {"ProjectID": "P5133"}, "geometry": {"type": "LineString", "coordinates": [[22.159411, 48.541767], [22.10426, 48.553109], [22.085549, 48.568333], [22.03817, 48.575943], [21.995256, 48.590007], [21.977746, 48.595588], [21.943413, 48.619424], [21.928822, 48.621353], [21.911141, 48.620899], [21.858097, 48.62124], [21.833035, 48.621013], [21.718708, 48.602853], [21.686779, 48.606713], [21.580864, 48.62714], [21.550995, 48.626459], [21.519744, 48.621505], [21.519316, 48.621517], [21.518583, 48.621643], [21.498829, 48.627495], [21.486542, 48.628278], [21.480859, 48.62889], [21.477638, 48.62967], [21.472097, 48.630272], [21.468103, 48.63093], [21.452192, 48.633021], [21.439213, 48.634228], [21.43742, 48.634701], [21.437186, 48.634711], [21.435816, 48.634591], [21.429555, 48.635467], [21.428706, 48.635451], [21.427879, 48.635335], [21.418113, 48.631904], [21.415065, 48.631662], [21.41132, 48.629855], [21.409673, 48.629223], [21.407831, 48.628917], [21.403629, 48.627134], [21.38663, 48.620764], [21.382077, 48.619162], [21.371024, 48.615236], [21.360817, 48.613175], [21.351021, 48.611671], [21.338797, 48.606387], [21.320828, 48.598592], [21.312715, 48.596822], [21.302112, 48.59646], [21.298284, 48.595722], [21.257779, 48.581412], [21.19497, 48.558677], [21.114632, 48.568106], [21.050431, 48.586277], [20.998761, 48.592863], [20.973564, 48.595285], [20.899884, 48.597291], [20.873963, 48.592522], [20.834137, 48.596156], [20.825726, 48.596837], [20.80135, 48.600696], [20.744702, 48.602059], [20.74041, 48.600015], [20.702816, 48.592863], [20.663678, 48.581849], [20.638633, 48.564017], [20.632775, 48.561318], [20.629836, 48.559593], [20.623451, 48.557999], [20.618826, 48.55742], [20.613962, 48.556625], [20.610806, 48.55595], [20.601364, 48.553223], [20.594586, 48.553965], [20.591007, 48.55421], [20.5867, 48.556206], [20.584345, 48.556282], [20.583594, 48.556359], [20.582534, 48.556589], [20.581362, 48.556955], [20.579734, 48.557486], [20.579203, 48.557615], [20.576819, 48.557962], [20.576633, 48.558038], [20.576486, 48.558194], [20.576261, 48.558538], [20.575987, 48.559213], [20.575673, 48.559678], [20.57537, 48.560078], [20.574209, 48.561443], [20.573887, 48.561894], [20.573726, 48.56219], [20.573391, 48.563243], [20.573265, 48.56352], [20.573131, 48.563759], [20.572862, 48.563974], [20.572363, 48.564274], [20.572025, 48.564471], [20.571746, 48.564553], [20.571454, 48.564588], [20.570864, 48.564613], [20.57033, 48.56461], [20.569732, 48.564592], [20.569099, 48.564499], [20.567825, 48.564393], [20.566473, 48.564315], [20.561948, 48.563818], [20.553988, 48.563026], [20.551922, 48.562902], [20.550908, 48.562866], [20.550141, 48.562685], [20.549492, 48.56255], [20.547813, 48.56222], [20.546177, 48.561975], [20.54497, 48.56184], [20.541134, 48.561297], [20.540566, 48.561287], [20.531489, 48.560658], [20.529767, 48.560544], [20.527123, 48.560342], [20.5265, 48.560271], [20.525926, 48.560175], [20.525079, 48.559891], [20.523555, 48.559312], [20.521442, 48.558418], [20.519907, 48.557775], [20.518609, 48.557024], [20.516313, 48.555038], [20.514243, 48.553188], [20.513452, 48.552335], [20.513221, 48.552075], [20.512588, 48.551584], [20.510579, 48.550468], [20.50928, 48.549832], [20.504125, 48.546718], [20.503533, 48.546355], [20.502838, 48.546004], [20.500885, 48.545219], [20.498686, 48.544523], [20.492967, 48.543415], [20.489244, 48.542587], [20.486128, 48.541948], [20.4855, 48.541895], [20.484905, 48.541976], [20.484449, 48.542044], [20.483971, 48.542044], [20.483537, 48.541937], [20.482813, 48.541678], [20.481632, 48.541248], [20.479889, 48.540705], [20.478094, 48.540295], [20.476802, 48.541208], [20.475914, 48.541654], [20.474808, 48.54195], [20.473432, 48.542116], [20.470451, 48.54222], [20.468886, 48.542107], [20.467237, 48.542157], [20.464482, 48.54215], [20.458826, 48.542153], [20.457287, 48.542266], [20.456351, 48.542213], [20.455769, 48.542104], [20.455005, 48.541897], [20.449887, 48.540263], [20.442943, 48.538058], [20.439791, 48.537586], [20.435069, 48.536625], [20.434776, 48.536499], [20.434412, 48.536282], [20.433062, 48.535328], [20.431711, 48.534598], [20.427086, 48.532621], [20.424156, 48.531462], [20.421979, 48.530623], [20.419064, 48.529693], [20.412436, 48.527155], [20.409585, 48.526625], [20.404789, 48.520818], [20.403436, 48.51927], [20.402802, 48.518786], [20.401794, 48.51825], [20.400779, 48.517616], [20.400229, 48.517209], [20.398249, 48.515625], [20.396571, 48.514113], [20.395199, 48.512301], [20.392281, 48.506501], [20.392109, 48.503202], [20.38181, 48.488642], [20.375802, 48.481815], [20.367953, 48.473892], [20.35876, 48.464196], [20.348856, 48.453906], [20.34683, 48.451766], [20.346508, 48.451596], [20.337854, 48.449091], [20.317898, 48.435561], [20.31702, 48.435237], [20.315995, 48.43502], [20.312888, 48.434756], [20.309483, 48.434949], [20.271449, 48.431447], [20.258278, 48.430478], [20.237679, 48.428659], [20.228489, 48.427096], [20.226812, 48.426464], [20.215985, 48.422113], [20.215166, 48.421661], [20.209805, 48.418852], [20.19384, 48.413269], [20.175301, 48.407572], [20.164315, 48.403697], [20.142685, 48.398796], [20.125348, 48.396859], [20.082089, 48.392527], [20.045791, 48.376149], [20.032467, 48.37014], [20.023296, 48.369764], [20.022459, 48.369965], [20.008283, 48.368988], [19.964157, 48.367216], [19.957417, 48.368579], [19.952313, 48.369611], [19.921013, 48.370117], [19.910622, 48.368168], [19.910413, 48.368613], [19.909893, 48.369312], [19.909582, 48.369536], [19.908922, 48.369693], [19.908246, 48.369821], [19.905698, 48.371126], [19.905033, 48.371247], [19.904668, 48.371161], [19.904239, 48.370987], [19.902066, 48.370181], [19.900784, 48.370064], [19.89778, 48.370278], [19.894583, 48.370563], [19.890243, 48.371094], [19.882931, 48.370203], [19.867512, 48.368242], [19.856526, 48.365619], [19.839703, 48.361513], [19.826313, 48.356837], [19.812065, 48.350563], [19.800593, 48.347818], [19.7849, 48.341771], [19.778077, 48.336301], [19.762112, 48.330823], [19.698769, 48.310162], [19.689901, 48.307701]]}},
{"type": "Feature", "properties": {"ProjectID": "P5133"}, "geometry": {"type": "LineString", "coordinates": [[19.689546, 48.30757], [19.682987, 48.304557], [19.66581, 48.297984], [19.645157, 48.288397], [19.634922, 48.285827], [19.615739, 48.280829], [19.59903, 48.273896], [19.563339, 48.26172], [19.546688, 48.262977], [19.535701, 48.261377], [19.522312, 48.25772], [19.509094, 48.253491], [19.502914, 48.247547], [19.48077, 48.232341], [19.474418, 48.220677], [19.456394, 48.209925], [19.444034, 48.209696], [19.43837, 48.207637], [19.405582, 48.201573], [19.390648, 48.202832], [19.381893, 48.203175], [19.37022, 48.199514], [19.35786, 48.198026], [19.329708, 48.187841], [19.31134, 48.181776], [19.278381, 48.167695], [19.247825, 48.156932], [19.1874, 48.131389], [19.175041, 48.126004], [19.169204, 48.124973], [19.162881, 48.122731], [19.137104, 48.110074], [19.131954, 48.106865], [19.114337, 48.105031], [19.076851, 48.100789], [19.066208, 48.101477], [19.05093, 48.099414], [19.036682, 48.098497], [19.026554, 48.096891], [19.020889, 48.094713], [19.016082, 48.094828], [19.005268, 48.092076], [18.996513, 48.087145], [18.985221, 48.086526], [18.981772, 48.087769], [18.944371, 48.088062], [18.926302, 48.088501], [18.925699, 48.088436], [18.924272, 48.088128], [18.922883, 48.087597], [18.92115, 48.086662], [18.909965, 48.089434], [18.908672, 48.089758], [18.907921, 48.089977], [18.907342, 48.09022], [18.906881, 48.090528], [18.905191, 48.092657], [18.903812, 48.094434], [18.901141, 48.097888], [18.900304, 48.099161], [18.89973, 48.100156], [18.899565, 48.100522], [18.896121, 48.099699], [18.895605, 48.100349]]}},
{"type": "Feature", "properties": {"ProjectID": "P5133"}, "geometry": {"type": "LineString", "coordinates": [[22.372967, 48.596164], [22.358024, 48.568932], [22.350456, 48.55412], [22.344046, 48.542617], [22.330769, 48.51731], [22.317131, 48.519454], [22.265525, 48.529828], [22.245063, 48.530738], [22.175721, 48.538499], [22.159411, 48.541767]]}}
]
}
