{
"type": "FeatureCollection",
"features": [
{"type": "Feature", "properties": {"ProjectID": "P5138"}, "geometry": {"type": "LineString", "coordinates": [[76.87728, 52.40964], [76.69003, 52.39669], [76.63984, 52.33067], [76.65142, 52.22556], [76.38888, 52.13204], [76.35027, 52.08462], [76.10704, 51.9801], [76.04719, 51.97416], [75.81168, 51.86104], [75.36575, 51.81094], [75.33293, 51.84793], [75.00766, 51.83183], [74.65149, 51.84495], [74.62446, 51.8676], [74.53036, 51.86402], [74.42659, 51.6648], [74.29726, 51.5959], [74.29436, 51.57371], [74.3127, 51.5395], [74.27892, 51.44575], [74.21232, 51.34397], [71.92668, 49.67646], [71.62168, 48.69104], [71.61395, 48.60048], [71.10046, 48.41375], [70.60627, 48.41375], [70.45956, 48.30087], [70.25493, 48.23405], [69.33218, 48.11304], [68.57159, 47.77943], [68.27817, 46.73393], [68.26658, 46.15665], [68.72217, 44.85797], [68.83799, 44.73742], [68.49051, 44.09765], [68.80131, 43.89073], [68.93837, 43.8629], [69.21829, 43.7361], [69.24531, 43.46911], [69.34859, 43.40883], [69.3621, 43.36815], [69.36597, 43.26281], [69.4316, 43.18685], [69.42388, 43.14038], [69.41616, 43.04029], [69.27137, 42.90469], [69.254, 42.79713], [69.33894, 42.65816], [69.36017, 42.32508]]}}
]
}
