{
"type": "FeatureCollection",
"features": [
{"type": "Feature", "properties": {"ProjectID": "P5148"}, "geometry": {"type": "MultiLineString", "coordinates": [[[3.218728, 56.545546], [3.218728, 56.545475], [3.218732, 56.546135], [3.218732, 56.546138], [3.218733, 56.546141], [3.218735, 56.546143], [3.218736, 56.546146], [3.218738, 56.546148], [3.21874, 56.546151], [3.218743, 56.546153], [3.218746, 56.546155], [3.218751, 56.546158], [3.218756, 56.546161], [3.218761, 56.546163], [3.218767, 56.546165], [3.218774, 56.546166], [3.21878, 56.546167], [3.218788, 56.546168], [3.218795, 56.546168], [3.219582, 56.546167], [3.219594, 56.546168], [3.219605, 56.546169], [3.219616, 56.546172], [3.219626, 56.546176], [3.219634, 56.54618], [3.219641, 56.546186], [3.219646, 56.546191], [3.219649, 56.546198], [3.219692, 56.54633]], [[3.218728, 56.545475], [3.218728, 56.545472], [3.218727, 56.545469]], [[3.218726, 56.545466], [3.218726, 56.545467], [3.218727, 56.545469], [3.218726, 56.545466]], [[3.218726, 56.545465], [3.218726, 56.545466], [3.218726, 56.545466], [3.218726, 56.545465]], [[3.218724, 56.545462], [3.218725, 56.545464], [3.218726, 56.545465], [3.218724, 56.545462]], [[3.218721, 56.545459], [3.218722, 56.54546], [3.218724, 56.545462], [3.218721, 56.545459]], [[3.21872, 56.545458], [3.218721, 56.545459], [3.218721, 56.545459], [3.21872, 56.545458]], [[3.218717, 56.545455], [3.21872, 56.545457], [3.21872, 56.545458], [3.218717, 56.545455]], [[3.218713, 56.545452], [3.218715, 56.545453], [3.218717, 56.545455], [3.218713, 56.545452]], [[3.218712, 56.545451], [3.218713, 56.545452], [3.218713, 56.545452], [3.218712, 56.545451]], [[3.218708, 56.545449], [3.218711, 56.545451], [3.218712, 56.545451], [3.218708, 56.545449]], [[3.218703, 56.545447], [3.218705, 56.545447], [3.218708, 56.545449], [3.218703, 56.545447]], [[3.218702, 56.545446], [3.218703, 56.545447], [3.218703, 56.545447], [3.218702, 56.545446]], [[3.218697, 56.545444], [3.218701, 56.545446], [3.218702, 56.545446], [3.218697, 56.545444]], [[3.218697, 56.545444], [3.218689, 56.545442]], [[3.218681, 56.54544], [3.218682, 56.545441], [3.218689, 56.545442], [3.218681, 56.54544]], [[3.218677, 56.54544], [3.218681, 56.54544], [3.218681, 56.54544], [3.218677, 56.54544]], [[3.218672, 56.545439], [3.218673, 56.545439], [3.218677, 56.54544], [3.218672, 56.545439]], [[3.21867, 56.545439], [3.218672, 56.545439], [3.218672, 56.545439], [3.21867, 56.545439]], [[3.218397, 56.545439], [3.218663, 56.545439], [3.21867, 56.545439], [3.218665, 56.545439], [3.218663, 56.545439], [3.218663, 56.545439], [3.218397, 56.545439], [3.218386, 56.545439], [3.218375, 56.545437], [3.218364, 56.545435], [3.218355, 56.545431], [3.218347, 56.545427], [3.218341, 56.545422], [3.218336, 56.545416], [3.218333, 56.54541], [3.218332, 56.545404], [3.218331, 56.545321], [3.218331, 56.545287], [3.218331, 56.545242], [3.21833, 56.545197], [3.21833, 56.545152], [3.218329, 56.545107], [3.218332, 56.545062], [3.218333, 56.545017], [3.218328, 56.544928], [3.21833, 56.544883], [3.21833, 56.544838], [3.218326, 56.544793], [3.218324, 56.544748], [3.218328, 56.544703], [3.218325, 56.544658], [3.218318, 56.544613], [3.218321, 56.544568], [3.218323, 56.544523]], [[3.21832, 56.544349], [3.218317, 56.544052]], [[3.218323, 56.54451], [3.218323, 56.544523], [3.218323, 56.544478], [3.218321, 56.544433], [3.218281, 56.54124], [3.218313, 56.54378]], [[3.218281, 56.54124], [3.21828, 56.541199], [3.218279, 56.541154], [3.218279, 56.541109], [3.218279, 56.541065], [3.218277, 56.54102], [3.218275, 56.540975], [3.218276, 56.54093], [3.218274, 56.540885], [3.218271, 56.54084], [3.218266, 56.540795], [3.218261, 56.54075], [3.218263, 56.540705], [3.218262, 56.54066], [3.218257, 56.540615], [3.218254, 56.54057]], [[3.218256, 56.540415], [3.218258, 56.540391], [3.218254, 56.540441], [3.218253, 56.540512], [3.218254, 56.54057], [3.218253, 56.540512]], [[3.218258, 56.540391], [3.21828, 56.540214]], [[3.218281, 56.540202], [3.218281, 56.540204], [3.21828, 56.540214], [3.218281, 56.540202]], [[3.218279, 56.540194], [3.218281, 56.540199], [3.218281, 56.540202], [3.218279, 56.540194]], [[3.218278, 56.540187], [3.218279, 56.540189], [3.218279, 56.540194], [3.218278, 56.540187]], [[3.218274, 56.540179], [3.218277, 56.540185], [3.218278, 56.540187], [3.218274, 56.540179]], [[3.218271, 56.540173], [3.218272, 56.540174], [3.218274, 56.540179], [3.218271, 56.540173]], [[3.218265, 56.540165], [3.21827, 56.540171], [3.218271, 56.540173], [3.218265, 56.540165]], [[3.21826, 56.540159], [3.218261, 56.540161], [3.218265, 56.540165], [3.21826, 56.540159]], [[3.218252, 56.540152], [3.218259, 56.540158], [3.21826, 56.540159], [3.218252, 56.540152]], [[3.218245, 56.540147], [3.218246, 56.540148], [3.218252, 56.540152], [3.218245, 56.540147]], [[3.218235, 56.540141], [3.218244, 56.540146], [3.218245, 56.540147], [3.218235, 56.540141]], [[3.218227, 56.540136], [3.218228, 56.540137], [3.218235, 56.540141], [3.218227, 56.540136]], [[3.218214, 56.540131], [3.218226, 56.540135], [3.218227, 56.540136], [3.218214, 56.540131]], [[3.218206, 56.540127], [3.218207, 56.540127], [3.218214, 56.540131], [3.218206, 56.540127]], [[3.21819, 56.540122], [3.218205, 56.540127], [3.218206, 56.540127], [3.21819, 56.540122]], [[3.218182, 56.54012], [3.218183, 56.54012], [3.21819, 56.540122], [3.218182, 56.54012]], [[3.218157, 56.540115], [3.218182, 56.54012], [3.218182, 56.54012], [3.218157, 56.540115]], [[3.218157, 56.540115], [3.217874, 56.540074], [3.217544, 56.540038]], [[3.217412, 56.540019], [3.217544, 56.540038], [3.217287, 56.540001], [3.217044, 56.539964], [3.216798, 56.539932], [3.216608, 56.539907], [3.216412, 56.539876], [3.216345, 56.539864], [3.21512, 56.539697], [3.214789, 56.539651], [3.214506, 56.539612], [3.214161, 56.539566], [3.213781, 56.539515], [3.213635, 56.539493], [3.213452, 56.539471], [3.213209, 56.539441], [3.212978, 56.53941], [3.212776, 56.539384], [3.21268, 56.539377], [3.212525, 56.539361], [3.21241, 56.539342], [3.21217, 56.539312], [3.211728, 56.53925], [3.211169, 56.539181], [3.210544, 56.539095], [3.209981, 56.539024], [3.209498, 56.538954], [3.209453, 56.538945], [3.209331, 56.538931], [3.20927, 56.538919], [3.209208, 56.538913], [3.208897, 56.538868], [3.208806, 56.53886], [3.20873, 56.538845], [3.208595, 56.538832], [3.208506, 56.538813], [3.208312, 56.53879], [3.208242, 56.538778], [3.208153, 56.53877], [3.208007, 56.538747], [3.20793, 56.538741], [3.207749, 56.538713], [3.207666, 56.538706], [3.207453, 56.538679], [3.20705, 56.538624], [3.206965, 56.538609], [3.206497, 56.538552], [3.206336, 56.538531], [3.206025, 56.53849], [3.205749, 56.538454], [3.205554, 56.538425], [3.205462, 56.538417], [3.20527, 56.538387], [3.204879, 56.538339], [3.204688, 56.53831], [3.204643, 56.538307], [3.204555, 56.538292], [3.204371, 56.538273], [3.203991, 56.538218], [3.203692, 56.538186], [3.203512, 56.538154], [3.203449, 56.538148], [3.203358, 56.538133], [3.203265, 56.538126], [3.203178, 56.53811], [3.202999, 56.538092], [3.202783, 56.53806], [3.2024, 56.538012], [3.20234, 56.538], [3.202179, 56.537979], [3.201626, 56.537901], [3.201249, 56.537852], [3.200964, 56.537813], [3.200562, 56.537762], [3.200254, 56.53772], [3.199995, 56.537679], [3.199619, 56.537628], [3.199302, 56.537583], [3.198515, 56.537481], [3.198157, 56.537432], [3.197932, 56.537399], [3.19763, 56.537359], [3.197044, 56.537279], [3.196929, 56.53727], [3.196562, 56.53722], [3.196119, 56.537166], [3.196005, 56.537149], [3.195707, 56.537115], [3.195171, 56.537041], [3.194899, 56.536997], [3.194665, 56.536974], [3.194605, 56.536963], [3.194383, 56.536943], [3.19434, 56.536933], [3.194276, 56.536928], [3.194121, 56.536904], [3.19409, 56.536903], [3.193996, 56.536885], [3.193914, 56.536879], [3.193754, 56.536861], [3.193524, 56.536828], [3.19318, 56.536787], [3.193018, 56.53676], [3.192591, 56.536706], [3.192512, 56.536691], [3.192301, 56.536671], [3.191998, 56.536628], [3.191864, 56.536616], [3.191735, 56.536592], [3.191644, 56.536585], [3.191601, 56.536575], [3.191487, 56.536565], [3.191413, 56.536551], [3.191281, 56.536541], [3.191224, 56.536527], [3.191105, 56.536511], [3.19102, 56.536503], [3.190804, 56.536471], [3.190639, 56.53645], [3.190349, 56.536404], [3.190239, 56.536393], [3.189628, 56.536309], [3.189263, 56.536259], [3.18878, 56.536195], [3.188049, 56.53609], [3.187903, 56.536074], [3.187814, 56.536062], [3.187499, 56.536017], [3.187198, 56.53598], [3.186676, 56.535911], [3.186408, 56.535874], [3.186188, 56.535843], [3.186015, 56.535818], [3.185904, 56.535804], [3.185776, 56.53579], [3.185713, 56.535782], [3.185666, 56.535776], [3.185492, 56.535752], [3.185445, 56.535745], [3.185239, 56.535718], [3.184766, 56.535654], [3.184592, 56.53563], [3.18434, 56.535595], [3.184214, 56.535577], [3.184119, 56.535564], [3.184056, 56.535556], [3.183882, 56.535533], [3.183551, 56.535488], [3.183377, 56.535465], [3.183235, 56.535446], [3.183077, 56.535424], [3.182998, 56.535413], [3.182824, 56.53539], [3.182714, 56.535376], [3.182492, 56.535347], [3.182381, 56.535333], [3.182318, 56.535324], [3.182114, 56.535295], [3.182035, 56.535284], [3.181861, 56.535262], [3.181734, 56.535245], [3.181655, 56.535235], [3.181576, 56.535224], [3.181433, 56.535206], [3.181386, 56.5352], [3.181323, 56.535192], [3.181244, 56.535181], [3.181007, 56.535148], [3.180897, 56.535133], [3.180834, 56.535125], [3.180659, 56.535103], [3.18058, 56.535093], [3.180469, 56.535078], [3.180343, 56.535061], [3.180249, 56.535048], [3.180154, 56.535036], [3.180043, 56.535021], [3.179869, 56.534998], [3.17979, 56.534988], [3.179711, 56.534978], [3.1796, 56.534964], [3.179489, 56.534949], [3.179426, 56.534941], [3.179347, 56.53493], [3.179221, 56.534913], [3.178968, 56.53488], [3.178731, 56.534849], [3.178652, 56.534838], [3.17851, 56.534818], [3.178415, 56.534805], [3.178083, 56.534762], [3.177941, 56.534744], [3.177862, 56.534733], [3.177562, 56.534691], [3.177515, 56.534685], [3.177436, 56.534674], [3.177373, 56.534666], [3.177246, 56.53465], [3.177198, 56.534644], [3.177151, 56.534638], [3.177057, 56.534624], [3.176993, 56.534615], [3.176962, 56.534611], [3.176788, 56.534588], [3.176693, 56.534576], [3.176598, 56.534564], [3.176487, 56.534549], [3.176361, 56.534533], [3.176234, 56.534516], [3.176092, 56.534497], [3.176029, 56.534488], [3.175903, 56.534471], [3.175777, 56.534454], [3.17565, 56.534437], [3.175587, 56.534428], [3.175335, 56.534394], [3.175208, 56.534377], [3.175129, 56.534367], [3.174955, 56.534344], [3.174876, 56.534333], [3.17475, 56.534317], [3.174575, 56.534295], [3.174464, 56.534281], [3.17437, 56.534268], [3.174307, 56.534259], [3.174086, 56.534228], [3.174023, 56.534219], [3.173897, 56.534203], [3.173849, 56.534197], [3.173786, 56.534188], [3.173723, 56.53418], [3.173596, 56.534164], [3.173548, 56.534158], [3.173422, 56.534141], [3.173296, 56.534123], [3.173186, 56.534108], [3.173044, 56.534088], [3.172823, 56.534058], [3.172728, 56.534046], [3.172585, 56.534028], [3.172506, 56.534017], [3.172349, 56.533995], [3.172301, 56.533989], [3.172254, 56.533983], [3.172191, 56.533975], [3.172016, 56.533954], [3.171937, 56.533943], [3.17189, 56.533937], [3.171764, 56.533919], [3.17159, 56.533895], [3.171527, 56.533886], [3.171433, 56.533873], [3.171274, 56.533852], [3.171101, 56.533829], [3.171053, 56.533823], [3.170974, 56.533813], [3.170911, 56.533805], [3.170832, 56.533795], [3.170674, 56.533773], [3.170626, 56.533766], [3.170532, 56.533754], [3.170389, 56.533735], [3.170294, 56.533723], [3.170183, 56.533709], [3.17012, 56.533701], [3.170088, 56.533697], [3.170041, 56.53369], [3.169916, 56.533671], [3.169884, 56.533667], [3.169821, 56.533658], [3.169695, 56.533641], [3.169489, 56.533614], [3.169442, 56.533607], [3.169411, 56.533603], [3.169348, 56.533594], [3.169285, 56.533585], [3.169111, 56.533562], [3.168952, 56.533543], [3.168873, 56.533533], [3.168825, 56.533527], [3.168762, 56.533518], [3.168699, 56.533509], [3.168605, 56.533495], [3.168542, 56.533487], [3.168447, 56.533475], [3.168399, 56.533468], [3.168305, 56.533455], [3.168258, 56.533448], [3.168147, 56.533434], [3.168099, 56.533428], [3.167972, 56.533412], [3.167909, 56.533404], [3.167846, 56.533395], [3.167657, 56.533368], [3.167547, 56.533353], [3.167358, 56.533326], [3.167263, 56.533313], [3.167026, 56.533282], [3.166979, 56.533276], [3.16679, 56.53325], [3.166569, 56.53322], [3.166379, 56.533193], [3.166238, 56.533174], [3.166049, 56.533147], [3.165954, 56.533134], [3.165907, 56.533128], [3.165828, 56.533117], [3.165796, 56.533113], [3.165702, 56.533099], [3.16567, 56.533094], [3.165623, 56.533088], [3.165576, 56.533081], [3.165497, 56.533071], [3.165338, 56.533051], [3.165243, 56.533039], [3.16518, 56.533031], [3.165148, 56.533027], [3.165085, 56.533018], [3.164976, 56.533001], [3.164928, 56.532995], [3.164865, 56.532986], [3.164723, 56.532967], [3.164597, 56.532948], [3.164503, 56.532935], [3.164408, 56.532922], [3.164282, 56.532906], [3.164077, 56.532878], [3.163934, 56.532859], [3.163602, 56.532816], [3.163523, 56.532806], [3.16338, 56.532788], [3.163317, 56.53278], [3.163253, 56.532772], [3.163127, 56.532755], [3.163016, 56.53274], [3.162811, 56.532714], [3.1627, 56.532699], [3.162637, 56.53269], [3.162495, 56.53267], [3.162448, 56.532664], [3.162416, 56.53266], [3.162353, 56.532652], [3.162147, 56.532626], [3.162052, 56.532614], [3.16191, 56.532594], [3.161815, 56.532581], [3.161705, 56.532566], [3.161594, 56.532551], [3.161484, 56.532536], [3.161436, 56.53253], [3.161373, 56.532522], [3.16115, 56.532496], [3.161055, 56.532484], [3.160992, 56.532476], [3.160755, 56.532444], [3.160613, 56.532425], [3.160486, 56.53241], [3.160247, 56.532381], [3.160136, 56.532368], [3.160073, 56.53236], [3.159994, 56.532349], [3.159899, 56.532337], [3.159789, 56.532322], [3.159678, 56.532307], [3.159536, 56.532288], [3.159425, 56.532273], [3.159362, 56.532265], [3.159029, 56.532224], [3.15895, 56.532214], [3.158839, 56.532199], [3.158666, 56.532175], [3.158571, 56.532162], [3.158445, 56.532145], [3.158286, 56.532125], [3.158192, 56.532112], [3.158097, 56.5321], [3.157939, 56.532078], [3.157734, 56.532049], [3.157546, 56.532022], [3.157435, 56.532007], [3.157372, 56.531999], [3.157309, 56.531991], [3.157134, 56.531969], [3.157055, 56.531959], [3.156992, 56.53195], [3.156913, 56.531939], [3.156866, 56.531932], [3.156788, 56.531921], [3.156694, 56.531906], [3.156615, 56.531894], [3.156552, 56.531885], [3.156505, 56.531878], [3.15641, 56.531865], [3.156173, 56.531835], [3.156078, 56.531822], [3.155811, 56.531784], [3.155606, 56.531754], [3.155528, 56.531743], [3.155291, 56.53171], [3.155181, 56.531695], [3.154961, 56.531663], [3.154835, 56.531646], [3.154693, 56.531626], [3.154535, 56.531604], [3.154425, 56.531588], [3.154347, 56.531576], [3.154237, 56.53156], [3.154111, 56.531541], [3.154048, 56.531532], [3.153906, 56.531513], [3.153717, 56.531487], [3.153607, 56.531472], [3.153465, 56.531451], [3.153277, 56.531424], [3.153073, 56.531393], [3.152978, 56.53138], [3.152868, 56.531364], [3.152663, 56.531336], [3.152553, 56.53132], [3.152348, 56.531291], [3.15227, 56.53128], [3.152143, 56.531262], [3.151986, 56.531241], [3.151669, 56.5312], [3.151559, 56.531185], [3.151432, 56.531168], [3.15118, 56.531134], [3.150596, 56.531054], [3.150343, 56.53102], [3.150106, 56.530989], [3.14998, 56.530972], [3.149837, 56.530954], [3.149695, 56.530936], [3.149552, 56.530918], [3.149473, 56.530908], [3.149378, 56.530896], [3.149267, 56.530881], [3.149189, 56.53087], [3.148969, 56.530838], [3.148874, 56.530825], [3.148795, 56.530814], [3.148716, 56.530803], [3.14859, 56.530787], [3.148447, 56.530769], [3.148352, 56.530756], [3.14821, 56.530737], [3.1481, 56.530722], [3.147847, 56.530689], [3.147784, 56.530681], [3.1475, 56.530642], [3.146899, 56.530562], [3.146741, 56.530541], [3.146599, 56.530521], [3.146457, 56.530502], [3.146315, 56.530483], [3.146125, 56.530458], [3.14592, 56.530431], [3.145573, 56.530383], [3.145226, 56.530336], [3.145163, 56.530328], [3.145036, 56.530311], [3.144862, 56.530289], [3.144735, 56.530273], [3.144656, 56.530262], [3.144452, 56.530233], [3.144341, 56.530218], [3.144262, 56.530208], [3.144072, 56.530184], [3.144009, 56.530176], [3.143914, 56.530163], [3.14363, 56.530124], [3.143488, 56.530105], [3.143378, 56.530089], [3.143063, 56.530044], [3.142921, 56.530025], [3.142826, 56.530012], [3.142763, 56.530004], [3.142715, 56.529998], [3.14262, 56.529987], [3.142588, 56.529983], [3.142525, 56.529974], [3.142288, 56.529942], [3.142083, 56.529915], [3.141988, 56.529902], [3.141847, 56.529882], [3.141768, 56.529872], [3.141657, 56.529857], [3.141451, 56.529832], [3.141102, 56.529787], [3.140991, 56.529773], [3.140928, 56.529765], [3.140833, 56.529752], [3.140676, 56.52973], [3.140566, 56.529715], [3.140202, 56.529667], [3.139839, 56.529618], [3.139744, 56.529605], [3.139634, 56.52959], [3.139428, 56.529563], [3.139349, 56.529553], [3.139175, 56.529531], [3.139048, 56.529514], [3.138574, 56.529452], [3.138463, 56.529437], [3.138337, 56.52942], [3.138243, 56.529407], [3.138148, 56.529394], [3.137944, 56.529364], [3.137865, 56.529353], [3.137802, 56.529344], [3.137723, 56.529334], [3.137628, 56.529321], [3.137375, 56.529289], [3.137232, 56.52927], [3.137011, 56.529241], [3.13679, 56.529211], [3.136664, 56.529195], [3.136458, 56.529169], [3.1363, 56.529148], [3.136189, 56.529133], [3.135937, 56.529097], [3.135843, 56.529085], [3.135732, 56.52907], [3.135668, 56.529062], [3.135335, 56.529021], [3.135209, 56.529005], [3.135145, 56.528997], [3.134608, 56.528926], [3.134292, 56.528883], [3.134229, 56.528874], [3.13396, 56.52884], [3.13385, 56.528825], [3.133723, 56.528808], [3.133566, 56.528786], [3.133408, 56.528764], [3.133345, 56.528755], [3.133013, 56.528711], [3.132934, 56.5287], [3.132666, 56.528663], [3.13254, 56.528647], [3.132303, 56.528616], [3.132176, 56.528599], [3.131955, 56.528569], [3.131877, 56.528558], [3.131797, 56.528548], [3.131718, 56.528538], [3.131591, 56.528523], [3.131432, 56.528505], [3.131353, 56.528495], [3.131273, 56.528484], [3.131131, 56.528465], [3.131005, 56.528449], [3.13091, 56.528437], [3.130847, 56.528429], [3.130513, 56.528387], [3.130418, 56.528375], [3.130324, 56.528363], [3.130102, 56.528334], [3.130023, 56.528323], [3.129929, 56.528309], [3.129851, 56.528297], [3.129757, 56.528283], [3.129694, 56.528273], [3.129569, 56.528253], [3.129444, 56.528233], [3.129226, 56.528197], [3.128946, 56.52815], [3.128883, 56.52814], [3.128836, 56.528133], [3.128742, 56.528118], [3.128648, 56.528104], [3.128601, 56.528098], [3.128522, 56.528086], [3.128396, 56.528069], [3.128304, 56.528056], [3.127969, 56.528006], [3.12789, 56.527996], [3.127809, 56.52799], [3.127613, 56.527965], [3.127569, 56.527966], [3.127545, 56.527974], [3.12753, 56.527984], [3.127211, 56.528169], [3.127083, 56.52825], [3.127049, 56.528268], [3.127005, 56.528291], [3.126983, 56.528299], [3.126948, 56.5283], [3.126938, 56.528297], [3.126919, 56.528286], [3.126879, 56.528263], [3.126785, 56.528212], [3.126601, 56.528108], [3.126079, 56.527875], [3.125876, 56.527752], [3.125547, 56.527591], [3.12549, 56.527559], [3.125406, 56.527504], [3.125308, 56.527431], [3.125262, 56.527405], [3.12521, 56.527383], [3.125091, 56.527335], [3.125021, 56.527297], [3.124683, 56.52709], [3.124575, 56.52701], [3.124531, 56.526983], [3.124461, 56.526946], [3.124424, 56.526928], [3.124385, 56.526912], [3.124189, 56.526842], [3.123967, 56.526749], [3.12393, 56.526731], [3.123723, 56.526616], [3.123563, 56.52654], [3.123491, 56.526503], [3.12345, 56.526475], [3.123422, 56.526451], [3.123369, 56.526402], [3.123314, 56.526354], [3.123271, 56.526327], [3.123221, 56.526303], [3.12308, 56.526258], [3.122906, 56.526192], [3.122817, 56.526153], [3.122749, 56.526114], [3.122671, 56.526068], [3.122516, 56.525989], [3.122404, 56.525937], [3.122237, 56.525852], [3.122138, 56.525791], [3.122048, 56.525739], [3.121912, 56.525675], [3.121762, 56.525607], [3.121692, 56.52557], [3.12157, 56.525496], [3.121524, 56.52547], [3.121444, 56.525429], [3.121355, 56.525376], [3.121289, 56.525337], [3.121104, 56.525235], [3.120927, 56.525154], [3.120856, 56.525117], [3.120799, 56.525085], [3.120746, 56.525051], [3.120693, 56.525017], [3.120605, 56.524964], [3.120549, 56.524931], [3.120453, 56.524882], [3.120377, 56.524847], [3.120259, 56.524785], [3.120112, 56.524689], [3.119914, 56.524582], [3.119651, 56.524435], [3.119541, 56.524368], [3.119355, 56.524267], [3.119221, 56.524189], [3.119112, 56.524123], [3.119053, 56.524091], [3.11898, 56.524055], [3.118916, 56.524014], [3.118844, 56.523953], [3.118776, 56.523902], [3.118721, 56.523869], [3.118579, 56.523795], [3.118352, 56.523672], [3.118267, 56.52363], [3.118186, 56.523599], [3.118049, 56.523563], [3.117975, 56.523541], [3.117905, 56.523517], [3.117828, 56.523483], [3.117747, 56.523439], [3.117615, 56.523372], [3.117425, 56.523288], [3.117208, 56.523179], [3.11709, 56.523117], [3.117039, 56.523095], [3.116947, 56.523057], [3.116851, 56.523015], [3.116796, 56.522989], [3.116663, 56.522936], [3.116553, 56.522883], [3.116447, 56.522827], [3.116347, 56.522781], [3.116155, 56.522711], [3.116062, 56.522674], [3.115776, 56.522546], [3.115676, 56.5225], [3.115532, 56.522441], [3.115412, 56.52238], [3.115315, 56.522331], [3.115241, 56.522297], [3.114913, 56.522163], [3.114737, 56.522083], [3.114425, 56.521953], [3.114171, 56.52184], [3.113979, 56.521742], [3.113891, 56.521702], [3.113662, 56.521616], [3.113518, 56.521556], [3.113336, 56.521467], [3.113279, 56.521434], [3.113211, 56.521382], [3.113179, 56.521361], [3.113108, 56.521324], [3.113073, 56.521305], [3.113053, 56.52129], [3.113012, 56.521247], [3.112968, 56.52122], [3.112882, 56.521179], [3.112807, 56.521131], [3.112751, 56.521099], [3.112655, 56.52105], [3.11244, 56.520955], [3.112121, 56.520817], [3.111923, 56.520724], [3.111396, 56.520486], [3.111207, 56.520402], [3.111076, 56.520348], [3.110817, 56.520226], [3.110384, 56.520021], [3.109836, 56.519767], [3.10954, 56.51964], [3.109239, 56.519517], [3.109154, 56.519475], [3.10906, 56.519426], [3.108713, 56.519262], [3.108272, 56.519063], [3.10818, 56.519025], [3.108029, 56.518971], [3.107951, 56.518938], [3.107571, 56.518755], [3.107415, 56.518689], [3.107264, 56.518634], [3.107132, 56.518581], [3.107019, 56.51853], [3.106213, 56.518109], [3.105971, 56.517988], [3.105635, 56.517779], [3.105566, 56.517741], [3.105404, 56.517679], [3.105302, 56.517634], [3.104848, 56.517389], [3.104669, 56.517284], [3.104438, 56.517171], [3.104276, 56.517083], [3.103998, 56.516944], [3.103712, 56.516796], [3.103585, 56.516725], [3.10338, 56.516622], [3.10278, 56.516345], [3.102733, 56.51632], [3.102607, 56.516249], [3.102466, 56.516159], [3.102343, 56.516086], [3.10218, 56.515998], [3.102115, 56.515956], [3.102021, 56.515889], [3.101919, 56.515831], [3.101844, 56.515796], [3.101775, 56.515772], [3.101613, 56.515723], [3.101228, 56.515596], [3.101167, 56.515566], [3.101038, 56.515484], [3.100783, 56.515332], [3.100666, 56.51527], [3.100569, 56.515209], [3.100374, 56.515074], [3.100284, 56.515022], [3.100185, 56.514975], [3.100075, 56.514922], [3.099962, 56.514857], [3.099863, 56.51481], [3.099811, 56.514788], [3.099754, 56.51477], [3.099659, 56.514752], [3.099565, 56.514741], [3.099511, 56.514733], [3.099449, 56.514717], [3.099392, 56.514698], [3.099328, 56.51467], [3.099247, 56.514627], [3.099119, 56.514546], [3.098954, 56.514448], [3.098751, 56.514334], [3.098452, 56.514158], [3.098108, 56.513954], [3.097994, 56.513913], [3.097906, 56.513884], [3.097824, 56.513851], [3.097761, 56.513821], [3.097464, 56.513652], [3.09725, 56.513514], [3.097114, 56.513439], [3.096922, 56.513344], [3.096844, 56.513312], [3.096735, 56.513274], [3.096635, 56.513229], [3.096432, 56.513116], [3.095687, 56.512725], [3.095271, 56.512512], [3.094817, 56.512276], [3.094252, 56.511988], [3.093807, 56.511754], [3.093342, 56.511505], [3.09292, 56.511283], [3.092004, 56.510785], [3.091688, 56.510621], [3.091289, 56.510399], [3.09077, 56.5101], [3.090126, 56.509732], [3.089502, 56.509365], [3.088042, 56.508482], [3.087488, 56.508154], [3.087224, 56.507996], [3.086778, 56.507737], [3.085821, 56.507198], [3.08471, 56.506582], [3.083433, 56.505888], [3.08172, 56.504939], [3.081205, 56.504666], [3.07818, 56.503082], [3.076807, 56.502383], [3.075584, 56.501732], [3.071557, 56.49954], [3.070436, 56.498941], [3.066742, 56.496906], [3.065311, 56.49616], [3.063255, 56.495194], [3.062581, 56.494869], [3.061954, 56.494553], [3.061388, 56.494249], [3.059759, 56.493315], [3.058885, 56.492809], [3.058102, 56.492443], [3.056038, 56.491446], [3.055007, 56.490933], [3.054221, 56.490515], [3.053342, 56.490071], [3.051596, 56.489223], [3.050194, 56.488525], [3.048706, 56.487747], [3.046718, 56.486697], [3.046238, 56.48643], [3.04582, 56.486191], [3.045455, 56.485971], [3.044723, 56.485504], [3.043784, 56.484888], [3.043311, 56.484593], [3.042736, 56.484252], [3.041808, 56.483737], [3.04143, 56.483537], [3.040962, 56.483311], [3.040131, 56.482921], [3.038411, 56.482141], [3.036336, 56.481156], [3.034502, 56.480279], [3.032832, 56.479497], [3.032441, 56.479322], [3.028996, 56.477817], [3.027147, 56.477007], [3.026483, 56.476716], [3.026304, 56.476639], [3.026149, 56.476574], [3.025799, 56.47643], [3.024519, 56.475895], [3.023087, 56.475328], [3.020901, 56.474426], [3.020153, 56.474125], [3.019567, 56.473884], [3.019355, 56.4738], [3.019288, 56.473775], [3.019197, 56.473737], [3.01841, 56.473391], [3.017391, 56.472961], [3.015834, 56.472329], [3.01494, 56.471965], [3.013635, 56.471417], [3.011333, 56.470434], [3.009288, 56.469513], [3.006941, 56.468464], [3.005378, 56.467754], [3.005057, 56.467618], [3.004787, 56.467533], [3.004496, 56.467403], [3.004255, 56.467268], [3.003938, 56.467128], [3.003798, 56.467067], [3.003536, 56.466918], [3.003402, 56.466852], [3.003064, 56.466741], [3.00261, 56.466565], [3.002469, 56.466504], [3.002354, 56.466444], [3.001993, 56.466271], [3.001652, 56.466118], [3.001472, 56.466026], [3.001137, 56.465889], [2.999933, 56.465365], [2.998717, 56.464855], [2.997246, 56.46428], [2.996217, 56.46387], [2.993705, 56.462855], [2.992866, 56.462505], [2.991648, 56.461966], [2.990518, 56.461496], [2.98981, 56.46121], [2.988779, 56.460805], [2.987356, 56.460249], [2.98592, 56.459675], [2.984806, 56.459256], [2.984079, 56.459001], [2.982355, 56.458442], [2.981016, 56.457983], [2.980472, 56.457787], [2.97985, 56.457559], [2.978886, 56.457202], [2.978077, 56.4569], [2.977413, 56.456623], [2.977011, 56.45644], [2.976353, 56.456177], [2.975257, 56.455774], [2.973377, 56.455104], [2.97284, 56.454919], [2.971851, 56.454593], [2.971298, 56.454424], [2.969523, 56.453917], [2.968969, 56.453746], [2.968112, 56.453468], [2.966933, 56.453074], [2.966073, 56.45277], [2.965309, 56.452484], [2.964339, 56.452093], [2.963271, 56.451629], [2.962411, 56.451247], [2.962102, 56.451104], [2.96153, 56.45082], [2.961254, 56.45069], [2.959779, 56.450006], [2.958394, 56.449381], [2.957688, 56.449066], [2.956969, 56.448751], [2.956116, 56.448384], [2.955872, 56.448285], [2.955538, 56.448155], [2.95399, 56.447563], [2.952758, 56.447104], [2.951675, 56.446686], [2.951406, 56.446578], [2.950715, 56.44629], [2.950318, 56.446119], [2.949833, 56.445903], [2.949341, 56.445694], [2.948899, 56.4455], [2.948526, 56.445346], [2.948075, 56.445156], [2.947479, 56.444911], [2.947141, 56.444768], [2.947033, 56.444725], [2.946871, 56.444668], [2.94629, 56.444452], [2.945912, 56.444317], [2.944579, 56.443844], [2.943768, 56.443547], [2.943204, 56.443331], [2.942686, 56.443126], [2.941994, 56.44286], [2.941517, 56.442677], [2.941139, 56.442534], [2.940146, 56.442168], [2.939786, 56.44204], [2.938873, 56.441723], [2.937561, 56.441263], [2.936233, 56.440778], [2.935296, 56.440436], [2.93436, 56.440086], [2.933993, 56.439942], [2.933555, 56.439783], [2.933249, 56.439665], [2.932821, 56.439503], [2.932534, 56.439387], [2.931993, 56.439165], [2.931771, 56.439067], [2.931482, 56.438947], [2.930715, 56.438611], [2.929706, 56.438162], [2.92933, 56.438], [2.928103, 56.437487], [2.92703, 56.437052], [2.926533, 56.436847], [2.926198, 56.436705], [2.925753, 56.43651], [2.925316, 56.436317], [2.924811, 56.436077], [2.924347, 56.435851], [2.923462, 56.435417], [2.922754, 56.435077], [2.922417, 56.434912], [2.922039, 56.434731], [2.921592, 56.43452], [2.920763, 56.434137], [2.920286, 56.433914], [2.919822, 56.433702], [2.91935, 56.433491], [2.91874, 56.433215], [2.918507, 56.433116], [2.917979, 56.432901], [2.917686, 56.432785], [2.917273, 56.43263], [2.916826, 56.432473], [2.916243, 56.432267], [2.915814, 56.432107], [2.915376, 56.431937], [2.914896, 56.431755], [2.914145, 56.431494], [2.913384, 56.431238], [2.912934, 56.431088], [2.912729, 56.431012], [2.912399, 56.430874], [2.911629, 56.430552], [2.9103, 56.430011], [2.909411, 56.429654], [2.90773, 56.429013], [2.906293, 56.428493], [2.904634, 56.427904], [2.903099, 56.427317], [2.901618, 56.426712], [2.900766, 56.426351], [2.900361, 56.426175], [2.899357, 56.425733], [2.898535, 56.425379], [2.89777, 56.425051], [2.896418, 56.424487], [2.894897, 56.423851], [2.893409, 56.423221], [2.891498, 56.42243], [2.889327, 56.42149], [2.887959, 56.420925], [2.887225, 56.420609], [2.886306, 56.420193], [2.885642, 56.41989], [2.884674, 56.419432], [2.883833, 56.419048], [2.881497, 56.418026], [2.880646, 56.417678], [2.879715, 56.417329], [2.87906, 56.417094], [2.87878, 56.416986], [2.878249, 56.416774], [2.877706, 56.416567], [2.876705, 56.416159], [2.875695, 56.415751], [2.875252, 56.415569], [2.874547, 56.415268], [2.873406, 56.41476], [2.872718, 56.414438], [2.871802, 56.41402], [2.871146, 56.413721], [2.870753, 56.413549], [2.870453, 56.413423], [2.870103, 56.413291], [2.869168, 56.41296], [2.868295, 56.412652], [2.86787, 56.412485], [2.867333, 56.412285], [2.866872, 56.412117], [2.86657, 56.411999], [2.86618, 56.411848], [2.865981, 56.411777], [2.865748, 56.411702], [2.865537, 56.41163], [2.865141, 56.41149], [2.864505, 56.411271], [2.864161, 56.411155], [2.863697, 56.410987], [2.863139, 56.410791], [2.862866, 56.410691], [2.861914, 56.410335], [2.861166, 56.41005], [2.860722, 56.409876], [2.860176, 56.409657], [2.859909, 56.409547], [2.859694, 56.409453], [2.859372, 56.409319], [2.85875, 56.409043], [2.858468, 56.40891], [2.858152, 56.408772], [2.857422, 56.408452], [2.856907, 56.408236], [2.856225, 56.407962], [2.85585, 56.407819], [2.855016, 56.407511], [2.854291, 56.407239], [2.853717, 56.407015], [2.853338, 56.406863], [2.85279, 56.406642], [2.852311, 56.406444], [2.851027, 56.4059], [2.850951, 56.405868], [2.850848, 56.405825], [2.850641, 56.405738], [2.850485, 56.405674], [2.850342, 56.405616], [2.850065, 56.405506], [2.849866, 56.40543], [2.849704, 56.40537], [2.849472, 56.405286], [2.849212, 56.405194], [2.849046, 56.405136], [2.848837, 56.405066], [2.848656, 56.405005], [2.848475, 56.404944], [2.848334, 56.404898], [2.848179, 56.404849], [2.847969, 56.404782], [2.847802, 56.404728], [2.847594, 56.40466], [2.847248, 56.404545], [2.846885, 56.404421], [2.846544, 56.404302], [2.846205, 56.40418], [2.845782, 56.404031], [2.845374, 56.403884], [2.845042, 56.403756], [2.844576, 56.403579], [2.844402, 56.403512], [2.844309, 56.403476], [2.844217, 56.403439], [2.844087, 56.403385], [2.843997, 56.403346], [2.84379, 56.403259], [2.84348, 56.403127], [2.843214, 56.40301], [2.842876, 56.402856], [2.842345, 56.402608], [2.842111, 56.402495], [2.841614, 56.402261], [2.841476, 56.402198], [2.841128, 56.40205], [2.840897, 56.40195], [2.840742, 56.401885], [2.839991, 56.401614], [2.839407, 56.40142], [2.838893, 56.401247], [2.838493, 56.401111], [2.838247, 56.401024], [2.837757, 56.400848], [2.837303, 56.400675], [2.836824, 56.40049], [2.835931, 56.400135], [2.835685, 56.400034], [2.8352, 56.399842], [2.834885, 56.399716], [2.834532, 56.399572], [2.834024, 56.39938], [2.833372, 56.399129], [2.832773, 56.398897], [2.832208, 56.39867], [2.831592, 56.39842], [2.831098, 56.398213], [2.830869, 56.398112], [2.830567, 56.397974], [2.829974, 56.397695], [2.829474, 56.397455], [2.829012, 56.397232], [2.828475, 56.396974], [2.827696, 56.396612], [2.827198, 56.396386], [2.826503, 56.396075], [2.825631, 56.395699], [2.824977, 56.395432], [2.82402, 56.395063], [2.823455, 56.394853], [2.822438, 56.394487], [2.82176, 56.394242], [2.82137, 56.394097], [2.812292, 56.390525], [2.791393, 56.382461], [2.770797, 56.373889], [2.762318, 56.370459], [2.74875, 56.36585], [2.72793, 56.357181], [2.720505, 56.354559], [2.70663, 56.349047], [2.700095, 56.346785], [2.68526, 56.340729], [2.664838, 56.332427], [2.662194, 56.331396], [2.660213, 56.330483], [2.657732, 56.329416], [2.655219, 56.328367], [2.652819, 56.327264], [2.650257, 56.326242], [2.647696, 56.325237], [2.64515, 56.324251], [2.642686, 56.323201], [2.64014, 56.322197], [2.637627, 56.321309], [2.635017, 56.320331], [2.632682, 56.319291], [2.630186, 56.318277], [2.627803, 56.317327], [2.625259, 56.316277], [2.622666, 56.315236], [2.620171, 56.314159], [2.617708, 56.313109], [2.615712, 56.312303], [2.613185, 56.311244], [2.610657, 56.31023], [2.608131, 56.309162], [2.60583, 56.308121], [2.603255, 56.307071], [2.60068, 56.306039], [2.598376, 56.305312], [2.596686, 56.304687], [2.594738, 56.303926], [2.592098, 56.302947], [2.589523, 56.301977], [2.587061, 56.30099], [2.584486, 56.299984], [2.581928, 56.298987], [2.579836, 56.298153], [2.577295, 56.297084], [2.574737, 56.296105], [2.572372, 56.295163], [2.570384, 56.2944], [2.568855, 56.293804], [2.567542, 56.293256], [2.566239, 56.29269], [2.565215, 56.292291], [2.564264, 56.29188], [2.563452, 56.291553], [2.563389, 56.291534], [2.563348, 56.291512], [2.563315, 56.291498], [2.563246, 56.29147], [2.562968, 56.291351], [2.562386, 56.291146], [2.560666, 56.290532], [2.557213, 56.289209], [2.55403, 56.287853], [2.552728, 56.287393], [2.550916, 56.286846], [2.549001, 56.286242], [2.547343, 56.285703], [2.546156, 56.285284], [2.544841, 56.284734], [2.543375, 56.284116], [2.541665, 56.283401], [2.540346, 56.282814], [2.538649, 56.28196], [2.537497, 56.28146], [2.53547, 56.28053], [2.534357, 56.279997], [2.533237, 56.279433], [2.53131, 56.278512], [2.530226, 56.278021], [2.529279, 56.277556], [2.528021, 56.276992], [2.527558, 56.276812], [2.525853, 56.27603], [2.524375, 56.275354], [2.52234, 56.274479], [2.520557, 56.273778], [2.519049, 56.273178], [2.517561, 56.272618], [2.516271, 56.272225], [2.514088, 56.271342], [2.511249, 56.270179], [2.508215, 56.268952], [2.506838, 56.26844], [2.504834, 56.267692], [2.502704, 56.26687], [2.50005, 56.26574], [2.499192, 56.265396], [2.498537, 56.265129], [2.497266, 56.264533], [2.494954, 56.263544], [2.492269, 56.262494], [2.490394, 56.261767], [2.486252, 56.260196], [2.484584, 56.259594], [2.482137, 56.258658], [2.480088, 56.257841], [2.477969, 56.256973], [2.475941, 56.256108], [2.473622, 56.255148], [2.471513, 56.254261], [2.469223, 56.253335], [2.467711, 56.252694], [2.464774, 56.251449], [2.46191, 56.250337], [2.459172, 56.249215], [2.457138, 56.248393], [2.45633, 56.248102], [2.455637, 56.247801], [2.454046, 56.247232], [2.452614, 56.246622], [2.451177, 56.245967], [2.448864, 56.244936], [2.447847, 56.244518], [2.446154, 56.243843], [2.444802, 56.243288], [2.443423, 56.242765], [2.442787, 56.2425], [2.442129, 56.242205], [2.441633, 56.242023], [2.440799, 56.241712], [2.440147, 56.2415], [2.438827, 56.240931], [2.437085, 56.240164], [2.4354, 56.239418], [2.433081, 56.238436], [2.430927, 56.2375], [2.429079, 56.236672], [2.427075, 56.235808], [2.424968, 56.234897], [2.422073, 56.233526], [2.420788, 56.232946], [2.419505, 56.232378], [2.418532, 56.231961], [2.417276, 56.231371], [2.416752, 56.231126], [2.416002, 56.230805], [2.415393, 56.230545], [2.414936, 56.230423], [2.413439, 56.229764], [2.41196, 56.229029], [2.410731, 56.228487], [2.408945, 56.227796], [2.407158, 56.227167], [2.405303, 56.226451], [2.402687, 56.225393], [2.400637, 56.224653], [2.398857, 56.224032], [2.397101, 56.223395], [2.395161, 56.222757], [2.392715, 56.221914], [2.391312, 56.221413], [2.389877, 56.2209], [2.387809, 56.220136], [2.386416, 56.219587], [2.383221, 56.218327], [2.38113, 56.217393], [2.379371, 56.216613], [2.376967, 56.21556], [2.37537, 56.214837], [2.374212, 56.214327], [2.373773, 56.214176], [2.372956, 56.213889], [2.372405, 56.213738], [2.371999, 56.2136], [2.371291, 56.213337], [2.369477, 56.212464], [2.36835, 56.211849], [2.367649, 56.21149], [2.366841, 56.211107], [2.364624, 56.210101], [2.36251, 56.20916], [2.3612, 56.208625], [2.360197, 56.208288], [2.358525, 56.207609], [2.357131, 56.207026], [2.356065, 56.206535], [2.355598, 56.206315], [2.354648, 56.205896], [2.353682, 56.205518], [2.352561, 56.205113], [2.35094, 56.204469], [2.349571, 56.20393], [2.347875, 56.203271], [2.346878, 56.202953], [2.346402, 56.202794], [2.345228, 56.202347], [2.344281, 56.20201], [2.343321, 56.201596], [2.342787, 56.201374], [2.341485, 56.200856], [2.339445, 56.200006], [2.338179, 56.199387], [2.337095, 56.198868], [2.335808, 56.198277], [2.334344, 56.197645], [2.332393, 56.196935], [2.331517, 56.19662], [2.330256, 56.196125], [2.329743, 56.195854], [2.328609, 56.195303], [2.327433, 56.194896], [2.325559, 56.194139], [2.324701, 56.193826], [2.323518, 56.19335], [2.322375, 56.19296], [2.320926, 56.19241], [2.319527, 56.191815], [2.318579, 56.191385], [2.317616, 56.191037], [2.31601, 56.190403], [2.31451, 56.189771], [2.313371, 56.189304], [2.312567, 56.189018], [2.311546, 56.188641], [2.310704, 56.188296], [2.30916, 56.187605], [2.308173, 56.18714], [2.307247, 56.18675], [2.306149, 56.186275], [2.304757, 56.185641], [2.303848, 56.18519], [2.302609, 56.184786], [2.30181, 56.184566], [2.300743, 56.184241], [2.299806, 56.183877], [2.296442, 56.182552], [2.293759, 56.181583], [2.291592, 56.180656], [2.29019, 56.179915], [2.28887, 56.179312], [2.288261, 56.179072], [2.286659, 56.178403], [2.28598, 56.178115], [2.285228, 56.177724], [2.284598, 56.177503], [2.283283, 56.177073], [2.281392, 56.176318], [2.279173, 56.175357], [2.277797, 56.174647], [2.275305, 56.1736], [2.272827, 56.172615], [2.270382, 56.171558], [2.267857, 56.170519], [2.265235, 56.16956], [2.262676, 56.16861], [2.260151, 56.167589], [2.257691, 56.166577], [2.255503, 56.165602], [2.252996, 56.164536], [2.251047, 56.163742], [2.246987, 56.162163], [2.245056, 56.161298], [2.243058, 56.160558], [2.240869, 56.159709], [2.238501, 56.15894], [2.236791, 56.158327], [2.232696, 56.156972], [2.230666, 56.156214], [2.22888, 56.155376], [2.22609, 56.154011], [2.224, 56.153063], [2.222389, 56.152352], [2.220794, 56.151605], [2.216966, 56.149865], [2.214573, 56.148826], [2.212099, 56.147777], [2.209705, 56.146782], [2.207135, 56.145768], [2.204709, 56.144791], [2.20225, 56.143814], [2.199711, 56.142854], [2.197253, 56.141868], [2.194714, 56.140926], [2.192159, 56.139993], [2.189799, 56.138935], [2.187295, 56.137903], [2.184871, 56.136827], [2.18235, 56.135822], [2.177373, 56.13383], [2.174965, 56.132781], [2.17259, 56.131741], [2.170053, 56.130771], [2.167484, 56.129801], [2.165028, 56.128805], [2.162504, 56.127944], [2.160066, 56.126912], [2.157758, 56.125764], [2.155222, 56.124785], [2.152652, 56.123878], [2.15018, 56.122882], [2.147613, 56.121849], [2.145111, 56.120807], [2.142935, 56.11957], [2.140596, 56.118422], [2.138095, 56.117353], [2.135675, 56.116249], [2.133586, 56.115453], [2.130904, 56.11458], [2.125621, 56.112809], [2.122989, 56.111865], [2.120456, 56.110831], [2.11563, 56.108793], [2.113162, 56.107715], [2.11076, 56.10662], [2.108275, 56.105614], [2.105903, 56.104581], [2.103484, 56.103485], [2.101066, 56.102381], [2.098614, 56.101374], [2.096131, 56.100296], [2.09373, 56.099182], [2.091262, 56.098176], [2.088041, 56.097047], [2.08626, 56.096225], [2.083891, 56.095129], [2.081491, 56.093997], [2.078977, 56.092927], [2.076511, 56.091866], [2.074013, 56.090806], [2.071366, 56.089932], [2.068621, 56.089139], [2.066088, 56.088203], [2.063553, 56.087366], [2.061037, 56.086404], [2.058651, 56.085424], [2.056199, 56.08448], [2.05362, 56.083499], [2.051072, 56.082545], [2.046124, 56.080548], [2.043658, 56.07954], [2.041144, 56.07855], [2.038582, 56.07756], [2.036003, 56.076614], [2.03344, 56.075678], [2.031024, 56.074608], [2.028625, 56.073547], [2.026226, 56.072494], [2.023794, 56.071478], [2.021265, 56.070487], [2.017461, 56.068718], [2.014345, 56.067424], [2.011205, 56.066046], [2.007591, 56.064414], [2.005747, 56.06363], [2.004079, 56.063022], [2.000976, 56.061914], [1.996966, 56.060303], [1.993834, 56.059008], [1.990453, 56.057538], [1.987153, 56.055972], [1.985428, 56.055179], [1.980124, 56.05288], [1.977356, 56.051658], [1.975143, 56.050758], [1.972783, 56.049832], [1.971645, 56.049463], [1.970089, 56.04893], [1.968828, 56.04846], [1.966844, 56.047636], [1.964652, 56.046636], [1.962638, 56.045765], [1.96072, 56.044918], [1.958, 56.043729], [1.957155, 56.043416], [1.955512, 56.042719], [1.949046, 56.039924], [1.948197, 56.039526], [1.94574, 56.038516], [1.942262, 56.037043], [1.939162, 56.035721], [1.936033, 56.034475], [1.933781, 56.033554], [1.930929, 56.032344], [1.929312, 56.031656], [1.928688, 56.031372], [1.926395, 56.030423], [1.92345, 56.029308], [1.919256, 56.027673], [1.917176, 56.026881], [1.91408, 56.025703], [1.912598, 56.025118], [1.911492, 56.024605], [1.908798, 56.023303], [1.907178, 56.022551], [1.904594, 56.021395], [1.90201, 56.020281], [1.900237, 56.019543], [1.898132, 56.018671], [1.895677, 56.017655], [1.893937, 56.01698], [1.891583, 56.01606], [1.888981, 56.015108], [1.88724, 56.014484], [1.885672, 56.01393], [1.883631, 56.01322], [1.882503, 56.01279], [1.880732, 56.012025], [1.878152, 56.010858], [1.87588, 56.009739], [1.872725, 56.00821], [1.870894, 56.007403], [1.86787, 56.006133], [1.865416, 56.005145], [1.862361, 56.003827], [1.85955, 56.002671], [1.857032, 56.001559], [1.854023, 56.00033], [1.851607, 55.999384], [1.850179, 55.998772], [1.848564, 55.99804], [1.84626, 55.997012], [1.844473, 55.996276], [1.841341, 55.994984], [1.840447, 55.994531], [1.839339, 55.994058], [1.83803, 55.993572], [1.836874, 55.993159], [1.834832, 55.99251], [1.833937, 55.992201], [1.833355, 55.991926], [1.831523, 55.991236], [1.829179, 55.990174], [1.827182, 55.989302], [1.825056, 55.988272], [1.823253, 55.987366], [1.821663, 55.986673], [1.820882, 55.986417], [1.819045, 55.985833], [1.816108, 55.984955], [1.813764, 55.984145], [1.81309, 55.983866], [1.811865, 55.983228], [1.809831, 55.982193], [1.808387, 55.981528], [1.807576, 55.981188], [1.806014, 55.98062], [1.805353, 55.980363], [1.804038, 55.979823], [1.8022, 55.978842], [1.800918, 55.978105], [1.799819, 55.977527], [1.798676, 55.976979], [1.797882, 55.976615], [1.79683, 55.976196], [1.795518, 55.975716], [1.793902, 55.975098], [1.792493, 55.97455], [1.790524, 55.973824], [1.78924, 55.973362], [1.788337, 55.973029], [1.787185, 55.972488], [1.786046, 55.971991], [1.784875, 55.97154], [1.783688, 55.971079], [1.781379, 55.970112], [1.780223, 55.969652], [1.779019, 55.969217], [1.777832, 55.968756], [1.77663, 55.968268], [1.775444, 55.967771], [1.774242, 55.967283], [1.773452, 55.966916], [1.77236, 55.966491], [1.771474, 55.966132], [1.770131, 55.965553], [1.768895, 55.965109], [1.768102, 55.964867], [1.766805, 55.96436], [1.765683, 55.963873], [1.763704, 55.963116], [1.761395, 55.962194], [1.75926, 55.961328], [1.758137, 55.960886], [1.756967, 55.960389], [1.755277, 55.959644], [1.753035, 55.958633], [1.751865, 55.958154], [1.750728, 55.957639], [1.749558, 55.957169], [1.74842, 55.956708], [1.747347, 55.956185], [1.746244, 55.955625], [1.745155, 55.95512], [1.742883, 55.954082], [1.741759, 55.953666], [1.740651, 55.953268], [1.739546, 55.952762], [1.738361, 55.952265], [1.737273, 55.95176], [1.736137, 55.951227], [1.733816, 55.950197], [1.732476, 55.949556], [1.730428, 55.948663], [1.728993, 55.948096], [1.727272, 55.947495], [1.725977, 55.947013], [1.723691, 55.946126], [1.72202, 55.945464], [1.720494, 55.944838], [1.718693, 55.944089], [1.716494, 55.943193], [1.714133, 55.942255], [1.712086, 55.941452], [1.709777, 55.94054], [1.707285, 55.939547], [1.704099, 55.938228], [1.70194, 55.937298], [1.700181, 55.936546], [1.696284, 55.934945], [1.692316, 55.93318], [1.690909, 55.932639], [1.688376, 55.93158], [1.685045, 55.930164], [1.682704, 55.9291], [1.678796, 55.927473], [1.676724, 55.926612], [1.674255, 55.925654], [1.671529, 55.924499], [1.669549, 55.9237], [1.666434, 55.922523], [1.665511, 55.922174], [1.663969, 55.921553], [1.66183, 55.920483], [1.659632, 55.919565], [1.656919, 55.918369], [1.655018, 55.917466], [1.651715, 55.916028], [1.648484, 55.91472], [1.646475, 55.91396], [1.642977, 55.912609], [1.640786, 55.911832], [1.639884, 55.911525], [1.638505, 55.910953], [1.635669, 55.90984], [1.632065, 55.908379], [1.629248, 55.90716], [1.62855, 55.90689], [1.626783, 55.906115], [1.624114, 55.904997], [1.621673, 55.904137], [1.619162, 55.903194], [1.614666, 55.901468], [1.613139, 55.900863], [1.612113, 55.900415], [1.611864, 55.90031], [1.611717, 55.900264], [1.611079, 55.900204], [1.610433, 55.900158], [1.610377, 55.900149], [1.610291, 55.900139], [1.610221, 55.900126], [1.609576, 55.899869], [1.609496, 55.899835], [1.609446, 55.899798], [1.609414, 55.899761], [1.608877, 55.89917], [1.608819, 55.899095], [1.608778, 55.899064], [1.608725, 55.899028], [1.607821, 55.898547], [1.60642, 55.897833], [1.605311, 55.897351], [1.604189, 55.896907], [1.602945, 55.896446], [1.602028, 55.896117], [1.600724, 55.895633], [1.599335, 55.89509], [1.597408, 55.894271], [1.596007, 55.893704], [1.59462, 55.893113], [1.593626, 55.89276], [1.592947, 55.892498], [1.591975, 55.892079], [1.591285, 55.891763], [1.590643, 55.891425], [1.587535, 55.889897], [1.586721, 55.889523], [1.5842, 55.888302], [1.581087, 55.8869], [1.577789, 55.885406], [1.576429, 55.884827], [1.574512, 55.884041], [1.572088, 55.883116], [1.569899, 55.88222], [1.568043, 55.881471], [1.565954, 55.880808], [1.564089, 55.880054], [1.560985, 55.878801], [1.557829, 55.877479], [1.556403, 55.876834], [1.554535, 55.875957], [1.55278, 55.875185], [1.55094, 55.874497], [1.549072, 55.873656], [1.547475, 55.8729], [1.545004, 55.871887], [1.54176, 55.870442], [1.53926, 55.869353], [1.536717, 55.868292], [1.533618, 55.867085], [1.532481, 55.8666], [1.52905, 55.865098], [1.525397, 55.863463], [1.522305, 55.862063], [1.520084, 55.861073], [1.516378, 55.859473], [1.515354, 55.859046], [1.514233, 55.858635], [1.512416, 55.85792], [1.510346, 55.857059], [1.507838, 55.856008], [1.505128, 55.854902], [1.502203, 55.853786], [1.498042, 55.852064], [1.495831, 55.851085], [1.494058, 55.850316], [1.490902, 55.848948], [1.487555, 55.847517], [1.485871, 55.846793], [1.483535, 55.84571], [1.480574, 55.844556], [1.479217, 55.844039], [1.477716, 55.843355], [1.475597, 55.842394], [1.473352, 55.841405], [1.47008, 55.839985], [1.468803, 55.839461], [1.466407, 55.838475], [1.464925, 55.837867], [1.461456, 55.836384], [1.459604, 55.835607], [1.457374, 55.834669], [1.454835, 55.833653], [1.452204, 55.832677], [1.450606, 55.832016], [1.448729, 55.831168], [1.44742, 55.8306], [1.445503, 55.829817], [1.444331, 55.829344], [1.442801, 55.828672], [1.441144, 55.827996], [1.439629, 55.827287], [1.437875, 55.826471], [1.435578, 55.825427], [1.43345, 55.824545], [1.429698, 55.823021], [1.428294, 55.822446], [1.427026, 55.821945], [1.423271, 55.82031], [1.422025, 55.819775], [1.418811, 55.818345], [1.416929, 55.817592], [1.412783, 55.815937], [1.410979, 55.815133], [1.408994, 55.814163], [1.407345, 55.813445], [1.402553, 55.811603], [1.398596, 55.810098], [1.394588, 55.808462], [1.389649, 55.806232], [1.388462, 55.805685], [1.385335, 55.804363], [1.382084, 55.802957], [1.378381, 55.801446], [1.373887, 55.799601], [1.371357, 55.798491], [1.368209, 55.797059], [1.365581, 55.7958], [1.361258, 55.793643], [1.359716, 55.792944], [1.356149, 55.791367], [1.35321, 55.79026], [1.349477, 55.788957], [1.347687, 55.788314], [1.345312, 55.787342], [1.341941, 55.785903], [1.339069, 55.784627], [1.336471, 55.783495], [1.333297, 55.782352], [1.331392, 55.781591], [1.328551, 55.780283], [1.326686, 55.779477], [1.321239, 55.777099], [1.318319, 55.77585], [1.316399, 55.774942], [1.313955, 55.773908], [1.31049, 55.7723], [1.308553, 55.771438], [1.305857, 55.770355], [1.303038, 55.769189], [1.30078, 55.76821], [1.2975, 55.766772], [1.295237, 55.765766], [1.293837, 55.765169], [1.292715, 55.7646], [1.291531, 55.764021], [1.289776, 55.763212], [1.288998, 55.762931], [1.287535, 55.762427], [1.286266, 55.761908], [1.282887, 55.76043], [1.281088, 55.759625], [1.279258, 55.758836], [1.277037, 55.757908], [1.275185, 55.757127], [1.273489, 55.756422], [1.269495, 55.754789], [1.266963, 55.753822], [1.265152, 55.753044], [1.26217, 55.75178], [1.256372, 55.749396], [1.252623, 55.747857], [1.250825, 55.747072], [1.248457, 55.745962], [1.246259, 55.745036], [1.243456, 55.743729], [1.241903, 55.742909], [1.239568, 55.741844], [1.237272, 55.740825], [1.234714, 55.739838], [1.232866, 55.738985], [1.228028, 55.736916], [1.225544, 55.735855], [1.223449, 55.734989], [1.220712, 55.733862], [1.218242, 55.732856], [1.21702, 55.732398], [1.214771, 55.731431], [1.212255, 55.73037], [1.209836, 55.729301], [1.207482, 55.728197], [1.205046, 55.727128], [1.202513, 55.72612], [1.200062, 55.725042], [1.197562, 55.724008], [1.195182, 55.723128], [1.193307, 55.722355], [1.190968, 55.721287], [1.188674, 55.720291], [1.18601, 55.719371], [1.185166, 55.719026], [1.182935, 55.718041], [1.178098, 55.715929], [1.175647, 55.714886], [1.170977, 55.712965], [1.168464, 55.711894], [1.165982, 55.710842], [1.163566, 55.709745], [1.161148, 55.708693], [1.15875, 55.707579], [1.156366, 55.706492], [1.151516, 55.70437], [1.149084, 55.703282], [1.144152, 55.701248], [1.141654, 55.700231], [1.139136, 55.699285], [1.136686, 55.698277], [1.134268, 55.697252], [1.131787, 55.696225], [1.129355, 55.695164], [1.126908, 55.694102], [1.124559, 55.692979], [1.122143, 55.691926], [1.11971, 55.690918], [1.117394, 55.689786], [1.115011, 55.688716], [1.112497, 55.687734], [1.110096, 55.686709], [1.107697, 55.685656], [1.10525, 55.684612], [1.102883, 55.683551], [1.1005, 55.682507], [1.098053, 55.681481], [1.095571, 55.680499], [1.092503, 55.679166], [1.089565, 55.677763], [1.068836, 55.669143], [1.048755, 55.660468], [1.042694, 55.657675], [1.028343, 55.651909], [1.02711, 55.651449], [1.025864, 55.650952], [1.024617, 55.650447], [1.023387, 55.649942], [1.022222, 55.64942], [1.021042, 55.648861], [1.019878, 55.648294], [1.018747, 55.647728], [1.017599, 55.647161], [1.016453, 55.646576], [1.015272, 55.646045], [1.012864, 55.644955], [1.011652, 55.644405], [1.009276, 55.643315], [1.008048, 55.642782], [1.006835, 55.64225], [1.00559, 55.641736], [1.004376, 55.64124], [1.003148, 55.640707], [1.000738, 55.639662], [0.999558, 55.639112], [0.998378, 55.638581], [0.997148, 55.638084], [0.995903, 55.63757], [0.99351, 55.636515], [0.992314, 55.635974], [0.989955, 55.634875], [0.988694, 55.634387], [0.98743, 55.633926], [0.986185, 55.633429], [0.984989, 55.632897], [0.983875, 55.632304], [0.982695, 55.631772], [0.981517, 55.631213], [0.980303, 55.630708], [0.979075, 55.630193], [0.977878, 55.629688], [0.97665, 55.629165], [0.975438, 55.628641], [0.974242, 55.6281], [0.971785, 55.627089], [0.970525, 55.626574], [0.969296, 55.626068], [0.968019, 55.62558], [0.966822, 55.625075], [0.965611, 55.624533], [0.963268, 55.623452], [0.960781, 55.622422], [0.959584, 55.621908], [0.958357, 55.621375], [0.957096, 55.620887], [0.955917, 55.620355], [0.953478, 55.619298], [0.952217, 55.61881], [0.95099, 55.618286], [0.94978, 55.617745], [0.948617, 55.617195], [0.947439, 55.616645], [0.946262, 55.616077], [0.945035, 55.615544], [0.943856, 55.615012], [0.942645, 55.614489], [0.941417, 55.613974], [0.939379, 55.613166], [0.937843, 55.612494], [0.935408, 55.611383], [0.932988, 55.610309], [0.930568, 55.609216], [0.928099, 55.608159], [0.925696, 55.607067], [0.923306, 55.60602], [0.919547, 55.604752], [0.916996, 55.603765], [0.914692, 55.602602], [0.912322, 55.601501], [0.909934, 55.600436], [0.907448, 55.599423], [0.904962, 55.598401], [0.902528, 55.597326], [0.896968, 55.595028], [0.894484, 55.593997], [0.89203, 55.592984], [0.889564, 55.591917], [0.887129, 55.59086], [0.884776, 55.589758], [0.87989, 55.58767], [0.877457, 55.586585], [0.874989, 55.585563], [0.872587, 55.584496], [0.867768, 55.582363], [0.865333, 55.581314], [0.862898, 55.580283], [0.860499, 55.57919], [0.85808, 55.57815], [0.855789, 55.577103], [0.85342, 55.576037], [0.850988, 55.574961], [0.848489, 55.573946], [0.84354, 55.571909], [0.841073, 55.570913], [0.838641, 55.569846], [0.836289, 55.56877], [0.833758, 55.567782], [0.831261, 55.566758], [0.828927, 55.565656], [0.826478, 55.564624], [0.824011, 55.563628], [0.821907, 55.562667], [0.820087, 55.561832], [0.81855, 55.561172], [0.813852, 55.559309], [0.813129, 55.559046], [0.812642, 55.558843], [0.812115, 55.55858], [0.811198, 55.558131], [0.80988, 55.557503], [0.808807, 55.557013], [0.80809, 55.5567], [0.805921, 55.555812], [0.804585, 55.555199], [0.803179, 55.554477], [0.801506, 55.553683], [0.799034, 55.552701], [0.796876, 55.551859], [0.794619, 55.550826], [0.793137, 55.550183], [0.792007, 55.549637], [0.790395, 55.54898], [0.787829, 55.547932], [0.78531, 55.546798], [0.783827, 55.546103], [0.782165, 55.54542], [0.780354, 55.544667], [0.778608, 55.543899], [0.776717, 55.542988], [0.77496, 55.542183], [0.773151, 55.541431], [0.771898, 55.540951], [0.76987, 55.540119], [0.768383, 55.539479], [0.765171, 55.538017], [0.764305, 55.537661], [0.763386, 55.537291], [0.762478, 55.536895], [0.761249, 55.536328], [0.760438, 55.535909], [0.759621, 55.535501], [0.758599, 55.534993], [0.757248, 55.534343], [0.7561, 55.533841], [0.7551, 55.533436], [0.753988, 55.533006], [0.752014, 55.532178], [0.750365, 55.531312], [0.748555, 55.530398], [0.747745, 55.530106], [0.746255, 55.529576], [0.744923, 55.529076], [0.743968, 55.528707], [0.74318, 55.528317], [0.742164, 55.527741], [0.741163, 55.527214], [0.73972, 55.526573], [0.738731, 55.526209], [0.738123, 55.52602], [0.736595, 55.52556], [0.735946, 55.525332], [0.734211, 55.524578], [0.731481, 55.52323], [0.727962, 55.521723], [0.725916, 55.520828], [0.724806, 55.520273], [0.721678, 55.518824], [0.719414, 55.517923], [0.718101, 55.517427], [0.716857, 55.516893], [0.714478, 55.515739], [0.713312, 55.515226], [0.711495, 55.514503], [0.707857, 55.512967], [0.703876, 55.511083], [0.702286, 55.510479], [0.69918, 55.509142], [0.696377, 55.507811], [0.69441, 55.506998], [0.692988, 55.50646], [0.691435, 55.505826], [0.688113, 55.504329], [0.686161, 55.503474], [0.68542, 55.503105], [0.68166, 55.501433], [0.679582, 55.500578], [0.676467, 55.499246], [0.673752, 55.498002], [0.671995, 55.497269], [0.669897, 55.496466], [0.668225, 55.495768], [0.667098, 55.495279], [0.665958, 55.494745], [0.663611, 55.493738], [0.661248, 55.492731], [0.660076, 55.492206], [0.658903, 55.491698], [0.656898, 55.490806], [0.654584, 55.48979], [0.653459, 55.489275], [0.652269, 55.488775], [0.651065, 55.488267], [0.648721, 55.487224], [0.647533, 55.486707], [0.64522, 55.485674], [0.644, 55.485165], [0.642813, 55.48463], [0.64164, 55.484131], [0.639865, 55.483368], [0.638724, 55.482861], [0.637565, 55.482398], [0.636393, 55.481881], [0.635204, 55.481382], [0.634064, 55.480866], [0.633046, 55.480423], [0.631939, 55.479881], [0.629643, 55.478839], [0.628486, 55.47834], [0.62728, 55.477867], [0.626171, 55.477369], [0.623809, 55.476379], [0.622669, 55.475863], [0.621577, 55.475338], [0.620422, 55.474804], [0.618063, 55.473769], [0.616893, 55.473243], [0.614506, 55.472145], [0.612118, 55.471082], [0.610899, 55.470564], [0.609665, 55.470046], [0.608414, 55.469527], [0.607165, 55.468999], [0.605947, 55.468472], [0.604795, 55.467892], [0.603626, 55.467348], [0.601191, 55.466275], [0.599955, 55.465784], [0.598721, 55.465256], [0.597504, 55.46472], [0.596318, 55.464193], [0.594052, 55.463214], [0.591536, 55.462185], [0.590332, 55.461694], [0.58913, 55.461176], [0.587944, 55.46064], [0.586792, 55.460087], [0.584389, 55.459033], [0.583154, 55.458523], [0.581954, 55.457978], [0.58077, 55.457424], [0.579568, 55.456897], [0.577145, 55.455914], [0.575957, 55.455423], [0.574773, 55.45487], [0.573589, 55.454325], [0.57242, 55.45378], [0.571237, 55.453217], [0.570051, 55.452699], [0.568817, 55.45219], [0.567597, 55.451707], [0.566396, 55.451189], [0.565147, 55.45066], [0.563931, 55.450115], [0.562714, 55.449596], [0.561465, 55.449077], [0.560199, 55.448575], [0.559013, 55.448066], [0.557812, 55.44753], [0.556643, 55.447003], [0.555492, 55.446441], [0.554341, 55.44587], [0.551939, 55.444824], [0.550738, 55.444296], [0.549585, 55.44377], [0.548449, 55.443226], [0.547296, 55.442681], [0.54621, 55.442102], [0.545027, 55.441548], [0.543811, 55.441011], [0.542576, 55.440528], [0.541309, 55.440044], [0.540108, 55.439535], [0.539003, 55.438991], [0.537868, 55.438429], [0.537025, 55.438008], [0.534481, 55.436968], [0.533232, 55.436466], [0.532031, 55.435947], [0.530912, 55.435386], [0.530254, 55.43504], [0.528174, 55.43391], [0.527008, 55.433347], [0.525742, 55.432863], [0.524458, 55.432424], [0.523125, 55.431992], [0.520622, 55.431069], [0.519421, 55.430551], [0.518238, 55.430014], [0.517021, 55.429504], [0.515819, 55.429012], [0.514636, 55.428476], [0.5135, 55.427941], [0.512379, 55.427414], [0.510044, 55.426333], [0.50886, 55.425815], [0.507643, 55.425314], [0.506375, 55.424865], [0.505091, 55.424435], [0.503886, 55.423987], [0.502717, 55.423478], [0.501551, 55.422924], [0.500464, 55.422362], [0.499379, 55.421783], [0.498226, 55.421265], [0.495846, 55.420165], [0.494707, 55.419692], [0.492321, 55.41869], [0.490549, 55.417971], [0.488037, 55.416966], [0.48561, 55.415874], [0.483214, 55.414782], [0.480833, 55.413708], [0.476024, 55.411568], [0.473625, 55.41053], [0.471177, 55.409535], [0.468749, 55.408469], [0.466335, 55.407431], [0.464037, 55.406304], [0.46169, 55.405213], [0.459293, 55.404165], [0.456846, 55.403162], [0.454575, 55.402108], [0.452196, 55.401042], [0.449702, 55.400028], [0.447257, 55.398989], [0.444829, 55.397949], [0.442402, 55.396883], [0.439893, 55.395868], [0.437564, 55.394768], [0.435168, 55.39372], [0.432727, 55.392644], [0.427895, 55.390448], [0.425499, 55.389399], [0.423057, 55.388341], [0.419972, 55.386935], [0.418025, 55.386056], [0.414928, 55.384655], [0.412781, 55.383737], [0.409588, 55.382368], [0.406532, 55.380989], [0.401618, 55.378871], [0.396866, 55.376712], [0.392271, 55.374573], [0.387599, 55.37264], [0.385225, 55.371537], [0.382869, 55.370417], [0.380344, 55.369455], [0.377838, 55.368439], [0.375514, 55.367302], [0.373093, 55.366207], [0.370638, 55.365156], [0.365822, 55.363057], [0.363483, 55.361919], [0.360959, 55.360947], [0.358594, 55.359979], [0.356336, 55.358816], [0.353929, 55.357757], [0.349185, 55.35556], [0.346763, 55.354491], [0.344175, 55.353554], [0.34223, 55.352918], [0.340594, 55.352137], [0.339406, 55.3515], [0.336947, 55.350763], [0.334773, 55.349304], [0.329981, 55.347141], [0.327579, 55.346037], [0.325151, 55.345085], [0.322824, 55.344036], [0.320568, 55.342872], [0.318131, 55.34182], [0.31327, 55.339763], [0.310803, 55.338702], [0.308201, 55.337763], [0.305845, 55.336687], [0.303588, 55.335558], [0.302396, 55.335001], [0.301116, 55.334578], [0.298641, 55.333624], [0.29642, 55.332442], [0.294112, 55.331357], [0.291511, 55.330428], [0.28909, 55.329394], [0.286794, 55.328147], [0.284596, 55.327092], [0.28208, 55.326074], [0.279626, 55.325066], [0.277114, 55.323995], [0.274598, 55.322986], [0.272093, 55.322031], [0.269777, 55.320873], [0.267509, 55.319699], [0.265122, 55.318647], [0.262724, 55.317533], [0.260482, 55.31644], [0.25798, 55.315458], [0.255556, 55.314495], [0.253204, 55.313409], [0.250855, 55.312277], [0.245935, 55.31026], [0.243589, 55.309102], [0.241253, 55.308006], [0.238724, 55.306978], [0.236275, 55.305943], [0.234134, 55.305004], [0.228682, 55.303865], [0.227475, 55.30355], [0.225291, 55.302781], [0.223889, 55.301877], [0.221592, 55.300467], [0.219614, 55.299469], [0.217396, 55.298286], [0.216124, 55.297556], [0.215084, 55.296876], [0.214012, 55.296213], [0.213663, 55.296021], [0.212786, 55.295632], [0.211603, 55.295092], [0.209565, 55.294207], [0.208823, 55.293915], [0.208, 55.29359], [0.207331, 55.293303], [0.20649, 55.292899], [0.205378, 55.292374], [0.202949, 55.291181], [0.20282, 55.291125], [0.202774, 55.291108], [0.202721, 55.291098], [0.202682, 55.291095], [0.201506, 55.291034], [0.20146, 55.291028], [0.201418, 55.291014], [0.201387, 55.290996], [0.200674, 55.290509], [0.20065, 55.290493], [0.200605, 55.290452], [0.200589, 55.290434], [0.200132, 55.289896], [0.200101, 55.289862], [0.200081, 55.289844], [0.200041, 55.289817], [0.199998, 55.289799], [0.19911, 55.289484], [0.19804, 55.289123], [0.195665, 55.28805], [0.194049, 55.287272], [0.192293, 55.286444], [0.191767, 55.286194], [0.190742, 55.285699], [0.188657, 55.284809], [0.186286, 55.283836], [0.184391, 55.283034], [0.182573, 55.28227], [0.180324, 55.281261], [0.178349, 55.280374], [0.17708, 55.279821], [0.175916, 55.279243], [0.174426, 55.278463], [0.173617, 55.278043], [0.173179, 55.277804], [0.172022, 55.277238], [0.17082, 55.276652], [0.169581, 55.276086], [0.168991, 55.275787], [0.167923, 55.275286], [0.166067, 55.274401], [0.164752, 55.273842], [0.162832, 55.273167], [0.160804, 55.272402], [0.158986, 55.271685], [0.156359, 55.270605], [0.155039, 55.270087], [0.153959, 55.269691], [0.152199, 55.269118], [0.151158, 55.268785], [0.149589, 55.26825], [0.148424, 55.267791], [0.147577, 55.267408], [0.145777, 55.266449], [0.144491, 55.265764], [0.14348, 55.265253], [0.14301, 55.265035], [0.142126, 55.264639], [0.140185, 55.263797], [0.137614, 55.262604], [0.136364, 55.26194], [0.134962, 55.261196], [0.133861, 55.260675], [0.132338, 55.260057], [0.131186, 55.259591], [0.130558, 55.259369], [0.129332, 55.258955], [0.128692, 55.258751], [0.128076, 55.258542], [0.1274, 55.258307], [0.12627, 55.257788], [0.124855, 55.256956], [0.123238, 55.256067], [0.122652, 55.255787], [0.120833, 55.25498], [0.120199, 55.254711], [0.119371, 55.254413], [0.118545, 55.254063], [0.116648, 55.253065], [0.11442, 55.251752], [0.113813, 55.251375], [0.113259, 55.251057], [0.112661, 55.250757], [0.111948, 55.250402], [0.111155, 55.250104], [0.109309, 55.24945], [0.107571, 55.248868], [0.105691, 55.248218], [0.104987, 55.247917], [0.103383, 55.247043], [0.102386, 55.246462], [0.098429, 55.244607], [0.095936, 55.243462], [0.095289, 55.243126], [0.094535, 55.242742], [0.094015, 55.242412], [0.092952, 55.241689], [0.092338, 55.241318], [0.091971, 55.241139], [0.091249, 55.240795], [0.089675, 55.240258], [0.088174, 55.23979], [0.087365, 55.239552], [0.086808, 55.239405], [0.086131, 55.23922], [0.08533, 55.23894], [0.084393, 55.238557], [0.081404, 55.237116], [0.079254, 55.236173], [0.078002, 55.235649], [0.076783, 55.235116], [0.075608, 55.234621], [0.074371, 55.234106], [0.073262, 55.233576], [0.072156, 55.233001], [0.071035, 55.232416], [0.069991, 55.231852], [0.068773, 55.231292], [0.067492, 55.230749], [0.06615, 55.230393], [0.06476, 55.230036], [0.063537, 55.229566], [0.062446, 55.228991], [0.06144, 55.228347], [0.060436, 55.227675], [0.059364, 55.227065], [0.058209, 55.226525], [0.057018, 55.226028], [0.055747, 55.225575], [0.054427, 55.225121], [0.05319, 55.224632], [0.052053, 55.224056], [0.050981, 55.223446], [0.049927, 55.222818], [0.048757, 55.22226], [0.047472, 55.221779], [0.046184, 55.221334], [0.044945, 55.220855], [0.043758, 55.220331], [0.042686, 55.219721], [0.041679, 55.219094], [0.040606, 55.218511], [0.039435, 55.21797], [0.038246, 55.217474], [0.037018, 55.217066], [0.035812, 55.216578], [0.034558, 55.216098], [0.033338, 55.215592], [0.032148, 55.215096], [0.030993, 55.214564], [0.029951, 55.213981], [0.028847, 55.213406], [0.027704, 55.212911], [0.026416, 55.212475], [0.025143, 55.212048], [0.023886, 55.211613], [0.022662, 55.21116], [0.021492, 55.21061], [0.0204, 55.21008], [0.019392, 55.20948], [0.018367, 55.20888], [0.017213, 55.208339], [0.016073, 55.207817], [0.014883, 55.207329], [0.013728, 55.206797], [0.012637, 55.206258], [0.010556, 55.205074], [0.009514, 55.2045], [0.008394, 55.203924], [0.007223, 55.203401], [0.00485, 55.202354], [0.003662, 55.201848], [0.002505, 55.201334], [0.001302, 55.200819], [0.000164, 55.200288], [-0.002258, 55.199257], [-0.003462, 55.198751], [-0.004714, 55.198262], [-0.005902, 55.197765], [-0.00826, 55.196727], [-0.009479, 55.19622], [-0.011806, 55.195192], [-0.012945, 55.19466], [-0.015116, 55.193654], [-0.016354, 55.193191], [-0.017621, 55.192692], [-0.020048, 55.191751], [-0.021301, 55.19128], [-0.02339, 55.190437], [-0.023982, 55.190152], [-0.02517, 55.189664], [-0.026487, 55.189209], [-0.027758, 55.188773], [-0.029045, 55.188336], [-0.030346, 55.187872], [-0.031611, 55.187365], [-0.032749, 55.186833], [-0.033948, 55.186263], [-0.036204, 55.185146], [-0.037422, 55.184631], [-0.038594, 55.184143], [-0.040968, 55.183131], [-0.042221, 55.182659], [-0.043504, 55.182177], [-0.045919, 55.181092], [-0.047104, 55.180559], [-0.048372, 55.180087], [-0.049607, 55.179597], [-0.050827, 55.179117], [-0.052109, 55.178626], [-0.053344, 55.178137], [-0.05458, 55.177657], [-0.055814, 55.177158], [-0.057031, 55.176633], [-0.058169, 55.17611], [-0.059385, 55.175576], [-0.061753, 55.174501], [-0.063629, 55.17377], [-0.066025, 55.173063], [-0.069453, 55.172095], [-0.070675, 55.171642], [-0.071876, 55.171126], [-0.073789, 55.170182], [-0.074677, 55.169763], [-0.075542, 55.169403], [-0.076805, 55.168883], [-0.077799, 55.168495], [-0.078677, 55.168145], [-0.079913, 55.167579], [-0.081795, 55.166664], [-0.082806, 55.166183], [-0.084408, 55.165421], [-0.085593, 55.164864], [-0.087133, 55.164238], [-0.0903, 55.162872], [-0.091353, 55.162482], [-0.092396, 55.162036], [-0.093603, 55.161497], [-0.094004, 55.161302], [-0.094831, 55.160953], [-0.096574, 55.16028], [-0.098004, 55.159751], [-0.098617, 55.159513], [-0.099708, 55.159089], [-0.102777, 55.157857], [-0.104653, 55.157085], [-0.106284, 55.156394], [-0.106931, 55.156153], [-0.107611, 55.155897], [-0.109366, 55.155121], [-0.111734, 55.153954], [-0.112821, 55.153395], [-0.114139, 55.152689], [-0.114513, 55.152485], [-0.115127, 55.152182], [-0.116262, 55.151678], [-0.116687, 55.151498], [-0.118022, 55.150974], [-0.119088, 55.150556], [-0.120082, 55.150161], [-0.120871, 55.149826], [-0.122798, 55.148968], [-0.124054, 55.148448], [-0.125448, 55.14791], [-0.127518, 55.147035], [-0.129573, 55.146114], [-0.130407, 55.145765], [-0.131876, 55.145218], [-0.132794, 55.14491], [-0.1337, 55.144605], [-0.134128, 55.144456], [-0.134627, 55.144264], [-0.135327, 55.143933], [-0.13648, 55.143336], [-0.137457, 55.142784], [-0.138399, 55.142196], [-0.139454, 55.141492], [-0.139822, 55.141268], [-0.140175, 55.141064], [-0.140766, 55.140788], [-0.141173, 55.140605], [-0.142012, 55.140255], [-0.144878, 55.138956], [-0.145971, 55.13844], [-0.14657, 55.138122], [-0.147403, 55.137674], [-0.148114, 55.137252], [-0.149629, 55.136327], [-0.150351, 55.135907], [-0.151099, 55.135506], [-0.153422, 55.134275], [-0.15521, 55.133354], [-0.15602, 55.132978], [-0.15765, 55.132337], [-0.158496, 55.132012], [-0.159332, 55.131676], [-0.159961, 55.131399], [-0.160431, 55.131182], [-0.161332, 55.130713], [-0.162192, 55.130223], [-0.16326, 55.129614], [-0.165252, 55.128648], [-0.16838, 55.127153], [-0.16966, 55.126456], [-0.170796, 55.125852], [-0.172696, 55.124842], [-0.173792, 55.124213], [-0.175835, 55.122937], [-0.17652, 55.122499], [-0.177374, 55.122004], [-0.178145, 55.121597], [-0.17868, 55.121326], [-0.180711, 55.120435], [-0.181528, 55.120113], [-0.181945, 55.119932], [-0.182331, 55.119756], [-0.182735, 55.119549], [-0.183093, 55.119349], [-0.183452, 55.119133], [-0.183904, 55.118819], [-0.184553, 55.118358], [-0.185235, 55.117907], [-0.185706, 55.117631], [-0.187371, 55.116711], [-0.189648, 55.115512], [-0.193277, 55.11369], [-0.194872, 55.112887], [-0.195602, 55.112495], [-0.19633, 55.112067], [-0.197064, 55.111633], [-0.197783, 55.111219], [-0.198135, 55.111027], [-0.199327, 55.110471], [-0.200184, 55.110114], [-0.201299, 55.109716], [-0.202257, 55.109426], [-0.203128, 55.109116], [-0.203702, 55.108899], [-0.204739, 55.108451], [-0.206287, 55.107676], [-0.207502, 55.107036], [-0.208258, 55.106655], [-0.20949, 55.106091], [-0.211169, 55.10546], [-0.212383, 55.10496], [-0.213488, 55.104463], [-0.214636, 55.103912], [-0.215781, 55.103333], [-0.217716, 55.102239], [-0.218678, 55.101728], [-0.219687, 55.101207], [-0.220711, 55.100685], [-0.221784, 55.10018], [-0.222924, 55.099736], [-0.224114, 55.099327], [-0.225238, 55.098875], [-0.226341, 55.098351], [-0.227282, 55.097778], [-0.228195, 55.097241], [-0.229162, 55.096595], [-0.230165, 55.096002], [-0.231202, 55.095444], [-0.232335, 55.09491], [-0.233516, 55.094402], [-0.234716, 55.093921], [-0.235916, 55.093448], [-0.237056, 55.093004], [-0.237995, 55.092593], [-0.239129, 55.092077], [-0.241256, 55.09104], [-0.241962, 55.090662], [-0.243013, 55.090095], [-0.24413, 55.089561], [-0.245281, 55.089063], [-0.24636, 55.088648], [-0.248429, 55.087873], [-0.249553, 55.087429], [-0.250704, 55.086931], [-0.251744, 55.086418], [-0.252704, 55.085889], [-0.253679, 55.085341], [-0.254713, 55.084765], [-0.255879, 55.084257], [-0.257052, 55.083839], [-0.258254, 55.083394], [-0.259488, 55.082956], [-0.260703, 55.082483], [-0.261872, 55.08202], [-0.263005, 55.081495], [-0.264141, 55.081006], [-0.265293, 55.080525], [-0.266508, 55.080052], [-0.267693, 55.079598], [-0.268927, 55.07916], [-0.270117, 55.078759], [-0.271382, 55.078321], [-0.272577, 55.077794], [-0.273614, 55.077254], [-0.274645, 55.076633], [-0.275673, 55.075985], [-0.276719, 55.075363], [-0.277863, 55.074793], [-0.279041, 55.074248], [-0.280286, 55.073765], [-0.281533, 55.0733], [-0.282701, 55.072828], [-0.283914, 55.072328], [-0.285078, 55.071811], [-0.286283, 55.071221], [-0.287452, 55.070758], [-0.288712, 55.070265], [-0.289939, 55.069755], [-0.291154, 55.069282], [-0.292332, 55.068746], [-0.293409, 55.068133], [-0.294421, 55.067476], [-0.295326, 55.066867], [-0.297451, 55.06565], [-0.29868, 55.065167], [-0.299925, 55.064683], [-0.301153, 55.064182], [-0.302364, 55.063664], [-0.303527, 55.063147], [-0.306049, 55.062188], [-0.307262, 55.061706], [-0.30844, 55.06117], [-0.310761, 55.060064], [-0.311924, 55.059547], [-0.314326, 55.058465], [-0.315504, 55.057939], [-0.316654, 55.057449], [-0.317801, 55.056923], [-0.319009, 55.056386], [-0.320139, 55.055843], [-0.321251, 55.055273], [-0.322141, 55.054862], [-0.323301, 55.054309], [-0.325549, 55.053277], [-0.326726, 55.052732], [-0.327838, 55.052162], [-0.32898, 55.051582], [-0.330039, 55.050951], [-0.331021, 55.05033], [-0.332111, 55.04968], [-0.333172, 55.049076], [-0.3342, 55.048445], [-0.335325, 55.047848], [-0.336455, 55.047313], [-0.337698, 55.046812], [-0.339057, 55.046397], [-0.340348, 55.045921], [-0.341511, 55.045403], [-0.342686, 55.044849], [-0.343893, 55.044304], [-0.345169, 55.043828], [-0.346383, 55.043363], [-0.349599, 55.042026], [-0.35213, 55.040953], [-0.353221, 55.040512], [-0.354604, 55.039918], [-0.356514, 55.039055], [-0.35813, 55.038382], [-0.360114, 55.037623], [-0.361607, 55.037024], [-0.362653, 55.036551], [-0.363375, 55.036274], [-0.364077, 55.035968], [-0.364901, 55.035545], [-0.367105, 55.034498], [-0.368478, 55.033882], [-0.369448, 55.033404], [-0.370077, 55.03312], [-0.370623, 55.032861], [-0.371973, 55.032248], [-0.374206, 55.031175], [-0.374826, 55.030865], [-0.37528, 55.030659], [-0.376387, 55.030156], [-0.377338, 55.029707], [-0.378116, 55.029315], [-0.379075, 55.028844], [-0.380057, 55.028387], [-0.381019, 55.027987], [-0.38199, 55.027584], [-0.382864, 55.027199], [-0.384596, 55.026452], [-0.386058, 55.025789], [-0.387119, 55.025306], [-0.388729, 55.024569], [-0.389262, 55.024337], [-0.390097, 55.023965], [-0.39204, 55.023096], [-0.393204, 55.022552], [-0.393972, 55.022199], [-0.395221, 55.021681], [-0.39577, 55.021445], [-0.396765, 55.021006], [-0.398129, 55.020373], [-0.399588, 55.019715], [-0.401505, 55.01883], [-0.402139, 55.018565], [-0.404209, 55.017622], [-0.405571, 55.016971], [-0.407246, 55.016198], [-0.41101, 55.014509], [-0.413019, 55.013492], [-0.414857, 55.012596], [-0.417326, 55.011417], [-0.418603, 55.010861], [-0.419608, 55.010412], [-0.420668, 55.009943], [-0.423709, 55.008543], [-0.424399, 55.008247], [-0.425726, 55.007663], [-0.427917, 55.006663], [-0.429342, 55.006053], [-0.430791, 55.005405], [-0.432871, 55.004478], [-0.435136, 55.003437], [-0.435683, 55.003187], [-0.436592, 55.002735], [-0.437596, 55.002253], [-0.439121, 55.001582], [-0.440387, 55.001056], [-0.441055, 55.000782], [-0.441828, 55.00044], [-0.442544, 55.000135], [-0.443694, 54.999649], [-0.444256, 54.999399], [-0.446701, 54.998311], [-0.447338, 54.997982], [-0.448092, 54.997606], [-0.448529, 54.997394], [-0.449793, 54.996815], [-0.450494, 54.996474], [-0.451351, 54.996081], [-0.451783, 54.995909], [-0.452433, 54.995624], [-0.452942, 54.995379], [-0.453508, 54.995102], [-0.454967, 54.994394], [-0.455712, 54.994041], [-0.456287, 54.993774], [-0.456991, 54.993467], [-0.457912, 54.993026], [-0.458711, 54.992648], [-0.459532, 54.992283], [-0.460366, 54.9919], [-0.460939, 54.991661], [-0.46135, 54.991486], [-0.461779, 54.99132], [-0.462286, 54.991114], [-0.463047, 54.990819], [-0.46352, 54.990646], [-0.464111, 54.990406], [-0.464818, 54.990088], [-0.465104, 54.989935], [-0.466605, 54.989179], [-0.467561, 54.988731], [-0.468083, 54.988475], [-0.4685, 54.988282], [-0.468895, 54.988094], [-0.46929, 54.987901], [-0.469672, 54.987716], [-0.471649, 54.986844], [-0.472378, 54.986541], [-0.473463, 54.986093], [-0.474068, 54.985815], [-0.475272, 54.985256], [-0.477199, 54.984323], [-0.478352, 54.983773], [-0.478927, 54.983513], [-0.479766, 54.983173], [-0.480352, 54.982924], [-0.481193, 54.982545], [-0.481981, 54.982176], [-0.483189, 54.981581], [-0.48414, 54.981092], [-0.485194, 54.98061], [-0.486871, 54.979844], [-0.488903, 54.978972], [-0.489732, 54.978634], [-0.491005, 54.978123], [-0.491769, 54.977769], [-0.494055, 54.97666], [-0.495738, 54.97583], [-0.496726, 54.975363], [-0.498073, 54.97472], [-0.499433, 54.97406], [-0.500481, 54.973586], [-0.501593, 54.973071], [-0.502499, 54.972669], [-0.503703, 54.972117], [-0.50439, 54.971781], [-0.506011, 54.971094], [-0.506952, 54.970651], [-0.50772, 54.970284], [-0.508715, 54.969819], [-0.510759, 54.968947], [-0.511905, 54.968438], [-0.512591, 54.968124], [-0.514982, 54.966986], [-0.516457, 54.966299], [-0.517091, 54.965958], [-0.517638, 54.965677], [-0.518782, 54.965115], [-0.519652, 54.964703], [-0.520558, 54.964304], [-0.52142, 54.96394], [-0.522047, 54.963669], [-0.5227, 54.963403], [-0.523127, 54.963246], [-0.523746, 54.962974], [-0.52501, 54.962365], [-0.526222, 54.961789], [-0.526909, 54.961465], [-0.527819, 54.96102], [-0.528358, 54.960772], [-0.529151, 54.960407], [-0.529559, 54.960214], [-0.53005, 54.959986], [-0.531067, 54.959523], [-0.531893, 54.959184], [-0.532334, 54.95901], [-0.532757, 54.958851], [-0.533197, 54.958685], [-0.533617, 54.958521], [-0.534062, 54.958357], [-0.534692, 54.958103], [-0.535421, 54.957761], [-0.536373, 54.95728], [-0.537076, 54.95691], [-0.537603, 54.956636], [-0.538318, 54.956245], [-0.538774, 54.956021], [-0.540196, 54.955378], [-0.54147, 54.954778], [-0.541884, 54.954562], [-0.542194, 54.954409], [-0.543235, 54.953959], [-0.545238, 54.953102], [-0.546456, 54.952595], [-0.547245, 54.952286], [-0.548063, 54.951933], [-0.549149, 54.951482], [-0.550548, 54.950809], [-0.551244, 54.95045], [-0.552498, 54.949747], [-0.552918, 54.949499], [-0.553303, 54.949317], [-0.553984, 54.949044], [-0.554821, 54.948675], [-0.55602, 54.948187], [-0.557239, 54.94766], [-0.558506, 54.947073], [-0.559349, 54.946665], [-0.560324, 54.946173], [-0.561631, 54.945493], [-0.564777, 54.944086], [-0.567201, 54.943052], [-0.569506, 54.941914], [-0.571891, 54.94081], [-0.574377, 54.939784], [-0.576767, 54.938733], [-0.57914, 54.937665], [-0.581267, 54.936469], [-0.583593, 54.935403], [-0.586113, 54.934411], [-0.588377, 54.933355], [-0.590774, 54.932214], [-0.5932, 54.931225], [-0.595587, 54.930147], [-0.597957, 54.929061], [-0.600241, 54.927878], [-0.602657, 54.92679], [-0.605214, 54.925869], [-0.607466, 54.924696], [-0.609771, 54.923584], [-0.611739, 54.922545], [-0.614184, 54.92143], [-0.616482, 54.920426], [-0.618806, 54.919349], [-0.620938, 54.918234], [-0.623281, 54.91704], [-0.625817, 54.916074], [-0.628192, 54.915059], [-0.630479, 54.913929], [-0.632782, 54.912808], [-0.634987, 54.911645], [-0.63736, 54.910612], [-0.639782, 54.909604], [-0.642315, 54.90862], [-0.64462, 54.907534], [-0.646879, 54.90645], [-0.649178, 54.905302], [-0.651501, 54.904243], [-0.653707, 54.903088], [-0.655947, 54.901987], [-0.65825, 54.900874], [-0.661942, 54.899385], [-0.662364, 54.899234], [-0.663215, 54.898875], [-0.665364, 54.897959], [-0.66602, 54.897673], [-0.667655, 54.896916], [-0.668918, 54.896334], [-0.669739, 54.895964], [-0.670577, 54.895573], [-0.671512, 54.895144], [-0.672207, 54.894818], [-0.673161, 54.894376], [-0.674043, 54.893969], [-0.674775, 54.893642], [-0.675675, 54.893272], [-0.676166, 54.893077], [-0.676738, 54.892848], [-0.677023, 54.892732], [-0.677505, 54.892534], [-0.678592, 54.892017], [-0.679107, 54.89174], [-0.679577, 54.891467], [-0.680294, 54.891073], [-0.680892, 54.890784], [-0.682176, 54.890157], [-0.683441, 54.889589], [-0.684006, 54.889349], [-0.684897, 54.888975], [-0.685619, 54.888667], [-0.686148, 54.888447], [-0.68696, 54.888097], [-0.688116, 54.887549], [-0.689176, 54.887034], [-0.690463, 54.886417], [-0.691648, 54.885852], [-0.692835, 54.885253], [-0.693593, 54.884876], [-0.694998, 54.884174], [-0.69715, 54.883168], [-0.698932, 54.882286], [-0.700276, 54.881546], [-0.700787, 54.881386], [-0.701418, 54.881131], [-0.702008, 54.880876], [-0.703866, 54.880034], [-0.705569, 54.879294], [-0.705962, 54.879149], [-0.706482, 54.878937], [-0.707483, 54.878521], [-0.708206, 54.878213], [-0.708785, 54.877928], [-0.709628, 54.877527], [-0.710575, 54.877055], [-0.711742, 54.876429], [-0.712391, 54.876079], [-0.7132, 54.875618], [-0.714166, 54.875095], [-0.715455, 54.874499], [-0.717038, 54.873825], [-0.717994, 54.873363], [-0.718733, 54.873059], [-0.719758, 54.872673], [-0.720601, 54.872378], [-0.721976, 54.871823], [-0.722887, 54.871412], [-0.724225, 54.870812], [-0.724731, 54.870576], [-0.726648, 54.869656], [-0.729064, 54.868637], [-0.731413, 54.867567], [-0.733908, 54.866555], [-0.736281, 54.865411], [-0.738544, 54.864254], [-0.740874, 54.863148], [-0.743204, 54.86205], [-0.745615, 54.860978], [-0.748004, 54.859852], [-0.750415, 54.858779], [-0.75276, 54.857681], [-0.755027, 54.856577], [-0.757439, 54.855531], [-0.759802, 54.85445], [-0.762161, 54.853343], [-0.764474, 54.852237], [-0.766884, 54.851173], [-0.769246, 54.850092], [-0.771573, 54.848977], [-0.773836, 54.847836], [-0.776196, 54.846747], [-0.778381, 54.845617], [-0.780739, 54.844501], [-0.783164, 54.843436], [-0.785421, 54.842412], [-0.787715, 54.841279], [-0.790014, 54.840209], [-0.792438, 54.839144], [-0.794723, 54.838083], [-0.797053, 54.837012], [-0.799362, 54.835887], [-0.80174, 54.834833], [-0.804084, 54.833752], [-0.806413, 54.832672], [-0.808873, 54.831659], [-0.812631, 54.829984], [-0.814199, 54.829228], [-0.814884, 54.828901], [-0.816007, 54.828329], [-0.817361, 54.82768], [-0.818478, 54.827179], [-0.81963, 54.826634], [-0.822273, 54.825323], [-0.823825, 54.824547], [-0.825081, 54.823923], [-0.826181, 54.823468], [-0.827629, 54.822873], [-0.828927, 54.822327], [-0.829875, 54.8219], [-0.831185, 54.821253], [-0.832677, 54.820522], [-0.834637, 54.819575], [-0.835422, 54.819199], [-0.837164, 54.818435], [-0.837862, 54.818144], [-0.840146, 54.817149], [-0.842796, 54.815945], [-0.843731, 54.81548], [-0.845224, 54.814666], [-0.846233, 54.814192], [-0.848347, 54.813225], [-0.848797, 54.81306], [-0.850202, 54.812641], [-0.851491, 54.812073], [-0.852009, 54.811812], [-0.852648, 54.811438], [-0.852993, 54.811268], [-0.8542, 54.810653], [-0.854829, 54.810272], [-0.855551, 54.809946], [-0.856569, 54.809561], [-0.857359, 54.80924], [-0.858415, 54.808695], [-0.859544, 54.808094], [-0.86043, 54.807701], [-0.862724, 54.806649], [-0.864284, 54.805911], [-0.865052, 54.805524], [-0.866266, 54.804931], [-0.867801, 54.804199], [-0.884311, 54.79652], [-0.891811, 54.792772], [-0.903757, 54.787531], [-0.923194, 54.778539], [-0.942211, 54.769573], [-0.943536, 54.768962], [-0.94468, 54.768442], [-0.946517, 54.76765], [-0.948554, 54.766677], [-0.949848, 54.765973], [-0.950809, 54.765463], [-0.951582, 54.765068], [-0.952418, 54.76466], [-0.953569, 54.764135], [-0.955549, 54.763291], [-0.956866, 54.762778], [-0.957927, 54.762313], [-0.9597, 54.761457], [-0.962222, 54.76016], [-0.971608, 54.75578], [-0.981575, 54.751181], [-0.990993, 54.746554], [-0.994772, 54.744675], [-1.00105, 54.74213], [-1.009258, 54.738665], [-1.020199, 54.732996], [-1.028257, 54.729625], [-1.04057, 54.725256], [-1.041289, 54.725096], [-1.04269, 54.724763], [-1.043343, 54.724576], [-1.043863, 54.724405], [-1.044757, 54.724095], [-1.046782, 54.723365], [-1.048497, 54.722805], [-1.052522, 54.721388], [-1.053415, 54.721062], [-1.053852, 54.720896], [-1.054286, 54.720724], [-1.054655, 54.720598], [-1.055202, 54.720423], [-1.056294, 54.720108], [-1.056736, 54.719967], [-1.057476, 54.7197], [-1.05791, 54.719524], [-1.058773, 54.719128], [-1.059235, 54.718917], [-1.060063, 54.718585], [-1.061128, 54.718232], [-1.062593, 54.717771], [-1.063243, 54.717605], [-1.064522, 54.717271], [-1.065752, 54.716838], [-1.067912, 54.716088], [-1.070153, 54.715285], [-1.070902, 54.715027], [-1.072094, 54.714674], [-1.072909, 54.714404], [-1.074003, 54.714024], [-1.074611, 54.713777], [-1.075123, 54.713554], [-1.076089, 54.71308], [-1.076613, 54.712813], [-1.076893, 54.712638], [-1.077761, 54.71217], [-1.078575, 54.711749], [-1.080177, 54.710854], [-1.081149, 54.710314], [-1.081943, 54.709871], [-1.083081, 54.709271], [-1.08495, 54.708134], [-1.086621, 54.707101], [-1.087496, 54.706607], [-1.088514, 54.706011], [-1.089907, 54.705147], [-1.090531, 54.704776], [-1.092015, 54.704045], [-1.092901, 54.703616], [-1.093802, 54.703153], [-1.094684, 54.702661], [-1.095442, 54.702197], [-1.097082, 54.701188], [-1.098388, 54.700464], [-1.100305, 54.69947], [-1.102199, 54.698432], [-1.103386, 54.697648], [-1.104095, 54.697172], [-1.105329, 54.696462], [-1.106562, 54.695741], [-1.107607, 54.695149], [-1.108819, 54.694485], [-1.110359, 54.693656], [-1.111302, 54.693089], [-1.112887, 54.692179], [-1.114046, 54.691541], [-1.115695, 54.69057], [-1.116361, 54.690184], [-1.118208, 54.689122], [-1.119955, 54.688084], [-1.120729, 54.687615], [-1.121953, 54.686973], [-1.123118, 54.686357], [-1.124572, 54.685521], [-1.126092, 54.684545], [-1.127175, 54.683885], [-1.128577, 54.683029], [-1.129944, 54.682256], [-1.131326, 54.681425], [-1.132064, 54.68093], [-1.133174, 54.680272], [-1.133897, 54.679858], [-1.136514, 54.678343], [-1.137958, 54.677539], [-1.141708, 54.675459], [-1.143172, 54.674561], [-1.144747, 54.67365], [-1.145362, 54.673267], [-1.146864, 54.672435], [-1.147549, 54.672024], [-1.149494, 54.670855], [-1.150191, 54.670467], [-1.151422, 54.669738], [-1.152346, 54.669274], [-1.154137, 54.668333], [-1.154942, 54.667951], [-1.156624, 54.667057], [-1.157517, 54.666473], [-1.158849, 54.665684], [-1.1614, 54.664275], [-1.162471, 54.663778], [-1.163517, 54.663191], [-1.164976, 54.662347], [-1.167262, 54.661155], [-1.179146, 54.654354]]]}}
]
}
