{
"type": "FeatureCollection",
"features": [
{"type": "Feature", "properties": {"ProjectID": "P5146"}, "geometry": {"type": "LineString", "coordinates": [[18.895605, 48.100349], [18.8968, 48.097884], [18.8995, 48.098403], [18.899973, 48.098456], [18.900247, 48.098272], [18.900631, 48.097804], [18.903293, 48.094382], [18.904424, 48.092908], [18.906307, 48.090392], [18.906675, 48.090097], [18.907165, 48.089869], [18.910249, 48.088676], [18.911188, 48.088353], [18.911961, 48.088106], [18.912744, 48.087902], [18.923654, 48.085495], [18.924312, 48.085422], [18.925053, 48.085411], [18.926965, 48.085625], [18.938099, 48.087264], [18.944558, 48.087319], [18.956598, 48.087409], [18.961796, 48.087291], [18.963392, 48.087135], [18.964712, 48.086884], [18.965903, 48.086576], [18.967158, 48.086168], [18.968199, 48.085752], [18.969006, 48.085293], [18.969917, 48.084643], [18.973778, 48.081552], [18.975408, 48.08009], [18.97562, 48.079893], [18.98276, 48.073571], [18.989206, 48.067697], [18.989546, 48.06727], [18.989761, 48.066832], [18.990788, 48.06462], [18.991078, 48.064152], [18.991236, 48.063932], [18.991386, 48.063771], [18.991593, 48.063646], [18.991864, 48.063542], [19.015731, 48.056021], [19.023643, 48.053479], [19.025381, 48.052568], [19.027839, 48.052016], [19.03082, 48.051389], [19.040815, 48.047601], [19.043792, 48.046389], [19.04473, 48.045601], [19.046377, 48.044012], [19.047112, 48.043079], [19.047798, 48.041889], [19.04867, 48.039999], [19.048957, 48.039642], [19.049708, 48.039077], [19.051142, 48.038008], [19.052144, 48.037215], [19.0529, 48.036871], [19.05592, 48.036171], [19.056457, 48.035752], [19.05767, 48.032817], [19.059107, 48.030059], [19.059445, 48.029808], [19.060209, 48.029584], [19.061365, 48.029365], [19.061746, 48.029201], [19.062003, 48.028993], [19.063807, 48.027337], [19.068376, 48.024778], [19.073556, 48.021875], [19.079349, 48.017799], [19.082411, 48.015366], [19.091301, 48.0119], [19.100807, 48.009115], [19.10345, 48.007033], [19.108245, 48.002399], [19.111741, 47.999016], [19.114342, 47.99641], [19.114447, 47.996316], [19.115715, 47.994849], [19.118503, 47.991619], [19.123931, 47.978564], [19.123208, 47.973466], [19.11946, 47.956021], [19.118982, 47.955386], [19.11891, 47.954018], [19.118352, 47.950504], [19.11852, 47.949919], [19.121292, 47.946728], [19.129932, 47.941533], [19.140129, 47.935401], [19.145303, 47.931792], [19.146377, 47.92987], [19.147015, 47.928752], [19.147419, 47.928193], [19.147638, 47.927565], [19.147569, 47.927082], [19.146549, 47.925912], [19.146303, 47.925409], [19.146679, 47.922141], [19.146956, 47.917286], [19.147281, 47.915539], [19.147348, 47.914589], [19.147814, 47.913271], [19.149984, 47.907906], [19.153596, 47.902575], [19.154718, 47.900543], [19.155547, 47.898209], [19.155782, 47.896001], [19.156582, 47.892591], [19.160991, 47.886986], [19.164645, 47.880483], [19.169051, 47.873707], [19.174857, 47.866937], [19.174928, 47.865857], [19.172767, 47.863935], [19.172796, 47.862159], [19.177744, 47.856051], [19.180108, 47.85361], [19.181655, 47.851035], [19.182857, 47.850109], [19.187768, 47.848247], [19.204361, 47.843115], [19.208188, 47.840808], [19.209124, 47.837695], [19.208043, 47.832878], [19.209365, 47.830558], [19.212174, 47.828227], [19.212806, 47.82681], [19.212954, 47.825607], [19.212183, 47.824385], [19.211254, 47.822946], [19.211151, 47.821444], [19.209274, 47.790681], [19.211624, 47.783684], [19.215915, 47.77279], [19.217503, 47.770964], [19.218741, 47.769885], [19.21942, 47.769076], [19.220057, 47.768214], [19.222352, 47.765467], [19.22527, 47.76327], [19.227817, 47.761005], [19.229015, 47.759473], [19.230218, 47.757459], [19.231653, 47.755449], [19.233544, 47.752799], [19.233707, 47.751826], [19.23238, 47.748071], [19.232322, 47.747196], [19.231689, 47.745964], [19.230848, 47.745155], [19.230808, 47.744249], [19.230474, 47.737259], [19.229209, 47.733758], [19.230059, 47.732783], [19.228908, 47.730557], [19.225871, 47.726748], [19.222941, 47.721605], [19.222907, 47.721008], [19.223155, 47.720433], [19.223722, 47.718971], [19.2238, 47.717525], [19.224219, 47.714473], [19.224562, 47.71176], [19.224578, 47.710419], [19.224924, 47.709782], [19.226089, 47.707603], [19.227941, 47.703541], [19.231423, 47.697862], [19.233445, 47.694063], [19.236815, 47.689875], [19.250001, 47.677517], [19.253033, 47.67398], [19.253367, 47.669347], [19.25669, 47.666171], [19.25652, 47.662965], [19.256234, 47.660551], [19.2563, 47.660109], [19.25667, 47.659701], [19.259442, 47.657968], [19.259867, 47.657493], [19.26147, 47.653914], [19.26526, 47.648894], [19.269491, 47.643149], [19.272221, 47.638233], [19.274698, 47.633635], [19.281627, 47.620312], [19.283375, 47.617291], [19.283794, 47.616799], [19.290859, 47.61071], [19.291042, 47.610367], [19.299512, 47.602482], [19.299548, 47.602428], [19.300678, 47.600781], [19.302398, 47.598966], [19.303476, 47.598009], [19.304706, 47.597101], [19.308535, 47.594378], [19.308936, 47.59414], [19.309861, 47.593424], [19.310463, 47.592958], [19.310845, 47.592678], [19.310853, 47.592628], [19.312251, 47.591525], [19.312355, 47.591474], [19.312494, 47.591442], [19.313102, 47.591392], [19.313225, 47.591353], [19.313322, 47.591293], [19.314336, 47.58986], [19.314257, 47.589414], [19.31432, 47.589293], [19.315745, 47.587394], [19.316423, 47.586715], [19.317563, 47.58548], [19.318638, 47.584449], [19.321403, 47.581906], [19.323526, 47.57995], [19.323887, 47.579531], [19.326413, 47.576824], [19.328065, 47.575409], [19.328359, 47.575134], [19.328446, 47.574531], [19.328494, 47.572197], [19.328504, 47.569414], [19.328387, 47.567308], [19.328342, 47.565999], [19.328276, 47.564904], [19.32833, 47.56289], [19.328342, 47.560479], [19.328294, 47.559098], [19.328214, 47.557907], [19.328214, 47.556873], [19.328232, 47.55448], [19.328197, 47.553802], [19.328254, 47.552484], [19.32832, 47.549969], [19.328309, 47.548718], [19.328351, 47.546888], [19.328848, 47.545286], [19.329076, 47.544908], [19.329211, 47.544445], [19.329599, 47.543437], [19.329805, 47.54287], [19.3315, 47.53723], [19.332011, 47.535453], [19.3318, 47.534926], [19.3309, 47.53336], [19.3307, 47.533027], [19.330039, 47.530739], [19.329636, 47.529332], [19.329229, 47.527987], [19.32904, 47.527383], [19.32845, 47.526238], [19.328506, 47.525683], [19.328145, 47.52369], [19.327735, 47.521726], [19.327511, 47.520709], [19.327213, 47.519732], [19.326066, 47.51768], [19.32462, 47.516489], [19.324474, 47.516112], [19.323886, 47.514614], [19.323752, 47.513621], [19.323833, 47.5127], [19.323964, 47.511614], [19.324184, 47.509185], [19.324015, 47.508817], [19.322821, 47.506036], [19.322273, 47.503501], [19.320885, 47.500262], [19.320338, 47.499384], [19.318553, 47.497013], [19.31836, 47.496938], [19.314559, 47.49637], [19.314318, 47.496281], [19.314104, 47.496128], [19.314062, 47.496035], [19.313821, 47.495362], [19.313427, 47.494495], [19.31303, 47.49372], [19.312961, 47.493141], [19.31367, 47.491439], [19.313964, 47.490786], [19.316894, 47.490251], [19.317916, 47.489573], [19.319505, 47.488397], [19.321881, 47.486806], [19.323113, 47.485949], [19.323801, 47.485237], [19.325254, 47.482701], [19.325825, 47.481277], [19.325847, 47.480286], [19.325836, 47.477444], [19.325772, 47.476934], [19.325895, 47.475995], [19.32611, 47.47535], [19.326159, 47.474924], [19.326303, 47.47389], [19.326518, 47.471547], [19.326747, 47.469145], [19.326725, 47.467471], [19.326653, 47.464934], [19.326697, 47.46408], [19.326684, 47.463159], [19.327137, 47.459876], [19.32739, 47.456855], [19.32758, 47.456129], [19.328591, 47.452828], [19.329127, 47.450616], [19.330404, 47.447119], [19.330223, 47.446122], [19.331662, 47.442959], [19.331734, 47.442174], [19.331273, 47.441293], [19.330813, 47.440185], [19.328465, 47.435956], [19.324087, 47.432646], [19.323408, 47.431873], [19.322913, 47.431269], [19.317716, 47.423837], [19.316429, 47.422004], [19.31381, 47.41872], [19.312874, 47.417773], [19.312514, 47.417331], [19.312605, 47.41697], [19.314148, 47.416144], [19.31431, 47.416018], [19.314344, 47.415881], [19.314142, 47.415337], [19.313724, 47.414649], [19.313007, 47.413301], [19.312624, 47.412868], [19.312118, 47.41248], [19.311436, 47.411683], [19.310608, 47.411148], [19.310348, 47.410894], [19.310111, 47.410579], [19.309828, 47.410188], [19.309344, 47.409473], [19.309047, 47.409229], [19.308035, 47.408363], [19.307431, 47.408071], [19.306983, 47.407917], [19.305359, 47.407405], [19.305077, 47.407401], [19.304839, 47.407526], [19.304437, 47.407902], [19.304452, 47.408179], [19.304314, 47.408381], [19.304056, 47.408448], [19.303839, 47.408389], [19.301911, 47.406464], [19.301185, 47.405766], [19.29968, 47.404319], [19.296031, 47.400894], [19.294284, 47.399485], [19.289271, 47.397157], [19.287681, 47.396341], [19.286545, 47.394022], [19.285399, 47.39224], [19.279855, 47.387412], [19.275478, 47.385673], [19.271272, 47.383746], [19.2678, 47.381967], [19.256553, 47.376707], [19.245502, 47.37226], [19.219238, 47.361912], [19.191848, 47.350682], [19.172454, 47.342646], [19.159254, 47.336762], [19.156819, 47.335564], [19.155037, 47.334347], [19.148129, 47.330445], [19.143663, 47.328585], [19.142427, 47.327966], [19.142243, 47.327757], [19.141533, 47.327441], [19.137445, 47.32582], [19.136196, 47.325349], [19.134676, 47.324861], [19.132998, 47.324464], [19.131906, 47.324142], [19.130806, 47.323708], [19.104911, 47.313635], [19.102128, 47.312862], [19.082815, 47.308766], [19.081247, 47.30837], [19.080015, 47.307981], [19.077107, 47.306733], [19.075082, 47.30588], [19.073338, 47.30538], [19.071292, 47.305068], [19.063571, 47.304469], [19.058814, 47.303495], [19.055257, 47.302753], [19.054211, 47.302501], [19.053059, 47.302129], [19.048492, 47.300171], [19.047994, 47.299985], [19.047247, 47.299773], [19.045457, 47.299486], [19.039254, 47.29873], [19.038893, 47.2987], [19.037336, 47.29866], [19.035429, 47.298609], [19.031916, 47.298488], [19.030529, 47.298362], [19.029147, 47.298164], [19.026662, 47.297675], [19.02629, 47.297642], [19.026029, 47.297643], [19.025789, 47.297679], [19.025532, 47.297753], [19.021793, 47.299395], [19.021662, 47.299425], [19.021504, 47.299428], [19.018958, 47.298928], [19.013206, 47.29756], [19.012885, 47.297543], [19.01278, 47.297557], [19.012523, 47.29759], [19.010223, 47.298179], [19.009843, 47.298285], [19.006922, 47.299636], [19.006664, 47.299727], [19.006329, 47.29981], [19.002479, 47.300312], [19.002393, 47.300322], [19.002368, 47.300325], [19.00221, 47.300306], [18.997996, 47.299298], [18.98889, 47.296412], [18.983453, 47.294686], [18.976184, 47.292007], [18.953051, 47.281883], [18.952391, 47.281704], [18.951418, 47.281659], [18.931329, 47.282828], [18.930976, 47.282857], [18.924153, 47.283814], [18.911659, 47.285724], [18.910074, 47.286164], [18.907107, 47.287446], [18.907051, 47.287486], [18.907038, 47.287521], [18.907039, 47.287582], [18.907159, 47.287893], [18.907139, 47.288695], [18.905907, 47.288809]]}}
]
}
