{
"type": "FeatureCollection",
"features": [
{"type": "Feature", "properties": {"ProjectID": "P5156", "location": "underground", "man_made": "pipeline", "substance": "oil", "usage": "transmission", "layer": "-1", "diameter": "36\"", "name": "Cushing MarketLink (Keystone Pipeline)", "operator": "TC Energy Corporation"}, "geometry": {"type": "LineString", "coordinates": [[-93.993461, 29.990912], [-93.993579, 29.9908], [-93.996888, 29.993616], [-93.999463, 29.992259], [-94.00376, 29.990916], [-94.00523, 29.990921], [-94.007134, 29.992389], [-94.013534, 29.997778], [-94.016989, 30.001058], [-94.017869, 30.000231], [-94.021431, 30.003335], [-94.02532, 30.005509], [-94.031816, 30.011218], [-94.0396, 30.00385], [-94.048183, 30.000426], [-94.048848, 29.999116], [-94.051423, 29.99776], [-94.056047, 29.991692], [-94.057796, 29.989016], [-94.07618, 29.989541], [-94.078588, 29.991478], [-94.081491, 29.991483], [-94.082231, 29.989285], [-94.087665, 29.989127], [-94.087665, 29.989982], [-94.087365, 29.990651], [-94.08744, 29.995037], [-94.097739, 29.996524], [-94.103233, 29.996454], [-94.103764, 29.997416], [-94.110035, 29.998327], [-94.129068, 30.001188], [-94.139866, 30.002819], [-94.150965, 30.00458], [-94.151545, 30.004129], [-94.152188, 30.004185], [-94.152945, 30.004974], [-94.155648, 30.006447], [-94.155809, 30.006958], [-94.169451, 30.014279], [-94.176596, 30.017716], [-94.182658, 30.020512], [-94.193162, 30.018933], [-94.193537, 30.019936], [-94.199647, 30.02349], [-94.206192, 30.023452], [-94.206192, 30.02813], [-94.2217, 30.037088], [-94.221915, 30.038579], [-94.224061, 30.03856], [-94.232416, 30.043295], [-94.233872, 30.044096], [-94.239575, 30.047801], [-94.24069, 30.048256], [-94.242085, 30.049176], [-94.248083, 30.052649], [-94.252771, 30.055026], [-94.255883, 30.057078], [-94.26166, 30.060482], [-94.263387, 30.060993], [-94.2663, 30.062706], [-94.275913, 30.068555], [-94.283724, 30.072743], [-94.283681, 30.081674], [-94.296132, 30.084069], [-94.300938, 30.084009], [-94.301931, 30.084473], [-94.30384, 30.084478], [-94.304693, 30.085309], [-94.307027, 30.086808], [-94.30825, 30.08679], [-94.312541, 30.090308], [-94.322884, 30.096119], [-94.326929, 30.096741], [-94.33887, 30.095543], [-94.346445, 30.09481], [-94.350371, 30.094086], [-94.352528, 30.093863], [-94.362506, 30.091942], [-94.370692, 30.090373], [-94.375466, 30.08795], [-94.385433, 30.085657], [-94.407492, 30.094402], [-94.408817, 30.094717], [-94.412556, 30.096128], [-94.414659, 30.097205], [-94.445191, 30.109276], [-94.45115, 30.111629], [-94.476591, 30.121703], [-94.477578, 30.121656], [-94.479064, 30.122714], [-94.492099, 30.127906], [-94.546194, 30.149117], [-94.561815, 30.155295], [-94.565914, 30.155518], [-94.568875, 30.156668], [-94.571965, 30.159024], [-94.577801, 30.161325], [-94.593272, 30.171603], [-94.625103, 30.192094], [-94.674502, 30.223881], [-94.674592, 30.223956], [-94.674702, 30.224086], [-94.681492, 30.234239], [-94.681496, 30.234244], [-94.682935, 30.236417], [-94.683834, 30.23828], [-94.683872, 30.238385], [-94.688673, 30.256558], [-94.689062, 30.257885], [-94.691179, 30.264186], [-94.691258, 30.264335], [-94.691667, 30.264942], [-94.691717, 30.265045], [-94.692782, 30.268194], [-94.693395, 30.270037], [-94.693406, 30.270144], [-94.693351, 30.27056], [-94.693361, 30.270668], [-94.695143, 30.275966], [-94.695567, 30.277174], [-94.699063, 30.286758], [-94.699393, 30.28748], [-94.699831, 30.28879], [-94.700219, 30.289872], [-94.706556, 30.307382], [-94.708072, 30.311532], [-94.709309, 30.314969], [-94.709863, 30.316556], [-94.721519, 30.350314], [-94.727014, 30.366278], [-94.730158, 30.375333], [-94.734168, 30.387009], [-94.736946, 30.395333], [-94.742369, 30.411744], [-94.742437, 30.41215], [-94.742448, 30.412513], [-94.743016, 30.451661], [-94.752402, 30.452888], [-94.752694, 30.45293], [-94.752815, 30.452962], [-94.752929, 30.453012], [-94.753034, 30.453075], [-94.756885, 30.456153], [-94.756903, 30.456179], [-94.756924, 30.457108], [-94.757014, 30.457194], [-94.772245, 30.469632], [-94.772292, 30.469645], [-94.77405, 30.469365], [-94.77437, 30.469517], [-94.776296, 30.473748], [-94.777204, 30.475814], [-94.777211, 30.475832], [-94.777179, 30.475902], [-94.777035, 30.476179], [-94.778192, 30.478485], [-94.779668, 30.481346], [-94.782336, 30.485936], [-94.783193, 30.487452], [-94.783205, 30.487469], [-94.783526, 30.487589], [-94.783539, 30.487606], [-94.784258, 30.488928], [-94.784782, 30.489962], [-94.788623, 30.499595], [-94.787742, 30.499856], [-94.78844, 30.501814], [-94.788628, 30.504287], [-94.788709, 30.506861], [-94.789315, 30.508456], [-94.794014, 30.516137], [-94.794819, 30.51823], [-94.794669, 30.521081], [-94.794443, 30.521821], [-94.795028, 30.525555], [-94.798365, 30.527708], [-94.804147, 30.542415], [-94.80993, 30.557226], [-94.810853, 30.559291], [-94.812178, 30.561259], [-94.820192, 30.570677], [-94.819425, 30.581318], [-94.818331, 30.59507], [-94.817451, 30.609596], [-94.816486, 30.62255], [-94.815874, 30.632512], [-94.814833, 30.644309], [-94.816271, 30.646146], [-94.814538, 30.647457], [-94.81316, 30.661947], [-94.812065, 30.673344], [-94.810778, 30.687083], [-94.809802, 30.699132], [-94.809179, 30.699492], [-94.808933, 30.702767], [-94.809662, 30.702951], [-94.809533, 30.706641], [-94.809029, 30.712877], [-94.80919, 30.714989], [-94.808986, 30.717157], [-94.808375, 30.720394], [-94.807667, 30.731895], [-94.806776, 30.742804], [-94.806004, 30.742998], [-94.805446, 30.749351], [-94.806154, 30.749784], [-94.805435, 30.758746], [-94.80551, 30.759465], [-94.805328, 30.760157], [-94.804893, 30.766283], [-94.805156, 30.766532], [-94.805118, 30.767232], [-94.804834, 30.767463], [-94.803386, 30.782502], [-94.803166, 30.783834], [-94.801197, 30.790599], [-94.800795, 30.794074], [-94.800966, 30.794714], [-94.800725, 30.795921], [-94.800419, 30.796502], [-94.799137, 30.805063], [-94.799598, 30.8056], [-94.799134, 30.805969], [-94.799352, 30.81367], [-94.799502, 30.814831], [-94.798906, 30.815453], [-94.799035, 30.816775], [-94.799931, 30.817402], [-94.800618, 30.822828], [-94.80072, 30.825929], [-94.800355, 30.826956], [-94.799674, 30.832216], [-94.798365, 30.840544], [-94.798493, 30.842516], [-94.798654, 30.851994], [-94.798687, 30.856691], [-94.798536, 30.857953], [-94.798965, 30.858736], [-94.79829, 30.863212], [-94.797667, 30.864197], [-94.796766, 30.871804], [-94.795607, 30.880846], [-94.794481, 30.888268], [-94.793215, 30.896904], [-94.792399, 30.902786], [-94.791627, 30.911449], [-94.790876, 30.912019], [-94.790795, 30.912613], [-94.79028, 30.913179], [-94.790173, 30.913902], [-94.790677, 30.91508], [-94.790956, 30.916226], [-94.790629, 30.918403], [-94.791305, 30.919056], [-94.790661, 30.925421], [-94.790361, 30.930004], [-94.790007, 30.938158], [-94.790114, 30.944314], [-94.789857, 30.946623], [-94.789245, 30.95092], [-94.78931, 30.95231], [-94.787711, 30.962991], [-94.787014, 30.968401], [-94.78622, 30.974794], [-94.784224, 30.983441], [-94.784074, 30.986329], [-94.783704, 30.996395], [-94.783275, 31.000492], [-94.780592, 31.003219], [-94.780474, 31.003504], [-94.780785, 31.007992], [-94.781252, 31.009946], [-94.780812, 31.011288], [-94.782395, 31.012562], [-94.782121, 31.015665], [-94.781445, 31.021927], [-94.781563, 31.026662], [-94.781553, 31.030072], [-94.780759, 31.030826], [-94.779686, 31.036287], [-94.780447, 31.038291], [-94.780319, 31.04013], [-94.780544, 31.0416], [-94.780405, 31.043558], [-94.780716, 31.044597], [-94.780866, 31.050655], [-94.780898, 31.054432], [-94.780608, 31.055599], [-94.780233, 31.060195], [-94.78078, 31.061362], [-94.780684, 31.064331], [-94.779965, 31.065084], [-94.779203, 31.06797], [-94.779042, 31.069477], [-94.779235, 31.071058], [-94.77725, 31.075441], [-94.776585, 31.078005], [-94.776768, 31.079447], [-94.778098, 31.080678], [-94.788752, 31.082094], [-94.791842, 31.082277], [-94.793977, 31.08451], [-94.812559, 31.092605], [-94.812859, 31.093505], [-94.814844, 31.094111], [-94.815123, 31.095342], [-94.813846, 31.108837], [-94.814404, 31.111097], [-94.814329, 31.112025], [-94.812162, 31.127354], [-94.81155, 31.133861], [-94.81095, 31.140496], [-94.807892, 31.143251], [-94.808519, 31.143761], [-94.805596, 31.14663], [-94.804866, 31.149889], [-94.808332, 31.151689], [-94.813911, 31.155729], [-94.818513, 31.166994], [-94.819983, 31.182094], [-94.82097, 31.190465], [-94.821346, 31.192934], [-94.821968, 31.195655], [-94.821635, 31.196077], [-94.822016, 31.197798], [-94.822564, 31.19789], [-94.825101, 31.208778], [-94.825042, 31.209168], [-94.823846, 31.210503], [-94.8273, 31.223069], [-94.82832, 31.22705], [-94.82877, 31.228115], [-94.830766, 31.229041], [-94.833105, 31.23094], [-94.834617, 31.232638], [-94.839649, 31.23905], [-94.840432, 31.241508], [-94.843576, 31.247672], [-94.844702, 31.251708], [-94.844627, 31.252882], [-94.845593, 31.257404], [-94.847353, 31.259467], [-94.847524, 31.260311], [-94.846601, 31.262274], [-94.846902, 31.263631], [-94.847513, 31.267043], [-94.848608, 31.273984], [-94.849842, 31.281733], [-94.850711, 31.287509], [-94.855013, 31.291268], [-94.859283, 31.292304], [-94.859278, 31.292923], [-94.860699, 31.292946], [-94.862421, 31.295765], [-94.861912, 31.299684], [-94.861772, 31.310858], [-94.867866, 31.318521], [-94.869272, 31.319034], [-94.872544, 31.318952], [-94.874228, 31.326137], [-94.875484, 31.327466], [-94.87764, 31.328823], [-94.882286, 31.334844], [-94.889002, 31.343265], [-94.890944, 31.345597], [-94.892381, 31.345652], [-94.893149, 31.347067], [-94.892532, 31.348451], [-94.892601, 31.349262], [-94.893213, 31.350238], [-94.894227, 31.350902], [-94.895123, 31.351021], [-94.901072, 31.358438], [-94.909215, 31.36868], [-94.919418, 31.381513], [-94.921349, 31.38345], [-94.921371, 31.391263], [-94.922642, 31.393062], [-94.923431, 31.393699], [-94.922884, 31.399821], [-94.920609, 31.402028], [-94.920588, 31.412101], [-94.92106, 31.412201], [-94.921113, 31.416294], [-94.921103, 31.420927], [-94.920577, 31.429194], [-94.919997, 31.438403], [-94.919375, 31.448335], [-94.918592, 31.460187], [-94.917777, 31.472999], [-94.916586, 31.474664], [-94.917648, 31.475972], [-94.917626, 31.478754], [-94.914236, 31.482954], [-94.917423, 31.487208], [-94.917347, 31.491426], [-94.917948, 31.492542], [-94.917476, 31.494353], [-94.917755, 31.505898], [-94.917873, 31.510398], [-94.917959, 31.516782], [-94.918313, 31.519078], [-94.918313, 31.521264], [-94.918485, 31.521932], [-94.919976, 31.524447], [-94.919649, 31.528471], [-94.919916, 31.528486], [-94.919911, 31.528553], [-94.919643, 31.528537], [-94.919128, 31.534986], [-94.918683, 31.535969], [-94.906093, 31.544034], [-94.905546, 31.546229], [-94.904548, 31.546841], [-94.899355, 31.558334], [-94.899387, 31.560034], [-94.90016, 31.561469], [-94.897563, 31.567219], [-94.895911, 31.571104], [-94.894291, 31.57572], [-94.89266, 31.582575], [-94.891963, 31.585235], [-94.891341, 31.58582], [-94.891448, 31.587479], [-94.891389, 31.59659], [-94.890332, 31.598249], [-94.890182, 31.603375], [-94.889731, 31.606628], [-94.889431, 31.607697], [-94.888766, 31.608492], [-94.887671, 31.611398], [-94.887446, 31.613376], [-94.887301, 31.613705], [-94.887301, 31.614888], [-94.886427, 31.618734], [-94.885091, 31.620488], [-94.884544, 31.620785], [-94.883283, 31.627377], [-94.883873, 31.628062], [-94.881417, 31.640649], [-94.879367, 31.651737], [-94.877865, 31.660231], [-94.878681, 31.661418], [-94.877179, 31.664952], [-94.875376, 31.664833], [-94.873123, 31.665144], [-94.87271, 31.666061], [-94.872646, 31.666774], [-94.870087, 31.670102], [-94.869588, 31.670805], [-94.869593, 31.672974], [-94.869368, 31.673412], [-94.869819, 31.685834], [-94.870001, 31.687495], [-94.870377, 31.689161], [-94.873917, 31.700951], [-94.87617, 31.70871], [-94.877425, 31.713072], [-94.877458, 31.715902], [-94.876642, 31.717289], [-94.876508, 31.722007], [-94.877399, 31.722527], [-94.877951, 31.725566], [-94.878488, 31.725648], [-94.878756, 31.72689], [-94.878852, 31.730293], [-94.87897, 31.737666], [-94.878809, 31.744655], [-94.87882, 31.74742], [-94.879367, 31.75221], [-94.879818, 31.756397], [-94.881191, 31.760155], [-94.882221, 31.760493], [-94.882683, 31.760402], [-94.883659, 31.761916], [-94.883369, 31.765455], [-94.886706, 31.773847], [-94.889233, 31.780272], [-94.889082, 31.781235], [-94.889436, 31.782206], [-94.890232, 31.782756], [-94.894109, 31.792552], [-94.898229, 31.803294], [-94.900932, 31.810004], [-94.902424, 31.813287], [-94.903711, 31.813742], [-94.904065, 31.817508], [-94.905771, 31.820662], [-94.907616, 31.822695], [-94.907037, 31.823616], [-94.907058, 31.825001], [-94.910513, 31.833497], [-94.91496, 31.844501], [-94.920352, 31.85784], [-94.924879, 31.869212], [-94.927701, 31.876328], [-94.931209, 31.884937], [-94.936702, 31.898401], [-94.9402, 31.907891], [-94.9452, 31.92177], [-94.948697, 31.931386], [-94.948354, 31.932615], [-94.948933, 31.933799], [-94.950553, 31.938734], [-94.952023, 31.942949], [-94.953257, 31.943514], [-94.955231, 31.94944], [-94.958686, 31.958807], [-94.960413, 31.960428], [-94.960778, 31.962021], [-94.960499, 31.963987], [-94.965177, 31.976674], [-94.968621, 31.986293], [-94.971013, 31.992809], [-94.971625, 31.993755], [-94.971748, 31.994965], [-94.976678, 32.008322], [-94.979296, 32.015781], [-94.981431, 32.016177], [-94.981484, 32.01811], [-94.980626, 32.019466], [-94.982944, 32.025869], [-94.98686, 32.036411], [-94.992368, 32.051509], [-94.992117, 32.051999], [-94.993093, 32.054649], [-94.993508, 32.0548], [-94.994627, 32.0577], [-94.996516, 32.062883], [-94.999326, 32.070265], [-95.000914, 32.074661], [-95.000979, 32.075116], [-95.002953, 32.080456], [-95.006869, 32.090856], [-95.010849, 32.102017], [-95.012984, 32.103017], [-95.013124, 32.108188], [-95.0144, 32.110868], [-95.014529, 32.112068], [-95.017941, 32.120901], [-95.019057, 32.125135], [-95.019636, 32.126325], [-95.020216, 32.128142], [-95.020216, 32.129178], [-95.02058, 32.130559], [-95.021964, 32.135411], [-95.023144, 32.140008], [-95.0247, 32.143823], [-95.025419, 32.147311], [-95.026578, 32.148193], [-95.026535, 32.151989], [-95.028756, 32.159292], [-95.028112, 32.159919], [-95.028595, 32.161717], [-95.029056, 32.16258], [-95.029528, 32.16496], [-95.029593, 32.166059], [-95.030322, 32.167575], [-95.031298, 32.171562], [-95.032213, 32.171402], [-95.034925, 32.181651], [-95.035751, 32.184639], [-95.037575, 32.187508], [-95.037403, 32.18847], [-95.038004, 32.190886], [-95.03853, 32.192665], [-95.04016, 32.199166], [-95.041738, 32.203941], [-95.042843, 32.205566], [-95.042853, 32.206882], [-95.042113, 32.2075], [-95.042285, 32.208852], [-95.04354, 32.213128], [-95.044055, 32.215633], [-95.043583, 32.21744], [-95.043926, 32.218747], [-95.044726, 32.219178], [-95.045037, 32.220049], [-95.045439, 32.220126], [-95.047499, 32.227179], [-95.049226, 32.228994], [-95.051436, 32.232815], [-95.051554, 32.237969], [-95.052499, 32.241245], [-95.052595, 32.245383], [-95.053872, 32.250201], [-95.055406, 32.251372], [-95.056007, 32.256498], [-95.058754, 32.260127], [-95.060824, 32.268701], [-95.063624, 32.273155], [-95.063699, 32.27769], [-95.062423, 32.2814], [-95.063614, 32.285346], [-95.065534, 32.292121], [-95.067444, 32.299086], [-95.066977, 32.299363], [-95.069134, 32.307157], [-95.06989, 32.307547], [-95.072508, 32.317004], [-95.074128, 32.322943], [-95.075995, 32.324248], [-95.076048, 32.328745], [-95.076392, 32.329887], [-95.076392, 32.331438], [-95.076928, 32.333396], [-95.077057, 32.336061], [-95.076612, 32.33646], [-95.078301, 32.342696], [-95.078012, 32.344627], [-95.07901, 32.346549], [-95.080233, 32.346961], [-95.081896, 32.35273], [-95.083046, 32.356802], [-95.084723, 32.363098], [-95.086552, 32.364036], [-95.086793, 32.365839], [-95.086391, 32.367239], [-95.09006, 32.380872], [-95.091407, 32.381647], [-95.091804, 32.383432], [-95.092378, 32.383767], [-95.092453, 32.390172], [-95.098783, 32.399159], [-95.097656, 32.40886], [-95.099577, 32.415653], [-95.10287, 32.427572], [-95.104737, 32.434635], [-95.106465, 32.436564], [-95.106508, 32.441517], [-95.109104, 32.450625], [-95.113235, 32.466114], [-95.114104, 32.467164], [-95.113953, 32.468721], [-95.115874, 32.476035], [-95.116839, 32.476424], [-95.117151, 32.476668], [-95.11803, 32.476994], [-95.117794, 32.482823], [-95.120262, 32.491791], [-95.120884, 32.492986], [-95.12097, 32.494235], [-95.123127, 32.502514], [-95.126088, 32.513598], [-95.126785, 32.516326], [-95.126603, 32.517131], [-95.127558, 32.52089], [-95.127504, 32.522744], [-95.128298, 32.524137], [-95.128791, 32.525223], [-95.13157, 32.526634], [-95.131366, 32.527629], [-95.131409, 32.534413], [-95.131495, 32.538149], [-95.132117, 32.540166], [-95.132225, 32.546922], [-95.131828, 32.547473], [-95.134617, 32.551941], [-95.137128, 32.557077], [-95.137417, 32.558759], [-95.136023, 32.563163], [-95.136344, 32.567892], [-95.141441, 32.569556], [-95.142481, 32.577729], [-95.145099, 32.580441], [-95.145968, 32.581725], [-95.14599, 32.585129], [-95.146789, 32.586896], [-95.146762, 32.594164], [-95.147352, 32.596315], [-95.149133, 32.60473], [-95.15137, 32.614816], [-95.151086, 32.615231], [-95.151059, 32.616867], [-95.151429, 32.618015], [-95.152148, 32.618159], [-95.152191, 32.618769], [-95.153505, 32.624905], [-95.154669, 32.630466], [-95.154691, 32.630828], [-95.154058, 32.631058], [-95.154519, 32.632599], [-95.152266, 32.636014], [-95.152352, 32.643892], [-95.154315, 32.645654], [-95.155839, 32.652881], [-95.155925, 32.654922], [-95.156912, 32.659493], [-95.159208, 32.665644], [-95.159186, 32.673058], [-95.159068, 32.680364], [-95.155227, 32.684148], [-95.155249, 32.68646], [-95.15866, 32.688347], [-95.158671, 32.694062], [-95.158414, 32.694875], [-95.15836, 32.696925], [-95.158682, 32.697719], [-95.158768, 32.700103], [-95.159508, 32.70431], [-95.159658, 32.706792], [-95.159733, 32.712019], [-95.159293, 32.712308], [-95.158285, 32.715296], [-95.158306, 32.719205], [-95.155967, 32.721732], [-95.156053, 32.729097], [-95.158553, 32.73102], [-95.162169, 32.734873], [-95.168499, 32.741876], [-95.17293, 32.746785], [-95.178455, 32.752714], [-95.178638, 32.753842], [-95.179099, 32.754609], [-95.179174, 32.758362], [-95.180311, 32.767736], [-95.181341, 32.776008], [-95.180966, 32.776514], [-95.181448, 32.780555], [-95.182028, 32.781132], [-95.182693, 32.786887], [-95.183165, 32.786986], [-95.18309, 32.790792], [-95.183862, 32.796645], [-95.185075, 32.805952], [-95.185761, 32.808567], [-95.188025, 32.811191], [-95.188497, 32.814699], [-95.188508, 32.816187], [-95.191062, 32.822922], [-95.193454, 32.829341], [-95.196404, 32.837121], [-95.199441, 32.845071], [-95.200106, 32.845513], [-95.200385, 32.846541], [-95.200138, 32.847009], [-95.200578, 32.848046], [-95.202316, 32.849371], [-95.203217, 32.852093], [-95.20282, 32.854283], [-95.206897, 32.865016], [-95.21136, 32.876965], [-95.214096, 32.881056], [-95.215137, 32.886804], [-95.215684, 32.889507], [-95.217401, 32.894624], [-95.218066, 32.895471], [-95.218205, 32.897002], [-95.218871, 32.898462], [-95.219729, 32.899786], [-95.220212, 32.901533], [-95.220426, 32.903299], [-95.22195, 32.907596], [-95.222636, 32.910036], [-95.223827, 32.912847], [-95.223421, 32.912968], [-95.225072, 32.917134], [-95.225576, 32.917161], [-95.227497, 32.923591], [-95.228312, 32.926194], [-95.229385, 32.927085], [-95.229439, 32.929337], [-95.231032, 32.93415], [-95.230876, 32.934794], [-95.231198, 32.935901], [-95.231284, 32.936856], [-95.235189, 32.940908], [-95.235275, 32.946508], [-95.236595, 32.950298], [-95.236348, 32.951126], [-95.238279, 32.95633], [-95.238751, 32.956492], [-95.240929, 32.962784], [-95.242023, 32.965395], [-95.24242, 32.966727], [-95.245038, 32.97076], [-95.247678, 32.974666], [-95.247774, 32.976124], [-95.248214, 32.976988], [-95.248235, 32.978779], [-95.248665, 32.98579], [-95.248858, 32.987095], [-95.249748, 32.991378], [-95.250725, 32.99649], [-95.251561, 33.001286], [-95.252366, 33.004705], [-95.252055, 33.00663], [-95.253418, 33.011381], [-95.254297, 33.016104], [-95.25463, 33.016635], [-95.25552, 33.018695], [-95.265595, 33.024164], [-95.265949, 33.032161], [-95.266421, 33.039284], [-95.267075, 33.041254], [-95.270616, 33.042738], [-95.273116, 33.048592], [-95.274135, 33.052163], [-95.279188, 33.058862], [-95.27921, 33.061434], [-95.279928, 33.063601], [-95.280368, 33.06521], [-95.284402, 33.067413], [-95.285443, 33.069022], [-95.286731, 33.070182], [-95.288512, 33.07252], [-95.291097, 33.075729], [-95.290829, 33.076143], [-95.295196, 33.081725], [-95.295743, 33.081797], [-95.297556, 33.084054], [-95.300453, 33.086472], [-95.301998, 33.089978], [-95.303092, 33.091443], [-95.304975, 33.093362], [-95.309336, 33.099775], [-95.311439, 33.101995], [-95.311643, 33.103181], [-95.311943, 33.103235], [-95.316042, 33.108331], [-95.319378, 33.111395], [-95.323359, 33.117263], [-95.327693, 33.122511], [-95.332307, 33.128055], [-95.34133, 33.138818], [-95.347166, 33.146454], [-95.354719, 33.157161], [-95.356328, 33.157511], [-95.357766, 33.159496], [-95.357959, 33.160888], [-95.359676, 33.163358], [-95.363034, 33.165765], [-95.363163, 33.167301], [-95.364107, 33.16854], [-95.364354, 33.169259], [-95.372937, 33.180663], [-95.375801, 33.183573], [-95.380383, 33.190082], [-95.385876, 33.19783], [-95.389405, 33.202768], [-95.395371, 33.211224], [-95.39978, 33.217274], [-95.407312, 33.225729], [-95.408986, 33.22782], [-95.410187, 33.229884], [-95.420852, 33.243883], [-95.422107, 33.245166], [-95.423137, 33.245803], [-95.423276, 33.246333], [-95.427096, 33.250631], [-95.426924, 33.250971], [-95.429435, 33.2536], [-95.430089, 33.255359], [-95.432932, 33.258642], [-95.434166, 33.258732], [-95.437664, 33.262868], [-95.44246, 33.26799], [-95.445678, 33.271381], [-95.447481, 33.273749], [-95.449616, 33.276978], [-95.456589, 33.286351], [-95.456622, 33.287077], [-95.458725, 33.289624], [-95.460988, 33.291875], [-95.461407, 33.29192], [-95.466417, 33.297965], [-95.470462, 33.30278], [-95.474474, 33.307882], [-95.480257, 33.315234], [-95.483068, 33.318668], [-95.487424, 33.32515], [-95.490224, 33.329112], [-95.492692, 33.332527], [-95.493904, 33.333415], [-95.495009, 33.335333], [-95.497262, 33.338578], [-95.497552, 33.340989], [-95.498593, 33.3421], [-95.500342, 33.343543], [-95.501103, 33.343687], [-95.507669, 33.350758], [-95.512776, 33.359684], [-95.517669, 33.366727], [-95.521488, 33.372094], [-95.522422, 33.372622], [-95.524406, 33.376547], [-95.529513, 33.382845], [-95.533526, 33.38891], [-95.538923, 33.395745], [-95.548203, 33.406878], [-95.559865, 33.420356], [-95.56906, 33.431889], [-95.571152, 33.434329], [-95.576441, 33.439347], [-95.583576, 33.447861], [-95.586076, 33.451594], [-95.588007, 33.454933], [-95.595206, 33.462711], [-95.597416, 33.465754], [-95.601085, 33.470802], [-95.604261, 33.474784], [-95.608982, 33.480422], [-95.610849, 33.48316], [-95.613027, 33.486722], [-95.616224, 33.491733], [-95.617747, 33.493916], [-95.617651, 33.494846], [-95.618906, 33.496296], [-95.619249, 33.498371], [-95.619689, 33.499964], [-95.622715, 33.500688], [-95.626148, 33.502907], [-95.627414, 33.504679], [-95.632317, 33.504804], [-95.634431, 33.505958], [-95.635139, 33.508964], [-95.637563, 33.513696], [-95.639763, 33.515324], [-95.638776, 33.516522], [-95.64105, 33.522408], [-95.641093, 33.52434], [-95.643003, 33.527113], [-95.647852, 33.531075], [-95.648636, 33.532586], [-95.651286, 33.537013], [-95.658624, 33.546357], [-95.66658, 33.557324], [-95.668382, 33.559559], [-95.672057, 33.564289], [-95.675774, 33.568754], [-95.679572, 33.573586], [-95.683118, 33.577675], [-95.684706, 33.579646], [-95.687351, 33.583534], [-95.69095, 33.588334], [-95.694904, 33.593307], [-95.697983, 33.597047], [-95.701969, 33.601971], [-95.705316, 33.606256], [-95.710841, 33.613078], [-95.712805, 33.615589], [-95.714808, 33.618074], [-95.717837, 33.622205], [-95.718963, 33.623455], [-95.720959, 33.625814], [-95.722965, 33.627886], [-95.725175, 33.631558], [-95.729992, 33.638583], [-95.732803, 33.639608], [-95.733007, 33.640857], [-95.73349, 33.641169], [-95.733565, 33.643643], [-95.736097, 33.646314], [-95.737588, 33.649494], [-95.740163, 33.653593], [-95.742105, 33.656361], [-95.745506, 33.660505], [-95.748864, 33.665291], [-95.751729, 33.669292], [-95.755785, 33.674444], [-95.7594, 33.678033], [-95.761197, 33.681037], [-95.764309, 33.683845], [-95.767103, 33.685845], [-95.770553, 33.687585], [-95.772682, 33.690103], [-95.772403, 33.693513], [-95.773187, 33.694664], [-95.773691, 33.696289], [-95.779796, 33.7006], [-95.779774, 33.702073], [-95.782478, 33.704233], [-95.785407, 33.706625], [-95.788819, 33.711801], [-95.791608, 33.716094], [-95.791662, 33.718736], [-95.796554, 33.725642], [-95.801983, 33.732477], [-95.804279, 33.73469], [-95.805641, 33.736903], [-95.807519, 33.739615], [-95.809622, 33.742907], [-95.812401, 33.747154], [-95.815415, 33.7514], [-95.820104, 33.758563], [-95.821306, 33.760284], [-95.822625, 33.761774], [-95.828505, 33.76709], [-95.83005, 33.767696], [-95.830972, 33.768767], [-95.831412, 33.769988], [-95.83822, 33.776766], [-95.839319, 33.777337], [-95.839958, 33.778322], [-95.841325, 33.77987], [-95.844802, 33.783379], [-95.850005, 33.789019], [-95.853277, 33.792318], [-95.853342, 33.796223], [-95.854212, 33.796952], [-95.854634, 33.814091], [-95.851021, 33.816586], [-95.85111, 33.82056], [-95.853943, 33.820515], [-95.871742, 33.830337], [-95.8807, 33.835257], [-95.881773, 33.835578], [-95.894026, 33.838322], [-95.898103, 33.842546], [-95.904679, 33.849666], [-95.909765, 33.855226], [-95.918069, 33.864536], [-95.920794, 33.867511], [-95.921685, 33.871796], [-95.922822, 33.875885], [-95.924517, 33.88122], [-95.926148, 33.88742], [-95.927092, 33.890617], [-95.92912, 33.892737], [-95.929109, 33.894099], [-95.934516, 33.900475], [-95.939183, 33.905756], [-95.946028, 33.91352], [-95.95386, 33.922432], [-95.95916, 33.928878], [-95.966939, 33.939711], [-95.974073, 33.948139], [-95.981712, 33.953595], [-95.981873, 33.95598], [-95.982603, 33.958134], [-95.984126, 33.960999], [-95.985607, 33.962796], [-95.991873, 33.970173], [-95.997119, 33.972789], [-96.002591, 33.978857], [-96.005101, 33.980663], [-96.005251, 33.98157], [-96.004812, 33.982273], [-96.004806, 33.983092], [-96.006898, 33.985867], [-96.01024, 33.989995], [-96.016366, 33.992948], [-96.016431, 33.997716], [-96.021388, 34.0042], [-96.024016, 34.006868], [-96.027718, 34.011022], [-96.027728, 34.012204], [-96.028286, 34.013414], [-96.031816, 34.018643], [-96.035228, 34.023676], [-96.03762, 34.026281], [-96.038457, 34.028495], [-96.04115, 34.032203], [-96.044583, 34.03568], [-96.049604, 34.040801], [-96.052533, 34.042445], [-96.055194, 34.045583], [-96.055967, 34.048517], [-96.059529, 34.052775], [-96.062222, 34.054899], [-96.063606, 34.057148], [-96.066835, 34.062019], [-96.071523, 34.068827], [-96.072435, 34.071076], [-96.073616, 34.072498], [-96.079624, 34.079998], [-96.085053, 34.087338], [-96.087295, 34.090634], [-96.088475, 34.091434], [-96.091039, 34.094739], [-96.092681, 34.097209], [-96.093915, 34.09895], [-96.096178, 34.102415], [-96.0965, 34.103783], [-96.100802, 34.110126], [-96.103377, 34.112187], [-96.105287, 34.115011], [-96.10548, 34.116637], [-96.110609, 34.123742], [-96.11769, 34.135341], [-96.133978, 34.154979], [-96.140993, 34.163949], [-96.146818, 34.171743], [-96.149962, 34.1814], [-96.156549, 34.189042], [-96.156442, 34.191154], [-96.156346, 34.199034], [-96.159489, 34.205494], [-96.160058, 34.208244], [-96.163062, 34.215475], [-96.1645, 34.219787], [-96.169703, 34.222244], [-96.169805, 34.224812], [-96.169783, 34.226272], [-96.167439, 34.228104], [-96.167407, 34.228436], [-96.167616, 34.229603], [-96.169301, 34.235027], [-96.170592, 34.238807], [-96.173799, 34.24823], [-96.173437, 34.248703], [-96.174048, 34.250769], [-96.17468, 34.250819], [-96.176255, 34.255717], [-96.176856, 34.258063], [-96.176387, 34.258786], [-96.176602, 34.261402], [-96.176458, 34.262433], [-96.177333, 34.265959], [-96.179456, 34.26885], [-96.179737, 34.271299], [-96.180217, 34.27284], [-96.18011, 34.274595], [-96.181088, 34.276077], [-96.180897, 34.280742], [-96.180939, 34.287952], [-96.180885, 34.294286], [-96.191544, 34.302857], [-96.192162, 34.308187], [-96.198245, 34.311567], [-96.198227, 34.323496], [-96.199239, 34.325862], [-96.202196, 34.332597], [-96.203979, 34.336047], [-96.209511, 34.34097], [-96.211415, 34.342827], [-96.21204, 34.345527], [-96.212041, 34.35069], [-96.217709, 34.360401], [-96.220054, 34.365697], [-96.222988, 34.371365], [-96.22751, 34.372646], [-96.231134, 34.380054], [-96.232831, 34.382652], [-96.233604, 34.383431], [-96.235428, 34.385663], [-96.235916, 34.388739], [-96.236436, 34.390391], [-96.23663, 34.392426], [-96.236507, 34.394372], [-96.237059, 34.396422], [-96.240803, 34.403568], [-96.248979, 34.418925], [-96.250384, 34.423071], [-96.252582, 34.425852], [-96.259021, 34.437947], [-96.261166, 34.438213], [-96.261477, 34.439611], [-96.261422, 34.442316], [-96.266756, 34.452289], [-96.268065, 34.453289], [-96.268638, 34.456], [-96.273612, 34.46442], [-96.276466, 34.468849], [-96.277453, 34.469778], [-96.278581, 34.471661], [-96.278393, 34.472537], [-96.283971, 34.482958], [-96.287677, 34.484415], [-96.288836, 34.486485], [-96.2889, 34.488554], [-96.290123, 34.491419], [-96.293624, 34.497114], [-96.293493, 34.500944], [-96.299896, 34.513231], [-96.303759, 34.5206], [-96.307541, 34.527835], [-96.31006, 34.530291], [-96.311109, 34.533253], [-96.312525, 34.534596], [-96.313555, 34.536859], [-96.313448, 34.538125], [-96.317297, 34.545727], [-96.318555, 34.548047], [-96.319649, 34.549107], [-96.319778, 34.550627], [-96.320939, 34.553298], [-96.323018, 34.557601], [-96.325165, 34.561377], [-96.326072, 34.562496], [-96.327587, 34.563443], [-96.336595, 34.568359], [-96.336507, 34.577955], [-96.338802, 34.58127], [-96.341369, 34.58734], [-96.343332, 34.591401], [-96.345087, 34.594558], [-96.348038, 34.596176], [-96.349754, 34.599232], [-96.349773, 34.601385], [-96.351808, 34.607238], [-96.352844, 34.609034], [-96.353785, 34.611885], [-96.353767, 34.612937], [-96.354208, 34.614428], [-96.354647, 34.615595], [-96.357125, 34.61911], [-96.357439, 34.619984], [-96.358098, 34.62216], [-96.358295, 34.62698], [-96.359206, 34.630167], [-96.361535, 34.635093], [-96.36655, 34.644145], [-96.367532, 34.646351], [-96.369238, 34.649961], [-96.3731, 34.657648], [-96.373701, 34.661196], [-96.376791, 34.668256], [-96.380037, 34.67632], [-96.380573, 34.679501], [-96.381163, 34.68082], [-96.38369, 34.686184], [-96.386383, 34.692192], [-96.386801, 34.695085], [-96.389129, 34.700263], [-96.390363, 34.700792], [-96.390674, 34.704894], [-96.390095, 34.707354], [-96.390009, 34.712787], [-96.3943, 34.717162], [-96.394773, 34.726024], [-96.394386, 34.727876], [-96.39385, 34.743041], [-96.393464, 34.748577], [-96.392788, 34.75049], [-96.392541, 34.756458], [-96.392423, 34.763165], [-96.392112, 34.773918], [-96.39105, 34.78117], [-96.3915, 34.782263], [-96.390932, 34.7834], [-96.390524, 34.790449], [-96.391758, 34.791902], [-96.392015, 34.792836], [-96.391983, 34.79377], [-96.391779, 34.794977], [-96.391135, 34.79629], [-96.390481, 34.797303], [-96.39076, 34.797665], [-96.39061, 34.798704], [-96.390309, 34.799427], [-96.390331, 34.801453], [-96.389859, 34.802078], [-96.390556, 34.804448], [-96.391125, 34.804757], [-96.391865, 34.808307], [-96.392284, 34.814711], [-96.391822, 34.817397], [-96.391768, 34.824109], [-96.391768, 34.836253], [-96.39179, 34.839318], [-96.391468, 34.843562], [-96.389312, 34.846336], [-96.389365, 34.850597], [-96.388657, 34.852111], [-96.386501, 34.855827], [-96.386597, 34.858116], [-96.384881, 34.859348], [-96.384687, 34.860854], [-96.384687, 34.865053], [-96.385546, 34.866479], [-96.385503, 34.868222], [-96.38458, 34.86897], [-96.38443, 34.876478], [-96.385857, 34.879057], [-96.387509, 34.881768], [-96.389011, 34.883088], [-96.389043, 34.885429], [-96.390148, 34.89144], [-96.390932, 34.897486], [-96.391114, 34.898999], [-96.393389, 34.900064], [-96.395856, 34.90515], [-96.396704, 34.907772], [-96.396843, 34.912505], [-96.396736, 34.916561], [-96.39599, 34.923805], [-96.396929, 34.925947], [-96.397659, 34.929809], [-96.398624, 34.9313], [-96.399128, 34.93155], [-96.399257, 34.932025], [-96.398935, 34.932571], [-96.397723, 34.934963], [-96.397026, 34.935121], [-96.395524, 34.939273], [-96.397712, 34.943679], [-96.400384, 34.948832], [-96.402605, 34.952772], [-96.404546, 34.956659], [-96.412657, 34.959851], [-96.416767, 34.969443], [-96.419792, 34.976406], [-96.421562, 34.980854], [-96.423172, 34.985478], [-96.42476, 34.990576], [-96.428879, 35.002749], [-96.430145, 35.005288], [-96.43007, 35.009243], [-96.430199, 35.018803], [-96.429791, 35.019418], [-96.429663, 35.025709], [-96.429899, 35.028696], [-96.429062, 35.031086], [-96.429631, 35.036119], [-96.431551, 35.039405], [-96.431701, 35.041996], [-96.431669, 35.046933], [-96.433171, 35.047987], [-96.432967, 35.052914], [-96.432978, 35.056216], [-96.433772, 35.059685], [-96.432999, 35.061073], [-96.432892, 35.066781], [-96.431433, 35.069494], [-96.431519, 35.076343], [-96.432356, 35.077002], [-96.432356, 35.078644], [-96.43153, 35.079127], [-96.431465, 35.081489], [-96.432581, 35.085413], [-96.433761, 35.088661], [-96.434544, 35.089864], [-96.434684, 35.09205], [-96.436036, 35.095724], [-96.436626, 35.097879], [-96.439072, 35.10035], [-96.438509, 35.102768], [-96.43801, 35.104813], [-96.436561, 35.10785], [-96.436765, 35.111966], [-96.436894, 35.116732], [-96.437634, 35.121462], [-96.438739, 35.125854], [-96.438943, 35.128482], [-96.439469, 35.130807], [-96.438734, 35.132189], [-96.437216, 35.13422], [-96.437291, 35.135572], [-96.438975, 35.137809], [-96.438718, 35.140836], [-96.43978, 35.144301], [-96.44029, 35.147499], [-96.442452, 35.149639], [-96.44362, 35.150767], [-96.442832, 35.154771], [-96.442752, 35.162793], [-96.44464, 35.171853], [-96.444018, 35.172554], [-96.444222, 35.175106], [-96.445005, 35.175536], [-96.445917, 35.180377], [-96.446663, 35.184888], [-96.447355, 35.189242], [-96.448385, 35.190697], [-96.449844, 35.192381], [-96.449908, 35.198737], [-96.448642, 35.211335], [-96.448824, 35.219293], [-96.448395, 35.242885], [-96.44802, 35.259532], [-96.448556, 35.269527], [-96.447773, 35.270272], [-96.448256, 35.277778], [-96.449082, 35.278339], [-96.449873, 35.289602], [-96.449913, 35.291316], [-96.44994, 35.291607], [-96.450112, 35.298402], [-96.450841, 35.308104], [-96.450831, 35.312534], [-96.45067, 35.317541], [-96.450949, 35.319747], [-96.452687, 35.322514], [-96.454403, 35.325709], [-96.455294, 35.326602], [-96.456152, 35.327048], [-96.457933, 35.329175], [-96.457987, 35.330838], [-96.460068, 35.331801], [-96.463362, 35.338129], [-96.464757, 35.340251], [-96.466055, 35.342872], [-96.467482, 35.34541], [-96.469821, 35.348727], [-96.470899, 35.351943], [-96.472144, 35.355364], [-96.47349, 35.357893], [-96.474643, 35.360251], [-96.476151, 35.363117], [-96.478179, 35.364591], [-96.478608, 35.365562], [-96.478608, 35.368336], [-96.478897, 35.36932], [-96.479906, 35.372006], [-96.480914, 35.373497], [-96.481799, 35.375807], [-96.4821, 35.379463], [-96.482652, 35.381068], [-96.483774, 35.384327], [-96.484616, 35.387091], [-96.484374, 35.390017], [-96.485201, 35.393108], [-96.485758, 35.394075], [-96.48733, 35.397744], [-96.489497, 35.398727], [-96.490007, 35.399838], [-96.491128, 35.403367], [-96.493156, 35.408679], [-96.494798, 35.411582], [-96.496133, 35.413904], [-96.499202, 35.419198], [-96.501643, 35.424068], [-96.505542, 35.426708], [-96.506454, 35.432338], [-96.50912, 35.434983], [-96.509292, 35.43788], [-96.510912, 35.441005], [-96.512382, 35.443269], [-96.513659, 35.447967], [-96.514458, 35.449925], [-96.515263, 35.452188], [-96.51677, 35.458214], [-96.517371, 35.464165], [-96.520472, 35.471252], [-96.520933, 35.473515], [-96.521882, 35.477547], [-96.522542, 35.480644], [-96.523508, 35.483772], [-96.524667, 35.488201], [-96.526351, 35.493041], [-96.527703, 35.498544], [-96.528701, 35.501688], [-96.52914, 35.504981], [-96.532091, 35.51092], [-96.533732, 35.514177], [-96.534762, 35.518037], [-96.537058, 35.523338], [-96.539783, 35.530611], [-96.543152, 35.539961], [-96.547133, 35.544824], [-96.547787, 35.545278], [-96.552508, 35.550865], [-96.552792, 35.557538], [-96.552862, 35.559879], [-96.554203, 35.562631], [-96.556563, 35.566427], [-96.556842, 35.567404], [-96.557958, 35.568714], [-96.557475, 35.569717], [-96.561263, 35.578348], [-96.564352, 35.584499], [-96.566863, 35.589621], [-96.567625, 35.590092], [-96.567625, 35.591008], [-96.568944, 35.594402], [-96.571702, 35.599994], [-96.573461, 35.603309], [-96.576165, 35.608447], [-96.577581, 35.611783], [-96.579319, 35.61607], [-96.582227, 35.617518], [-96.586647, 35.618669], [-96.587473, 35.619157], [-96.587967, 35.626544], [-96.588267, 35.635212], [-96.592376, 35.644533], [-96.597934, 35.657619], [-96.599554, 35.661271], [-96.60333, 35.670441], [-96.606753, 35.679392], [-96.609081, 35.68537], [-96.608491, 35.686468], [-96.609725, 35.690049], [-96.611152, 35.690738], [-96.611924, 35.692637], [-96.612579, 35.694119], [-96.616688, 35.700157], [-96.617997, 35.704008], [-96.616023, 35.707571], [-96.615958, 35.712232], [-96.619327, 35.714131], [-96.622331, 35.718425], [-96.625732, 35.723207], [-96.626687, 35.725594], [-96.629316, 35.726343], [-96.62968, 35.727301], [-96.631247, 35.731394], [-96.633103, 35.736149], [-96.634895, 35.740643], [-96.63586, 35.74336], [-96.6363, 35.744257], [-96.639497, 35.747522], [-96.640302, 35.747975], [-96.641171, 35.750204], [-96.642662, 35.75535], [-96.64307, 35.756604], [-96.643435, 35.758032], [-96.643703, 35.760086], [-96.644325, 35.762341], [-96.644851, 35.763882], [-96.64542, 35.764465], [-96.647544, 35.766729], [-96.647834, 35.767364], [-96.647801, 35.768992], [-96.648402, 35.769689], [-96.648424, 35.772422], [-96.649475, 35.775599], [-96.650623, 35.779412], [-96.653262, 35.787271], [-96.653992, 35.789821], [-96.653992, 35.794346], [-96.654099, 35.797157], [-96.656073, 35.798628], [-96.658455, 35.79868], [-96.659421, 35.799463], [-96.662511, 35.804005], [-96.663798, 35.804614], [-96.664581, 35.807068], [-96.66604, 35.811558], [-96.669796, 35.816456], [-96.671566, 35.819344], [-96.673315, 35.823503], [-96.675589, 35.829731], [-96.679248, 35.837785], [-96.681522, 35.838864], [-96.682842, 35.840055], [-96.683689, 35.842639], [-96.684532, 35.849713], [-96.685266, 35.851326], [-96.688346, 35.854561], [-96.688421, 35.858631], [-96.688549, 35.862918], [-96.689923, 35.869717], [-96.694268, 35.876446], [-96.698087, 35.88111], [-96.699842, 35.883283], [-96.701537, 35.88373], [-96.703017, 35.885882], [-96.703007, 35.887038], [-96.705249, 35.89005], [-96.707432, 35.892818], [-96.707405, 35.893852], [-96.70828, 35.895399], [-96.711381, 35.89755], [-96.712861, 35.901131], [-96.71388, 35.902183], [-96.715447, 35.902808], [-96.716648, 35.904642], [-96.723944, 35.911264], [-96.723515, 35.912341], [-96.726369, 35.915044], [-96.728933, 35.916425], [-96.728987, 35.918319], [-96.730413, 35.919657], [-96.730907, 35.921048], [-96.738771, 35.92448], [-96.742204, 35.927433], [-96.742623, 35.927894], [-96.750015, 35.92792], [-96.751324, 35.926669], [-96.751324, 35.926182]]}}
]
}
