{
"type": "FeatureCollection",
"features": [
{"type": "Feature", "properties": {"ProjectID": "P5197", "fid": 1}, "geometry": {"type": "MultiLineString", "coordinates": [[[57.114774, 48.585689], [57.113494, 48.590814], [57.134449, 48.592686], [57.14934, 48.613093], [57.203649, 48.613093], [57.33868, 48.658156], [57.523573, 48.687345], [57.835951, 48.773923], [57.846193, 48.773568], [57.98904, 48.811565], [58.030547, 48.813695], [58.041867, 48.81192], [58.067741, 48.799139], [58.090381, 48.798784], [58.158301, 48.78671], [58.281204, 48.653349], [58.279587, 48.651568], [58.346429, 48.584218], [58.391169, 48.458185], [58.677403, 48.370885], [58.67956, 48.366946], [58.810009, 48.332555], [58.960403, 48.247553], [59.102172, 48.078204], [59.135593, 48.090447], [59.167936, 48.048663], [59.214833, 48.04542], [59.384094, 47.97149], [59.498911, 47.911728], [59.627204, 47.875584], [59.665476, 47.875856], [59.670732, 47.87233], [59.703344, 47.87459], [59.71992, 47.870522], [59.774364, 47.830008], [59.784606, 47.824941], [59.786762, 47.815168], [59.780563, 47.812091], [59.785684, 47.788194], [59.780293, 47.759212], [59.794309, 47.747796], [60.07084, 47.687957], [60.167868, 47.692674], [60.358152, 47.675981], [60.599106, 47.550248], [60.608, 47.557706], [60.73225, 47.502383], [60.912022, 47.38773], [60.912561, 47.354144], [61.001504, 47.311217], [60.994496, 47.299338], [60.993418, 47.289832], [60.991532, 47.28581], [61.012555, 47.257098], [61.012555, 47.233312], [61.097724, 47.186441], [61.130067, 47.122659], [61.133031, 47.122475], [61.144082, 47.1045], [61.163488, 47.099546], [61.277766, 47.048517], [61.391639, 47.007272], [61.504704, 46.967283], [61.508478, 46.967742], [61.610358, 46.933613], [61.665206, 46.928736], [61.798215, 46.822152], [61.882307, 46.735771], [62.003592, 46.63926], [62.385237, 46.562595], [62.490891, 46.533307], [62.618106, 46.512908], [62.771195, 46.471715], [63.063358, 46.433834], [63.146911, 46.417857], [63.430988, 46.414141], [63.881093, 46.418972], [64.112883, 46.424546], [64.191045, 46.422316], [64.290229, 46.415999], [64.5328, 46.417486], [64.622821, 46.482666], [64.745454, 46.431791], [64.797203, 46.435692], [64.886415, 46.436806], [64.933043, 46.438478], [65.003658, 46.44795], [65.00258, 46.466053], [65.012283, 46.465867], [65.206339, 46.37185], [65.501737, 46.37966], [65.604965, 46.390072], [65.669583, 46.419947], [65.70927, 46.419855]]]}}
]
}
