{
"type": "FeatureCollection",
"features": [
{"type": "Feature", "properties": {"ProjectID": "P5192"}, "geometry": {"type": "LineString", "coordinates": [[71.38281, 19.43775], [71.41059, 19.43353], [71.46615, 19.4095], [71.53906, 19.37292], [71.60503, 19.34474], [71.91059, 19.20034], [71.95226, 19.18393], [72.07031, 19.12537], [72.19358, 19.07042], [72.25434, 19.03978], [72.30642, 19.0175], [72.57205, 18.89223], [72.58941, 18.87865], [72.64844, 18.81874], [72.66927, 18.80189], [72.68316, 18.79397], [72.71615, 18.79149], [72.74566, 18.79333], [72.77865, 18.80749], [72.80642, 18.8273], [72.82899, 18.8379], [72.91059, 18.86607], [72.9349, 18.86788]]}}
]
}
