{
"type": "FeatureCollection",
"features": [
{"type": "Feature", "properties": {"ProjectID": "P5206"}, "geometry": {"type": "LineString", "coordinates": [[121.935926, 30.078065], [121.938273, 30.078817], [121.939475, 30.079151], [121.940033, 30.07956], [121.940677, 30.080674], [121.942222, 30.083942], [121.942904, 30.089328], [121.939236, 30.092955], [121.941987, 30.094995], [121.93976, 30.097715], [121.941004, 30.102929], [121.94238, 30.104119], [121.946703, 30.103382], [121.949847, 30.105989], [121.948995, 30.109842], [121.959475, 30.11868], [121.967185, 30.125242], [121.972764, 30.128063], [121.971734, 30.129473], [121.973193, 30.133111], [121.973536, 30.134892], [121.969073, 30.135189], [121.96667, 30.138455], [121.964009, 30.138084]]}}
]
}
