{
"type": "FeatureCollection",
"features": [
{"type": "Feature", "properties": {"ProjectID": "P5216"}, "geometry": {"type": "LineString", "coordinates": [[52.2153, 54.9263], [52.08101, 54.88601], [51.44456, 55.03352], [51.34822, 55.04021], [51.24312, 55.05359], [50.87818, 55.18882], [50.58039, 55.16715], [50.53368, 55.17549], [50.39063, 55.19382], [50.27677, 55.19882], [50.2067, 55.22714], [50.09868, 55.23213], [49.98482, 55.23047], [49.93811, 55.24046], [49.84469, 55.35514], [49.81257, 55.3651], [49.75126, 55.40324], [49.66368, 55.41981], [49.60237, 55.44466], [49.4418, 55.4728], [49.28123, 55.53894], [49.2024, 55.57691], [49.16445, 55.61156], [48.82871, 55.57361], [48.74696, 55.57526], [48.72652, 55.60826], [48.63894, 55.65605], [48.49588, 55.64782], [48.25649, 55.66923], [48.12219, 55.72023], [48.05212, 55.72846], [47.94994, 55.80072], [47.71638, 55.85812], [47.36896, 55.79252], [47.05366, 55.91706], [47.00987, 55.91869], [46.93396, 55.89251], [46.81718, 55.87614], [46.67997, 55.88105], [46.62158, 55.88105], [46.6099, 55.90724], [46.47268, 55.92851], [46.36466, 55.91379], [46.2946, 55.89906], [46.07563, 55.88105], [45.82748, 55.99224], [45.6056, 55.92524], [45.38664, 55.91706], [45.31073, 55.94486], [45.22315, 55.92524], [45.19395, 55.92851], [45.08301, 55.89578], [45.06549, 55.87286], [44.91368, 55.84337], [44.88449, 55.83681], [44.71224, 55.87614], [44.65969, 55.87941], [44.63049, 55.91542], [44.40569, 56.02326], [44.10207, 56.12591]]}}
]
}
