{
"type": "FeatureCollection",
"features": [
{"type": "Feature", "properties": {"ProjectID": "P5211"}, "geometry": {"type": "LineString", "coordinates": [[50.55722, 53.11084], [50.50467, 52.95283], [50.38205, 52.86479], [49.65802, 52.79424], [49.38943, 52.71649], [49.02157, 52.53928], [48.54278, 52.25068], [48.51942, 52.20776], [48.28586, 52.04646], [48.19244, 52.02131], [47.99976, 51.94219], [47.77787, 51.94939], [47.67861, 51.90979], [47.51512, 51.87375], [47.35163, 51.81243], [47.13559, 51.7727], [46.37652, 51.52634], [46.16048, 51.34799], [46.06122, 51.3261], [46.01451, 51.26769], [46.00283, 51.24211], [45.95612, 51.2348], [45.94444, 51.1909], [45.9386, 51.13964], [45.9678, 51.10299], [45.89189, 50.98184], [45.81306, 50.9561], [45.71964, 50.95794], [45.66417, 50.93771], [45.57659, 50.93403], [45.45981, 50.84563], [45.45689, 50.8069], [45.34595, 50.72381], [45.27588, 50.67018], [45.25544, 50.6276], [45.13574, 50.56645], [45.01313, 50.52192], [44.94306, 50.46435], [44.9197, 50.4253], [44.80876, 50.37133], [44.72994, 50.34526], [44.65987, 50.03873], [44.61024, 49.80565], [44.58688, 49.73022], [44.56353, 49.66413], [44.51681, 49.61119], [44.48178, 49.55441], [44.4847, 49.48428], [44.46134, 49.41975], [44.43507, 49.08245], [44.3942, 48.93115], [44.35916, 48.83132], [44.25114, 48.61561], [44.32705, 48.45516], [44.365, 48.35438], [44.33581, 48.26506], [44.2453, 48.20283], [44.1694, 48.15805], [44.16648, 48.00592], [43.90664, 47.86509], [43.67746, 47.83669], [43.58258, 47.80238], [43.30815, 47.60788], [43.16801, 47.60197], [42.96949, 47.47189], [42.86147, 47.45018], [42.6571, 47.34544], [42.44398, 47.15718], [42.16371, 47.01803], [42.12576, 46.94433], [42.02942, 46.8885], [41.84841, 46.82861], [41.67324, 46.6345], [41.63529, 46.61245], [41.60025, 46.51208], [41.53602, 46.45781], [41.4572, 46.44171], [41.38713, 46.29466], [41.22364, 46.23209], [41.11562, 46.22401], [40.7682, 46.11685], [40.72441, 46.048], [40.65434, 46.00746], [40.5434, 45.99124], [40.42662, 45.95471], [40.16679, 45.90598]]}}
]
}
