{
"type": "FeatureCollection",
"features": [
{"type": "Feature", "properties": {"ProjectID": "P5239", "id": null}, "geometry": {"type": "MultiLineString", "coordinates": [[[13.633127, -12.362576], [13.623387, -12.382055], [13.613648, -12.401534], [13.603908, -12.421014], [13.603908, -12.440493], [13.584429, -12.450232], [13.584429, -12.469711], [13.57469, -12.48919], [13.56495, -12.50867], [13.56495, -12.528149], [13.56495, -12.547628], [13.56495, -12.567107], [13.56495, -12.586586], [13.57469, -12.606065], [13.57469, -12.625544], [13.584429, -12.645023], [13.594169, -12.664502], [13.603908, -12.683982], [13.603908, -12.703461], [13.613648, -12.72294], [13.623387, -12.742419], [13.633127, -12.761898], [13.633127, -12.781377], [13.642867, -12.800856], [13.662346, -12.810596], [13.672085, -12.830075], [13.681825, -12.849554], [13.691564, -12.869033], [13.711043, -12.878773], [13.730523, -12.898252], [13.750002, -12.907991], [13.769481, -12.907991], [13.78896, -12.907991], [13.808439, -12.907991], [13.827918, -12.898252], [13.847397, -12.888512], [13.866876, -12.878773], [13.886356, -12.878773], [13.905835, -12.878773], [13.925314, -12.888512], [13.935053, -12.907991], [13.954532, -12.917731], [13.964272, -12.93721], [13.974012, -12.956689], [13.993491, -12.966429], [14.00323, -12.985908], [14.022709, -12.995647], [14.042188, -13.005387], [14.061668, -13.005387], [14.081147, -13.015127], [14.100626, -13.015127], [14.120105, -13.015127], [14.139584, -13.024866], [14.159063, -13.034606], [14.178542, -13.044345], [14.223573, -13.068091], [14.236096, -13.068091], [14.242357, -13.068091], [14.248619, -13.064961], [14.254881, -13.06183], [14.261142, -13.058699], [14.267404, -13.052438], [14.270535, -13.046176], [14.276796, -13.043045], [14.279927, -13.036784], [14.286188, -13.036784], [14.29245, -13.033653], [14.295581, -13.027391], [14.301842, -13.02426], [14.308104, -13.02113], [14.314366, -13.014868], [14.317496, -13.008607], [14.323758, -13.005476], [14.326889, -12.999214], [14.33315, -12.999214], [14.339412, -12.996083], [14.345673, -12.992953], [14.351935, -12.989822], [14.358197, -12.986691], [14.364458, -12.98356], [14.37072, -12.980429], [14.376981, -12.977299], [14.386374, -12.974168], [14.392635, -12.974168], [14.398897, -12.971037], [14.405158, -12.967906], [14.41142, -12.967906], [14.417681, -12.964776], [14.423943, -12.961645], [14.430205, -12.961645], [14.436466, -12.961645], [14.442728, -12.961645], [14.448989, -12.958514], [14.455251, -12.958514], [14.461512, -12.958514], [14.467774, -12.958514], [14.474036, -12.955383], [14.480297, -12.955383], [14.486559, -12.955383], [14.49282, -12.955383], [14.502213, -12.955383], [14.508474, -12.958514], [14.514736, -12.961645], [14.520997, -12.961645], [14.53039, -12.964776], [14.536651, -12.967906], [14.542913, -12.971037], [14.549174, -12.974168], [14.555436, -12.977299], [14.561698, -12.977299], [14.567959, -12.980429], [14.574221, -12.98356], [14.580482, -12.986691], [14.586744, -12.989822], [14.593005, -12.992953], [14.599267, -12.996083], [14.605529, -13.002345], [14.61179, -13.005476], [14.618052, -13.005476], [14.624313, -13.005476], [14.633706, -13.005476], [14.639967, -13.005476], [14.646229, -13.005476], [14.65249, -13.002345], [14.658752, -12.999214], [14.665014, -12.996083], [14.671275, -12.992953], [14.677537, -12.989822], [14.683798, -12.986691], [14.69006, -12.986691], [14.696321, -12.98356], [14.702583, -12.980429], [14.708845, -12.977299], [14.715106, -12.974168], [14.721368, -12.971037], [14.727629, -12.967906], [14.733891, -12.964776], [14.740152, -12.961645], [14.746414, -12.961645], [14.752676, -12.958514], [14.758937, -12.952252], [14.765199, -12.949122], [14.77146, -12.945991], [14.777722, -12.94286], [14.783983, -12.939729], [14.790245, -12.936598], [14.796507, -12.933468], [14.802768, -12.930337], [14.80903, -12.924075], [14.815291, -12.920945], [14.821553, -12.914683], [14.824684, -12.908421], [14.830945, -12.905291], [14.830945, -12.899029], [14.834076, -12.892767], [14.840338, -12.889637], [14.843468, -12.883375], [14.843468, -12.877114], [14.84973, -12.870852], [14.855991, -12.867721], [14.859122, -12.86146], [14.862253, -12.855198], [14.868515, -12.852067], [14.874776, -12.848936], [14.881038, -12.845806], [14.887299, -12.842675], [14.893561, -12.839544], [14.899822, -12.839544], [14.906084, -12.839544], [14.915476, -12.839544], [14.921738, -12.839544], [14.928, -12.836413], [14.937392, -12.836413], [14.943653, -12.836413], [14.949915, -12.836413], [14.956177, -12.839544], [14.962438, -12.836413], [14.9687, -12.836413], [14.974961, -12.836413], [14.981223, -12.836413], [14.987484, -12.836413], [14.993746, -12.836413], [15.000008, -12.836413], [15.0094, -12.836413], [15.015662, -12.836413], [15.025054, -12.839544], [15.031315, -12.839544], [15.037577, -12.842675], [15.043839, -12.845806], [15.046969, -12.852067], [15.053231, -12.855198], [15.059493, -12.86146], [15.065754, -12.86146], [15.072016, -12.867721], [15.078277, -12.867721], [15.084539, -12.870852], [15.0908, -12.870852], [15.097062, -12.870852], [15.103324, -12.867721], [15.109585, -12.86459], [15.115847, -12.86459], [15.122108, -12.86459], [15.131501, -12.86146], [15.137762, -12.86146], [15.147154, -12.86146], [15.153416, -12.86146], [15.159678, -12.86146], [15.16907, -12.86146], [15.175332, -12.86146], [15.181593, -12.86459], [15.187855, -12.86459], [15.194116, -12.86459], [15.200378, -12.867721], [15.206639, -12.867721], [15.212901, -12.873983], [15.219163, -12.877114], [15.225424, -12.880244], [15.231686, -12.880244], [15.237947, -12.883375], [15.24734, -12.883375], [15.253601, -12.889637], [15.259863, -12.892767], [15.266124, -12.892767], [15.272386, -12.895898], [15.281778, -12.899029], [15.291171, -12.90216], [15.300563, -12.90216], [15.306825, -12.905291], [15.313086, -12.905291], [15.319348, -12.908421], [15.325609, -12.911552], [15.331871, -12.911552], [15.341263, -12.911552], [15.347525, -12.911552], [15.353786, -12.911552], [15.360048, -12.908421], [15.366309, -12.905291], [15.372571, -12.905291], [15.378833, -12.90216], [15.385094, -12.899029], [15.391356, -12.895898], [15.397617, -12.892767], [15.403879, -12.886506], [15.41014, -12.883375], [15.413271, -12.877114], [15.419533, -12.873983], [15.425794, -12.867721], [15.432056, -12.86459], [15.438318, -12.86146], [15.444579, -12.858329], [15.450841, -12.852067], [15.457102, -12.852067], [15.463364, -12.848936], [15.469625, -12.842675], [15.475887, -12.842675], [15.482149, -12.839544], [15.48841, -12.836413], [15.494672, -12.836413], [15.500933, -12.836413], [15.507195, -12.833283], [15.513456, -12.833283], [15.519718, -12.833283], [15.52598, -12.833283], [15.532241, -12.833283], [15.538503, -12.833283], [15.544764, -12.836413], [15.551026, -12.836413], [15.557287, -12.836413], [15.563549, -12.836413], [15.569811, -12.836413], [15.576072, -12.836413], [15.582334, -12.839544], [15.588595, -12.839544], [15.594857, -12.836413], [15.601118, -12.836413], [15.60738, -12.833283], [15.613642, -12.833283], [15.616772, -12.827021], [15.623034, -12.827021], [15.632426, -12.820759], [15.638688, -12.817629], [15.644949, -12.811367], [15.651211, -12.808236], [15.657473, -12.805105], [15.663734, -12.801975], [15.669996, -12.798844], [15.676257, -12.795713], [15.682519, -12.795713], [15.68878, -12.789452], [15.698173, -12.786321], [15.704434, -12.78319], [15.710696, -12.780059], [15.716957, -12.780059], [15.723219, -12.773798], [15.729481, -12.773798], [15.735742, -12.767536], [15.742004, -12.764405], [15.748265, -12.761274], [15.751396, -12.755013], [15.754527, -12.748751], [15.760788, -12.745621], [15.76705, -12.739359], [15.773312, -12.733097], [15.779573, -12.729967], [15.782704, -12.723705], [15.788966, -12.720574], [15.795227, -12.717443], [15.801489, -12.714313], [15.80775, -12.711182], [15.814012, -12.708051], [15.820273, -12.70492], [15.826535, -12.70179], [15.832797, -12.698659], [15.839058, -12.695528], [15.84532, -12.695528], [15.851581, -12.695528], [15.860974, -12.695528], [15.867235, -12.695528], [15.873497, -12.695528], [15.879758, -12.695528], [15.88602, -12.695528], [15.892281, -12.695528], [15.898543, -12.695528], [15.904805, -12.695528], [15.911066, -12.698659], [15.917328, -12.698659], [15.923589, -12.70179], [15.929851, -12.70179], [15.936112, -12.70492], [15.942374, -12.708051], [15.948636, -12.708051], [15.954897, -12.708051], [15.961159, -12.711182], [15.96742, -12.711182], [15.976813, -12.711182], [15.983074, -12.711182], [15.989336, -12.711182], [15.995597, -12.711182], [16.001859, -12.711182], [16.011251, -12.708051], [16.017513, -12.708051], [16.023774, -12.70492], [16.030036, -12.70179], [16.036298, -12.698659], [16.039428, -12.692397], [16.042559, -12.686136], [16.04569, -12.679874], [16.051952, -12.673612], [16.055082, -12.667351], [16.061344, -12.66422], [16.064475, -12.654828], [16.067605, -12.648566], [16.073867, -12.642305], [16.076998, -12.636043], [16.083259, -12.632912], [16.08639, -12.626651], [16.092652, -12.62352], [16.098913, -12.617258], [16.105175, -12.614128], [16.114567, -12.607866], [16.120829, -12.604735], [16.12709, -12.601604], [16.133352, -12.601604], [16.139614, -12.598474], [16.145875, -12.598474], [16.152137, -12.598474], [16.158398, -12.598474], [16.16466, -12.595343], [16.170921, -12.595343], [16.180314, -12.595343], [16.186575, -12.595343], [16.192837, -12.595343], [16.199098, -12.595343], [16.20536, -12.592212], [16.211622, -12.592212], [16.217883, -12.592212], [16.224145, -12.592212], [16.230406, -12.592212], [16.239799, -12.589081], [16.24606, -12.589081], [16.252322, -12.589081], [16.258583, -12.589081], [16.271107, -12.589081], [16.280499, -12.58595], [16.28676, -12.58595], [16.293022, -12.58595], [16.299284, -12.58282], [16.305545, -12.579689], [16.311807, -12.576558], [16.321199, -12.570297], [16.327461, -12.567166], [16.333722, -12.564035], [16.336853, -12.557773], [16.343115, -12.557773], [16.349376, -12.554643], [16.355638, -12.551512], [16.361899, -12.548381], [16.368161, -12.54525], [16.374422, -12.542119], [16.380684, -12.538989], [16.386946, -12.538989], [16.393207, -12.532727], [16.399469, -12.529596], [16.40573, -12.526466], [16.411992, -12.520204], [16.421384, -12.513942], [16.424515, -12.507681], [16.430777, -12.50455], [16.437038, -12.501419], [16.440169, -12.495158], [16.4433, -12.488896], [16.4433, -12.482635], [16.446431, -12.476373], [16.446431, -12.470111], [16.446431, -12.46385], [16.446431, -12.457588], [16.446431, -12.451327], [16.446431, -12.445065], [16.446431, -12.438804], [16.449561, -12.432542], [16.449561, -12.42628], [16.449561, -12.420019], [16.452692, -12.413757], [16.452692, -12.407496], [16.455823, -12.401234], [16.458954, -12.394973], [16.465215, -12.391842], [16.471477, -12.391842], [16.477738, -12.391842], [16.484, -12.391842], [16.490262, -12.394973], [16.496523, -12.398103], [16.502785, -12.401234], [16.509046, -12.404365], [16.515308, -12.407496], [16.521569, -12.410626], [16.527831, -12.413757], [16.534093, -12.416888], [16.537223, -12.42315], [16.543485, -12.42628], [16.549746, -12.429411], [16.556008, -12.432542], [16.56227, -12.435673], [16.568531, -12.435673], [16.574793, -12.435673], [16.581054, -12.432542], [16.587316, -12.429411], [16.587316, -12.42315], [16.590447, -12.416888], [16.590447, -12.410626], [16.593577, -12.404365], [16.596708, -12.398103], [16.596708, -12.391842], [16.599839, -12.38558], [16.599839, -12.379319], [16.606101, -12.373057], [16.606101, -12.366795], [16.612362, -12.360534], [16.615493, -12.354272], [16.618624, -12.348011], [16.624885, -12.34488], [16.628016, -12.338618], [16.634278, -12.332357], [16.640539, -12.322964], [16.646801, -12.313572], [16.656193, -12.301049], [16.662455, -12.291657], [16.668716, -12.285395], [16.674978, -12.276003], [16.681239, -12.272872], [16.68437, -12.26661], [16.687501, -12.260349], [16.690632, -12.254087], [16.700024, -12.247826], [16.706286, -12.247826], [16.712547, -12.241564], [16.718809, -12.241564], [16.72507, -12.238433], [16.731332, -12.235302], [16.737594, -12.235302], [16.743855, -12.232172], [16.750117, -12.232172], [16.756378, -12.229041], [16.76264, -12.229041], [16.768901, -12.229041], [16.775163, -12.229041], [16.784555, -12.229041], [16.793948, -12.229041], [16.800209, -12.229041], [16.806471, -12.229041], [16.812732, -12.232172], [16.815863, -12.238433], [16.818994, -12.244695], [16.822125, -12.250956], [16.822125, -12.257218], [16.825256, -12.26348], [16.825256, -12.269741], [16.828386, -12.276003], [16.831517, -12.282264], [16.837779, -12.288526], [16.84404, -12.291657], [16.850302, -12.294787], [16.856563, -12.297918], [16.862825, -12.301049], [16.869087, -12.301049], [16.875348, -12.301049], [16.88161, -12.301049], [16.887871, -12.301049], [16.894133, -12.301049], [16.900394, -12.301049], [16.906656, -12.301049], [16.912918, -12.301049], [16.919179, -12.301049], [16.925441, -12.301049], [16.931702, -12.301049], [16.937964, -12.30418], [16.944225, -12.30418], [16.950487, -12.30418], [16.956749, -12.30418], [16.96301, -12.30418], [16.969272, -12.30418], [16.975533, -12.301049], [16.981795, -12.301049], [16.988056, -12.301049], [16.994318, -12.301049], [17.00058, -12.301049], [17.006841, -12.301049], [17.013103, -12.301049], [17.019364, -12.297918], [17.025626, -12.297918], [17.031887, -12.294787], [17.038149, -12.288526], [17.044411, -12.288526], [17.050672, -12.285395], [17.060065, -12.285395], [17.069457, -12.282264], [17.075718, -12.279133], [17.085111, -12.276003], [17.091372, -12.276003], [17.097634, -12.276003], [17.103896, -12.272872], [17.110157, -12.272872], [17.116419, -12.272872], [17.12268, -12.269741], [17.128942, -12.269741], [17.135203, -12.269741], [17.141465, -12.26661], [17.147727, -12.26661], [17.153988, -12.26348], [17.16025, -12.260349], [17.166511, -12.260349], [17.172773, -12.257218], [17.179034, -12.254087], [17.185296, -12.250956], [17.191558, -12.247826], [17.194688, -12.241564], [17.20095, -12.241564], [17.207211, -12.238433], [17.213473, -12.235302], [17.219735, -12.232172], [17.222865, -12.22591], [17.229127, -12.22591], [17.232258, -12.219649], [17.235389, -12.213387], [17.24165, -12.210256], [17.244781, -12.203995], [17.247912, -12.197733], [17.251042, -12.191471], [17.257304, -12.18521], [17.260435, -12.178948], [17.266696, -12.172687], [17.272958, -12.166425], [17.276089, -12.160164], [17.28235, -12.153902], [17.288612, -12.14764], [17.301135, -12.138248], [17.310527, -12.131987], [17.316789, -12.128856], [17.31992, -12.122594], [17.326181, -12.116333], [17.332443, -12.113202], [17.341835, -12.10694], [17.351228, -12.103809], [17.357489, -12.097548], [17.363751, -12.094417], [17.370012, -12.091286], [17.376274, -12.088156], [17.382535, -12.085025], [17.388797, -12.081894], [17.395059, -12.075632], [17.40132, -12.072502], [17.407582, -12.069371], [17.413843, -12.063109], [17.420105, -12.063109], [17.423236, -12.056848], [17.429497, -12.053717], [17.435759, -12.050586], [17.44202, -12.047455], [17.448282, -12.044325], [17.454544, -12.044325], [17.460805, -12.038063], [17.467067, -12.034932], [17.473328, -12.031801], [17.482721, -12.028671], [17.488982, -12.02554], [17.495244, -12.02554], [17.501505, -12.022409], [17.507767, -12.022409], [17.514028, -12.022409], [17.52029, -12.019278], [17.529682, -12.019278], [17.539075, -12.019278], [17.548467, -12.016147], [17.554729, -12.016147], [17.56099, -12.013017], [17.567252, -12.009886], [17.573513, -12.009886], [17.579775, -12.006755], [17.586037, -12.006755], [17.592298, -12.006755], [17.59856, -12.006755], [17.604821, -12.003624], [17.611083, -12.003624], [17.617344, -12.003624], [17.623606, -12.000494], [17.629868, -12.000494], [17.636129, -11.997363], [17.642391, -11.994232], [17.648652, -11.991101], [17.654914, -11.991101], [17.661175, -11.991101], [17.667437, -11.991101], [17.673699, -11.991101], [17.67996, -11.994232], [17.686222, -11.997363], [17.692483, -12.000494], [17.698745, -12.003624], [17.705006, -12.006755], [17.708137, -12.013017], [17.714399, -12.016147], [17.72066, -12.019278], [17.726922, -12.02554], [17.733183, -12.028671], [17.739445, -12.028671], [17.745707, -12.034932], [17.751968, -12.034932], [17.75823, -12.038063], [17.764491, -12.041194], [17.770753, -12.044325], [17.777014, -12.047455], [17.783276, -12.050586], [17.789538, -12.050586], [17.795799, -12.053717], [17.802061, -12.056848], [17.808322, -12.059978], [17.814584, -12.06624], [17.820845, -12.06624], [17.827107, -12.072502], [17.833369, -12.075632], [17.83963, -12.078763], [17.845892, -12.081894], [17.852153, -12.085025], [17.858415, -12.088156], [17.864676, -12.091286], [17.870938, -12.094417], [17.88033, -12.097548], [17.886592, -12.103809], [17.892854, -12.10694], [17.899115, -12.110071], [17.905377, -12.113202], [17.911638, -12.113202], [17.9179, -12.116333], [17.924161, -12.119463], [17.933554, -12.122594], [17.939815, -12.125725], [17.946077, -12.128856], [17.952338, -12.128856], [17.9586, -12.131987], [17.964862, -12.135117], [17.971123, -12.138248], [17.977385, -12.141379], [17.983646, -12.14451], [17.989908, -12.14764], [17.996169, -12.150771], [18.002431, -12.153902], [18.008693, -12.153902], [18.014954, -12.157033], [18.021216, -12.157033], [18.027477, -12.157033], [18.033739, -12.157033], [18.04, -12.160164], [18.046262, -12.160164], [18.052524, -12.160164], [18.058785, -12.160164], [18.065047, -12.160164], [18.071308, -12.160164], [18.07757, -12.160164], [18.083831, -12.157033], [18.090093, -12.153902], [18.096355, -12.150771], [18.099485, -12.14451], [18.105747, -12.14451], [18.112009, -12.141379], [18.11827, -12.141379], [18.124532, -12.141379], [18.130793, -12.141379], [18.137055, -12.141379], [18.143316, -12.14764], [18.149578, -12.150771], [18.152709, -12.157033], [18.15584, -12.163294], [18.15897, -12.169556], [18.165232, -12.172687], [18.168363, -12.178948], [18.174624, -12.178948], [18.180886, -12.182079], [18.187147, -12.182079], [18.193409, -12.182079], [18.199671, -12.182079], [18.209063, -12.182079], [18.215324, -12.182079], [18.224717, -12.182079], [18.230978, -12.178948], [18.23724, -12.178948], [18.243502, -12.178948], [18.249763, -12.178948], [18.256025, -12.175818], [18.268548, -12.175818], [18.274809, -12.175818], [18.284202, -12.172687], [18.290463, -12.172687], [18.296725, -12.172687], [18.302986, -12.172687], [18.309248, -12.169556], [18.31864, -12.169556], [18.324902, -12.169556], [18.331164, -12.166425], [18.340556, -12.163294], [18.346817, -12.163294], [18.353079, -12.163294], [18.359341, -12.163294], [18.365602, -12.160164], [18.371864, -12.160164], [18.378125, -12.157033], [18.384387, -12.157033], [18.390648, -12.157033], [18.39691, -12.157033], [18.403172, -12.157033], [18.409433, -12.157033], [18.415695, -12.157033], [18.421956, -12.153902], [18.428218, -12.153902], [18.434479, -12.150771], [18.440741, -12.150771], [18.447003, -12.150771], [18.453264, -12.14764], [18.459526, -12.14764], [18.465787, -12.14764], [18.472049, -12.14451], [18.47831, -12.14451], [18.484572, -12.14451], [18.490834, -12.14764], [18.497095, -12.14764], [18.503357, -12.14764], [18.509618, -12.14764], [18.519011, -12.150771], [18.528403, -12.150771], [18.534665, -12.153902], [18.540926, -12.157033], [18.547188, -12.160164], [18.553449, -12.160164], [18.559711, -12.163294], [18.565972, -12.166425], [18.572234, -12.166425], [18.578496, -12.169556], [18.584757, -12.172687], [18.591019, -12.178948], [18.59728, -12.18521], [18.600411, -12.191471], [18.606673, -12.194602], [18.612934, -12.197733], [18.619196, -12.200864], [18.625457, -12.200864], [18.631719, -12.203995], [18.637981, -12.207125], [18.644242, -12.207125], [18.650504, -12.210256], [18.656765, -12.210256], [18.663027, -12.210256], [18.669288, -12.210256], [18.67555, -12.207125], [18.684942, -12.203995], [18.691204, -12.200864], [18.697465, -12.197733], [18.703727, -12.191471], [18.713119, -12.188341], [18.719381, -12.182079], [18.725643, -12.178948], [18.731904, -12.172687], [18.738166, -12.169556], [18.747558, -12.163294], [18.75382, -12.157033], [18.760081, -12.153902], [18.766343, -12.14764], [18.775735, -12.14451], [18.785127, -12.138248], [18.791389, -12.131987], [18.797651, -12.128856], [18.803912, -12.122594], [18.810174, -12.119463], [18.816435, -12.119463], [18.822697, -12.116333], [18.828958, -12.116333], [18.83522, -12.113202], [18.841482, -12.113202], [18.847743, -12.113202], [18.854005, -12.113202], [18.863397, -12.113202], [18.869659, -12.113202], [18.879051, -12.113202], [18.885313, -12.110071], [18.891574, -12.110071], [18.897836, -12.110071], [18.904097, -12.110071], [18.910359, -12.110071], [18.91662, -12.110071], [18.922882, -12.10694], [18.929144, -12.10694], [18.935405, -12.10694], [18.941667, -12.10694], [18.951059, -12.103809], [18.957321, -12.103809], [18.963582, -12.103809], [18.969844, -12.100679], [18.976105, -12.100679], [18.982367, -12.094417], [18.988629, -12.094417], [18.99489, -12.091286], [19.001152, -12.088156], [19.010544, -12.085025], [19.019936, -12.078763], [19.029329, -12.075632], [19.03559, -12.072502], [19.038721, -12.06624], [19.044983, -12.063109], [19.051244, -12.059978], [19.057506, -12.056848], [19.063767, -12.056848], [19.070029, -12.053717], [19.076291, -12.050586], [19.079421, -12.044325], [19.085683, -12.041194], [19.091944, -12.038063], [19.098206, -12.034932], [19.104468, -12.031801], [19.110729, -12.028671], [19.116991, -12.02554], [19.123252, -12.019278], [19.129514, -12.019278], [19.135775, -12.016147], [19.142037, -12.013017], [19.145168, -12.006755], [19.151429, -12.003624], [19.157691, -11.997363], [19.163953, -11.991101], [19.170214, -11.98797], [19.173345, -11.981709], [19.176476, -11.975447], [19.182737, -11.972316], [19.185868, -11.966055], [19.188999, -11.959793], [19.19526, -11.953532], [19.201522, -11.94727], [19.207784, -11.941009], [19.214045, -11.937878], [19.220307, -11.937878], [19.226568, -11.934747], [19.23283, -11.934747], [19.239091, -11.931616], [19.248484, -11.931616], [19.254745, -11.931616], [19.261007, -11.931616], [19.267268, -11.931616], [19.27353, -11.931616], [19.279792, -11.928485], [19.286053, -11.928485], [19.292315, -11.928485], [19.298576, -11.925355], [19.304838, -11.925355], [19.311099, -11.925355], [19.317361, -11.925355], [19.323623, -11.922224], [19.329884, -11.922224], [19.336146, -11.922224], [19.342407, -11.925355], [19.348669, -11.925355], [19.35493, -11.925355], [19.361192, -11.925355], [19.367454, -11.925355], [19.373715, -11.928485], [19.379977, -11.928485], [19.386238, -11.931616], [19.395631, -11.934747], [19.405023, -11.937878], [19.411285, -11.941009], [19.417546, -11.944139], [19.423808, -11.94727], [19.430069, -11.94727], [19.436331, -11.953532], [19.442592, -11.953532], [19.448854, -11.956663], [19.455116, -11.959793], [19.461377, -11.962924], [19.467639, -11.962924], [19.4739, -11.966055], [19.480162, -11.966055], [19.486423, -11.966055], [19.492685, -11.966055], [19.498947, -11.966055], [19.505208, -11.966055], [19.51147, -11.966055], [19.517731, -11.966055], [19.527124, -11.966055], [19.533385, -11.966055], [19.539647, -11.962924], [19.545908, -11.959793], [19.55217, -11.956663], [19.558432, -11.953532], [19.564693, -11.950401], [19.570955, -11.94727], [19.580347, -11.944139], [19.583478, -11.937878], [19.589739, -11.934747], [19.596001, -11.931616], [19.602263, -11.928485], [19.608524, -11.925355], [19.614786, -11.922224], [19.624178, -11.919093], [19.63357, -11.912832], [19.646094, -11.90657], [19.652355, -11.903439], [19.658617, -11.900308], [19.664878, -11.897178], [19.67114, -11.894047], [19.677401, -11.890916], [19.683663, -11.887785], [19.689925, -11.881524], [19.696186, -11.881524], [19.705578, -11.878393], [19.714971, -11.875262], [19.721232, -11.872131], [19.727494, -11.869001], [19.733756, -11.869001], [19.740017, -11.86587], [19.746279, -11.862739], [19.75254, -11.859608], [19.758802, -11.856477], [19.765063, -11.853347], [19.771325, -11.850216], [19.777587, -11.847085], [19.783848, -11.843954], [19.79011, -11.840823], [19.796371, -11.840823], [19.802633, -11.837693], [19.808894, -11.837693], [19.812025, -11.831431], [19.818287, -11.831431], [19.827679, -11.8283], [19.833941, -11.82517], [19.843333, -11.822039], [19.849595, -11.818908], [19.855856, -11.815777], [19.862118, -11.815777], [19.868379, -11.812646], [19.874641, -11.812646], [19.884033, -11.809516], [19.890295, -11.806385], [19.896556, -11.803254], [19.902818, -11.800123], [19.90908, -11.796992], [19.915341, -11.793862], [19.921603, -11.790731], [19.927864, -11.7876], [19.934126, -11.784469], [19.940387, -11.781339], [19.946649, -11.775077], [19.94978, -11.768815], [19.956041, -11.765685], [19.962303, -11.759423], [19.968564, -11.756292], [19.974826, -11.750031], [19.981088, -11.743769], [19.99048, -11.737508], [19.993611, -11.731246], [19.999872, -11.728115], [20.006134, -11.721854], [20.012395, -11.718723], [20.015526, -11.712461], [20.021788, -11.70933], [20.028049, -11.703069], [20.034311, -11.699938], [20.040573, -11.696807], [20.046834, -11.693677], [20.053096, -11.690546], [20.059357, -11.687415], [20.065619, -11.687415], [20.07188, -11.684284], [20.078142, -11.681153], [20.084404, -11.681153], [20.090665, -11.678023], [20.096927, -11.678023], [20.103188, -11.674892], [20.10945, -11.674892], [20.121973, -11.671761], [20.137627, -11.671761], [20.147019, -11.671761], [20.156412, -11.671761], [20.162673, -11.66863], [20.168935, -11.66863], [20.175196, -11.66863], [20.181458, -11.66863], [20.187719, -11.66863], [20.193981, -11.66863], [20.200243, -11.66863], [20.206504, -11.66863], [20.219027, -11.66863], [20.225289, -11.665499], [20.23155, -11.665499], [20.237812, -11.665499], [20.244074, -11.665499], [20.250335, -11.665499], [20.259728, -11.665499], [20.265989, -11.665499], [20.272251, -11.665499], [20.281643, -11.665499], [20.291035, -11.665499], [20.297297, -11.665499], [20.303559, -11.665499], [20.312951, -11.665499], [20.319212, -11.665499], [20.328605, -11.665499], [20.334866, -11.665499], [20.341128, -11.665499], [20.34739, -11.665499], [20.353651, -11.665499], [20.359913, -11.665499], [20.366174, -11.665499], [20.372436, -11.662369], [20.378697, -11.662369], [20.384959, -11.659238], [20.391221, -11.656107], [20.397482, -11.652976], [20.403744, -11.652976], [20.410005, -11.649846], [20.416267, -11.649846], [20.422528, -11.646715], [20.42879, -11.643584], [20.435052, -11.643584], [20.441313, -11.640453], [20.447575, -11.640453], [20.453836, -11.637322], [20.460098, -11.637322], [20.466359, -11.634192], [20.472621, -11.634192], [20.482013, -11.631061], [20.488275, -11.631061], [20.497667, -11.62793], [20.503929, -11.62793], [20.51019, -11.624799], [20.516452, -11.621668], [20.522714, -11.618538], [20.528975, -11.618538], [20.535237, -11.615407], [20.541498, -11.615407], [20.54776, -11.615407], [20.554021, -11.612276], [20.560283, -11.612276], [20.569675, -11.609145], [20.575937, -11.609145], [20.582198, -11.609145], [20.58846, -11.606015], [20.594722, -11.606015], [20.600983, -11.602884], [20.607245, -11.602884], [20.613506, -11.599753], [20.619768, -11.596622], [20.626029, -11.596622], [20.632291, -11.593491], [20.638553, -11.593491], [20.644814, -11.590361], [20.651076, -11.58723], [20.657337, -11.58723], [20.663599, -11.58723], [20.66986, -11.584099], [20.676122, -11.584099], [20.682384, -11.584099], [20.688645, -11.580968], [20.698038, -11.580968], [20.704299, -11.580968], [20.710561, -11.577837], [20.716822, -11.577837], [20.723084, -11.577837], [20.729345, -11.577837], [20.735607, -11.574707], [20.741869, -11.574707], [20.751261, -11.571576], [20.757522, -11.571576], [20.763784, -11.565314], [20.770046, -11.562184], [20.776307, -11.562184], [20.782569, -11.559053], [20.78883, -11.555922], [20.795092, -11.555922], [20.801353, -11.54966], [20.810746, -11.54966], [20.817007, -11.54653], [20.823269, -11.543399], [20.82953, -11.543399], [20.835792, -11.540268], [20.842054, -11.537137], [20.848315, -11.537137], [20.854577, -11.534006], [20.863969, -11.527745], [20.870231, -11.524614], [20.876492, -11.524614], [20.882754, -11.521483], [20.889015, -11.521483], [20.895277, -11.518353], [20.901539, -11.515222], [20.910931, -11.512091], [20.920323, -11.50896], [20.926585, -11.50896], [20.935977, -11.505829], [20.942239, -11.502699], [20.9485, -11.499568], [20.957893, -11.496437], [20.967285, -11.493306], [20.976677, -11.490175], [20.989201, -11.487045], [20.995462, -11.480783], [21.001724, -11.480783], [21.007985, -11.477652], [21.014247, -11.474522], [21.020508, -11.471391], [21.029901, -11.471391], [21.036162, -11.46826], [21.042424, -11.465129], [21.051816, -11.461998], [21.058078, -11.461998], [21.064339, -11.458868], [21.070601, -11.455737], [21.076863, -11.455737], [21.083124, -11.452606], [21.089386, -11.449475], [21.095647, -11.449475], [21.101909, -11.446344], [21.111301, -11.443214], [21.117563, -11.443214], [21.123824, -11.440083], [21.130086, -11.440083], [21.136347, -11.440083], [21.14574, -11.436952], [21.152001, -11.436952], [21.158263, -11.433821], [21.164525, -11.433821], [21.170786, -11.430691], [21.177048, -11.42756], [21.183309, -11.42756], [21.189571, -11.424429], [21.195832, -11.424429], [21.202094, -11.421298], [21.208356, -11.421298], [21.217748, -11.418167], [21.224009, -11.415037], [21.233402, -11.415037], [21.239663, -11.411906], [21.245925, -11.411906], [21.252187, -11.408775], [21.261579, -11.405644], [21.26784, -11.402513], [21.274102, -11.402513], [21.280364, -11.399383], [21.286625, -11.399383], [21.292887, -11.396252], [21.299148, -11.396252], [21.30541, -11.393121], [21.311671, -11.38999], [21.317933, -11.38999], [21.324195, -11.38686], [21.333587, -11.383729], [21.339849, -11.380598], [21.34611, -11.377467], [21.352372, -11.377467], [21.358633, -11.371206], [21.364895, -11.371206], [21.371156, -11.368075], [21.377418, -11.368075], [21.38681, -11.364944], [21.396203, -11.361813], [21.402464, -11.358682], [21.408726, -11.358682], [21.414987, -11.355552], [21.421249, -11.352421], [21.427511, -11.352421], [21.433772, -11.352421], [21.440034, -11.34929], [21.446295, -11.34929], [21.452557, -11.346159], [21.458818, -11.346159], [21.46508, -11.346159], [21.471342, -11.343029], [21.477603, -11.343029], [21.483865, -11.339898], [21.490126, -11.339898], [21.496388, -11.339898], [21.502649, -11.336767], [21.508911, -11.336767], [21.515173, -11.333636], [21.521434, -11.330505], [21.527696, -11.330505], [21.537088, -11.327375], [21.54335, -11.324244], [21.549611, -11.321113], [21.555873, -11.321113], [21.562134, -11.317982], [21.568396, -11.314851], [21.574657, -11.311721], [21.580919, -11.311721], [21.587181, -11.30859], [21.593442, -11.305459], [21.599704, -11.305459], [21.605965, -11.299198], [21.646666, -11.280413], [21.649796, -11.274151], [21.656058, -11.27102], [21.662319, -11.26789], [21.668581, -11.26789], [21.674843, -11.264759], [21.681104, -11.261628], [21.687366, -11.258497], [21.693627, -11.255367], [21.699889, -11.255367], [21.70615, -11.255367], [21.712412, -11.252236], [21.718674, -11.252236], [21.724935, -11.252236], [21.731197, -11.252236], [21.737458, -11.252236], [21.746851, -11.252236], [21.756243, -11.252236], [21.762505, -11.249105], [21.768766, -11.249105], [21.775028, -11.249105], [21.781289, -11.249105], [21.787551, -11.249105], [21.793812, -11.249105], [21.800074, -11.249105], [21.806336, -11.249105], [21.812597, -11.249105], [21.818859, -11.249105], [21.82512, -11.249105], [21.831382, -11.249105], [21.840774, -11.249105], [21.850167, -11.249105], [21.856428, -11.249105], [21.86269, -11.249105], [21.868951, -11.252236], [21.875213, -11.252236], [21.881474, -11.252236], [21.887736, -11.252236], [21.893998, -11.252236], [21.900259, -11.252236], [21.906521, -11.252236], [21.912782, -11.252236], [21.919044, -11.252236], [21.925305, -11.252236], [21.934698, -11.255367], [21.940959, -11.255367], [21.947221, -11.258497], [21.956613, -11.258497], [21.969136, -11.261628], [21.978529, -11.264759], [21.987921, -11.264759], [21.994183, -11.26789], [22.000444, -11.26789], [22.006706, -11.26789], [22.012967, -11.26789], [22.019229, -11.26789], [22.025491, -11.26789], [22.031752, -11.27102], [22.038014, -11.274151], [22.044275, -11.274151], [22.050537, -11.277282], [22.056798, -11.277282], [22.06306, -11.280413], [22.069322, -11.283544], [22.075583, -11.286674], [22.081845, -11.289805], [22.088106, -11.289805], [22.094368, -11.289805], [22.100629, -11.292936], [22.110022, -11.292936], [22.119414, -11.296067], [22.128807, -11.296067], [22.135068, -11.296067], [22.14133, -11.299198], [22.147591, -11.299198], [22.156984, -11.302328], [22.163245, -11.305459], [22.169507, -11.30859], [22.175768, -11.30859], [22.18203, -11.311721], [22.188291, -11.311721], [22.194553, -11.314851], [22.200815, -11.314851], [22.207076, -11.317982], [22.213338, -11.317982], [22.219599, -11.317982], [22.225861, -11.317982], [22.232122, -11.321113], [22.238384, -11.321113], [22.244646, -11.321113], [22.250907, -11.321113], [22.257169, -11.321113], [22.266561, -11.324244], [22.275953, -11.324244], [22.282215, -11.324244], [22.288477, -11.324244], [22.294738, -11.324244], [22.301, -11.324244], [22.307261, -11.324244], [22.313523, -11.324244], [22.319784, -11.324244], [22.326046, -11.324244], [22.332308, -11.324244], [22.338569, -11.324244], [22.344831, -11.324244], [22.351092, -11.327375], [22.357354, -11.327375], [22.366746, -11.327375], [22.373008, -11.327375], [22.379269, -11.324244], [22.385531, -11.324244], [22.391793, -11.324244], [22.398054, -11.324244], [22.404316, -11.324244], [22.410577, -11.324244], [22.416839, -11.324244], [22.4231, -11.321113], [22.429362, -11.321113], [22.438754, -11.321113], [22.445016, -11.321113], [22.454408, -11.321113], [22.46067, -11.321113], [22.470062, -11.321113], [22.479455, -11.321113], [22.485716, -11.317982], [22.491978, -11.317982], [22.498239, -11.317982], [22.507632, -11.317982], [22.513893, -11.317982], [22.523286, -11.317982], [22.529547, -11.314851], [22.54207, -11.314851], [22.548332, -11.314851], [22.554593, -11.314851], [22.560855, -11.311721], [22.570247, -11.311721], [22.576509, -11.311721], [22.58277, -11.311721], [22.589032, -11.311721], [22.595294, -11.311721], [22.604686, -11.30859], [22.610948, -11.305459], [22.62034, -11.305459], [22.629732, -11.302328], [22.635994, -11.302328], [22.645386, -11.302328], [22.651648, -11.302328], [22.657909, -11.302328], [22.667302, -11.302328], [22.673563, -11.299198], [22.682956, -11.299198], [22.689217, -11.299198], [22.695479, -11.299198], [22.70174, -11.296067], [22.708002, -11.296067], [22.714263, -11.296067], [22.723656, -11.296067], [22.729917, -11.296067], [22.736179, -11.292936], [22.742441, -11.292936], [22.748702, -11.292936], [22.754964, -11.289805], [22.761225, -11.289805], [22.767487, -11.289805], [22.776879, -11.286674], [22.786272, -11.283544], [22.798795, -11.283544], [22.808187, -11.280413], [22.817579, -11.280413], [22.823841, -11.280413], [22.830103, -11.280413], [22.836364, -11.280413], [22.845756, -11.277282], [22.855149, -11.277282], [22.86141, -11.274151], [22.867672, -11.274151], [22.873934, -11.274151], [22.880195, -11.274151], [22.889587, -11.274151], [22.89898, -11.274151], [22.905241, -11.274151], [22.911503, -11.274151], [22.917765, -11.274151], [22.924026, -11.274151], [22.933418, -11.274151], [22.942811, -11.274151], [22.955334, -11.27102], [22.967857, -11.27102], [22.977249, -11.27102], [22.983511, -11.27102], [22.992903, -11.27102], [22.999165, -11.26789], [23.005427, -11.26789], [23.011688, -11.26789], [23.01795, -11.264759], [23.024211, -11.264759], [23.030473, -11.264759], [23.036734, -11.264759], [23.042996, -11.264759], [23.049258, -11.264759], [23.055519, -11.264759], [23.055519, -11.258497], [23.061781, -11.255367], [23.068042, -11.255367], [23.074304, -11.252236], [23.080565, -11.252236], [23.086827, -11.252236], [23.093089, -11.252236], [23.09935, -11.249105], [23.105612, -11.249105], [23.111873, -11.249105], [23.118135, -11.245974], [23.124396, -11.245974], [23.130658, -11.245974], [23.13692, -11.245974], [23.143181, -11.242843], [23.149443, -11.242843], [23.155704, -11.242843], [23.165097, -11.239713], [23.171358, -11.239713], [23.17762, -11.239713], [23.187012, -11.236582], [23.193274, -11.236582], [23.199535, -11.236582], [23.205797, -11.233451], [23.212058, -11.233451], [23.221451, -11.233451], [23.227712, -11.233451], [23.233974, -11.233451], [23.243366, -11.23032], [23.249628, -11.23032], [23.255889, -11.23032], [23.262151, -11.227189], [23.268413, -11.227189], [23.274674, -11.224059], [23.280936, -11.224059], [23.290328, -11.224059], [23.29659, -11.220928], [23.302851, -11.220928], [23.309113, -11.220928], [23.315374, -11.220928], [23.321636, -11.217797], [23.327897, -11.217797], [23.33729, -11.217797], [23.349813, -11.214666], [23.359205, -11.214666], [23.365467, -11.214666], [23.374859, -11.211536], [23.381121, -11.211536], [23.390513, -11.208405], [23.399906, -11.208405], [23.409298, -11.205274], [23.415559, -11.205274], [23.421821, -11.205274], [23.431213, -11.202143], [23.437475, -11.202143], [23.443737, -11.202143], [23.449998, -11.199012], [23.45626, -11.199012], [23.462521, -11.199012], [23.468783, -11.199012], [23.475044, -11.195882], [23.481306, -11.195882], [23.487568, -11.195882], [23.493829, -11.195882], [23.500091, -11.192751], [23.506352, -11.192751], [23.512614, -11.192751], [23.518875, -11.192751], [23.525137, -11.192751], [23.534529, -11.192751], [23.540791, -11.192751], [23.547052, -11.192751], [23.556445, -11.18962], [23.565837, -11.18962], [23.57523, -11.18962], [23.581491, -11.18962], [23.590883, -11.18962], [23.597145, -11.18962], [23.606537, -11.18962], [23.612799, -11.18962], [23.622191, -11.18962], [23.631584, -11.186489], [23.640976, -11.186489], [23.653499, -11.186489], [23.659761, -11.186489], [23.666022, -11.186489], [23.675415, -11.186489], [23.684807, -11.183358], [23.691069, -11.183358], [23.69733, -11.183358], [23.703592, -11.180228], [23.709853, -11.180228], [23.716115, -11.180228], [23.725507, -11.177097], [23.7349, -11.177097], [23.744292, -11.173966], [23.753684, -11.173966], [23.759946, -11.173966], [23.766207, -11.170835], [23.772469, -11.170835], [23.778731, -11.167705], [23.784992, -11.167705], [23.791254, -11.167705], [23.797515, -11.167705], [23.803777, -11.164574], [23.810038, -11.164574], [23.8163, -11.164574], [23.822562, -11.164574], [23.828823, -11.161443], [23.835085, -11.161443], [23.841346, -11.161443], [23.847608, -11.161443], [23.853869, -11.161443], [23.860131, -11.158312], [23.866393, -11.158312], [23.872654, -11.158312], [23.878916, -11.155181], [23.885177, -11.155181], [23.891439, -11.155181], [23.8977, -11.155181], [23.903962, -11.155181], [23.910224, -11.152051], [23.916485, -11.152051], [23.922747, -11.152051], [23.929008, -11.152051], [23.93527, -11.152051], [23.941531, -11.152051], [23.947793, -11.152051], [23.954055, -11.152051], [23.960316, -11.152051], [23.966578, -11.14892], [23.972839, -11.14892], [23.979101, -11.14892], [23.985362, -11.14892], [23.994755, -11.14892], [24.001016, -11.14892], [24.007278, -11.14892], [24.01354, -11.14892], [24.019801, -11.152051], [24.026063, -11.155181], [24.032324, -11.161443], [24.035455, -11.167705], [24.041717, -11.170835], [24.041717, -11.177097], [24.047978, -11.183358], [24.051109, -11.18962], [24.05424, -11.195882], [24.057371, -11.202143], [24.060501, -11.208405], [24.066763, -11.211536], [24.069894, -11.217797], [24.073024, -11.224059], [24.076155, -11.23032], [24.082417, -11.236582], [24.085548, -11.242843], [24.088678, -11.249105], [24.09494, -11.252236], [24.098071, -11.258497], [24.101202, -11.264759], [24.104332, -11.27102], [24.110594, -11.277282], [24.113725, -11.283544], [24.119986, -11.289805], [24.123117, -11.296067], [24.126248, -11.302328], [24.132509, -11.30859], [24.13564, -11.314851], [24.138771, -11.321113], [24.141902, -11.327375], [24.145033, -11.333636], [24.148163, -11.339898], [24.151294, -11.346159], [24.154425, -11.352421], [24.157556, -11.358682], [24.160686, -11.364944], [24.163817, -11.371206], [24.166948, -11.377467], [24.166948, -11.383729], [24.170079, -11.38999], [24.17321, -11.396252], [24.17634, -11.402513], [24.179471, -11.408775], [24.185733, -11.415037], [24.188864, -11.421298], [24.195125, -11.42756], [24.198256, -11.433821], [24.204517, -11.440083], [24.207648, -11.446344], [24.21391, -11.452606], [24.217041, -11.458868], [24.220171, -11.465129], [24.223302, -11.471391], [24.229564, -11.474522], [24.229564, -11.480783], [24.235825, -11.487045], [24.242087, -11.493306], [24.248348, -11.499568], [24.25461, -11.50896], [24.260872, -11.515222], [24.267133, -11.524614], [24.273395, -11.530876], [24.279656, -11.540268], [24.285918, -11.54966], [24.292179, -11.555922], [24.29531, -11.562184], [24.301572, -11.568445], [24.307833, -11.577837], [24.310964, -11.58723], [24.317226, -11.593491], [24.320357, -11.599753], [24.323487, -11.606015], [24.326618, -11.612276], [24.33288, -11.618538], [24.33601, -11.624799], [24.339141, -11.634192], [24.345403, -11.637322], [24.351664, -11.646715], [24.354795, -11.656107], [24.361057, -11.662369], [24.367318, -11.66863], [24.370449, -11.674892], [24.370449, -11.681153], [24.376711, -11.687415], [24.382972, -11.696807], [24.389234, -11.699938], [24.395495, -11.70933], [24.401757, -11.715592], [24.408019, -11.718723], [24.411149, -11.724984], [24.417411, -11.728115], [24.423672, -11.731246], [24.426803, -11.737508], [24.433065, -11.737508], [24.439326, -11.740638], [24.445588, -11.743769], [24.45185, -11.743769], [24.458111, -11.7469], [24.464373, -11.7469], [24.473765, -11.750031], [24.483157, -11.750031], [24.49255, -11.750031], [24.498811, -11.750031], [24.505073, -11.753161], [24.511334, -11.753161], [24.517596, -11.753161], [24.523858, -11.753161], [24.53325, -11.753161], [24.539512, -11.753161], [24.545773, -11.756292], [24.552035, -11.756292], [24.558296, -11.756292], [24.564558, -11.756292], [24.57395, -11.756292], [24.580212, -11.756292], [24.589604, -11.756292], [24.602127, -11.756292], [24.608389, -11.756292], [24.61465, -11.756292], [24.624043, -11.756292], [24.633435, -11.756292], [24.642827, -11.756292], [24.655351, -11.756292], [24.661612, -11.756292], [24.667874, -11.756292], [24.677266, -11.756292], [24.686658, -11.756292], [24.69292, -11.756292], [24.702312, -11.756292], [24.708574, -11.756292], [24.717966, -11.756292], [24.724228, -11.756292], [24.73362, -11.756292], [24.739882, -11.756292], [24.746143, -11.756292], [24.755536, -11.756292], [24.761797, -11.756292], [24.768059, -11.756292], [24.77432, -11.756292], [24.780582, -11.756292], [24.786844, -11.753161], [24.793105, -11.753161], [24.799367, -11.753161], [24.805628, -11.753161], [24.81189, -11.753161], [24.821282, -11.753161], [24.827544, -11.753161], [24.833805, -11.753161], [24.840067, -11.753161], [24.846329, -11.750031], [24.855721, -11.750031], [24.861982, -11.750031], [24.868244, -11.750031], [24.877636, -11.750031], [24.883898, -11.750031], [24.89016, -11.750031], [24.896421, -11.7469], [24.902683, -11.750031], [24.908944, -11.750031], [24.918337, -11.750031], [24.924598, -11.750031], [24.93086, -11.750031], [24.937121, -11.750031], [24.943383, -11.750031], [24.949644, -11.753161], [24.955906, -11.753161], [24.962168, -11.753161], [24.968429, -11.756292], [24.974691, -11.756292], [24.980952, -11.756292], [24.987214, -11.756292], [24.993475, -11.756292], [24.999737, -11.759423], [25.005999, -11.762554], [25.01226, -11.765685], [25.021653, -11.768815], [25.027914, -11.771946], [25.034176, -11.775077], [25.040437, -11.778208], [25.046699, -11.781339], [25.05296, -11.784469], [25.059222, -11.7876], [25.068614, -11.793862], [25.074876, -11.796992], [25.081137, -11.800123], [25.087399, -11.803254], [25.093661, -11.806385], [25.099922, -11.809516], [25.106184, -11.809516], [25.112445, -11.815777], [25.118707, -11.818908], [25.124968, -11.822039], [25.128099, -11.8283], [25.134361, -11.831431], [25.143753, -11.834562], [25.150015, -11.837693], [25.156276, -11.840823], [25.165669, -11.843954], [25.17193, -11.847085], [25.181323, -11.847085], [25.190715, -11.850216], [25.196977, -11.850216], [25.203238, -11.853347], [25.2095, -11.853347], [25.215761, -11.853347], [25.222023, -11.856477], [25.228284, -11.856477], [25.234546, -11.859608], [25.240808, -11.859608], [25.247069, -11.862739], [25.253331, -11.862739], [25.262723, -11.86587], [25.268985, -11.86587], [25.278377, -11.869001], [25.287769, -11.869001], [25.294031, -11.872131], [25.300292, -11.872131], [25.306554, -11.875262], [25.312816, -11.875262], [25.315946, -11.881524], [25.322208, -11.884654], [25.325339, -11.890916], [25.3316, -11.897178], [25.337862, -11.903439], [25.344123, -11.909701], [25.350385, -11.912832], [25.356647, -11.915962], [25.362908, -11.925355], [25.36917, -11.928485], [25.375431, -11.934747], [25.381693, -11.941009], [25.387954, -11.94727], [25.394216, -11.953532], [25.397347, -11.959793], [25.403608, -11.962924], [25.406739, -11.969186], [25.413001, -11.975447], [25.413001, -11.981709], [25.416132, -11.98797], [25.419262, -11.994232], [25.422393, -12.000494], [25.425524, -12.006755], [25.431785, -12.013017], [25.434916, -12.019278], [25.434916, -12.02554], [25.438047, -12.031801], [25.441178, -12.038063], [25.441178, -12.044325], [25.444309, -12.050586], [25.45057, -12.056848], [25.453701, -12.063109], [25.459963, -12.069371], [25.459963, -12.075632], [25.466224, -12.081894], [25.469355, -12.088156], [25.472486, -12.094417], [25.478747, -12.100679], [25.485009, -12.103809], [25.49127, -12.110071], [25.500663, -12.119463], [25.506924, -12.122594], [25.510055, -12.128856], [25.516317, -12.135117], [25.522578, -12.138248], [25.52884, -12.141379], [25.535101, -12.14764], [25.541363, -12.150771], [25.550755, -12.157033], [25.557017, -12.163294], [25.563278, -12.169556], [25.56954, -12.172687], [25.575802, -12.178948], [25.582063, -12.182079], [25.588325, -12.188341], [25.594586, -12.194602], [25.600848, -12.197733], [25.607109, -12.200864], [25.613371, -12.207125], [25.622763, -12.213387], [25.629025, -12.216518], [25.635287, -12.219649], [25.638417, -12.22591], [25.644679, -12.232172], [25.65094, -12.238433], [25.657202, -12.244695], [25.663464, -12.247826], [25.669725, -12.254087], [25.675987, -12.257218], [25.682248, -12.260349], [25.691641, -12.26348], [25.697902, -12.26661], [25.707295, -12.269741], [25.713556, -12.272872], [25.719818, -12.276003], [25.726079, -12.279133], [25.732341, -12.279133], [25.738602, -12.282264], [25.744864, -12.285395], [25.751126, -12.285395], [25.757387, -12.288526], [25.763649, -12.291657], [25.76991, -12.294787], [25.779303, -12.297918], [25.785564, -12.301049], [25.791826, -12.30418], [25.801218, -12.30418], [25.80748, -12.307311], [25.813741, -12.307311], [25.823134, -12.310441], [25.835657, -12.313572], [25.841918, -12.313572], [25.84818, -12.316703], [25.857572, -12.316703], [25.863834, -12.319834], [25.870095, -12.322964], [25.879488, -12.322964], [25.885749, -12.326095], [25.892011, -12.329226], [25.898273, -12.329226], [25.904534, -12.332357], [25.910796, -12.332357], [25.920188, -12.335488], [25.92958, -12.338618], [25.935842, -12.338618], [25.942104, -12.341749], [25.948365, -12.34488], [25.957757, -12.348011], [25.964019, -12.348011], [25.970281, -12.351142], [25.976542, -12.354272], [25.982804, -12.354272], [25.989065, -12.357403], [25.998458, -12.357403], [26.00785, -12.360534], [26.014112, -12.360534], [26.020373, -12.360534], [26.032896, -12.360534], [26.039158, -12.363665], [26.04855, -12.363665], [26.057943, -12.363665], [26.067335, -12.363665], [26.073597, -12.360534], [26.079858, -12.360534], [26.08925, -12.360534], [26.095512, -12.360534], [26.101774, -12.360534], [26.108035, -12.360534], [26.114297, -12.360534], [26.120558, -12.357403], [26.12682, -12.357403], [26.136212, -12.357403], [26.142474, -12.357403], [26.148735, -12.354272], [26.158128, -12.354272], [26.164389, -12.351142], [26.170651, -12.348011], [26.176912, -12.348011], [26.183174, -12.34488], [26.189436, -12.341749], [26.198828, -12.338618], [26.20509, -12.335488], [26.211351, -12.332357], [26.217613, -12.329226], [26.227005, -12.326095], [26.233267, -12.319834], [26.239528, -12.316703], [26.24579, -12.313572], [26.248921, -12.307311], [26.255182, -12.30418], [26.261444, -12.301049], [26.267705, -12.294787], [26.273967, -12.288526], [26.277098, -12.282264], [26.283359, -12.279133], [26.28649, -12.272872], [26.292752, -12.26661], [26.299013, -12.260349], [26.305275, -12.254087], [26.311536, -12.250956], [26.317798, -12.244695], [26.324059, -12.238433], [26.330321, -12.232172], [26.336583, -12.22591], [26.342844, -12.219649], [26.349106, -12.216518], [26.355367, -12.210256], [26.358498, -12.203995], [26.36476, -12.200864], [26.371021, -12.200864], [26.377283, -12.197733], [26.383544, -12.197733], [26.389806, -12.194602], [26.396067, -12.194602], [26.402329, -12.194602], [26.408591, -12.194602], [26.414852, -12.194602], [26.421114, -12.194602], [26.430506, -12.194602], [26.439898, -12.194602], [26.449291, -12.194602], [26.458683, -12.194602], [26.464945, -12.194602], [26.474337, -12.194602], [26.483729, -12.194602], [26.489991, -12.194602], [26.496253, -12.194602], [26.502514, -12.194602], [26.508776, -12.194602], [26.518168, -12.194602], [26.52443, -12.194602], [26.530691, -12.194602], [26.540084, -12.197733], [26.546345, -12.197733], [26.552607, -12.197733], [26.558868, -12.197733], [26.568261, -12.197733], [26.574522, -12.200864], [26.580784, -12.200864], [26.587045, -12.200864], [26.593307, -12.203995], [26.599568, -12.203995], [26.608961, -12.207125], [26.618353, -12.213387], [26.624615, -12.213387], [26.630876, -12.216518], [26.637138, -12.216518], [26.643399, -12.219649], [26.649661, -12.222779], [26.655923, -12.22591], [26.665315, -12.232172], [26.671577, -12.232172], [26.677838, -12.232172], [26.6841, -12.235302], [26.690361, -12.238433], [26.696623, -12.241564], [26.702884, -12.241564], [26.718538, -12.247826], [26.727931, -12.247826], [26.734192, -12.250956], [26.740454, -12.250956], [26.746715, -12.254087], [26.752977, -12.254087], [26.759239, -12.254087], [26.7655, -12.257218], [26.771762, -12.257218], [26.778023, -12.257218], [26.787416, -12.260349], [26.793677, -12.260349], [26.799939, -12.260349], [26.8062, -12.260349], [26.812462, -12.26348], [26.818723, -12.26348], [26.828116, -12.26348], [26.837508, -12.26661], [26.84377, -12.26661], [26.853162, -12.26661], [26.859424, -12.269741], [26.865685, -12.269741], [26.871947, -12.269741], [26.878208, -12.272872], [26.88447, -12.272872], [26.890732, -12.272872], [26.900124, -12.276003], [26.906385, -12.276003], [26.912647, -12.276003], [26.922039, -12.276003], [26.931432, -12.276003], [26.940824, -12.279133], [26.950216, -12.279133], [26.956478, -12.282264], [26.969001, -12.282264], [26.975263, -12.282264], [26.990917, -12.285395], [27.00344, -12.285395], [27.015963, -12.288526], [27.028486, -12.288526], [27.034748, -12.288526], [27.04414, -12.291657], [27.053532, -12.291657], [27.059794, -12.291657], [27.066056, -12.294787], [27.072317, -12.294787], [27.078579, -12.294787], [27.08484, -12.294787], [27.091102, -12.297918], [27.100494, -12.297918], [27.106756, -12.301049], [27.113017, -12.301049], [27.119279, -12.30418], [27.12554, -12.30418], [27.131802, -12.30418], [27.138064, -12.307311], [27.144325, -12.310441], [27.150587, -12.313572], [27.156848, -12.316703], [27.16311, -12.319834], [27.169371, -12.322964], [27.175633, -12.326095], [27.185025, -12.332357], [27.191287, -12.332357], [27.200679, -12.335488], [27.206941, -12.338618], [27.213202, -12.341749], [27.219464, -12.34488], [27.228856, -12.351142], [27.238249, -12.354272], [27.247641, -12.357403], [27.257033, -12.360534], [27.263295, -12.363665], [27.269557, -12.366795], [27.275818, -12.369926], [27.28208, -12.369926], [27.288341, -12.373057], [27.294603, -12.376188], [27.303995, -12.379319], [27.313388, -12.38558], [27.32278, -12.388711], [27.329042, -12.391842], [27.335303, -12.391842], [27.341565, -12.394973], [27.354088, -12.398103], [27.36348, -12.404365], [27.372873, -12.404365], [27.379134, -12.407496], [27.385396, -12.407496], [27.391657, -12.407496], [27.40105, -12.410626], [27.407311, -12.410626], [27.413573, -12.413757], [27.422965, -12.413757], [27.429227, -12.416888], [27.435488, -12.416888], [27.44175, -12.420019], [27.448011, -12.420019], [27.454273, -12.42315], [27.460535, -12.42315], [27.466796, -12.429411], [27.473058, -12.429411], [27.48245, -12.435673], [27.488712, -12.438804], [27.498104, -12.441934], [27.504366, -12.445065], [27.513758, -12.451327], [27.520019, -12.454457], [27.529412, -12.460719], [27.538804, -12.466981], [27.545066, -12.470111], [27.551327, -12.473242], [27.56072, -12.479504], [27.570112, -12.485765], [27.579504, -12.488896], [27.585766, -12.492027], [27.598289, -12.495158], [27.607681, -12.498288], [27.617074, -12.50455], [27.626466, -12.507681], [27.632728, -12.513942], [27.638989, -12.513942], [27.648382, -12.520204], [27.657774, -12.520204], [27.664036, -12.523335], [27.673428, -12.526466], [27.67969, -12.526466], [27.685951, -12.529596], [27.695343, -12.532727], [27.707867, -12.538989], [27.714128, -12.542119], [27.72039, -12.54525], [27.726651, -12.548381], [27.736044, -12.554643], [27.745436, -12.554643], [27.751698, -12.557773], [27.757959, -12.560904], [27.764221, -12.560904], [27.770482, -12.564035], [27.776744, -12.567166], [27.783005, -12.570297], [27.789267, -12.570297], [27.795529, -12.573427], [27.80179, -12.576558], [27.808052, -12.579689], [27.814313, -12.58282], [27.820575, -12.58595], [27.826836, -12.58595], [27.826836, -12.592212], [27.833098, -12.592212], [27.83936, -12.595343], [27.845621, -12.598474], [27.855014, -12.601604], [27.864406, -12.604735], [27.873798, -12.610997], [27.88006, -12.614128], [27.886321, -12.614128], [27.895714, -12.617258], [27.901975, -12.620389], [27.908237, -12.620389], [27.914498, -12.62352], [27.92076, -12.62352], [27.927022, -12.626651], [27.936414, -12.629781], [27.945806, -12.632912], [27.955199, -12.636043], [27.96146, -12.636043], [27.970853, -12.639174], [27.983376, -12.639174], [27.992768, -12.639174], [27.99903, -12.639174], [28.005291, -12.639174], [28.011553, -12.642305], [28.020945, -12.642305], [28.030338, -12.648566], [28.03973, -12.648566], [28.049122, -12.651697], [28.055384, -12.654828], [28.061645, -12.654828], [28.064776, -12.661089], [28.071038, -12.667351], [28.077299, -12.673612], [28.08043, -12.679874], [28.083561, -12.686136], [28.086692, -12.692397], [28.089822, -12.698659], [28.092953, -12.70492], [28.096084, -12.711182], [28.099215, -12.717443], [28.102346, -12.723705], [28.105476, -12.729967], [28.111738, -12.736228], [28.114869, -12.74249], [28.114869, -12.748751], [28.12113, -12.755013], [28.124261, -12.761274], [28.127392, -12.767536], [28.130523, -12.773798], [28.136784, -12.776928], [28.143046, -12.78319], [28.149307, -12.786321], [28.155569, -12.789452], [28.161831, -12.792582], [28.168092, -12.795713], [28.177484, -12.798844], [28.186877, -12.801975], [28.193138, -12.805105], [28.1994, -12.805105], [28.208792, -12.808236], [28.218185, -12.811367], [28.224446, -12.811367], [28.230708, -12.814498], [28.236969, -12.814498], [28.246362, -12.817629], [28.252623, -12.820759], [28.258885, -12.820759], [28.265146, -12.82389], [28.271408, -12.82389], [28.2808, -12.827021], [28.287062, -12.827021], [28.293324, -12.830152], [28.302716, -12.830152], [28.315239, -12.833283], [28.321501, -12.833283], [28.327762, -12.836413], [28.334024, -12.836413], [28.340285, -12.839544], [28.346547, -12.839544], [28.352808, -12.839544], [28.35907, -12.842675], [28.365332, -12.842675], [28.371593, -12.842675], [28.377855, -12.842675], [28.384116, -12.845806], [28.390378, -12.845806], [28.396639, -12.848936], [28.402901, -12.848936], [28.409163, -12.852067], [28.415424, -12.852067], [28.421686, -12.855198], [28.427947, -12.855198], [28.434209, -12.858329], [28.443601, -12.86146], [28.449863, -12.86459], [28.456124, -12.867721], [28.462386, -12.870852], [28.471778, -12.873983], [28.47804, -12.877114], [28.484301, -12.880244], [28.490563, -12.880244], [28.496825, -12.886506], [28.503086, -12.886506], [28.509348, -12.892767], [28.515609, -12.895898], [28.521871, -12.899029], [28.528132, -12.90216], [28.534394, -12.908421], [28.540656, -12.914683], [28.546917, -12.920945], [28.553179, -12.927206], [28.55944, -12.930337], [28.565702, -12.936598], [28.571963, -12.939729], [28.575094, -12.945991], [28.581356, -12.949122], [28.587617, -12.952252], [28.593879, -12.955383], [28.59701, -12.961645], [28.603271, -12.964776], [28.606402, -12.971037], [28.612664, -12.974168], [28.615794, -12.980429], [28.622056, -12.98356], [28.628318, -12.989822], [28.634579, -12.992953], [28.63771, -12.999214], [28.643972, -13.002345], [28.650233, -13.005476], [28.653364, -13.011737], [28.659625, -13.017999], [28.662756, -13.02426], [28.665887, -13.030522], [28.669018, -13.036784], [28.675279, -13.043045], [28.67841, -13.049307], [28.681541, -13.055568], [28.684672, -13.06183], [28.687803, -13.068091], [28.690933, -13.074353], [28.694064, -13.080615], [28.700326, -13.090007], [28.706587, -13.093138], [28.706587, -13.099399], [28.709718, -13.105661], [28.712849, -13.111922], [28.71598, -13.118184], [28.71911, -13.124446], [28.71911, -13.130707], [28.722241, -13.136969], [28.722241, -13.14323], [28.722241, -13.152623], [28.722241, -13.158884], [28.722241, -13.165146], [28.722241, -13.171407], [28.722241, -13.177669], [28.722241, -13.183931], [28.722241, -13.190192], [28.725372, -13.196454], [28.725372, -13.202715], [28.725372, -13.208977], [28.725372, -13.215238], [28.725372, -13.224631], [28.725372, -13.230892], [28.725372, -13.237154], [28.725372, -13.243415], [28.725372, -13.249677], [28.725372, -13.255939], [28.725372, -13.2622], [28.725372, -13.268462], [28.722241, -13.274723], [28.725372, -13.280985], [28.722241, -13.287246], [28.722241, -13.293508], [28.725372, -13.29977], [28.725372, -13.306031], [28.725372, -13.312293], [28.728503, -13.318554], [28.725372, -13.324816], [28.728503, -13.331077], [28.728503, -13.337339], [28.728503, -13.343601], [28.728503, -13.349862], [28.728503, -13.356124], [28.728503, -13.362385], [28.728503, -13.368647], [28.728503, -13.374908], [28.728503, -13.38117], [28.728503, -13.387432], [28.725372, -13.393693], [28.725372, -13.399955], [28.722241, -13.406216], [28.722241, -13.412478], [28.722241, -13.418739], [28.71911, -13.425001], [28.71911, -13.431263], [28.71911, -13.437524], [28.71598, -13.443786], [28.712849, -13.450047], [28.712849, -13.45944], [28.712849, -13.465701], [28.712849, -13.471963], [28.709718, -13.478224], [28.709718, -13.484486], [28.709718, -13.490748], [28.709718, -13.497009], [28.709718, -13.503271], [28.709718, -13.509532], [28.709718, -13.515794], [28.706587, -13.522055], [28.706587, -13.528317], [28.703456, -13.534579], [28.703456, -13.54084], [28.703456, -13.547102], [28.697195, -13.556494], [28.697195, -13.562756], [28.694064, -13.569017], [28.694064, -13.575279], [28.694064, -13.58154], [28.694064, -13.587802], [28.694064, -13.594063], [28.694064, -13.600325], [28.694064, -13.609717], [28.694064, -13.615979], [28.687803, -13.625371], [28.684672, -13.631633], [28.684672, -13.637894], [28.681541, -13.644156], [28.67841, -13.650418], [28.67841, -13.656679], [28.675279, -13.662941], [28.672149, -13.669202], [28.669018, -13.675464], [28.665887, -13.681725], [28.665887, -13.687987], [28.662756, -13.694249], [28.659625, -13.70051], [28.656495, -13.706772], [28.653364, -13.713033], [28.647102, -13.719295], [28.640841, -13.722426], [28.63771, -13.728687], [28.631448, -13.731818], [28.628318, -13.73808], [28.625187, -13.744341], [28.622056, -13.750603], [28.622056, -13.756864], [28.618925, -13.763126], [28.618925, -13.769387], [28.618925, -13.775649], [28.618925, -13.781911], [28.615794, -13.794434], [28.615794, -13.800695], [28.615794, -13.806957], [28.618925, -13.813218], [28.618925, -13.81948], [28.618925, -13.825742], [28.618925, -13.832003], [28.618925, -13.838265], [28.618925, -13.844526], [28.622056, -13.850788], [28.622056, -13.857049], [28.622056, -13.863311], [28.622056, -13.869573], [28.625187, -13.875834], [28.625187, -13.882096], [28.625187, -13.888357], [28.625187, -13.894619], [28.628318, -13.90088], [28.628318, -13.907142], [28.631448, -13.913404], [28.631448, -13.922796], [28.634579, -13.929058], [28.634579, -13.935319], [28.634579, -13.941581], [28.634579, -13.947842], [28.63771, -13.954104], [28.640841, -13.963496], [28.640841, -13.969758], [28.640841, -13.976019], [28.640841, -13.982281], [28.640841, -13.988542], [28.63771, -13.994804], [28.634579, -14.001066], [28.631448, -14.007327], [28.628318, -14.013589], [28.622056, -14.01985], [28.618925, -14.026112], [28.612664, -14.029243], [28.612664, -14.035504], [28.606402, -14.041766], [28.603271, -14.048027], [28.59701, -14.051158], [28.593879, -14.05742], [28.590748, -14.063681], [28.584487, -14.069943], [28.578225, -14.076204], [28.575094, -14.082466], [28.568833, -14.088728], [28.562571, -14.094989], [28.55944, -14.101251], [28.553179, -14.104382], [28.550048, -14.110643], [28.546917, -14.120035], [28.540656, -14.120035], [28.540656, -14.126297], [28.534394, -14.129428], [28.531263, -14.135689], [28.528132, -14.141951], [28.525002, -14.148213], [28.521871, -14.154474], [28.51874, -14.160736], [28.512479, -14.166997], [28.512479, -14.173259], [28.506217, -14.17952], [28.503086, -14.185782], [28.499955, -14.192044], [28.496825, -14.198305], [28.493694, -14.204567], [28.490563, -14.210828], [28.490563, -14.21709], [28.487432, -14.223351], [28.487432, -14.229613], [28.484301, -14.235875], [28.468648, -14.320406], [28.468648, -14.326667], [28.465517, -14.332929], [28.465517, -14.33919], [28.465517, -14.345452], [28.465517, -14.351714], [28.462386, -14.357975], [28.462386, -14.364237], [28.459255, -14.370498], [28.459255, -14.37676], [28.456124, -14.383021], [28.452994, -14.389283], [28.449863, -14.395545], [28.449863, -14.401806], [28.446732, -14.408068], [28.443601, -14.414329], [28.44047, -14.420591], [28.43734, -14.426852], [28.43734, -14.433114], [28.434209, -14.439376], [28.431078, -14.445637], [28.427947, -14.451899], [28.424817, -14.45816], [28.424817, -14.464422], [28.421686, -14.470683], [28.421686, -14.476945], [28.418555, -14.483207], [28.415424, -14.489468], [28.412293, -14.49573], [28.409163, -14.501991], [28.406032, -14.508253], [28.402901, -14.514514], [28.384116, -14.545822], [28.380986, -14.552084], [28.377855, -14.558345], [28.377855, -14.564607], [28.371593, -14.570869], [28.368462, -14.57713], [28.365332, -14.583392], [28.362201, -14.589653], [28.355939, -14.595915], [28.355939, -14.602176], [28.349678, -14.605307], [28.349678, -14.611569], [28.346547, -14.61783], [28.343416, -14.624092], [28.340285, -14.630354], [28.340285, -14.636615], [28.337155, -14.642877], [28.337155, -14.649138], [28.337155, -14.6554], [28.337155, -14.661661], [28.337155, -14.667923], [28.340285, -14.674185], [28.343416, -14.680446], [28.343416, -14.686708], [28.349678, -14.692969], [28.352808, -14.699231], [28.355939, -14.705492], [28.35907, -14.711754], [28.362201, -14.718016], [28.365332, -14.724277], [28.365332, -14.730539], [28.365332, -14.7368], [28.365332, -14.743062], [28.365332, -14.749323], [28.365332, -14.755585], [28.365332, -14.761847], [28.362201, -14.768108], [28.362201, -14.77437], [28.362201, -14.780631], [28.362201, -14.786893], [28.362201, -14.793154], [28.362201, -14.799416], [28.362201, -14.805678], [28.35907, -14.811939], [28.35907, -14.818201], [28.35907, -14.824462], [28.355939, -14.830724], [28.352808, -14.836985], [28.352808, -14.843247], [28.349678, -14.849509], [28.349678, -14.85577], [28.346547, -14.862032], [28.343416, -14.868293], [28.340285, -14.874555], [28.337155, -14.883947], [28.334024, -14.890209], [28.327762, -14.89647], [28.324631, -14.902732], [28.324631, -14.908993], [28.321501, -14.915255], [28.321501, -14.921517], [28.321501, -14.927778], [28.321501, -14.93404], [28.321501, -14.940301], [28.321501, -14.946563], [28.321501, -14.952824], [28.321501, -14.959086], [28.321501, -14.965348], [28.321501, -14.971609], [28.324631, -14.977871], [28.327762, -14.984132], [28.327762, -14.990394], [28.330893, -14.996655], [28.330893, -15.002917], [28.334024, -15.009179], [28.334024, -15.01544], [28.334024, -15.021702], [28.334024, -15.027963], [28.337155, -15.037356], [28.337155, -15.043617], [28.337155, -15.049879], [28.340285, -15.05614], [28.340285, -15.062402], [28.340285, -15.068664], [28.340285, -15.074925], [28.340285, -15.081187], [28.337155, -15.087448], [28.337155, -15.09371], [28.337155, -15.099971], [28.334024, -15.106233], [28.334024, -15.112495], [28.330893, -15.118756], [28.330893, -15.125018], [28.327762, -15.131279], [28.327762, -15.137541], [28.324631, -15.143802], [28.324631, -15.150064], [28.321501, -15.156326], [28.31837, -15.162587], [28.31837, -15.168849], [28.315239, -15.17511], [28.312108, -15.181372], [28.308977, -15.187633], [28.308977, -15.193895], [28.308977, -15.200157], [28.305847, -15.206418], [28.305847, -15.21268], [28.305847, -15.218941], [28.302716, -15.225203], [28.302716, -15.231464], [28.302716, -15.237726], [28.302716, -15.243988], [28.302716, -15.250249], [28.302716, -15.256511], [28.299585, -15.262772], [28.299585, -15.269034], [28.296454, -15.275295], [28.296454, -15.281557], [28.296454, -15.287819], [28.293324, -15.29408], [28.293324, -15.300342], [28.290193, -15.306603], [28.287062, -15.312865], [28.287062, -15.319126], [28.283931, -15.325388], [28.283931, -15.33165], [28.2808, -15.337911], [28.2808, -15.344173], [28.2808, -15.350434], [28.27767, -15.359827], [28.27767, -15.366088], [28.27767, -15.37235], [28.274539, -15.378611], [28.274539, -15.384873], [28.274539, -15.391134], [28.274539, -15.397396], [28.274539, -15.403658], [28.274539, -15.409919], [28.274539, -15.416181], [28.274539, -15.422442], [28.27767, -15.428704], [28.27767, -15.434965], [28.27767, -15.441227], [28.27767, -15.447489], [28.27767, -15.45375], [28.27767, -15.460012], [28.27767, -15.466273], [28.274539, -15.472535], [28.268277, -15.475666]]]}}
]
}
