{
"type": "FeatureCollection",
"features": [
{"type": "Feature", "properties": {"ProjectID": "P5232"}, "geometry": {"type": "LineString", "coordinates": [[40.38071, 52.82349], [40.35111, 52.75267], [40.26488, 52.66066], [39.9277, 52.49878], [39.79643, 52.37874], [39.63428, 52.34574], [39.48628, 52.32372], [39.40005, 52.31821], [39.33377, 52.2761], [39.31704, 52.26902], [39.20958, 52.2442], [39.00624, 52.13177], [38.87626, 52.09897], [38.6697, 52.11794], [38.37628, 52.08237], [38.21991, 51.96715], [38.16779, 51.91081], [38.07706, 51.83215], [37.95383, 51.76709], [37.92745, 51.7633], [37.77237, 51.67879], [37.55681, 51.62689], [37.5079, 51.58533], [37.36763, 51.49448], [37.27497, 51.46723], [37.13211, 51.44397], [37.05618, 51.44157], [37.01243, 51.42793], [36.91977, 51.42432], [36.86636, 51.40666], [36.73766, 51.39703], [36.63084, 51.34762], [36.60124, 51.31264], [36.5369, 51.29131], [36.47126, 51.24703], [36.27404, 51.21238], [36.2827, 51.20692], [36.22658, 51.19635], [36.1377, 51.18781], [35.97729, 51.16412], [35.9455, 51.14133], [35.84526, 51.15364], [35.79758, 51.16564], [35.73254, 51.15639], [35.7108, 51.16106], [35.66945, 51.15659], [35.62127, 51.14652], [35.58786, 51.13756], [35.55023, 51.12433], [35.51082, 51.1284], [35.47903, 51.12942], [35.42324, 51.14245], [35.38755, 51.15018], [35.30646, 51.15038], [35.2552, 51.14326], [35.20622, 51.13614], [35.1754, 51.12291], [35.05992, 51.12229], [34.96244, 51.07595], [34.81712, 51.07147], [34.72824, 51.05516], [34.6426, 51.01048], [34.56864, 50.99272], [34.55534, 50.9486], [34.55177, 50.93327], [34.54561, 50.88929], [34.56669, 50.8764], [34.59524, 50.83401], [34.59491, 50.81905], [34.57967, 50.78502], [34.53458, 50.76902], [34.37693, 50.7327], [34.19624, 50.70435], [34.02853, 50.66098], [33.94095, 50.59472], [33.80081, 50.55105], [33.68144, 50.47018], [33.6477, 50.42267], [33.6456, 50.41926], [33.67057, 50.3806], [33.6696, 50.35659], [33.64916, 50.34728], [33.57293, 50.2613], [33.60343, 50.19904], [33.616, 50.17775], [33.57155, 50.06846], [33.59913, 49.94775], [33.68282, 49.72934], [33.70942, 49.46147], [33.64454, 49.29928], [33.42169, 49.07369]]}}
]
}
