{
"type": "FeatureCollection",
"features": [
{"type": "Feature", "properties": {"ProjectID": "P5322"}, "geometry": {"type": "LineString", "coordinates": [[17.696612, 48.428937], [17.696735, 48.428675], [17.688951, 48.433372], [17.658109, 48.42644], [17.627962, 48.410234], [17.61463, 48.410036], [17.569714, 48.401924], [17.567743, 48.401025], [17.559757, 48.395958], [17.552333, 48.391512], [17.530913, 48.378398], [17.523724, 48.375192], [17.518548, 48.355187], [17.515023, 48.335766], [17.512486, 48.313727], [17.511102, 48.311779], [17.507969, 48.308106], [17.498943, 48.295436], [17.474291, 48.282572], [17.469705, 48.281611], [17.469667, 48.281519], [17.469774, 48.28098], [17.470611, 48.280198], [17.470692, 48.279887], [17.470482, 48.279652], [17.468439, 48.278816], [17.459748, 48.271761], [17.450473, 48.26983], [17.444449, 48.263663], [17.431483, 48.258295], [17.401135, 48.24606], [17.397795, 48.245758], [17.397634, 48.245679], [17.397543, 48.245554], [17.397537, 48.244827], [17.397486, 48.244731], [17.397391, 48.24464], [17.393921, 48.243254], [17.374572, 48.23923], [17.350121, 48.21735], [17.348917, 48.197234], [17.344915, 48.182202], [17.343705, 48.18076], [17.340278, 48.177598], [17.34011, 48.177304], [17.33833, 48.175602], [17.338314, 48.172146], [17.323787, 48.154077], [17.323396, 48.153715], [17.271403, 48.118685], [17.259607, 48.11352], [17.254146, 48.114718], [17.24875, 48.113778], [17.222432, 48.107953], [17.218087, 48.107825], [17.217277, 48.107908], [17.195249, 48.107179]]}}
]
}
