{
"type": "FeatureCollection",
"features": [
{"type": "Feature", "properties": {"ProjectID": "P5342", "full_id": "r12683968", "osm_id": 12683968, "osm_type": "relation", "man_made": "pipeline", "to": null, "ref": null, "from": null, "route": "pipeline", "type": "route", "operator:wikidata": null, "operator": "Petroecuador", "name": "Oleoducto San Miguel-Lago Agrio", "diameter": null}, "geometry": {"type": "MultiLineString", "coordinates": [[[-76.860671, 0.230216], [-76.860357, 0.230326], [-76.856296, 0.231801], [-76.854274, 0.232606], [-76.853431, 0.233255], [-76.851589, 0.23455], [-76.850916, 0.233413], [-76.850623, 0.232896], [-76.849853, 0.231587], [-76.849593, 0.231206], [-76.849322, 0.230905], [-76.848558, 0.230412], [-76.847013, 0.229468], [-76.846388, 0.229122], [-76.846318, 0.228977], [-76.846326, 0.228639], [-76.846358, 0.227156], [-76.846425, 0.224991], [-76.846498, 0.223288], [-76.84653, 0.22144], [-76.846549, 0.220844], [-76.846616, 0.220225], [-76.846675, 0.21997], [-76.846772, 0.21968], [-76.847592, 0.217838], [-76.848207, 0.216548], [-76.848917, 0.21485], [-76.84966, 0.213302], [-76.849794, 0.213018], [-76.8498, 0.212777], [-76.849727, 0.212471], [-76.849406, 0.211682], [-76.848434, 0.209585], [-76.847783, 0.208391], [-76.847182, 0.206983], [-76.847029, 0.206548], [-76.846994, 0.206288], [-76.84701, 0.205398], [-76.847675, 0.19085], [-76.847826, 0.18651], [-76.848223, 0.177374], [-76.848314, 0.176521], [-76.848469, 0.176001], [-76.849569, 0.173437], [-76.849585, 0.173249], [-76.84958, 0.172997], [-76.848786, 0.17002], [-76.848734, 0.169604], [-76.848614, 0.169102], [-76.848609, 0.168743], [-76.848754, 0.16738], [-76.849059, 0.160369], [-76.849129, 0.160042], [-76.849349, 0.159752], [-76.850674, 0.158443], [-76.850749, 0.15825], [-76.850776, 0.157966], [-76.850583, 0.157542], [-76.850057, 0.157129], [-76.849751, 0.157091], [-76.848244, 0.15722], [-76.847793, 0.157204], [-76.847439, 0.157032], [-76.847236, 0.156845], [-76.846967, 0.156507], [-76.846908, 0.15626], [-76.84686, 0.156084], [-76.846989, 0.156029], [-76.848534, 0.154125], [-76.849102, 0.153363], [-76.849263, 0.153052], [-76.849306, 0.151909], [-76.849478, 0.148305], [-76.849376, 0.147736], [-76.849043, 0.146733], [-76.849001, 0.146416], [-76.849151, 0.145553], [-76.84943, 0.14448], [-76.849446, 0.144195], [-76.849188, 0.142811], [-76.84921, 0.142538], [-76.849376, 0.142044], [-76.849617, 0.140939], [-76.849617, 0.14058], [-76.849392, 0.139094], [-76.849435, 0.138616], [-76.84966, 0.137511], [-76.849687, 0.137088], [-76.849666, 0.134481], [-76.849703, 0.132007], [-76.849869, 0.128285], [-76.849929, 0.127689], [-76.850068, 0.12755], [-76.85061, 0.12741], [-76.850808, 0.127271], [-76.850937, 0.127051], [-76.851028, 0.12682], [-76.851066, 0.126466], [-76.851017, 0.126139], [-76.850599, 0.125404], [-76.850492, 0.124841], [-76.850299, 0.123666], [-76.850363, 0.123414], [-76.850964, 0.122791], [-76.853115, 0.121112], [-76.85554, 0.119401], [-76.857997, 0.117996], [-76.858748, 0.117797], [-76.85945, 0.117744], [-76.860067, 0.117395], [-76.860856, 0.116923], [-76.861864, 0.116413], [-76.862304, 0.116086], [-76.862556, 0.115732], [-76.862851, 0.11548], [-76.864482, 0.11497], [-76.865121, 0.114697], [-76.866129, 0.11387], [-76.868913, 0.112497], [-76.8696, 0.112084], [-76.869932, 0.111837], [-76.870769, 0.111269], [-76.872502, 0.110212], [-76.874696, 0.109037], [-76.875941, 0.108544], [-76.876354, 0.108426], [-76.878033, 0.107106], [-76.878317, 0.106956], [-76.879762, 0.106442], [-76.880795, 0.106162], [-76.881117, 0.105754], [-76.881283, 0.104923], [-76.881364, 0.104259], [-76.881375, 0.104096], [-76.881327, 0.103785], [-76.88123, 0.10349], [-76.881133, 0.103029], [-76.88101, 0.10268], [-76.880927, 0.098552], [-76.880892, 0.09679], [-76.880951, 0.095969], [-76.881257, 0.094569], [-76.881273, 0.094371], [-76.881187, 0.094087], [-76.88049, 0.09325], [-76.880355, 0.092971], [-76.880286, 0.09222], [-76.880339, 0.090219], [-76.880457, 0.088347], [-76.880543, 0.086528], [-76.880341, 0.086233], [-76.880199, 0.085903], [-76.879186, 0.083572], [-76.878891, 0.082623], [-76.878714, 0.082001], [-76.878124, 0.081292]], [[-76.860872, 0.23013], [-76.860671, 0.230216]], [[-76.885912, 0.227291], [-76.885849, 0.227258], [-76.885272, 0.227228], [-76.88347, 0.227231], [-76.882413, 0.227236], [-76.88119, 0.227137], [-76.880262, 0.227161], [-76.879623, 0.227166], [-76.879148, 0.227137], [-76.878591, 0.227148], [-76.878263, 0.227209], [-76.8777, 0.227209], [-76.87692, 0.227142], [-76.876244, 0.227175], [-76.875098, 0.227223], [-76.874329, 0.227276], [-76.873822, 0.227352], [-76.872749, 0.227537], [-76.871467, 0.227719], [-76.870917, 0.22788], [-76.870037, 0.228046], [-76.869259, 0.22817], [-76.868492, 0.228269], [-76.86688, 0.228615], [-76.864745, 0.228993], [-76.863458, 0.229269], [-76.862173, 0.229645], [-76.861741, 0.229741], [-76.861591, 0.229787], [-76.860872, 0.23013]], [[-76.890414, 0.244436], [-76.890363, 0.243902], [-76.890206, 0.243345], [-76.890083, 0.242727], [-76.890106, 0.242435], [-76.890012, 0.242108], [-76.890023, 0.241745], [-76.890115, 0.241085], [-76.890141, 0.240535], [-76.890018, 0.239989], [-76.889556, 0.238603], [-76.888228, 0.234205], [-76.887678, 0.232775], [-76.887278, 0.231106], [-76.886632, 0.229425], [-76.885994, 0.227386], [-76.885912, 0.227294]]]}}
]
}
