{
"type": "FeatureCollection",
"features": [
{"type": "Feature", "properties": {"ProjectID": "P5351", "id": null}, "geometry": {"type": "MultiLineString", "coordinates": [[[51.428085, 35.528507], [51.428559, 35.538676], [51.441998, 35.564949], [51.474653, 35.61458], [51.486895, 35.650984], [51.50099, 35.692899], [51.515545, 35.716463], [51.607725, 35.722701], [51.681192, 35.731018], [51.758078, 35.723804], [51.961892, 35.704681], [52.103705, 35.654875], [52.151699, 35.629907], [52.25064, 35.612554], [52.307893, 35.612887], [52.316835, 35.61635], [52.327148, 35.62027], [52.336357, 35.624113], [52.341951, 35.625673], [52.353938, 35.628946], [52.363186, 35.631457], [52.378141, 35.635605], [52.38343, 35.637242], [52.388263, 35.639373], [52.391117, 35.640857], [52.394504, 35.645043], [52.401658, 35.645728], [52.403713, 35.64588], [52.411505, 35.64822], [52.414335, 35.649048], [52.416114, 35.649448], [52.427949, 35.650095], [52.428558, 35.65019], [52.432059, 35.651027], [52.442505, 35.653557], [52.446596, 35.655327], [52.455158, 35.658105], [52.457327, 35.658257], [52.462341, 35.660074], [52.46391, 35.660645], [52.470389, 35.6631], [52.472282, 35.663965], [52.473871, 35.665307], [52.478227, 35.666357], [52.482586, 35.667818], [52.483366, 35.668218], [52.484146, 35.668656], [52.484945, 35.66934], [52.485696, 35.670025], [52.486163, 35.670225], [52.486648, 35.670282], [52.487428, 35.670225], [52.487827, 35.670482], [52.488218, 35.671024], [52.488379, 35.671614], [52.488446, 35.67189], [52.488665, 35.672071], [52.490282, 35.672737], [52.491386, 35.673079], [52.492384, 35.673279], [52.494211, 35.673441], [52.494829, 35.673736], [52.494839, 35.67423], [52.494734, 35.674773], [52.494887, 35.675382], [52.495448, 35.675658], [52.498036, 35.6764], [52.5001, 35.676714], [52.500775, 35.676571], [52.501432, 35.676219], [52.50186, 35.675791], [52.50264, 35.675715], [52.503078, 35.675905], [52.50793, 35.67756], [52.50909, 35.678721], [52.511469, 35.679634], [52.515883, 35.681156], [52.516815, 35.682241], [52.519498, 35.682602], [52.520526, 35.682583], [52.522638, 35.681765], [52.523285, 35.680015], [52.525929, 35.679748], [52.529792, 35.680338], [52.532418, 35.679292], [52.53432, 35.677541], [52.537003, 35.676932], [52.541398, 35.677712], [52.551977, 35.677408], [52.560502, 35.677027], [52.570909, 35.6764], [52.580594, 35.675753], [52.589195, 35.676495], [52.601752, 35.678512], [52.602552, 35.679996], [52.611152, 35.685285], [52.623443, 35.688786], [52.626221, 35.690004], [52.633147, 35.693239], [52.645629, 35.70005], [52.654134, 35.705245], [52.655047, 35.707014], [52.654895, 35.710667], [52.65676, 35.712513], [52.657121, 35.713236], [52.656722, 35.714073], [52.65676, 35.714321], [52.658434, 35.715672], [52.659252, 35.716109], [52.660546, 35.716223], [52.664846, 35.720162], [52.675444, 35.726555], [52.678984, 35.728306], [52.681895, 35.7288], [52.694852, 35.731388], [52.699913, 35.732415], [52.700827, 35.732986], [52.702882, 35.734375], [52.704442, 35.734984], [52.713546, 35.738133], [52.716553, 35.739161], [52.721861, 35.740987], [52.726123, 35.742852], [52.727151, 35.742852], [52.728026, 35.743232], [52.728483, 35.743651], [52.728825, 35.744108], [52.730423, 35.744869], [52.739062, 35.749321], [52.743057, 35.751871], [52.74378, 35.752556], [52.744199, 35.75305], [52.752, 35.757084], [52.757632, 35.758606], [52.76003, 35.759482], [52.769163, 35.763439], [52.775746, 35.766636], [52.780389, 35.768919], [52.785602, 35.772686], [52.787276, 35.773371], [52.791539, 35.777291], [52.793251, 35.778052], [52.796942, 35.780487], [52.802993, 35.789697], [52.806266, 35.794682], [52.818919, 35.813671], [52.825445, 35.823983], [52.828014, 35.827979], [52.835054, 35.83188], [52.838897, 35.833897], [52.849895, 35.839738], [52.863138, 35.846683], [52.899013, 35.864364], [52.92626, 35.872431], [52.942611, 35.881427], [52.975654, 35.926164], [52.986538, 35.943441], [52.990664, 35.952933], [52.997219, 35.958441], [53.027206, 36.036605], [53.047299, 36.091403], [53.03417, 36.166864], [53.037366, 36.214052], [53.042846, 36.222119], [53.047413, 36.224707], [53.05784, 36.240005], [53.067784, 36.305588], [53.070597, 36.307227], [53.071387, 36.309168], [53.070245, 36.31207], [53.06918, 36.317911], [53.068647, 36.325731], [53.073594, 36.332847], [53.075535, 36.344264], [53.075383, 36.364965], [53.072795, 36.37406], [53.073564, 36.376366], [53.082689, 36.388292], [53.087484, 36.395218], [53.087636, 36.409527], [53.089387, 36.41318], [53.09852, 36.415083], [53.098367, 36.429315], [53.108585, 36.464211], [53.125785, 36.480193], [53.200886, 36.510627], [53.25058, 36.586484], [53.278588, 36.654677], [53.282241, 36.739919], [53.267324, 36.782235], [53.259408, 36.797761], [53.253047, 36.823878], [53.255293, 36.827728]]]}}
]
}
