{
"type": "FeatureCollection",
"features": [
{"type": "Feature", "properties": {"ProjectID": "P5368", "id": null}, "geometry": {"type": "MultiLineString", "coordinates": [[[51.505205, 32.771096], [51.491598, 32.766408], [51.476047, 32.762863], [51.461983, 32.752687], [51.426479, 32.738994], [51.424306, 32.739108], [51.415501, 32.736878], [51.410356, 32.733905], [51.402695, 32.733048], [51.397206, 32.728245], [51.394005, 32.727045], [51.386801, 32.726473], [51.382627, 32.726644], [51.378854, 32.726816], [51.37508, 32.728302], [51.371078, 32.726987], [51.362159, 32.723557], [51.356614, 32.721556], [51.349067, 32.71864], [51.32534, 32.709778], [51.295267, 32.729503], [51.280402, 32.734077], [51.253417, 32.733848], [51.243354, 32.738422], [51.195558, 32.748942], [51.193757, 32.749028], [51.184953, 32.748627], [51.184667, 32.747598], [51.183323, 32.746969], [51.182866, 32.746083], [51.182408, 32.743539], [51.181408, 32.737822], [51.180693, 32.73685], [51.18015, 32.734677], [51.179378, 32.733619], [51.17915, 32.733019], [51.177663, 32.731132], [51.176948, 32.729932], [51.173518, 32.721756], [51.17246, 32.719383], [51.170802, 32.71784], [51.1658, 32.71338], [51.074866, 32.641114], [51.064347, 32.631852], [51.063346, 32.630308], [51.061174, 32.628436], [51.060488, 32.627278], [51.05923, 32.625992], [51.053484, 32.62036], [51.048396, 32.614715], [51.042821, 32.608397], [51.040534, 32.604852], [51.035875, 32.597448], [51.034217, 32.595647], [51.029414, 32.591074], [51.026641, 32.588358], [51.02201, 32.585271], [51.017922, 32.580725], [51.015693, 32.576923], [51.011433, 32.569462], [51.008489, 32.564345], [51.007946, 32.563259], [51.001457, 32.557285], [51.000485, 32.556484], [50.995739, 32.553797], [50.992681, 32.551882], [50.988307, 32.545364], [50.983447, 32.538561], [50.979045, 32.531557], [50.973871, 32.52341], [50.971184, 32.519208], [50.966982, 32.516063], [50.962779, 32.512976], [50.961893, 32.512232], [50.961407, 32.510946], [50.961579, 32.509545], [50.961493, 32.508831], [50.960578, 32.506429], [50.960407, 32.504228], [50.958692, 32.502084], [50.95629, 32.501141], [50.952231, 32.499054], [50.948086, 32.496138], [50.944055, 32.492737], [50.94154, 32.49045], [50.940539, 32.489392], [50.937223, 32.487791], [50.936594, 32.487391], [50.935851, 32.486247], [50.933821, 32.484561], [50.93062, 32.483017], [50.928161, 32.480616], [50.919728, 32.480244], [50.914811, 32.478929], [50.904863, 32.471554], [50.900004, 32.46698], [50.896173, 32.464693], [50.884681, 32.459319], [50.882194, 32.455631], [50.881594, 32.454745], [50.880479, 32.450715], [50.87965, 32.4494], [50.876134, 32.44494], [50.873361, 32.44091], [50.87096, 32.437479], [50.869188, 32.434992], [50.866243, 32.430618], [50.862012, 32.426302], [50.859354, 32.423558], [50.858925, 32.422757], [50.852036, 32.417497], [50.849149, 32.415839], [50.844975, 32.413124], [50.841773, 32.411037], [50.839601, 32.409579], [50.836685, 32.407035], [50.831425, 32.402918], [50.827709, 32.399945], [50.82142, 32.395057], [50.820591, 32.394342], [50.819905, 32.393999], [50.817475, 32.392284], [50.813959, 32.390026], [50.811615, 32.388854], [50.80564, 32.387596], [50.797865, 32.386052], [50.79069, 32.384423], [50.78906, 32.383794], [50.787659, 32.383451], [50.782257, 32.378448], [50.78137, 32.371645], [50.780113, 32.362897], [50.780141, 32.362268], [50.780741, 32.358409], [50.781599, 32.353864], [50.781971, 32.352035], [50.7836, 32.347032], [50.784086, 32.345317], [50.7842, 32.34303], [50.784372, 32.341], [50.784515, 32.340171], [50.785315, 32.338256], [50.787059, 32.334483], [50.788031, 32.332081], [50.789146, 32.328708], [50.790661, 32.323534], [50.791719, 32.320247], [50.792433, 32.317759], [50.79372, 32.314015], [50.795578, 32.309298], [50.796836, 32.306182], [50.798179, 32.30278], [50.798608, 32.301894], [50.801895, 32.295233], [50.810872, 32.272307], [50.814188, 32.265446], [50.816331, 32.254183], [50.814502, 32.247837], [50.813644, 32.24475], [50.82182, 32.234059], [50.827366, 32.227484], [50.831425, 32.217479], [50.835141, 32.215134], [50.835341, 32.198812], [50.835684, 32.198154], [50.835856, 32.195296], [50.839829, 32.185376], [50.84669, 32.179888], [50.850321, 32.176371], [50.855466, 32.172255], [50.857096, 32.170797], [50.857153, 32.16771], [50.857153, 32.16205], [50.857038, 32.158219], [50.857038, 32.156189], [50.855466, 32.153617], [50.854466, 32.151587], [50.852636, 32.147242], [50.847548, 32.144269], [50.846947, 32.141896], [50.847148, 32.138752], [50.846947, 32.137837], [50.847348, 32.136922], [50.844889, 32.130948], [50.842345, 32.12503], [50.841373, 32.12383], [50.840773, 32.123572], [50.840315, 32.122686], [50.839658, 32.119627], [50.838858, 32.114482], [50.839258, 32.113167], [50.843832, 32.104076], [50.844003, 32.103448], [50.84426, 32.103105], [50.844775, 32.102418], [50.845976, 32.100275], [50.846433, 32.099874], [50.846204, 32.099388], [50.844746, 32.097845], [50.844575, 32.097302], [50.843917, 32.096873], [50.843403, 32.096558], [50.841402, 32.094757], [50.839772, 32.092442], [50.839858, 32.090612], [50.837914, 32.088497], [50.837057, 32.087611], [50.833169, 32.084638], [50.830853, 32.083094], [50.82728, 32.080721], [50.826022, 32.079864], [50.823621, 32.079292], [50.82242, 32.079321], [50.821706, 32.079378], [50.819676, 32.078034], [50.81656, 32.073318], [50.811186, 32.065256], [50.807899, 32.060397], [50.805583, 32.057481], [50.804411, 32.056366], [50.803611, 32.052907], [50.803468, 32.049219], [50.80321, 32.044188], [50.802839, 32.039443], [50.802467, 32.034154], [50.801838, 32.026922], [50.801524, 32.022062], [50.802296, 32.018632], [50.800466, 32.013972], [50.798694, 32.012457], [50.796007, 32.009884], [50.793177, 32.008512], [50.792005, 32.005854], [50.789946, 32.003767], [50.78926, 32.00331], [50.788431, 32.002138], [50.787974, 32.000022], [50.787574, 31.99795], [50.785944, 31.997092], [50.784429, 31.996492], [50.783371, 31.99552], [50.782371, 31.994977], [50.781542, 31.99389], [50.78137, 31.992432], [50.781528, 31.988402], [50.781728, 31.985429], [50.781756, 31.984128], [50.781613, 31.983342], [50.777626, 31.979411], [50.775453, 31.977296], [50.773295, 31.974795], [50.771051, 31.971979], [50.770951, 31.971436], [50.769593, 31.969906], [50.764705, 31.965833], [50.764076, 31.965218], [50.762832, 31.962831], [50.759902, 31.956842], [50.7565, 31.952955], [50.755328, 31.951182], [50.751755, 31.948381], [50.750869, 31.948009], [50.749997, 31.947866], [50.749139, 31.947395], [50.747424, 31.947137], [50.746052, 31.947223], [50.743965, 31.949053], [50.743579, 31.949367], [50.74275, 31.950053], [50.742164, 31.950553], [50.741564, 31.951082], [50.740821, 31.951597], [50.740249, 31.951783], [50.73922, 31.951668], [50.737762, 31.950796], [50.73709, 31.950997], [50.734789, 31.952683], [50.733531, 31.952454], [50.730758, 31.951797], [50.730572, 31.951282], [50.730958, 31.949925], [50.729629, 31.947952], [50.725012, 31.94708], [50.724269, 31.946923], [50.718309, 31.949639], [50.717566, 31.95001], [50.713564, 31.949553], [50.710776, 31.949381], [50.706703, 31.950911], [50.704888, 31.950596], [50.702544, 31.950153], [50.69937, 31.949439], [50.69877, 31.949138], [50.697427, 31.947323], [50.695783, 31.946666], [50.694196, 31.947023], [50.692538, 31.946308], [50.686478, 31.943893], [50.68432, 31.943035], [50.682319, 31.941835], [50.681647, 31.941534], [50.680561, 31.941577], [50.680103, 31.94162], [50.678631, 31.941749], [50.677488, 31.941492], [50.676316, 31.941206], [50.674715, 31.940034], [50.674214, 31.939348], [50.674157, 31.937304], [50.673085, 31.936332], [50.670598, 31.935231], [50.669369, 31.935403], [50.66834, 31.935474], [50.664795, 31.935188], [50.662594, 31.935103], [50.661036, 31.934331], [50.659921, 31.933788], [50.658849, 31.932973], [50.657091, 31.931286], [50.655076, 31.929557], [50.654618, 31.929042], [50.654004, 31.928127], [50.653261, 31.927413], [50.65266, 31.926712], [50.652074, 31.926255], [50.650373, 31.925069], [50.648701, 31.924011], [50.645442, 31.924797], [50.643627, 31.925783], [50.642827, 31.926341], [50.64064, 31.926169], [50.638524, 31.925912], [50.637667, 31.925826], [50.634322, 31.926712], [50.632321, 31.92737], [50.627633, 31.928814], [50.625661, 31.927656], [50.623988, 31.926226], [50.622559, 31.924869], [50.62183, 31.923682], [50.621644, 31.923125], [50.620672, 31.923111], [50.619457, 31.923182], [50.618042, 31.923625], [50.616927, 31.924154], [50.616456, 31.924426], [50.61577, 31.924426], [50.615469, 31.924225], [50.615369, 31.923925], [50.615498, 31.923096], [50.61697, 31.920609], [50.616985, 31.919623], [50.616813, 31.918851], [50.61557, 31.917794], [50.614012, 31.916193], [50.61181, 31.913906], [50.610281, 31.912334], [50.608594, 31.911819], [50.607365, 31.91139], [50.606536, 31.911505], [50.602077, 31.910304], [50.599418, 31.909189], [50.598646, 31.909532], [50.597646, 31.911876], [50.597589, 31.912734], [50.595045, 31.914049], [50.59363, 31.913649], [50.591814, 31.912677], [50.590228, 31.911876], [50.588513, 31.91129], [50.586783, 31.910161], [50.586211, 31.909503], [50.583982, 31.907274], [50.582181, 31.906916], [50.580223, 31.905902], [50.577807, 31.904301], [50.575863, 31.900713], [50.575191, 31.900056], [50.572661, 31.898769], [50.571218, 31.898283], [50.569503, 31.897812], [50.567173, 31.897612], [50.565057, 31.897083], [50.563614, 31.895796], [50.562285, 31.894782], [50.560627, 31.893195], [50.55914, 31.892094], [50.55814, 31.891608], [50.556882, 31.890894], [50.555495, 31.890351], [50.554137, 31.889736], [50.553094, 31.88955], [50.551793, 31.88935], [50.549678, 31.888936], [50.547205, 31.888121], [50.545676, 31.888035], [50.54479, 31.887878], [50.538058, 31.886534], [50.53517, 31.88592], [50.534927, 31.88552], [50.536443, 31.884105], [50.538172, 31.881246], [50.539044, 31.879388], [50.540044, 31.877144], [50.542846, 31.873942], [50.543875, 31.872284], [50.545876, 31.870512], [50.546619, 31.869368], [50.546848, 31.867539], [50.546676, 31.865538], [50.545647, 31.863765], [50.543703, 31.862164], [50.542789, 31.860506], [50.54216, 31.858791], [50.53913, 31.855418], [50.538329, 31.853246], [50.538386, 31.852274], [50.538901, 31.850673], [50.538958, 31.843297], [50.538386, 31.839638], [50.538586, 31.837552], [50.538158, 31.836465], [50.535785, 31.834893], [50.533441, 31.830062], [50.533784, 31.828004], [50.531011, 31.821801], [50.532698, 31.814997], [50.534356, 31.810252], [50.537043, 31.807107], [50.53953, 31.805335], [50.540387, 31.801676], [50.536471, 31.800675], [50.535328, 31.800218], [50.534899, 31.799389], [50.535013, 31.798303], [50.535671, 31.797731], [50.536014, 31.797388], [50.534527, 31.793414], [50.534413, 31.7927], [50.535899, 31.788212], [50.538072, 31.78441], [50.539072, 31.782637], [50.539301, 31.781637], [50.539101, 31.779178], [50.538672, 31.77712], [50.538615, 31.775462], [50.538015, 31.772089], [50.537672, 31.771174], [50.536986, 31.770231], [50.5363, 31.769659], [50.535499, 31.768315], [50.535499, 31.767429], [50.535785, 31.765057], [50.536042, 31.763827], [50.536014, 31.762512], [50.535499, 31.761655], [50.535242, 31.760969], [50.535328, 31.759968], [50.535528, 31.758139], [50.535299, 31.75285], [50.534642, 31.750249], [50.53527, 31.74942], [50.536871, 31.748191], [50.538358, 31.747447], [50.539273, 31.746733], [50.540044, 31.745218], [50.540416, 31.744017], [50.541073, 31.743188], [50.542103, 31.742359], [50.542589, 31.742073], [50.543846, 31.741187], [50.545819, 31.739986], [50.547677, 31.739186], [50.548992, 31.739157], [50.550593, 31.737985], [50.550679, 31.736413], [50.55005, 31.735212], [50.549078, 31.734012], [50.544647, 31.728009], [50.544218, 31.72718], [50.543875, 31.725064], [50.542846, 31.723807], [50.540902, 31.721634], [50.539844, 31.719776], [50.538701, 31.718204], [50.538586, 31.71646], [50.538243, 31.714344], [50.5375, 31.712801], [50.536671, 31.711857], [50.531411, 31.709456], [50.526923, 31.709685], [50.524722, 31.70897], [50.522264, 31.70797], [50.520863, 31.706998], [50.519777, 31.706455], [50.518405, 31.705883], [50.51769, 31.704997], [50.514888, 31.70311], [50.511115, 31.699851], [50.508342, 31.697478], [50.50657, 31.69705], [50.503482, 31.69725], [50.502082, 31.697936], [50.500395, 31.698508], [50.498337, 31.698336], [50.495535, 31.697707], [50.492905, 31.697621], [50.490304, 31.697478], [50.488332, 31.697679], [50.486645, 31.698107], [50.4823, 31.698593], [50.479699, 31.699051], [50.478298, 31.699108], [50.475554, 31.699765], [50.468007, 31.699165], [50.465663, 31.703596], [50.463719, 31.704854], [50.462347, 31.707255], [50.452284, 31.713201], [50.447253, 31.718461], [50.43902, 31.724407], [50.43639, 31.72555], [50.423812, 31.728638], [50.42144, 31.729181], [50.419824, 31.728709], [50.418738, 31.728166], [50.417923, 31.727594], [50.417309, 31.727123], [50.416609, 31.726479], [50.416437, 31.725607], [50.416766, 31.724721], [50.417023, 31.724035], [50.417395, 31.723292], [50.417337, 31.72282], [50.417009, 31.722563], [50.416523, 31.721305], [50.417552, 31.720705], [50.418252, 31.720062], [50.419896, 31.719947], [50.422283, 31.719075], [50.422926, 31.71869], [50.423312, 31.718218], [50.423183, 31.717503], [50.422369, 31.71716], [50.422197, 31.716932], [50.421997, 31.71666], [50.421954, 31.716074], [50.42134, 31.715402], [50.420982, 31.715116], [50.420896, 31.714502], [50.421125, 31.713301], [50.420839, 31.712472], [50.420639, 31.712029], [50.420325, 31.711757], [50.419581, 31.711672], [50.419296, 31.711529], [50.419181, 31.711157], [50.41981, 31.710414], [50.420082, 31.710171], [50.419824, 31.709813], [50.418667, 31.70917], [50.418309, 31.707898], [50.417838, 31.707269], [50.418152, 31.706083], [50.417981, 31.703825], [50.370213, 31.695535], [50.311668, 31.644308], [50.253123, 31.556491], [50.232102, 31.500766], [50.220687, 31.469878], [50.209943, 31.434962], [50.205555, 31.380856], [50.153414, 31.295783], [50.097613, 31.264681], [50.055534, 31.186011], [50.061023, 31.100024], [50.11042, 31.028672], [50.100172, 30.96411], [50.099028, 30.955391], [50.094226, 30.946186], [50.094397, 30.94327], [50.093711, 30.940955], [50.093483, 30.939583], [50.093797, 30.933437], [50.093654, 30.931493], [50.091482, 30.925261], [50.091767, 30.919086], [50.10829, 30.881981], [50.115608, 30.871576], [50.122241, 30.8626], [50.123613, 30.861285], [50.124756, 30.859341], [50.126014, 30.858941], [50.127272, 30.858883], [50.127929, 30.858569], [50.12873, 30.859026], [50.129902, 30.858455], [50.13033, 30.858169], [50.131188, 30.857826], [50.132789, 30.857511], [50.135333, 30.854681], [50.136019, 30.852966], [50.137077, 30.851765], [50.137992, 30.850565], [50.138763, 30.849707], [50.140279, 30.847878], [50.140479, 30.846706], [50.141108, 30.84602], [50.141822, 30.845562], [50.14368, 30.844362], [50.145824, 30.842361], [50.14611, 30.841532], [50.146082, 30.838844], [50.147654, 30.835414], [50.148454, 30.833242], [50.149169, 30.832641], [50.151656, 30.830554], [50.153485, 30.828982], [50.155687, 30.826924], [50.157316, 30.824037], [50.15763, 30.821864], [50.157831, 30.81892], [50.157773, 30.816404], [50.159288, 30.815918], [50.160032, 30.814203], [50.15986, 30.812717], [50.158888, 30.808], [50.157688, 30.807114], [50.15623, 30.799224], [50.155515, 30.795136], [50.155115, 30.791848], [50.154171, 30.787675], [50.153857, 30.780614], [50.154086, 30.779356], [50.155229, 30.776383], [50.1544, 30.768522], [50.155915, 30.764834], [50.155344, 30.758831], [50.148912, 30.753285], [50.14308, 30.750999], [50.141851, 30.750398], [50.13842, 30.75137], [50.133904, 30.752828], [50.128415, 30.751627], [50.120926, 30.75017], [50.115037, 30.748969], [50.106975, 30.747225], [50.099886, 30.745939], [50.093311, 30.744538], [50.090367, 30.744081], [50.086736, 30.746139], [50.083592, 30.749226], [50.080018, 30.751999], [50.078132, 30.752113], [50.067669, 30.752857], [50.064353, 30.754172], [50.059779, 30.755258], [50.053033, 30.754686], [50.04783, 30.753657], [50.046058, 30.753943], [50.03731, 30.756916], [50.025762, 30.758803], [50.015013, 30.754686], [50.008781, 30.755201], [50.005694, 30.756573], [49.998033, 30.759089], [49.98637, 30.761947], [49.985569, 30.760175], [49.975278, 30.762533], [49.974521, 30.762662], [49.971676, 30.765463], [49.971476, 30.765892], [49.969332, 30.766893], [49.96716, 30.768351], [49.964187, 30.769708], [49.960942, 30.771166], [49.957769, 30.772253], [49.953224, 30.774354], [49.951994, 30.77494], [49.949779, 30.775697], [49.948979, 30.776569], [49.946835, 30.77897], [49.945563, 30.77887], [49.941175, 30.779313], [49.939131, 30.780185], [49.935643, 30.781557], [49.933385, 30.782787], [49.929054, 30.785259], [49.926267, 30.786531], [49.924895, 30.787532], [49.920307, 30.789176], [49.918763, 30.788718], [49.914932, 30.789004], [49.912874, 30.78849], [49.904184, 30.784373], [49.899496, 30.787346], [49.894807, 30.78746], [49.889891, 30.78746], [49.886803, 30.788947], [49.882344, 30.791691], [49.873768, 30.793292], [49.866107, 30.794093], [49.855574, 30.79322], [49.85067, 30.793406], [49.840265, 30.795236], [49.817739, 30.798781], [49.810535, 30.799009], [49.808134, 30.801068], [49.797728, 30.803126], [49.788352, 30.803354], [49.775774, 30.802668], [49.77383, 30.80587], [49.772229, 30.806671], [49.767198, 30.813646], [49.763996, 30.815589], [49.761938, 30.815361], [49.755763, 30.818105], [49.752562, 30.826681], [49.747073, 30.830111], [49.73884, 30.837887], [49.732094, 30.840631], [49.724433, 30.847377], [49.722375, 30.850122], [49.708424, 30.859498], [49.704194, 30.863157], [49.691387, 30.874935], [49.678123, 30.889114], [49.654459, 30.894736]]]}}
]
}
