{
"type": "FeatureCollection",
"features": [
{"type": "Feature", "properties": {"ProjectID": "P5361", "id": null}, "geometry": {"type": "MultiLineString", "coordinates": [[[55.850856, 30.369317], [55.850813, 30.368984], [55.851003, 30.36878], [55.851147, 30.368687], [55.851207, 30.368342], [55.850898, 30.366049], [55.850751, 30.364717], [55.850849, 30.364551], [55.850218, 30.359524], [55.849474, 30.353606], [55.849141, 30.350949], [55.846824, 30.331346], [55.845901, 30.324771], [55.845, 30.322771], [55.84412, 30.320882], [55.843434, 30.320104], [55.842876, 30.318548], [55.842189, 30.317177], [55.841717, 30.313398], [55.841776, 30.309685], [55.841824, 30.310601], [55.841704, 30.308317], [55.840035, 30.304724], [55.837771, 30.301827], [55.836661, 30.298948], [55.833867, 30.296412], [55.832337, 30.29223], [55.83129, 30.291028], [55.830668, 30.287948], [55.825457, 30.277395], [55.823392, 30.273396], [55.807106, 30.241851], [55.80526, 30.23844], [55.803715, 30.235919], [55.801183, 30.231822], [55.800625, 30.230562], [55.7979, 30.222793], [55.796076, 30.217824], [55.795669, 30.21749], [55.79451, 30.217101], [55.794167, 30.216545], [55.793909, 30.215933], [55.792772, 30.214894], [55.791527, 30.213726], [55.789253, 30.211037], [55.787622, 30.208868], [55.786356, 30.207922], [55.78303, 30.206605], [55.780925, 30.205856], [55.77877, 30.205554], [55.775842, 30.204177], [55.775129, 30.203312], [55.773456, 30.201234], [55.769829, 30.197135], [55.764916, 30.191645], [55.760409, 30.18597], [55.752985, 30.176584], [55.743866, 30.16178], [55.734574, 30.146659], [55.731163, 30.138531], [55.727665, 30.133651], [55.722751, 30.127582], [55.715799, 30.116391], [55.710585, 30.108001], [55.708182, 30.104091], [55.703375, 30.096268], [55.676596, 30.052093], [55.672991, 30.046131], [55.672454, 30.045127], [55.671532, 30.042601], [55.668957, 30.033239], [55.66267, 30.01048], [55.662133, 30.008473], [55.66061, 29.996766], [55.659912, 29.991182], [55.660003, 29.981616], [55.660095, 29.97614], [55.660378, 29.959287], [55.660522, 29.950861], [55.660574, 29.947815], [55.660617, 29.943966], [55.661218, 29.93995], [55.66363, 29.921395], [55.664702, 29.9131], [55.665237, 29.911187], [55.666526, 29.906572], [55.670088, 29.893923], [55.671934, 29.887635], [55.675024, 29.876491], [55.677534, 29.868136], [55.68277, 29.855222], [55.688413, 29.841691], [55.691997, 29.833055], [55.697584, 29.81955], [55.700309, 29.812631], [55.703579, 29.804328], [55.708385, 29.792317], [55.712977, 29.780324], [55.714908, 29.775426], [55.716282, 29.770062], [55.71714, 29.766709], [55.719028, 29.765163], [55.721711, 29.758308], [55.725487, 29.748659], [55.732246, 29.731257], [55.736817, 29.719629], [55.741752, 29.706938], [55.746258, 29.695494], [55.75349, 29.677141], [55.760421, 29.659373], [55.769969, 29.629553], [55.774647, 29.614686], [55.779282, 29.600732], [55.786535, 29.574216], [55.793101, 29.549094], [55.79765, 29.532647], [55.80561, 29.503929], [55.811404, 29.481311], [55.825558, 29.431309], [55.827117, 29.425942], [55.831383, 29.411864], [55.836483, 29.398065], [55.839234, 29.390706], [55.841618, 29.384228], [55.8446, 29.376194], [55.846191, 29.37199], [55.847452, 29.367631], [55.850782, 29.356264], [55.856276, 29.336999], [55.862025, 29.315892], [55.870406, 29.286214], [55.877837, 29.259578], [55.881945, 29.246163], [55.885044, 29.236473], [55.88782, 29.227556], [55.890162, 29.219916], [55.892811, 29.211578], [55.898098, 29.195113], [55.901896, 29.181588], [55.90608, 29.166581], [55.905844, 29.151628], [55.913076, 29.140852], [55.918118, 29.117647], [55.920629, 29.104487], [55.925113, 29.081161], [55.926465, 29.074822], [55.929941, 29.056855], [55.93301, 29.040985], [55.936464, 29.02213], [55.939447, 29.006199], [55.941293, 28.997021], [55.940456, 28.992874], [55.937452, 28.988463], [55.92992, 28.975098], [55.925285, 28.964191], [55.921487, 28.950936], [55.919856, 28.944627], [55.911595, 28.93351], [55.896188, 28.912344], [55.881662, 28.893878], [55.855226, 28.859719], [55.832674, 28.830755], [55.823747, 28.819025], [55.821387, 28.807669], [55.820336, 28.801088], [55.820572, 28.798079], [55.822116, 28.793246], [55.820057, 28.785179], [55.817417, 28.779104], [55.812739, 28.766221], [55.808834, 28.745058], [55.80465, 28.723947], [55.800595, 28.70238], [55.797805, 28.687699], [55.792784, 28.664242], [55.789887, 28.647258], [55.785431, 28.63766], [55.780088, 28.623308], [55.771312, 28.607655], [55.766892, 28.599121], [55.766699, 28.59492], [55.770539, 28.58646], [55.772536, 28.581868], [55.774766, 28.574495], [55.782834, 28.55563], [55.784573, 28.551427], [55.78041, 28.536159], [55.780324, 28.53335], [55.778994, 28.522265], [55.774895, 28.512404], [55.775324, 28.509689], [55.776333, 28.507464], [55.777942, 28.49515], [55.777899, 28.492359], [55.775002, 28.482873], [55.775796, 28.473914], [55.776052, 28.472552], [55.777728, 28.463614], [55.779652, 28.452297], [55.781669, 28.440486], [55.78433, 28.433391], [55.785731, 28.429043], [55.800988, 28.381705], [55.804464, 28.37066], [55.805215, 28.363032], [55.803992, 28.357783], [55.793392, 28.346906], [55.784082, 28.346203], [55.783136, 28.346132], [55.776076, 28.343639], [55.775239, 28.343186], [55.764854, 28.342241], [55.763416, 28.340674], [55.757515, 28.340674], [55.746743, 28.342657], [55.744404, 28.342732], [55.74125, 28.342846], [55.73816, 28.344149], [55.733225, 28.343544], [55.73095, 28.34209], [55.73389, 28.33463], [55.73625, 28.330418], [55.741508, 28.324261], [55.748353, 28.318481], [55.75258, 28.315458], [55.764339, 28.312171], [55.768244, 28.310207], [55.775625, 28.303066], [55.778479, 28.300729], [55.783264, 28.296812], [55.783929, 28.293827], [55.781698, 28.289084], [55.776312, 28.285834], [55.769896, 28.286836], [55.768308, 28.28642], [55.76642, 28.284285], [55.766441, 28.282225], [55.765626, 28.280921], [55.755798, 28.272002], [55.754617, 28.270936], [55.74898, 28.262463], [55.747626, 28.260222], [55.745037, 28.255937], [55.741057, 28.253707], [55.741636, 28.250721], [55.741057, 28.246298], [55.738525, 28.240286], [55.735853, 28.233434], [55.734801, 28.231616], [55.73301, 28.229719], [55.730414, 28.228906], [55.726251, 28.227715], [55.722904, 28.227658], [55.718054, 28.224047], [55.71814, 28.222232], [55.719149, 28.221722], [55.719449, 28.219736], [55.719041, 28.219774], [55.72005, 28.215766], [55.726165, 28.210055], [55.728998, 28.202624], [55.738015, 28.197761], [55.740717, 28.196086], [55.741488, 28.195496], [55.742582, 28.193375], [55.745521, 28.191339], [55.749707, 28.188523], [55.7561, 28.178629], [55.766147, 28.161504], [55.77429, 28.141336], [55.776878, 28.135057], [55.785022, 28.121433], [55.80032, 28.097573], [55.808235, 28.086005], [55.8187, 28.070821], [55.822429, 28.06576], [55.82437, 28.063781], [55.841608, 28.047989], [55.851046, 28.039579], [55.855688, 28.035659], [55.865126, 28.027401], [55.865887, 28.026602], [55.866268, 28.026069], [55.871709, 28.021541], [55.87658, 28.017317], [55.8801, 28.013911], [55.886075, 28.008583], [55.895094, 28.006414], [55.900269, 28.006757], [55.905977, 28.004854], [55.911267, 28.001505], [55.918345, 27.997433], [55.919601, 27.996672], [55.92078, 27.997167], [55.926412, 27.994503], [55.928429, 27.987768], [55.930484, 27.981108], [55.932349, 27.979053], [55.940721, 27.971062], [55.960395, 27.95272], [55.962982, 27.951464], [55.964961, 27.950779], [55.966255, 27.950436], [55.969109, 27.946631], [55.970746, 27.942597], [55.970822, 27.941075], [55.970974, 27.940504], [55.970593, 27.939629], [55.969604, 27.938373], [55.969185, 27.9359], [55.967968, 27.932285], [55.967054, 27.9308], [55.96713, 27.929925], [55.954306, 27.923646], [55.953241, 27.920374], [55.942509, 27.911203], [55.940759, 27.90911], [55.939731, 27.907397], [55.93897, 27.904581], [55.939122, 27.902526], [55.939541, 27.900395], [55.939655, 27.899253], [55.940949, 27.897922], [55.9419, 27.896133], [55.943993, 27.892898], [55.944298, 27.891186], [55.946505, 27.888827], [55.953355, 27.884907], [55.956592, 27.882035], [55.961156, 27.878286], [55.962164, 27.878257], [55.962202, 27.875669], [55.961536, 27.873291], [55.961065, 27.870798], [55.959734, 27.868515], [55.956613, 27.864976], [55.956347, 27.864272], [55.956328, 27.862217], [55.95686, 27.859572], [55.957888, 27.858773], [55.958421, 27.858317], [55.960495, 27.852551], [55.96234, 27.84749], [55.961884, 27.84064], [55.962683, 27.839841], [55.971626, 27.835427], [55.97486, 27.835161], [55.976382, 27.835008], [55.977943, 27.83497], [55.984488, 27.834323], [55.991604, 27.832383], [55.993963, 27.827854], [55.995409, 27.823897], [56.000357, 27.821842], [56.003173, 27.816476], [56.004904, 27.812537], [56.005275, 27.812309], [56.006588, 27.811491], [56.007706, 27.810777], [56.008429, 27.810226], [56.010423, 27.809788], [56.016409, 27.808898], [56.017941, 27.808109], [56.019511, 27.807224], [56.02032, 27.805854], [56.021033, 27.802867], [56.023097, 27.796502], [56.023554, 27.795912], [56.026351, 27.79538], [56.030195, 27.793534], [56.033943, 27.790185], [56.040412, 27.788178], [56.04436, 27.786941], [56.047681, 27.785923], [56.049155, 27.785438], [56.051924, 27.78482], [56.055672, 27.783973], [56.059972, 27.783107], [56.060781, 27.782964], [56.061846, 27.782574], [56.064833, 27.781204], [56.065185, 27.780976], [56.066346, 27.780472], [56.067754, 27.779283], [56.069876, 27.777285], [56.071531, 27.775972], [56.072226, 27.775135], [56.073224, 27.774126], [56.074081, 27.773156], [56.075869, 27.77131], [56.076973, 27.770159], [56.077553, 27.76975], [56.078457, 27.768742], [56.079094, 27.768133], [56.082005, 27.766753], [56.085754, 27.764879], [56.087419, 27.763214], [56.087676, 27.762938], [56.087837, 27.762434], [56.088827, 27.758809], [56.090587, 27.752454], [56.091043, 27.750533], [56.092318, 27.748497], [56.092813, 27.74804], [56.094297, 27.746784], [56.094468, 27.746328], [56.095843, 27.739759], [56.095933, 27.73943], [56.096966, 27.737556], [56.097303, 27.736933], [56.098421, 27.735373], [56.099715, 27.733594], [56.100761, 27.732148], [56.10099, 27.731929], [56.10391, 27.730597], [56.108192, 27.728713], [56.108791, 27.728799], [56.109818, 27.729065], [56.11077, 27.729199], [56.111198, 27.729027], [56.112349, 27.728675], [56.112615, 27.728609], [56.113519, 27.728666], [56.11722, 27.729084], [56.117543, 27.72897], [56.117933, 27.728732], [56.118304, 27.728552], [56.119151, 27.728352], [56.119589, 27.728266], [56.119969, 27.728219], [56.120236, 27.728104], [56.121653, 27.726963], [56.123575, 27.726944], [56.124802, 27.726421], [56.126562, 27.725812], [56.127628, 27.725602], [56.128855, 27.725593], [56.131329, 27.72585], [56.132955, 27.725631], [56.134925, 27.725374], [56.138302, 27.725022], [56.139111, 27.724917], [56.14068, 27.724489], [56.144086, 27.723709], [56.144419, 27.723662], [56.144952, 27.723643], [56.149243, 27.723605], [56.152401, 27.723509], [56.153857, 27.723195], [56.156054, 27.722767], [56.159099, 27.721616], [56.162352, 27.720484], [56.164255, 27.719799], [56.164512, 27.719809], [56.164759, 27.719913], [56.165558, 27.720294], [56.16591, 27.720332], [56.166595, 27.72018], [56.169411, 27.71939], [56.170068, 27.719057], [56.17062, 27.718772], [56.171828, 27.71841], [56.175129, 27.717297], [56.181265, 27.714957], [56.183254, 27.714272], [56.18352, 27.714062], [56.183625, 27.713853], [56.183653, 27.713225], [56.183663, 27.712949], [56.183786, 27.712826], [56.184462, 27.712369], [56.186384, 27.711227], [56.189561, 27.709191], [56.190788, 27.70843], [56.194813, 27.707955], [56.196183, 27.707774], [56.197115, 27.707707], [56.198494, 27.70766], [56.198837, 27.707774], [56.201615, 27.708963], [56.201881, 27.708992], [56.202547, 27.708906], [56.206952, 27.708012], [56.207627, 27.708012], [56.208341, 27.708002], [56.210215, 27.708059], [56.210814, 27.707993], [56.213164, 27.707631], [56.213526, 27.707451], [56.21461, 27.70687], [56.216979, 27.705776], [56.218359, 27.705101], [56.218768, 27.704986], [56.219652, 27.704844], [56.219928, 27.704863], [56.221355, 27.705358], [56.221612, 27.705358], [56.223772, 27.704967], [56.225009, 27.704378], [56.226217, 27.703769], [56.22654, 27.703626], [56.226826, 27.703512], [56.227073, 27.703483], [56.227872, 27.703664], [56.228329, 27.703835], [56.228624, 27.703826], [56.229061, 27.703778], [56.230688, 27.703436], [56.230983, 27.703303], [56.231373, 27.70296], [56.233656, 27.701114], [56.23534, 27.699821], [56.237995, 27.69749], [56.238508, 27.697014], [56.238661, 27.696881], [56.238784, 27.696481], [56.239165, 27.694236], [56.239755, 27.691154], [56.240259, 27.688461], [56.240278, 27.688205], [56.240145, 27.687957], [56.239954, 27.687691], [56.239812, 27.68732], [56.239431, 27.687072], [56.238794, 27.686635], [56.238489, 27.686359], [56.238337, 27.685931], [56.237966, 27.685179], [56.237272, 27.684685], [56.236587, 27.68418], [56.235987, 27.683162], [56.235607, 27.682592], [56.235103, 27.681888], [56.23496, 27.681574], [56.234855, 27.681079], [56.234722, 27.680689], [56.234617, 27.680194], [56.234037, 27.679252], [56.234018, 27.678567], [56.233752, 27.677083], [56.233447, 27.676056], [56.232819, 27.674762], [56.232724, 27.673944], [56.232648, 27.673145], [56.232325, 27.672441], [56.231963, 27.671718], [56.231716, 27.671109], [56.230774, 27.670557], [56.229689, 27.670614], [56.228015, 27.670795], [56.22753, 27.670757], [56.226949, 27.670252], [56.222373, 27.667123], [56.222212, 27.666742], [56.221308, 27.663374], [56.220081, 27.662242], [56.21676, 27.65916], [56.216523, 27.658579], [56.215057, 27.654184], [56.212641, 27.647372], [56.211309, 27.645279], [56.210015, 27.644442], [56.206514, 27.639533], [56.205934, 27.638106], [56.208331, 27.635557], [56.208293, 27.633197], [56.207646, 27.632322], [56.208598, 27.630381], [56.208826, 27.628707], [56.20719, 27.62551], [56.205858, 27.623265], [56.190902, 27.619612], [56.189494, 27.619155], [56.188353, 27.618394], [56.18763, 27.617062], [56.186869, 27.616339], [56.155208, 27.611126], [56.145504, 27.603781], [56.1444, 27.602678], [56.142916, 27.594762], [56.126553, 27.580834], [56.125487, 27.580111], [56.124764, 27.579236], [56.12328, 27.577942], [56.121073, 27.57604], [56.119779, 27.574556], [56.115707, 27.570103], [56.11369, 27.563862], [56.113652, 27.554843], [56.12073, 27.547537], [56.121415, 27.545939], [56.1229, 27.543351], [56.1272, 27.540611], [56.133593, 27.537224], [56.137779, 27.530603], [56.141774, 27.527368], [56.149423, 27.518692], [56.158024, 27.513897], [56.16358, 27.512375], [56.172598, 27.512032], [56.180209, 27.513745], [56.181693, 27.513631], [56.186488, 27.515115], [56.192729, 27.514316], [56.197448, 27.513517], [56.199084, 27.512908], [56.213849, 27.510282], [56.218644, 27.508912], [56.227206, 27.506438], [56.230974, 27.5064], [56.233561, 27.506248], [56.234703, 27.50583], [56.238546, 27.503965], [56.244559, 27.501073], [56.266821, 27.489656], [56.268038, 27.489086], [56.274508, 27.482997], [56.277438, 27.481018], [56.285201, 27.476109], [56.286571, 27.474245], [56.287636, 27.47394], [56.290452, 27.471923], [56.307995, 27.463209], [56.3126, 27.460964], [56.321961, 27.453353], [56.326794, 27.437218], [56.325805, 27.432803], [56.323445, 27.428541], [56.321866, 27.425535], [56.321486, 27.424774], [56.321524, 27.420854], [56.321904, 27.406641], [56.323122, 27.391838], [56.319773, 27.386967], [56.319964, 27.376959], [56.320572, 27.355953], [56.320154, 27.353974], [56.318784, 27.351196], [56.310945, 27.335251], [56.308509, 27.330342], [56.303828, 27.319877], [56.298881, 27.309451], [56.293744, 27.300241], [56.292602, 27.298225], [56.283431, 27.296055], [56.278332, 27.291908], [56.259267, 27.288216], [56.254092, 27.285895], [56.250324, 27.282204], [56.249373, 27.280415], [56.247737, 27.277942], [56.247508, 27.277219], [56.247622, 27.275734], [56.247318, 27.274022], [56.247546, 27.273299], [56.246633, 27.270787], [56.245682, 27.266982], [56.245986, 27.259561], [56.245187, 27.237376], [56.243094, 27.235587], [56.230155, 27.225275], [56.224714, 27.224361], [56.217103, 27.214049], [56.199864, 27.211841], [56.189171, 27.211613], [56.180761, 27.211689], [56.178668, 27.211537], [56.171324, 27.210471], [56.165615, 27.20914], [56.159793, 27.209406], [56.154922, 27.207922], [56.146246, 27.20522], [56.140842, 27.203241], [56.13384, 27.200425], [56.132584, 27.196654], [56.132079, 27.195948], [56.126683, 27.19068], [56.123325, 27.188103], [56.110793, 27.172737], [56.09708, 27.169106]]]}}
]
}
