{
"type": "FeatureCollection",
"features": [
{"type": "Feature", "properties": {"ProjectID": "P5393", "OBJECTID_1": 20, "OBJECTID": 20, "NAME": "Oleoducto Apiay El Porvenir 20:Apiay - Monterrey", "ROUTE_NAME": "Apiay - Monterrey", "DESIGNATOR": "Oleoducto Apiay El Porvenir 20", "OPERATING_": "ACTIVE", "Tipo": "Oleoducto", "Shape_Leng": 120944.816462, "Shape_Length": 120945.27295606953}, "geometry": {"type": "LineString", "coordinates": [[-72.914445, 4.896398], [-72.91428, 4.896258], [-72.914201, 4.896193], [-72.914166, 4.89615], [-72.914151, 4.896033], [-72.914159, 4.895824], [-72.9142, 4.895627], [-72.9143, 4.895171], [-72.914322, 4.895108], [-72.914331, 4.895048], [-72.91434, 4.894974], [-72.914354, 4.894786], [-72.914353, 4.894748], [-72.914352, 4.894695], [-72.914349, 4.89448], [-72.914315, 4.894356], [-72.914275, 4.894287], [-72.914224, 4.894223], [-72.914106, 4.894143], [-72.913998, 4.894108], [-72.913964, 4.894105], [-72.913787, 4.894129], [-72.913296, 4.894184], [-72.913029, 4.894206], [-72.9127, 4.894236], [-72.912678, 4.894237], [-72.912574, 4.894245], [-72.912249, 4.894273], [-72.911711, 4.894326], [-72.911537, 4.894335], [-72.911402, 4.894301], [-72.911178, 4.894189], [-72.910883, 4.894048], [-72.910581, 4.893914], [-72.910535, 4.893891], [-72.910485, 4.893867], [-72.910351, 4.893807], [-72.910255, 4.89371], [-72.910206, 4.893595], [-72.910121, 4.89335], [-72.910004, 4.893031], [-72.90989, 4.892731], [-72.90977, 4.892406], [-72.909744, 4.892335], [-72.909641, 4.892055], [-72.909559, 4.891831], [-72.909403, 4.891393], [-72.909342, 4.891213], [-72.909189, 4.890781], [-72.909097, 4.890532], [-72.909035, 4.890362], [-72.908962, 4.890172], [-72.908906, 4.890025], [-72.908821, 4.889793], [-72.908595, 4.889185], [-72.908498, 4.888914], [-72.90843, 4.888716], [-72.908365, 4.88854], [-72.908298, 4.888351], [-72.908223, 4.888133], [-72.908105, 4.887796], [-72.907991, 4.887489], [-72.907905, 4.887253], [-72.907799, 4.886958], [-72.907728, 4.886762], [-72.90768, 4.886624], [-72.90763, 4.886434], [-72.907618, 4.886378], [-72.907591, 4.88624], [-72.907601, 4.886143], [-72.907607, 4.885985], [-72.907625, 4.88575], [-72.907626, 4.885626], [-72.907638, 4.885441], [-72.907643, 4.885339], [-72.907653, 4.885171], [-72.907668, 4.885055], [-72.907676, 4.884891], [-72.90768, 4.884647], [-72.907738, 4.884368], [-72.907756, 4.884289], [-72.907848, 4.884159], [-72.907988, 4.883946], [-72.908063, 4.883805], [-72.908134, 4.883657], [-72.908237, 4.883431], [-72.908409, 4.883061], [-72.90852, 4.882825], [-72.90861, 4.882585], [-72.908676, 4.882341], [-72.908764, 4.881931], [-72.908837, 4.881597], [-72.908908, 4.881296], [-72.909011, 4.880866], [-72.909104, 4.880468], [-72.909211, 4.880017], [-72.909281, 4.879725], [-72.90936, 4.879377], [-72.909439, 4.87907], [-72.909569, 4.878592], [-72.909658, 4.878323], [-72.909806, 4.877837], [-72.909896, 4.877555], [-72.909974, 4.877251], [-72.91006, 4.876963], [-72.910116, 4.876791], [-72.910206, 4.876535], [-72.910269, 4.876373], [-72.910384, 4.87619], [-72.910537, 4.875945], [-72.910676, 4.875771], [-72.910847, 4.875635], [-72.910903, 4.875594], [-72.911254, 4.875299], [-72.911647, 4.874962], [-72.912031, 4.874633], [-72.912306, 4.874389], [-72.912598, 4.874142], [-72.912737, 4.873921], [-72.912844, 4.873707], [-72.912922, 4.87364], [-72.91306, 4.873539], [-72.913222, 4.873401], [-72.913392, 4.873233], [-72.913602, 4.873019], [-72.913751, 4.872877], [-72.914097, 4.872779], [-72.914224, 4.872723], [-72.914253, 4.872708], [-72.914391, 4.872605], [-72.914556, 4.872487], [-72.914695, 4.872351], [-72.914833, 4.872187], [-72.914992, 4.871992], [-72.915136, 4.871812], [-72.915324, 4.871511], [-72.915411, 4.871363], [-72.915531, 4.87116], [-72.915655, 4.870892], [-72.915805, 4.870559], [-72.915931, 4.87027], [-72.916024, 4.870053], [-72.916089, 4.869916], [-72.916204, 4.869743], [-72.91637, 4.869568], [-72.916568, 4.869367], [-72.916839, 4.869079], [-72.917143, 4.868677], [-72.91725, 4.868515], [-72.917277, 4.868475], [-72.917415, 4.868215], [-72.917471, 4.8681], [-72.917658, 4.867669], [-72.917848, 4.867226], [-72.917936, 4.86704], [-72.918059, 4.866838], [-72.918203, 4.86664], [-72.918351, 4.8665], [-72.91885, 4.86608], [-72.919088, 4.865879], [-72.919562, 4.865475], [-72.919808, 4.865264], [-72.920049, 4.865058], [-72.920297, 4.864842], [-72.920564, 4.864613], [-72.92067, 4.864531], [-72.920827, 4.864454], [-72.921095, 4.864367], [-72.921181, 4.864338], [-72.929118, 4.85154], [-72.929109, 4.851514], [-72.929022, 4.851373], [-72.928831, 4.851087], [-72.928613, 4.850773], [-72.928389, 4.850446], [-72.928105, 4.850051], [-72.927764, 4.849614], [-72.927594, 4.849302], [-72.927565, 4.849244], [-72.927527, 4.849174], [-72.927495, 4.84912], [-72.927436, 4.849019], [-72.927382, 4.848902], [-72.927388, 4.848747], [-72.927451, 4.848626], [-72.927578, 4.848501], [-72.927722, 4.848408], [-72.927949, 4.848245], [-72.928115, 4.848119], [-72.928467, 4.847902], [-72.92864, 4.847842], [-72.928898, 4.847736], [-72.929191, 4.847593], [-72.929309, 4.847539], [-72.929854, 4.847408], [-72.930385, 4.847303], [-72.930659, 4.847249], [-72.931012, 4.847192], [-72.931538, 4.847047], [-72.931692, 4.846989], [-72.931748, 4.84697], [-72.932034, 4.846854], [-72.932322, 4.846729], [-72.932491, 4.846568], [-72.932769, 4.846289], [-72.933082, 4.845981], [-72.933105, 4.845964], [-72.93396, 4.84516], [-72.934297, 4.84483], [-72.934595, 4.844541], [-72.934839, 4.844285], [-72.93502, 4.844101], [-72.935199, 4.843907], [-72.935238, 4.843851], [-72.935355, 4.843685], [-72.935543, 4.84339], [-72.935767, 4.843031], [-72.936045, 4.842599], [-72.936137, 4.842453], [-72.936196, 4.842356], [-72.936446, 4.841985], [-72.936662, 4.841645], [-72.936999, 4.841128], [-72.937273, 4.840703], [-72.937419, 4.840457], [-72.93773, 4.839949], [-72.937921, 4.839629], [-72.938017, 4.839459], [-72.938054, 4.839407], [-72.938083, 4.839371], [-72.938331, 4.839019], [-72.938497, 4.838778], [-72.938662, 4.838522], [-72.938699, 4.838459], [-72.938794, 4.83829], [-72.939053, 4.83787], [-72.939404, 4.837322], [-72.939687, 4.836878], [-72.9399, 4.836544], [-72.940127, 4.836198], [-72.940189, 4.836104], [-72.940289, 4.835941], [-72.940561, 4.835501], [-72.940776, 4.83517], [-72.940871, 4.835025], [-72.941203, 4.834504], [-72.94154, 4.834005], [-72.941917, 4.833589], [-72.942091, 4.833383], [-72.942297, 4.833147], [-72.942359, 4.833082], [-72.942421, 4.833006], [-72.942749, 4.83263], [-72.9429, 4.832461], [-72.94319, 4.832143], [-72.943482, 4.83183], [-72.943745, 4.83156], [-72.943811, 4.831486], [-72.94399, 4.831275], [-72.944228, 4.830976], [-72.944728, 4.830198], [-72.944819, 4.830051], [-72.944964, 4.829826], [-72.945044, 4.829724], [-72.945098, 4.829662], [-72.945402, 4.829265], [-72.945702, 4.828881], [-72.945836, 4.828706], [-72.945878, 4.828654], [-72.946221, 4.828198], [-72.946401, 4.827935], [-72.946591, 4.827647], [-72.946879, 4.827244], [-72.947125, 4.826892], [-72.947397, 4.826495], [-72.947588, 4.826221], [-72.947778, 4.825927], [-72.947928, 4.825704], [-72.948107, 4.825428], [-72.948444, 4.824931], [-72.948727, 4.824509], [-72.949104, 4.823946], [-72.949136, 4.823898], [-72.949198, 4.823804], [-72.949218, 4.823769], [-72.949238, 4.823737], [-72.949476, 4.823395], [-72.949848, 4.822868], [-72.950068, 4.822555], [-72.950212, 4.822331], [-72.950431, 4.822009], [-72.95062, 4.821723], [-72.950661, 4.821667], [-72.950973, 4.82125], [-72.951247, 4.820868], [-72.951533, 4.820501], [-72.951854, 4.82011], [-72.95225, 4.819649], [-72.952598, 4.819154], [-72.952863, 4.818755], [-72.953056, 4.81847], [-72.953253, 4.81816], [-72.9534, 4.817921], [-72.953686, 4.817419], [-72.953829, 4.817089], [-72.954017, 4.816558], [-72.954172, 4.816036], [-72.954344, 4.815741], [-72.954443, 4.815574], [-72.954568, 4.815399], [-72.954736, 4.815245], [-72.954763, 4.815215], [-72.95486, 4.815108], [-72.955119, 4.814892], [-72.955445, 4.814544], [-72.955495, 4.814476], [-72.955691, 4.814184], [-72.955801, 4.814011], [-72.955958, 4.813778], [-72.956155, 4.813486], [-72.956461, 4.813041], [-72.956837, 4.812498], [-72.957219, 4.811939], [-72.957465, 4.811584], [-72.957685, 4.811269], [-72.957997, 4.810818], [-72.958363, 4.810298], [-72.958715, 4.809789], [-72.959026, 4.809345], [-72.959316, 4.808928], [-72.959525, 4.808629], [-72.959679, 4.808444], [-72.959843, 4.808259], [-72.959909, 4.80818], [-72.960227, 4.807867], [-72.960326, 4.807737], [-72.96052, 4.807528], [-72.960804, 4.807262], [-72.961115, 4.806973], [-72.961387, 4.806719], [-72.9615, 4.806615], [-72.961701, 4.806416], [-72.961762, 4.806338], [-72.961878, 4.806154], [-72.962202, 4.805654], [-72.96249, 4.805215], [-72.963236, 4.804227], [-72.963575, 4.803857], [-72.963998, 4.803378], [-72.964391, 4.802947], [-72.964724, 4.802597], [-72.965379, 4.801939], [-72.965557, 4.801803], [-72.96601, 4.80148], [-72.966206, 4.801344], [-72.966557, 4.801133], [-72.966729, 4.801028], [-72.967043, 4.800834], [-72.967827, 4.800322], [-72.968346, 4.800068], [-72.968646, 4.799916], [-72.968994, 4.799709], [-72.969135, 4.799627], [-72.969481, 4.79942], [-72.969963, 4.799089], [-72.970329, 4.798862], [-72.97068, 4.798689], [-72.970968, 4.798536], [-72.971159, 4.798441], [-72.97134, 4.798348], [-72.971551, 4.798249], [-72.97216, 4.797958], [-72.972524, 4.797788], [-72.972609, 4.797751], [-72.972885, 4.797614], [-72.973403, 4.797367], [-72.973656, 4.797248], [-72.973841, 4.797158], [-72.974122, 4.797027], [-72.974411, 4.796881], [-72.97508, 4.796559], [-72.975369, 4.796423], [-72.975796, 4.796211], [-72.976123, 4.79605], [-72.976356, 4.795948], [-72.976415, 4.795923], [-72.976731, 4.795782], [-72.976993, 4.795659], [-72.977308, 4.795508], [-72.977558, 4.795393], [-72.977887, 4.795234], [-72.978371, 4.794994], [-72.978821, 4.794768], [-72.979183, 4.79459], [-72.979756, 4.794316], [-72.980146, 4.794131], [-72.982902, 4.792738], [-72.983112, 4.792567], [-72.983237, 4.79245], [-72.983259, 4.792429], [-72.983356, 4.792312], [-72.983495, 4.792135], [-72.983601, 4.792022], [-72.983711, 4.791936], [-72.983881, 4.791827], [-72.98407, 4.791704], [-72.984132, 4.791674], [-72.984342, 4.791583], [-72.984569, 4.791483], [-72.984815, 4.791379], [-72.98504, 4.791273], [-72.985177, 4.791209], [-72.985455, 4.791068], [-72.985793, 4.790882], [-72.98618, 4.790686], [-72.986394, 4.790577], [-72.986644, 4.790447], [-72.986895, 4.790306], [-72.986963, 4.790259], [-72.987282, 4.79005], [-72.987603, 4.789832], [-72.987956, 4.789584], [-72.988281, 4.789361], [-72.988603, 4.78915], [-72.988924, 4.788939], [-72.989319, 4.788672], [-72.989646, 4.788458], [-72.989671, 4.788427], [-72.989966, 4.788217], [-72.990212, 4.788065], [-72.990279, 4.788023], [-72.990691, 4.787751], [-72.991031, 4.787542], [-72.991225, 4.787398], [-72.991351, 4.787302], [-72.991462, 4.787209], [-72.991513, 4.787168], [-72.991568, 4.787113], [-72.991719, 4.786931], [-72.991923, 4.786653], [-72.992049, 4.786395], [-72.99217, 4.786114], [-72.992324, 4.785736], [-72.992436, 4.785433], [-72.992548, 4.785121], [-72.992642, 4.784886], [-72.992698, 4.784777], [-72.992781, 4.784639], [-72.99285, 4.784526], [-72.992866, 4.784494], [-72.993008, 4.784172], [-72.993115, 4.783945], [-72.993297, 4.783558], [-72.993408, 4.783323], [-73.003294, 4.748957], [-73.003292, 4.748878], [-73.003333, 4.748782], [-73.003395, 4.74842], [-73.00343, 4.748202], [-73.003467, 4.748017], [-73.003524, 4.747797], [-73.003565, 4.747575], [-73.003573, 4.747549], [-73.003592, 4.747458], [-73.0036, 4.74743], [-73.003668, 4.747097], [-73.003726, 4.746838], [-73.003778, 4.746542], [-73.003852, 4.746058], [-73.003928, 4.74577], [-73.00396, 4.745635], [-73.004051, 4.745175], [-73.004103, 4.74492], [-73.004116, 4.744825], [-73.004195, 4.744398], [-73.004383, 4.743694], [-73.004468, 4.743392], [-73.004563, 4.743028], [-73.004713, 4.742557], [-73.004855, 4.742124], [-73.00499, 4.741698], [-73.005081, 4.741431], [-73.005169, 4.7412], [-73.005318, 4.74083], [-73.005532, 4.740339], [-73.005785, 4.739725], [-73.00601, 4.739167], [-73.006196, 4.738691], [-73.006316, 4.738373], [-73.006392, 4.738169], [-73.006438, 4.738066], [-73.006469, 4.737971], [-73.006522, 4.737818], [-73.006722, 4.737294], [-73.006896, 4.736801], [-73.00701, 4.736489], [-73.0071, 4.736242], [-73.007319, 4.735691], [-73.007503, 4.735224], [-73.007622, 4.734937], [-73.007652, 4.734869], [-73.007737, 4.734648], [-73.007954, 4.734098], [-73.008061, 4.733835], [-73.008249, 4.733305], [-73.008421, 4.732824], [-73.008513, 4.732548], [-73.008579, 4.732349], [-73.008599, 4.732287], [-73.008671, 4.732023], [-73.008747, 4.731706], [-73.008809, 4.731379], [-73.00884, 4.731037], [-73.008867, 4.730729], [-73.008876, 4.730626], [-73.008848, 4.730448], [-73.008796, 4.730329], [-73.008718, 4.730147], [-73.008599, 4.72988], [-73.008542, 4.729769], [-73.008488, 4.729553], [-73.008489, 4.729333], [-73.008561, 4.72913], [-73.008744, 4.728956], [-73.00901, 4.728717], [-73.009217, 4.728502], [-73.009365, 4.72834], [-73.009685, 4.727983], [-73.009856, 4.727773], [-73.01, 4.727542], [-73.010179, 4.727249], [-73.010315, 4.727011], [-73.010344, 4.726963], [-73.010515, 4.726668], [-73.010839, 4.726093], [-73.010964, 4.725875], [-73.0112, 4.725457], [-73.011444, 4.725041], [-73.011573, 4.72483], [-73.011688, 4.724618], [-73.011712, 4.72457], [-73.011928, 4.724139], [-73.012167, 4.723695], [-73.012335, 4.723382], [-73.012378, 4.723299], [-73.012551, 4.723], [-73.012662, 4.722803], [-73.012762, 4.722643], [-73.012906, 4.722425], [-73.013097, 4.722055], [-73.013315, 4.721674], [-73.013552, 4.721247], [-73.013758, 4.720875], [-73.014047, 4.720346], [-73.014288, 4.719893], [-73.014333, 4.719816], [-73.014445, 4.719578], [-73.014586, 4.719251], [-73.014785, 4.718795], [-73.014961, 4.7184], [-73.015077, 4.71812], [-73.015218, 4.717712], [-73.015238, 4.717598], [-73.015265, 4.717409], [-73.015303, 4.717145], [-73.01531, 4.717117], [-73.015383, 4.716908], [-73.015452, 4.716781], [-73.015524, 4.716659], [-73.015579, 4.716573], [-73.015661, 4.71645], [-73.01586, 4.716141], [-73.016061, 4.715829], [-73.016289, 4.715487], [-73.016458, 4.715259], [-73.016627, 4.715046], [-73.016674, 4.714988], [-73.016883, 4.714783], [-73.017159, 4.714555], [-73.017536, 4.714267], [-73.01775, 4.714044], [-73.017905, 4.71383], [-73.018056, 4.713626], [-73.018259, 4.71334], [-73.018346, 4.71323], [-73.018373, 4.713193], [-73.01853, 4.712976], [-73.018798, 4.712614], [-73.019059, 4.712261], [-73.01929, 4.711946], [-73.019448, 4.711739], [-73.019543, 4.711609], [-73.019649, 4.71147], [-73.01994, 4.711054], [-73.020132, 4.710764], [-73.020312, 4.710478], [-73.02049, 4.710187], [-73.020589, 4.71002], [-73.020675, 4.709865], [-73.020716, 4.709782], [-73.020828, 4.709565], [-73.021026, 4.709116], [-73.021214, 4.708694], [-73.021368, 4.708359], [-73.021384, 4.708307], [-73.021559, 4.707899], [-73.021683, 4.7076], [-73.021831, 4.707228], [-73.021995, 4.706839], [-73.022019, 4.706789], [-73.022156, 4.706454], [-73.022306, 4.706111], [-73.022481, 4.705695], [-73.022623, 4.705367], [-73.022808, 4.704926], [-73.022832, 4.70487], [-73.023047, 4.704365], [-73.023223, 4.703946], [-73.02337, 4.703586], [-73.023467, 4.703355], [-73.023664, 4.702971], [-73.023829, 4.702662], [-73.02399, 4.702363], [-73.024078, 4.702206], [-73.024103, 4.702166], [-73.024184, 4.702011], [-73.024389, 4.701644], [-73.024407, 4.701609], [-73.02465, 4.701183], [-73.024832, 4.700855], [-73.025081, 4.700444], [-73.025324, 4.700061], [-73.025606, 4.699601], [-73.025781, 4.69931], [-73.025902, 4.699118], [-73.025976, 4.699032], [-73.026013, 4.698983], [-73.026092, 4.698904], [-73.02632, 4.698717], [-73.026618, 4.698467], [-73.02694, 4.698139], [-73.027111, 4.697957], [-73.027225, 4.697837], [-73.027271, 4.697791], [-73.027398, 4.697655], [-73.027695, 4.697344], [-73.02799, 4.697043], [-73.028309, 4.696719], [-73.028563, 4.696456], [-73.028844, 4.696172], [-73.029075, 4.695932], [-73.029307, 4.695685], [-73.029506, 4.69548], [-73.029626, 4.695347], [-73.029729, 4.695237], [-73.029993, 4.694963], [-73.030357, 4.694577], [-73.030424, 4.694506], [-73.030556, 4.694354], [-73.030759, 4.694107], [-73.030915, 4.693919], [-73.031233, 4.693536], [-73.031496, 4.693217], [-73.031732, 4.692911], [-73.031912, 4.692674], [-73.032109, 4.692416], [-73.032335, 4.692151], [-73.032658, 4.691812], [-73.032981, 4.691457], [-73.033162, 4.691269], [-73.033284, 4.691144], [-73.033348, 4.691084], [-73.033477, 4.690949], [-73.033641, 4.690787], [-73.033858, 4.690559], [-73.034059, 4.690343], [-73.034181, 4.690204], [-73.034286, 4.690045], [-73.034402, 4.689783], [-73.034479, 4.689581], [-73.034564, 4.689397], [-73.034681, 4.689206], [-73.034794, 4.689066], [-73.034919, 4.688937], [-73.035048, 4.688811], [-73.035098, 4.68876], [-73.035138, 4.688718], [-73.035243, 4.688613], [-73.035414, 4.688434], [-73.035785, 4.68804], [-73.035882, 4.687938], [-73.035914, 4.687903], [-73.036229, 4.687549], [-73.036431, 4.68732], [-73.036567, 4.687174], [-73.036692, 4.687086], [-73.036832, 4.687023], [-73.036944, 4.686973], [-73.037025, 4.686907], [-73.037081, 4.686845], [-73.037099, 4.686823], [-73.037119, 4.686804], [-73.037368, 4.686518], [-73.037408, 4.686474], [-73.037502, 4.686361], [-73.037671, 4.686156], [-73.037811, 4.685988], [-73.037967, 4.685807], [-73.038184, 4.685536], [-73.038332, 4.685348], [-73.038424, 4.685234], [-73.038568, 4.68505], [-73.038639, 4.684946], [-73.038746, 4.684699], [-73.038876, 4.684427], [-73.038948, 4.684286], [-73.039067, 4.684031], [-73.039251, 4.683611], [-73.039378, 4.683399], [-73.039459, 4.683257], [-73.039535, 4.683144], [-73.039689, 4.682996], [-73.039841, 4.682845], [-73.039961, 4.682713], [-73.040073, 4.6826], [-73.040159, 4.682506], [-73.040397, 4.682231], [-73.042741, 4.679484], [-73.043018, 4.679279], [-73.043262, 4.67912], [-73.04332, 4.679064], [-73.043399, 4.678991], [-73.043475, 4.678902], [-73.043604, 4.678776], [-73.043798, 4.678589], [-73.043953, 4.678431], [-73.044029, 4.678336], [-73.044102, 4.678246], [-73.044172, 4.678148], [-73.044281, 4.678031], [-73.044475, 4.677826], [-73.044576, 4.677716], [-73.044799, 4.677517], [-73.044874, 4.677448], [-73.044939, 4.677397], [-73.044996, 4.677382], [-73.045169, 4.677357], [-73.045277, 4.677327], [-73.045482, 4.677249], [-73.04568, 4.677199], [-73.045861, 4.677155], [-73.046316, 4.677063], [-73.046606, 4.677042], [-73.04686, 4.677024], [-73.047151, 4.677004], [-73.047387, 4.676985], [-73.047591, 4.676961], [-73.047789, 4.676877], [-73.04796, 4.67679], [-73.048151, 4.676672], [-73.048326, 4.67654], [-73.048657, 4.676237], [-73.048813, 4.676087], [-73.048963, 4.675951], [-73.049159, 4.675803], [-73.049382, 4.675631], [-73.049415, 4.67561], [-73.049829, 4.675267], [-73.050016, 4.675098], [-73.050168, 4.674952], [-73.050279, 4.674812], [-73.050429, 4.674592], [-73.050623, 4.674282], [-73.050831, 4.673915], [-73.050972, 4.673636], [-73.05107, 4.673326], [-73.051086, 4.673274], [-73.05117, 4.673018], [-73.051227, 4.672858], [-73.051325, 4.672589], [-73.051416, 4.672274], [-73.051513, 4.671914], [-73.051535, 4.671836], [-73.051564, 4.671756], [-73.05164, 4.671476], [-73.051719, 4.671194], [-73.05179, 4.670901], [-73.051871, 4.670577], [-73.051931, 4.670274], [-73.051944, 4.670076], [-73.051956, 4.669892], [-73.052004, 4.66978], [-73.052042, 4.669707], [-73.052099, 4.669569], [-73.052168, 4.669449], [-73.052315, 4.6692], [-73.052416, 4.669029], [-73.052501, 4.668895], [-73.052513, 4.668872], [-73.052562, 4.668792], [-73.052577, 4.66877], [-73.052622, 4.668679], [-73.052644, 4.668552], [-73.052664, 4.668426], [-73.052669, 4.668324], [-73.052691, 4.668266], [-73.052713, 4.668225], [-73.052732, 4.668192], [-73.052804, 4.668079], [-73.05311, 4.667518], [-73.053291, 4.667198], [-73.053387, 4.667025], [-73.053525, 4.66681], [-73.053569, 4.666741], [-73.053613, 4.666686], [-73.053752, 4.666483], [-73.053866, 4.666357], [-73.054012, 4.666201], [-73.054143, 4.666064], [-73.054297, 4.665962], [-73.054445, 4.665939], [-73.054565, 4.665937], [-73.054692, 4.66593], [-73.054788, 4.665883], [-73.054904, 4.665803], [-73.055011, 4.665721], [-73.05516, 4.665601], [-73.055275, 4.665507], [-73.055351, 4.66538], [-73.055384, 4.665213], [-73.055396, 4.665105], [-73.055406, 4.664973], [-73.055407, 4.664409], [-73.055403, 4.664118], [-73.055395, 4.663957], [-73.055332, 4.663844], [-73.055247, 4.663772], [-73.05523, 4.663759], [-73.055163, 4.6637], [-73.055099, 4.663636], [-73.055022, 4.663486], [-73.054954, 4.663312], [-73.054766, 4.662818], [-73.054569, 4.662287], [-73.054509, 4.662222], [-73.054428, 4.662143], [-73.05439, 4.662046], [-73.054344, 4.661906], [-73.054253, 4.661647], [-73.054167, 4.661406], [-73.054101, 4.661169], [-73.054069, 4.660988], [-73.054046, 4.660812], [-73.05405, 4.660578], [-73.054049, 4.66035], [-73.054038, 4.660149], [-73.054007, 4.659996], [-73.053959, 4.659796], [-73.053922, 4.65959], [-73.053908, 4.65949], [-73.053851, 4.65931], [-73.053797, 4.659176], [-73.053708, 4.65907], [-73.053576, 4.658976], [-73.053434, 4.65888], [-73.053242, 4.65875], [-73.052821, 4.658469], [-73.052664, 4.658359], [-73.052481, 4.658225], [-73.052297, 4.658088], [-73.052104, 4.657953], [-73.051824, 4.657735], [-73.051646, 4.657604], [-73.051516, 4.657514], [-73.051364, 4.6574], [-73.051225, 4.657302], [-73.050874, 4.657043], [-73.05074, 4.656939], [-73.050586, 4.656786], [-73.050357, 4.656568], [-73.050165, 4.656414], [-73.049734, 4.656079], [-73.049684, 4.65604], [-73.049546, 4.655934], [-73.049383, 4.655763], [-73.04927, 4.655623], [-73.049202, 4.65552], [-73.049038, 4.655178], [-73.049029, 4.655012], [-73.049027, 4.654974], [-73.049039, 4.654779], [-73.049048, 4.654577], [-73.049056, 4.654008], [-73.049056, 4.653857], [-73.049044, 4.65352], [-73.049039, 4.653268], [-73.049037, 4.653108], [-73.049038, 4.652895], [-73.04903, 4.652727], [-73.049031, 4.65256], [-73.049031, 4.652232], [-73.049016, 4.651513], [-73.049012, 4.651137], [-73.048996, 4.65081], [-73.048961, 4.650269], [-73.048954, 4.650093], [-73.048953, 4.65003], [-73.048938, 4.649722], [-73.048899, 4.649396], [-73.048849, 4.649072], [-73.048807, 4.648924], [-73.048758, 4.648755], [-73.048656, 4.648436], [-73.048527, 4.648075], [-73.048316, 4.647515], [-73.04824, 4.647322], [-73.048096, 4.64695], [-73.047846, 4.646268], [-73.047743, 4.645975], [-73.047672, 4.645747], [-73.047472, 4.64515], [-73.047421, 4.644987], [-73.047369, 4.644795], [-73.047318, 4.644594], [-73.047259, 4.64435], [-73.047217, 4.644177], [-73.047195, 4.644098], [-73.047118, 4.64393], [-73.047013, 4.64375], [-73.046867, 4.643475], [-73.046766, 4.643302], [-73.04663, 4.643057], [-73.046407, 4.642635], [-73.046266, 4.642391], [-73.046152, 4.642233], [-73.046021, 4.641991], [-73.045887, 4.641691], [-73.045733, 4.641132], [-73.04569, 4.640909], [-73.045682, 4.640842], [-73.04565, 4.640598], [-73.045621, 4.640247], [-73.045603, 4.639997], [-73.045587, 4.639786], [-73.04557, 4.639522], [-73.045545, 4.63925], [-73.045531, 4.639006], [-73.045527, 4.638874], [-73.045509, 4.638616], [-73.045492, 4.638353], [-73.045459, 4.637934], [-73.045456, 4.637881], [-73.045442, 4.637645], [-73.045418, 4.637326], [-73.045396, 4.637011], [-73.045373, 4.636716], [-73.045356, 4.636534], [-73.045346, 4.636262], [-73.04533, 4.636025], [-73.045314, 4.635667], [-73.045329, 4.63541], [-73.045345, 4.635343], [-73.045367, 4.635283], [-73.045398, 4.635198], [-73.04547, 4.634957], [-73.045546, 4.634679], [-73.045649, 4.634329], [-73.045746, 4.634008], [-73.045782, 4.63388], [-73.045797, 4.633833], [-73.045981, 4.633192], [-73.046037, 4.632995], [-73.046088, 4.632815], [-73.046187, 4.63254], [-73.046315, 4.632176], [-73.046446, 4.631841], [-73.046512, 4.63168], [-73.046583, 4.631491], [-73.046668, 4.631252], [-73.046697, 4.631146], [-73.046761, 4.630918], [-73.046783, 4.630746], [-73.046825, 4.630536], [-73.046821, 4.630215], [-73.046804, 4.629896], [-73.046794, 4.629607], [-73.04678, 4.629058], [-73.046775, 4.628349], [-73.046781, 4.628096], [-73.046783, 4.627844], [-73.046787, 4.627636], [-73.046793, 4.627098], [-73.046794, 4.62703], [-73.046795, 4.626853], [-73.046798, 4.626546], [-73.046799, 4.626352], [-73.046804, 4.625736], [-73.046801, 4.625389], [-73.046803, 4.625319], [-73.046802, 4.625119], [-73.0468, 4.624684], [-73.046799, 4.624105], [-73.046801, 4.623798], [-73.046805, 4.623411], [-73.046813, 4.622825], [-73.046818, 4.622588], [-73.046824, 4.622332], [-73.046823, 4.622079], [-73.046827, 4.621786], [-73.046828, 4.621038], [-73.046831, 4.620556], [-73.046832, 4.620052], [-73.046832, 4.619565], [-73.046833, 4.619155], [-73.046831, 4.618318], [-73.046832, 4.617924], [-73.046833, 4.617468], [-73.046833, 4.617202], [-73.046839, 4.616705], [-73.046836, 4.616129], [-73.046827, 4.615631], [-73.046817, 4.615068], [-73.046806, 4.61457], [-73.046806, 4.614076], [-73.046832, 4.613549], [-73.046851, 4.613295], [-73.046868, 4.613019], [-73.046881, 4.61282], [-73.046905, 4.612625], [-73.047059, 4.612046], [-73.047188, 4.611565], [-73.047319, 4.611089], [-73.047422, 4.610727], [-73.047438, 4.610671], [-73.047561, 4.610215], [-73.047704, 4.609697], [-73.04775, 4.609545], [-73.047823, 4.609282], [-73.048057, 4.608415], [-73.04826, 4.607685], [-73.048392, 4.607208], [-73.048514, 4.606765], [-73.048672, 4.606223], [-73.048825, 4.605685], [-73.048984, 4.60512], [-73.049139, 4.604562], [-73.049309, 4.603959], [-73.049487, 4.60334], [-73.049659, 4.602719], [-73.049821, 4.602135], [-73.049986, 4.601558], [-73.050156, 4.600938], [-73.050272, 4.600523], [-73.050417, 4.600013], [-73.05057, 4.599491], [-73.05073, 4.598942], [-73.050894, 4.598366], [-73.051063, 4.597773], [-73.051214, 4.597239], [-73.051367, 4.596702], [-73.05153, 4.596148], [-73.0517, 4.595588], [-73.051857, 4.595059], [-73.052008, 4.594572], [-73.052174, 4.594018], [-73.052312, 4.593557], [-73.052449, 4.593094], [-73.052553, 4.592728], [-73.052656, 4.592377], [-73.052789, 4.591931], [-73.052859, 4.591692], [-73.052959, 4.591325], [-73.05305, 4.590991], [-73.053158, 4.590618], [-73.053299, 4.590169], [-73.053434, 4.589721], [-73.053538, 4.58938], [-73.053644, 4.58903], [-73.053774, 4.588629], [-73.05393, 4.588214], [-73.05409, 4.587775], [-73.054302, 4.587238], [-73.054401, 4.587017], [-73.054486, 4.586836], [-73.054592, 4.586658], [-73.0548, 4.586322], [-73.055002, 4.585995], [-73.055315, 4.585491], [-73.055515, 4.585174], [-73.055857, 4.584621], [-73.05604, 4.584323], [-73.056401, 4.583742], [-73.05658, 4.583465], [-73.056899, 4.582963], [-73.057052, 4.582719], [-73.057182, 4.582514], [-73.05738, 4.582199], [-73.057778, 4.581558], [-73.057928, 4.58132], [-73.058311, 4.580708], [-73.05861, 4.580234], [-73.058794, 4.579934], [-73.059001, 4.579605], [-73.059255, 4.579189], [-73.059401, 4.578955], [-73.059685, 4.578492], [-73.059847, 4.578231], [-73.060023, 4.577944], [-73.060197, 4.577672], [-73.060397, 4.577353], [-73.060646, 4.57696], [-73.060866, 4.576601], [-73.061069, 4.576279], [-73.061386, 4.575771], [-73.061641, 4.575367], [-73.061883, 4.574967], [-73.062142, 4.574564], [-73.062365, 4.574223], [-73.062519, 4.573982], [-73.062546, 4.573941], [-73.062607, 4.573845], [-73.062865, 4.57343], [-73.063108, 4.573036], [-73.063545, 4.572328], [-73.063766, 4.571971], [-73.063982, 4.571628], [-73.064143, 4.571371], [-73.06427, 4.571163], [-73.064337, 4.571062], [-73.064497, 4.570799], [-73.064617, 4.570604], [-73.065011, 4.569957], [-73.065266, 4.569547], [-73.06549, 4.569193], [-73.065835, 4.568647], [-73.065999, 4.568385], [-73.066204, 4.568064], [-73.066623, 4.567385], [-73.066797, 4.567106], [-73.066996, 4.566783], [-73.067243, 4.566374], [-73.067666, 4.565695], [-73.067917, 4.565308], [-73.068213, 4.564834], [-73.068457, 4.564434], [-73.068692, 4.564049], [-73.068961, 4.563611], [-73.069416, 4.562855], [-73.069825, 4.562187], [-73.070049, 4.561815], [-73.070242, 4.561493], [-73.070731, 4.560691], [-73.07102, 4.560219], [-73.071313, 4.559743], [-73.071639, 4.559218], [-73.071946, 4.558718], [-73.072207, 4.558292], [-73.07245, 4.557908], [-73.072703, 4.557512], [-73.072905, 4.557192], [-73.073262, 4.556617], [-73.073532, 4.556176], [-73.073686, 4.555927], [-73.07382, 4.555703], [-73.074017, 4.555361], [-73.074198, 4.555077], [-73.07446, 4.55464], [-73.074726, 4.554192], [-73.075, 4.553755], [-73.075162, 4.553485], [-73.075467, 4.552997], [-73.075724, 4.552592], [-73.075979, 4.552178], [-73.076291, 4.551675], [-73.076595, 4.551174], [-73.076896, 4.550672], [-73.077427, 4.549784], [-73.077738, 4.549276], [-73.078093, 4.548696], [-73.078263, 4.54841], [-73.078475, 4.548049], [-73.078679, 4.547702], [-73.078915, 4.547314], [-73.079166, 4.546897], [-73.079439, 4.546458], [-73.079608, 4.546183], [-73.079742, 4.545966], [-73.07977, 4.545919], [-73.079862, 4.545761], [-73.08, 4.545548], [-73.080127, 4.545345], [-73.080187, 4.545251], [-73.080234, 4.545166], [-73.08036, 4.544948], [-73.08062, 4.544508], [-73.080844, 4.544115], [-73.081076, 4.543659], [-73.081265, 4.543278], [-73.081477, 4.542834], [-73.081676, 4.542398], [-73.081834, 4.542058], [-73.081965, 4.54175], [-73.082132, 4.541379], [-73.082303, 4.541005], [-73.082446, 4.540697], [-73.082632, 4.5403], [-73.082849, 4.539827], [-73.083079, 4.539319], [-73.083182, 4.539105], [-73.083357, 4.538716], [-73.083535, 4.538327], [-73.083739, 4.537881], [-73.08393, 4.537448], [-73.084091, 4.537087], [-73.084316, 4.536586], [-73.084557, 4.536045], [-73.084831, 4.53544], [-73.085096, 4.534858], [-73.08533, 4.534367], [-73.085525, 4.533969], [-73.085726, 4.53353], [-73.085946, 4.533048], [-73.086152, 4.532586], [-73.086333, 4.532173], [-73.086501, 4.531799], [-73.08664, 4.531495], [-73.086761, 4.531239], [-73.086911, 4.530917], [-73.087093, 4.53051], [-73.087322, 4.53002], [-73.087466, 4.529718], [-73.087653, 4.529327], [-73.088051, 4.528477], [-73.088224, 4.528097], [-73.088405, 4.527686], [-73.088536, 4.527384], [-73.088727, 4.526956], [-73.088902, 4.52657], [-73.089017, 4.526317], [-73.089167, 4.525991], [-73.089362, 4.525554], [-73.089548, 4.525141], [-73.089741, 4.524721], [-73.089854, 4.524464], [-73.089874, 4.524414], [-73.090026, 4.524084], [-73.090105, 4.523922], [-73.09024, 4.523632], [-73.09033, 4.523426], [-73.090479, 4.523098], [-73.09063, 4.52277], [-73.090758, 4.522497], [-73.090904, 4.522169], [-73.091033, 4.521888], [-73.091127, 4.521686], [-73.091212, 4.521502], [-73.091353, 4.521193], [-73.091586, 4.520693], [-73.091746, 4.520347], [-73.09193, 4.519948], [-73.092116, 4.519544], [-73.092271, 4.519214], [-73.092499, 4.518734], [-73.092706, 4.518234], [-73.092881, 4.517852], [-73.093014, 4.517591], [-73.093058, 4.517504], [-73.093186, 4.517245], [-73.093414, 4.516751], [-73.093638, 4.516255], [-73.093801, 4.515901], [-73.094023, 4.51541], [-73.094192, 4.51504], [-73.094335, 4.514715], [-73.09446, 4.514435], [-73.094642, 4.514018], [-73.09482, 4.513616], [-73.09505, 4.513113], [-73.095202, 4.512785], [-73.095363, 4.51243], [-73.095506, 4.512128], [-73.095632, 4.511857], [-73.09568, 4.511761], [-73.095812, 4.511475], [-73.095998, 4.511085], [-73.096184, 4.510653], [-73.096358, 4.510255], [-73.096525, 4.509878], [-73.096653, 4.509604], [-73.096699, 4.509502], [-73.096778, 4.509339], [-73.097011, 4.508856], [-73.09719, 4.508457], [-73.097387, 4.508032], [-73.097539, 4.507703], [-73.097764, 4.507213], [-73.097986, 4.506718], [-73.098289, 4.506062], [-73.098516, 4.505572], [-73.098673, 4.505243], [-73.098911, 4.504762], [-73.09911, 4.504337], [-73.099365, 4.50378], [-73.099586, 4.50329], [-73.099812, 4.502798], [-73.100037, 4.502299], [-73.100182, 4.501969], [-73.100332, 4.501637], [-73.10055, 4.501144], [-73.100767, 4.500645], [-73.100917, 4.500318], [-73.101129, 4.499893], [-73.101312, 4.499528], [-73.101484, 4.499185], [-73.101604, 4.49894], [-73.101826, 4.498491], [-73.101876, 4.498379], [-73.101917, 4.498204], [-73.10196, 4.497992], [-73.101983, 4.49785], [-73.102042, 4.497497], [-73.102094, 4.497176], [-73.10216, 4.496782], [-73.102225, 4.496368], [-73.102265, 4.496132], [-73.102286, 4.496045], [-73.102298, 4.49599], [-73.102316, 4.495901], [-73.102315, 4.495731], [-73.102263, 4.495538], [-73.102226, 4.495419], [-73.10221, 4.495345], [-73.102197, 4.495288], [-73.102182, 4.495207], [-73.102166, 4.495104], [-73.102146, 4.494984], [-73.102142, 4.494802], [-73.102189, 4.49469], [-73.102293, 4.49458], [-73.102418, 4.49447], [-73.102568, 4.494329], [-73.102696, 4.494176], [-73.102871, 4.493967], [-73.10308, 4.493708], [-73.103289, 4.493423], [-73.103508, 4.493131], [-73.103933, 4.492542], [-73.10409, 4.49235], [-73.104207, 4.492206], [-73.104381, 4.491978], [-73.104501, 4.491794], [-73.104627, 4.491649], [-73.104808, 4.491457], [-73.104957, 4.491302], [-73.105061, 4.491217], [-73.10549, 4.490861], [-73.105604, 4.490769], [-73.105749, 4.490662], [-73.105809, 4.490613], [-73.105878, 4.490556], [-73.105943, 4.490498], [-73.1061, 4.490289], [-73.106384, 4.489875], [-73.106505, 4.489698], [-73.106547, 4.489629], [-73.10674, 4.489335], [-73.106919, 4.489058], [-73.107022, 4.48889], [-73.107214, 4.488588], [-73.107446, 4.488238], [-73.107641, 4.487944], [-73.107845, 4.487635], [-73.108144, 4.487183], [-73.108352, 4.486866], [-73.108441, 4.486723], [-73.108511, 4.486562], [-73.108564, 4.486389], [-73.108663, 4.486042], [-73.108765, 4.485694], [-73.108861, 4.485347], [-73.108953, 4.484998], [-73.109004, 4.484792], [-73.109028, 4.484696], [-73.109098, 4.484426], [-73.109131, 4.484306], [-73.109197, 4.484153], [-73.10927, 4.484042], [-73.109367, 4.483956], [-73.109453, 4.483911], [-73.109565, 4.483859], [-73.10972, 4.483858], [-73.109846, 4.483885], [-73.110235, 4.48395], [-73.110577, 4.484009], [-73.111244, 4.484133], [-73.111602, 4.484211], [-73.11195, 4.484289], [-73.11227, 4.484367], [-73.11254, 4.484427], [-73.112748, 4.484465], [-73.112974, 4.484496], [-73.113106, 4.4845], [-73.113306, 4.484504], [-73.113333, 4.484507], [-73.113427, 4.484502], [-73.113456, 4.484494], [-73.113608, 4.484484], [-73.113753, 4.484454], [-73.113845, 4.484441], [-73.113848, 4.484439], [-73.114492, 4.484359], [-73.114836, 4.484316], [-73.115042, 4.484283], [-73.11551, 4.484206], [-73.115781, 4.484158], [-73.116179, 4.484028], [-73.116453, 4.483908], [-73.116708, 4.483783], [-73.11714, 4.483572], [-73.117484, 4.483371], [-73.117836, 4.483138], [-73.118612, 4.482622], [-73.119428, 4.482083], [-73.119891, 4.481773], [-73.12034, 4.481484], [-73.120937, 4.481097], [-73.121079, 4.481014], [-73.121451, 4.480779], [-73.122192, 4.48032], [-73.122225, 4.480302], [-73.122765, 4.479966], [-73.123357, 4.479603], [-73.123571, 4.479461], [-73.123854, 4.479267], [-73.124141, 4.479077], [-73.124435, 4.478875], [-73.124677, 4.478709], [-73.124818, 4.47861], [-73.125047, 4.478454], [-73.125136, 4.478392], [-73.125915, 4.477865], [-73.126325, 4.477607], [-73.126551, 4.477455], [-73.126851, 4.477255], [-73.127154, 4.477053], [-73.127436, 4.476867], [-73.127689, 4.476717], [-73.128056, 4.4765], [-73.128371, 4.476292], [-73.128682, 4.476084], [-73.129104, 4.4758], [-73.129543, 4.475504], [-73.129857, 4.475291], [-73.130068, 4.475142], [-73.130249, 4.475], [-73.130384, 4.474852], [-73.130476, 4.47468], [-73.130592, 4.474471], [-73.130654, 4.474359], [-73.130746, 4.474202], [-73.13093, 4.474021], [-73.131098, 4.473912], [-73.131467, 4.473687], [-73.131802, 4.473466], [-73.132089, 4.473276], [-73.13242, 4.473078], [-73.132473, 4.473048], [-73.132834, 4.47302], [-73.13341, 4.472721], [-73.133786, 4.472437], [-73.135089, 4.471364], [-73.135294, 4.471257], [-73.135431, 4.471193], [-73.136172, 4.470773], [-73.136353, 4.470701], [-73.136452, 4.470683], [-73.136671, 4.470635], [-73.136851, 4.470606], [-73.137153, 4.470556], [-73.137377, 4.470521], [-73.137567, 4.470492], [-73.137665, 4.470469], [-73.137804, 4.47041], [-73.13818, 4.470234], [-73.138584, 4.469996], [-73.138843, 4.469839], [-73.138964, 4.469765], [-73.139306, 4.469509], [-73.139434, 4.469407], [-73.139803, 4.469093], [-73.140251, 4.468717], [-73.140392, 4.468611], [-73.140562, 4.468494], [-73.140733, 4.46835], [-73.140976, 4.468151], [-73.141265, 4.467903], [-73.141562, 4.467651], [-73.141943, 4.467326], [-73.142407, 4.466938], [-73.142885, 4.466545], [-73.143166, 4.466317], [-73.143255, 4.466248], [-73.143514, 4.466031], [-73.143965, 4.465664], [-73.144205, 4.465494], [-73.144417, 4.465373], [-73.14479, 4.465148], [-73.145105, 4.464906], [-73.145571, 4.464534], [-73.14584, 4.46432], [-73.146265, 4.463985], [-73.146594, 4.463727], [-73.146636, 4.463694], [-73.146799, 4.463562], [-73.147125, 4.463308], [-73.147575, 4.462957], [-73.147985, 4.462638], [-73.148055, 4.462589], [-73.148209, 4.462459], [-73.148548, 4.462108], [-73.148711, 4.461933], [-73.149063, 4.461549], [-73.149273, 4.461337], [-73.149413, 4.461182], [-73.149475, 4.46109], [-73.149701, 4.460777], [-73.149768, 4.460667], [-73.149844, 4.460545], [-73.149892, 4.460442], [-73.149928, 4.460279], [-73.149942, 4.460137], [-73.149968, 4.459929], [-73.150005, 4.459606], [-73.150047, 4.45937], [-73.150071, 4.459191], [-73.150067, 4.459003], [-73.150063, 4.45886], [-73.150055, 4.458602], [-73.150057, 4.458457], [-73.150048, 4.458238], [-73.150039, 4.457919], [-73.15002, 4.457561], [-73.150012, 4.45733], [-73.15001, 4.457192], [-73.150002, 4.457008], [-73.149985, 4.456793], [-73.14993, 4.456514], [-73.149871, 4.456225], [-73.149808, 4.455967], [-73.149784, 4.455815], [-73.149776, 4.455709], [-73.149723, 4.455511], [-73.149715, 4.455392], [-73.149683, 4.455256], [-73.149608, 4.455071], [-73.149533, 4.454916], [-73.149403, 4.454655], [-73.149305, 4.454463], [-73.149234, 4.454331], [-73.149214, 4.454244], [-73.149202, 4.454141], [-73.149211, 4.454027], [-73.149225, 4.453977], [-73.149243, 4.45391], [-73.149367, 4.453345], [-73.149398, 4.453215], [-73.14943, 4.453154], [-73.149586, 4.453001], [-73.149674, 4.452937], [-73.150498, 4.452355], [-73.150652, 4.452243], [-73.15085, 4.452117], [-73.151011, 4.452049], [-73.151075, 4.452031], [-73.151281, 4.451947], [-73.151508, 4.451855], [-73.151614, 4.451814], [-73.151839, 4.451724], [-73.151983, 4.451694], [-73.152114, 4.451699], [-73.152249, 4.451727], [-73.15271, 4.451819], [-73.152922, 4.451859], [-73.153126, 4.451892], [-73.153364, 4.451942], [-73.15363, 4.451999], [-73.153804, 4.452043], [-73.153885, 4.452083], [-73.153999, 4.452167], [-73.154193, 4.452462], [-73.154224, 4.452506], [-73.154267, 4.452567], [-73.154293, 4.452608], [-73.154367, 4.452715], [-73.154403, 4.452768], [-73.154491, 4.452852], [-73.154652, 4.452911], [-73.154718, 4.452938], [-73.155008, 4.45292], [-73.155162, 4.452898], [-73.155267, 4.452892], [-73.155405, 4.452879], [-73.155539, 4.452862], [-73.155779, 4.452743], [-73.156067, 4.452596], [-73.15633, 4.452464], [-73.15675, 4.452248], [-73.157, 4.452119], [-73.157342, 4.451938], [-73.157699, 4.45176], [-73.15795, 4.451622], [-73.158314, 4.451423], [-73.158617, 4.451263], [-73.159001, 4.45105], [-73.159334, 4.450874], [-73.159698, 4.450687], [-73.160175, 4.450439], [-73.160509, 4.450246], [-73.160752, 4.450112], [-73.161567, 4.449695], [-73.161958, 4.449482], [-73.162225, 4.44934], [-73.16252, 4.44916], [-73.162569, 4.449131], [-73.16322, 4.448738], [-73.163743, 4.448425], [-73.164258, 4.448115], [-73.165014, 4.447653], [-73.165437, 4.447398], [-73.165896, 4.447121], [-73.166236, 4.446912], [-73.166333, 4.44685], [-73.166591, 4.446692], [-73.166844, 4.446532], [-73.16698, 4.446456], [-73.167112, 4.446379], [-73.167236, 4.446312], [-73.167572, 4.446084], [-73.167844, 4.445864], [-73.168421, 4.445403], [-73.168652, 4.445216], [-73.16883, 4.445075], [-73.169109, 4.444854], [-73.169431, 4.444599], [-73.169725, 4.444361], [-73.169787, 4.444315], [-73.17006, 4.444095], [-73.170636, 4.44364], [-73.170681, 4.443602], [-73.170883, 4.44344], [-73.171091, 4.44328], [-73.171424, 4.443035], [-73.171633, 4.442878], [-73.171894, 4.442675], [-73.172151, 4.442453], [-73.172324, 4.442316], [-73.172453, 4.4422], [-73.172497, 4.442164], [-73.172614, 4.442068], [-73.172766, 4.441926], [-73.172973, 4.441728], [-73.173282, 4.441429], [-73.173389, 4.44133], [-73.173542, 4.441186], [-73.173654, 4.44109], [-73.173864, 4.4409], [-73.174093, 4.440693], [-73.174347, 4.440473], [-73.174606, 4.440245], [-73.174762, 4.440118], [-73.174917, 4.440002], [-73.175412, 4.439733], [-73.175611, 4.439612], [-73.175826, 4.439482], [-73.175934, 4.439415], [-73.175984, 4.439387], [-73.176409, 4.439129], [-73.176596, 4.439023], [-73.176881, 4.438856], [-73.177142, 4.438705], [-73.177411, 4.438549], [-73.177494, 4.438502], [-73.177521, 4.438486], [-73.177856, 4.438348], [-73.178166, 4.438242], [-73.178615, 4.438087], [-73.179101, 4.437894], [-73.179371, 4.437763], [-73.179804, 4.437545], [-73.180215, 4.437344], [-73.180438, 4.437229], [-73.180671, 4.437114], [-73.180715, 4.437091], [-73.181106, 4.436899], [-73.181559, 4.436679], [-73.181798, 4.436553], [-73.182022, 4.436433], [-73.182197, 4.436318], [-73.182256, 4.436293], [-73.182425, 4.436194], [-73.18255, 4.436145], [-73.182806, 4.435991], [-73.1832, 4.435753], [-73.183419, 4.435615], [-73.183537, 4.435572], [-73.183571, 4.435559], [-73.183814, 4.435434], [-73.184256, 4.435208], [-73.184451, 4.435096], [-73.184713, 4.434939], [-73.18502, 4.43477], [-73.185339, 4.434588], [-73.185547, 4.434479], [-73.185796, 4.434338], [-73.186067, 4.43419], [-73.186439, 4.433999], [-73.186537, 4.433951], [-73.186739, 4.433847], [-73.187094, 4.43363], [-73.187214, 4.433487], [-73.1874, 4.43309], [-73.187628, 4.432617], [-73.187749, 4.432518], [-73.187889, 4.432466], [-73.187976, 4.432445], [-73.188079, 4.432435], [-73.188257, 4.432399], [-73.188476, 4.432352], [-73.188884, 4.432284], [-73.189252, 4.432215], [-73.18951, 4.432162], [-73.189757, 4.432114], [-73.190119, 4.432047], [-73.1906, 4.431885], [-73.191023, 4.431741], [-73.191073, 4.431726], [-73.191339, 4.431635], [-73.191636, 4.431538], [-73.19179, 4.431484], [-73.191924, 4.43144], [-73.192006, 4.431411], [-73.192181, 4.431351], [-73.192349, 4.431293], [-73.192474, 4.431252], [-73.192614, 4.431231], [-73.192729, 4.431241], [-73.193118, 4.431293], [-73.193324, 4.431245], [-73.193506, 4.431202], [-73.193728, 4.431166], [-73.193807, 4.431139], [-73.193945, 4.431105], [-73.194126, 4.431035], [-73.1943, 4.430974], [-73.194535, 4.430893], [-73.194695, 4.430833], [-73.194914, 4.430725], [-73.195157, 4.430596], [-73.195322, 4.430516], [-73.195396, 4.430475], [-73.195648, 4.430347], [-73.195844, 4.430236], [-73.196049, 4.430132], [-73.196756, 4.429977], [-73.197287, 4.429856], [-73.197637, 4.42978], [-73.197961, 4.429677], [-73.198037, 4.429646], [-73.198207, 4.429542], [-73.198295, 4.429426], [-73.19833, 4.4292], [-73.198336, 4.428891], [-73.198256, 4.428549], [-73.198138, 4.42817], [-73.198057, 4.427961], [-73.19804, 4.42787], [-73.198071, 4.427771], [-73.198181, 4.427674], [-73.198279, 4.427642], [-73.198379, 4.427624], [-73.198441, 4.427599], [-73.198679, 4.427508], [-73.198982, 4.427403], [-73.199295, 4.427228], [-73.19954, 4.427074], [-73.199991, 4.426783], [-73.200086, 4.426725], [-73.200335, 4.426563], [-73.200647, 4.42636], [-73.200919, 4.426186], [-73.20109, 4.426065], [-73.201526, 4.425811], [-73.201797, 4.425663], [-73.201997, 4.425561], [-73.20224, 4.425444], [-73.202282, 4.42542], [-73.202476, 4.425327], [-73.202723, 4.42519], [-73.20301, 4.425001], [-73.203421, 4.424733], [-73.203632, 4.424598], [-73.203752, 4.42454], [-73.203966, 4.424455], [-73.204102, 4.424403], [-73.204188, 4.424356], [-73.204273, 4.424306], [-73.20447, 4.424208], [-73.204596, 4.424136], [-73.204759, 4.424049], [-73.204975, 4.423953], [-73.205374, 4.423775], [-73.205822, 4.423571], [-73.206418, 4.42328], [-73.20654, 4.423226], [-73.206861, 4.423076], [-73.207256, 4.422892], [-73.207887, 4.422583], [-73.20831, 4.422386], [-73.208561, 4.422271], [-73.208961, 4.42209], [-73.209232, 4.421964], [-73.209473, 4.421856], [-73.209645, 4.421772], [-73.210061, 4.421562], [-73.210328, 4.421386], [-73.210531, 4.421182], [-73.210725, 4.420871], [-73.210849, 4.420646], [-73.21104, 4.420262], [-73.211089, 4.420154], [-73.211125, 4.420078], [-73.211266, 4.419771], [-73.211368, 4.419503], [-73.211473, 4.419163], [-73.2116, 4.419003], [-73.211791, 4.418897], [-73.211991, 4.418821], [-73.212628, 4.418567], [-73.213241, 4.41839], [-73.213692, 4.418272], [-73.214109, 4.418166], [-73.214266, 4.418088], [-73.21465, 4.417828], [-73.21498, 4.417591], [-73.215103, 4.417499], [-73.215488, 4.417239], [-73.215646, 4.417152], [-73.216069, 4.41692], [-73.216296, 4.416788], [-73.216482, 4.416668], [-73.216575, 4.416609], [-73.216786, 4.416464], [-73.217298, 4.416098], [-73.217543, 4.415914], [-73.217684, 4.415802], [-73.217909, 4.415638], [-73.217971, 4.415595], [-73.21804, 4.415546], [-73.218226, 4.415359], [-73.218375, 4.415226], [-73.218578, 4.415066], [-73.218749, 4.414943], [-73.218931, 4.414806], [-73.219026, 4.414739], [-73.219117, 4.414678], [-73.219335, 4.414514], [-73.219512, 4.414386], [-73.219832, 4.414151], [-73.220035, 4.413993], [-73.220498, 4.413606], [-73.221096, 4.413134], [-73.22124, 4.413022], [-73.221455, 4.412845], [-73.221701, 4.41262], [-73.221887, 4.412435], [-73.222157, 4.412021], [-73.222345, 4.411726], [-73.22266, 4.411226], [-73.222757, 4.411117], [-73.222858, 4.411007], [-73.223067, 4.410791], [-73.223209, 4.410652], [-73.223529, 4.410456], [-73.223959, 4.410256], [-73.224581, 4.409967], [-73.224738, 4.409874], [-73.224955, 4.409695], [-73.225182, 4.409497], [-73.225374, 4.409323], [-73.225641, 4.409064], [-73.225876, 4.408846], [-73.22614, 4.4086], [-73.226735, 4.408034], [-73.227111, 4.407661], [-73.227172, 4.407598], [-73.227389, 4.407393], [-73.22778, 4.407024], [-73.228105, 4.406724], [-73.228365, 4.406477], [-73.228513, 4.406336], [-73.228802, 4.406049], [-73.22917, 4.405689], [-73.22954, 4.405325], [-73.229921, 4.404958], [-73.230282, 4.404606], [-73.230441, 4.404452], [-73.230605, 4.404343], [-73.230766, 4.404317], [-73.230966, 4.404305], [-73.231454, 4.404273], [-73.231856, 4.404233], [-73.231993, 4.404222], [-73.23218, 4.404204], [-73.232356, 4.404142], [-73.232579, 4.404029], [-73.232917, 4.403812], [-73.23298, 4.403762], [-73.233029, 4.403721], [-73.233096, 4.40368], [-73.233222, 4.403591], [-73.233454, 4.403432], [-73.233723, 4.403247], [-73.234182, 4.402919], [-73.234244, 4.402876], [-73.234455, 4.402733], [-73.23466, 4.402591], [-73.234904, 4.402427], [-73.235122, 4.402291], [-73.235519, 4.402057], [-73.235829, 4.401874], [-73.236209, 4.401649], [-73.236396, 4.401534], [-73.236429, 4.401514], [-73.236674, 4.401378], [-73.237084, 4.401152], [-73.237401, 4.40098], [-73.237608, 4.400868], [-73.237798, 4.40079], [-73.238029, 4.400681], [-73.238068, 4.400662], [-73.238324, 4.400543], [-73.238447, 4.400482], [-73.238687, 4.400369], [-73.239194, 4.400128], [-73.239299, 4.400077], [-73.239817, 4.399835], [-73.240387, 4.399575], [-73.240525, 4.399513], [-73.240918, 4.399327], [-73.241562, 4.399027], [-73.241893, 4.398876], [-73.242105, 4.398787], [-73.242502, 4.398653], [-73.243142, 4.398481], [-73.24349, 4.398392], [-73.243891, 4.398282], [-73.244303, 4.398168], [-73.244355, 4.398154], [-73.244659, 4.398075], [-73.245383, 4.397872], [-73.245923, 4.397728], [-73.246714, 4.397511], [-73.247336, 4.397343], [-73.247724, 4.397235], [-73.248164, 4.397068], [-73.248756, 4.39681], [-73.249312, 4.396566], [-73.249732, 4.396382], [-73.250272, 4.396148], [-73.250752, 4.395979], [-73.250838, 4.395948], [-73.251156, 4.395824], [-73.251236, 4.395794], [-73.251887, 4.395526], [-73.252039, 4.395461], [-73.252246, 4.395376], [-73.252747, 4.395159], [-73.253127, 4.394977], [-73.253588, 4.394645], [-73.253893, 4.394421], [-73.254437, 4.394019], [-73.254592, 4.393957], [-73.254834, 4.393906], [-73.255229, 4.393859], [-73.255554, 4.393867], [-73.255639, 4.39386], [-73.255879, 4.393835], [-73.256014, 4.393779], [-73.256575, 4.393437], [-73.256639, 4.393385], [-73.256808, 4.393222], [-73.256904, 4.393122], [-73.256956, 4.393076], [-73.25703, 4.392992], [-73.257172, 4.392848], [-73.257351, 4.392662], [-73.25758, 4.392409], [-73.257739, 4.392163], [-73.257791, 4.392074], [-73.25782, 4.392034], [-73.257975, 4.391811], [-73.258052, 4.391755], [-73.258378, 4.3916], [-73.258704, 4.391446], [-73.258854, 4.391373], [-73.25904, 4.39124], [-73.25931, 4.391051], [-73.259605, 4.390844], [-73.25991, 4.390627], [-73.260119, 4.390473], [-73.260554, 4.39018], [-73.260639, 4.39014], [-73.260982, 4.389987], [-73.261313, 4.38984], [-73.261981, 4.389558], [-73.262324, 4.389445], [-73.262667, 4.389326], [-73.263185, 4.389154], [-73.264177, 4.388792], [-73.264762, 4.388574], [-73.264956, 4.388504], [-73.26546, 4.38834], [-73.265932, 4.388219], [-73.266489, 4.388076], [-73.267039, 4.387944], [-73.267598, 4.387838], [-73.267852, 4.387785], [-73.268051, 4.387754], [-73.268589, 4.387687], [-73.269374, 4.387579], [-73.269414, 4.387574], [-73.269887, 4.387518], [-73.27038, 4.387459], [-73.270851, 4.387392], [-73.271371, 4.387328], [-73.271624, 4.387298], [-73.272102, 4.387253], [-73.27281, 4.387189], [-73.273484, 4.387101], [-73.273841, 4.387066], [-73.27469, 4.386963], [-73.275222, 4.386896], [-73.275709, 4.386834], [-73.276334, 4.386728], [-73.2764, 4.38671], [-73.276641, 4.386682], [-73.2768, 4.386726], [-73.276983, 4.386779], [-73.277154, 4.386826], [-73.277486, 4.386928], [-73.27766, 4.386987], [-73.277849, 4.387045], [-73.278107, 4.387163], [-73.278352, 4.387237], [-73.278461, 4.387301], [-73.278592, 4.38738], [-73.278805, 4.387536], [-73.279075, 4.387794], [-73.279207, 4.387914], [-73.279433, 4.388023], [-73.279553, 4.388066], [-73.280017, 4.388224], [-73.280225, 4.388294], [-73.280605, 4.388428], [-73.281122, 4.38859], [-73.281417, 4.3887], [-73.281897, 4.388879], [-73.28217, 4.388969], [-73.282533, 4.389115], [-73.282933, 4.389257], [-73.283442, 4.389434], [-73.283767, 4.389531], [-73.283822, 4.389552], [-73.284158, 4.389597], [-73.284499, 4.38972], [-73.285149, 4.389949], [-73.285706, 4.390096], [-73.286656, 4.390369], [-73.28675, 4.390394], [-73.28685, 4.390418], [-73.286877, 4.390424], [-73.286903, 4.390431], [-73.28704, 4.390466], [-73.287274, 4.390444], [-73.287422, 4.390412], [-73.287501, 4.390396], [-73.287602, 4.390389], [-73.28773, 4.390383], [-73.287918, 4.390299], [-73.288137, 4.390252], [-73.28839, 4.390199], [-73.288625, 4.390148], [-73.289033, 4.390064], [-73.289505, 4.389964], [-73.289803, 4.389903], [-73.290162, 4.389828], [-73.290272, 4.389804], [-73.290452, 4.389765], [-73.290932, 4.38967], [-73.292218, 4.389446], [-73.292483, 4.389386], [-73.292918, 4.389305], [-73.293097, 4.389283], [-73.293457, 4.389241], [-73.293877, 4.389188], [-73.294232, 4.389148], [-73.294565, 4.389107], [-73.29459, 4.389108], [-73.294685, 4.389096], [-73.29471, 4.389095], [-73.294945, 4.389068], [-73.295119, 4.389041], [-73.295366, 4.38895], [-73.295514, 4.388906], [-73.295663, 4.388845], [-73.295777, 4.388797], [-73.295898, 4.38868], [-73.296068, 4.388448], [-73.296163, 4.388307], [-73.296248, 4.388173], [-73.296323, 4.388061], [-73.29638, 4.387831], [-73.296419, 4.387686], [-73.296512, 4.387352], [-73.296586, 4.387067], [-73.296645, 4.386831], [-73.29667, 4.386741], [-73.2967, 4.386632], [-73.296747, 4.386447], [-73.296825, 4.386098], [-73.296929, 4.385593], [-73.297014, 4.38517], [-73.297103, 4.384753], [-73.297132, 4.384596], [-73.297151, 4.384511], [-73.297187, 4.384331], [-73.297262, 4.383976], [-73.297332, 4.383643], [-73.297402, 4.383317], [-73.297436, 4.383151], [-73.297456, 4.383045], [-73.297501, 4.382825], [-73.297553, 4.382564], [-73.297596, 4.382318], [-73.297647, 4.381974], [-73.29769, 4.381657], [-73.297719, 4.381418], [-73.297744, 4.381194], [-73.297804, 4.380873], [-73.29787, 4.380643], [-73.297944, 4.380421], [-73.298016, 4.380197], [-73.298116, 4.379925], [-73.298162, 4.379765], [-73.298254, 4.379365], [-73.298315, 4.379126], [-73.298414, 4.37875], [-73.298445, 4.378637], [-73.298488, 4.378495], [-73.298505, 4.37844], [-73.298585, 4.378155], [-73.298611, 4.378025], [-73.298628, 4.377943], [-73.298653, 4.377843], [-73.298683, 4.377719], [-73.298733, 4.37752], [-73.298832, 4.377167], [-73.298872, 4.376999], [-73.298981, 4.376591], [-73.299042, 4.376344], [-73.299109, 4.376097], [-73.299127, 4.376042], [-73.299149, 4.375954], [-73.299184, 4.375802], [-73.299252, 4.375627], [-73.299348, 4.375363], [-73.299391, 4.375254], [-73.299437, 4.375146], [-73.299572, 4.374803], [-73.299782, 4.37427], [-73.299935, 4.373877], [-73.300121, 4.373405], [-73.300317, 4.372912], [-73.300415, 4.37266], [-73.300599, 4.372172], [-73.300738, 4.37181], [-73.301016, 4.371064], [-73.301113, 4.370864], [-73.301147, 4.370809], [-73.301228, 4.370669], [-73.301375, 4.370419], [-73.301672, 4.369922], [-73.301808, 4.3697], [-73.30197, 4.369473], [-73.302093, 4.369304], [-73.302207, 4.369126], [-73.302447, 4.368741], [-73.302707, 4.368324], [-73.302862, 4.36808], [-73.303149, 4.367612], [-73.30322, 4.36748], [-73.303312, 4.367343], [-73.303452, 4.367136], [-73.303663, 4.366811], [-73.303968, 4.366323], [-73.304257, 4.365876], [-73.304465, 4.365555], [-73.304693, 4.365177], [-73.30482, 4.364981], [-73.304905, 4.36485], [-73.305044, 4.364657], [-73.305219, 4.364418], [-73.305583, 4.363899], [-73.305691, 4.363742], [-73.305858, 4.36351], [-73.306043, 4.363246], [-73.306077, 4.363199], [-73.306241, 4.36297], [-73.3064, 4.36271], [-73.306597, 4.362372], [-73.306715, 4.362151], [-73.306839, 4.361863], [-73.306867, 4.3618], [-73.306946, 4.361619], [-73.30706, 4.361382], [-73.307201, 4.361083], [-73.307328, 4.360817], [-73.307372, 4.360734], [-73.307422, 4.360647], [-73.307506, 4.360488], [-73.307603, 4.360308], [-73.307842, 4.359854], [-73.307907, 4.359713], [-73.307955, 4.359557], [-73.30799, 4.35937], [-73.3081, 4.35873], [-73.308156, 4.358375], [-73.308214, 4.358052], [-73.308224, 4.357983], [-73.308252, 4.357813], [-73.308412, 4.357528], [-73.308611, 4.357146], [-73.308692, 4.356989], [-73.308708, 4.356951], [-73.308723, 4.356892], [-73.308719, 4.356786], [-73.308686, 4.356487], [-73.308659, 4.356126], [-73.308626, 4.355822], [-73.308609, 4.35565], [-73.308631, 4.355414], [-73.308729, 4.354732], [-73.308832, 4.35402], [-73.308877, 4.353712], [-73.308931, 4.353303], [-73.308982, 4.35293], [-73.308991, 4.352875], [-73.309033, 4.352605], [-73.309111, 4.352183], [-73.309163, 4.351927], [-73.309267, 4.351572], [-73.309314, 4.351442], [-73.309414, 4.351119], [-73.309473, 4.350991], [-73.309561, 4.350822], [-73.30958, 4.350783], [-73.309725, 4.350486], [-73.309861, 4.350155], [-73.309877, 4.350121], [-73.310083, 4.34962], [-73.310252, 4.349186], [-73.310264, 4.349143], [-73.310356, 4.348844], [-73.310462, 4.348454], [-73.310478, 4.348174], [-73.310488, 4.347929], [-73.310629, 4.347686], [-73.310817, 4.347405], [-73.310929, 4.34711], [-73.310999, 4.346952], [-73.311074, 4.346788], [-73.311166, 4.346675], [-73.311255, 4.346619], [-73.311462, 4.346509], [-73.311556, 4.346441], [-73.311651, 4.346347], [-73.311783, 4.346205], [-73.312036, 4.345928], [-73.312254, 4.34569], [-73.312439, 4.345505], [-73.312656, 4.345336], [-73.312892, 4.345199], [-73.313021, 4.345117], [-73.313243, 4.344906], [-73.313405, 4.344701], [-73.31355, 4.344518], [-73.313783, 4.34423], [-73.313974, 4.344096], [-73.314175, 4.343959], [-73.314372, 4.343826], [-73.314454, 4.34377], [-73.314602, 4.343662], [-73.314822, 4.343539], [-73.314964, 4.343512], [-73.315116, 4.343558], [-73.315308, 4.343624], [-73.315476, 4.34367], [-73.315565, 4.343666], [-73.315808, 4.34362], [-73.316228, 4.343541], [-73.316562, 4.343478], [-73.316844, 4.343416], [-73.317136, 4.343353], [-73.317257, 4.343322], [-73.317314, 4.34331], [-73.31767, 4.343236], [-73.318027, 4.343159], [-73.318398, 4.343044], [-73.318711, 4.342932], [-73.318898, 4.342866], [-73.319213, 4.342753], [-73.319711, 4.342579], [-73.319944, 4.342486], [-73.320251, 4.342366], [-73.320812, 4.342163], [-73.320885, 4.342135], [-73.321141, 4.342051], [-73.321417, 4.341953], [-73.321687, 4.341846], [-73.321744, 4.341828], [-73.322098, 4.341703], [-73.322343, 4.341609], [-73.322603, 4.341515], [-73.322926, 4.341399], [-73.323137, 4.341319], [-73.323199, 4.341294], [-73.323568, 4.34116], [-73.323823, 4.341067], [-73.324165, 4.340938], [-73.324435, 4.340834], [-73.324677, 4.340743], [-73.325125, 4.34057], [-73.325445, 4.340434], [-73.325664, 4.340308], [-73.325843, 4.340239], [-73.325943, 4.340207], [-73.326147, 4.340135], [-73.3264, 4.340048], [-73.326617, 4.339961], [-73.326756, 4.339889], [-73.326897, 4.339814], [-73.327184, 4.3397], [-73.327435, 4.339651], [-73.327759, 4.339579], [-73.327919, 4.339543], [-73.328083, 4.339531], [-73.328508, 4.339565], [-73.329158, 4.339619], [-73.329499, 4.339662], [-73.329915, 4.339709], [-73.330303, 4.339738], [-73.331015, 4.339791], [-73.331378, 4.33981], [-73.331656, 4.339827], [-73.332235, 4.339868], [-73.332389, 4.339878], [-73.332458, 4.339883], [-73.332977, 4.339914], [-73.333335, 4.33994], [-73.333672, 4.33996], [-73.334044, 4.33998], [-73.334533, 4.340008], [-73.335285, 4.340049], [-73.335677, 4.340075], [-73.33606, 4.3401], [-73.336823, 4.340137], [-73.336908, 4.340143], [-73.337114, 4.340154], [-73.337514, 4.340171], [-73.337908, 4.340185], [-73.338212, 4.340195], [-73.338605, 4.340228], [-73.338957, 4.34026], [-73.33905, 4.340257], [-73.33943, 4.340281], [-73.339818, 4.340305], [-73.340026, 4.340314], [-73.340141, 4.340318], [-73.340389, 4.34033], [-73.340714, 4.340318], [-73.341227, 4.34027], [-73.341299, 4.340267], [-73.341673, 4.340232], [-73.342011, 4.340199], [-73.342238, 4.340179], [-73.342606, 4.340148], [-73.343013, 4.340119], [-73.34319, 4.340102], [-73.343531, 4.340072], [-73.34358, 4.340068], [-73.3439, 4.340025], [-73.344255, 4.339979], [-73.344686, 4.339927], [-73.345144, 4.339866], [-73.34532, 4.339844], [-73.34573, 4.339799], [-73.345995, 4.33978], [-73.346251, 4.339752], [-73.346636, 4.339691], [-73.346868, 4.339658], [-73.347162, 4.339631], [-73.347345, 4.339611], [-73.347412, 4.339607], [-73.347993, 4.339557], [-73.348278, 4.339526], [-73.348578, 4.339503], [-73.348914, 4.339468], [-73.349229, 4.339434], [-73.349451, 4.339411], [-73.34979, 4.339379], [-73.349864, 4.339375], [-73.350109, 4.33935], [-73.350548, 4.339302], [-73.351073, 4.339239], [-73.351319, 4.339173], [-73.351432, 4.339129], [-73.351639, 4.339031], [-73.351792, 4.338935], [-73.352155, 4.338707], [-73.352513, 4.338484], [-73.352799, 4.3383], [-73.353181, 4.338055], [-73.353477, 4.33786], [-73.353504, 4.337842], [-73.353762, 4.337676], [-73.354025, 4.337513], [-73.354232, 4.337374], [-73.354562, 4.337164], [-73.354826, 4.336987], [-73.35499, 4.336873], [-73.355323, 4.336639], [-73.355538, 4.336469], [-73.356053, 4.336055], [-73.356174, 4.33596], [-73.35645, 4.335755], [-73.35658, 4.335696], [-73.356718, 4.335641], [-73.356838, 4.335585], [-73.357161, 4.335445], [-73.357407, 4.335319], [-73.357666, 4.335151], [-73.357938, 4.334972], [-73.358393, 4.334676], [-73.358752, 4.334442], [-73.358998, 4.33428], [-73.359367, 4.334047], [-73.359504, 4.333961], [-73.359709, 4.333829], [-73.359787, 4.333792], [-73.35993, 4.333726], [-73.360196, 4.333637], [-73.360448, 4.333556], [-73.360792, 4.333443], [-73.361493, 4.333221], [-73.361827, 4.333112], [-73.361999, 4.333056], [-73.362105, 4.333024], [-73.36214, 4.333009], [-73.362343, 4.332944], [-73.362652, 4.332845], [-73.362895, 4.332764], [-73.363237, 4.332651], [-73.363339, 4.332606], [-73.3636, 4.332472], [-73.363779, 4.332349], [-73.364, 4.332188], [-73.364376, 4.331917], [-73.36479, 4.331612], [-73.365191, 4.331326], [-73.365481, 4.331117], [-73.365736, 4.330932], [-73.365874, 4.330844], [-73.366226, 4.330662], [-73.366608, 4.33047], [-73.366883, 4.330329], [-73.367015, 4.330256], [-73.367177, 4.330175], [-73.367315, 4.330155], [-73.367428, 4.330152], [-73.36757, 4.330182], [-73.367724, 4.330213], [-73.367862, 4.330255], [-73.368058, 4.330345], [-73.368431, 4.33063], [-73.368611, 4.330749], [-73.36877, 4.3308], [-73.369049, 4.330866], [-73.369219, 4.330922], [-73.369382, 4.330963], [-73.369538, 4.331003], [-73.369775, 4.331073], [-73.370033, 4.331147], [-73.370205, 4.331192], [-73.370392, 4.331247], [-73.370592, 4.331266], [-73.370696, 4.331257], [-73.370939, 4.331203], [-73.371092, 4.331151], [-73.371224, 4.331073], [-73.371318, 4.330994], [-73.371468, 4.330854], [-73.371576, 4.330593], [-73.371639, 4.330281], [-73.371699, 4.330016], [-73.371717, 4.329811], [-73.371796, 4.329694], [-73.371858, 4.329629], [-73.371881, 4.329596], [-73.372029, 4.329466], [-73.372282, 4.329241], [-73.372452, 4.329093], [-73.372763, 4.328865], [-73.372936, 4.328756], [-73.373191, 4.328586], [-73.373703, 4.328241], [-73.373847, 4.328141], [-73.373968, 4.328063], [-73.374161, 4.327914], [-73.37427, 4.327723], [-73.374377, 4.327477], [-73.374703, 4.326709], [-73.374743, 4.326618], [-73.374897, 4.326279], [-73.37501, 4.326058], [-73.375038, 4.326008], [-73.375169, 4.325801], [-73.375216, 4.325738], [-73.375276, 4.325654], [-73.375503, 4.325346], [-73.375607, 4.325141], [-73.37563, 4.325092], [-73.375785, 4.32478], [-73.376078, 4.324164], [-73.376129, 4.324039], [-73.376176, 4.323835], [-73.376166, 4.323695], [-73.376117, 4.323479], [-73.376065, 4.32337], [-73.37594, 4.323157], [-73.375719, 4.322777], [-73.375551, 4.322467], [-73.375478, 4.322214], [-73.375413, 4.322002], [-73.375385, 4.321645], [-73.375409, 4.321307], [-73.375899, 4.317351], [-73.376066, 4.316114], [-73.376095, 4.315617], [-73.376136, 4.315233], [-73.376369, 4.313373], [-73.376641, 4.312837], [-73.376864, 4.312365], [-73.376955, 4.312275], [-73.377138, 4.312172], [-73.377614, 4.311893], [-73.377819, 4.311777], [-73.378004, 4.311668], [-73.378538, 4.311371], [-73.378803, 4.311227], [-73.378834, 4.311205], [-73.379787, 4.310645], [-73.380264, 4.310338], [-73.381183, 4.309847], [-73.381723, 4.309549], [-73.382193, 4.309273], [-73.382897, 4.30888], [-73.383106, 4.308745], [-73.383143, 4.308719], [-73.383386, 4.308563], [-73.383743, 4.308368], [-73.384401, 4.308063], [-73.384783, 4.307876], [-73.384906, 4.307812], [-73.384985, 4.307753], [-73.385172, 4.307521], [-73.385298, 4.307361], [-73.385908, 4.306559], [-73.385945, 4.306509], [-73.38637, 4.305914], [-73.386413, 4.305854], [-73.386524, 4.30568], [-73.386614, 4.305501], [-73.386721, 4.305232], [-73.386765, 4.305105], [-73.386849, 4.304925], [-73.387324, 4.304125], [-73.387635, 4.303606], [-73.387682, 4.303538], [-73.388298, 4.302624], [-73.388469, 4.302352], [-73.388712, 4.301964], [-73.388818, 4.301774], [-73.388855, 4.301715], [-73.389195, 4.301222], [-73.389517, 4.300756], [-73.389969, 4.300101], [-73.390306, 4.299618], [-73.390799, 4.29894], [-73.391116, 4.298489], [-73.391433, 4.29802], [-73.391621, 4.297753], [-73.391871, 4.297344], [-73.392078, 4.297007], [-73.392305, 4.296624], [-73.392499, 4.296289], [-73.392692, 4.295952], [-73.393041, 4.295353], [-73.393175, 4.295126], [-73.393346, 4.294826], [-73.393405, 4.294704], [-73.393432, 4.294653], [-73.393557, 4.2944], [-73.393724, 4.294206], [-73.393796, 4.294132], [-73.39385, 4.294056], [-73.393877, 4.294024], [-73.394212, 4.293637], [-73.394508, 4.293254], [-73.395244, 4.292205], [-73.395481, 4.291912], [-73.395729, 4.29151], [-73.395814, 4.291392], [-73.39586, 4.291328], [-73.396799, 4.28986], [-73.397215, 4.289273], [-73.397666, 4.288619], [-73.397947, 4.288237], [-73.398075, 4.288045], [-73.398091, 4.28802], [-73.398717, 4.287093], [-73.399052, 4.286661], [-73.399408, 4.286188], [-73.399633, 4.285902], [-73.399856, 4.285616], [-73.400093, 4.285297], [-73.400118, 4.285266], [-73.400369, 4.284945], [-73.400406, 4.284897], [-73.400446, 4.284803], [-73.400556, 4.284534], [-73.400645, 4.284269], [-73.400696, 4.284164], [-73.400902, 4.283852], [-73.400925, 4.283813], [-73.401037, 4.283635], [-73.401151, 4.283332], [-73.401165, 4.283262], [-73.401204, 4.282986], [-73.401208, 4.282899], [-73.401254, 4.282684], [-73.401298, 4.282607], [-73.401374, 4.282504], [-73.401514, 4.28235], [-73.402012, 4.281851], [-73.402367, 4.2815], [-73.402594, 4.281278], [-73.402704, 4.281153], [-73.402807, 4.281041], [-73.403027, 4.280808], [-73.403242, 4.28053], [-73.403276, 4.280466], [-73.403553, 4.279786], [-73.403668, 4.279438], [-73.403914, 4.278764], [-73.404156, 4.278085], [-73.404275, 4.27772], [-73.40433, 4.277574], [-73.40452, 4.277014], [-73.404619, 4.276736], [-73.404644, 4.276682], [-73.404756, 4.276371], [-73.404861, 4.276031], [-73.405034, 4.275493], [-73.405189, 4.274845], [-73.405198, 4.274774], [-73.405293, 4.274422], [-73.40532, 4.274287], [-73.40542, 4.273925], [-73.405488, 4.27359], [-73.405525, 4.273404], [-73.405598, 4.273064], [-73.405625, 4.272775], [-73.40562, 4.272582], [-73.405572, 4.27217], [-73.40554, 4.27181], [-73.405508, 4.271457], [-73.405492, 4.27127], [-73.405465, 4.270982], [-73.405436, 4.270735], [-73.405376, 4.270411], [-73.405362, 4.270329], [-73.40532, 4.269947], [-73.405293, 4.269574], [-73.405242, 4.269107], [-73.405179, 4.268545], [-73.405112, 4.268019], [-73.405053, 4.267481], [-73.404992, 4.266951], [-73.404918, 4.266422], [-73.40489, 4.266062], [-73.40484, 4.265569], [-73.404752, 4.265006], [-73.404758, 4.264809], [-73.404707, 4.264459], [-73.404677, 4.264369], [-73.404641, 4.264248], [-73.404567, 4.263936], [-73.40449, 4.263583], [-73.404375, 4.263048], [-73.40433, 4.26284], [-73.404252, 4.262469], [-73.404183, 4.262104], [-73.404105, 4.261615], [-73.404014, 4.261182], [-73.4039, 4.260655], [-73.403825, 4.260221], [-73.403757, 4.259826], [-73.403652, 4.259279], [-73.403562, 4.258823], [-73.40349, 4.258436], [-73.403472, 4.258307], [-73.403465, 4.258245], [-73.403431, 4.258072], [-73.403067, 4.256104], [-73.40267, 4.254073], [-73.40265, 4.253981], [-73.402639, 4.253906], [-73.40255, 4.253838], [-73.402423, 4.253199], [-73.402306, 4.252487], [-73.402222, 4.252122], [-73.40213, 4.251591], [-73.40212, 4.251482], [-73.402117, 4.251447], [-73.402106, 4.251325], [-73.401939, 4.2506], [-73.401718, 4.24972], [-73.401599, 4.249237], [-73.401428, 4.248478], [-73.4013, 4.247899], [-73.401196, 4.247414], [-73.401081, 4.246834], [-73.400994, 4.246408], [-73.400935, 4.246108], [-73.400827, 4.245551], [-73.400671, 4.245036], [-73.400507, 4.244542], [-73.400418, 4.244277], [-73.400403, 4.244206], [-73.400384, 4.243564], [-73.400146, 4.242414], [-73.399949, 4.241626], [-73.399808, 4.241085], [-73.399696, 4.240662], [-73.399476, 4.240141], [-73.399249, 4.239756], [-73.399145, 4.239587], [-73.399133, 4.239543], [-73.399028, 4.239054], [-73.399069, 4.238599], [-73.399268, 4.237706], [-73.399386, 4.237246], [-73.39949, 4.236703], [-73.399555, 4.236149], [-73.399616, 4.23576], [-73.399653, 4.235496], [-73.399677, 4.235342], [-73.399804, 4.235165], [-73.399843, 4.23468], [-73.399894, 4.234118], [-73.399766, 4.234076], [-73.399743, 4.233913], [-73.399728, 4.233655], [-73.399711, 4.233304], [-73.399732, 4.232999], [-73.399769, 4.232661], [-73.399805, 4.232319], [-73.399792, 4.231674], [-73.399723, 4.231326], [-73.399653, 4.230962], [-73.399552, 4.230439], [-73.399415, 4.229917], [-73.399327, 4.229616], [-73.399071, 4.229084], [-73.398921, 4.228679], [-73.398812, 4.228319], [-73.398665, 4.227864], [-73.398543, 4.227415], [-73.398523, 4.227362], [-73.398471, 4.2272], [-73.39836, 4.226839], [-73.398133, 4.226395], [-73.397964, 4.226135], [-73.397854, 4.225805], [-73.397724, 4.225364], [-73.397583, 4.224882], [-73.397382, 4.224194], [-73.397229, 4.223674], [-73.397023, 4.222987], [-73.396795, 4.222359], [-73.396592, 4.221806], [-73.396448, 4.221353], [-73.396431, 4.221302], [-73.396231, 4.220596], [-73.396062, 4.22], [-73.395927, 4.219534], [-73.395791, 4.219067], [-73.39571, 4.218802], [-73.395662, 4.218645], [-73.395501, 4.218125], [-73.3954, 4.217799], [-73.395262, 4.217353], [-73.395148, 4.216982], [-73.395029, 4.216611], [-73.39498, 4.216439], [-73.39487, 4.216078], [-73.394766, 4.215739], [-73.394635, 4.215286], [-73.394517, 4.214878], [-73.394261, 4.214011], [-73.394167, 4.213699], [-73.394105, 4.213491], [-73.394007, 4.213162], [-73.393951, 4.212976], [-73.393913, 4.212854], [-73.393878, 4.212746], [-73.393849, 4.212634], [-73.393797, 4.212462], [-73.393695, 4.212118], [-73.393592, 4.211779], [-73.393487, 4.211424], [-73.393436, 4.211253], [-73.393385, 4.21108], [-73.393382, 4.210931], [-73.393409, 4.21083], [-73.393551, 4.210571], [-73.393653, 4.210374], [-73.393708, 4.210267], [-73.393792, 4.210113], [-73.393854, 4.209972], [-73.393882, 4.209867], [-73.393902, 4.209778], [-73.393939, 4.209642], [-73.394044, 4.209326], [-73.394083, 4.20916], [-73.394009, 4.208632], [-73.393913, 4.20818], [-73.393831, 4.207777], [-73.393737, 4.207308], [-73.393671, 4.206986], [-73.39356, 4.206706], [-73.39341, 4.206358], [-73.39327, 4.206034], [-73.393121, 4.205687], [-73.393033, 4.20547], [-73.392829, 4.205003], [-73.392619, 4.204517], [-73.392431, 4.20406], [-73.392203, 4.203527], [-73.392122, 4.203329], [-73.392097, 4.203164], [-73.392065, 4.202751], [-73.392069, 4.202525], [-73.392091, 4.20228], [-73.392131, 4.202109], [-73.392177, 4.201884], [-73.392191, 4.201815], [-73.392201, 4.201661], [-73.392191, 4.201484], [-73.392184, 4.201268], [-73.392166, 4.201016], [-73.392144, 4.200726], [-73.392144, 4.200554], [-73.392155, 4.200292], [-73.392209, 4.200029], [-73.392265, 4.199783], [-73.392309, 4.199598], [-73.392334, 4.199395], [-73.3924, 4.199108], [-73.392453, 4.198856], [-73.392524, 4.198526], [-73.392592, 4.198325], [-73.392631, 4.198101], [-73.392682, 4.197753], [-73.392738, 4.197356], [-73.392794, 4.19702], [-73.392857, 4.196666], [-73.392957, 4.19608], [-73.392998, 4.195868], [-73.393051, 4.195574], [-73.393135, 4.195111], [-73.393206, 4.194743], [-73.393308, 4.194318], [-73.393394, 4.19396], [-73.393449, 4.193662], [-73.3935, 4.193353], [-73.393598, 4.192713], [-73.393624, 4.192517], [-73.393646, 4.192391], [-73.39367, 4.192204], [-73.393709, 4.191944], [-73.393722, 4.191726], [-73.39373, 4.19153], [-73.393728, 4.191285], [-73.393713, 4.19104], [-73.393699, 4.190758], [-73.393662, 4.19046], [-73.393626, 4.190239], [-73.393581, 4.189976], [-73.39353, 4.189668], [-73.393475, 4.18932], [-73.393374, 4.188704], [-73.393315, 4.188348], [-73.393264, 4.188034], [-73.393224, 4.187845], [-73.393161, 4.187636], [-73.393051, 4.187261], [-73.392957, 4.186957], [-73.392884, 4.186787], [-73.392811, 4.186605], [-73.392731, 4.186459], [-73.392683, 4.186266], [-73.39259, 4.185652], [-73.392525, 4.185267], [-73.392461, 4.184849], [-73.39233, 4.183998], [-73.392201, 4.183171], [-73.392112, 4.182621], [-73.392075, 4.182352], [-73.392022, 4.182009], [-73.391959, 4.181571], [-73.391906, 4.181186], [-73.391848, 4.180791], [-73.391761, 4.180246], [-73.39169, 4.179819], [-73.391611, 4.179313], [-73.391537, 4.178829], [-73.391421, 4.178087], [-73.391292, 4.1773], [-73.3912, 4.176728], [-73.391115, 4.17618], [-73.391062, 4.17587], [-73.391047, 4.175748], [-73.39103, 4.175526], [-73.390947, 4.175052], [-73.390937, 4.174977], [-73.390897, 4.174713], [-73.390856, 4.174373], [-73.390811, 4.174068], [-73.390743, 4.173522], [-73.390667, 4.172963], [-73.390616, 4.172626], [-73.390578, 4.172405], [-73.390564, 4.172315], [-73.390492, 4.171876], [-73.390451, 4.171629], [-73.390413, 4.171441], [-73.390361, 4.171265], [-73.390335, 4.171182], [-73.390232, 4.170848], [-73.390106, 4.170438], [-73.390049, 4.170249], [-73.389932, 4.16986], [-73.389745, 4.169229], [-73.389719, 4.169144], [-73.389589, 4.16874], [-73.389502, 4.168436], [-73.389406, 4.168116], [-73.389304, 4.167772], [-73.389094, 4.167094], [-73.388991, 4.166746], [-73.388887, 4.16642], [-73.388808, 4.166147], [-73.388725, 4.165838], [-73.388709, 4.165763], [-73.388581, 4.165125], [-73.388472, 4.164583], [-73.38834, 4.163923], [-73.388196, 4.163214], [-73.388079, 4.162617], [-73.38799, 4.162144], [-73.387963, 4.162032], [-73.387925, 4.161848], [-73.387906, 4.161759], [-73.387701, 4.161347], [-73.387678, 4.161258], [-73.387652, 4.161121], [-73.387585, 4.160935], [-73.387437, 4.160622], [-73.387268, 4.160266], [-73.3871, 4.159912], [-73.386921, 4.159542], [-73.38675, 4.159154], [-73.386548, 4.158714], [-73.386344, 4.158271], [-73.386231, 4.158024], [-73.386193, 4.157934], [-73.386068, 4.157674], [-73.385911, 4.157271], [-73.385882, 4.15708], [-73.385904, 4.156864], [-73.385928, 4.156609], [-73.38594, 4.156509], [-73.385946, 4.156456], [-73.385966, 4.156232], [-73.386013, 4.155727], [-73.386049, 4.155319], [-73.386066, 4.155102], [-73.386069, 4.155044], [-73.386111, 4.154514], [-73.386139, 4.15416], [-73.386153, 4.153938], [-73.386187, 4.153517], [-73.386192, 4.153437], [-73.386247, 4.152734], [-73.386253, 4.15264], [-73.38624, 4.152528], [-73.386186, 4.152333], [-73.386063, 4.151963], [-73.386034, 4.151879], [-73.385913, 4.151482], [-73.38578, 4.15106], [-73.385695, 4.150789], [-73.385644, 4.15062], [-73.385558, 4.15036], [-73.385425, 4.149844], [-73.385385, 4.149548], [-73.38534, 4.149137], [-73.3853, 4.148639], [-73.385264, 4.148198], [-73.385175, 4.147648], [-73.385164, 4.1476], [-73.385094, 4.147343], [-73.384978, 4.146956], [-73.384915, 4.146769], [-73.38475, 4.146251], [-73.384562, 4.145657], [-73.384443, 4.145204], [-73.384281, 4.144561], [-73.384149, 4.144069], [-73.383955, 4.14335], [-73.383839, 4.142981], [-73.383782, 4.142805], [-73.383653, 4.142417], [-73.383576, 4.14225], [-73.383296, 4.141823], [-73.382907, 4.141322], [-73.382685, 4.141081], [-73.382648, 4.141035], [-73.382268, 4.140613], [-73.38216, 4.140414], [-73.382014, 4.139988], [-73.381761, 4.139294], [-73.3818, 4.13857], [-73.381845, 4.138296], [-73.381882, 4.137936], [-73.381865, 4.137629], [-73.381849, 4.137428], [-73.381823, 4.13725], [-73.381795, 4.136818], [-73.381768, 4.136449], [-73.381727, 4.136045], [-73.381692, 4.13568], [-73.381654, 4.135079], [-73.381292, 4.130608], [-73.381257, 4.130233], [-73.381228, 4.129848], [-73.381207, 4.129554], [-73.381197, 4.12937], [-73.38115, 4.128614], [-73.38114, 4.128459], [-73.381109, 4.128151], [-73.381073, 4.127911], [-73.38106, 4.127703], [-73.38105, 4.127257], [-73.380982, 4.127073], [-73.38092, 4.126888], [-73.380887, 4.126616], [-73.380916, 4.126379], [-73.380954, 4.126156], [-73.381018, 4.125798], [-73.381059, 4.125532], [-73.381151, 4.125214], [-73.381294, 4.124849], [-73.381304, 4.124827], [-73.381337, 4.124739], [-73.38135, 4.124716], [-73.381488, 4.124367], [-73.381616, 4.124047], [-73.381646, 4.123969], [-73.381748, 4.123714], [-73.38194, 4.123324], [-73.382019, 4.1231], [-73.38206, 4.12289], [-73.382063, 4.12267], [-73.382059, 4.122488], [-73.382059, 4.122341], [-73.382055, 4.12206], [-73.382056, 4.12161], [-73.382054, 4.1214], [-73.38205, 4.121185], [-73.382041, 4.120913], [-73.382015, 4.120391], [-73.381976, 4.120189], [-73.381864, 4.119804], [-73.381782, 4.119581], [-73.381693, 4.119342], [-73.381602, 4.119119], [-73.381561, 4.119008], [-73.381524, 4.118919], [-73.381503, 4.118869], [-73.380182, 4.10948], [-73.380174, 4.108635], [-73.38017, 4.108544], [-73.380167, 4.10846], [-73.380171, 4.108299], [-73.38021, 4.108146], [-73.380247, 4.108057], [-73.380406, 4.107802], [-73.3808, 4.107264], [-73.380815, 4.107247], [-73.380873, 4.10717], [-73.38089, 4.107149], [-73.381099, 4.106872], [-73.381141, 4.106818], [-73.38118, 4.106751], [-73.381336, 4.106543], [-73.381437, 4.106306], [-73.381471, 4.105971], [-73.381465, 4.105489], [-73.381452, 4.105203], [-73.381434, 4.105088], [-73.381435, 4.105041], [-73.381427, 4.104915], [-73.381413, 4.10465], [-73.381387, 4.104363], [-73.381371, 4.104179], [-73.381337, 4.103826], [-73.38128, 4.103465], [-73.381196, 4.103106], [-73.381084, 4.102582], [-73.380975, 4.102051], [-73.380861, 4.101526], [-73.380716, 4.100829], [-73.380611, 4.100302], [-73.380544, 4.099939], [-73.380454, 4.099488], [-73.380444, 4.099423], [-73.380423, 4.09932], [-73.380411, 4.099258], [-73.380387, 4.099134], [-73.380336, 4.098873], [-73.380202, 4.098179], [-73.380049, 4.097372], [-73.379859, 4.096394], [-73.379372, 4.091874], [-73.37937, 4.091844], [-73.379366, 4.091782], [-73.379357, 4.088801], [-73.379355, 4.088746], [-73.379353, 4.088705], [-73.37935, 4.088486], [-73.379348, 4.088434], [-73.379326, 4.088166], [-73.379315, 4.087957], [-73.379308, 4.08779]]}}
]
}
