{
"type": "FeatureCollection",
"features": [
{"type": "Feature", "properties": {"ProjectID": "P5427", "ogc_fid": 79, "gml_id": "Ductos2013.79", "createddat": "1996/01/01", "beginstati": 0.0, "endstation": 0.0, "stationser": "OSCR", "linedescri": "Oleoducto Surub - Carrasco", "shape_leng": 0.0, "product": "Crude Oil", "ruleid": 1.0, "rulei_desc": "Crude Oil"}, "geometry": {"type": "MultiLineString", "coordinates": [[[-64.615975, -17.088912], [-64.616168, -17.089323], [-64.616257, -17.08952], [-64.616355, -17.089737], [-64.616534, -17.089777], [-64.61675, -17.089688], [-64.617193, -17.08954], [-64.617407, -17.089535], [-64.617582, -17.089685], [-64.617771, -17.089819], [-64.61788, -17.090003], [-64.618028, -17.090423], [-64.618081, -17.090643], [-64.618033, -17.090861], [-64.618037, -17.091058], [-64.618221, -17.091194], [-64.618586, -17.091462], [-64.618769, -17.091554], [-64.61899, -17.091665], [-64.619159, -17.092073], [-64.61926, -17.092508], [-64.619456, -17.092911], [-64.61969, -17.093293], [-64.619895, -17.093692], [-64.620112, -17.09409], [-64.620222, -17.094285], [-64.620403, -17.094421], [-64.620584, -17.094559], [-64.62069, -17.094758], [-64.620761, -17.095202], [-64.620708, -17.095645], [-64.620756, -17.096086], [-64.620745, -17.096537], [-64.620789, -17.096982], [-64.620782, -17.097431], [-64.620771, -17.097873], [-64.620839, -17.098313], [-64.620981, -17.098734], [-64.621075, -17.099175], [-64.621163, -17.099608], [-64.621259, -17.100039], [-64.621478, -17.100425], [-64.621571, -17.100626], [-64.621585, -17.10085], [-64.621634, -17.101294], [-64.621697, -17.101729], [-64.621602, -17.10216], [-64.621457, -17.102579], [-64.621189, -17.102943], [-64.621104, -17.103378], [-64.621076, -17.103816], [-64.621062, -17.104264], [-64.621084, -17.104715], [-64.621192, -17.105147], [-64.621464, -17.105511], [-64.621738, -17.105878], [-64.622009, -17.106245], [-64.622301, -17.106588], [-64.622578, -17.106944], [-64.622709, -17.107116], [-64.622739, -17.107331], [-64.622792, -17.10777], [-64.623036, -17.108145], [-64.623232, -17.108555], [-64.623485, -17.108923], [-64.623668, -17.109054], [-64.623894, -17.109113], [-64.62407, -17.109247], [-64.624202, -17.10943], [-64.624567, -17.1097], [-64.624734, -17.10983], [-64.62484, -17.110031], [-64.624994, -17.11019], [-64.625217, -17.110231], [-64.62567, -17.110327], [-64.626099, -17.110506], [-64.626487, -17.110742], [-64.626944, -17.110747], [-64.627395, -17.110629], [-64.627862, -17.110592], [-64.628323, -17.11066], [-64.628546, -17.110714], [-64.628709, -17.110858], [-64.628939, -17.111243], [-64.629153, -17.111638], [-64.629396, -17.112017], [-64.629545, -17.11244], [-64.629853, -17.112773], [-64.630151, -17.113115], [-64.630474, -17.113437], [-64.630727, -17.113812], [-64.630993, -17.114176], [-64.631281, -17.114533], [-64.631504, -17.114924], [-64.631706, -17.115328], [-64.632006, -17.115665], [-64.632397, -17.115913], [-64.632806, -17.116134], [-64.633167, -17.116418], [-64.633476, -17.116758], [-64.633799, -17.117084], [-64.634123, -17.117409], [-64.63441, -17.117757], [-64.634565, -17.118183], [-64.634741, -17.118601], [-64.634881, -17.11903], [-64.635018, -17.119455], [-64.635108, -17.119889], [-64.63514, -17.120335], [-64.635132, -17.120786], [-64.63508, -17.121233], [-64.634953, -17.121666], [-64.634798, -17.122092], [-64.634668, -17.122524], [-64.634541, -17.122957], [-64.634375, -17.123379], [-64.634205, -17.1238], [-64.634069, -17.124231], [-64.633972, -17.124673], [-64.633796, -17.125092], [-64.633643, -17.125518], [-64.633504, -17.125949], [-64.633395, -17.126148], [-64.633211, -17.126284], [-64.632819, -17.126533], [-64.63244, -17.126798], [-64.632084, -17.127092], [-64.631741, -17.127399], [-64.631405, -17.127714], [-64.631059, -17.128018], [-64.630731, -17.12834], [-64.630468, -17.128705], [-64.630304, -17.129128], [-64.630122, -17.129544], [-64.629953, -17.129965], [-64.629954, -17.130411], [-64.630081, -17.130845], [-64.630243, -17.131268], [-64.630435, -17.13168], [-64.63061, -17.132098], [-64.630817, -17.132502], [-64.631059, -17.132887], [-64.631373, -17.13322], [-64.631694, -17.133547], [-64.631966, -17.133915], [-64.632167, -17.134321], [-64.63229, -17.134754], [-64.632278, -17.135205], [-64.632208, -17.135648], [-64.63203, -17.136066], [-64.631848, -17.136482], [-64.631694, -17.136905], [-64.631607, -17.137347], [-64.631457, -17.13777], [-64.631255, -17.138172], [-64.630993, -17.138546], [-64.6307, -17.138897], [-64.630411, -17.139248], [-64.630291, -17.139679], [-64.630259, -17.140127], [-64.630209, -17.140346], [-64.630064, -17.140517], [-64.629692, -17.140789], [-64.629272, -17.140989], [-64.628839, -17.141164], [-64.628413, -17.14135], [-64.627977, -17.14151], [-64.627546, -17.141687], [-64.627114, -17.141863], [-64.626677, -17.14203], [-64.626242, -17.142196], [-64.625808, -17.142363], [-64.625399, -17.142557], [-64.624978, -17.142735], [-64.624557, -17.142934], [-64.624153, -17.143162], [-64.623745, -17.143384], [-64.623322, -17.143577], [-64.622894, -17.143761], [-64.622467, -17.143949], [-64.622024, -17.144082], [-64.621589, -17.144244], [-64.621217, -17.144506], [-64.62101, -17.144906], [-64.620984, -17.145352], [-64.621057, -17.145796], [-64.621174, -17.146229], [-64.621214, -17.146676], [-64.621155, -17.147124], [-64.621047, -17.147563], [-64.620905, -17.147993], [-64.620639, -17.148358], [-64.620334, -17.1487], [-64.620042, -17.149052], [-64.61975, -17.149406], [-64.619447, -17.14975], [-64.619134, -17.150086], [-64.618879, -17.150462], [-64.618705, -17.150881], [-64.618478, -17.151274], [-64.618225, -17.151653], [-64.618032, -17.152063], [-64.617878, -17.152489], [-64.617731, -17.152915], [-64.617637, -17.153348], [-64.617595, -17.153798], [-64.617496, -17.154237], [-64.617324, -17.154657], [-64.617145, -17.155074], [-64.616967, -17.155492], [-64.616686, -17.155848], [-64.616553, -17.156274], [-64.61645, -17.156711], [-64.616417, -17.157155], [-64.616395, -17.157606], [-64.616366, -17.158057], [-64.61639, -17.158501], [-64.616441, -17.158942], [-64.616408, -17.159391], [-64.616369, -17.159841], [-64.616358, -17.160292], [-64.616247, -17.16073], [-64.616141, -17.161169], [-64.616014, -17.161603], [-64.615852, -17.162024], [-64.615687, -17.162446], [-64.615474, -17.162846], [-64.615288, -17.163255], [-64.615111, -17.16367], [-64.614897, -17.164066], [-64.614527, -17.164337], [-64.614153, -17.16461], [-64.613802, -17.164908], [-64.613443, -17.165196], [-64.613058, -17.165452], [-64.612675, -17.16571], [-64.612378, -17.166049], [-64.612133, -17.166432], [-64.611888, -17.166813], [-64.611882, -17.16726], [-64.611642, -17.167646], [-64.61139, -17.168026], [-64.611332, -17.168462], [-64.611397, -17.168904], [-64.611456, -17.169117], [-64.611516, -17.169337], [-64.61138, -17.169466], [-64.611154, -17.169527], [-64.610701, -17.169644], [-64.610251, -17.169766], [-64.609792, -17.169855], [-64.609336, -17.169961], [-64.608888, -17.170092], [-64.608443, -17.170231], [-64.608008, -17.170391], [-64.607566, -17.170535], [-64.607119, -17.170673], [-64.606676, -17.170815], [-64.606219, -17.170908], [-64.605766, -17.171012], [-64.605331, -17.171161], [-64.604881, -17.17129], [-64.604449, -17.171463], [-64.604016, -17.171638], [-64.603594, -17.171835], [-64.603168, -17.172026], [-64.602739, -17.172207], [-64.602302, -17.172374], [-64.601861, -17.172526], [-64.60142, -17.172682], [-64.600988, -17.172852], [-64.600545, -17.173002], [-64.600106, -17.173162], [-64.599666, -17.173318], [-64.599227, -17.173476], [-64.598787, -17.173633], [-64.598349, -17.173795], [-64.597908, -17.173951], [-64.597464, -17.174097], [-64.597026, -17.174259], [-64.596595, -17.174434], [-64.59616, -17.174597], [-64.595774, -17.174834], [-64.595505, -17.175196], [-64.595315, -17.175324], [-64.595086, -17.175358], [-64.59462, -17.175342], [-64.594165, -17.175394], [-64.59373, -17.17556], [-64.593301, -17.175743], [-64.59287, -17.175923], [-64.592435, -17.176091], [-64.591998, -17.176257], [-64.591568, -17.176437], [-64.591132, -17.176598], [-64.590701, -17.176768], [-64.590277, -17.176959], [-64.589849, -17.177143], [-64.589408, -17.177297], [-64.588968, -17.177452], [-64.588532, -17.177618], [-64.588111, -17.177816], [-64.587678, -17.177989], [-64.587241, -17.178153], [-64.586807, -17.178321], [-64.586368, -17.178483], [-64.585935, -17.178653], [-64.585504, -17.17883], [-64.585071, -17.179], [-64.584631, -17.179156], [-64.584205, -17.179344], [-64.583778, -17.17953], [-64.583341, -17.179693], [-64.58291, -17.179867], [-64.582473, -17.180029], [-64.582039, -17.180197], [-64.581616, -17.180388], [-64.581199, -17.180594], [-64.580782, -17.180803], [-64.580369, -17.181015], [-64.579966, -17.18124], [-64.579566, -17.181476], [-64.57916, -17.181703], [-64.578746, -17.181915], [-64.578311, -17.182078], [-64.577861, -17.182206], [-64.577421, -17.182363], [-64.576971, -17.182489], [-64.576525, -17.182628], [-64.576107, -17.182834], [-64.575702, -17.183061], [-64.575264, -17.183218], [-64.574812, -17.18334], [-64.574362, -17.183465], [-64.573914, -17.183595], [-64.573473, -17.183746], [-64.573043, -17.183926], [-64.572617, -17.184115], [-64.572192, -17.184309], [-64.571768, -17.184502], [-64.571343, -17.184695], [-64.570918, -17.184886], [-64.570496, -17.185084], [-64.570075, -17.185284], [-64.569645, -17.185466], [-64.569214, -17.185643], [-64.568781, -17.185818], [-64.568349, -17.185994], [-64.567926, -17.186191], [-64.567495, -17.186369], [-64.567059, -17.186534], [-64.566623, -17.186698], [-64.56619, -17.186873], [-64.565754, -17.187038], [-64.565324, -17.18722], [-64.564896, -17.187404], [-64.564461, -17.187571], [-64.564034, -17.187756], [-64.5636, -17.187926], [-64.56317, -17.188107], [-64.562737, -17.188281], [-64.562305, -17.18846], [-64.561875, -17.18864], [-64.561441, -17.188812], [-64.561004, -17.188977], [-64.560571, -17.18915], [-64.560141, -17.189331], [-64.55971, -17.189511], [-64.559275, -17.189675], [-64.558846, -17.189852], [-64.558413, -17.190027], [-64.55798, -17.190201], [-64.557548, -17.190379], [-64.557114, -17.190551], [-64.556681, -17.190724], [-64.556252, -17.190904], [-64.555823, -17.191085], [-64.55539, -17.191259], [-64.554956, -17.191431], [-64.554525, -17.191612], [-64.554094, -17.191789], [-64.553663, -17.191965], [-64.553232, -17.192146], [-64.552801, -17.192322], [-64.552363, -17.192486], [-64.551931, -17.192662], [-64.551507, -17.192853], [-64.551071, -17.193017], [-64.550633, -17.19318], [-64.550185, -17.193314], [-64.549749, -17.19348], [-64.549324, -17.19367], [-64.548898, -17.193857], [-64.548466, -17.194033], [-64.548037, -17.194216], [-64.547617, -17.194417], [-64.54719, -17.194604], [-64.546756, -17.194771], [-64.546312, -17.194916], [-64.545875, -17.195081], [-64.545442, -17.195255], [-64.545018, -17.195442], [-64.544587, -17.19562], [-64.544153, -17.195792], [-64.543724, -17.195975], [-64.54329, -17.196146], [-64.542856, -17.196318], [-64.542421, -17.196486], [-64.541985, -17.196651], [-64.541551, -17.196823], [-64.54112, -17.197003], [-64.540688, -17.197179], [-64.540262, -17.197369], [-64.539826, -17.197537], [-64.539395, -17.197716], [-64.538972, -17.197912], [-64.538551, -17.19811], [-64.538116, -17.19828], [-64.537681, -17.198448], [-64.537247, -17.198621], [-64.536806, -17.198777], [-64.536369, -17.198943], [-64.535936, -17.199115], [-64.535504, -17.199293], [-64.535078, -17.199476], [-64.534645, -17.199649], [-64.534212, -17.199821], [-64.533778, -17.199996], [-64.533348, -17.200176], [-64.53291, -17.200336], [-64.532478, -17.200513], [-64.532049, -17.200694], [-64.531616, -17.200869], [-64.531175, -17.201026], [-64.53075, -17.201216], [-64.530314, -17.201384], [-64.529881, -17.201558], [-64.529455, -17.201747], [-64.529023, -17.20192], [-64.528594, -17.2021], [-64.528166, -17.202283], [-64.527735, -17.202456], [-64.527294, -17.202606], [-64.526866, -17.202791], [-64.526443, -17.202984], [-64.525989, -17.20309], [-64.525549, -17.203241], [-64.5251, -17.203373], [-64.524648, -17.203493], [-64.524201, -17.203634], [-64.523982, -17.203713], [-64.523839, -17.203888], [-64.523889, -17.204097], [-64.523989, -17.204301], [-64.524109, -17.204737], [-64.524299, -17.205148], [-64.524526, -17.205543], [-64.524756, -17.205937], [-64.525018, -17.206312], [-64.525319, -17.20665], [-64.525601, -17.207008], [-64.525845, -17.207395], [-64.526038, -17.207806], [-64.526204, -17.208228], [-64.52637, -17.20865], [-64.526534, -17.209073], [-64.526687, -17.2095], [-64.526896, -17.209903], [-64.527107, -17.210305], [-64.527297, -17.210718], [-64.527485, -17.21113], [-64.527671, -17.211545], [-64.527861, -17.211957], [-64.528047, -17.212372], [-64.528235, -17.212783], [-64.528417, -17.213199], [-64.528606, -17.213611], [-64.528795, -17.214024], [-64.528993, -17.214434], [-64.529177, -17.214849], [-64.52937, -17.21526], [-64.529559, -17.215673], [-64.52974, -17.21609], [-64.52992, -17.216507], [-64.530101, -17.216924], [-64.530288, -17.217338], [-64.530475, -17.217752], [-64.530663, -17.218166], [-64.530845, -17.218583], [-64.531027, -17.218999], [-64.531147, -17.219432], [-64.531052, -17.21987], [-64.530922, -17.220304], [-64.530838, -17.220747], [-64.530865, -17.221196], [-64.530867, -17.221647], [-64.530856, -17.222098], [-64.530873, -17.222548], [-64.530963, -17.222991], [-64.531059, -17.223432], [-64.53116, -17.223873], [-64.531241, -17.224318], [-64.531304, -17.224764], [-64.531358, -17.225212], [-64.531442, -17.225656], [-64.531533, -17.226099], [-64.531623, -17.226542], [-64.531715, -17.226985], [-64.531798, -17.227429], [-64.531876, -17.227875], [-64.531928, -17.228323], [-64.531989, -17.228771], [-64.532091, -17.229211], [-64.532253, -17.229635], [-64.532429, -17.230054], [-64.532584, -17.23048], [-64.532745, -17.230904], [-64.532903, -17.231329], [-64.533043, -17.23176], [-64.533193, -17.232187], [-64.533391, -17.232596], [-64.533649, -17.232966], [-64.533934, -17.233317], [-64.534158, -17.233709], [-64.534379, -17.234095], [-64.534703, -17.234413], [-64.53495, -17.234783], [-64.535107, -17.2352], [-64.535266, -17.23562], [-64.535461, -17.236027], [-64.535788, -17.23635], [-64.536191, -17.236571], [-64.53657, -17.236834], [-64.536823, -17.237211], [-64.536994, -17.237631], [-64.537149, -17.238057], [-64.537315, -17.238478], [-64.537502, -17.23889], [-64.537673, -17.239309], [-64.537838, -17.239731], [-64.53799, -17.240157], [-64.538151, -17.240579], [-64.538311, -17.241002], [-64.538465, -17.241425], [-64.538641, -17.241838], [-64.538816, -17.242246], [-64.539037, -17.242635], [-64.53929, -17.243016], [-64.539512, -17.243409], [-64.539703, -17.243819], [-64.539787, -17.243994]]]}}
]
}
