{
"type": "FeatureCollection",
"features": [
{"type": "Feature", "properties": {"ProjectID": "P5432", "NMOleoduto": "OSRIO", "NMProprietario": " ", "OBJECTID": 70, "CDRestricao": 2, "SHAPE_Length": 0.33058042956973643}, "geometry": {"type": "LineString", "coordinates": [[-45.831887, -23.19863], [-45.831561, -23.199264], [-45.831402, -23.19966], [-45.831351, -23.199777], [-45.831318, -23.199878], [-45.831159, -23.200119], [-45.831103, -23.200212], [-45.831064, -23.200298], [-45.83104, -23.200383], [-45.831041, -23.200469], [-45.831062, -23.200644], [-45.831071, -23.200759], [-45.831063, -23.200811], [-45.831027, -23.200856], [-45.830947, -23.200894], [-45.830858, -23.200928], [-45.830762, -23.200954], [-45.830693, -23.200969], [-45.830621, -23.201003], [-45.830581, -23.201056], [-45.830561, -23.201111], [-45.830549, -23.201179], [-45.830542, -23.201272], [-45.830572, -23.20165], [-45.830661, -23.202169], [-45.830692, -23.202309], [-45.830697, -23.202352], [-45.830691, -23.202407], [-45.830675, -23.202474], [-45.830654, -23.202533], [-45.830632, -23.202585], [-45.830485, -23.202822], [-45.830279, -23.203085], [-45.83024, -23.203157], [-45.8302, -23.203215], [-45.830137, -23.203279], [-45.829896, -23.203499], [-45.829428, -23.203848], [-45.82908, -23.204165], [-45.828675, -23.204582], [-45.828399, -23.204904], [-45.828349, -23.204992], [-45.828243, -23.205187], [-45.828036, -23.205499], [-45.827817, -23.205803], [-45.827792, -23.205857], [-45.82777, -23.205918], [-45.827748, -23.205987], [-45.827686, -23.206144], [-45.827684, -23.206147], [-45.827617, -23.206305], [-45.827589, -23.206371], [-45.827567, -23.206452], [-45.827514, -23.206631], [-45.82748, -23.206705], [-45.827438, -23.206776], [-45.827404, -23.206844], [-45.827326, -23.20706], [-45.827233, -23.207283], [-45.827127, -23.207488], [-45.827029, -23.20772], [-45.826858, -23.208112], [-45.826709, -23.208408], [-45.826601, -23.208617], [-45.826505, -23.208864], [-45.826479, -23.208937], [-45.826454, -23.209017], [-45.826432, -23.209095], [-45.826399, -23.209197], [-45.826363, -23.209273], [-45.826315, -23.209349], [-45.826218, -23.209473], [-45.82615, -23.209537], [-45.826017, -23.209635], [-45.825945, -23.209692], [-45.825879, -23.209747], [-45.825825, -23.209801], [-45.825777, -23.20985], [-45.825728, -23.209904], [-45.825684, -23.209958], [-45.825639, -23.210024], [-45.825591, -23.210099], [-45.825547, -23.210177], [-45.825195, -23.210962], [-45.824996, -23.211383], [-45.824793, -23.211714], [-45.824591, -23.211984], [-45.824107, -23.212815], [-45.823825, -23.213315], [-45.823679, -23.213497], [-45.823633, -23.213556], [-45.823538, -23.21368], [-45.823397, -23.213827], [-45.823307, -23.213933], [-45.823258, -23.213986], [-45.823219, -23.214057], [-45.823184, -23.214121], [-45.82315, -23.214201], [-45.823124, -23.214319], [-45.823125, -23.214505], [-45.823153, -23.214617], [-45.823162, -23.214812], [-45.823112, -23.21492], [-45.823052, -23.215021], [-45.822777, -23.215444], [-45.822431, -23.216038], [-45.822205, -23.216367], [-45.822026, -23.216615], [-45.821881, -23.216847], [-45.821841, -23.216939], [-45.821818, -23.216999], [-45.8218, -23.217066], [-45.821785, -23.217129], [-45.82177, -23.2172], [-45.821759, -23.217277], [-45.821748, -23.217352], [-45.821748, -23.217415], [-45.821745, -23.217496], [-45.821749, -23.217567], [-45.821765, -23.217637], [-45.821796, -23.217693], [-45.822146, -23.218129], [-45.82238, -23.218389], [-45.822484, -23.218529], [-45.822582, -23.218659], [-45.822799, -23.218902], [-45.823075, -23.219217], [-45.823346, -23.219505], [-45.823662, -23.219821], [-45.824038, -23.220191], [-45.825212, -23.2216], [-45.826241, -23.222836], [-45.828855, -23.225993], [-45.829049, -23.226266], [-45.82929, -23.226513], [-45.831822, -23.227952], [-45.831899, -23.227999], [-45.834416, -23.229501], [-45.834816, -23.229825], [-45.835628, -23.230911], [-45.838133, -23.233767], [-45.838234, -23.233971], [-45.838313, -23.234296], [-45.838366, -23.234356], [-45.838546, -23.23456], [-45.838872, -23.234993], [-45.839095, -23.235379], [-45.839295, -23.235612], [-45.839429, -23.235835], [-45.839673, -23.236058], [-45.840049, -23.23626], [-45.840326, -23.236452], [-45.841662, -23.238319], [-45.842517, -23.239526], [-45.844002, -23.241585], [-45.845112, -23.243122], [-45.845381, -23.243678], [-45.845534, -23.244185], [-45.84591, -23.24613], [-45.845951, -23.246398], [-45.845975, -23.247194], [-45.845921, -23.248842], [-45.845876, -23.24982], [-45.845767, -23.250159], [-45.845311, -23.251567], [-45.845319, -23.251809], [-45.845862, -23.253818], [-45.846587, -23.256113], [-45.846697, -23.256408], [-45.84789, -23.258605], [-45.84807, -23.258938], [-45.84872, -23.260402], [-45.848894, -23.260649], [-45.849145, -23.260937], [-45.849499, -23.26123], [-45.850279, -23.261712], [-45.850577, -23.261975], [-45.851127, -23.262547], [-45.851436, -23.262996], [-45.852393, -23.264344], [-45.852482, -23.26448], [-45.852809, -23.266016], [-45.852906, -23.266475], [-45.853043, -23.266781], [-45.853171, -23.267302], [-45.85353, -23.267981], [-45.854081, -23.268818], [-45.854536, -23.269421], [-45.854848, -23.270198], [-45.855245, -23.270876], [-45.855402, -23.271512], [-45.855474, -23.272325], [-45.855498, -23.272789], [-45.855877, -23.273715], [-45.856137, -23.27429], [-45.856479, -23.275047], [-45.857215, -23.27616], [-45.858036, -23.277367], [-45.859083, -23.279055], [-45.859329, -23.279433], [-45.859887, -23.280284], [-45.860999, -23.281949], [-45.861055, -23.282029], [-45.861561, -23.282756], [-45.861696, -23.282967], [-45.861976, -23.283222], [-45.862804, -23.283986], [-45.864487, -23.285073], [-45.867976, -23.287782], [-45.868243, -23.287974], [-45.869039, -23.288542], [-45.869347, -23.288779], [-45.869742, -23.289219], [-45.870245, -23.289861], [-45.870611, -23.290222], [-45.871729, -23.291276], [-45.872725, -23.292197], [-45.873823, -23.293004], [-45.875231, -23.294141], [-45.875421, -23.294294], [-45.877436, -23.29551], [-45.879366, -23.296348], [-45.882092, -23.2974], [-45.882839, -23.297683], [-45.883314, -23.297847], [-45.883725, -23.298063], [-45.883833, -23.29815], [-45.884136, -23.298393], [-45.884813, -23.29919], [-45.885791, -23.300299], [-45.887014, -23.302], [-45.889048, -23.304811], [-45.889481, -23.305363], [-45.891676, -23.308162], [-45.891976, -23.308498], [-45.892075, -23.308716], [-45.893197, -23.310994], [-45.893378, -23.31122], [-45.894457, -23.312233], [-45.894855, -23.312598], [-45.894939, -23.31266], [-45.895282, -23.312913], [-45.895504, -23.31304], [-45.896252, -23.313542], [-45.89794, -23.314922], [-45.901969, -23.318357], [-45.902199, -23.318556], [-45.903266, -23.319481], [-45.903554, -23.319684], [-45.906191, -23.320983], [-45.906528, -23.321207], [-45.909429, -23.323589], [-45.909812, -23.323849], [-45.90984, -23.323863], [-45.910781, -23.324334], [-45.91157, -23.324888], [-45.911834, -23.325114], [-45.912089, -23.325331], [-45.91237, -23.325737], [-45.912949, -23.326595], [-45.913787, -23.327713], [-45.914455, -23.328404], [-45.914571, -23.328572], [-45.91463, -23.328738], [-45.914632, -23.329078], [-45.914758, -23.329538], [-45.91489, -23.329748], [-45.915584, -23.330568], [-45.915587, -23.330571], [-45.917538, -23.332569], [-45.918125, -23.333047], [-45.918356, -23.333325], [-45.91944, -23.335033], [-45.920629, -23.337223], [-45.920894, -23.337713], [-45.920906, -23.337728], [-45.921026, -23.337878], [-45.921125, -23.337968], [-45.92156, -23.338109], [-45.921839, -23.338206], [-45.922356, -23.338452], [-45.92276, -23.338835], [-45.923676, -23.3395], [-45.924493, -23.340363], [-45.92555, -23.341648], [-45.926021, -23.342065], [-45.926194, -23.342209], [-45.926593, -23.342373], [-45.926803, -23.342482], [-45.926961, -23.342578], [-45.927896, -23.343216], [-45.927926, -23.343254], [-45.92807, -23.34343], [-45.928274, -23.343664], [-45.928479, -23.34407], [-45.928907, -23.34493], [-45.929181, -23.345482], [-45.929393, -23.345778], [-45.930214, -23.346361], [-45.931271, -23.34703], [-45.931647, -23.347249], [-45.93188, -23.347358], [-45.932635, -23.348039], [-45.932884, -23.348272], [-45.934159, -23.349381], [-45.935173, -23.350263], [-45.935407, -23.350421], [-45.935716, -23.350619], [-45.938106, -23.351953], [-45.938917, -23.352197], [-45.939564, -23.352497], [-45.939805, -23.352696], [-45.940183, -23.353012], [-45.940304, -23.353178], [-45.940711, -23.354854], [-45.940714, -23.355034], [-45.940723, -23.355456], [-45.941028, -23.356222], [-45.941409, -23.357222], [-45.941441, -23.357533], [-45.941671, -23.358202], [-45.941895, -23.35908], [-45.942095, -23.359623], [-45.942335, -23.360687], [-45.943109, -23.361955], [-45.9433, -23.362188], [-45.943481, -23.362256], [-45.944081, -23.362377], [-45.944337, -23.362424], [-45.944476, -23.362464], [-45.9446, -23.362499], [-45.945706, -23.363066], [-45.946083, -23.363375], [-45.946309, -23.363547], [-45.947317, -23.363956], [-45.948217, -23.36494], [-45.948776, -23.36563], [-45.949479, -23.366535], [-45.949973, -23.3673], [-45.95099, -23.368545], [-45.951, -23.368555], [-45.951264, -23.368827], [-45.95206, -23.370174], [-45.952695, -23.371547], [-45.95402, -23.374318], [-45.954295, -23.374808], [-45.954495, -23.376058], [-45.954578, -23.376382], [-45.954806, -23.376606], [-45.958315, -23.378847], [-45.958987, -23.37934], [-45.959639, -23.3798], [-45.960219, -23.380193], [-45.961183, -23.38093], [-45.961782, -23.381211], [-45.962385, -23.381443], [-45.962463, -23.381473], [-45.96318, -23.382101], [-45.964475, -23.383487], [-45.964794, -23.383869], [-45.964951, -23.384172], [-45.965587, -23.386998], [-45.965849, -23.38782], [-45.966506, -23.389209], [-45.967089, -23.390442], [-45.967268, -23.391148], [-45.967279, -23.391523], [-45.96773, -23.393808], [-45.967972, -23.394573], [-45.969226, -23.397703], [-45.96924, -23.397741], [-45.970501, -23.401183], [-45.970998, -23.403289], [-45.971981, -23.406245], [-45.972044, -23.406434], [-45.973937, -23.410159], [-45.975697, -23.412993], [-45.975973, -23.413567], [-45.97624, -23.414141], [-45.977672, -23.417216], [-45.978963, -23.419528], [-45.979516, -23.420748], [-45.980437, -23.422079], [-45.980523, -23.422203], [-45.980823, -23.422501], [-45.980924, -23.422701], [-45.98145, -23.425382], [-45.981501, -23.425461], [-45.981763, -23.425622], [-45.982116, -23.425728], [-45.982614, -23.425692], [-45.983753, -23.425509], [-45.98407, -23.425541], [-45.984488, -23.425688], [-45.984752, -23.425945], [-45.985891, -23.427597], [-45.98598, -23.427754], [-45.986608, -23.428857], [-45.986702, -23.429266], [-45.986615, -23.429767], [-45.985636, -23.431281], [-45.984418, -23.432974], [-45.984195, -23.433535], [-45.984154, -23.434003], [-45.984483, -23.435793], [-45.984501, -23.435849], [-45.984594, -23.436126], [-45.984523, -23.436343], [-45.983302, -23.43772], [-45.982711, -23.438696], [-45.98265, -23.438951], [-45.982608, -23.439095], [-45.982548, -23.439361], [-45.982495, -23.439555], [-45.982472, -23.43967], [-45.982466, -23.439792], [-45.982505, -23.439921], [-45.98267, -23.440192], [-45.983284, -23.441208], [-45.983339, -23.441284], [-45.983384, -23.441348], [-45.983426, -23.441405], [-45.983474, -23.441479], [-45.98348, -23.441577], [-45.983474, -23.441728], [-45.983472, -23.442529], [-45.98345, -23.443289], [-45.983423, -23.443903], [-45.983384, -23.444813], [-45.983315, -23.446606], [-45.983246, -23.448391], [-45.983162, -23.4506], [-45.983148, -23.451074], [-45.983097, -23.451663], [-45.982917, -23.452632], [-45.982931, -23.452919], [-45.982955, -23.453448], [-45.982921, -23.453786], [-45.982888, -23.454168], [-45.982874, -23.454373]]}}
]
}
