{
"type": "FeatureCollection",
"features": [
{"type": "Feature", "properties": {"ProjectID": "P5436", "NMOleoduto": "Sem denominação", "NMProprietario": " ", "OBJECTID": 13, "CDRestricao": 2, "SHAPE_Length": 2.479245249404746}, "geometry": {"type": "LineString", "coordinates": [[-65.295804, -4.866272], [-65.295233, -4.866054], [-65.293842, -4.86475], [-65.291142, -4.862803], [-65.289728, -4.863489], [-65.288781, -4.864415], [-65.286574, -4.864946], [-65.285506, -4.866366], [-65.274728, -4.867492], [-65.269359, -4.8681], [-65.263951, -4.868619], [-65.263172, -4.868773], [-65.259498, -4.870772], [-65.255825, -4.872771], [-65.249477, -4.875893], [-65.243964, -4.878098], [-65.239688, -4.88047], [-65.230185, -4.885818], [-65.221612, -4.89025], [-65.209106, -4.897424], [-65.208141, -4.899137], [-65.203057, -4.902185], [-65.200896, -4.903481], [-65.199897, -4.904079], [-65.198899, -4.904678], [-65.198321, -4.905109], [-65.197345, -4.904898], [-65.196793, -4.904379], [-65.194479, -4.901073], [-65.191722, -4.897136], [-65.188095, -4.895514], [-65.174776, -4.892543], [-65.17395, -4.891847], [-65.17224, -4.888496], [-65.171439, -4.888117], [-65.170073, -4.887471], [-65.169512, -4.887259], [-65.167377, -4.886451], [-65.166718, -4.886404], [-65.164949, -4.887177], [-65.163181, -4.887949], [-65.162429, -4.88828], [-65.161892, -4.888355], [-65.161312, -4.888265], [-65.160027, -4.887702], [-65.158743, -4.887139], [-65.15693, -4.886467], [-65.15512, -4.885797], [-65.153782, -4.885338], [-65.152448, -4.884881], [-65.151204, -4.884238], [-65.149958, -4.883595], [-65.1475, -4.882625], [-65.142143, -4.880513], [-65.13785, -4.879112], [-65.137581, -4.878257], [-65.135768, -4.876754], [-65.135579, -4.875185], [-65.134318, -4.874013], [-65.133512, -4.873461], [-65.131751, -4.87391], [-65.129206, -4.873796], [-65.128135, -4.873922], [-65.127187, -4.873496], [-65.126572, -4.872514], [-65.126046, -4.871959], [-65.124754, -4.871376], [-65.123953, -4.871348], [-65.122939, -4.871691], [-65.121135, -4.873113], [-65.117364, -4.87294], [-65.11577, -4.873314], [-65.113903, -4.873505], [-65.112739, -4.872828], [-65.112395, -4.872629], [-65.111567, -4.871557], [-65.111565, -4.871066], [-65.111378, -4.870448], [-65.111038, -4.869862], [-65.110665, -4.869552], [-65.110292, -4.869553], [-65.109434, -4.870049], [-65.109009, -4.87005], [-65.106553, -4.869164], [-65.104929, -4.869016], [-65.104654, -4.868803], [-65.104192, -4.868311], [-65.103759, -4.868065], [-65.102684, -4.867976], [-65.100876, -4.867981], [-65.100573, -4.86777], [-65.099847, -4.865968], [-65.099312, -4.865319], [-65.097505, -4.865294], [-65.095362, -4.865485], [-65.094671, -4.864962], [-65.094348, -4.864718], [-65.092107, -4.864787], [-65.089695, -4.864148], [-65.088097, -4.863876], [-65.086716, -4.863819], [-65.084538, -4.864226], [-65.082545, -4.865065], [-65.081689, -4.865836], [-65.08047, -4.866085], [-65.07827, -4.863721], [-65.076858, -4.863202], [-65.07619, -4.862389], [-65.069188, -4.853768], [-65.066841, -4.850964], [-65.064532, -4.848974], [-65.061373, -4.846316], [-65.054771, -4.840653], [-65.050703, -4.83432], [-65.050118, -4.834022], [-65.047814, -4.833813], [-65.046187, -4.83425], [-65.044902, -4.835054], [-65.044135, -4.835273], [-65.041972, -4.836656], [-65.03332, -4.832712], [-65.033336, -4.83272], [-65.034297, -4.830568], [-65.034442, -4.829973], [-65.033901, -4.829578], [-65.032884, -4.829191], [-65.032543, -4.828361], [-65.031762, -4.827479], [-65.030495, -4.82655], [-65.025495, -4.826716], [-65.024481, -4.826216], [-65.021797, -4.824035], [-65.021146, -4.823868], [-65.017175, -4.824385], [-65.016439, -4.824471], [-65.016072, -4.824389], [-65.014776, -4.823719], [-65.013298, -4.823555], [-65.01173, -4.823223], [-65.010529, -4.822219], [-65.008952, -4.820455], [-65.008395, -4.820372], [-65.006363, -4.820041], [-64.983714, -4.812532], [-64.969859, -4.808199], [-64.968841, -4.807781], [-64.967548, -4.807616], [-64.966164, -4.807536], [-64.965431, -4.807121], [-64.963667, -4.806197], [-64.961542, -4.80553], [-64.952763, -4.80261], [-64.950916, -4.801775], [-64.94546, -4.799938], [-64.942689, -4.799357], [-64.939917, -4.798523], [-64.923653, -4.793183], [-64.92199, -4.792768], [-64.920973, -4.792097], [-64.918939, -4.791429], [-64.917183, -4.790761], [-64.914503, -4.790263], [-64.91358, -4.790014], [-64.911639, -4.789094], [-64.910251, -4.788592], [-64.908405, -4.788345], [-64.906835, -4.787677], [-64.903229, -4.78676], [-64.898888, -4.785931], [-64.892605, -4.784013], [-64.889834, -4.7836], [-64.886878, -4.782767], [-64.884569, -4.7821], [-64.883366, -4.781261], [-64.880409, -4.780764], [-64.875977, -4.779683], [-64.874497, -4.77935], [-64.872555, -4.778514], [-64.869692, -4.778185], [-64.866551, -4.777436], [-64.863413, -4.776688], [-64.861193, -4.776188], [-64.858608, -4.775438], [-64.857592, -4.774517], [-64.856201, -4.773425], [-64.854536, -4.773261], [-64.852321, -4.773351], [-64.850475, -4.772851], [-64.848997, -4.772351], [-64.847795, -4.771681], [-64.846316, -4.771263], [-64.84456, -4.770763], [-64.841419, -4.770098], [-64.840312, -4.769765], [-64.839298, -4.769013], [-64.838699, -4.767074], [-64.77556, -4.746873], [-64.765263, -4.728793], [-64.76074, -4.714779], [-64.713297, -4.707886], [-64.595897, -4.650323], [-64.584351, -4.644507], [-64.439155, -4.533946], [-64.43659, -4.531906], [-64.430488, -4.524614], [-64.428562, -4.523448], [-64.267383, -4.492777], [-64.21532, -4.437265], [-64.20911, -4.431273], [-64.20404, -4.426202], [-64.202516, -4.423663], [-64.200995, -4.422742], [-64.198716, -4.419978], [-64.194656, -4.415479], [-64.191232, -4.411443], [-64.184895, -4.405796], [-64.176907, -4.396801], [-64.174246, -4.394382], [-64.172473, -4.392424], [-64.172091, -4.390808], [-64.170694, -4.389307], [-64.168287, -4.387348], [-64.166132, -4.385734], [-64.161443, -4.381355], [-64.15422, -4.375592], [-64.15105, -4.373401], [-64.149911, -4.373403], [-64.148014, -4.372138], [-64.145605, -4.368909], [-64.142814, -4.366717], [-64.131413, -4.357961], [-64.11773, -4.34759], [-64.108101, -4.340445], [-64.101639, -4.334797], [-64.097838, -4.332839], [-64.094291, -4.330765], [-64.089986, -4.329847], [-64.08644, -4.328813], [-64.083783, -4.32847], [-64.080872, -4.327551], [-64.076947, -4.326171], [-64.072515, -4.325023], [-64.070365, -4.324449], [-64.069479, -4.323642], [-64.063905, -4.321801], [-64.059981, -4.321345], [-64.055174, -4.319967], [-64.047449, -4.318014], [-64.035298, -4.314452], [-64.023396, -4.311235], [-64.018204, -4.309855], [-64.015799, -4.31009], [-64.012891, -4.310094], [-64.010992, -4.309173], [-64.008565, -4.308974], [-64.007627, -4.309489], [-64.006693, -4.310088], [-64.004354, -4.310176], [-63.99218, -4.310278], [-63.990867, -4.310536], [-63.988996, -4.310965], [-63.983003, -4.311059], [-63.98085, -4.311659], [-63.978136, -4.311578], [-63.97289, -4.310473], [-63.969894, -4.310477], [-63.968583, -4.310052], [-63.965678, -4.310141], [-63.960621, -4.309635], [-63.953692, -4.309643], [-63.951726, -4.309048], [-63.947324, -4.307516], [-63.944325, -4.305127], [-63.942635, -4.304445], [-63.939357, -4.304534], [-63.934394, -4.303857], [-63.926528, -4.302158], [-63.915661, -4.300376], [-63.909013, -4.298932], [-63.893274, -4.296045], [-63.879883, -4.293583], [-63.863958, -4.290866], [-63.859085, -4.289931], [-63.857959, -4.290446], [-63.856839, -4.290788], [-63.854219, -4.290023], [-63.851502, -4.289086], [-63.84869, -4.288319], [-63.842886, -4.287984], [-63.841293, -4.287046], [-63.837548, -4.286965], [-63.836612, -4.286112], [-63.835109, -4.285685], [-63.833799, -4.285942], [-63.832302, -4.28492], [-63.829021, -4.28347], [-63.827425, -4.283301], [-63.826677, -4.283728], [-63.822748, -4.282794], [-63.819187, -4.282028], [-63.816563, -4.28092], [-63.815066, -4.280751], [-63.808885, -4.277256], [-63.800732, -4.273162], [-63.792017, -4.268299], [-63.789675, -4.267789], [-63.788366, -4.267278], [-63.786117, -4.265401], [-63.783491, -4.263694], [-63.78143, -4.263182], [-63.779277, -4.262672], [-63.778154, -4.261991], [-63.774499, -4.259943], [-63.773, -4.259005], [-63.771875, -4.258237], [-63.769908, -4.257384], [-63.767282, -4.256103], [-63.765501, -4.256447], [-63.76485, -4.256448], [-63.763916, -4.255512], [-63.762039, -4.252863], [-63.761379, -4.252692], [-63.759322, -4.252438], [-63.758386, -4.2515], [-63.757823, -4.251073], [-63.75248, -4.247915], [-63.744425, -4.24348], [-63.737491, -4.23947], [-63.736273, -4.239129], [-63.733651, -4.237851], [-63.729996, -4.23529], [-63.728029, -4.234694], [-63.724657, -4.23239], [-63.721286, -4.2306], [-63.720536, -4.229147], [-63.717255, -4.227782], [-63.692242, -4.21379], [-63.674723, -4.204149], [-63.670978, -4.202359], [-63.670135, -4.201249], [-63.664232, -4.197749], [-63.661981, -4.196383], [-63.660482, -4.196384], [-63.658611, -4.195703], [-63.657116, -4.194681], [-63.656741, -4.193401], [-63.656176, -4.1928], [-63.652519, -4.190836], [-63.65149, -4.190837], [-63.648776, -4.189217], [-63.647932, -4.188192], [-63.646994, -4.187936], [-63.645121, -4.187083], [-63.634067, -4.180853], [-63.633506, -4.180768], [-63.632852, -4.180087], [-63.631632, -4.178976], [-63.629758, -4.178293], [-63.62723, -4.177185], [-63.622547, -4.173771], [-63.618799, -4.170356], [-63.603997, -4.159172], [-63.583666, -4.143206], [-63.581607, -4.141841], [-63.57758, -4.138683], [-63.576175, -4.136549], [-63.575517, -4.135522], [-63.573456, -4.134412], [-63.570178, -4.131766], [-63.568023, -4.128948], [-63.559029, -4.121689], [-63.554813, -4.118273], [-63.552471, -4.117335], [-63.541985, -4.109312], [-63.543079, -4.066581], [-63.495034, -4.043451], [-63.463008, -4.027916], [-63.458044, -4.025781], [-63.456173, -4.025782], [-63.454301, -4.024331], [-63.450836, -4.024077], [-63.449434, -4.023054], [-63.446436, -4.019978], [-63.44475, -4.019124], [-63.441473, -4.017417], [-63.434732, -4.013575], [-63.433513, -4.012378], [-63.430515, -4.011696], [-63.428643, -4.011099], [-63.427146, -4.010502], [-63.423213, -4.008623], [-63.421058, -4.007855], [-63.419936, -4.007514], [-63.418251, -4.006319], [-63.413756, -4.004526], [-63.40814, -4.002649], [-63.40739, -4.001965], [-63.406077, -4.00188], [-63.403269, -4.000771], [-63.397371, -3.999406], [-63.39035, -3.996932], [-63.38857, -3.995907], [-63.385855, -3.995481], [-63.382203, -3.993859], [-63.370875, -3.992326], [-63.350373, -3.989002], [-63.338767, -3.987212], [-63.329305, -3.985848], [-63.326314, -3.985508], [-63.312553, -3.98312], [-63.30731, -3.981669], [-63.29692, -3.979622], [-63.282787, -3.976209], [-63.268835, -3.973222], [-63.26027, -3.971216], [-63.251704, -3.969211], [-63.238318, -3.966224], [-63.233825, -3.964772], [-63.230361, -3.963406], [-63.227645, -3.962979], [-63.224929, -3.962552], [-63.220343, -3.962297], [-63.218425, -3.961785], [-63.216506, -3.961273], [-63.214724, -3.961017], [-63.21126, -3.962983], [-63.209861, -3.962898], [-63.205928, -3.96119], [-63.204991, -3.961276], [-63.202839, -3.96102], [-63.200032, -3.960166], [-63.198346, -3.959568], [-63.193011, -3.957946], [-63.190013, -3.957262], [-63.186551, -3.95752], [-63.184961, -3.956751], [-63.183649, -3.956238], [-63.181963, -3.956239], [-63.179532, -3.955898], [-63.1786, -3.955302], [-63.177944, -3.953678], [-63.177472, -3.95342], [-63.175973, -3.953121], [-63.174476, -3.952822], [-63.164388, -3.946749]]}}
]
}
