{
"type": "FeatureCollection",
"features": [
{"type": "Feature", "properties": {"ProjectID": "P5441", "fid": 1210.0, "Fuel": "Oil", "StartPrefe": null, "EndState/P": "Ouargla", "CountriesO": "Algeria", "Wiki": "https://www.gem.wiki/Hassi_Berkine-Haoudh_el_Hamra_Oil_Pipeline", "PipelineNa": "Hassi Berkine-Haoudh el Hamra Oil Pipeline", "SegmentNam": "II", "Status": "operating", "Owner": "Sonatrach [100.00%]", "Parent": "Sonatrach SpA [100.00%]", "OwnerEntit": "E100000000003", "ProposalYe": null, "Constructi": null, "Diameter": "30", "DiameterUn": "in", "StartYear1": "2006", "StartYear2": null, "StartYear3": null, "CancelledY": null, "DelayType": null, "StopYear": null, "ShelvedYea": null, "Capacity": "15.0", "CapacityUn": "mtpa", "CapacityBO": "301232.88", "LengthKnow": "292.0", "LengthKn_1": "km", "LengthKn_2": "292.0", "LengthEsti": "304.7", "LengthMerg": "292.0", "Diameter [": null, "FuelSource": null, "FuelSour_1": null, "StartLocat": "Hassi Berkine", "StartCount": "Algeria", "StartSubRe": "Northern Africa", "StartRegio": "Africa", "EndLocatio": "Haoudh El Hamra", "EndPrefect": null, "EndCountry": "Algeria", "CostUSD": "--", "EndRegion": "Africa", "CostEuro": "--", "OtherLangu": null, "EndSubRegi": "Northern Africa", "RouteType": "Mapped route (at any accuracy)", "RouteAccur": "medium", "Cost": null, "CostUnits": null, "LastUpdate": "2025-01-27"}, "geometry": {"type": "MultiLineString", "coordinates": [[[8.168, 31.0112], [8.0392, 30.8362], [8.017668, 30.812262], [7.988774, 30.798511], [7.937622, 30.806896], [7.905994, 30.804548], [7.871633, 30.770669], [7.857576, 30.760603], [7.811111, 30.729058], [7.774663, 30.69938], [7.732248, 30.668235], [7.730296, 30.667395], [7.704916, 30.66941], [7.6953, 30.670628], [7.663916, 30.6747], [7.630727, 30.676547], [7.598171, 30.676547], [7.562395, 30.682591], [7.538186, 30.679317], [7.528619, 30.665716], [7.50031, 30.660006], [7.476687, 30.66538], [7.45443, 30.667059], [7.447597, 30.664708], [7.438226, 30.654967], [7.428269, 30.65396], [7.417921, 30.655135], [7.350956, 30.649761], [7.319914, 30.65396], [7.26642, 30.66051], [7.248043, 30.646968], [7.214487, 30.657487], [7.173683, 30.656647], [7.093442, 30.674952], [7.000895, 30.687901], [6.979816, 30.683347], [6.902692, 30.687817], [6.867745, 30.694785], [6.79942, 30.733369], [6.687746, 30.797788], [6.650261, 30.819922], [6.616681, 30.84071], [6.594033, 30.85546], [6.567976, 30.870155], [6.537025, 30.889645], [6.472994, 30.9277], [6.456009, 30.935571], [6.438627, 30.941903], [6.428676, 30.948465], [6.423014, 30.956], [6.421782, 30.966968], [6.422238, 30.986604], [6.422055, 30.990828], [6.40919, 31.019765], [6.402073, 31.03634], [6.367218, 31.117536], [6.333275, 31.165017], [6.311742, 31.195618], [6.301888, 31.229642], [6.268994, 31.308918], [6.244541, 31.347576], [6.225745, 31.373599], [6.192897, 31.426247], [6.153115, 31.485401], [6.092621, 31.570409], [6.070722, 31.601266], [6.020995, 31.65596], [6.01917, 31.659805], [6.012783, 31.675026]]]}}
]
}
