{
"type": "FeatureCollection",
"features": [
{"type": "Feature", "properties": {"ProjectID": "P5455"}, "geometry": {"type": "LineString", "coordinates": [[-69.60717, -50.627225], [-69.686601, -50.718928], [-69.668097, -50.80528], [-69.645481, -50.88752], [-69.62492, -50.969761], [-69.60436, -51.052001], [-69.581744, -51.136298], [-69.561184, -51.220594], [-69.567352, -51.296666], [-69.585856, -51.372739], [-69.629032, -51.440587], [-69.659873, -51.514603], [-69.684545, -51.5989], [-69.688657, -51.617404], [-69.46044, -51.658524], [-69.384367, -51.685252], [-69.250727, -51.689364], [-69.152038, -51.666748], [-68.99648, -51.611948]]}}
]
}
