{
"type": "FeatureCollection",
"features": [
{"type": "Feature", "properties": {"ProjectID": "P5456"}, "geometry": {"type": "LineString", "coordinates": [[-70.776695, -50.789803], [-70.76395, -50.838176], [-70.739278, -50.869016], [-70.714606, -50.895744], [-70.704326, -50.914248], [-70.708438, -50.945089], [-70.724886, -50.990321], [-70.728998, -51.029385], [-70.710494, -51.082841], [-70.622085, -51.167138], [-70.519285, -51.251434], [-70.447325, -51.302834], [-70.342468, -51.356291], [-70.29518, -51.407691], [-70.169763, -51.489931], [-70.034066, -51.555724], [-69.98061, -51.590676], [-69.853138, -51.605068], [-69.659873, -51.6503], [-69.295959, -51.72226], [-69.184934, -51.709924], [-69.090358, -51.679084], [-68.99648, -51.611948]]}}
]
}
