{
"type": "FeatureCollection",
"features": [
{"type": "Feature", "properties": {"ProjectID": "P5464", "id": 3, "Name": "Angostura-Guayaguayare", "Type": "Oil Pipeline"}, "geometry": {"type": "MultiLineString", "coordinates": [[[-60.591, 10.706], [-60.599914, 10.676698], [-60.599914, 10.628085], [-60.599914, 10.544098], [-60.599914, 10.474561], [-60.627713, 10.436771], [-60.674725, 10.377263], [-60.719285, 10.319754], [-60.801047, 10.277923], [-60.852966, 10.250972], [-60.945969, 10.204706], [-60.950466, 10.20028], [-60.959051, 10.190624], [-60.969271, 10.180162], [-60.979491, 10.168493], [-60.987259, 10.16125], [-60.994209, 10.154007], [-61.009802, 10.155614], [-61.017044, 10.154866], [-61.023933, 10.152167], [-61.029013, 10.149063], [-61.037133, 10.143544], [-61.039382, 10.142351], [-61.042333, 10.140353], [-61.047068, 10.136816], [-61.050218, 10.134172], [-61.052261, 10.131124], [-61.055064, 10.130636], [-61.056347, 10.131069], [-61.059794, 10.132545], [-61.060413, 10.131555], [-61.060822, 10.130947], [-61.061428, 10.131352]]]}}
]
}
