{
"type": "FeatureCollection",
"features": [
{"type": "Feature", "properties": {"ProjectID": "P6086", "fid": 1}, "geometry": {"type": "MultiLineString", "coordinates": [[[76.986627, 66.177617], [77.103737, 66.081553], [77.267679, 66.013511], [77.241751, 65.902166], [77.408203, 65.791195], [77.3821, 65.7686], [77.535047, 65.697122], [77.622629, 65.616758], [77.62725, 65.583811], [77.655616, 65.550449], [77.645034, 65.524339], [77.720711, 65.490131], [77.753641, 65.427082], [77.893573, 65.335711], [77.951236, 65.288569], [77.914089, 65.236694], [77.933916, 65.203434], [77.894421, 65.12859], [77.965734, 65.068019], [77.923631, 65.03926], [77.927078, 64.999743], [77.66683, 64.882996], [77.632411, 64.847451], [77.546033, 64.832521], [77.425984, 64.785229], [77.428072, 64.722746], [77.318905, 64.704776], [77.202952, 64.601379], [77.215569, 64.568326], [77.066028, 64.511342], [77.070168, 64.465275], [76.988623, 64.390816], [77.007785, 64.341261], [76.982705, 64.308739], [77.011908, 64.190032], [76.986494, 64.150943], [77.011586, 64.081585], [76.912031, 64.05335], [76.887058, 63.905792], [76.825493, 63.877004], [76.815503, 63.837694], [76.741124, 63.838609], [76.619277, 63.790734], [76.160946, 63.667001], [76.180265, 63.597842], [76.036155, 63.490524], [75.723872, 63.35116], [75.7192, 63.163898], [75.412503, 63.063263], [75.403942, 62.968002], [75.295057, 62.909127], [75.214129, 62.679268], [75.092474, 62.639971], [74.921871, 62.35739], [74.886696, 62.308076], [74.893977, 62.245647], [74.760258, 62.225764], [74.690148, 62.19605], [74.663254, 62.08426], [74.593521, 62.057783], [74.580513, 61.985448], [74.589047, 61.870455], [74.526766, 61.847251], [74.513326, 61.817627], [74.458152, 61.794416], [74.365364, 61.580402], [74.140501, 61.483861], [73.941486, 61.474244], [73.819385, 61.432156], [73.72724, 61.419822], [73.602951, 61.361081], [73.445215, 61.365943], [73.269748, 61.442717], [73.224964, 61.445428], [73.033979, 61.37048], [73.068627, 61.308515], [73.073937, 61.284653]]]}}
]
}
