{
"type": "FeatureCollection",
"features": [
{"type": "Feature", "properties": {"ProjectID": "P6098", "fid": 1}, "geometry": {"type": "MultiLineString", "coordinates": [[[76.161733, 67.907775], [76.277959, 67.866769], [76.302973, 67.679239], [76.506924, 67.565963], [76.481073, 67.526054], [76.523384, 67.45875], [76.519401, 67.396337], [76.572933, 67.32891], [76.475004, 67.240621], [76.459166, 67.169392], [76.340906, 67.107976], [76.349872, 67.063293], [76.300095, 66.987875], [76.376576, 66.92924], [76.38491, 66.875637], [76.550504, 66.802724], [76.536133, 66.753792], [76.647741, 66.565287], [76.621564, 66.507561], [76.685884, 66.466728], [76.765974, 66.336454], [76.882343, 66.259236], [76.986627, 66.177617]]]}}
]
}
