{
"type": "FeatureCollection",
"features": [
{"type": "Feature", "properties": {"ProjectID": "P6139", "fid": 1}, "geometry": {"type": "MultiLineString", "coordinates": [[[75.932092, 60.847673], [75.92851, 60.847025], [75.926823, 60.846415], [75.921499, 60.844187], [75.917267, 60.842528], [75.915129, 60.841625], [75.91378, 60.84111], [75.912383, 60.840582], [75.911439, 60.839413], [75.910643, 60.838532], [75.908545, 60.837704], [75.907558, 60.837481], [75.895358, 60.832751], [75.892345, 60.831619], [75.889307, 60.830378], [75.885691, 60.828972], [75.882007, 60.827472], [75.880014, 60.826654], [75.877911, 60.825842], [75.866333, 60.821189], [75.860487, 60.818852], [75.857273, 60.817565], [75.854155, 60.816306], [75.832121, 60.807529], [75.829253, 60.806365], [75.826459, 60.805235], [75.819839, 60.80249], [75.816416, 60.801066], [75.809235, 60.798122], [75.805112, 60.796486], [75.801183, 60.79486], [75.795472, 60.792523], [75.79255, 60.791361], [75.789808, 60.790244], [75.787169, 60.789181], [75.781829, 60.785271], [75.779828, 60.783772], [75.77806, 60.782402], [75.776972, 60.781498], [75.771938, 60.781068], [75.7671, 60.780852], [75.762186, 60.780601], [75.752661, 60.780148], [75.748363, 60.77989], [75.743823, 60.779607], [75.736171, 60.779152], [75.732348, 60.77896], [75.72824, 60.778844], [75.725493, 60.778701], [75.722013, 60.777382], [75.717081, 60.775464], [75.710581, 60.773304], [75.707273, 60.771756], [75.703595, 60.770689], [75.698734, 60.770608], [75.689564, 60.770503], [75.679291, 60.770283], [75.671005, 60.770128], [75.661834, 60.770021], [75.654768, 60.769709], [75.645932, 60.769495], [75.640203, 60.768758], [75.62871, 60.768689], [75.619204, 60.768684], [75.615233, 60.768667], [75.610896, 60.768619], [75.605659, 60.76861], [75.603226, 60.768656], [75.600564, 60.768774], [75.595655, 60.768922], [75.590688, 60.769161], [75.581208, 60.769465], [75.575655, 60.769642], [75.570426, 60.769861], [75.563731, 60.770094], [75.557544, 60.770442], [75.554523, 60.770513], [75.551575, 60.770662], [75.545836, 60.77081], [75.542987, 60.769912], [75.541186, 60.769335], [75.54003, 60.768932], [75.534096, 60.766934], [75.52932, 60.76534], [75.523338, 60.763372], [75.520707, 60.762391], [75.518855, 60.761932], [75.51359, 60.761043], [75.510759, 60.760516], [75.507686, 60.760008], [75.494662, 60.758046], [75.483933, 60.756271], [75.467333, 60.753391], [75.46247, 60.752534], [75.459585, 60.752008], [75.457582, 60.751118], [75.453655, 60.749283], [75.451177, 60.748166], [75.449134, 60.747245], [75.446387, 60.745879], [75.443281, 60.745612], [75.435131, 60.744819], [75.426895, 60.744096], [75.415624, 60.743068], [75.407211, 60.742298], [75.402821, 60.741841], [75.397332, 60.741381], [75.384474, 60.740155], [75.379115, 60.739364], [75.374437, 60.738663], [75.370609, 60.738114], [75.366831, 60.737738], [75.363592, 60.737366], [75.361174, 60.737214], [75.358569, 60.736672], [75.352207, 60.735544], [75.34572, 60.735266], [75.341086, 60.735071], [75.336341, 60.734926], [75.325114, 60.734528], [75.317252, 60.734261], [75.309082, 60.733713], [75.299715, 60.7327], [75.291635, 60.732355], [75.283882, 60.731761], [75.271651, 60.730704], [75.266312, 60.730192], [75.260888, 60.730112], [75.255771, 60.730109], [75.240997, 60.72986], [75.233445, 60.72978], [75.22565, 60.72976], [75.200056, 60.729434], [75.189928, 60.729346], [75.184662, 60.729271], [75.178668, 60.729249], [75.170295, 60.729146], [75.155773, 60.729083], [75.148394, 60.728971], [75.144873, 60.728943], [75.141235, 60.728892], [75.116507, 60.72874], [75.105183, 60.728657], [75.088524, 60.728759], [75.064873, 60.728723], [75.054189, 60.728811], [75.048638, 60.728875], [75.042981, 60.728858], [75.030973, 60.728878], [75.024941, 60.728889], [75.021984, 60.728883], [75.019081, 60.728918], [75.017408, 60.728788], [75.008527, 60.726188], [75.002739, 60.724404], [74.999866, 60.723506], [74.997218, 60.722667], [74.9803, 60.717334], [74.968666, 60.713941], [74.962971, 60.712315], [74.951436, 60.708674], [74.944575, 60.705367], [74.935748, 60.701104], [74.914543, 60.690841], [74.907063, 60.687249], [74.903602, 60.685681], [74.899969, 60.683978], [74.891256, 60.679881], [74.886483, 60.677565], [74.884397, 60.676538], [74.882451, 60.675597]]]}},
{"type": "Feature", "properties": {"ProjectID": "P6139", "fid": 2}, "geometry": {"type": "MultiLineString", "coordinates": [[[74.882451, 60.675597], [74.859978, 60.664563], [74.839346, 60.654708], [74.831194, 60.650747], [74.820641, 60.645864], [74.810955, 60.641367], [74.802248, 60.636684], [74.78765, 60.634489], [74.775005, 60.631923], [74.760711, 60.629393], [74.742556, 60.626213], [74.727217, 60.623052], [74.711768, 60.620459], [74.707755, 60.619977], [74.686043, 60.617596], [74.669692, 60.615994], [74.658039, 60.613233], [74.641667, 60.609432], [74.632228, 60.607354], [74.617243, 60.604137], [74.613563, 60.601957], [74.608932, 60.600128], [74.603447, 60.59954], [74.598328, 60.598884], [74.597705, 60.599567], [74.594294, 60.598793], [74.580631, 60.595578], [74.56797, 60.592841], [74.566148, 60.590958], [74.563678, 60.588483], [74.56115, 60.585933], [74.559173, 60.585633], [74.555744, 60.586368], [74.550283, 60.587637], [74.542894, 60.589506], [74.533587, 60.58975], [74.532153, 60.589768], [74.531291, 60.590213], [74.529081, 60.589904], [74.526209, 60.590028], [74.520372, 60.590266], [74.514689, 60.590502], [74.506455, 60.590801], [74.498435, 60.591128], [74.491107, 60.591403], [74.475257, 60.591873], [74.470374, 60.592103], [74.461952, 60.592451], [74.458019, 60.592625], [74.454063, 60.592699], [74.452218, 60.592819], [74.450912, 60.592959], [74.44511, 60.593196], [74.439045, 60.593388], [74.433301, 60.593588], [74.426751, 60.593783], [74.422527, 60.593803], [74.420385, 60.593308], [74.410911, 60.59051], [74.403073, 60.588614], [74.395609, 60.587205], [74.391985, 60.586367], [74.388532, 60.58548], [74.379758, 60.583245], [74.376394, 60.58229], [74.372721, 60.581477], [74.368472, 60.580163], [74.364523, 60.578784], [74.358918, 60.576948], [74.355227, 60.575701], [74.354184, 60.575499], [74.348458, 60.574758], [74.342745, 60.573988], [74.339069, 60.573578], [74.325872, 60.573848], [74.320073, 60.573968], [74.311919, 60.574154], [74.307727, 60.574233], [74.298725, 60.574403], [74.295694, 60.574474], [74.285924, 60.574664], [74.282398, 60.574749], [74.270307, 60.574911], [74.264251, 60.575059], [74.257112, 60.575157], [74.250809, 60.575254], [74.240522, 60.575451], [74.235227, 60.575568], [74.229013, 60.575691], [74.223633, 60.575626], [74.220016, 60.57552], [74.217, 60.57538], [74.207722, 60.575114], [74.203047, 60.574944], [74.195423, 60.574562], [74.187325, 60.574266], [74.181901, 60.574096], [74.178298, 60.573823], [74.176484, 60.573543], [74.162061, 60.570781], [74.148136, 60.56835], [74.14087, 60.567145], [74.131726, 60.565114], [74.127275, 60.564408], [74.103912, 60.559399], [74.085997, 60.556044], [74.081061, 60.555151], [74.067853, 60.552676], [74.044588, 60.548597], [74.027181, 60.545985], [74.022304, 60.54505], [74.014445, 60.544773], [74.001096, 60.544965], [73.991481, 60.54457], [73.974624, 60.544348], [73.964441, 60.542637], [73.937764, 60.535975], [73.914626, 60.530311], [73.892526, 60.525277], [73.868375, 60.518969], [73.850484, 60.515085], [73.842764, 60.512921], [73.836203, 60.510821], [73.812948, 60.510914], [73.794326, 60.511263], [73.778331, 60.511409], [73.766924, 60.511001], [73.757212, 60.511381], [73.743169, 60.50816], [73.719143, 60.500437], [73.69878, 60.493149], [73.673708, 60.483967], [73.665472, 60.481066], [73.651007, 60.475724], [73.635525, 60.469744], [73.619914, 60.464332], [73.607998, 60.460173], [73.591239, 60.454691], [73.572486, 60.448743], [73.541255, 60.440098], [73.520697, 60.433919], [73.493039, 60.42709], [73.478215, 60.42344], [73.468406, 60.421358], [73.459148, 60.41699], [73.450206, 60.412292], [73.447989, 60.410453], [73.423323, 60.410255], [73.391982, 60.409801], [73.380444, 60.409795], [73.371051, 60.410366], [73.352258, 60.411881], [73.328502, 60.413791], [73.312073, 60.418297], [73.295307, 60.423201], [73.283111, 60.426785], [73.269795, 60.430735], [73.254582, 60.435221], [73.249175, 60.437402], [73.232761, 60.44493], [73.223643, 60.449856], [73.216868, 60.453503], [73.200748, 60.456147], [73.19521, 60.457289], [73.192143, 60.457566], [73.16925, 60.458867], [73.161144, 60.459706], [73.148792, 60.461082], [73.140324, 60.462187], [73.132475, 60.470739], [73.12736, 60.475442], [73.123126, 60.480242], [73.112283, 60.491191], [73.100347, 60.503617], [73.095382, 60.508372], [73.090082, 60.513049], [73.079619, 60.523637], [73.062562, 60.540258], [73.046477, 60.547591], [73.032634, 60.553611], [73.024306, 60.557274], [73.026191, 60.560973], [73.029382, 60.568915], [73.033067, 60.577932], [73.036356, 60.585619], [73.039267, 60.591905], [73.039444, 60.59283], [73.038914, 60.593638], [73.033279, 60.596424], [73.024275, 60.601192], [73.009605, 60.608612], [73.008862, 60.609901], [73.007156, 60.612922], [73.00441, 60.617155], [73.000345, 60.624273], [72.989545, 60.62655], [72.979962, 60.628684], [72.97682, 60.628271], [72.966948, 60.627384], [72.962368, 60.62797], [72.961956, 60.628924], [72.966625, 60.634502], [72.971471, 60.64001], [72.970986, 60.646197], [72.968908, 60.657], [72.967685, 60.664099], [72.951316, 60.667575], [72.945894, 60.668646], [72.941259, 60.669649], [72.93847, 60.670027], [72.937635, 60.676244], [72.937467, 60.678729], [72.936881, 60.679854], [72.935144, 60.681581], [72.932967, 60.683325], [72.931436, 60.684783], [72.928547, 60.689783], [72.929891, 60.692827], [72.922378, 60.698759], [72.918428, 60.701213], [72.917706, 60.703316], [72.912124, 60.705435], [72.906873, 60.707532], [72.903359, 60.70875], [72.900361, 60.708549], [72.897545, 60.708214], [72.893524, 60.707847], [72.889048, 60.707524], [72.89336, 60.707909]]]}},
{"type": "Feature", "properties": {"ProjectID": "P6139", "fid": 3}, "geometry": {"type": "MultiLineString", "coordinates": [[[73.447884, 60.410403], [73.437429, 60.404471], [73.420003, 60.404251], [73.394064, 60.403522], [73.375459, 60.40453], [73.355559, 60.405559], [73.335001, 60.407111], [73.318215, 60.407958], [73.299432, 60.409293], [73.284951, 60.411231], [73.272495, 60.417899], [73.25839, 60.425162], [73.247847, 60.430568], [73.235839, 60.437015], [73.22523, 60.443009], [73.215375, 60.449122], [73.20814, 60.453669], [73.200748, 60.456147]]]}}
]
}
