{
"type": "FeatureCollection",
"features": [
{"type": "Feature", "properties": {"ProjectID": "P6178"}, "geometry": {"type": "MultiLineString", "coordinates": [[[-4.040731, 38.675487], [-4.037818, 38.67494], [-4.033715, 38.673172], [-4.025415, 38.670567], [-4.018098, 38.669127], [-4.010695, 38.66762], [-4.008915, 38.666866], [-4.006039, 38.666614], [-3.996598, 38.665023], [-3.992414, 38.665107], [-3.979882, 38.658522], [-3.973895, 38.655506], [-3.972115, 38.654115], [-3.967995, 38.651099], [-3.964943, 38.649513], [-3.963059, 38.648987], [-3.959261, 38.646708], [-3.951232, 38.642491], [-3.939628, 38.641479], [-3.938572, 38.641201], [-3.928637, 38.638117], [-3.921942, 38.638301], [-3.918578, 38.63801], [-3.915702, 38.637423], [-3.91081, 38.63682], [-3.907377, 38.637591], [-3.903446, 38.639525], [-3.897137, 38.641536], [-3.891477, 38.641714], [-3.883494, 38.642518], [-3.876714, 38.643256], [-3.870319, 38.645418], [-3.866989, 38.646932], [-3.856629, 38.651601], [-3.84963, 38.656635], [-3.847806, 38.657791], [-3.847102, 38.657382], [-3.840429, 38.660666], [-3.836631, 38.66385], [-3.830597, 38.669], [-3.825859, 38.671924], [-3.819696, 38.672133], [-3.814551, 38.672879], [-3.812941, 38.672913], [-3.806629, 38.672937], [-3.798797, 38.672936], [-3.794102, 38.672628], [-3.788008, 38.672662], [-3.783287, 38.672628], [-3.778116, 38.673198], [-3.771996, 38.672619], [-3.758091, 38.672669], [-3.753289, 38.672913], [-3.741054, 38.673239], [-3.733355, 38.673717], [-3.729106, 38.673868], [-3.722197, 38.674203], [-3.719987, 38.674253], [-3.715674, 38.674287], [-3.706293, 38.67488], [-3.702495, 38.675148], [-3.702151, 38.675014], [-3.701297, 38.675107], [-3.701104, 38.675292], [-3.692929, 38.675945], [-3.685998, 38.676749], [-3.677475, 38.680995], [-3.670072, 38.679169], [-3.664304, 38.679982], [-3.660588, 38.680341], [-3.645782, 38.68205], [-3.629607, 38.684287], [-3.616368, 38.685225], [-3.609519, 38.683139], [-3.60566, 38.682143], [-3.604309, 38.681942], [-3.589069, 38.68014], [-3.579049, 38.678566], [-3.57407, 38.678733], [-3.570272, 38.679638], [-3.553497, 38.678508], [-3.544266, 38.677599], [-3.539459, 38.677125], [-3.529507, 38.676749], [-3.529095, 38.676706], [-3.5224, 38.6754], [-3.51298, 38.673758], [-3.498587, 38.671807], [-3.494784, 38.671496], [-3.492467, 38.671446], [-3.483798, 38.671346], [-3.465306, 38.671187], [-3.455628, 38.671238], [-3.448994, 38.670927], [-3.448071, 38.670391], [-3.44335, 38.670324], [-3.436119, 38.670106], [-3.434832, 38.669503], [-3.43127, 38.670072], [-3.428334, 38.670668], [-3.424489, 38.671061], [-3.423824, 38.671178], [-3.422365, 38.671362], [-3.421871, 38.67148], [-3.421592, 38.671379], [-3.416678, 38.67215], [-3.415824, 38.67231], [-3.415331, 38.672276], [-3.407842, 38.672896], [-3.399667, 38.673382], [-3.39383, 38.674069], [-3.388097, 38.674378], [-3.38123, 38.674529], [-3.368961, 38.675308], [-3.355352, 38.676036], [-3.352095, 38.676448], [-3.34016, 38.677879], [-3.325655, 38.679738], [-3.313643, 38.680535], [-3.294932, 38.681624], [-3.285641, 38.679748], [-3.283534, 38.679521], [-3.28156, 38.679286], [-3.269977, 38.678877], [-3.261866, 38.678558], [-3.252188, 38.678742], [-3.242618, 38.678374], [-3.229786, 38.678123], [-3.224568, 38.677896], [-3.215345, 38.676632], [-3.209187, 38.675861], [-3.200299, 38.675031], [-3.189768, 38.674253], [-3.186592, 38.674303], [-3.179893, 38.674344], [-3.171014, 38.674404], [-3.165564, 38.674287], [-3.162345, 38.674655], [-3.161336, 38.674571], [-3.156101, 38.674605], [-3.141016, 38.67427], [-3.130905, 38.673926], [-3.126184, 38.673909], [-3.123936, 38.673968], [-3.117949, 38.674019], [-3.111437, 38.6741], [-3.100342, 38.674179], [-3.092437, 38.674274], [-3.08081, 38.674343], [-3.077882, 38.674381], [-3.073639, 38.674136], [-3.065028, 38.673669], [-3.059712, 38.673387], [-3.052056, 38.673139], [-3.04999, 38.673019], [-3.047555, 38.673097], [-3.041908, 38.673277], [-3.03203, 38.673723], [-3.013193, 38.673767], [-3.009533, 38.673841], [-3.004693, 38.674109], [-2.998365, 38.673884], [-2.98519, 38.674621], [-2.975534, 38.674453], [-2.952017, 38.671773], [-2.940039, 38.671446], [-2.929421, 38.672117], [-2.928499, 38.672175], [-2.915968, 38.67375], [-2.900304, 38.676087], [-2.892746, 38.677469], [-2.886099, 38.678701], [-2.880553, 38.67984], [-2.87543, 38.68097], [-2.872737, 38.681589], [-2.870677, 38.681799], [-2.864948, 38.682527], [-2.86373, 38.682595], [-2.860254, 38.682595], [-2.858296, 38.682804], [-2.855544, 38.683165], [-2.855399, 38.683047], [-2.854031, 38.683165], [-2.852014, 38.683458], [-2.850018, 38.683634], [-2.842922, 38.684362], [-2.842138, 38.684295], [-2.836903, 38.684077], [-2.835427, 38.684094], [-2.830895, 38.68411], [-2.829425, 38.684027], [-2.823213, 38.683683], [-2.817054, 38.68329], [-2.812377, 38.683072], [-2.805107, 38.682444], [-2.797088, 38.681807], [-2.791219, 38.681338], [-2.785973, 38.680944], [-2.780555, 38.680509], [-2.775341, 38.680157], [-2.77253, 38.679964], [-2.769934, 38.679588], [-2.76297, 38.678574], [-2.756297, 38.677577], [-2.75015, 38.676673], [-2.743691, 38.67571], [-2.741931, 38.675458], [-2.735247, 38.674537], [-2.73036, 38.673851], [-2.723804, 38.672854], [-2.717802, 38.671898], [-2.716193, 38.670625], [-2.713902, 38.670886], [-2.709165, 38.66998], [-2.705056, 38.6705], [-2.698774, 38.669705], [-2.694493, 38.669454], [-2.690384, 38.669261], [-2.688169, 38.669871], [-2.687558, 38.669897], [-2.685551, 38.670533], [-2.684822, 38.670893], [-2.683517, 38.671263], [-2.677488, 38.672553], [-2.671233, 38.674379], [-2.668486, 38.674571], [-2.663922, 38.674939], [-2.663208, 38.674764], [-2.658429, 38.673197], [-2.657908, 38.672829], [-2.654475, 38.670409], [-2.652897, 38.671422], [-2.646573, 38.670751], [-2.643284, 38.670426], [-2.64049, 38.671396], [-2.636982, 38.672694], [-2.633071, 38.674395], [-2.627095, 38.676808], [-2.622696, 38.678609], [-2.617455, 38.680534], [-2.613604, 38.680894], [-2.606323, 38.681439], [-2.599195, 38.682033], [-2.596319, 38.682176], [-2.589705, 38.682453], [-2.581561, 38.682779], [-2.575173, 38.682938], [-2.568258, 38.683047], [-2.560533, 38.683156], [-2.552439, 38.683222], [-2.545948, 38.683373], [-2.539891, 38.683525], [-2.533749, 38.683834], [-2.533099, 38.684237], [-2.530889, 38.684128], [-2.524597, 38.684027], [-2.518975, 38.684177], [-2.514635, 38.684396], [-2.50697, 38.684629], [-2.505837, 38.684396], [-2.50285, 38.683658], [-2.501337, 38.683591], [-2.495602, 38.684061], [-2.491611, 38.683399], [-2.486504, 38.682545], [-2.482277, 38.680124], [-2.478597, 38.679119], [-2.474, 38.678181], [-2.470942, 38.677594], [-2.468603, 38.677552], [-2.464929, 38.677997], [-2.462386, 38.678332], [-2.458127, 38.67716], [-2.456507, 38.677101], [-2.451684, 38.676807], [-2.447747, 38.675701], [-2.444844, 38.674906], [-2.441352, 38.674269], [-2.43882, 38.673607], [-2.434738, 38.672762], [-2.430736, 38.672829], [-2.424653, 38.675627], [-2.414895, 38.678214], [-2.412626, 38.678022], [-2.406628, 38.677402], [-2.404558, 38.677235], [-2.403452, 38.677129], [-2.403313, 38.677132], [-2.390642, 38.680594], [-2.388936, 38.681414], [-2.382778, 38.683215], [-2.380321, 38.683324], [-2.377038, 38.683441], [-2.373074, 38.683675], [-2.369099, 38.683366], [-2.367779, 38.683449], [-2.363305, 38.683776], [-2.359695, 38.684738], [-2.357136, 38.685057], [-2.353381, 38.684965], [-2.353285, 38.684815], [-2.352426, 38.684815], [-2.349057, 38.686004], [-2.346751, 38.68582], [-2.342368, 38.685484], [-2.339729, 38.685165], [-2.334702, 38.684513], [-2.33003, 38.683775], [-2.329279, 38.682276], [-2.326275, 38.680216], [-2.323517, 38.679286], [-2.321811, 38.678683], [-2.320781, 38.677837], [-2.319837, 38.676706], [-2.319033, 38.676204], [-2.315599, 38.674805], [-2.311737, 38.675107], [-2.309302, 38.675718], [-2.304645, 38.676916], [-2.30162, 38.677996], [-2.301094, 38.677996], [-2.294989, 38.677871], [-2.289722, 38.67942], [-2.288713, 38.679747], [-2.285725, 38.679801], [-2.282512, 38.678591], [-2.275002, 38.67767], [-2.274562, 38.67767], [-2.270828, 38.678432], [-2.27042, 38.678457], [-2.26998, 38.678314], [-2.266751, 38.676832], [-2.266558, 38.676815], [-2.262642, 38.677108], [-2.259509, 38.677326], [-2.257712, 38.67731], [-2.254799, 38.677041], [-2.25223, 38.67685], [-2.249799, 38.676447], [-2.246956, 38.674755], [-2.244424, 38.673842], [-2.241302, 38.671672], [-2.237579, 38.670349], [-2.234929, 38.67019], [-2.230949, 38.670005], [-2.228755, 38.669914], [-2.224941, 38.670047], [-2.223525, 38.670139], [-2.222843, 38.670509], [-2.221846, 38.671196], [-2.220944, 38.671405], [-2.219678, 38.671799], [-2.218756, 38.671723], [-2.216508, 38.671321], [-2.215312, 38.671229], [-2.21241, 38.671312], [-2.210559, 38.671388], [-2.209851, 38.671279], [-2.206793, 38.670735], [-2.206203, 38.6708], [-2.205656, 38.670861], [-2.20506, 38.670927], [-2.199186, 38.671522], [-2.198527, 38.671565], [-2.196847, 38.671673], [-2.194348, 38.671145], [-2.192974, 38.670986], [-2.190641, 38.670743], [-2.187261, 38.66931], [-2.186912, 38.66901], [-2.186785, 38.668914], [-2.186662, 38.668846], [-2.18654, 38.668789], [-2.186414, 38.668758], [-2.185752, 38.668645], [-2.184314, 38.666363], [-2.183994, 38.666271], [-2.179193, 38.665013], [-2.178721, 38.664619], [-2.177278, 38.663598], [-2.176248, 38.662802], [-2.172477, 38.661687], [-2.16855, 38.660397], [-2.168325, 38.660129], [-2.167928, 38.658311], [-2.167547, 38.656812], [-2.166249, 38.654207], [-2.163266, 38.651986], [-2.161093, 38.651893], [-2.159946, 38.651457], [-2.156249, 38.649984], [-2.153819, 38.648952], [-2.149131, 38.64565], [-2.143981, 38.644134], [-2.138305, 38.641109], [-2.129744, 38.636382], [-2.127566, 38.635058], [-2.125881, 38.634522], [-2.12321, 38.634346], [-2.117695, 38.63417], [-2.114917, 38.634128], [-2.11394, 38.63365], [-2.11221, 38.632768], [-2.111719, 38.632519], [-2.108275, 38.630725], [-2.107224, 38.630289], [-2.103769, 38.629032], [-2.101548, 38.627875], [-2.098807, 38.62646], [-2.095717, 38.623468], [-2.091624, 38.619502], [-2.087703, 38.61589], [-2.083894, 38.611874], [-2.080107, 38.607649], [-2.076201, 38.604933], [-2.074598, 38.602072], [-2.073128, 38.601335], [-2.069078, 38.599273], [-2.068504, 38.598819], [-2.06315, 38.595012], [-2.061036, 38.592119], [-2.059438, 38.589939], [-2.057743, 38.588278], [-2.055999, 38.58656], [-2.054658, 38.584908], [-2.051397, 38.580925], [-2.048596, 38.578232], [-2.048366, 38.577778], [-2.047877, 38.576865], [-2.044798, 38.57049], [-2.042996, 38.567303], [-2.041864, 38.565884], [-2.039568, 38.563283], [-2.038404, 38.56133], [-2.036709, 38.558511], [-2.035132, 38.557278], [-2.033136, 38.555684], [-2.030743, 38.554333], [-2.028861, 38.552561], [-2.028426, 38.552395], [-2.0276, 38.550599], [-2.027289, 38.549726], [-2.026806, 38.549139], [-2.025857, 38.548156], [-2.024193, 38.547191], [-2.022992, 38.545949], [-2.022461, 38.545548], [-2.020336, 38.543886], [-2.019355, 38.543063], [-2.019001, 38.540856], [-2.019245, 38.540413], [-2.019277, 38.540279], [-2.01947, 38.539943], [-2.01961, 38.539725], [-2.019599, 38.539465], [-2.01932, 38.538894], [-2.019041, 38.538189], [-2.018869, 38.537786], [-2.018741, 38.53735], [-2.018698, 38.53688], [-2.01858, 38.536477], [-2.018376, 38.536083], [-2.018387, 38.535906], [-2.018505, 38.535663], [-2.019181, 38.53495], [-2.019964, 38.534211], [-2.02035, 38.533959], [-2.020747, 38.533842], [-2.021659, 38.533691], [-2.021938, 38.533598], [-2.02211, 38.533422], [-2.022399, 38.53291], [-2.022882, 38.532054], [-2.023418, 38.531106], [-2.023504, 38.530695], [-2.023536, 38.530401], [-2.023611, 38.529964], [-2.023451, 38.529763], [-2.0226, 38.529258], [-2.02216, 38.529032], [-2.021884, 38.528605], [-2.021444, 38.527866], [-2.020972, 38.527027], [-2.019971, 38.525699], [-2.01902, 38.52445], [-2.01848, 38.523735], [-2.017986, 38.523282], [-2.014768, 38.520504], [-2.011152, 38.517171], [-2.007994, 38.514125], [-2.007918, 38.514022], [-2.006888, 38.513074], [-2.004173, 38.510471], [-2.003144, 38.509665], [-1.999866, 38.507274], [-1.999544, 38.507039], [-1.997726, 38.504804], [-1.997479, 38.50451], [-1.997227, 38.504436], [-1.995698, 38.504032], [-1.995027, 38.503865], [-1.993885, 38.503142], [-1.991095, 38.501412], [-1.991036, 38.500935], [-1.990725, 38.497778], [-1.990682, 38.497593], [-1.990457, 38.497509], [-1.988499, 38.496912], [-1.988187, 38.49687], [-1.985173, 38.496962], [-1.984062, 38.496703], [-1.983091, 38.496441], [-1.98211, 38.496182], [-1.980345, 38.496114], [-1.978451, 38.495401], [-1.97725, 38.492538], [-1.976584, 38.490875], [-1.976418, 38.49074], [-1.97262, 38.489304], [-1.971016, 38.487718], [-1.970201, 38.485391], [-1.96901, 38.482872], [-1.968506, 38.481486], [-1.966757, 38.476434], [-1.966145, 38.474632], [-1.965861, 38.47396], [-1.96577, 38.47372], [-1.965802, 38.473427], [-1.965737, 38.471348], [-1.964584, 38.470227], [-1.96453, 38.469777], [-1.964504, 38.468627], [-1.965115, 38.468249], [-1.965169, 38.467619], [-1.96548, 38.467291], [-1.965491, 38.466014], [-1.965072, 38.462368], [-1.964557, 38.458252], [-1.964504, 38.456462], [-1.964514, 38.455084], [-1.964514, 38.453925], [-1.964289, 38.451362], [-1.964085, 38.448959], [-1.963956, 38.447136], [-1.963892, 38.443951], [-1.963034, 38.442573], [-1.962572, 38.441212], [-1.961446, 38.438456], [-1.96151, 38.436136], [-1.961199, 38.43417], [-1.960791, 38.431295], [-1.960974, 38.427866], [-1.961055, 38.426342], [-1.958935, 38.42421], [-1.958495, 38.42368], [-1.95842, 38.423428], [-1.958045, 38.422958], [-1.958066, 38.422319], [-1.958179, 38.421467], [-1.958206, 38.421118], [-1.958227, 38.420831], [-1.95833, 38.420282], [-1.958109, 38.419831], [-1.957562, 38.419553], [-1.956463, 38.419096], [-1.955733, 38.418811], [-1.95517, 38.418864], [-1.95488, 38.418671], [-1.954419, 38.418351], [-1.951929, 38.417628], [-1.950503, 38.416872], [-1.948593, 38.416451], [-1.949502, 38.414293], [-1.950026, 38.413052], [-1.949365, 38.410869], [-1.947831, 38.406027], [-1.946715, 38.402933], [-1.946758, 38.402614], [-1.946383, 38.402252], [-1.944859, 38.400831], [-1.940224, 38.399318], [-1.93913, 38.39619], [-1.937403, 38.394096], [-1.935128, 38.391859], [-1.934849, 38.391346], [-1.93486, 38.391195], [-1.934624, 38.390943], [-1.934334, 38.390867], [-1.932553, 38.389286], [-1.932735, 38.388798], [-1.933969, 38.387957], [-1.934506, 38.387453], [-1.934795, 38.386965], [-1.934195, 38.385039], [-1.933604, 38.384686], [-1.932821, 38.384492], [-1.932167, 38.384585], [-1.931212, 38.384997], [-1.929506, 38.384576], [-1.926996, 38.383332], [-1.926588, 38.382928], [-1.924796, 38.37879], [-1.923348, 38.375602], [-1.921792, 38.372625], [-1.919979, 38.369353], [-1.919614, 38.366585], [-1.919432, 38.366249], [-1.91823, 38.364323], [-1.918059, 38.363894], [-1.916385, 38.360747], [-1.914625, 38.357357], [-1.912876, 38.354589], [-1.9116, 38.352561], [-1.9094, 38.350458], [-1.907126, 38.349297], [-1.906804, 38.349061], [-1.904175, 38.344921], [-1.903902, 38.344523], [-1.903237, 38.343917], [-1.903027, 38.34355], [-1.901375, 38.338787], [-1.901064, 38.338021], [-1.899965, 38.335864], [-1.898044, 38.332077], [-1.896633, 38.329151], [-1.896472, 38.328065], [-1.895421, 38.327299], [-1.893189, 38.322746], [-1.891387, 38.318949], [-1.890206, 38.31639], [-1.888479, 38.312779], [-1.886269, 38.309849], [-1.883898, 38.306777], [-1.8829, 38.305463], [-1.880765, 38.30319], [-1.880325, 38.302769], [-1.878179, 38.301599], [-1.873866, 38.299149], [-1.870047, 38.298829], [-1.869285, 38.298694], [-1.863384, 38.29637], [-1.858492, 38.294374], [-1.854855, 38.292935], [-1.851282, 38.290981], [-1.847109, 38.288354], [-1.842045, 38.285187], [-1.839165, 38.28387], [-1.837635, 38.283166], [-1.832871, 38.282029], [-1.832045, 38.28176], [-1.830393, 38.281077], [-1.826595, 38.27957], [-1.826177, 38.279418], [-1.825833, 38.279342], [-1.825297, 38.279132], [-1.821306, 38.277599], [-1.817465, 38.275931], [-1.813302, 38.274264], [-1.810223, 38.27311], [-1.806189, 38.272116], [-1.802155, 38.271012], [-1.798024, 38.26985], [-1.793818, 38.268056], [-1.791147, 38.266953], [-1.785826, 38.265394], [-1.785643, 38.265327], [-1.785499, 38.26518], [-1.78442, 38.262387], [-1.782188, 38.25697], [-1.781416, 38.255209], [-1.781716, 38.251746], [-1.781888, 38.250078], [-1.782242, 38.2475], [-1.78221, 38.247331], [-1.782023, 38.247185], [-1.781738, 38.247112], [-1.781116, 38.247036], [-1.78088, 38.246994], [-1.780633, 38.2468], [-1.780322, 38.24643], [-1.7803, 38.246177], [-1.780558, 38.245806], [-1.781513, 38.244989], [-1.781974, 38.244618], [-1.782038, 38.244492], [-1.782038, 38.24434], [-1.781787, 38.242332], [-1.781663, 38.241913], [-1.780901, 38.239849], [-1.780697, 38.239453], [-1.778723, 38.236663], [-1.777972, 38.235568], [-1.777768, 38.235357], [-1.775762, 38.233764], [-1.772146, 38.230865], [-1.770022, 38.229163], [-1.766975, 38.228185], [-1.764808, 38.226677], [-1.764786, 38.225303], [-1.764872, 38.221982], [-1.764936, 38.220229], [-1.762319, 38.215196], [-1.761804, 38.214202], [-1.759229, 38.212566], [-1.755517, 38.210189], [-1.751761, 38.207727], [-1.749927, 38.206497], [-1.745281, 38.203352], [-1.741569, 38.201312], [-1.73879, 38.199794], [-1.736237, 38.198487], [-1.731634, 38.196295], [-1.729767, 38.195603], [-1.72774, 38.19487], [-1.721882, 38.194254], [-1.719092, 38.193479], [-1.71568, 38.192484], [-1.715375, 38.192329], [-1.714651, 38.192062], [-1.711271, 38.191278], [-1.710134, 38.191067], [-1.706947, 38.190274], [-1.702634, 38.189397], [-1.699748, 38.188799], [-1.694888, 38.187821], [-1.689288, 38.186657], [-1.684148, 38.185653], [-1.678172, 38.184304], [-1.672336, 38.183014], [-1.668763, 38.182331], [-1.665791, 38.181732], [-1.662498, 38.18099], [-1.658646, 38.180129], [-1.653829, 38.179202], [-1.652488, 38.178839], [-1.648615, 38.177785], [-1.647874, 38.177599], [-1.647295, 38.177523], [-1.645643, 38.176309], [-1.643754, 38.175778], [-1.643518, 38.17582], [-1.643304, 38.175946], [-1.6431, 38.176107], [-1.642714, 38.176225], [-1.642521, 38.176208], [-1.642327, 38.176157], [-1.642134, 38.175997], [-1.641372, 38.17512], [-1.64075, 38.174698], [-1.640557, 38.174529], [-1.637049, 38.172775], [-1.632038, 38.170776], [-1.628611, 38.169483], [-1.625408, 38.168971], [-1.623091, 38.166643], [-1.619078, 38.162973], [-1.615216, 38.159515], [-1.614336, 38.158739], [-1.612104, 38.157355], [-1.610559, 38.156326], [-1.607695, 38.154309], [-1.604251, 38.151838], [-1.601021, 38.149686], [-1.600453, 38.149129], [-1.599437, 38.148168], [-1.599348, 38.148083], [-1.595979, 38.144902], [-1.5904, 38.140489], [-1.586741, 38.137502], [-1.582825, 38.13438], [-1.579918, 38.132438], [-1.576602, 38.130261], [-1.570948, 38.126244], [-1.56729, 38.123383], [-1.567161, 38.123138], [-1.5667, 38.119779], [-1.565788, 38.112756], [-1.565563, 38.110789], [-1.564672, 38.108662], [-1.563267, 38.105091], [-1.561389, 38.100135], [-1.560091, 38.097999], [-1.558599, 38.095305], [-1.558128, 38.094672], [-1.555799, 38.091599], [-1.5533, 38.088432], [-1.550467, 38.084666], [-1.549995, 38.084091], [-1.549577, 38.081068], [-1.549308, 38.079033], [-1.549362, 38.077842], [-1.549598, 38.07421], [-1.549609, 38.072327], [-1.549684, 38.068881], [-1.548675, 38.06742], [-1.547956, 38.066432], [-1.548343, 38.06557], [-1.548343, 38.064658], [-1.54904, 38.063813], [-1.549368, 38.063067], [-1.550413, 38.060223], [-1.55007, 38.059099], [-1.550381, 38.057393], [-1.550542, 38.056523], [-1.55066, 38.056092], [-1.55183, 38.054521], [-1.552581, 38.052974], [-1.552849, 38.05262], [-1.553031, 38.052248], [-1.553535, 38.051386], [-1.555494, 38.050386], [-1.556057, 38.049756], [-1.555778, 38.049113], [-1.555638, 38.048497], [-1.555284, 38.047964], [-1.555316, 38.04728], [-1.555198, 38.047027], [-1.554866, 38.046756], [-1.554475, 38.046069], [-1.553782, 38.045751], [-1.553342, 38.045557], [-1.553224, 38.045261], [-1.553267, 38.04494], [-1.553364, 38.044543], [-1.553439, 38.043968], [-1.553922, 38.043208], [-1.554051, 38.042963], [-1.554115, 38.042557], [-1.554244, 38.042236], [-1.554662, 38.041687], [-1.555215, 38.040391], [-1.555681, 38.039684], [-1.556153, 38.039295], [-1.556325, 38.039017], [-1.556304, 38.038712], [-1.556164, 38.03845], [-1.556196, 38.037783], [-1.556153, 38.03747], [-1.555907, 38.036794], [-1.555445, 38.035806], [-1.554726, 38.034656], [-1.554544, 38.034225], [-1.554394, 38.033473], [-1.553611, 38.03027], [-1.552795, 38.028597], [-1.551315, 38.025504], [-1.549641, 38.023129], [-1.549212, 38.022664], [-1.547238, 38.021312], [-1.545349, 38.019089], [-1.543901, 38.017373], [-1.543622, 38.017196], [-1.543558, 38.016156], [-1.542474, 38.015513], [-1.539577, 38.014077], [-1.535876, 38.013383], [-1.535189, 38.013096], [-1.534342, 38.012014], [-1.53358, 38.01149], [-1.531198, 38.010366], [-1.529546, 38.010323], [-1.527314, 38.010323], [-1.52378, 38.011326], [-1.521864, 38.011431], [-1.520673, 38.010949], [-1.520829, 38.010134], [-1.521484, 38.008478], [-1.52166, 38.008024], [-1.521692, 38.007399], [-1.5218, 38.0069], [-1.52107, 38.005725], [-1.518999, 38.00274], [-1.517261, 37.999004], [-1.517154, 37.998479], [-1.517036, 37.99596], [-1.516929, 37.995529], [-1.516564, 37.994768], [-1.515609, 37.992612], [-1.515513, 37.992316], [-1.515673, 37.992003], [-1.516457, 37.991445], [-1.516542, 37.99125], [-1.516532, 37.990599], [-1.516253, 37.987496], [-1.515319, 37.985247], [-1.513066, 37.983809], [-1.512165, 37.983277], [-1.511157, 37.982921], [-1.508281, 37.982126], [-1.506511, 37.981653], [-1.50503, 37.981221], [-1.501554, 37.977416], [-1.500256, 37.976257], [-1.49815, 37.974414], [-1.497531, 37.973872], [-1.495664, 37.971944], [-1.49472, 37.970574], [-1.493497, 37.969711], [-1.491501, 37.967453], [-1.488444, 37.964036], [-1.486395, 37.96176], [-1.484914, 37.960449], [-1.484249, 37.957319], [-1.482618, 37.956194], [-1.482264, 37.95512], [-1.482607, 37.954976], [-1.482446, 37.95402], [-1.482436, 37.953876], [-1.482661, 37.953301], [-1.481384, 37.949739], [-1.480075, 37.946474], [-1.478981, 37.943766], [-1.477962, 37.941372], [-1.477296, 37.940043], [-1.475011, 37.935863], [-1.472694, 37.933705], [-1.470226, 37.929635], [-1.467673, 37.925285], [-1.46528, 37.921502], [-1.462255, 37.916966], [-1.461353, 37.915772], [-1.459937, 37.913952], [-1.457351, 37.91077], [-1.45283, 37.905239], [-1.451408, 37.90332], [-1.4482, 37.89891], [-1.447277, 37.897631], [-1.446505, 37.895904], [-1.445196, 37.895261], [-1.44482, 37.894439], [-1.444713, 37.893872], [-1.443876, 37.892814], [-1.443447, 37.892289], [-1.442063, 37.890494], [-1.441226, 37.889097], [-1.440288, 37.887299], [-1.439896, 37.886963], [-1.439853, 37.886582], [-1.439585, 37.886286], [-1.439338, 37.885396], [-1.439231, 37.884694], [-1.439354, 37.884217], [-1.439188, 37.88322], [-1.439585, 37.88239], [-1.440363, 37.880948], [-1.443243, 37.87825], [-1.443946, 37.875342], [-1.444724, 37.87216], [-1.444944, 37.871454], [-1.448554, 37.864174], [-1.450238, 37.861141], [-1.450925, 37.858278], [-1.450485, 37.856711], [-1.450399, 37.855076], [-1.450077, 37.853848], [-1.449755, 37.852848], [-1.449369, 37.852645], [-1.449573, 37.85206], [-1.449337, 37.851535], [-1.448554, 37.849129], [-1.448157, 37.848002], [-1.448028, 37.847689], [-1.448028, 37.846672], [-1.448141, 37.845645], [-1.447556, 37.844033], [-1.446837, 37.841809], [-1.446193, 37.839954], [-1.443726, 37.837124], [-1.442267, 37.836776], [-1.441001, 37.836259], [-1.43981, 37.835768], [-1.437364, 37.834649], [-1.435872, 37.833666], [-1.435186, 37.832463], [-1.43341, 37.83131], [-1.433027, 37.831114], [-1.432851, 37.83108], [-1.432113, 37.830768], [-1.43029, 37.830463], [-1.42997, 37.830425], [-1.428694, 37.830154], [-1.428473, 37.83012], [-1.428019, 37.830082], [-1.424087, 37.829588], [-1.415569, 37.822961], [-1.412323, 37.820345], [-1.410607, 37.819481], [-1.409104, 37.818701], [-1.407801, 37.817876], [-1.405564, 37.816294], [-1.4019, 37.812655], [-1.400293, 37.812006], [-1.397139, 37.808246], [-1.39672, 37.807883], [-1.396449, 37.807788], [-1.394998, 37.807542], [-1.394647, 37.807433], [-1.393296, 37.80584], [-1.388725, 37.80328], [-1.385871, 37.80172], [-1.384498, 37.801109], [-1.381558, 37.800855], [-1.376237, 37.798888], [-1.366618, 37.795679], [-1.362311, 37.794073], [-1.359242, 37.792818], [-1.356152, 37.79158], [-1.35435, 37.790393], [-1.349822, 37.786917], [-1.348385, 37.785594], [-1.345402, 37.783101], [-1.339909, 37.780252], [-1.334823, 37.777573], [-1.332184, 37.776267], [-1.328236, 37.774757], [-1.327694, 37.773853], [-1.326106, 37.772818], [-1.320613, 37.771292], [-1.315978, 37.769528], [-1.314696, 37.767973], [-1.312566, 37.767425], [-1.311107, 37.765847], [-1.311043, 37.764677], [-1.30452, 37.76181], [-1.299461, 37.759576], [-1.292144, 37.756268], [-1.285465, 37.753328], [-1.274163, 37.74826], [-1.267527, 37.74722], [-1.266497, 37.74688], [-1.262892, 37.746236], [-1.257812, 37.745375], [-1.254679, 37.743526], [-1.25234, 37.742627], [-1.251798, 37.742791], [-1.251053, 37.742389], [-1.24903, 37.742927], [-1.248108, 37.742757], [-1.243757, 37.742355], [-1.240962, 37.74218], [-1.239058, 37.741999], [-1.236263, 37.741196], [-1.234959, 37.741133], [-1.228238, 37.736479], [-1.221977, 37.735211], [-1.215749, 37.73395], [-1.212858, 37.733548], [-1.209382, 37.733514], [-1.204296, 37.733412], [-1.197961, 37.733102], [-1.192747, 37.73283], [-1.188412, 37.732491], [-1.185537, 37.732695], [-1.183518, 37.732832], [-1.177603, 37.734278], [-1.176289, 37.734561], [-1.173006, 37.73653], [-1.169959, 37.737769], [-1.167834, 37.738498], [-1.162191, 37.740144], [-1.161032, 37.739847], [-1.159144, 37.736504], [-1.158285, 37.734697], [-1.157373, 37.732558], [-1.155335, 37.732278], [-1.15276, 37.732312], [-1.151312, 37.732389], [-1.149531, 37.73216], [-1.145089, 37.731456], [-1.141291, 37.730658], [-1.13767, 37.729781], [-1.137128, 37.730539], [-1.135305, 37.729521], [-1.133717, 37.728876], [-1.132027, 37.728372], [-1.130777, 37.728163], [-1.129838, 37.727778], [-1.128937, 37.727456], [-1.128438, 37.72762], [-1.126915, 37.728384], [-1.12243, 37.727943], [-1.120354, 37.727727], [-1.116089, 37.727628], [-1.112838, 37.726253], [-1.110784, 37.725215], [-1.100398, 37.723756], [-1.098509, 37.723249], [-1.097866, 37.723077], [-1.096665, 37.721481], [-1.093146, 37.720548], [-1.090442, 37.719648], [-1.085179, 37.719202], [-1.082717, 37.718562], [-1.079665, 37.717725], [-1.078042, 37.716387], [-1.076961, 37.715553], [-1.074949, 37.713669], [-1.073776, 37.712946], [-1.072418, 37.711518], [-1.070851, 37.710211], [-1.069306, 37.709294], [-1.06664, 37.707557], [-1.066258, 37.707269], [-1.06618, 37.707191], [-1.066125, 37.707099], [-1.065605, 37.704782], [-1.063529, 37.703534], [-1.05825, 37.701717], [-1.055337, 37.700653], [-1.051577, 37.699188], [-1.0475, 37.697473], [-1.043773, 37.695885], [-1.042744, 37.695333], [-1.029765, 37.692708], [-1.027506, 37.690078], [-1.023826, 37.688248], [-1.023462, 37.687569], [-1.021809, 37.684614], [-1.021268, 37.683531], [-1.021901, 37.682419], [-1.021568, 37.681383], [-1.016262, 37.679169], [-1.013708, 37.680323], [-1.011005, 37.680408], [-1.008119, 37.679186], [-1.007142, 37.678116], [-1.006413, 37.675585], [-1.006112, 37.67398], [-1.004836, 37.673233], [-1.002926, 37.672944], [-0.999407, 37.672222], [-0.997465, 37.672545], [-0.995072, 37.67128], [-0.991617, 37.669609], [-0.987376, 37.669165], [-0.984734, 37.667946], [-0.984425, 37.666053], [-0.981929, 37.665268], [-0.980294, 37.665155], [-0.976457, 37.661457], [-0.974831, 37.658432], [-0.972684, 37.654158], [-0.970326, 37.652651], [-0.966114, 37.650424], [-0.959495, 37.648274], [-0.958438, 37.64781], [-0.949885, 37.642866], [-0.934792, 37.631904], [-0.933881, 37.630796], [-0.933653, 37.629817], [-0.934157, 37.627924], [-0.934141, 37.626778], [-0.932271, 37.625361], [-0.929686, 37.620183], [-0.929767, 37.619784], [-0.930482, 37.619243], [-0.931344, 37.616512], [-0.932316, 37.612971], [-0.932217, 37.610315], [-0.931937, 37.609435], [-0.930241, 37.608637], [-0.928855, 37.608008], [-0.927883, 37.606846], [-0.926875, 37.605396], [-0.926192, 37.60414], [-0.926261, 37.603392], [-0.926174, 37.603075], [-0.924246, 37.601527], [-0.923112, 37.599335], [-0.922853, 37.599037], [-0.922323, 37.598988], [-0.921041, 37.598022], [-0.918804, 37.594649], [-0.918879, 37.594256], [-0.919031, 37.593424], [-0.919204, 37.592731], [-0.919315, 37.59248], [-0.919978, 37.5918], [-0.919827, 37.587445], [-0.920023, 37.586263], [-0.920313, 37.585287], [-0.920898, 37.584305], [-0.92117, 37.584066], [-0.921509, 37.583802], [-0.921435, 37.582171], [-0.922045, 37.5814]]]}}
]
}
