{
"type": "FeatureCollection",
"features": [
{"type": "Feature", "properties": {"ProjectID": "P6177", "id": 1, "Name": "Fife-Aberdeen"}, "geometry": {"type": "MultiLineString", "coordinates": [[[-3.313367, 56.093287], [-3.225312, 56.156495], [-3.307321, 56.270508], [-3.340125, 56.352388], [-3.29092, 56.447693], [-3.167905, 56.529193], [-2.938279, 56.615032], [-2.790661, 56.691669], [-2.634843, 56.759161], [-2.503628, 56.822044], [-2.413418, 56.871379], [-2.315006, 56.983261], [-2.298604, 57.059149], [-2.224796, 57.121529], [-2.094817, 57.150627]]]}}
]
}
