{
"type": "FeatureCollection",
"features": [
{"type": "Feature", "properties": {"ProjectID": "P6256", "id": null}, "geometry": {"type": "MultiLineString", "coordinates": [[[44.428317, 33.272673], [44.447806, 33.229863], [44.447259, 33.204154], [44.434679, 33.183915], [44.421004, 33.161489], [44.410611, 33.124293], [44.409517, 33.075611], [44.417722, 33.029663], [44.429756, 32.994656], [44.440695, 32.964571], [44.443977, 32.920265], [44.435226, 32.867754], [44.422098, 32.848062], [44.391466, 32.810866], [44.341143, 32.775859], [44.275504, 32.767107], [44.220804, 32.753979], [44.142037, 32.740851], [44.054895, 32.739347], [44.0084, 32.731125], [43.989803, 32.717724], [43.967444, 32.695314], [43.953205, 32.665144], [43.946847, 32.658102], [43.947488, 32.654597], [43.947838, 32.651093], [43.948223, 32.647598], [43.946163, 32.640632], [43.942069, 32.627231], [43.940365, 32.626505]]]}}
]
}
