{
"type": "FeatureCollection",
"features": [
{"type": "Feature", "properties": {"ProjectID": "P6301", "id": null}, "geometry": {"type": "MultiLineString", "coordinates": [[[-81.56474, 23.057651], [-81.576371, 23.069787], [-81.580417, 23.073327], [-81.604184, 23.074338], [-81.612275, 23.080912], [-81.621883, 23.09406], [-81.635031, 23.094566], [-81.638571, 23.090521], [-81.6411, 23.086981], [-81.6411, 23.081924], [-81.646156, 23.074844], [-81.649191, 23.065742], [-81.650202, 23.052088], [-81.654247, 23.046526], [-81.65627, 23.039446], [-81.65627, 23.02023], [-81.660316, 22.979269], [-81.651213, 22.964604], [-81.649191, 22.954996], [-81.643122, 22.948927], [-81.637054, 22.946905], [-81.602667, 22.909484], [-81.60115, 22.893807], [-81.603679, 22.87358], [-81.605701, 22.851329], [-81.592553, 22.842733], [-81.585094, 22.821114], [-81.580543, 22.804932], [-81.579026, 22.745767], [-81.579532, 22.723011], [-81.579532, 22.717448], [-81.571441, 22.709357], [-81.560821, 22.707334], [-81.549696, 22.717448], [-81.525929, 22.716942], [-81.515815, 22.716942], [-81.505196, 22.736159], [-81.479405, 22.756892], [-81.473337, 22.786728], [-81.46828, 22.810495], [-81.453615, 22.843365], [-81.44603, 22.843365], [-81.43895, 22.853479], [-81.425297, 22.895957], [-81.424285, 22.923769], [-81.424791, 22.934389], [-81.422262, 22.945008], [-81.420745, 22.970799], [-81.415688, 22.974844], [-81.415688, 22.991532], [-81.407597, 23.006197], [-81.398495, 23.014288], [-81.396472, 23.029964], [-81.39091, 23.041595], [-81.388887, 23.056766], [-81.379785, 23.060306], [-81.368154, 23.071431], [-81.350455, 23.081545], [-81.339329, 23.087107]]]}}
]
}
