{
"type": "FeatureCollection",
"features": [
{"type": "Feature", "properties": {"ProjectID": "P6330", "FID": 78, "Nombre": "POLIDUCTO PASCUALES - CUENCA", "Productos": " ", "Clase": "Poliductos", "Año": 2022, "Fuente": "MINISTERIO DE ENERGIA Y RECURSOS NATURALES NO RENOVABLES", "Shape__Length": 210782.844646314}, "geometry": {"type": "MultiLineString", "coordinates": [[[-78.893626, -2.838528], [-78.893633, -2.837427], [-78.892538, -2.836355], [-78.892472, -2.836139], [-78.8929, -2.834895], [-78.893193, -2.834699], [-78.894065, -2.833506], [-78.894291, -2.83045], [-78.894791, -2.829608], [-78.8963, -2.82768], [-78.8965, -2.826153], [-78.897244, -2.825296], [-78.898003, -2.82506], [-78.899689, -2.824036], [-78.901976, -2.822324], [-78.90321, -2.820806], [-78.903968, -2.820376], [-78.904004, -2.819438], [-78.903483, -2.818345], [-78.90349, -2.817097], [-78.903793, -2.816143], [-78.90343, -2.814553], [-78.903632, -2.813922], [-78.902971, -2.812379], [-78.902296, -2.811854], [-78.901643, -2.81001], [-78.900976, -2.808543], [-78.900943, -2.808145], [-78.901, -2.807639], [-78.903251, -2.800413], [-78.903616, -2.799831], [-78.904662, -2.799038], [-78.905314, -2.798001], [-78.905617, -2.797044], [-78.907412, -2.795873], [-78.907975, -2.793815], [-78.906709, -2.791526], [-78.90612, -2.788045], [-78.905573, -2.786484], [-78.904172, -2.784264], [-78.903313, -2.783611], [-78.902045, -2.78212], [-78.901911, -2.781441], [-78.902029, -2.780905], [-78.902963, -2.779144], [-78.903962, -2.775305], [-78.903336, -2.773601], [-78.902828, -2.771154], [-78.903106, -2.77011], [-78.902862, -2.769114], [-78.904558, -2.764163], [-78.903471, -2.761813], [-78.903282, -2.759951], [-78.903684, -2.759382], [-78.90255, -2.757192], [-78.902335, -2.756068], [-78.902707, -2.75393], [-78.902813, -2.75182], [-78.903092, -2.749895], [-78.904239, -2.749056], [-78.905271, -2.747665], [-78.909315, -2.745669], [-78.910079, -2.744718], [-78.910844, -2.743944], [-78.911574, -2.742645], [-78.912047, -2.742176], [-78.911683, -2.739492], [-78.913, -2.735691], [-78.914476, -2.732374], [-78.916707, -2.730288], [-78.917972, -2.728149], [-78.918618, -2.727517], [-78.918967, -2.726646], [-78.920597, -2.724331], [-78.921408, -2.718451], [-78.923026, -2.716834], [-78.923317, -2.7148], [-78.926015, -2.712516], [-78.925619, -2.70933], [-78.927629, -2.707837], [-78.929232, -2.705629], [-78.930143, -2.703968], [-78.930821, -2.701202], [-78.932187, -2.699398], [-78.935817, -2.695528], [-78.935985, -2.693996], [-78.935806, -2.692012], [-78.93765, -2.687377], [-78.93941, -2.686221], [-78.941165, -2.681813], [-78.939461, -2.680254], [-78.93786, -2.679905], [-78.934596, -2.677688], [-78.931907, -2.67433], [-78.930021, -2.673694], [-78.928941, -2.671603], [-78.928793, -2.671317], [-78.927479, -2.669936], [-78.927192, -2.669765], [-78.925997, -2.669054], [-78.924576, -2.666033], [-78.923684, -2.664424], [-78.92377, -2.662495], [-78.922412, -2.658097], [-78.920578, -2.651173], [-78.919833, -2.649512], [-78.91923, -2.646145], [-78.916957, -2.639292], [-78.917532, -2.636982], [-78.917456, -2.633316], [-78.915538, -2.627218], [-78.91696, -2.623626], [-78.919289, -2.61892], [-78.921952, -2.610612], [-78.921242, -2.59802], [-78.920494, -2.595676], [-78.919794, -2.588441], [-78.914063, -2.580047], [-78.911321, -2.579404], [-78.910249, -2.576376], [-78.9077, -2.574271], [-78.904259, -2.563889], [-78.90394, -2.560376], [-78.904472, -2.558463], [-78.903645, -2.553717], [-78.903874, -2.553328], [-78.906807, -2.55223], [-78.908932, -2.550177], [-78.909567, -2.545502], [-78.908812, -2.540892], [-78.906686, -2.537644], [-78.905733, -2.535364], [-78.906668, -2.533403], [-78.906569, -2.532229], [-78.905637, -2.528681], [-78.903839, -2.526694], [-78.902669, -2.524631], [-78.902704, -2.522965], [-78.902882, -2.521778], [-78.903247, -2.518925], [-78.904949, -2.515588], [-78.905169, -2.513366], [-78.905881, -2.511502], [-78.906791, -2.507963], [-78.909621, -2.502015], [-78.914764, -2.496791], [-78.918379, -2.495215], [-78.921058, -2.49491], [-78.923758, -2.494104], [-78.924716, -2.493563], [-78.931526, -2.492248], [-78.933398, -2.490479], [-78.934445, -2.489915], [-78.938094, -2.490003], [-78.939988, -2.489332], [-78.940641, -2.488845], [-78.941783, -2.487091], [-78.942986, -2.486341], [-78.944889, -2.484567], [-78.946979, -2.483475], [-78.952347, -2.481634], [-78.953435, -2.48157], [-78.955615, -2.479917], [-78.957129, -2.479354], [-78.960384, -2.478734], [-78.963201, -2.479213], [-78.964779, -2.479183], [-78.966578, -2.478275], [-78.969574, -2.477866], [-78.971293, -2.477395], [-78.972826, -2.47841], [-78.974863, -2.478584], [-78.976088, -2.479061], [-78.976587, -2.479361], [-78.977911, -2.479996], [-78.980814, -2.482305], [-78.982088, -2.4827], [-78.986093, -2.485872], [-78.988869, -2.48664], [-78.991163, -2.487808], [-78.992168, -2.488729], [-78.99539, -2.492545], [-78.996295, -2.493606], [-78.997161, -2.49351], [-79.000249, -2.490742], [-79.001176, -2.489329], [-79.001685, -2.489006], [-79.004759, -2.488718], [-79.00698, -2.486863], [-79.010417, -2.480396], [-79.011517, -2.479681], [-79.013159, -2.47907], [-79.016732, -2.476315], [-79.018463, -2.475581], [-79.020419, -2.475058], [-79.022219, -2.474828], [-79.025452, -2.475052], [-79.031389, -2.474433], [-79.036901, -2.471963], [-79.038844, -2.471893], [-79.041873, -2.470839], [-79.043597, -2.47056], [-79.049319, -2.467767], [-79.049482, -2.46716], [-79.050966, -2.466316], [-79.051724, -2.466321], [-79.052602, -2.466612], [-79.054384, -2.467618], [-79.055157, -2.467289], [-79.05829, -2.467518], [-79.062111, -2.464695], [-79.066198, -2.463572], [-79.06772, -2.463669], [-79.07808, -2.462392], [-79.078255, -2.463081], [-79.079804, -2.463206], [-79.080821, -2.463955], [-79.081967, -2.463672], [-79.082972, -2.464233], [-79.085506, -2.463422], [-79.088725, -2.462702], [-79.090753, -2.461791], [-79.095726, -2.461192], [-79.09868, -2.461153], [-79.099329, -2.461328], [-79.099751, -2.461591], [-79.101792, -2.461916], [-79.103185, -2.462874], [-79.104, -2.463435], [-79.105614, -2.464036], [-79.108201, -2.465407], [-79.10903, -2.46595], [-79.111551, -2.465749], [-79.112376, -2.465874], [-79.112937, -2.46627], [-79.113957, -2.467487], [-79.114904, -2.467404], [-79.115371, -2.467166], [-79.116723, -2.466835], [-79.116991, -2.465734], [-79.117015, -2.465489], [-79.117028, -2.465062], [-79.117258, -2.464012], [-79.117699, -2.46349], [-79.117856, -2.463139], [-79.118007, -2.46263], [-79.118761, -2.462516], [-79.118942, -2.462382], [-79.119058, -2.462046], [-79.119323, -2.461815], [-79.119423, -2.461645], [-79.120365, -2.461638], [-79.121457, -2.460773], [-79.122204, -2.460885], [-79.122769, -2.460779], [-79.123548, -2.460203], [-79.12513, -2.459776], [-79.126074, -2.459701], [-79.127986, -2.460684], [-79.130187, -2.460844], [-79.133342, -2.461161], [-79.135815, -2.461046], [-79.136369, -2.461052], [-79.137158, -2.461034], [-79.137786, -2.46092], [-79.138407, -2.460749], [-79.138832, -2.460917], [-79.139504, -2.46094], [-79.139868, -2.460686], [-79.140104, -2.460658], [-79.140393, -2.460891], [-79.140603, -2.460939], [-79.140932, -2.460873], [-79.141346, -2.460493], [-79.141698, -2.460196], [-79.141971, -2.460242], [-79.142417, -2.460682], [-79.142797, -2.460945], [-79.143161, -2.46107], [-79.143575, -2.460875], [-79.143868, -2.460851], [-79.144161, -2.461073], [-79.144417, -2.461087], [-79.145014, -2.460745], [-79.145443, -2.460682], [-79.145799, -2.461191], [-79.146441, -2.461501], [-79.146717, -2.461514], [-79.147815, -2.461402], [-79.148482, -2.46109], [-79.149294, -2.461512], [-79.149884, -2.46146], [-79.15074, -2.461852], [-79.15295, -2.462064], [-79.154193, -2.462639], [-79.154481, -2.463298], [-79.155496, -2.464023], [-79.157257, -2.466282], [-79.157746, -2.466434], [-79.158177, -2.466637], [-79.158593, -2.466535], [-79.158947, -2.466739], [-79.15918, -2.467027], [-79.160254, -2.46748], [-79.1619, -2.469057], [-79.162145, -2.469434], [-79.162462, -2.469571], [-79.16296, -2.469538], [-79.163207, -2.469609], [-79.163631, -2.469931], [-79.163832, -2.470341], [-79.164155, -2.470597], [-79.164698, -2.471297], [-79.165016, -2.471543], [-79.165355, -2.471891], [-79.165462, -2.4723], [-79.165707, -2.472717], [-79.166221, -2.473013], [-79.166288, -2.47338], [-79.166581, -2.474027], [-79.166642, -2.474427], [-79.166889, -2.474493], [-79.167497, -2.474539], [-79.167764, -2.474622], [-79.168047, -2.474858], [-79.168283, -2.47503], [-79.168704, -2.475117], [-79.169065, -2.4753], [-79.169406, -2.475649], [-79.169805, -2.476112], [-79.170125, -2.476396], [-79.170562, -2.476517], [-79.170782, -2.476764], [-79.170886, -2.476807], [-79.171429, -2.4767], [-79.171774, -2.476766], [-79.172015, -2.476999], [-79.172945, -2.477241], [-79.173918, -2.477098], [-79.175062, -2.475105], [-79.175664, -2.474768], [-79.178483, -2.474585], [-79.181428, -2.47446], [-79.187617, -2.475771], [-79.187856, -2.47558], [-79.188635, -2.47496], [-79.188849, -2.474842], [-79.189219, -2.473969], [-79.189422, -2.473303], [-79.189403, -2.472434], [-79.189508, -2.471951], [-79.190803, -2.471391], [-79.192743, -2.471321], [-79.193046, -2.47154], [-79.194805, -2.473705], [-79.195257, -2.474402], [-79.195645, -2.474596], [-79.196912, -2.475927], [-79.197551, -2.476392], [-79.200515, -2.478481], [-79.201236, -2.479641], [-79.20268, -2.48074], [-79.2041, -2.482191], [-79.205792, -2.483458], [-79.206613, -2.484266], [-79.207533, -2.484734], [-79.211055, -2.486857], [-79.213097, -2.488247], [-79.215331, -2.489025], [-79.216182, -2.488868], [-79.21705, -2.489215], [-79.217747, -2.48976], [-79.220895, -2.490416], [-79.222971, -2.488776], [-79.223475, -2.488478], [-79.224328, -2.48856], [-79.226308, -2.488109], [-79.227377, -2.487844], [-79.227939, -2.487867], [-79.228616, -2.487511], [-79.229168, -2.487417], [-79.229948, -2.486777], [-79.231057, -2.485439], [-79.231912, -2.484438], [-79.232131, -2.483909], [-79.23265, -2.483256], [-79.233159, -2.483187], [-79.234115, -2.483152], [-79.235032, -2.482932], [-79.235569, -2.483028], [-79.236105, -2.482894], [-79.236509, -2.482472], [-79.238237, -2.482082], [-79.24009, -2.482267], [-79.24201, -2.481979], [-79.243098, -2.482074], [-79.244084, -2.482076], [-79.245268, -2.48192], [-79.247412, -2.483561], [-79.249222, -2.484657], [-79.249816, -2.484859], [-79.251154, -2.484704], [-79.251936, -2.485113], [-79.253278, -2.485063], [-79.254463, -2.484623], [-79.255986, -2.483861], [-79.256453, -2.483377], [-79.257443, -2.48235], [-79.259311, -2.481543], [-79.261347, -2.479955], [-79.262203, -2.479663], [-79.26314, -2.480034], [-79.263973, -2.480947], [-79.267095, -2.4831], [-79.271597, -2.485654], [-79.274534, -2.486269], [-79.275779, -2.486722], [-79.276229, -2.487086], [-79.277046, -2.488748], [-79.277373, -2.489331], [-79.277524, -2.489589], [-79.277982, -2.489457], [-79.280483, -2.489557], [-79.281906, -2.4898], [-79.283198, -2.489369], [-79.284349, -2.48983], [-79.28513, -2.490639], [-79.284743, -2.492902], [-79.287022, -2.496172], [-79.288405, -2.49863], [-79.29041, -2.500828], [-79.292578, -2.502053], [-79.294946, -2.502842], [-79.298812, -2.503157], [-79.29986, -2.502593], [-79.300549, -2.501288], [-79.303977, -2.500492], [-79.306122, -2.498365], [-79.306009, -2.497393], [-79.306173, -2.496897], [-79.305292, -2.496363], [-79.304655, -2.494582], [-79.304957, -2.492326], [-79.310027, -2.489997], [-79.317053, -2.484189], [-79.321525, -2.482773], [-79.322825, -2.482637], [-79.369313, -2.483785], [-79.377857, -2.481751], [-79.380372, -2.479979], [-79.396025, -2.474818], [-79.40457, -2.468105], [-79.408602, -2.467859], [-79.408603, -2.466693], [-79.408747, -2.466693]]]}}
]
}
