{
"type": "FeatureCollection",
"features": [
{"type": "Feature", "properties": {"ProjectID": "P6406", "id": 1, "Name": "Heide-Brunsbuttel"}, "geometry": {"type": "MultiLineString", "coordinates": [[[9.07351, 54.15778], [9.074066, 54.147594], [9.067915, 54.140389], [9.067915, 54.120567], [9.063815, 54.104943], [9.065865, 54.095326], [9.065865, 54.085105], [9.053564, 54.07849], [9.044338, 54.056231], [9.042287, 54.025531], [9.034086, 54.012884], [9.02076, 53.996014], [9.016659, 53.980343], [9.015634, 53.959842], [9.025885, 53.942348], [9.039212, 53.924846], [9.056639, 53.913979], [9.085342, 53.907337], [9.116096, 53.912771], [9.128974, 53.913375], [9.139994, 53.913903], [9.144799, 53.912734], [9.153192, 53.911035], [9.159343, 53.908582]]]}}
]
}
