{
"type": "FeatureCollection",
"features": [
{"type": "Feature", "properties": {"ProjectID": "P6452"}, "geometry": {"type": "LineString", "coordinates": [[49.480638, 40.197592], [49.484324, 40.192012], [49.471581, 40.185168], [49.450012, 40.18008], [49.447381, 40.179493], [49.445067, 40.171678], [49.44057, 40.158424], [49.439346, 40.149213], [49.437217, 40.141332], [49.43436, 40.138258], [49.424086, 40.118737], [49.416761, 40.105727], [49.406661, 40.094618], [49.402497, 40.08881], [49.399703, 40.083123], [49.399068, 40.08189], [49.399266, 40.081114], [49.397546, 40.078954], [49.403595, 40.073431], [49.408266, 40.068387], [49.412878, 40.047725], [49.417852, 40.027691], [49.423641, 40.001327], [49.426284, 40.001778], [49.426169, 40.002229], [49.428477, 40.002441], [49.430069, 40.002653]]}}
]
}
