{
"type": "FeatureCollection",
"features": [
{"type": "Feature", "properties": {"ProjectID": "P6460", "OBJECTID": 266, "Nome_Dut_1": "OPIMAC", "Ini_Ctc_Mn": " ", "Ini_Oper": " ", "Categoria": "Dutos Instalados", "Etapa": " ", "Cap_MMm3_d": " ", "Ext_Km": "28,8", "Diam_Pol_m": "8", "Diam_Pol_x": "8", "Traçado": "BR E&P", "CLASSIFIC": "OLEODUTO", "TIPO_USO": "TRANSFERÊNCIA", "PRODUTOS": "PETRÓLEO", "UP_DOWN": "UPSTREAM", "ORIG_DUTO": "PILAR", "DEST_DUTO": "BAMAC (TERMINAL DE MACEIÓ)", "COMPRIM_KM": 28.8, "TIPO_MATER": "RÍGIDO TERRESTRE", "OPERADOR": "DT/REGIONAL NNE", "MUNIC_ORIG": "PILAR", "MUNIC_DEST": "MACEIÓ", "Dmax": 0.0, "Dmin": 0.0, "Pmax_op": 0.0, "Shape_Leng": 0.0, "Shape_Le_1": 0.258522835396, "Shape_Length": 0.2585250287730159}, "geometry": {"type": "MultiLineString", "coordinates": [[[-35.906055, -9.607292], [-35.905957, -9.608173], [-35.899913, -9.611984], [-35.89216, -9.616815], [-35.884427, -9.622072], [-35.860562, -9.637473], [-35.858973, -9.638479], [-35.8585, -9.63852], [-35.857252, -9.643526], [-35.855041, -9.652294], [-35.854085, -9.656173], [-35.853336, -9.657485], [-35.850391, -9.660847], [-35.837359, -9.673986], [-35.837701, -9.674378], [-35.83689, -9.675445], [-35.840154, -9.67981], [-35.840701, -9.680655], [-35.834347, -9.685649], [-35.827213, -9.691182], [-35.821189, -9.695859], [-35.818335, -9.692694], [-35.817586, -9.692904], [-35.816803, -9.693948], [-35.816452, -9.693714], [-35.816296, -9.693731], [-35.815465, -9.695024], [-35.815283, -9.694977], [-35.814346, -9.696669], [-35.809666, -9.703196], [-35.809466, -9.703628], [-35.80909, -9.703877], [-35.808666, -9.703946], [-35.808321, -9.703906], [-35.808139, -9.703859], [-35.802052, -9.70019], [-35.795966, -9.696521], [-35.791749, -9.693995], [-35.790816, -9.693836], [-35.78515, -9.696105], [-35.783823, -9.696672], [-35.783538, -9.696949], [-35.783573, -9.697031], [-35.78145, -9.697947], [-35.781342, -9.697877], [-35.779474, -9.698636], [-35.778708, -9.698791], [-35.777366, -9.698218], [-35.777106, -9.697846], [-35.776836, -9.697518], [-35.775323, -9.69586], [-35.770786, -9.691464], [-35.765098, -9.685636], [-35.758999, -9.680117], [-35.755672, -9.677738], [-35.752375, -9.675719], [-35.748878, -9.673665], [-35.747731, -9.672967], [-35.742971, -9.671061], [-35.740612, -9.670673], [-35.738221, -9.670379], [-35.735055, -9.670295], [-35.733699, -9.670287], [-35.731344, -9.670224], [-35.728459, -9.671158], [-35.726703, -9.672045], [-35.724431, -9.67369], [-35.724034, -9.674123], [-35.722631, -9.675194], [-35.721831, -9.674165], [-35.720178, -9.675649], [-35.720159, -9.675766], [-35.719797, -9.675999]]]}}
]
}
