{
"type": "FeatureCollection",
"features": [
{"type": "Feature", "properties": {"ProjectID": "P6471", "layer": "-1", "location": "underground", "man_made": "pipeline", "name": "Conway Bushton System", "operator": "Oneok", "substance": "ngl", "usage": "transmission"}, "geometry": {"type": "LineString", "coordinates": [[-96.880154, 37.791924], [-96.8942, 37.791833], [-96.899071, 37.792454], [-96.903244, 37.792507], [-96.905138, 37.792151], [-96.907812, 37.792507], [-96.921644, 37.791731], [-96.935999, 37.791611], [-96.937196, 37.792522], [-96.94771, 37.7933], [-96.956883, 37.79397], [-96.965879, 37.8021], [-96.971093, 37.802884], [-96.980374, 37.803104], [-96.988458, 37.805796], [-96.98849, 37.806995], [-96.988812, 37.807207], [-96.99202, 37.80716], [-97.00092, 37.812242], [-97.003891, 37.813234], [-97.005689, 37.813569], [-97.007657, 37.814238], [-97.012276, 37.814217], [-97.019341, 37.816082], [-97.022216, 37.816955], [-97.043127, 37.825375], [-97.0513, 37.828756], [-97.05834, 37.831349], [-97.065132, 37.834762], [-97.070315, 37.83743], [-97.090151, 37.847126], [-97.105687, 37.854669], [-97.115737, 37.859455], [-97.122936, 37.862655], [-97.134563, 37.868455], [-97.146376, 37.874358], [-97.152129, 37.87712], [-97.154328, 37.878458], [-97.161481, 37.882022], [-97.169191, 37.885195], [-97.180204, 37.887161], [-97.18113, 37.887951], [-97.185859, 37.890205], [-97.188573, 37.893662], [-97.189177, 37.89389], [-97.189645, 37.894348], [-97.197695, 37.898213], [-97.207331, 37.905672], [-97.218962, 37.912446], [-97.226121, 37.916535], [-97.235273, 37.921762], [-97.240735, 37.925054], [-97.243759, 37.926252], [-97.255343, 37.93231], [-97.266718, 37.93991], [-97.272746, 37.941872], [-97.283135, 37.947086], [-97.300109, 37.956804], [-97.30655, 37.95977], [-97.313498, 37.96297], [-97.320482, 37.967191], [-97.323487, 37.970317], [-97.326598, 37.972355], [-97.327793, 37.972385], [-97.336329, 37.977475], [-97.34596, 37.980977], [-97.354852, 37.986064], [-97.363251, 37.992014], [-97.366636, 37.993992], [-97.371472, 37.999777], [-97.380839, 38.006895], [-97.390288, 38.014074], [-97.409114, 38.023148], [-97.417965, 38.032223], [-97.423944, 38.036356], [-97.428657, 38.043158], [-97.439302, 38.052064], [-97.441264, 38.053978], [-97.445776, 38.057567], [-97.454885, 38.065023], [-97.463873, 38.074074], [-97.475633, 38.085915], [-97.479582, 38.088971], [-97.48337, 38.094005], [-97.491055, 38.101749], [-97.500538, 38.108921], [-97.508392, 38.115973], [-97.518888, 38.125397], [-97.524602, 38.130526], [-97.528102, 38.133812], [-97.536956, 38.140975], [-97.545467, 38.148715], [-97.547184, 38.153006], [-97.55872, 38.159207], [-97.565279, 38.166988], [-97.57447, 38.174017], [-97.578861, 38.177979], [-97.581865, 38.180433], [-97.583313, 38.181386], [-97.591869, 38.1889], [-97.610248, 38.203436], [-97.629249, 38.219436], [-97.638223, 38.228805], [-97.643791, 38.233714], [-97.645358, 38.235888], [-97.649676, 38.237776], [-97.660722, 38.250474], [-97.666022, 38.253452], [-97.674551, 38.260508], [-97.685162, 38.269429], [-97.704726, 38.283254], [-97.708737, 38.289883], [-97.713004, 38.296874], [-97.722402, 38.303855], [-97.731714, 38.31123], [-97.741156, 38.318613], [-97.750179, 38.325986], [-97.757313, 38.333779], [-97.763547, 38.340672], [-97.771851, 38.349751], [-97.777644, 38.355905], [-97.787236, 38.362615], [-97.787274, 38.365643], [-97.794628, 38.365622], [-97.79606, 38.36611], [-97.800207, 38.369382], [-97.801554, 38.371464], [-97.801559, 38.372057]]}},
{"type": "Feature", "properties": {"ProjectID": "P6471", "layer": "-1", "location": "underground", "man_made": "pipeline", "name": "Conway Bushton System", "operator": "Oneok", "substance": "ngl", "usage": "transmission"}, "geometry": {"type": "LineString", "coordinates": [[-98.354796, 38.524854], [-98.354598, 38.524862], [-98.354306, 38.5251], [-98.349658, 38.525288], [-98.348033, 38.525286], [-98.334644, 38.521701], [-98.312954, 38.515904], [-98.309349, 38.515295], [-98.308695, 38.514422], [-98.294501, 38.510699], [-98.257325, 38.500288], [-98.238443, 38.494721], [-98.222323, 38.490077], [-98.191434, 38.48241], [-98.187668, 38.480142], [-98.182787, 38.479479], [-98.173667, 38.475909], [-98.16443, 38.474649], [-98.15251, 38.474569], [-98.127319, 38.474779], [-98.109015, 38.474078], [-98.099627, 38.473255], [-98.093029, 38.473112], [-98.090873, 38.472608], [-98.072001, 38.472369], [-98.035094, 38.449598], [-98.034965, 38.438371], [-98.032808, 38.438212], [-98.027911, 38.436648], [-98.025556, 38.43448], [-98.021806, 38.43456], [-98.017428, 38.433264], [-98.007821, 38.430135], [-98.00552, 38.429253], [-98.003014, 38.428278], [-98.001078, 38.427689], [-97.998181, 38.427059], [-97.989169, 38.42555], [-97.975409, 38.42144], [-97.961376, 38.417502], [-97.939392, 38.410882], [-97.930976, 38.408431], [-97.924377, 38.406603], [-97.906208, 38.401642], [-97.897169, 38.399271], [-97.888001, 38.396795], [-97.869569, 38.391775], [-97.861474, 38.386431], [-97.855021, 38.381086], [-97.848111, 38.376115], [-97.832624, 38.374959], [-97.814273, 38.37334], [-97.805733, 38.372612], [-97.805137, 38.372116], [-97.802755, 38.372129]]}},
{"type": "Feature", "properties": {"ProjectID": "P6471", "layer": "-1", "location": "underground", "man_made": "pipeline", "name": "Conway Bushton System", "operator": "Oneok", "substance": "ngl", "usage": "transmission"}, "geometry": {"type": "LineString", "coordinates": [[-96.88016, 37.791948], [-96.894178, 37.791888], [-96.899063, 37.792488], [-96.903244, 37.792567], [-96.905138, 37.792223], [-96.907812, 37.792564], [-96.921643, 37.791763], [-96.935978, 37.79164], [-96.93718, 37.792564], [-96.94771, 37.793344], [-96.956856, 37.794012], [-96.965842, 37.802159], [-96.971083, 37.802939], [-96.980369, 37.803164], [-96.988399, 37.805842], [-96.988431, 37.807025], [-96.988796, 37.807249], [-96.992012, 37.807194], [-97.000877, 37.812284], [-97.003854, 37.813272], [-97.005646, 37.813594], [-97.00762, 37.814272], [-97.012265, 37.814272], [-97.019303, 37.816137], [-97.022206, 37.816993], [-97.043065, 37.825396], [-97.051278, 37.828796], [-97.058313, 37.831376], [-97.06511, 37.834785], [-97.070287, 37.83745], [-97.090112, 37.847131], [-97.105638, 37.854724], [-97.115729, 37.859474], [-97.12292, 37.862678], [-97.134553, 37.868493], [-97.146349, 37.874405], [-97.152091, 37.877159], [-97.154292, 37.878498], [-97.16145, 37.882064], [-97.169169, 37.885242], [-97.180171, 37.887205], [-97.18109, 37.88799], [-97.185814, 37.890241], [-97.188529, 37.893701], [-97.189137, 37.89393], [-97.189603, 37.894386], [-97.197656, 37.898252], [-97.20729, 37.905709], [-97.218927, 37.912483], [-97.226095, 37.916578], [-97.235243, 37.921802], [-97.2407, 37.925092], [-97.243711, 37.926283], [-97.255306, 37.932347], [-97.266689, 37.939951], [-97.272707, 37.941907], [-97.283106, 37.947127], [-97.300081, 37.956846], [-97.306526, 37.959815], [-97.313474, 37.963015], [-97.320465, 37.967241], [-97.323451, 37.970354], [-97.326561, 37.972391], [-97.327764, 37.972426], [-97.336295, 37.977513], [-97.345921, 37.981011], [-97.35481, 37.986096], [-97.363202, 37.992043], [-97.3666, 37.994029], [-97.37143, 37.99981], [-97.380802, 38.006932], [-97.390251, 38.014111], [-97.409075, 38.023183], [-97.417918, 38.032251], [-97.423895, 38.036383], [-97.428617, 38.043193], [-97.439268, 38.052104], [-97.441219, 38.054009], [-97.445734, 38.0576], [-97.454841, 38.065054], [-97.463828, 38.074103], [-97.475589, 38.085944], [-97.479549, 38.08901], [-97.483327, 38.094038], [-97.491002, 38.101775], [-97.500509, 38.108964], [-97.508351, 38.116006], [-97.518844, 38.125427], [-97.524556, 38.130555], [-97.528063, 38.133848], [-97.536916, 38.14101], [-97.545425, 38.148749], [-97.547142, 38.153039], [-97.55868, 38.159242], [-97.565239, 38.167022], [-97.57443, 38.174051], [-97.578817, 38.17801], [-97.581824, 38.180467], [-97.583272, 38.181419], [-97.591826, 38.188932], [-97.610205, 38.203468], [-97.629203, 38.219466], [-97.638177, 38.228834], [-97.643743, 38.233741], [-97.645315, 38.235922], [-97.649635, 38.237811], [-97.660679, 38.250507], [-97.665983, 38.253488], [-97.674508, 38.26054], [-97.68512, 38.269462], [-97.704677, 38.283283], [-97.708684, 38.289903], [-97.712956, 38.296902], [-97.72236, 38.303888], [-97.731672, 38.311263], [-97.741113, 38.318645], [-97.750133, 38.326016], [-97.757265, 38.333806], [-97.763498, 38.340699], [-97.771803, 38.349778], [-97.7776, 38.355937], [-97.787177, 38.362636], [-97.787215, 38.36569], [-97.794616, 38.365669], [-97.796027, 38.366149], [-97.800158, 38.36941], [-97.801494, 38.371475], [-97.8015, 38.372057]]}}
]
}
