{
"type": "FeatureCollection",
"features": [
{"type": "Feature", "properties": {"ProjectID": "P6479", "layer": "-1", "location": "underground", "man_made": "pipeline", "name": "Chevron Lateral", "oneway": "yes", "operator": "Enterprise Products Operating, LLC", "ref": "404", "substance": "y-grade", "usage": "transmission"}, "geometry": {"type": "LineString", "coordinates": [[-88.487686, 30.354726], [-88.49172, 30.354706], [-88.491755, 30.35587], [-88.491873, 30.356911], [-88.493151, 30.359871], [-88.493156, 30.362278], [-88.495238, 30.364635], [-88.495128, 30.372158], [-88.495269, 30.378915], [-88.495451, 30.378905], [-88.495439, 30.378986], [-88.495011, 30.379006], [-88.494958, 30.384232]]}},
{"type": "Feature", "properties": {"ProjectID": "P6479", "layer": "-1", "location": "underground", "man_made": "pipeline", "name": "Tri-States NGL Pipeline (Main)", "oneway": "yes", "operator": "Enterprise Products Operating, LLC", "ref": "400", "substance": "y-grade", "usage": "transmission"}, "geometry": {"type": "LineString", "coordinates": [[-88.473517, 30.413274], [-88.473643, 30.414979], [-88.473637, 30.418401], [-88.473777, 30.419766], [-88.488281, 30.429279], [-88.494804, 30.433716], [-88.500552, 30.437556], [-88.506383, 30.44089], [-88.509351, 30.444934], [-88.511208, 30.450321], [-88.514158, 30.459252], [-88.514215, 30.459449], [-88.514708, 30.45983], [-88.516345, 30.465014], [-88.519516, 30.474494], [-88.520653, 30.477919], [-88.523894, 30.490294], [-88.526282, 30.490839], [-88.526257, 30.497148], [-88.530724, 30.504764], [-88.530838, 30.511715], [-88.534893, 30.512787], [-88.537143, 30.516602], [-88.537383, 30.517462], [-88.537838, 30.519841], [-88.538577, 30.519982], [-88.541811, 30.525523], [-88.54063, 30.529675], [-88.540301, 30.531231], [-88.541357, 30.535949], [-88.540959, 30.53738], [-88.54178, 30.541271], [-88.545135, 30.541331], [-88.546259, 30.542299], [-88.547479, 30.542278], [-88.548433, 30.542403], [-88.550536, 30.546309], [-88.551547, 30.549084], [-88.551516, 30.553002], [-88.560853, 30.553002], [-88.561308, 30.553731], [-88.561599, 30.553616], [-88.569225, 30.550414], [-88.577759, 30.550185], [-88.581859, 30.549925], [-88.583687, 30.550042], [-88.585929, 30.55056], [-88.587208, 30.550418], [-88.597787, 30.549958], [-88.60522, 30.549653], [-88.605837, 30.549543], [-88.615256, 30.54723], [-88.624796, 30.54445], [-88.634223, 30.541476], [-88.647021, 30.537821], [-88.652777, 30.536013], [-88.661918, 30.533272], [-88.677153, 30.528639], [-88.679696, 30.527096], [-88.681682, 30.525735], [-88.688577, 30.524577], [-88.694036, 30.523572], [-88.700524, 30.52237], [-88.708625, 30.520995], [-88.718578, 30.519907], [-88.727358, 30.518933], [-88.728791, 30.518494], [-88.734733, 30.517768], [-88.744828, 30.516324], [-88.746457, 30.516433], [-88.749115, 30.516058], [-88.756569, 30.514367], [-88.761911, 30.512772], [-88.770145, 30.510103], [-88.773063, 30.509093], [-88.778076, 30.507722], [-88.783934, 30.506474], [-88.793, 30.504422], [-88.808041, 30.500971], [-88.826352, 30.496872], [-88.84235, 30.49316], [-88.850574, 30.491348], [-88.862251, 30.488768], [-88.867, 30.487643], [-88.871668, 30.485977], [-88.87623, 30.483309], [-88.880093, 30.481017], [-88.884294, 30.478452], [-88.887457, 30.4775], [-88.889725, 30.477335], [-88.893569, 30.478159], [-88.896037, 30.478216], [-88.899605, 30.478266], [-88.903837, 30.478232], [-88.9126, 30.478193], [-88.914993, 30.478216], [-88.915621, 30.478155], [-88.916245, 30.478017], [-88.923863, 30.476205], [-88.93275, 30.473974], [-88.937651, 30.472839], [-88.938688, 30.472681], [-88.948973, 30.472523], [-88.964496, 30.472186], [-88.964913, 30.471657], [-88.968463, 30.469556], [-88.976139, 30.465613], [-88.97938, 30.463947], [-88.981528, 30.462983], [-88.987429, 30.461349], [-88.993962, 30.459808], [-89.002068, 30.457717], [-89.008657, 30.456088], [-89.010824, 30.455157], [-89.011304, 30.454825], [-89.012391, 30.455936], [-89.022853, 30.456524], [-89.025235, 30.456639], [-89.027857, 30.454988], [-89.030445, 30.453189], [-89.034227, 30.450643], [-89.035251, 30.449825], [-89.036089, 30.448918], [-89.038815, 30.447155], [-89.045681, 30.445577], [-89.052007, 30.444206], [-89.05803, 30.442769], [-89.062712, 30.441556], [-89.07311, 30.439005], [-89.082269, 30.436536], [-89.084813, 30.435967], [-89.087446, 30.435948], [-89.093794, 30.436017], [-89.096031, 30.436067], [-89.098053, 30.435748], [-89.106415, 30.433597], [-89.119232, 30.430451], [-89.128071, 30.428365], [-89.128557, 30.428258], [-89.136045, 30.428231], [-89.136924, 30.428249], [-89.139344, 30.428353], [-89.141631, 30.428538], [-89.146767, 30.428571], [-89.148365, 30.428636], [-89.158152, 30.428598], [-89.165038, 30.42838], [-89.172632, 30.4282], [-89.181983, 30.428026], [-89.191187, 30.428075], [-89.212207, 30.428162], [-89.212978, 30.428075], [-89.213382, 30.427988], [-89.214071, 30.427568], [-89.21433, 30.427508], [-89.218765, 30.427519], [-89.236954, 30.427623], [-89.249084, 30.427596], [-89.273306, 30.427601], [-89.337912, 30.427672], [-89.343971, 30.427852], [-89.346296, 30.42807], [-89.347907, 30.428091], [-89.353365, 30.4288], [-89.355918, 30.429039], [-89.361174, 30.429132], [-89.363714, 30.428963], [-89.368238, 30.428222], [-89.369015, 30.428255], [-89.374846, 30.428179], [-89.37767, 30.428108], [-89.384853, 30.428244], [-89.39197, 30.428099], [-89.39937, 30.428223], [-89.426034, 30.428316], [-89.441247, 30.428377], [-89.452422, 30.428335], [-89.454886, 30.428324]]}},
{"type": "Feature", "properties": {"ProjectID": "P6479", "layer": "-1", "location": "underground", "man_made": "pipeline", "name": "Tri-States NGL Pipeline (Main)", "oneway": "yes", "operator": "Enterprise Products Operating, LLC", "ref": "400", "substance": "y-grade", "usage": "transmission"}, "geometry": {"type": "LineString", "coordinates": [[-89.454886, 30.428324], [-89.461393, 30.428433], [-89.469736, 30.428595], [-89.473355, 30.428161], [-89.476831, 30.428076], [-89.47744, 30.428141], [-89.486484, 30.428148], [-89.492578, 30.42794], [-89.540864, 30.427923], [-89.548155, 30.427921], [-89.551119, 30.427921], [-89.580453, 30.427947], [-89.585366, 30.427726], [-89.593447, 30.427389], [-89.594086, 30.426493], [-89.601339, 30.425909], [-89.643057, 30.424028], [-89.648301, 30.423691], [-89.651175, 30.423392], [-89.6518, 30.423334], [-89.652484, 30.423516], [-89.654117, 30.424735], [-89.658804, 30.424502], [-89.667396, 30.424093], [-89.687717, 30.423269], [-89.699763, 30.422795], [-89.706082, 30.422432], [-89.711913, 30.422062], [-89.718526, 30.42129], [-89.722228, 30.420901], [-89.730399, 30.420291], [-89.733995, 30.419973], [-89.73413, 30.419928], [-89.737275, 30.418429], [-89.73808, 30.418196], [-89.741323, 30.418202], [-89.745995, 30.418683], [-89.757431, 30.418955], [-89.765549, 30.419026], [-89.766211, 30.418935], [-89.776616, 30.417956], [-89.786412, 30.417132], [-89.791513, 30.416093], [-89.805416, 30.416068], [-89.826166, 30.416119], [-89.826776, 30.41608], [-89.83834, 30.415775], [-89.862611, 30.415691], [-89.868532, 30.41512], [-89.870984, 30.414686], [-89.885129, 30.41368], [-89.890802, 30.413245], [-89.891727, 30.413401], [-89.892502, 30.413492], [-89.893886, 30.41344], [-89.919542, 30.408865], [-89.947409, 30.403837], [-89.958604, 30.402104], [-89.96436, 30.401111], [-89.985524, 30.397029], [-89.986095, 30.396647], [-89.990075, 30.395894], [-89.991151, 30.395615], [-89.991693, 30.395323], [-89.997524, 30.389125], [-90.00118, 30.385153], [-90.001541, 30.384634], [-90.009178, 30.372769], [-90.010916, 30.370127], [-90.02339, 30.359449], [-90.030191, 30.354657], [-90.031899, 30.35345], [-90.035969, 30.351165], [-90.039701, 30.348925], [-90.043139, 30.348223], [-90.053236, 30.344808], [-90.062148, 30.340999], [-90.066173, 30.338884], [-90.099401, 30.316002], [-90.103214, 30.316433], [-90.103849, 30.313717], [-90.168319, 30.260754], [-90.290263, 30.107173], [-90.31966, 30.069985], [-90.4018, 30.084469], [-90.406452, 30.077844], [-90.422523, 30.059269], [-90.423334, 30.058484]]}},
{"type": "Feature", "properties": {"ProjectID": "P6479", "layer": "-1", "location": "underground", "man_made": "pipeline", "name": "Pascagoula Lateral", "oneway": "yes", "operator": "Enterprise Products Operating, LLC", "ref": "399", "substance": "y-grade", "usage": "transmission"}, "geometry": {"type": "LineString", "coordinates": [[-88.498535, 30.383766], [-88.498529, 30.384219], [-88.494958, 30.384232], [-88.485192, 30.384268], [-88.484889, 30.384344], [-88.484712, 30.384431], [-88.48463, 30.384595], [-88.484636, 30.387429], [-88.484592, 30.387625], [-88.484472, 30.387777], [-88.484288, 30.387886], [-88.484105, 30.387908], [-88.480119, 30.388028], [-88.480093, 30.394028], [-88.480214, 30.395914], [-88.47991, 30.396159], [-88.479538, 30.396671], [-88.479323, 30.396993], [-88.478621, 30.399619], [-88.475589, 30.409787], [-88.473119, 30.41134], [-88.473529, 30.41231], [-88.473611, 30.413285], [-88.473517, 30.413274]]}},
{"type": "Feature", "properties": {"ProjectID": "P6479", "layer": "-1", "location": "underground", "man_made": "pipeline", "name": "Tri-States NGL Pipeline (Main)", "oneway": "yes", "operator": "Enterprise Products Operating, LLC", "ref": "400", "substance": "y-grade", "usage": "transmission"}, "geometry": {"type": "LineString", "coordinates": [[-88.173133, 30.390184], [-88.173135, 30.390671], [-88.171073, 30.390691], [-88.170718, 30.391033], [-88.170819, 30.39752], [-88.170623, 30.397844], [-88.170509, 30.402906], [-88.174947, 30.405551], [-88.174495, 30.42512], [-88.225535, 30.425249], [-88.233992, 30.42183], [-88.234278, 30.421778], [-88.243983, 30.421759], [-88.244758, 30.421843], [-88.246436, 30.422226], [-88.246316, 30.425386], [-88.292796, 30.425353], [-88.293677, 30.425256], [-88.297754, 30.42473], [-88.301501, 30.424399], [-88.301757, 30.424419], [-88.30193, 30.424458], [-88.309551, 30.427358], [-88.313983, 30.428947], [-88.316977, 30.432431], [-88.334929, 30.432541], [-88.343731, 30.435084], [-88.347387, 30.435136], [-88.347907, 30.435395], [-88.351586, 30.435324], [-88.35215, 30.435162], [-88.360682, 30.434993], [-88.361223, 30.434649], [-88.373051, 30.434234], [-88.376963, 30.434234], [-88.384343, 30.44305], [-88.385013, 30.443919], [-88.385111, 30.448686], [-88.387202, 30.450385], [-88.387353, 30.451001], [-88.387255, 30.451896], [-88.387308, 30.452337], [-88.387646, 30.453505], [-88.388211, 30.455943], [-88.387105, 30.457429], [-88.387865, 30.459835], [-88.388647, 30.461015], [-88.388986, 30.461404], [-88.389798, 30.462124], [-88.390159, 30.463285], [-88.391348, 30.462831], [-88.393251, 30.461787], [-88.394327, 30.461229], [-88.396502, 30.459932], [-88.399323, 30.458129], [-88.412309, 30.449899], [-88.432329, 30.43727], [-88.442162, 30.430958], [-88.442937, 30.430491], [-88.442907, 30.429732], [-88.444118, 30.428688], [-88.4456, 30.428746], [-88.45287, 30.424219], [-88.46133, 30.418842], [-88.473043, 30.411362], [-88.473441, 30.41232], [-88.473517, 30.413274]]}}
]
}
