{
"type": "FeatureCollection",
"features": [
{"type": "Feature", "properties": {"ProjectID": "P6485", "Name": "Untitled Path", "description": null, "timestamp": null, "begin": null, "end": null, "altitudeMode": null, "tessellate": 1, "extrude": 0, "visibility": -1, "drawOrder": null, "icon": null}, "geometry": {"type": "LineString", "coordinates": [[57.648257, 19.722292], [57.648111, 19.718306], [57.639333, 19.714673], [57.575197, 19.714807], [57.574653, 19.713928], [57.574545, 19.712219], [57.574733, 19.696107], [57.574634, 19.691638], [57.57621, 19.682015], [57.577685, 19.673552], [57.580611, 19.655005], [57.580141, 19.645361], [57.579237, 19.635469], [57.577862, 19.62834], [57.578266, 19.626994], [57.576635, 19.62358], [57.575536, 19.623006], [57.570313, 19.613048], [57.570159, 19.612365], [57.570293, 19.611063], [57.570243, 19.595857], [57.569946, 19.581724], [57.569155, 19.577404], [57.566936, 19.568342], [57.56599, 19.556837], [57.57043, 19.549093], [57.56909, 19.545567], [57.5605, 19.522362], [57.56141, 19.513385], [57.562774, 19.507922], [57.566166, 19.499053], [57.568273, 19.496069], [57.568735, 19.492015], [57.570914, 19.486062], [57.573384, 19.481733], [57.574942, 19.478653], [57.577503, 19.472516], [57.579949, 19.457356], [57.580877, 19.4397], [57.580961, 19.426389], [57.581131, 19.424851], [57.587795, 19.424793], [57.588458, 19.424237], [57.589785, 19.404145], [57.592097, 19.358584], [57.597882, 19.336539], [57.60562, 19.30627], [57.608812, 19.294127], [57.617124, 19.277056], [57.629221, 19.277071], [57.637481, 19.276694], [57.642327, 19.276887], [57.649322, 19.276677], [57.65485, 19.276467], [57.656039, 19.276068], [57.655759, 19.246947], [57.702742, 19.209904], [57.726302, 19.191478], [57.741425, 19.177992], [57.741231, 19.167718]]}}
]
}
