{
"type": "FeatureCollection",
"features": [
{"type": "Feature", "properties": {"ProjectID": "P6509", "location": "underground", "man_made": "pipeline", "name": "Farmington Lateral", "operator": "Enterprise Products", "substance": "propane", "usage": "transmission"}, "geometry": {"type": "LineString", "coordinates": [[-91.946518, 40.90778], [-91.937574, 40.901398], [-91.93339, 40.897984], [-91.932274, 40.897303], [-91.924217, 40.893264], [-91.923004, 40.892429], [-91.915441, 40.888658], [-91.913327, 40.887441], [-91.909347, 40.883921], [-91.90012, 40.877289], [-91.892502, 40.871282], [-91.89159, 40.870308], [-91.887803, 40.868799], [-91.863524, 40.857586], [-91.863524, 40.857164], [-91.854093, 40.851703], [-91.834309, 40.840649], [-91.833311, 40.840608], [-91.82475, 40.835981], [-91.823795, 40.835121], [-91.804912, 40.824251], [-91.797091, 40.820524], [-91.783154, 40.813744], [-91.783159, 40.812973], [-91.782982, 40.81251], [-91.776717, 40.809627], [-91.775215, 40.809546], [-91.768895, 40.806663], [-91.763864, 40.804154], [-91.761106, 40.801839], [-91.756944, 40.800418], [-91.74997, 40.796243], [-91.743436, 40.792507], [-91.738136, 40.789144], [-91.718631, 40.777466], [-91.699673, 40.765933], [-91.698525, 40.765864], [-91.681788, 40.755921], [-91.675201, 40.751922], [-91.661221, 40.742429], [-91.65679, 40.741254], [-91.655914, 40.74049], [-91.630966, 40.726848], [-91.630966, 40.725966], [-91.623841, 40.7226], [-91.603993, 40.7132], [-91.602781, 40.712712], [-91.594981, 40.707368], [-91.586688, 40.701911], [-91.580229, 40.697785], [-91.579553, 40.696599], [-91.565117, 40.689319], [-91.563851, 40.689282], [-91.554321, 40.682775], [-91.545218, 40.67656], [-91.53321, 40.668359], [-91.533188, 40.66783], [-91.398783, 40.610173], [-91.382647, 40.608316], [-91.352885, 40.58817], [-91.351018, 40.588782], [-91.345632, 40.587282], [-91.340504, 40.586891], [-91.268106, 40.58958], [-90.969629, 40.6205], [-90.884571, 40.618937], [-90.088019, 40.676602], [-90.046778, 40.676375], [-90.031114, 40.683177], [-89.995365, 40.683665], [-89.967229, 40.690031], [-89.966338, 40.690063], [-89.966124, 40.691349], [-89.964112, 40.691332], [-89.964058, 40.691938]]}}
]
}
