{
"type": "FeatureCollection",
"features": [
{"type": "Feature", "properties": {"ProjectID": "P6517", "layer": "-1", "location": "underground", "man_made": "pipeline", "name": "South Leg Mainline", "operator": "Enterprise Products", "substance": "lpg", "usage": "transmission"}, "geometry": {"type": "LineString", "coordinates": [[-97.830948, 38.379873], [-97.831187, 38.379785], [-97.831554, 38.379156], [-97.83204, 38.378948], [-97.832037, 38.377392], [-97.832772, 38.377177], [-97.832746, 38.36767], [-97.832789, 38.362387], [-97.832886, 38.350439], [-97.833961, 38.347966], [-97.838084, 38.340514], [-97.841722, 38.333578], [-97.84196, 38.33311], [-97.846309, 38.318683], [-97.850418, 38.304218], [-97.85126, 38.300859], [-97.851676, 38.300579], [-97.856069, 38.289587], [-97.862773, 38.275043], [-97.869502, 38.260799], [-97.870409, 38.258765], [-97.870798, 38.258486], [-97.878596, 38.246531], [-97.885037, 38.236639], [-97.885533, 38.236274], [-97.886114, 38.234045], [-97.889016, 38.226183], [-97.889744, 38.224366], [-97.902312, 38.204945], [-97.904294, 38.203034], [-97.904683, 38.200828], [-97.911432, 38.188287], [-97.915376, 38.180937], [-97.91946, 38.173577], [-97.921016, 38.172576], [-97.92254, 38.172142], [-97.925425, 38.169347], [-97.929524, 38.164293], [-97.939707, 38.151751], [-97.945304, 38.144843], [-97.954069, 38.134021], [-97.957757, 38.129831], [-97.960099, 38.127268], [-97.96961, 38.115533], [-97.970556, 38.114237], [-97.978894, 38.106497], [-97.986031, 38.096508], [-97.988718, 38.093566], [-97.992564, 38.091725], [-97.99746, 38.087043], [-98.006253, 38.086426], [-98.010492, 38.081917], [-98.013346, 38.079282], [-98.019953, 38.073765], [-98.02039, 38.073264], [-98.021656, 38.071698], [-98.031869, 38.062537], [-98.040791, 38.057693], [-98.040909, 38.057055], [-98.050847, 38.051008], [-98.051549, 38.050352], [-98.060183, 38.042595], [-98.069227, 38.035167], [-98.077644, 38.02825], [-98.087134, 38.020435], [-98.087938, 38.020335], [-98.095808, 38.013844], [-98.105587, 38.005767], [-98.113924, 37.998872], [-98.126428, 37.986942], [-98.138841, 37.975082], [-98.144646, 37.971483], [-98.145391, 37.969956], [-98.16039, 37.956135], [-98.178401, 37.942315], [-98.179359, 37.942038], [-98.197008, 37.934209], [-98.214705, 37.926326], [-98.233346, 37.918032], [-98.252803, 37.912259], [-98.270752, 37.904124], [-98.284544, 37.897792], [-98.284845, 37.897204], [-98.314384, 37.883561], [-98.314746, 37.883548], [-98.314749, 37.883383], [-98.325086, 37.878696], [-98.325636, 37.878503], [-98.343531, 37.871186], [-98.357602, 37.865452], [-98.378223, 37.855144], [-98.38156, 37.854136], [-98.381946, 37.853314], [-98.389531, 37.850722], [-98.399776, 37.846666], [-98.413349, 37.843165], [-98.416321, 37.841834], [-98.426964, 37.839216], [-98.457413, 37.829285], [-98.468721, 37.82437], [-100.3832, 36.90469], [-100.391697, 36.903025], [-100.392169, 36.899731], [-100.392856, 36.894308], [-100.399615, 36.891168], [-100.422554, 36.875927], [-100.431802, 36.870125], [-100.438089, 36.86719], [-100.441844, 36.865301], [-100.451092, 36.860288], [-100.460019, 36.848819], [-100.469546, 36.842294], [-100.493214, 36.825927], [-100.500574, 36.820671], [-100.502612, 36.819348], [-100.503642, 36.818472], [-100.503878, 36.817923], [-100.505337, 36.813164], [-100.505466, 36.811979], [-100.506002, 36.801825], [-100.514972, 36.791688], [-100.516388, 36.790124], [-100.516967, 36.789213], [-100.519907, 36.785845], [-100.520765, 36.784951], [-100.522696, 36.783198], [-100.522997, 36.782064], [-100.523877, 36.782012], [-100.532009, 36.775499], [-100.533833, 36.77421], [-100.536897, 36.772258], [-100.542709, 36.768598], [-100.554089, 36.761765], [-100.562715, 36.757106], [-100.571556, 36.752275], [-100.578658, 36.748372], [-100.583743, 36.745467], [-100.58722, 36.743111], [-100.589838, 36.74103], [-100.592627, 36.739723], [-100.595781, 36.737866], [-100.597498, 36.736938], [-100.600116, 36.735734], [-100.604364, 36.733499], [-100.606639, 36.731899], [-100.625328, 36.717659], [-100.635285, 36.711673], [-100.649597, 36.702934], [-100.6626, 36.693781], [-100.668802, 36.689221], [-100.684702, 36.676832], [-100.693671, 36.670412], [-100.73266, 36.645108], [-100.748474, 36.634709], [-100.752637, 36.632074], [-100.771841, 36.616644], [-100.772077, 36.615938], [-100.774438, 36.613492], [-100.807869, 36.594492], [-100.810701, 36.592838], [-100.828146, 36.581019], [-100.828704, 36.580967], [-100.861535, 36.55884], [-100.862543, 36.558357], [-100.862715, 36.557995], [-100.869045, 36.552652], [-100.877425, 36.545801], [-100.883142, 36.540809], [-100.88735, 36.537328], [-100.893828, 36.532602], [-100.89827, 36.529654], [-100.90063, 36.527947], [-100.901596, 36.526912], [-100.90254, 36.526136], [-100.903141, 36.525585], [-100.904235, 36.524947], [-100.906832, 36.523567], [-100.908613, 36.522567], [-100.917968, 36.516273], [-100.928761, 36.508995], [-100.939126, 36.503838], [-100.940756, 36.500095], [-100.940735, 36.499698], [-100.945177, 36.49147], [-100.948138, 36.488279], [-100.947751, 36.487589], [-100.949425, 36.482482], [-100.954232, 36.468282], [-100.956592, 36.461431], [-100.959489, 36.454631], [-100.961163, 36.450333], [-100.963308, 36.445293], [-100.968329, 36.43302], [-100.969231, 36.426649], [-100.969424, 36.425648], [-100.969531, 36.422695], [-100.970346, 36.418655], [-100.974531, 36.407448], [-101.122845, 35.577081], [-101.123722, 35.575669], [-101.124457, 35.572737], [-101.124435, 35.570223], [-101.1198, 35.565022], [-101.11965, 35.563006], [-101.119278, 35.561383], [-102.553387, 33.468714], [-102.557016, 33.461104], [-102.559431, 33.455849], [-102.563016, 33.450834], [-102.566932, 33.445348], [-102.568101, 33.443599], [-102.568862, 33.443452], [-102.573252, 33.435306], [-102.575878, 33.430225], [-102.578073, 33.425346], [-102.579814, 33.421374], [-102.581679, 33.417111], [-102.584902, 33.409719], [-102.588553, 33.401662], [-102.590864, 33.39675], [-102.594185, 33.389194], [-102.594961, 33.387687], [-102.598224, 33.381428], [-102.601875, 33.37366], [-102.606166, 33.364562], [-102.610944, 33.354278], [-102.612148, 33.353954], [-102.618614, 33.341366], [-102.623993, 33.33108], [-102.627625, 33.324135], [-102.629761, 33.320257], [-102.634635, 33.311104], [-102.640034, 33.301366], [-102.645607, 33.291076], [-102.651219, 33.280735], [-102.656773, 33.270182], [-102.659783, 33.26372], [-102.662871, 33.255422], [-102.664502, 33.25297], [-102.671279, 33.240887], [-102.677629, 33.228298], [-102.680212, 33.223084], [-102.682135, 33.21977], [-102.687999, 33.208153], [-102.694738, 33.195349], [-102.696136, 33.192635], [-102.700292, 33.184769], [-102.707205, 33.171312], [-102.713608, 33.159285], [-102.719616, 33.147896], [-102.725667, 33.136091], [-102.731611, 33.124645], [-102.734701, 33.119074], [-102.741352, 33.106062], [-102.747833, 33.094126], [-102.748884, 33.091986], [-102.750214, 33.091591], [-102.754721, 33.0828], [-102.760621, 33.071113], [-102.766587, 33.059424], [-102.773367, 33.045719], [-102.779139, 33.033865], [-102.780598, 33.031203], [-102.789675, 33.022621], [-102.789611, 33.022028], [-102.799717, 33.012906], [-102.80888, 33.004448], [-102.809073, 32.996332], [-102.809116, 32.987027], [-102.809073, 32.977794], [-102.809094, 32.973816], [-102.812849, 32.966957], [-102.817098, 32.959251], [-102.81845, 32.957145], [-102.825917, 32.948376], [-102.829136, 32.944523], [-102.829822, 32.944361], [-102.834736, 32.934168], [-102.838513, 32.927612], [-102.839929, 32.925235], [-102.841302, 32.924388], [-102.841388, 32.922893], [-102.847761, 32.913653], [-102.85467, 32.903529], [-102.858619, 32.897764], [-102.865657, 32.887277], [-102.86939, 32.882106], [-102.875592, 32.873131], [-102.877179, 32.870698], [-102.879819, 32.863255], [-102.881728, 32.8581], [-102.882973, 32.857018], [-102.890269, 32.846563], [-102.898465, 32.840037], [-102.908465, 32.82592], [-102.919751, 32.80996], [-102.932626, 32.800798], [-102.944986, 32.789543], [-102.950715, 32.784203], [-102.950727, 32.779337]]}}
]
}
