{
"type": "FeatureCollection",
"features": [
{"type": "Feature", "properties": {"ProjectID": "P6519", "layer": "-1", "location": "underground", "man_made": "pipeline", "name": "Sterling Pipeline I", "operator": "Oneok NGL Pipeline, LLC", "substance": "ngl", "usage": "transmission"}, "geometry": {"type": "LineString", "coordinates": [[-97.755208, 36.774621], [-97.750672, 36.774505], [-97.749921, 36.774226], [-97.749921, 36.768996], [-97.748891, 36.768068], [-97.748086, 36.767612], [-97.742046, 36.767578], [-97.741343, 36.767325], [-97.740372, 36.766487], [-97.736993, 36.759602], [-97.73268, 36.753262], [-97.731736, 36.752386], [-97.726398, 36.745349], [-97.724698, 36.743105], [-97.722675, 36.737977], [-97.718754, 36.723321], [-97.714618, 36.716385], [-97.69794, 36.709646], [-97.696556, 36.709354], [-97.695601, 36.708743], [-97.691266, 36.70187], [-97.690698, 36.695062], [-97.690199, 36.679791], [-97.685945, 36.670562], [-97.682276, 36.666199], [-97.68146, 36.661693], [-97.680387, 36.659576], [-97.678194, 36.655742], [-97.677491, 36.655393], [-97.676981, 36.654868], [-97.676504, 36.654141], [-97.675554, 36.64979], [-97.675597, 36.647844], [-97.674766, 36.646721], [-97.674551, 36.645516], [-97.675018, 36.642989], [-97.675428, 36.642206], [-97.674192, 36.64048], [-97.671646, 36.637191], [-97.671389, 36.636528], [-97.665367, 36.628904], [-97.660518, 36.623506], [-97.659439, 36.623196], [-97.659171, 36.622959], [-97.659042, 36.621995], [-97.654563, 36.615015], [-97.651141, 36.607936], [-97.650543, 36.60726], [-97.650175, 36.606408], [-97.647455, 36.603656], [-97.647128, 36.60183], [-97.646653, 36.600419], [-97.643212, 36.595387], [-97.642676, 36.594078], [-97.642665, 36.593419], [-97.641634, 36.592159], [-97.461293, 36.235783], [-97.42825, 36.167494], [-97.426191, 36.159634], [-97.426062, 36.145077], [-97.338787, 36.002885], [-97.330785, 35.997696], [-97.200968, 35.724903], [-97.146107, 35.640284], [-97.145201, 35.632514], [-97.140587, 35.629688], [-97.140608, 35.622146], [-97.133316, 35.609314], [-97.125287, 35.597977], [-97.122712, 35.594295], [-97.118566, 35.588252], [-97.118588, 35.585385], [-97.118095, 35.582718], [-97.11758, 35.580853], [-97.116442, 35.578233], [-97.116207, 35.575864], [-97.114519, 35.574057], [-97.112558, 35.57262], [-97.112472, 35.570242], [-97.114403, 35.568514], [-97.114382, 35.564231], [-97.11406, 35.558942], [-97.113974, 35.550653], [-97.11498, 35.550017], [-97.114988, 35.548036], [-97.114994, 35.546144], [-97.114961, 35.542957], [-97.112119, 35.538905], [-97.111794, 35.538834], [-97.108743, 35.532853], [-97.106864, 35.53082], [-97.105634, 35.530539], [-97.100994, 35.518371], [-97.099364, 35.514024], [-97.098118, 35.512154], [-97.097298, 35.508263], [-97.097366, 35.500011], [-97.074393, 35.463128], [-96.832178, 34.948614], [-96.823121, 34.932851], [-96.822349, 34.926129], [-96.819691, 34.919838], [-96.815828, 34.916214], [-96.812134, 34.906421], [-96.811963, 34.891292], [-96.808015, 34.887773], [-96.806942, 34.876186], [-96.803902, 34.870249], [-96.80223, 34.869651], [-96.801286, 34.868103], [-96.796433, 34.866552], [-96.793983, 34.860027], [-96.78351, 34.840759], [-96.783381, 34.822061], [-96.777848, 34.818328], [-96.776603, 34.814237], [-96.770893, 34.8068], [-96.77055, 34.803457], [-96.767982, 34.801559], [-96.757683, 34.78852], [-96.748324, 34.782349], [-96.742182, 34.766757], [-96.741883, 34.761518], [-96.73755, 34.759932], [-96.735702, 34.748244], [-96.73478, 34.722903], [-96.729363, 34.720985], [-96.723063, 34.714676], [-96.722999, 34.709172], [-96.708838, 34.693366], [-96.706176, 34.665618], [-96.706348, 34.646412], [-96.707549, 34.63117], [-96.702144, 34.626653], [-96.699827, 34.615774], [-96.688929, 34.60511], [-96.682749, 34.593594], [-96.673051, 34.58448], [-96.651591, 34.552813], [-96.648845, 34.546805], [-96.636234, 34.531116], [-96.627306, 34.526378], [-96.619575, 34.514063], [-96.610992, 34.485414], [-96.602237, 34.468363], [-96.595457, 34.449752], [-96.5825, 34.431105], [-96.570352, 34.420199], [-96.568762, 34.41357], [-96.56683, 34.401636], [-96.566144, 34.375364], [-96.556618, 34.361763], [-96.555116, 34.356023], [-96.550051, 34.346916], [-96.548978, 34.340999], [-96.544606, 34.332468], [-96.541642, 34.330411], [-96.533102, 34.30333], [-96.527011, 34.298617], [-96.522241, 34.290878], [-96.522026, 34.267261], [-96.518506, 34.26201], [-96.519624, 34.256181], [-96.522799, 34.249195], [-96.522842, 34.244952], [-96.514525, 34.236022], [-96.506542, 34.230522], [-96.502417, 34.225583], [-96.496191, 34.208647], [-96.496234, 34.207301], [-96.494785, 34.205081], [-96.493195, 34.204619], [-96.479283, 34.175742], [-96.479283, 34.170878], [-96.474865, 34.160586], [-96.472074, 34.155825], [-96.470936, 34.15003], [-96.470807, 34.142644], [-96.468469, 34.135737], [-96.467272, 34.12903], [-96.465888, 34.119724], [-96.453853, 34.100986], [-96.454454, 34.067771], [-96.451236, 34.065497], [-96.45115, 34.042555], [-96.451794, 34.038677], [-96.452096, 34.033777], [-96.456686, 34.029867], [-96.456514, 34.017595], [-96.455283, 34.007028], [-96.447258, 34.003969], [-96.44743, 33.996213], [-96.450563, 33.994185], [-96.450777, 33.982513], [-96.456287, 33.976183], [-96.453842, 33.866602], [-96.450947, 33.862175], [-96.448207, 33.861918], [-96.44775, 33.852917], [-96.447773, 33.847857], [-96.44773, 33.838055], [-96.447661, 33.829532], [-96.446932, 33.779553], [-96.441655, 33.744511], [-96.440327, 33.743594], [-96.438739, 33.739472], [-96.434212, 33.737956], [-96.434319, 33.737117], [-96.432989, 33.734583], [-96.43095, 33.733352], [-96.424727, 33.723108], [-96.424878, 33.721092], [-96.421874, 33.719896], [-96.420629, 33.715969], [-96.419942, 33.704599], [-96.414192, 33.699172], [-96.408355, 33.690156], [-96.408377, 33.689656], [-96.40636, 33.687228], [-96.409214, 33.679854], [-96.411574, 33.671658], [-96.412518, 33.663925], [-96.411681, 33.656942], [-96.4046, 33.644206], [-96.401382, 33.633952], [-96.400116, 33.632934], [-96.39885, 33.628271], [-96.399279, 33.615048], [-96.398871, 33.614012], [-96.398807, 33.612421], [-96.394751, 33.611117], [-96.393313, 33.609437], [-96.395631, 33.605023], [-96.39076, 33.601091], [-96.384773, 33.594156], [-96.379731, 33.590188], [-96.378615, 33.581286], [-96.3728, 33.577979], [-96.367908, 33.506477], [-96.359131, 33.489066], [-96.360462, 33.472833], [-96.358659, 33.448219], [-96.359346, 33.4477], [-96.358209, 33.440771], [-96.355976, 33.437491], [-96.356307, 33.4313], [-96.355784, 33.431205], [-96.35527, 33.427141], [-96.354533, 33.426352], [-96.352054, 33.413339], [-96.350554, 33.405162], [-96.342201, 33.393971], [-96.341987, 33.390388], [-96.343167, 33.38435], [-96.343489, 33.379118], [-96.346343, 33.376126], [-96.347094, 33.37023], [-96.352072, 33.365374], [-96.350023, 33.344735], [-96.339551, 33.219886], [-96.339186, 33.215784], [-96.338253, 33.213028], [-96.338425, 33.211134], [-96.338918, 33.209878], [-96.337502, 33.193108], [-96.336215, 33.193036], [-96.336043, 33.189104], [-96.338081, 33.189086], [-96.338768, 33.183842], [-96.350956, 32.983144], [-96.34954, 32.979796], [-96.34954, 32.97193], [-96.348681, 32.97103], [-96.34866, 32.968113], [-96.351503, 32.965764], [-96.350806, 32.887984], [-96.343446, 32.817142], [-96.341901, 32.808486], [-96.344647, 32.805817], [-96.340313, 32.791604], [-96.333876, 32.706495], [-96.328168, 32.594118], [-96.330438, 32.590685], [-96.330544, 32.589434], [-96.331028, 32.586393], [-96.331675, 32.582727], [-96.332302, 32.577448], [-96.332825, 32.570799], [-96.333038, 32.566716], [-96.333399, 32.558714], [-96.333374, 32.554838], [-96.333665, 32.55171], [-96.333948, 32.548641], [-96.334839, 32.541421], [-96.335281, 32.536378], [-96.336226, 32.52977], [-96.336359, 32.527185], [-96.33612, 32.526797], [-96.335997, 32.522528], [-96.335926, 32.521217], [-96.336341, 32.52106], [-96.336253, 32.517007], [-96.336377, 32.512447], [-96.336668, 32.507224], [-96.336765, 32.504221], [-96.335299, 32.50317], [-96.33445, 32.499526], [-96.335051, 32.49884], [-96.335329, 32.495703], [-96.335267, 32.492661], [-96.335288, 32.488085], [-96.334466, 32.487295], [-96.334378, 32.482309], [-96.334537, 32.477553], [-96.334537, 32.474922], [-96.334777, 32.468332], [-96.337395, 32.467174], [-96.337611, 32.461684], [-96.337611, 32.459678], [-96.33777, 32.453206], [-96.337964, 32.450283], [-96.338141, 32.445929], [-96.3383, 32.441134], [-96.338203, 32.437964], [-96.337699, 32.433438], [-96.337469, 32.432916], [-96.33731, 32.428903], [-96.337231, 32.425897], [-96.336515, 32.421109], [-96.336763, 32.42049], [-96.33678, 32.416723], [-96.336851, 32.411002], [-96.336992, 32.40848], [-96.337204, 32.406682], [-96.337602, 32.403668], [-96.337726, 32.400572], [-96.337637, 32.397715], [-96.337478, 32.392589], [-96.33743, 32.388568], [-96.337334, 32.382568], [-96.3374, 32.380885], [-96.337559, 32.379125], [-96.337568, 32.375133], [-96.337682, 32.373364], [-96.337956, 32.368319], [-96.338036, 32.36614], [-96.338221, 32.36264], [-96.338897, 32.356836], [-96.349926, 32.307157], [-96.375246, 32.1605], [-96.382113, 32.157231], [-96.384773, 32.131359], [-96.397648, 32.104025], [-96.393013, 32.071084], [-96.39679, 32.056318], [-96.401682, 32.054026], [-96.40327, 32.051699], [-96.389408, 32.020048], [-96.398056, 32.015709], [-96.395931, 32.01257], [-96.440778, 31.971532], [-96.440361, 31.965469], [-96.440658, 31.962362], [-96.44214, 31.959358], [-96.443361, 31.958796], [-96.445611, 31.954194], [-96.44657, 31.951915], [-96.445885, 31.938283], [-96.445551, 31.935256], [-96.444905, 31.929705], [-96.443685, 31.92633], [-96.441818, 31.92226], [-96.441295, 31.920483], [-96.439111, 31.918595], [-96.440735, 31.914631], [-96.441164, 31.911589], [-96.442773, 31.907563], [-96.442559, 31.90647], [-96.433096, 31.898218], [-96.434414, 31.890221], [-96.430927, 31.887263], [-96.427195, 31.882228], [-96.427683, 31.880125], [-96.426131, 31.878511], [-96.426236, 31.876719], [-96.421562, 31.874053], [-96.420742, 31.871772], [-96.41626, 31.865758], [-96.415423, 31.865299], [-96.409754, 31.856974], [-96.405516, 31.850545], [-96.404453, 31.847434], [-96.398104, 31.839197], [-96.39507, 31.838071], [-96.383349, 31.831151], [-96.377245, 31.828054], [-96.370984, 31.824468], [-96.368194, 31.822883], [-96.360136, 31.81774], [-96.357572, 31.815918], [-96.356997, 31.815073], [-96.351573, 31.812109], [-96.347596, 31.809471], [-96.343254, 31.807455], [-96.341318, 31.805958], [-96.337324, 31.803557], [-96.326738, 31.79702], [-96.316465, 31.790854], [-96.315558, 31.789727], [-96.313465, 31.788719], [-96.313396, 31.787414], [-96.302617, 31.779764], [-96.300437, 31.778756], [-96.296165, 31.775583], [-96.293705, 31.773093], [-96.292083, 31.771921], [-96.291735, 31.769356], [-96.286223, 31.76562], [-96.283311, 31.761097], [-96.277712, 31.754928], [-96.276771, 31.753979], [-96.275201, 31.753326], [-96.274381, 31.75257], [-96.274033, 31.751621], [-96.270841, 31.749115], [-96.270893, 31.746489], [-96.268399, 31.743746], [-96.266987, 31.743731], [-96.264824, 31.741684], [-96.262871, 31.740853], [-96.262312, 31.739148], [-96.260987, 31.737946], [-96.260638, 31.736582], [-96.259417, 31.735024], [-96.25783, 31.734861], [-96.256732, 31.733927], [-96.255301, 31.733452], [-96.25497, 31.732681], [-96.243913, 31.722504], [-96.241244, 31.72111], [-96.237931, 31.718825], [-96.235751, 31.716986], [-96.232123, 31.714478], [-96.230117, 31.713024], [-96.228251, 31.710977], [-96.226769, 31.709389], [-96.21892, 31.704612], [-96.215956, 31.702742], [-96.211979, 31.699819], [-96.209381, 31.698305], [-96.205439, 31.694046], [-96.201166, 31.686834], [-96.197887, 31.682085], [-96.18833, 31.676757], [-96.187127, 31.676015], [-96.18608, 31.674278], [-96.178127, 31.66984], [-96.175912, 31.666931], [-96.173279, 31.665758], [-96.172302, 31.66512], [-96.169215, 31.665372], [-96.159379, 31.665105], [-96.157181, 31.665046], [-96.153711, 31.665179], [-96.151443, 31.664571], [-96.150065, 31.663309], [-96.147484, 31.661424], [-96.145601, 31.659063], [-96.145182, 31.653036], [-96.143804, 31.647068], [-96.144537, 31.646251], [-96.144293, 31.643118], [-96.141746, 31.640787], [-96.140796, 31.639008], [-96.139059, 31.636357], [-96.136858, 31.632264], [-96.136576, 31.630935], [-96.135137, 31.630034], [-96.134953, 31.626538], [-96.131867, 31.622068], [-96.127822, 31.618205], [-96.127232, 31.615922], [-96.125953, 31.612708], [-96.124896, 31.609965], [-96.124195, 31.609556], [-96.121662, 31.6052], [-96.120826, 31.604876], [-96.116081, 31.604635], [-96.112171, 31.603117], [-96.109946, 31.601305], [-96.106909, 31.600834], [-96.103774, 31.598216], [-96.101445, 31.594829], [-96.101113, 31.593688], [-96.100343, 31.592785], [-96.098095, 31.5895], [-96.09604, 31.58537], [-96.09395, 31.582584], [-96.092413, 31.580311], [-96.090692, 31.579431], [-96.088135, 31.57542], [-96.08677, 31.573891], [-96.084311, 31.569481], [-96.080746, 31.565699], [-96.079725, 31.565091], [-96.078803, 31.563436], [-96.075115, 31.559529], [-96.072471, 31.554951], [-96.068316, 31.550906], [-96.060201, 31.542713], [-96.057152, 31.541497], [-96.053611, 31.537222], [-96.05189, 31.535032], [-96.052185, 31.532433], [-96.051829, 31.530841], [-96.045608, 31.527665], [-96.044649, 31.527099], [-96.043099, 31.524626], [-96.038698, 31.518568], [-96.038022, 31.517657], [-96.037395, 31.517531], [-96.035268, 31.515875], [-96.034186, 31.512301], [-96.03244, 31.509334], [-96.032379, 31.505278], [-96.031567, 31.501934], [-96.029177, 31.494335], [-96.015052, 31.486452], [-96.011125, 31.483561], [-96.007091, 31.478968], [-95.999516, 31.475125], [-95.994088, 31.467091], [-95.991276, 31.464455], [-95.984324, 31.45922], [-95.980784, 31.452612], [-95.977029, 31.449647], [-95.97145, 31.444411], [-95.9666, 31.439395], [-95.955154, 31.431816], [-95.950927, 31.425407], [-95.948099, 31.421666], [-95.944709, 31.415385], [-95.944022, 31.41403], [-95.941597, 31.412437], [-95.939215, 31.409397], [-95.936083, 31.407071], [-95.933615, 31.405148], [-95.932692, 31.404983], [-95.930203, 31.401723], [-95.928143, 31.398701], [-95.926255, 31.397492], [-95.923852, 31.395972], [-95.919861, 31.390056], [-95.913016, 31.385843], [-95.906299, 31.375877], [-95.905033, 31.375383], [-95.902888, 31.371847], [-95.899712, 31.36996], [-95.893661, 31.360396], [-95.889112, 31.353781], [-95.886172, 31.352663], [-95.875508, 31.343134], [-95.874606, 31.342236], [-95.872782, 31.341228], [-95.868706, 31.335088], [-95.863813, 31.327867], [-95.861281, 31.315164], [-95.859264, 31.305026], [-95.858771, 31.304567], [-95.85862, 31.303211], [-95.854737, 31.297234], [-95.849394, 31.289001], [-95.846754, 31.286727], [-95.842849, 31.28051], [-95.841561, 31.275852], [-95.840381, 31.273101], [-95.836798, 31.267911], [-95.837013, 31.264188], [-95.836755, 31.262574], [-95.836905, 31.261436], [-95.834824, 31.258502], [-95.830661, 31.252045], [-95.831991, 31.24988], [-95.817346, 31.210181], [-95.816836, 31.205827], [-95.814952, 31.201938], [-95.814667, 31.200653], [-95.813954, 31.200199], [-95.813853, 31.198238], [-95.813212, 31.195693], [-95.813421, 31.192232], [-95.813421, 31.191531], [-95.812113, 31.188443], [-95.810857, 31.186652], [-95.810892, 31.182325], [-95.809602, 31.17946], [-95.808206, 31.176043], [-95.807753, 31.175805], [-95.806672, 31.174104], [-95.807788, 31.165792], [-95.808834, 31.163762], [-95.807561, 31.15924], [-95.807753, 31.154583], [-95.805852, 31.15118], [-95.804875, 31.149852], [-95.802538, 31.145001], [-95.798789, 31.137776], [-95.798143, 31.133731], [-95.797163, 31.128712], [-95.796434, 31.126742], [-95.795522, 31.123963], [-95.794787, 31.122696], [-95.794057, 31.121695], [-95.793483, 31.120354], [-95.793623, 31.119638], [-95.793075, 31.116253], [-95.79171, 31.1091], [-95.792058, 31.107831], [-95.792861, 31.104994], [-95.790227, 31.09802], [-95.788169, 31.093002], [-95.788134, 31.092001], [-95.79014, 31.088939], [-95.792478, 31.085324], [-95.792854, 31.084446], [-95.790864, 31.082103], [-95.79104, 31.081088], [-95.789388, 31.079098], [-95.787591, 31.076916], [-95.786556, 31.075538], [-95.784898, 31.073557], [-95.7822, 31.070148], [-95.780398, 31.067598], [-95.779276, 31.065351], [-95.778949, 31.060953], [-95.778568, 31.058587], [-95.777924, 31.056404], [-95.775945, 31.052709], [-95.773516, 31.048292], [-95.77362, 31.039566], [-95.771004, 31.037325], [-95.769679, 31.03592], [-95.763941, 31.032692], [-95.762762, 31.031626], [-95.763615, 31.028486], [-95.764321, 31.027571], [-95.765544, 31.023539], [-95.765341, 31.023328], [-95.765491, 31.022845], [-95.766371, 31.019664], [-95.767041, 31.016625], [-95.768595, 31.016198], [-95.768445, 31.014856], [-95.766884, 31.013935], [-95.766881, 31.011174], [-95.766498, 31.010471], [-95.766428, 31.010082], [-95.767265, 31.007541], [-95.767195, 31.00198], [-95.767509, 30.998587], [-95.767004, 30.997301], [-95.766027, 30.995477], [-95.765783, 30.992995], [-95.766044, 30.991381], [-95.764908, 30.989369], [-95.764173, 30.987511], [-95.763202, 30.98564], [-95.762859, 30.984568], [-95.762569, 30.983414], [-95.761861, 30.981326], [-95.762076, 30.980286], [-95.762108, 30.977918], [-95.761904, 30.976101], [-95.761276, 30.975255], [-95.758648, 30.972983], [-95.757049, 30.971612], [-95.754801, 30.96945], [-95.753509, 30.968231], [-95.753659, 30.965103], [-95.749591, 30.943697], [-95.746358, 30.941778], [-95.745129, 30.935789], [-95.741256, 30.930326], [-95.740666, 30.928607], [-95.740383, 30.925801], [-95.740272, 30.924483], [-95.739448, 30.920939], [-95.73903, 30.918387], [-95.738797, 30.916646], [-95.738428, 30.915381], [-95.7371, 30.91382], [-95.737629, 30.91113], [-95.73627, 30.90522], [-95.734682, 30.897929], [-95.731957, 30.886862], [-95.731764, 30.885371], [-95.730798, 30.884579], [-95.730348, 30.882903], [-95.720991, 30.880098], [-95.689101, 30.870391], [-95.674145, 30.869996], [-95.670209, 30.869613], [-95.662375, 30.868774], [-95.65916, 30.868378], [-95.652516, 30.867591], [-95.647506, 30.867098], [-95.641416, 30.866398], [-95.636803, 30.865869], [-95.631309, 30.86527], [-95.62908, 30.864997], [-95.6269, 30.864458], [-95.625196, 30.864572], [-95.619593, 30.863893], [-95.613371, 30.863198], [-95.607615, 30.862549], [-95.603992, 30.862127], [-95.594039, 30.860942], [-95.582495, 30.859633], [-95.565676, 30.857702], [-95.55327, 30.856288], [-95.544152, 30.855242], [-95.469521, 30.840596], [-95.462599, 30.835683], [-95.457922, 30.835258], [-95.453774, 30.830797], [-95.451865, 30.824972], [-95.451293, 30.823957], [-95.450533, 30.823118], [-95.442239, 30.819371], [-95.441075, 30.818688], [-95.438855, 30.818511], [-95.436666, 30.817646], [-95.435554, 30.816895], [-95.434847, 30.815613], [-95.434489, 30.814513], [-95.432125, 30.811032], [-95.429817, 30.809034], [-95.429081, 30.808522], [-95.420876, 30.808716], [-95.419496, 30.80861], [-95.418955, 30.807717], [-95.419071, 30.804275], [-95.419504, 30.803481], [-95.419374, 30.799382], [-95.417919, 30.796514], [-95.409122, 30.78691], [-95.405367, 30.782853], [-95.404115, 30.781321], [-95.401293, 30.778153], [-95.399872, 30.777339], [-95.398178, 30.775425], [-95.397408, 30.774839], [-95.388116, 30.774758], [-95.37926, 30.774807], [-95.37683, 30.774194], [-95.373335, 30.772668], [-95.372603, 30.771498], [-95.372623, 30.770626], [-95.373576, 30.768859], [-95.374213, 30.765025], [-95.37405, 30.763654], [-95.370426, 30.759512], [-95.368091, 30.758325], [-95.363065, 30.755969], [-95.362089, 30.75508], [-95.360754, 30.753439], [-95.35747, 30.752648], [-95.351452, 30.748933], [-95.347101, 30.74601], [-95.346118, 30.745165], [-95.344886, 30.743759], [-95.343953, 30.742041], [-95.341397, 30.738368], [-95.339516, 30.735667], [-95.336779, 30.732817], [-95.334597, 30.730574], [-95.329034, 30.726031], [-95.326603, 30.725352], [-95.323576, 30.723606], [-95.316435, 30.719334], [-95.312617, 30.715757], [-95.310519, 30.714591], [-95.303954, 30.711575], [-95.2991, 30.707068], [-95.290058, 30.69715], [-95.267102, 30.676468], [-95.236904, 30.661709], [-95.19143, 30.633106], [-95.175636, 30.628981], [-95.153613, 30.626063], [-95.150195, 30.624886], [-95.148384, 30.624921], [-95.147386, 30.625966], [-95.144118, 30.625615], [-95.139988, 30.620691], [-95.134779, 30.619357], [-95.131193, 30.613073], [-95.116491, 30.598838], [-95.11276, 30.598432], [-95.106992, 30.593091], [-95.107352, 30.590803], [-95.109626, 30.587774], [-95.110466, 30.582097], [-95.08791, 30.566767], [-95.076746, 30.553146], [-95.076746, 30.550758], [-95.066896, 30.527187], [-95.059328, 30.518569], [-95.05018, 30.511808], [-95.051438, 30.509677], [-95.040312, 30.496514], [-95.04014, 30.486444], [-95.033027, 30.475292], [-95.027001, 30.454925], [-95.027257, 30.454116], [-95.026516, 30.452163], [-95.024498, 30.450498], [-95.021836, 30.443208], [-95.012785, 30.435404], [-95.007725, 30.43009], [-95.007002, 30.425213], [-95.00781, 30.424186], [-95.007289, 30.422406], [-95.007083, 30.414026], [-95.006955, 30.402687], [-95.006838, 30.402051], [-95.006631, 30.386665], [-95.007966, 30.37705], [-95.007795, 30.376215], [-95.00766, 30.364922], [-95.007638, 30.364687], [-95.004633, 30.361439], [-95.004369, 30.361196], [-95.004219, 30.36121], [-95.003498, 30.36116], [-95.002713, 30.360632], [-95.0026, 30.360446], [-95.002464, 30.351113], [-95.002666, 30.349721], [-95.000546, 30.34288], [-95.010809, 30.33664], [-95.011024, 30.336438], [-95.014328, 30.322049], [-95.014552, 30.321492], [-95.016125, 30.314738], [-95.016154, 30.314529], [-95.023233, 30.283753], [-95.02324, 30.28368], [-95.022911, 30.282413], [-95.023072, 30.282153], [-95.022947, 30.281981], [-95.018175, 30.278338], [-95.017754, 30.278038], [-94.993474, 30.259439], [-94.99215, 30.258578], [-94.9912, 30.25785], [-94.991034, 30.25768], [-94.976069, 30.246201], [-94.975875, 30.246004], [-94.974488, 30.244956], [-94.974426, 30.244842], [-94.974409, 30.244128], [-94.973902, 30.243981], [-94.973812, 30.243773], [-94.972704, 30.240972], [-94.972397, 30.240371], [-94.971358, 30.237759], [-94.971408, 30.237579], [-94.971106, 30.236851], [-94.970995, 30.236637], [-94.961268, 30.212188], [-94.946112, 30.17414], [-94.945629, 30.155387], [-94.945644, 30.155364], [-94.945582, 30.152741], [-94.945564, 30.152726], [-94.94532, 30.142605], [-94.945252, 30.138832], [-94.94501, 30.137174], [-94.944714, 30.132059], [-94.944656, 30.120512], [-94.944739, 30.110588], [-94.944758, 30.100678], [-94.944377, 30.094168], [-94.944684, 30.085326], [-94.944637, 30.077486], [-94.944452, 30.0771], [-94.944851, 30.067172], [-94.944777, 30.055785], [-94.943768, 30.046992], [-94.943749, 30.045282], [-94.943773, 30.042201], [-94.943696, 30.040482], [-94.943589, 30.033873], [-94.943309, 30.031197], [-94.941767, 30.017068], [-94.941681, 30.016692], [-94.941269, 30.015295], [-94.938861, 30.010731], [-94.938297, 30.010101], [-94.937298, 30.008736], [-94.937216, 30.0086], [-94.937566, 30.007793], [-94.937515, 30.004041], [-94.937337, 30.003689], [-94.937345, 30.003028], [-94.937434, 30.002718], [-94.936677, 30.002304], [-94.936522, 30.002072], [-94.93645, 30.001001], [-94.936441, 29.995805], [-94.936404, 29.988532], [-94.936045, 29.988008], [-94.935652, 29.987788], [-94.93436, 29.985891], [-94.933609, 29.985406], [-94.927558, 29.978785], [-94.927472, 29.978568], [-94.927402, 29.977403], [-94.925539, 29.959376], [-94.917908, 29.953081], [-94.917129, 29.945399], [-94.917153, 29.94419], [-94.916739, 29.941023], [-94.916759, 29.940567], [-94.916622, 29.93973], [-94.915661, 29.930991], [-94.915337, 29.93074], [-94.912477, 29.904367], [-94.912483, 29.903466], [-94.91124, 29.89026], [-94.910931, 29.889368], [-94.910542, 29.88606], [-94.910189, 29.883317], [-94.90982, 29.879611], [-94.909694, 29.877987], [-94.909258, 29.877998], [-94.906809, 29.8744], [-94.901007, 29.867892], [-94.900875, 29.867613], [-94.900066, 29.867649], [-94.899744, 29.867597], [-94.897177, 29.867644], [-94.896795, 29.867224], [-94.895872, 29.867432], [-94.895601, 29.867481], [-94.895512, 29.867459], [-94.895549, 29.867402], [-94.89569, 29.867431], [-94.896736, 29.867217], [-94.896506, 29.866792], [-94.894232, 29.863456], [-94.893537, 29.863339], [-94.893528, 29.863006], [-94.89374, 29.861968], [-94.893187, 29.860681], [-94.892526, 29.858978], [-94.892481, 29.858908], [-94.892188, 29.858989], [-94.891739, 29.857903], [-94.892857, 29.85733], [-94.890523, 29.85389], [-94.891029, 29.853627], [-94.891995, 29.853831], [-94.892028, 29.853814]]}},
{"type": "Feature", "properties": {"ProjectID": "P6519", "diameter": "12.75\"", "layer": "-1", "location": "underground", "man_made": "pipeline", "name": "Sterling Pipeline II", "operator": "Oneok NGL Pipeline, LLC", "substance": "ngl", "usage": "transmission"}, "geometry": {"type": "LineString", "coordinates": [[-97.757171, 36.773964], [-97.757144, 36.773577], [-97.756632, 36.772148], [-97.755505, 36.771605], [-97.752544, 36.767071], [-97.742346, 36.759834], [-97.731677, 36.752038], [-97.726597, 36.745367], [-97.724821, 36.743032], [-97.722842, 36.737956], [-97.718925, 36.723303], [-97.714698, 36.716161], [-97.705541, 36.701888], [-97.699657, 36.692778], [-97.695558, 36.68734], [-97.692527, 36.68081], [-97.692538, 36.679136], [-97.689486, 36.6731], [-97.685763, 36.665781], [-97.681916, 36.658307], [-97.677705, 36.655092], [-97.677131, 36.651445], [-97.675645, 36.642219], [-97.671574, 36.636494], [-97.665576, 36.628814], [-97.660593, 36.623364], [-97.659558, 36.623092], [-97.659316, 36.622895], [-97.659198, 36.62199], [-97.655357, 36.61579], [-97.651709, 36.607828], [-97.647767, 36.600598], [-97.642931, 36.593404], [-97.641603, 36.59217], [-97.461262, 36.235793], [-97.428217, 36.167502], [-97.426157, 36.159637], [-97.426028, 36.145083], [-97.33876, 36.002903], [-97.330756, 35.997712], [-97.200937, 35.724914], [-97.146134, 35.640364], [-97.145233, 35.6325], [-97.14062, 35.629675], [-97.140641, 35.62214], [-97.133346, 35.609301], [-97.125315, 35.597964], [-97.122741, 35.594282], [-97.118599, 35.588245], [-97.118621, 35.585383], [-97.118127, 35.582713], [-97.117612, 35.580846], [-97.116475, 35.578228], [-97.116239, 35.575854], [-97.114544, 35.574039], [-97.112591, 35.572608], [-97.112505, 35.570252], [-97.114436, 35.568524], [-97.114415, 35.56423], [-97.114093, 35.558941], [-97.114007, 35.550666], [-97.115013, 35.55003], [-97.115021, 35.548036], [-97.115027, 35.546143], [-97.114994, 35.54295], [-97.11214, 35.538881], [-97.111819, 35.538812], [-97.108772, 35.53284], [-97.106883, 35.530797], [-97.10566, 35.530517], [-97.101025, 35.518363], [-97.099395, 35.514014], [-97.09815, 35.512145], [-97.097331, 35.508261], [-97.097399, 35.500005], [-97.074423, 35.463117], [-96.832209, 34.948604], [-96.823154, 34.932843], [-96.822381, 34.926123], [-96.81972, 34.919825], [-96.815858, 34.9162], [-96.812167, 34.906417], [-96.811996, 34.891282], [-96.808047, 34.887762], [-96.806974, 34.876179], [-96.803927, 34.870229], [-96.802254, 34.86963], [-96.80131, 34.868081], [-96.79646, 34.866532], [-96.794014, 34.860017], [-96.783543, 34.840753], [-96.783414, 34.822048], [-96.777878, 34.818313], [-96.776633, 34.814226], [-96.770926, 34.806791], [-96.770582, 34.803444], [-96.768007, 34.801541], [-96.757708, 34.788501], [-96.748352, 34.782333], [-96.742215, 34.766753], [-96.741915, 34.7615], [-96.73758, 34.759913], [-96.735735, 34.748242], [-96.734812, 34.722885], [-96.729383, 34.720962], [-96.723096, 34.714666], [-96.723032, 34.709163], [-96.70887, 34.693356], [-96.706209, 34.665617], [-96.706381, 34.646413], [-96.707583, 34.63116], [-96.702175, 34.62664], [-96.699858, 34.615762], [-96.688957, 34.605096], [-96.682777, 34.59358], [-96.673079, 34.584464], [-96.651621, 34.552801], [-96.648874, 34.546792], [-96.636257, 34.531096], [-96.627331, 34.526359], [-96.619606, 34.514054], [-96.611023, 34.485406], [-96.602268, 34.468354], [-96.595488, 34.449741], [-96.582527, 34.431089], [-96.570382, 34.420186], [-96.568794, 34.413566], [-96.566863, 34.401634], [-96.566176, 34.375356], [-96.556649, 34.361753], [-96.555147, 34.356014], [-96.550083, 34.346909], [-96.54901, 34.340991], [-96.544633, 34.332451], [-96.541672, 34.330395], [-96.533132, 34.303315], [-96.527038, 34.2986], [-96.522274, 34.290871], [-96.522059, 34.267254], [-96.51854, 34.262005], [-96.519656, 34.256188], [-96.522832, 34.2492], [-96.522875, 34.244943], [-96.514549, 34.236003], [-96.506567, 34.230503], [-96.502447, 34.225571], [-96.496224, 34.208644], [-96.496267, 34.207295], [-96.494808, 34.205059], [-96.49322, 34.204598], [-96.479316, 34.175737], [-96.479316, 34.170873], [-96.474896, 34.160575], [-96.472106, 34.155817], [-96.470969, 34.150028], [-96.47084, 34.14264], [-96.468501, 34.135732], [-96.467305, 34.129027], [-96.465921, 34.119721], [-96.46481, 34.117729], [-96.464081, 34.11454], [-96.464832, 34.072906], [-96.464403, 34.067805], [-96.465132, 34.066045], [-96.465004, 34.063343], [-96.468029, 34.056322], [-96.466441, 34.040961], [-96.467149, 34.036729], [-96.46569, 34.031181], [-96.460304, 34.025152], [-96.456548, 34.017412], [-96.45803, 34.012311], [-96.459467, 33.987246], [-96.456528, 33.976179], [-96.454082, 33.866549], [-96.451099, 33.861988], [-96.448438, 33.861739], [-96.447988, 33.852865], [-96.445091, 33.848142], [-96.44464, 33.836094], [-96.447902, 33.829571], [-96.447172, 33.77954], [-96.441722, 33.744317], [-96.440821, 33.73933], [-96.441464, 33.736118], [-96.444662, 33.729551], [-96.444469, 33.72807], [-96.445584, 33.724804], [-96.443481, 33.719271], [-96.441336, 33.718111], [-96.439791, 33.713774], [-96.440606, 33.711828], [-96.439898, 33.709579], [-96.441958, 33.705152], [-96.438503, 33.699029], [-96.436036, 33.686889], [-96.437516, 33.674979], [-96.432238, 33.665568], [-96.433783, 33.662943], [-96.43477, 33.655888], [-96.435113, 33.65019], [-96.435864, 33.649386], [-96.434834, 33.644117], [-96.432538, 33.64008], [-96.432259, 33.634381], [-96.429384, 33.629807], [-96.429019, 33.623947], [-96.428633, 33.61772], [-96.431122, 33.612752], [-96.430274, 33.611287], [-96.428171, 33.609035], [-96.429148, 33.605166], [-96.425757, 33.593763], [-96.423397, 33.590617], [-96.419535, 33.575583], [-96.419513, 33.556595], [-96.420007, 33.555487], [-96.420093, 33.553895], [-96.419685, 33.551839], [-96.421187, 33.517927], [-96.420329, 33.512667], [-96.417367, 33.507121], [-96.415908, 33.500035], [-96.413312, 33.498586], [-96.413269, 33.49277], [-96.408334, 33.490408], [-96.403527, 33.470757], [-96.40121, 33.464242], [-96.39842, 33.463203], [-96.39533, 33.457439], [-96.394086, 33.443403], [-96.394966, 33.395279], [-96.393485, 33.393272], [-96.393507, 33.388578], [-96.392841, 33.387611], [-96.392756, 33.384493], [-96.385117, 33.376789], [-96.38207, 33.346304], [-96.381383, 33.335942], [-96.378379, 33.334365], [-96.378465, 33.331729], [-96.377714, 33.325705], [-96.3778, 33.320524], [-96.377199, 33.310966], [-96.375933, 33.308061], [-96.375762, 33.304347], [-96.375823, 33.300914], [-96.375688, 33.300577], [-96.374244, 33.296887], [-96.373154, 33.294279], [-96.371664, 33.291726], [-96.370091, 33.289675], [-96.367949, 33.286864], [-96.367455, 33.28674], [-96.367213, 33.286335], [-96.366785, 33.284396], [-96.363422, 33.280643], [-96.3595, 33.27344], [-96.352037, 33.269017], [-96.351881, 33.263554], [-96.351568, 33.26259], [-96.351511, 33.255686], [-96.350988, 33.253724], [-96.350417, 33.25164], [-96.349366, 33.250384], [-96.347399, 33.245183], [-96.345403, 33.243869], [-96.342094, 33.242887], [-96.34027, 33.220703], [-96.339396, 33.218944], [-96.339122, 33.215811], [-96.338183, 33.213266], [-96.331943, 33.21166], [-96.331547, 33.210626], [-96.327525, 33.206556], [-96.325606, 33.206618], [-96.324228, 33.205816], [-96.323622, 33.204951], [-96.320121, 33.202346], [-96.315497, 33.202274], [-96.313008, 33.199958], [-96.312407, 33.198378], [-96.311549, 33.197839], [-96.309446, 33.195379], [-96.309038, 33.1945], [-96.309586, 33.193512], [-96.309532, 33.190316], [-96.306695, 33.188311], [-96.306367, 33.187907], [-96.303413, 33.182263], [-96.300645, 33.17675], [-96.293285, 33.162093], [-96.289723, 33.154118], [-96.289745, 33.15277], [-96.287985, 33.147938], [-96.284702, 33.138829], [-96.282964, 33.132827], [-96.278751, 33.119429], [-96.277592, 33.118333], [-96.277635, 33.115745], [-96.273759, 33.103605], [-96.270304, 33.095786], [-96.266807, 33.088685], [-96.265384, 33.085892], [-96.260412, 33.076135], [-96.260348, 33.07547], [-96.258653, 33.072881], [-96.252258, 33.062793], [-96.25216, 33.06192], [-96.249762, 33.056695], [-96.242917, 33.050229], [-96.243979, 33.046533], [-96.244193, 33.040894], [-96.23472, 33.032736], [-96.227134, 33.032637], [-96.226438, 33.031658], [-96.22449, 33.028549], [-96.222876, 33.025721], [-96.222173, 33.024323], [-96.220932, 33.02173], [-96.220682, 33.021076], [-96.219309, 33.019124], [-96.219095, 33.018261], [-96.217102, 33.01426], [-96.215457, 33.012065], [-96.213644, 33.010058], [-96.20637, 33.002483], [-96.204203, 33.00026], [-96.201917, 32.998101], [-96.198484, 32.994537], [-96.194847, 32.990911], [-96.191653, 32.987662], [-96.191306, 32.982227], [-96.191459, 32.982091], [-96.191391, 32.980096], [-96.191194, 32.979157], [-96.190604, 32.977754], [-96.190506, 32.974181], [-96.190666, 32.971344], [-96.190666, 32.968446], [-96.190838, 32.968105], [-96.19074, 32.967461], [-96.190942, 32.965625], [-96.190869, 32.963464], [-96.190666, 32.962396], [-96.190205, 32.96204], [-96.187795, 32.961215], [-96.183824, 32.959461], [-96.18172, 32.957379], [-96.17789, 32.953247], [-96.176216, 32.951411], [-96.174762, 32.949683], [-96.174368, 32.947295], [-96.174049, 32.946764], [-96.173532, 32.944478], [-96.173274, 32.943622], [-96.173243, 32.942631], [-96.172204, 32.941785], [-96.17159, 32.938762], [-96.17076, 32.935311], [-96.170557, 32.934372], [-96.170907, 32.932576], [-96.170803, 32.930203], [-96.170612, 32.927865], [-96.170778, 32.924692], [-96.17079, 32.923129], [-96.170879, 32.920606], [-96.169957, 32.918742], [-96.16912, 32.917823], [-96.16868, 32.917508], [-96.168562, 32.917003], [-96.166845, 32.916211], [-96.16603, 32.914455], [-96.165676, 32.91332], [-96.164335, 32.911446], [-96.164131, 32.911176], [-96.163648, 32.909348], [-96.162243, 32.903952], [-96.161202, 32.899727], [-96.160537, 32.896737], [-96.159914, 32.894106], [-96.158766, 32.889548], [-96.158445, 32.88762], [-96.157854, 32.885701], [-96.156685, 32.88079], [-96.155773, 32.876709], [-96.155237, 32.87433], [-96.1534, 32.868135], [-96.15262, 32.859634], [-96.152235, 32.856093], [-96.151911, 32.852737], [-96.151394, 32.851113], [-96.154224, 32.845889], [-96.154203, 32.84423], [-96.138254, 32.830919], [-96.135171, 32.825326], [-96.132189, 32.820168], [-96.129765, 32.815969], [-96.129442, 32.814935], [-96.11476, 32.804209], [-96.123693, 32.795179], [-96.123803, 32.794316], [-96.118758, 32.781538], [-96.116654, 32.776214], [-96.11159, 32.766705], [-96.110688, 32.764773], [-96.102232, 32.752699], [-96.095988, 32.744055], [-96.092126, 32.738152], [-96.084959, 32.729146], [-96.080903, 32.722502], [-96.077521, 32.718468], [-96.077713, 32.717784], [-96.074751, 32.713106], [-96.074923, 32.711587], [-96.063028, 32.697305], [-96.057715, 32.690344], [-96.045681, 32.67501], [-96.043891, 32.672298], [-96.043441, 32.672008], [-96.040549, 32.665046], [-96.038736, 32.660266], [-96.02978, 32.647988], [-96.014272, 32.642317], [-96.010069, 32.627037], [-95.818406, 32.438675], [-95.772017, 32.35791], [-95.618662, 32.08315], [-95.618684, 32.081232], [-95.612312, 32.077529], [-95.608754, 32.07673], [-95.603921, 32.072526], [-95.603857, 32.063117], [-95.613302, 32.057817], [-95.617874, 32.055857], [-95.618305, 32.052094], [-95.618671, 32.0495], [-95.617806, 32.048564], [-95.614912, 32.044276], [-95.613367, 32.040494], [-95.609935, 32.033856], [-95.608347, 32.028492], [-95.607297, 32.025711], [-95.607233, 32.023776], [-95.607876, 32.022596], [-95.608028, 32.021541], [-95.607511, 32.021011], [-95.607383, 32.018818], [-95.606566, 32.015357], [-95.604657, 32.010827], [-95.603284, 32.003587], [-95.602921, 32.001919], [-95.603177, 32.000938], [-95.60279, 31.994297], [-95.598198, 31.990931], [-95.59807, 31.988124], [-95.598263, 31.984472], [-95.600107, 31.980361], [-95.600967, 31.977043], [-95.601117, 31.972673], [-95.601289, 31.97043], [-95.600967, 31.968989], [-95.600624, 31.967025], [-95.600087, 31.962839], [-95.599937, 31.960833], [-95.599633, 31.960059], [-95.598158, 31.958572], [-95.598414, 31.956599], [-95.598435, 31.955646], [-95.598153, 31.954854], [-95.59369, 31.949957], [-95.592149, 31.944161], [-95.593243, 31.938263], [-95.592856, 31.934763], [-95.592577, 31.931614], [-95.59262, 31.9289], [-95.592127, 31.926423], [-95.592298, 31.923586], [-95.592641, 31.920225], [-95.594058, 31.918493], [-95.593951, 31.915192], [-95.59453, 31.913699], [-95.594401, 31.905406], [-95.594208, 31.900919], [-95.593866, 31.900229], [-95.594101, 31.898869], [-95.594101, 31.893799], [-95.592898, 31.889349], [-95.591972, 31.886717], [-95.589702, 31.884953], [-95.589959, 31.874683], [-95.589545, 31.873923], [-95.587409, 31.87253], [-95.585209, 31.871932], [-95.584527, 31.870301], [-95.583324, 31.868989], [-95.582638, 31.867641], [-95.579353, 31.863247], [-95.577857, 31.861522], [-95.577299, 31.852287], [-95.57657, 31.849918], [-95.57657, 31.841266], [-95.576999, 31.838603], [-95.576377, 31.835174], [-95.576858, 31.82881], [-95.577091, 31.825216], [-95.576811, 31.824777], [-95.574671, 31.822059], [-95.574603, 31.821814], [-95.57665, 31.819481], [-95.572345, 31.817087], [-95.569048, 31.815481], [-95.5683, 31.816368], [-95.566153, 31.815482], [-95.567089, 31.813753], [-95.566293, 31.813397], [-95.566336, 31.813148], [-95.567301, 31.812504], [-95.565551, 31.810045], [-95.563891, 31.807988], [-95.563511, 31.807042], [-95.563488, 31.805347], [-95.563385, 31.80071], [-95.560892, 31.798849], [-95.559509, 31.79464], [-95.559477, 31.791611], [-95.558196, 31.788904], [-95.551017, 31.78365], [-95.53899, 31.77469], [-95.531581, 31.769113], [-95.531466, 31.768455], [-95.530669, 31.76815], [-95.530685, 31.767164], [-95.526776, 31.758765], [-95.525602, 31.757004], [-95.52526, 31.755012], [-95.525521, 31.752131], [-95.525848, 31.751588], [-95.525946, 31.748524], [-95.525832, 31.74372], [-95.528302, 31.736585], [-95.526929, 31.734096], [-95.527679, 31.731376], [-95.52691, 31.727729], [-95.524981, 31.718721], [-95.524704, 31.717819], [-95.523772, 31.709546], [-95.522856, 31.707654], [-95.521973, 31.704285], [-95.520277, 31.702606], [-95.520374, 31.700612], [-95.518787, 31.694376], [-95.516564, 31.69076], [-95.513773, 31.683315], [-95.513855, 31.682565], [-95.51369, 31.682045], [-95.513003, 31.680237], [-95.511793, 31.675909], [-95.508229, 31.670941], [-95.503426, 31.663753], [-95.501007, 31.65855], [-95.497579, 31.654576], [-95.497547, 31.64755], [-95.497727, 31.646269], [-95.497547, 31.642813], [-95.497201, 31.641847], [-95.496301, 31.640328], [-95.494536, 31.637406], [-95.493152, 31.635549], [-95.493413, 31.632438], [-95.493167, 31.631263], [-95.491156, 31.626615], [-95.490143, 31.623513], [-95.489816, 31.62269], [-95.488295, 31.619627], [-95.48681, 31.616945], [-95.486648, 31.615978], [-95.486795, 31.613029], [-95.486467, 31.610573], [-95.486024, 31.609622], [-95.482004, 31.602914], [-95.479879, 31.598599], [-95.473211, 31.588854], [-95.468853, 31.582931], [-95.468755, 31.576856], [-95.468749, 31.576576], [-95.468559, 31.568292], [-95.468345, 31.567255], [-95.464944, 31.56164], [-95.460548, 31.55458], [-95.458524, 31.551506], [-95.456793, 31.545396], [-95.456059, 31.54292], [-95.455977, 31.54141], [-95.454991, 31.54029], [-95.451805, 31.535444], [-95.450499, 31.533872], [-95.449651, 31.532009], [-95.448476, 31.529435], [-95.447923, 31.527151], [-95.448595, 31.526187], [-95.447784, 31.524282], [-95.445298, 31.523223], [-95.44413, 31.521106], [-95.444049, 31.520278], [-95.444245, 31.517549], [-95.444098, 31.51402], [-95.443932, 31.513314], [-95.441884, 31.51115], [-95.439525, 31.50857], [-95.440389, 31.504997], [-95.439783, 31.501801], [-95.438507, 31.496878], [-95.4371, 31.494548], [-95.434764, 31.490647], [-95.433556, 31.488196], [-95.431854, 31.48447], [-95.431145, 31.483866], [-95.431288, 31.483529], [-95.430959, 31.481623], [-95.430255, 31.480032], [-95.429145, 31.477134], [-95.428097, 31.474146], [-95.427135, 31.473214], [-95.426515, 31.46929], [-95.423426, 31.461594], [-95.419586, 31.449956], [-95.417428, 31.443291], [-95.415174, 31.438581], [-95.415027, 31.437771], [-95.41308, 31.434254], [-95.409977, 31.428929], [-95.409143, 31.426782], [-95.408422, 31.425454], [-95.406921, 31.423574], [-95.405257, 31.418255], [-95.405158, 31.414654], [-95.403295, 31.411919], [-95.402741, 31.408806], [-95.403135, 31.407181], [-95.402622, 31.406489], [-95.399566, 31.400827], [-95.397067, 31.397327], [-95.394667, 31.39227], [-95.393834, 31.38732], [-95.393295, 31.385061], [-95.393018, 31.382528], [-95.393564, 31.379561], [-95.393264, 31.375337], [-95.393011, 31.372515], [-95.392758, 31.368683], [-95.391327, 31.367493], [-95.390539, 31.366599], [-95.390497, 31.365509], [-95.39102, 31.363641], [-95.391527, 31.35733], [-95.391116, 31.352057], [-95.390892, 31.348988], [-95.390901, 31.34366], [-95.390291, 31.341338], [-95.38869, 31.336259], [-95.386407, 31.329896], [-95.385999, 31.320227], [-95.386215, 31.313446], [-95.38643, 31.310395], [-95.385981, 31.308235], [-95.385999, 31.307777], [-95.386881, 31.3035], [-95.38725, 31.301385], [-95.387262, 31.296571], [-95.387164, 31.295025], [-95.386843, 31.292951], [-95.385393, 31.289559], [-95.385393, 31.286204], [-95.385676, 31.283638], [-95.385492, 31.282661], [-95.385922, 31.27942], [-95.38677, 31.276814], [-95.387126, 31.273972], [-95.388277, 31.272538], [-95.388912, 31.271633], [-95.387263, 31.266088], [-95.387348, 31.265292], [-95.387225, 31.260452], [-95.385908, 31.256712], [-95.379437, 31.249129], [-95.384237, 31.241801], [-95.38501, 31.228912], [-95.383807, 31.215692], [-95.380847, 31.211289], [-95.381534, 31.180008], [-95.359637, 31.159914], [-95.109274, 30.92181], [-95.053935, 30.868457], [-95.054631, 30.864799], [-95.05539, 30.861363], [-95.055808, 30.860269], [-95.054577, 30.858683], [-95.05466, 30.857661], [-95.053609, 30.853597], [-95.053341, 30.851967], [-95.051386, 30.846812], [-95.050424, 30.845649], [-95.049552, 30.84109], [-95.04819, 30.837981], [-95.046745, 30.834817], [-95.045371, 30.831964], [-95.045672, 30.829758], [-95.045843, 30.827663], [-95.043258, 30.821728], [-95.043194, 30.820287], [-95.039776, 30.814712], [-95.038324, 30.811834], [-95.038518, 30.8094], [-95.038148, 30.808745], [-95.036283, 30.803114], [-95.035265, 30.798252], [-95.033714, 30.794679], [-95.033199, 30.793207], [-95.032106, 30.791087], [-94.991721, 30.692155], [-94.968465, 30.641445], [-94.967564, 30.588125], [-94.968079, 30.548418], [-94.96529, 30.545572], [-94.966492, 30.514715], [-94.961689, 30.505812], [-94.968123, 30.486742], [-94.96765, 30.481453], [-94.971945, 30.467277], [-94.969282, 30.46143], [-94.96962, 30.459467], [-94.973349, 30.45603], [-94.975502, 30.450574], [-94.9761, 30.446595], [-94.991463, 30.43457], [-94.994148, 30.419787], [-94.995866, 30.409528], [-94.995914, 30.408934], [-94.997418, 30.40013], [-95.000915, 30.380609], [-95.001784, 30.376802], [-95.001926, 30.376356], [-95.002896, 30.372424], [-95.002582, 30.351093], [-95.002782, 30.349822], [-95.000712, 30.342946], [-95.011034, 30.33664], [-95.01111, 30.336497], [-95.016878, 30.311499], [-95.017216, 30.310448], [-95.023392, 30.283718], [-95.022961, 30.282198], [-95.022864, 30.282058], [-95.000104, 30.264641], [-94.992597, 30.25899], [-94.975996, 30.246192], [-94.974288, 30.244904], [-94.973788, 30.243536], [-94.972783, 30.241037], [-94.972486, 30.240425], [-94.971486, 30.23798], [-94.971474, 30.237897], [-94.971516, 30.23757], [-94.97126, 30.236981], [-94.97101, 30.236267], [-94.965324, 30.221955], [-94.964872, 30.221193], [-94.962766, 30.215887], [-94.96273, 30.215483], [-94.953992, 30.193485], [-94.953962, 30.193372], [-94.955039, 30.185104], [-94.954932, 30.182195], [-94.955087, 30.181571], [-94.955378, 30.181178], [-94.955307, 30.179441], [-94.955277, 30.179328], [-94.954789, 30.178549], [-94.954778, 30.17846], [-94.954521, 30.169668], [-94.954518, 30.169582], [-94.949772, 30.154125], [-94.94973, 30.154021], [-94.945701, 30.148978], [-94.945642, 30.148824], [-94.945362, 30.138868], [-94.945148, 30.13725], [-94.94491, 30.133104], [-94.944845, 30.130784], [-94.944788, 30.120968], [-94.94491, 30.120644], [-94.944918, 30.12054], [-94.944903, 30.120132], [-94.944833, 30.11137], [-94.94481, 30.110591], [-94.944848, 30.102198], [-94.944886, 30.102091], [-94.944981, 30.101961], [-94.946557, 30.100576], [-94.946575, 30.100508], [-94.94654, 30.088223], [-94.946504, 30.088063], [-94.944915, 30.086793], [-94.944842, 30.086696], [-94.944806, 30.086607], [-94.944757, 30.080814], [-94.940431, 30.075523], [-94.940437, 30.070217], [-94.940372, 30.070045], [-94.93754, 30.0671], [-94.937481, 30.066981], [-94.93742, 30.062229], [-94.937912, 30.061215], [-94.937992, 30.059772], [-94.938093, 30.059641], [-94.939777, 30.058249], [-94.940634, 30.057666], [-94.940628, 30.056116], [-94.940687, 30.056044], [-94.941062, 30.055947], [-94.942162, 30.055911], [-94.942363, 30.055893], [-94.942527, 30.055816], [-94.942678, 30.055661], [-94.942753, 30.055048], [-94.942517, 30.054533], [-94.943096, 30.049368], [-94.943061, 30.046608], [-94.943132, 30.045977], [-94.943593, 30.04532], [-94.943624, 30.045152], [-94.943598, 30.041965], [-94.943656, 30.041794], [-94.943546, 30.035736], [-94.943503, 30.034289], [-94.943427, 30.033095], [-94.943166, 30.030844], [-94.943008, 30.028712], [-94.94269, 30.025766], [-94.942309, 30.02253], [-94.942228, 30.022069], [-94.941714, 30.017034], [-94.941257, 30.015487], [-94.939393, 30.011858], [-94.938685, 30.01068], [-94.937025, 30.008751], [-94.937472, 30.007751], [-94.937483, 30.007686], [-94.93746, 30.005714], [-94.936673, 30.004247], [-94.936624, 30.003539], [-94.936455, 29.988526], [-94.936358, 29.988152], [-94.935595, 29.987482], [-94.934468, 29.985835], [-94.933686, 29.98532], [-94.927826, 29.978864], [-94.927726, 29.978659], [-94.927688, 29.978528], [-94.925694, 29.959289], [-94.918076, 29.953114], [-94.917313, 29.945589], [-94.917294, 29.945117], [-94.917313, 29.944228], [-94.91692, 29.941041], [-94.916939, 29.940575], [-94.916725, 29.939064], [-94.913747, 29.913264], [-94.91381, 29.912773], [-94.912927, 29.904992], [-94.91276, 29.90429], [-94.911404, 29.890549], [-94.910874, 29.888622], [-94.910708, 29.887468], [-94.910596, 29.88606], [-94.909924, 29.879657], [-94.909858, 29.879491], [-94.90971, 29.877954], [-94.909278, 29.877977], [-94.90686, 29.874356], [-94.901231, 29.867978], [-94.900939, 29.867579], [-94.900287, 29.867632], [-94.899745, 29.867565], [-94.897056, 29.86763], [-94.895893, 29.867634], [-94.895679, 29.867571], [-94.894094, 29.866894], [-94.89376, 29.86659], [-94.892928, 29.866219], [-94.892471, 29.861797], [-94.891991, 29.861395], [-94.891919, 29.861155], [-94.891972, 29.861142], [-94.891622, 29.860292], [-94.892075, 29.860149], [-94.892015, 29.860003], [-94.892528, 29.859842], [-94.891726, 29.857897], [-94.892845, 29.857328], [-94.890508, 29.853889], [-94.891023, 29.853612], [-94.891957, 29.85383], [-94.892052, 29.853781]]}},
{"type": "Feature", "properties": {"ProjectID": "P6519", "diameter": "6.63\"", "layer": "-1", "location": "underground", "man_made": "pipeline", "operator": "Oneok Hydrocarbon Southwest, LLC", "ref": "10438", "substance": "ngl", "usage": "transmission"}, "geometry": {"type": "LineString", "coordinates": [[-94.896019, 29.851124], [-94.896004, 29.850848], [-94.898072, 29.849804], [-94.897851, 29.849007], [-94.897642, 29.849054], [-94.897637, 29.849085]]}},
{"type": "Feature", "properties": {"ProjectID": "P6519", "layer": "-1", "location": "underground", "man_made": "pipeline", "operator": "Oneok NGL Pipeline, LLC", "diameter": "12.75\"", "usage": "transmission", "substance": "ngl", "name": "Sterling Pipeline II"}, "geometry": {"type": "LineString", "coordinates": [[-96.467305, 34.129027], [-96.473705, 34.121042], [-96.47379, 34.118262], [-96.482298, 34.114238], [-96.496203, 34.10683], [-96.506288, 34.106794], [-96.515107, 34.099225], [-96.519485, 34.09823], [-96.524334, 34.099545], [-96.533483, 34.100076], [-96.535841, 34.099604], [-96.541683, 34.099224], [-96.547422, 34.098754], [-96.551437, 34.098251], [-96.55366, 34.095686], [-96.555811, 34.092944], [-96.556389, 34.09255], [-96.559447, 34.090677], [-96.563423, 34.088518], [-96.565084, 34.087497], [-96.567958, 34.085349], [-96.569861, 34.084352], [-96.571681, 34.08389], [-96.576133, 34.083998], [-96.583794, 34.082853], [-96.585042, 34.082848], [-96.586401, 34.083013]]}},
{"type": "Feature", "properties": {"ProjectID": "P6519", "diameter": "16\"", "layer": "-1", "location": "underground", "man_made": "pipeline", "name": "Sterling Pipeline III", "operator": "Oneok NGL Pipeline, LLC", "substance": "ngl", "usage": "transmission"}, "geometry": {"type": "LineString", "coordinates": [[-97.757091, 36.773628], [-97.757109, 36.772455], [-97.75439, 36.771493], [-97.752088, 36.766212], [-97.749739, 36.766255], [-97.748204, 36.764213], [-97.731634, 36.752171], [-97.725277, 36.746961], [-97.714398, 36.739151], [-97.704678, 36.723742], [-97.695612, 36.70944], [-97.693895, 36.702438], [-97.694072, 36.684445], [-97.692361, 36.680866], [-97.692398, 36.679167], [-97.689314, 36.673092], [-97.681814, 36.65838], [-97.677593, 36.655165], [-97.677078, 36.65163], [-97.67667, 36.649493], [-97.673778, 36.64654], [-97.673371, 36.640884], [-97.672303, 36.638168], [-97.671536, 36.637208], [-97.671279, 36.636546], [-97.668339, 36.632925], [-97.660437, 36.623566], [-97.659359, 36.623282], [-97.659102, 36.62314], [-97.658973, 36.622937], [-97.658876, 36.621977], [-97.654424, 36.615097], [-97.651017, 36.608005], [-97.650438, 36.607355], [-97.650025, 36.606476], [-97.647311, 36.603707], [-97.646994, 36.601851], [-97.646501, 36.600533], [-97.643432, 36.596033], [-97.641925, 36.595275], [-97.641587, 36.59487], [-97.64167, 36.593345], [-97.641593, 36.592219], [-97.46123, 36.235803], [-97.428184, 36.16751], [-97.426123, 36.15964], [-97.425994, 36.14509], [-97.338733, 36.002921], [-97.330728, 35.997729], [-97.200906, 35.724926], [-97.146167, 35.640451], [-97.145265, 35.632486], [-97.140653, 35.629661], [-97.140674, 35.622134], [-97.133375, 35.609289], [-97.125344, 35.59795], [-97.122769, 35.594269], [-97.118632, 35.588238], [-97.118654, 35.585381], [-97.11816, 35.582708], [-97.117644, 35.580838], [-97.116508, 35.578222], [-97.116271, 35.575844], [-97.114568, 35.574021], [-97.112624, 35.572596], [-97.112539, 35.570262], [-97.11447, 35.568534], [-97.114448, 35.564229], [-97.114126, 35.55894], [-97.114041, 35.550679], [-97.115046, 35.550044], [-97.115054, 35.548036], [-97.11506, 35.546143], [-97.115027, 35.542942], [-97.112162, 35.538858], [-97.111843, 35.538789], [-97.108801, 35.532826], [-97.106903, 35.530773], [-97.105687, 35.530495], [-97.101057, 35.518355], [-97.099425, 35.514003], [-97.098182, 35.512136], [-97.097364, 35.508259], [-97.097432, 35.499998], [-97.074453, 35.463106], [-96.832239, 34.948593], [-96.823186, 34.932836], [-96.822414, 34.926117], [-96.819749, 34.919811], [-96.815887, 34.916187], [-96.8122, 34.906412], [-96.812029, 34.891271], [-96.808079, 34.88775], [-96.807007, 34.876173], [-96.803953, 34.870208], [-96.802278, 34.869609], [-96.801334, 34.86806], [-96.796487, 34.866511], [-96.794045, 34.860008], [-96.783576, 34.840747], [-96.783447, 34.822035], [-96.777907, 34.818298], [-96.776664, 34.814215], [-96.770958, 34.806783], [-96.770614, 34.803431], [-96.768033, 34.801523], [-96.757732, 34.788483], [-96.748381, 34.782317], [-96.742248, 34.766748], [-96.741947, 34.761482], [-96.737611, 34.759894], [-96.735768, 34.74824], [-96.734845, 34.722867], [-96.729404, 34.72094], [-96.723129, 34.714656], [-96.723065, 34.709153], [-96.708902, 34.693346], [-96.706242, 34.665616], [-96.706414, 34.646414], [-96.707617, 34.63115], [-96.702206, 34.626627], [-96.699889, 34.615751], [-96.688986, 34.605081], [-96.682806, 34.593565], [-96.673106, 34.584449], [-96.651651, 34.55279], [-96.648904, 34.54678], [-96.636281, 34.531076], [-96.627356, 34.52634], [-96.619637, 34.514044], [-96.611055, 34.485397], [-96.602299, 34.468345], [-96.595518, 34.449731], [-96.582554, 34.431073], [-96.570413, 34.420173], [-96.568827, 34.413562], [-96.566896, 34.401632], [-96.566209, 34.375348], [-96.55668, 34.361743], [-96.555179, 34.356006], [-96.550115, 34.346901], [-96.549042, 34.340984], [-96.54466, 34.332434], [-96.541701, 34.33038], [-96.533161, 34.303301], [-96.527065, 34.298584], [-96.522307, 34.290864], [-96.522092, 34.267247], [-96.518575, 34.262], [-96.519688, 34.256195], [-96.522865, 34.249205], [-96.522908, 34.244934], [-96.514573, 34.235983], [-96.506592, 34.230484], [-96.502477, 34.225559], [-96.496258, 34.20864], [-96.496301, 34.207288], [-96.494831, 34.205037], [-96.493246, 34.204576], [-96.479349, 34.175732], [-96.479349, 34.170868], [-96.474926, 34.160565], [-96.472138, 34.155808], [-96.471002, 34.150025], [-96.470873, 34.142636], [-96.468534, 34.135726], [-96.467338, 34.129023], [-96.465954, 34.119718], [-96.453953, 34.100967], [-96.454554, 34.067734], [-96.451335, 34.065459], [-96.451249, 34.042561], [-96.451893, 34.038685], [-96.452193, 34.033812], [-96.456785, 34.0299], [-96.456614, 34.017594], [-96.458095, 34.012318], [-96.459534, 33.987241], [-96.456778, 33.976175], [-96.454331, 33.866495], [-96.451257, 33.861794], [-96.448679, 33.861552], [-96.448235, 33.852811], [-96.445339, 33.848089], [-96.444892, 33.836133], [-96.448153, 33.829611], [-96.447422, 33.779526], [-96.441993, 33.744283], [-96.441099, 33.739331], [-96.44173, 33.73618], [-96.444942, 33.729583], [-96.444747, 33.728089], [-96.445871, 33.7248], [-96.443714, 33.719124], [-96.44157, 33.717965], [-96.440079, 33.713779], [-96.440893, 33.711838], [-96.440186, 33.709593], [-96.442256, 33.705144], [-96.438768, 33.69896], [-96.436313, 33.686882], [-96.437797, 33.67494], [-96.432542, 33.66557], [-96.43405, 33.663008], [-96.435043, 33.655907], [-96.435383, 33.650274], [-96.436154, 33.649448], [-96.435099, 33.644048], [-96.43281, 33.640024], [-96.432531, 33.63432], [-96.429655, 33.629745], [-96.429293, 33.623935], [-96.42891, 33.61776], [-96.431423, 33.612745], [-96.430509, 33.611165], [-96.428466, 33.608978], [-96.429429, 33.605162], [-96.426013, 33.593673], [-96.423656, 33.59053], [-96.419809, 33.575559], [-96.419788, 33.556636], [-96.420279, 33.555533], [-96.420368, 33.553882], [-96.41996, 33.551824], [-96.421462, 33.517915], [-96.420595, 33.512604], [-96.417632, 33.507054], [-96.416159, 33.4999], [-96.413586, 33.498463], [-96.413543, 33.492637], [-96.408578, 33.490261], [-96.403794, 33.470702], [-96.401437, 33.464075], [-96.398628, 33.46303], [-96.395601, 33.457382], [-96.394361, 33.443396], [-96.395241, 33.395215], [-96.39376, 33.393208], [-96.393781, 33.388518], [-96.393114, 33.387547], [-96.393028, 33.384408], [-96.385383, 33.376698], [-96.382344, 33.346288], [-96.381649, 33.335811], [-96.378658, 33.33424], [-96.37874, 33.331721], [-96.377989, 33.325695], [-96.378074, 33.320519], [-96.377471, 33.31092], [-96.376205, 33.308017], [-96.376037, 33.304344], [-96.376099, 33.300878], [-96.375948, 33.300505], [-96.374504, 33.296814], [-96.373408, 33.294191], [-96.371904, 33.291613], [-96.370323, 33.289551], [-96.368126, 33.286669], [-96.367648, 33.286549], [-96.367476, 33.286261], [-96.367043, 33.284302], [-96.36366, 33.280525], [-96.359719, 33.273288], [-96.352309, 33.268897], [-96.352155, 33.263521], [-96.351842, 33.262558], [-96.351785, 33.25566], [-96.351256, 33.253673], [-96.350673, 33.251545], [-96.349615, 33.250281], [-96.347635, 33.245046], [-96.345537, 33.243665], [-96.342356, 33.242721], [-96.340541, 33.220649], [-96.339666, 33.21889], [-96.339394, 33.215768], [-96.338403, 33.213082], [-96.332161, 33.211476], [-96.331793, 33.210514], [-96.32765, 33.206322], [-96.325687, 33.206386], [-96.324434, 33.205656], [-96.323837, 33.204803], [-96.320228, 33.202118], [-96.315622, 33.202046], [-96.313252, 33.199841], [-96.312642, 33.198238], [-96.311748, 33.197677], [-96.30969, 33.195269], [-96.309337, 33.194508], [-96.309861, 33.193561], [-96.309805, 33.190208], [-96.306901, 33.188156], [-96.306608, 33.187796], [-96.303666, 33.182173], [-96.300898, 33.176661], [-96.293541, 33.162009], [-96.289999, 33.154078], [-96.29002, 33.152738], [-96.288248, 33.147871], [-96.284967, 33.138768], [-96.28323, 33.132771], [-96.279073, 33.119384], [-96.278622, 33.117461], [-96.279373, 33.11534], [-96.281605, 33.114531], [-96.2833, 33.114567], [-96.283729, 33.096341], [-96.282806, 33.095946], [-96.283064, 33.085959], [-96.265209, 33.085955], [-96.260226, 33.076174], [-96.260162, 33.075517], [-96.258486, 33.072956], [-96.252073, 33.062839], [-96.251974, 33.061957], [-96.249597, 33.056779], [-96.242709, 33.050273], [-96.24379, 33.046512], [-96.244001, 33.040957], [-96.234639, 33.032894], [-96.226874, 33.032796], [-96.225778, 33.031226], [-96.223203, 33.026737], [-96.223386, 33.021261], [-96.220826, 33.021241], [-96.219684, 33.018385], [-96.218774, 33.016766], [-96.217529, 33.014556], [-96.215633, 33.011902], [-96.19181, 32.987441], [-96.191536, 32.980111], [-96.190935, 32.977564], [-96.191086, 32.965593], [-96.191043, 32.963356], [-96.190603, 32.962181], [-96.188774, 32.961358], [-96.187941, 32.956938], [-96.187233, 32.953661], [-96.185495, 32.945595], [-96.185173, 32.940084], [-96.185045, 32.936915], [-96.184701, 32.934033], [-96.184401, 32.930359], [-96.183779, 32.927135], [-96.184379, 32.922813], [-96.184401, 32.917914], [-96.182834, 32.916833], [-96.182534, 32.913734], [-96.181847, 32.909754], [-96.180989, 32.90824], [-96.180946, 32.906295], [-96.181976, 32.903214], [-96.181375, 32.899827], [-96.182555, 32.89435], [-96.183006, 32.891953], [-96.182663, 32.885341], [-96.180817, 32.879935], [-96.179723, 32.876853], [-96.175304, 32.876704], [-96.175304, 32.873496], [-96.171742, 32.867044], [-96.161485, 32.860267], [-96.152559, 32.859639], [-96.152175, 32.856098], [-96.151851, 32.852746], [-96.15133, 32.851108], [-96.154164, 32.845878], [-96.154142, 32.844251], [-96.138203, 32.830949], [-96.135117, 32.825348], [-96.132134, 32.820191], [-96.129708, 32.815987], [-96.129388, 32.814964], [-96.114675, 32.804215], [-96.123635, 32.795158], [-96.123741, 32.794321], [-96.1187, 32.781554], [-96.116598, 32.776233], [-96.111534, 32.766725], [-96.110633, 32.764796], [-96.10218, 32.752725], [-96.095936, 32.74408], [-96.092074, 32.738179], [-96.084907, 32.729172], [-96.080851, 32.722529], [-96.077455, 32.718478], [-96.077649, 32.717791], [-96.074689, 32.713116], [-96.07486, 32.711601], [-96.062978, 32.697333], [-96.057664, 32.690372], [-96.045629, 32.675037], [-96.043844, 32.672332], [-96.04339, 32.67204], [-96.040491, 32.665062], [-96.038681, 32.660287], [-96.029739, 32.648029], [-96.01422, 32.642354], [-96.010013, 32.627061], [-95.818355, 32.438704], [-95.771962, 32.357933], [-95.618602, 32.083161], [-95.618623, 32.081259], [-95.612286, 32.077577], [-95.608722, 32.076776], [-95.60386, 32.072547], [-95.603796, 32.063089], [-95.613271, 32.057772], [-95.617817, 32.055824], [-95.618244, 32.052089], [-95.618608, 32.049515], [-95.617755, 32.048593], [-95.614856, 32.044298], [-95.613311, 32.040513], [-95.609877, 32.033873], [-95.608289, 32.028506], [-95.607237, 32.02572], [-95.607172, 32.023765], [-95.607817, 32.022581], [-95.607965, 32.021557], [-95.607452, 32.021031], [-95.607322, 32.018824], [-95.606508, 32.01537], [-95.604598, 32.01084], [-95.603224, 32.003596], [-95.602859, 32.001918], [-95.603117, 32.000934], [-95.602731, 31.994322], [-95.598139, 31.990955], [-95.59801, 31.988124], [-95.598203, 31.984461], [-95.600049, 31.980346], [-95.600907, 31.977037], [-95.601057, 31.97267], [-95.601228, 31.970434], [-95.600907, 31.968998], [-95.600563, 31.967031], [-95.600027, 31.962843], [-95.599877, 31.960843], [-95.599579, 31.960085], [-95.598095, 31.958588], [-95.598353, 31.956596], [-95.598374, 31.955653], [-95.598098, 31.954878], [-95.593634, 31.949979], [-95.592087, 31.944162], [-95.593182, 31.938261], [-95.592796, 31.934768], [-95.592517, 31.931616], [-95.592559, 31.928904], [-95.592066, 31.926426], [-95.592238, 31.923583], [-95.592582, 31.920207], [-95.593997, 31.918478], [-95.59389, 31.915185], [-95.594469, 31.913691], [-95.59434, 31.905407], [-95.594148, 31.90093], [-95.593803, 31.900236], [-95.59404, 31.898865], [-95.59404, 31.893805], [-95.592839, 31.889362], [-95.591919, 31.886745], [-95.589641, 31.884975], [-95.589899, 31.874694], [-95.589496, 31.873956], [-95.58738, 31.872577], [-95.585162, 31.871973], [-95.584473, 31.870326], [-95.583272, 31.869015], [-95.582585, 31.867666], [-95.579303, 31.863276], [-95.577797, 31.86154], [-95.577239, 31.852295], [-95.576509, 31.849925], [-95.576509, 31.841263], [-95.576938, 31.838603], [-95.576316, 31.835177], [-95.576797, 31.828807], [-95.577029, 31.825228], [-95.576759, 31.824803], [-95.574614, 31.82208], [-95.574538, 31.821802], [-95.576563, 31.819494], [-95.572313, 31.817131], [-95.569065, 31.815549], [-95.56832, 31.816434], [-95.566073, 31.815507], [-95.56701, 31.813776], [-95.566226, 31.813425], [-95.56628, 31.81312], [-95.567221, 31.812492], [-95.5655, 31.810073], [-95.563836, 31.808011], [-95.563451, 31.807051], [-95.563428, 31.805347], [-95.563325, 31.800734], [-95.560839, 31.798878], [-95.559449, 31.794648], [-95.559416, 31.791621], [-95.558146, 31.788935], [-95.550977, 31.783688], [-95.53895, 31.774729], [-95.531525, 31.769139], [-95.531411, 31.76849], [-95.530608, 31.768184], [-95.530624, 31.767173], [-95.526721, 31.758787], [-95.525543, 31.757021], [-95.525199, 31.755013], [-95.525461, 31.752117], [-95.525788, 31.751575], [-95.525886, 31.748524], [-95.525771, 31.743713], [-95.528237, 31.736589], [-95.526865, 31.734102], [-95.527617, 31.731375], [-95.52685, 31.727738], [-95.524922, 31.718732], [-95.524644, 31.717828], [-95.523713, 31.709559], [-95.522798, 31.707669], [-95.521917, 31.704309], [-95.520215, 31.702624], [-95.520313, 31.700616], [-95.51873, 31.694394], [-95.516508, 31.690779], [-95.513712, 31.683321], [-95.513793, 31.682569], [-95.513631, 31.682059], [-95.512945, 31.680251], [-95.511737, 31.675929], [-95.508176, 31.670967], [-95.503371, 31.663775], [-95.500953, 31.658575], [-95.497519, 31.654593], [-95.497486, 31.647547], [-95.497666, 31.646267], [-95.497486, 31.642822], [-95.497145, 31.641866], [-95.496247, 31.640352], [-95.494483, 31.637431], [-95.49309, 31.635562], [-95.493352, 31.632441], [-95.493108, 31.631277], [-95.491098, 31.626631], [-95.490085, 31.623528], [-95.489759, 31.622708], [-95.48824, 31.619648], [-95.486751, 31.61696], [-95.486587, 31.615981], [-95.486734, 31.61303], [-95.486408, 31.610586], [-95.485969, 31.609643], [-95.481949, 31.602936], [-95.479825, 31.598622], [-95.473159, 31.588881], [-95.468793, 31.582946], [-95.468695, 31.576857], [-95.468688, 31.576577], [-95.468499, 31.568297], [-95.468287, 31.567271], [-95.46489, 31.561663], [-95.460495, 31.554604], [-95.458467, 31.551525], [-95.456734, 31.545409], [-95.455998, 31.542928], [-95.455917, 31.541428], [-95.45494, 31.540319], [-95.451754, 31.535472], [-95.450445, 31.533897], [-95.449594, 31.532028], [-95.448417, 31.52945], [-95.447859, 31.527141], [-95.448528, 31.526182], [-95.447735, 31.524319], [-95.445252, 31.523261], [-95.44407, 31.52112], [-95.443988, 31.520279], [-95.444184, 31.517548], [-95.444037, 31.514026], [-95.443875, 31.513337], [-95.441837, 31.511182], [-95.43946, 31.508582], [-95.440327, 31.504996], [-95.439724, 31.50181], [-95.43845, 31.496895], [-95.437046, 31.494571], [-95.434709, 31.490669], [-95.433499, 31.488216], [-95.431802, 31.484499], [-95.431075, 31.483879], [-95.431226, 31.483523], [-95.4309, 31.481636], [-95.430198, 31.480049], [-95.429087, 31.47715], [-95.428043, 31.474172], [-95.427077, 31.473236], [-95.426455, 31.469302], [-95.423368, 31.46161], [-95.419528, 31.44997], [-95.417371, 31.443308], [-95.415115, 31.438595], [-95.414969, 31.437787], [-95.413026, 31.434276], [-95.40992, 31.428949], [-95.409087, 31.426801], [-95.408369, 31.42548], [-95.406865, 31.423596], [-95.405196, 31.418263], [-95.405098, 31.414668], [-95.403236, 31.411936], [-95.402679, 31.408804], [-95.40307, 31.407191], [-95.402568, 31.406514], [-95.399513, 31.400852], [-95.397012, 31.39735], [-95.394608, 31.392283], [-95.393775, 31.387329], [-95.393235, 31.385069], [-95.392957, 31.382526], [-95.393503, 31.379558], [-95.393204, 31.37534], [-95.392951, 31.372519], [-95.392698, 31.368706], [-95.391281, 31.367527], [-95.390479, 31.366617], [-95.390437, 31.365504], [-95.39096, 31.363633], [-95.391466, 31.35733], [-95.391056, 31.352061], [-95.390831, 31.34899], [-95.39084, 31.343666], [-95.390233, 31.34135], [-95.388632, 31.336273], [-95.386347, 31.329905], [-95.385939, 31.320227], [-95.386154, 31.313444], [-95.386369, 31.310398], [-95.38592, 31.308239], [-95.385939, 31.307771], [-95.386821, 31.303491], [-95.387189, 31.301382], [-95.387202, 31.296572], [-95.387103, 31.295029], [-95.386784, 31.292963], [-95.385333, 31.289568], [-95.385333, 31.286201], [-95.385615, 31.283639], [-95.385431, 31.282662], [-95.385862, 31.27941], [-95.38671, 31.276804], [-95.387067, 31.273953], [-95.388226, 31.27251], [-95.388847, 31.271625], [-95.387201, 31.266092], [-95.387288, 31.265291], [-95.387165, 31.260461], [-95.385853, 31.256735], [-95.379365, 31.249132], [-95.384177, 31.241786], [-95.384949, 31.228913], [-95.383748, 31.215708], [-95.380786, 31.211302], [-95.381473, 31.180028], [-95.359593, 31.159949], [-95.109222, 30.92185], [-95.05386, 30.868475], [-95.054562, 30.864789], [-95.055323, 30.861348], [-95.055731, 30.860278], [-95.054506, 30.8587], [-95.05459, 30.857665], [-95.05354, 30.853608], [-95.053273, 30.851981], [-95.051323, 30.84684], [-95.050358, 30.845672], [-95.049484, 30.841106], [-95.048125, 30.838003], [-95.046681, 30.83484], [-95.0453, 30.831972], [-95.045603, 30.829753], [-95.045772, 30.827672], [-95.043189, 30.82174], [-95.043125, 30.820303], [-95.039713, 30.814738], [-95.038254, 30.811844], [-95.038447, 30.809412], [-95.038082, 30.808767], [-95.036215, 30.803127], [-95.035197, 30.798268], [-95.033648, 30.794698], [-95.033133, 30.793228], [-95.032042, 30.79111], [-94.991655, 30.692176], [-94.968395, 30.641457], [-94.967494, 30.588125], [-94.968009, 30.548439], [-94.96522, 30.545594], [-94.966421, 30.514727], [-94.961615, 30.505817], [-94.968052, 30.486736], [-94.96758, 30.481447], [-94.971871, 30.467281], [-94.969211, 30.461437], [-94.969554, 30.459439], [-94.973288, 30.455999], [-94.975433, 30.450561], [-94.976034, 30.446565], [-94.991398, 30.43454], [-94.994079, 30.419777], [-94.99437, 30.418034], [-94.994415, 30.417891], [-94.99461, 30.416711], [-94.994607, 30.416492], [-94.995775, 30.409502], [-94.995819, 30.408975], [-94.996117, 30.407212], [-94.997521, 30.39901], [-94.999609, 30.386981], [-94.999785, 30.38598], [-94.999853, 30.385767], [-95.000094, 30.384356], [-95.00011, 30.384097], [-95.000986, 30.379955], [-95.000975, 30.379667], [-95.001037, 30.379358], [-95.001447, 30.377585], [-95.001844, 30.376375], [-95.002229, 30.374754], [-95.002192, 30.374557], [-95.002083, 30.374385], [-95.001959, 30.374292], [-95.001528, 30.374023], [-95.001395, 30.373872], [-95.001349, 30.373768], [-95.001322, 30.373685], [-95.001314, 30.373555], [-95.001307, 30.372639], [-95.001314, 30.372618], [-95.001338, 30.372613], [-95.002537, 30.372598], [-95.002781, 30.372384], [-95.002793, 30.372357], [-95.002618, 30.360733], [-95.002502, 30.360428], [-95.002494, 30.360333], [-95.002378, 30.351125], [-95.002564, 30.34969], [-95.000461, 30.342852], [-95.010645, 30.336645], [-95.010836, 30.336468], [-95.010942, 30.336283], [-95.011611, 30.333322], [-95.014078, 30.322823], [-95.014702, 30.322928], [-95.014853, 30.322386], [-95.014977, 30.322185], [-95.015143, 30.322056], [-95.017351, 30.321303], [-95.017279, 30.318227], [-95.017207, 30.31749], [-95.017213, 30.316941], [-95.017157, 30.316598], [-95.017165, 30.316218], [-95.01726, 30.31568], [-95.01727, 30.315142], [-95.017333, 30.314948], [-95.017691, 30.314309], [-95.018477, 30.311916], [-95.018815, 30.30986], [-95.018898, 30.309083], [-95.018876, 30.308974], [-95.018421, 30.307505], [-95.018397, 30.307417], [-95.018391, 30.307261], [-95.019522, 30.302296], [-95.019537, 30.302107], [-95.019724, 30.301287], [-95.019798, 30.301106], [-95.019827, 30.300988], [-95.022715, 30.28846], [-95.022734, 30.288389], [-95.022975, 30.288018], [-95.023048, 30.287672], [-95.022986, 30.287319], [-95.02301, 30.287177], [-95.024105, 30.282543], [-95.023675, 30.282458], [-94.993558, 30.259405], [-94.993052, 30.259135], [-94.992387, 30.25863], [-94.991348, 30.257827], [-94.991285, 30.257771], [-94.991126, 30.257548], [-94.99104, 30.257474], [-94.976159, 30.246066], [-94.976117, 30.245511], [-94.975307, 30.244879], [-94.975188, 30.244709], [-94.975143, 30.244591], [-94.975126, 30.244521], [-94.975127, 30.244197], [-94.974622, 30.244159], [-94.974613, 30.243427], [-94.97451, 30.242869], [-94.974517, 30.240363], [-94.973868, 30.237903], [-94.973893, 30.236834], [-94.973862, 30.23668], [-94.973834, 30.236619], [-94.973712, 30.236458], [-94.970356, 30.234248], [-94.970225, 30.234093], [-94.966583, 30.224916], [-94.966589, 30.224885], [-94.966757, 30.2247], [-94.966577, 30.224549], [-94.966449, 30.224375], [-94.965398, 30.221696], [-94.965026, 30.221127], [-94.9629, 30.21585], [-94.962596, 30.214731], [-94.956035, 30.198065], [-94.954148, 30.193467], [-94.954125, 30.193254], [-94.954141, 30.19311], [-94.955148, 30.185285], [-94.955084, 30.182074], [-94.955444, 30.181252], [-94.955478, 30.18115], [-94.955482, 30.181039], [-94.955401, 30.17936], [-94.954951, 30.178435], [-94.954915, 30.178351], [-94.954897, 30.178223], [-94.954621, 30.169393], [-94.951723, 30.159991], [-94.951643, 30.159818], [-94.951546, 30.159509], [-94.951516, 30.159315], [-94.949578, 30.153017], [-94.949511, 30.152903], [-94.949428, 30.152814], [-94.94858, 30.152312], [-94.94717, 30.150568], [-94.947017, 30.150419], [-94.946626, 30.149936], [-94.946535, 30.149775], [-94.945848, 30.148894], [-94.945774, 30.148705], [-94.945765, 30.1486], [-94.945522, 30.1392], [-94.945303, 30.137319], [-94.945322, 30.137121], [-94.944999, 30.132378], [-94.944957, 30.122318], [-94.944963, 30.122227], [-94.945255, 30.121525], [-94.94526, 30.121463], [-94.945237, 30.118894], [-94.945228, 30.118819], [-94.945044, 30.118367], [-94.945037, 30.118267], [-94.944955, 30.109531], [-94.945001, 30.102412], [-94.94501, 30.10229], [-94.945074, 30.102109], [-94.945196, 30.101935], [-94.946869, 30.100475], [-94.946883, 30.100447], [-94.946882, 30.099734], [-94.946716, 30.099155], [-94.946695, 30.088058], [-94.946683, 30.088031], [-94.9451, 30.086742], [-94.944983, 30.086568], [-94.944925, 30.086377], [-94.944943, 30.085175], [-94.944945, 30.07844], [-94.945085, 30.078051], [-94.945093, 30.077945], [-94.945094, 30.075744], [-94.944667, 30.074692], [-94.944625, 30.074563], [-94.944622, 30.07448], [-94.944916, 30.067067], [-94.944862, 30.056009], [-94.94477, 30.054999], [-94.943838, 30.047014], [-94.943831, 30.046646], [-94.943826, 30.046625], [-94.9438, 30.04662], [-94.943061, 30.046622], [-94.943004, 30.046621], [-94.942993, 30.046598], [-94.942986, 30.045908], [-94.943047, 30.045751], [-94.943469, 30.045269], [-94.943535, 30.045091], [-94.943518, 30.041991], [-94.943566, 30.041748], [-94.943557, 30.040015], [-94.943433, 30.0357], [-94.943429, 30.034401], [-94.935601, 30.034406], [-94.935591, 30.034034], [-94.935517, 30.033843], [-94.933175, 30.031178], [-94.933138, 30.031167], [-94.93278, 30.031244], [-94.932753, 30.031243], [-94.932743, 30.031224], [-94.93005, 30.021584], [-94.929522, 30.017243], [-94.927534, 30.000408], [-94.92748, 29.999803], [-94.907076, 29.990626], [-94.906823, 29.987894], [-94.906863, 29.987677], [-94.906983, 29.987428], [-94.905485, 29.986864], [-94.905187, 29.986732], [-94.902624, 29.98416], [-94.901663, 29.983552], [-94.901566, 29.983477], [-94.899457, 29.980999], [-94.898078, 29.98079], [-94.897892, 29.980694], [-94.897746, 29.980532], [-94.89582, 29.975347], [-94.894367, 29.96927], [-94.892534, 29.966242], [-94.890479, 29.950223], [-94.8904, 29.950066], [-94.890356, 29.950014], [-94.886531, 29.946003], [-94.884253, 29.94449], [-94.884109, 29.944342], [-94.882928, 29.942402], [-94.881663, 29.939393], [-94.881053, 29.936651], [-94.879808, 29.934758], [-94.879116, 29.932186], [-94.878527, 29.92689], [-94.87766, 29.92234], [-94.877693, 29.92215], [-94.877799, 29.92197], [-94.877963, 29.921828], [-94.88502, 29.91826], [-94.885329, 29.917936], [-94.885811, 29.916933], [-94.885832, 29.916743], [-94.885787, 29.91656], [-94.885569, 29.91618], [-94.881699, 29.912525], [-94.881628, 29.912448], [-94.881534, 29.912266], [-94.881502, 29.912072], [-94.881526, 29.91192], [-94.882438, 29.907583], [-94.882431, 29.907508], [-94.882367, 29.90735], [-94.882305, 29.907249], [-94.882249, 29.907195], [-94.879953, 29.905208], [-94.879837, 29.905045], [-94.879768, 29.904856], [-94.879655, 29.902313], [-94.878991, 29.8994], [-94.870024, 29.898329], [-94.872351, 29.894905], [-94.872455, 29.894697], [-94.873359, 29.893357], [-94.873536, 29.893203], [-94.874147, 29.892293], [-94.874442, 29.891385], [-94.874691, 29.890173], [-94.874786, 29.889808], [-94.881381, 29.88637], [-94.894486, 29.879558], [-94.894186, 29.876673], [-94.894109, 29.876561], [-94.893381, 29.869916], [-94.893367, 29.869231], [-94.893451, 29.868464], [-94.893604, 29.867584], [-94.892971, 29.86749], [-94.892945, 29.867455], [-94.892925, 29.867268], [-94.892814, 29.86727], [-94.892802, 29.867259], [-94.89236, 29.86332], [-94.892256, 29.863232], [-94.892117, 29.861962], [-94.891839, 29.86167], [-94.891755, 29.861468], [-94.89198, 29.861223], [-94.891599, 29.860289], [-94.891606, 29.860275], [-94.892036, 29.860141], [-94.892042, 29.860126], [-94.891991, 29.860001], [-94.891999, 29.859986], [-94.892487, 29.859834], [-94.892494, 29.859819], [-94.891701, 29.857892], [-94.892778, 29.857333], [-94.892716, 29.857205], [-94.890941, 29.854604], [-94.890948, 29.854551], [-94.890556, 29.85397], [-94.891084, 29.853691], [-94.891676, 29.853824], [-94.892016, 29.853662], [-94.892079, 29.853539], [-94.892538, 29.853311], [-94.89258, 29.85332], [-94.892658, 29.853438]]}}
]
}
