{
"type": "FeatureCollection",
"features": [
{"type": "Feature", "properties": {"ProjectID": "P6518", "pipeline": "pig_launcher"}, "geometry": {"type": "Point", "coordinates": [-93.690552, 31.009302]}},
{"type": "Feature", "properties": {"ProjectID": "P6518", "pipeline": "valve"}, "geometry": {"type": "Point", "coordinates": [-94.510979, 30.191271]}},
{"type": "Feature", "properties": {"ProjectID": "P6518", "layer": "-1", "location": "underground", "man_made": "pipeline", "name": "Black Lake NGL Pipeline", "oneway": "yes", "operator": "DCP Operating Company, LP", "ref": "BLK-1", "substance": "y-grade", "usage": "transmission"}, "geometry": {"type": "LineString", "coordinates": [[-92.960143, 31.941054], [-92.963062, 31.942894], [-92.975795, 31.94277], [-92.976326, 31.942083], [-92.976556, 31.941918], [-92.976751, 31.941831], [-92.983096, 31.94071], [-92.983309, 31.940616], [-92.983343, 31.940522], [-92.983589, 31.940385], [-92.983895, 31.940338], [-92.984507, 31.940331], [-92.985893, 31.94023], [-92.986411, 31.940125], [-92.987104, 31.939898], [-92.987699, 31.939584], [-92.988192, 31.939249], [-92.988523, 31.938975], [-92.991341, 31.935895], [-92.993734, 31.933237], [-92.994078, 31.93293], [-92.994737, 31.932512], [-92.995943, 31.931895], [-92.996781, 31.931329], [-92.99837, 31.930312], [-92.99925, 31.929774], [-93.000911, 31.929048], [-93.002545, 31.928372], [-93.016105, 31.924269], [-93.023371, 31.922829], [-93.027478, 31.917215], [-93.032937, 31.909826], [-93.035912, 31.905995], [-93.044407, 31.897865], [-93.050224, 31.892047], [-93.054751, 31.888439], [-93.057069, 31.886308], [-93.05933, 31.880756], [-93.05937, 31.879996], [-93.060265, 31.87767], [-93.062468, 31.873119], [-93.065119, 31.868127], [-93.067201, 31.864716], [-93.071551, 31.861615], [-93.088106, 31.849672], [-93.092033, 31.845695], [-93.092293, 31.845501], [-93.100099, 31.839416], [-93.105376, 31.835444], [-93.105693, 31.833814], [-93.105799, 31.833682], [-93.112035, 31.828688], [-93.119507, 31.823161], [-93.127256, 31.81684], [-93.1305, 31.813267], [-93.134753, 31.807532], [-93.140152, 31.801286], [-93.145437, 31.795322], [-93.149608, 31.790519], [-93.155836, 31.783421], [-93.162374, 31.775976], [-93.167659, 31.770018], [-93.171927, 31.765193], [-93.175765, 31.760741], [-93.177018, 31.757491], [-93.178497, 31.7527], [-93.18148, 31.749111], [-93.182652, 31.747618], [-93.185025, 31.744663], [-93.186285, 31.743118], [-93.187112, 31.74209], [-93.187504, 31.74151], [-93.189298, 31.737943], [-93.190857, 31.735469], [-93.19252, 31.732832], [-93.194514, 31.729626], [-93.196167, 31.726917], [-93.197596, 31.724411], [-93.197816, 31.724061], [-93.200151, 31.721356], [-93.201552, 31.719747], [-93.201654, 31.719624], [-93.20164, 31.718476], [-93.201683, 31.716259], [-93.201692, 31.715926], [-93.201739, 31.715763], [-93.20193, 31.715072], [-93.202173, 31.714043], [-93.202327, 31.71361], [-93.202929, 31.71268], [-93.203873, 31.711155], [-93.204727, 31.709732], [-93.206021, 31.707408], [-93.207576, 31.704762], [-93.208944, 31.702386], [-93.210187, 31.700225], [-93.210691, 31.699386], [-93.211025, 31.698967], [-93.212645, 31.697123], [-93.214196, 31.695367], [-93.216213, 31.69303], [-93.21747, 31.691584], [-93.219291, 31.689573], [-93.220557, 31.688103], [-93.221486, 31.687058], [-93.223625, 31.684137], [-93.225296, 31.681793], [-93.228837, 31.676927], [-93.22964, 31.676021], [-93.231237, 31.673429], [-93.232591, 31.671291], [-93.234301, 31.668517], [-93.236094, 31.665663], [-93.237663, 31.663469], [-93.238896, 31.661513], [-93.240755, 31.658532], [-93.241362, 31.657522], [-93.241698, 31.657181], [-93.242202, 31.656831], [-93.242623, 31.656378], [-93.243379, 31.655066], [-93.244182, 31.653827], [-93.250394, 31.643749], [-93.254777, 31.636737], [-93.260363, 31.627799], [-93.264803, 31.6208], [-93.269795, 31.613619], [-93.275251, 31.605871], [-93.28139, 31.596868], [-93.286236, 31.58891], [-93.289699, 31.583411], [-93.289821, 31.583286], [-93.291992, 31.582185], [-93.292594, 31.581776], [-93.293058, 31.581277], [-93.29705, 31.574911], [-93.298871, 31.572002], [-93.299083, 31.571462], [-93.29931, 31.570492], [-93.299855, 31.569695], [-93.305311, 31.561229], [-93.309246, 31.555333], [-93.314914, 31.546755], [-93.318207, 31.54171], [-93.324012, 31.533034], [-93.329443, 31.524849], [-93.33459, 31.517301], [-93.339542, 31.51023], [-93.343974, 31.504019], [-93.347299, 31.499659], [-93.351665, 31.493897], [-93.355934, 31.488226], [-93.359699, 31.483226], [-93.363333, 31.477533], [-93.363756, 31.476819], [-93.365618, 31.473851], [-93.365943, 31.473428], [-93.366789, 31.472527], [-93.367033, 31.47227], [-93.370123, 31.467582], [-93.371106, 31.465404], [-93.373407, 31.461569], [-93.378733, 31.452712], [-93.385636, 31.441086], [-93.388637, 31.436202], [-93.391426, 31.431568], [-93.394564, 31.426246], [-93.397451, 31.421861], [-93.400044, 31.418371], [-93.403354, 31.413604], [-93.406631, 31.408531], [-93.409956, 31.403424], [-93.411867, 31.400696], [-93.413355, 31.398336], [-93.413534, 31.398205], [-93.415932, 31.397184], [-93.422339, 31.394401], [-93.422608, 31.394255], [-93.425941, 31.389855], [-93.428186, 31.386808], [-93.429446, 31.38451], [-93.432365, 31.379158], [-93.432674, 31.378818], [-93.43291, 31.378624], [-93.43482, 31.377916], [-93.435056, 31.377791], [-93.437252, 31.375174], [-93.439341, 31.372619], [-93.439512, 31.372453], [-93.441585, 31.371606], [-93.44178, 31.371515], [-93.442041, 31.371168], [-93.442342, 31.370696], [-93.441716, 31.367461], [-93.441699, 31.366947], [-93.442122, 31.365427], [-93.442903, 31.362671], [-93.443016, 31.362289], [-93.443667, 31.361289], [-93.44387, 31.36074], [-93.445407, 31.3552], [-93.447147, 31.34945], [-93.447293, 31.348964], [-93.44918, 31.34511], [-93.452952, 31.337561], [-93.455319, 31.332714], [-93.455538, 31.332158], [-93.455619, 31.33145], [-93.455774, 31.331117], [-93.458546, 31.327026], [-93.46027, 31.324609], [-93.460465, 31.324331], [-93.461327, 31.321622], [-93.461506, 31.321164], [-93.462569, 31.319146], [-93.468424, 31.308646], [-93.473947, 31.298706], [-93.480133, 31.287702], [-93.485936, 31.277418], [-93.491109, 31.268076], [-93.494183, 31.262711], [-93.497346, 31.257192], [-93.502216, 31.248503], [-93.505127, 31.243408], [-93.508152, 31.237895], [-93.511266, 31.232236], [-93.514502, 31.226653], [-93.517949, 31.22061], [-93.519689, 31.217488], [-93.522503, 31.212502], [-93.526079, 31.207214], [-93.52826, 31.203931], [-93.529107, 31.202956], [-93.529624, 31.202443], [-93.530388, 31.202026], [-93.531411, 31.200764], [-93.533127, 31.197837], [-93.533639, 31.196902], [-93.534307, 31.195213], [-93.534477, 31.194977], [-93.535105, 31.19437], [-93.535156, 31.194298], [-93.535186, 31.194226], [-93.535213, 31.193973], [-93.535189, 31.19334], [-93.535186, 31.191957], [-93.535297, 31.191776], [-93.537352, 31.189632], [-93.538169, 31.188927], [-93.539621, 31.188218], [-93.540561, 31.185367], [-93.540555, 31.185015], [-93.539674, 31.183124]]}},
{"type": "Feature", "properties": {"ProjectID": "P6518", "diameter": "8.625\"", "layer": "-1", "location": "underground", "man_made": "pipeline", "name": "Black Lake Pipeline", "operator": "DCP Operating Company, LP", "ref": "BLK-1", "substance": "ngl", "usage": "transmission"}, "geometry": {"type": "LineString", "coordinates": [[-94.073626, 30.543331], [-94.086313, 30.533285], [-94.100434, 30.521769], [-94.101729, 30.520285], [-94.107575, 30.515489], [-94.108698, 30.51455], [-94.109705, 30.513537], [-94.109911, 30.513354], [-94.111215, 30.512513], [-94.119977, 30.50012], [-94.121219, 30.498321], [-94.124337, 30.493922], [-94.126602, 30.490652], [-94.131358, 30.48387], [-94.133505, 30.480773], [-94.140197, 30.471263], [-94.144874, 30.464465], [-94.146951, 30.461503], [-94.156408, 30.447902], [-94.160183, 30.445865], [-94.162024, 30.444817], [-94.162, 30.444396], [-94.162008, 30.444292], [-94.162117, 30.443285], [-94.162327, 30.443054], [-94.16245, 30.442963], [-94.163254, 30.442615], [-94.163458, 30.442126], [-94.164093, 30.440388], [-94.164368, 30.440252], [-94.168759, 30.440192], [-94.169241, 30.439148], [-94.169567, 30.438868], [-94.172046, 30.437988], [-94.172926, 30.437359], [-94.181691, 30.430569], [-94.191076, 30.423331], [-94.194145, 30.420938], [-94.195106, 30.420576], [-94.196316, 30.420189], [-94.197167, 30.419801], [-94.198563, 30.418901], [-94.200562, 30.417553], [-94.213101, 30.409389], [-94.21929, 30.405106], [-94.220048, 30.404556], [-94.221789, 30.402548], [-94.223186, 30.40105], [-94.226366, 30.39799], [-94.22695, 30.397407], [-94.22803, 30.396389], [-94.228705, 30.395752], [-94.230207, 30.394574], [-94.231047, 30.393987], [-94.232513, 30.393224], [-94.233683, 30.391836], [-94.242615, 30.384848], [-94.248796, 30.380778], [-94.250273, 30.378009], [-94.265553, 30.367702], [-94.267003, 30.366751], [-94.267621, 30.366267], [-94.272364, 30.361145], [-94.273684, 30.35974], [-94.276591, 30.358745], [-94.280797, 30.35733], [-94.291442, 30.351844], [-94.30126, 30.345006], [-94.308161, 30.340168], [-94.310583, 30.338494], [-94.311452, 30.338005], [-94.314425, 30.335945], [-94.321097, 30.326363], [-94.321585, 30.325642], [-94.327198, 30.323394], [-94.328851, 30.322829], [-94.329787, 30.322391], [-94.330683, 30.321993], [-94.335382, 30.320118], [-94.339775, 30.316256], [-94.343425, 30.314303], [-94.343765, 30.314031], [-94.344083, 30.313768], [-94.345601, 30.312432], [-94.346542, 30.312071], [-94.347439, 30.308579], [-94.347505, 30.308497], [-94.347567, 30.308476], [-94.353253, 30.30847], [-94.353305, 30.308453], [-94.355317, 30.306755], [-94.356965, 30.306258], [-94.357741, 30.305772], [-94.371919, 30.29505], [-94.38192, 30.286314], [-94.385807, 30.282938], [-94.403541, 30.269737], [-94.410555, 30.264538], [-94.411437, 30.263977], [-94.414753, 30.261934], [-94.428018, 30.253684], [-94.43192, 30.250234], [-94.435517, 30.246999], [-94.443791, 30.239643], [-94.444206, 30.239335], [-94.44729, 30.236869], [-94.452367, 30.232885], [-94.453645, 30.231932], [-94.468625, 30.221282], [-94.469381, 30.220407], [-94.469606, 30.220231], [-94.469926, 30.220027], [-94.476195, 30.215555], [-94.482326, 30.211647], [-94.498076, 30.201545], [-94.499319, 30.200704], [-94.50237, 30.198233], [-94.505523, 30.195706], [-94.508118, 30.193589], [-94.508785, 30.192956], [-94.509558, 30.192166], [-94.510542, 30.191634], [-94.510979, 30.191271], [-94.511279, 30.191039], [-94.512017, 30.190531], [-94.518164, 30.186354], [-94.530752, 30.177744], [-94.533381, 30.176897], [-94.539621, 30.172574], [-94.54245, 30.171263], [-94.542946, 30.170828], [-94.544577, 30.169155], [-94.545108, 30.16869], [-94.545789, 30.168199], [-94.5616, 30.157083], [-94.565465, 30.154382], [-94.585621, 30.140141], [-94.586394, 30.137821], [-94.587083, 30.135892], [-94.595402, 30.131015], [-94.601825, 30.127254]]}},
{"type": "Feature", "properties": {"ProjectID": "P6518", "operator": "DCP Operating Company, LP", "pipeline": "valve"}, "geometry": {"type": "Point", "coordinates": [-93.530674, 31.011388]}},
{"type": "Feature", "properties": {"ProjectID": "P6518", "pipeline": "valve"}, "geometry": {"type": "Point", "coordinates": [-93.574301, 31.147112]}},
{"type": "Feature", "properties": {"ProjectID": "P6518", "pipeline": "valve"}, "geometry": {"type": "Point", "coordinates": [-94.343765, 30.314031]}},
{"type": "Feature", "properties": {"ProjectID": "P6518", "layer": "-1", "location": "underground", "man_made": "pipeline", "name": "Black Lake NGL Pipeline", "oneway": "yes", "operator": "DCP Operating Company, LP", "ref": "BLK-1", "substance": "y-grade", "usage": "transmission"}, "geometry": {"type": "LineString", "coordinates": [[-93.376176, 32.784237], [-93.376114, 32.783783], [-93.37608, 32.78367], [-93.375822, 32.783367], [-93.375265, 32.782972], [-93.373537, 32.782386], [-93.370511, 32.78134], [-93.366917, 32.780302], [-93.364149, 32.778138], [-93.360233, 32.775161], [-93.359149, 32.77462], [-93.354879, 32.771426], [-93.352969, 32.769784], [-93.351478, 32.769478], [-93.348152, 32.765824], [-93.346006, 32.763442], [-93.34208, 32.758958], [-93.340588, 32.757433], [-93.336501, 32.753725], [-93.331083, 32.748392], [-93.329248, 32.74656], [-93.328357, 32.746136], [-93.323047, 32.741741], [-93.320418, 32.738411], [-93.318916, 32.737527], [-93.3178, 32.736525], [-93.31411, 32.732681], [-93.311545, 32.731137], [-93.309957, 32.729549], [-93.30573, 32.725144], [-93.305634, 32.724837], [-93.302211, 32.720956], [-93.298724, 32.716939], [-93.292856, 32.710296], [-93.292545, 32.709591], [-93.288114, 32.705475], [-93.281837, 32.699543], [-93.279863, 32.697674], [-93.277664, 32.694749], [-93.274574, 32.690424], [-93.273737, 32.689413], [-93.271259, 32.687661], [-93.26996, 32.686469], [-93.267375, 32.683218], [-93.266098, 32.681566], [-93.265701, 32.680202], [-93.264854, 32.679434], [-93.262, 32.675226], [-93.258599, 32.670295], [-93.255991, 32.666701], [-93.253159, 32.662564], [-93.250992, 32.659448], [-93.248084, 32.655175], [-93.245509, 32.651399], [-93.242773, 32.647443], [-93.240671, 32.644374], [-93.239601, 32.642783], [-93.237042, 32.639033], [-93.236958, 32.638914], [-93.236834, 32.638829], [-93.235029, 32.63801], [-93.234703, 32.637915], [-93.234517, 32.637631], [-93.23436, 32.637006], [-93.234236, 32.636589], [-93.234562, 32.633715], [-93.232482, 32.630282], [-93.2289, 32.624272], [-93.22164, 32.61226], [-93.213464, 32.598826], [-93.209769, 32.592724], [-93.20833, 32.590288], [-93.204393, 32.583788], [-93.201391, 32.578775], [-93.196622, 32.571093], [-93.1943, 32.570183], [-93.193928, 32.569956], [-93.193777, 32.569823], [-93.193748, 32.569354], [-93.194288, 32.567402], [-93.192334, 32.564378], [-93.188341, 32.557581], [-93.184433, 32.55078], [-93.182566, 32.547599], [-93.180452, 32.544153], [-93.180154, 32.543745], [-93.179715, 32.543319], [-93.1794, 32.542935], [-93.179243, 32.54248], [-93.179209, 32.542101], [-93.178006, 32.540072], [-93.172444, 32.530846], [-93.16871, 32.524611], [-93.164932, 32.518296], [-93.164836, 32.51822], [-93.163256, 32.517746], [-93.163149, 32.517684], [-93.160697, 32.51426], [-93.160388, 32.510334], [-93.154258, 32.496386], [-93.148247, 32.482598], [-93.14611, 32.477816], [-93.139812, 32.463266], [-93.13501, 32.452409], [-93.130899, 32.443066], [-93.125833, 32.431443], [-93.120058, 32.418309], [-93.119664, 32.417526], [-93.117448, 32.414027], [-93.117173, 32.413438], [-93.117021, 32.413044], [-93.116824, 32.412513], [-93.115688, 32.408416], [-93.11512, 32.406925], [-93.10912, 32.393441], [-93.104144, 32.382073], [-93.098756, 32.369559], [-93.09414, 32.359779], [-93.089382, 32.34987], [-93.084271, 32.339147], [-93.079632, 32.329521], [-93.077483, 32.325069], [-93.071984, 32.313544], [-93.06717, 32.303364], [-93.064904, 32.298668], [-93.06482, 32.29843], [-93.064758, 32.297927], [-93.064673, 32.29536], [-93.064651, 32.295212], [-93.064387, 32.294628], [-93.063774, 32.292902], [-93.062517, 32.288509], [-93.062284, 32.287948], [-93.062505, 32.286493], [-93.061571, 32.28536], [-93.060341, 32.281546], [-93.05953, 32.280537], [-93.059296, 32.278386], [-93.056714, 32.269945], [-93.054083, 32.261566], [-93.051368, 32.250395], [-93.049587, 32.242374], [-93.045961, 32.232482], [-93.043257, 32.225094], [-93.042506, 32.220683], [-93.039953, 32.21246], [-93.038794, 32.209083], [-93.038494, 32.208284], [-93.037528, 32.200713], [-93.03667, 32.1967], [-93.036992, 32.195683], [-93.035468, 32.184751], [-93.034383, 32.177337], [-93.033988, 32.174308], [-93.032464, 32.162847], [-93.032164, 32.161376], [-93.031627, 32.159741], [-93.031091, 32.158215], [-93.02813, 32.150204], [-93.027035, 32.147878], [-93.02637, 32.147169], [-93.022122, 32.136123], [-93.018731, 32.127146], [-93.014826, 32.114189], [-93.014096, 32.11219], [-93.012165, 32.108137], [-93.010771, 32.104501], [-93.009655, 32.099485], [-93.008517, 32.098121], [-93.007251, 32.094885], [-93.00723, 32.093886], [-93.003647, 32.086323], [-93.002466, 32.085778], [-92.999677, 32.07676], [-92.997038, 32.073233], [-92.99648, 32.071487], [-92.996802, 32.06765], [-92.994699, 32.060795], [-92.995321, 32.059286], [-92.99236, 32.04952], [-92.992295, 32.048192], [-92.991652, 32.0471], [-92.98824, 32.036096], [-92.985558, 32.027656], [-92.986094, 32.026037], [-92.985236, 32.023162], [-92.985, 32.021871], [-92.983283, 32.016758], [-92.980086, 32.004895], [-92.979914, 32.003621], [-92.979378, 32.002293], [-92.976352, 31.99132], [-92.97646, 31.990901], [-92.975945, 31.990319], [-92.974207, 31.984131], [-92.972447, 31.978379], [-92.972597, 31.97676], [-92.972125, 31.975722], [-92.969765, 31.968496], [-92.966224, 31.957154], [-92.964744, 31.952676], [-92.964079, 31.951802], [-92.960774, 31.942352], [-92.960733, 31.941674], [-92.960701, 31.94134], [-92.960562, 31.941205], [-92.960196, 31.941005]]}},
{"type": "Feature", "properties": {"ProjectID": "P6518", "operator": "DCP Operating Company, LP", "pipeline": "valve"}, "geometry": {"type": "Point", "coordinates": [-93.424473, 30.996213]}},
{"type": "Feature", "properties": {"ProjectID": "P6518", "diameter": "8.63\"", "layer": "-1", "location": "underground", "man_made": "pipeline", "name": "Black Lake Pipeline", "operator": "DCP Operating Company, LLC", "ref": "BLK-1/161389", "substance": "ngl", "usage": "transmission"}, "geometry": {"type": "LineString", "coordinates": [[-94.875548, 29.886423], [-94.876104, 29.884078], [-94.877, 29.880458], [-94.877509, 29.880102], [-94.892518, 29.872202], [-94.893207, 29.871971], [-94.894406, 29.871693], [-94.894953, 29.867287], [-94.895643, 29.861469], [-94.895765, 29.859514], [-94.895792, 29.858337], [-94.895771, 29.857327], [-94.896249, 29.856768]]}},
{"type": "Feature", "properties": {"ProjectID": "P6518", "pipeline": "valve"}, "geometry": {"type": "Point", "coordinates": [-93.714298, 30.981193]}},
{"type": "Feature", "properties": {"ProjectID": "P6518", "pipeline": "valve"}, "geometry": {"type": "Point", "coordinates": [-93.690805, 31.009104]}},
{"type": "Feature", "properties": {"ProjectID": "P6518", "operator": "DCP Operating Company, LP", "pipeline": "valve"}, "geometry": {"type": "Point", "coordinates": [-93.104144, 32.382073]}},
{"type": "Feature", "properties": {"ProjectID": "P6518", "pipeline": "valve"}, "geometry": {"type": "Point", "coordinates": [-94.162008, 30.444292]}},
{"type": "Feature", "properties": {"ProjectID": "P6518", "operator": "DCP Operating Company, LP", "pipeline": "valve"}, "geometry": {"type": "Point", "coordinates": [-93.535186, 31.194226]}},
{"type": "Feature", "properties": {"ProjectID": "P6518", "pipeline": "pig_launcher"}, "geometry": {"type": "Point", "coordinates": [-93.215861, 30.933028]}},
{"type": "Feature", "properties": {"ProjectID": "P6518", "diameter": "8.625\"", "layer": "-1", "location": "underground", "man_made": "pipeline", "name": "Black Lake Pipeline", "operator": "DCP Operating Company, LLC", "ref": "BLK-1", "substance": "ngl", "usage": "transmission"}, "geometry": {"type": "LineString", "coordinates": [[-93.539674, 31.183124], [-93.539125, 31.182123], [-93.539102, 31.181905], [-93.539412, 31.181094], [-93.539488, 31.18102], [-93.540007, 31.180903], [-93.540746, 31.180137], [-93.544432, 31.176888], [-93.545723, 31.175722], [-93.546785, 31.174796], [-93.550893, 31.171135], [-93.552913, 31.16943], [-93.554172, 31.168613], [-93.555196, 31.167734], [-93.557105, 31.166051], [-93.558286, 31.16497], [-93.561909, 31.160972], [-93.57279, 31.148523], [-93.573606, 31.147521], [-93.573805, 31.14725], [-93.574301, 31.147112], [-93.575372, 31.146832], [-93.578256, 31.143193], [-93.578957, 31.142224], [-93.579592, 31.141472], [-93.5807, 31.140013], [-93.582823, 31.137307], [-93.591146, 31.126602], [-93.592866, 31.124415], [-93.594383, 31.122529], [-93.597565, 31.118422], [-93.598861, 31.116723], [-93.599626, 31.11579], [-93.605842, 31.108026], [-93.611101, 31.101711], [-93.618529, 31.093473], [-93.618808, 31.093201], [-93.621869, 31.089785], [-93.627248, 31.083987], [-93.630859, 31.080125], [-93.631901, 31.079059], [-93.632564, 31.078319], [-93.633584, 31.077258], [-93.635266, 31.075469], [-93.636929, 31.07366], [-93.641279, 31.069031], [-93.648933, 31.060834], [-93.653407, 31.055442], [-93.654569, 31.054018], [-93.655199, 31.053323], [-93.65584, 31.05296], [-93.656246, 31.052653], [-93.656529, 31.052077], [-93.656957, 31.051342], [-93.658438, 31.04991], [-93.659312, 31.04896], [-93.660057, 31.047987], [-93.660888, 31.046556], [-93.670799, 31.034521], [-93.682534, 31.019776], [-93.685288, 31.016261], [-93.686094, 31.015197], [-93.690805, 31.009104], [-93.692945, 31.006346], [-93.693793, 31.005154], [-93.693879, 31.00486], [-93.69441, 31.004104], [-93.696496, 31.001807], [-93.702207, 30.995656], [-93.702756, 30.994979], [-93.702836, 30.994422], [-93.704786, 30.992853], [-93.705613, 30.991881], [-93.708822, 30.988023], [-93.709562, 30.987], [-93.709795, 30.986598], [-93.710847, 30.985269], [-93.712168, 30.983729], [-93.714298, 30.981193], [-93.720146, 30.974332], [-93.727804, 30.965315], [-93.728321, 30.964574], [-93.729032, 30.96366], [-93.735252, 30.956373], [-93.742705, 30.947592], [-93.757277, 30.930484], [-93.758535, 30.929215], [-93.759696, 30.927883], [-93.760356, 30.926799], [-93.760869, 30.926115], [-93.764954, 30.921353], [-93.768638, 30.917446], [-93.771572, 30.914304], [-93.772983, 30.912712], [-93.775643, 30.90955], [-93.78292, 30.901042], [-93.783498, 30.900454], [-93.783833, 30.900193], [-93.784757, 30.899251], [-93.786819, 30.89696], [-93.788035, 30.895508], [-93.793593, 30.888976], [-93.794447, 30.887923], [-93.795355, 30.886609], [-93.796032, 30.886144], [-93.796689, 30.885616], [-93.797955, 30.883857], [-93.804631, 30.87598], [-93.805693, 30.87502], [-93.806065, 30.874565], [-93.806882, 30.873437], [-93.807572, 30.872246], [-93.808466, 30.87104], [-93.810748, 30.868302], [-93.811555, 30.867596], [-93.812675, 30.866221], [-93.813278, 30.864912], [-93.81359, 30.864527], [-93.815172, 30.863041], [-93.8179, 30.860939], [-93.818095, 30.860624], [-93.818546, 30.860044], [-93.822141, 30.855549], [-93.830104, 30.845749], [-93.840171, 30.833314], [-93.841674, 30.831511], [-93.85274, 30.817863], [-93.857935, 30.810692], [-93.859599, 30.808448], [-93.867593, 30.798506], [-93.870501, 30.79493]]}},
{"type": "Feature", "properties": {"ProjectID": "P6518", "diameter": "8.63\"", "layer": "-1", "location": "underground", "man_made": "pipeline", "name": "Black Lake Pipeline", "operator": "DCP Operating Company, LLC", "ref": "BLK-1", "substance": "ngl", "usage": "transmission"}, "geometry": {"type": "LineString", "coordinates": [[-94.601825, 30.127254], [-94.612933, 30.120644], [-94.614236, 30.11899], [-94.615811, 30.117031], [-94.616967, 30.115556], [-94.618392, 30.113806], [-94.620494, 30.111152], [-94.621431, 30.110121], [-94.62249, 30.10876], [-94.623092, 30.107921], [-94.626136, 30.103865], [-94.627361, 30.10217], [-94.627618, 30.101563], [-94.628281, 30.101016], [-94.636972, 30.089754], [-94.638247, 30.088081], [-94.638614, 30.087724], [-94.646157, 30.07838], [-94.647035, 30.077326], [-94.647983, 30.076355], [-94.649873, 30.074549], [-94.652855, 30.07144], [-94.654979, 30.069191], [-94.659698, 30.065771], [-94.661237, 30.066035], [-94.664689, 30.063117], [-94.669577, 30.060029], [-94.670952, 30.059175], [-94.67217, 30.058391], [-94.678502, 30.054427], [-94.683335, 30.051371], [-94.685517, 30.050098], [-94.691349, 30.046779], [-94.6923, 30.044505], [-94.698577, 30.040625], [-94.699301, 30.040199], [-94.699863, 30.039711], [-94.703883, 30.034931], [-94.705809, 30.032679], [-94.707931, 30.030499], [-94.708089, 30.030401], [-94.709122, 30.030247], [-94.709852, 30.029553], [-94.71314, 30.026313], [-94.71533, 30.024401], [-94.716517, 30.023391], [-94.720708, 30.020491], [-94.722792, 30.019087], [-94.725371, 30.017314], [-94.727292, 30.01735], [-94.730958, 30.017332], [-94.731081, 30.017285], [-94.735581, 30.008394], [-94.737161, 30.00571], [-94.738054, 30.004164], [-94.741364, 29.998336], [-94.741725, 29.99773], [-94.742314, 29.996833], [-94.744992, 29.996811], [-94.747479, 29.996825], [-94.747765, 29.99688], [-94.74807, 29.997085], [-94.748485, 29.997267], [-94.749048, 29.997317], [-94.749345, 29.997319], [-94.750406, 29.997292], [-94.751187, 29.997242], [-94.753768, 29.995563], [-94.755759, 29.994578], [-94.756613, 29.994141], [-94.767591, 29.987062], [-94.773539, 29.983198], [-94.786762, 29.974693], [-94.795327, 29.969151], [-94.796402, 29.968349], [-94.801272, 29.964492], [-94.804126, 29.962204], [-94.804541, 29.961979], [-94.80657, 29.960726], [-94.80745, 29.960219], [-94.807711, 29.960037], [-94.809121, 29.959248], [-94.810233, 29.959296], [-94.815387, 29.959594], [-94.819162, 29.95828], [-94.819596, 29.95774], [-94.820126, 29.957694], [-94.820411, 29.957739], [-94.820882, 29.957566], [-94.824757, 29.956235], [-94.824928, 29.956203], [-94.82508, 29.956138], [-94.831894, 29.953793], [-94.832555, 29.953528], [-94.833951, 29.951412], [-94.834375, 29.950832], [-94.837457, 29.94628], [-94.839956, 29.942653], [-94.8408, 29.941406], [-94.84141, 29.940439], [-94.848482, 29.930041], [-94.850076, 29.927649], [-94.850957, 29.92661], [-94.851118, 29.926215], [-94.851798, 29.925126], [-94.852884, 29.923548], [-94.858145, 29.915718], [-94.861101, 29.911422], [-94.869411, 29.899091], [-94.873536, 29.893036], [-94.874138, 29.892185], [-94.87424, 29.891675], [-94.875078, 29.888278], [-94.875548, 29.886423]]}},
{"type": "Feature", "properties": {"ProjectID": "P6518", "layer": "-1", "location": "underground", "man_made": "pipeline", "name": "Black Lake NGL Pipeline", "oneway": "yes", "operator": "DCP Operating Company, LP", "ref": "BLK-1-1", "substance": "y-grade", "usage": "transmission"}, "geometry": {"type": "LineString", "coordinates": [[-93.215794, 30.933003], [-93.217931, 30.934855], [-93.218719, 30.935918], [-93.219119, 30.936675], [-93.22197, 30.941792], [-93.222082, 30.941818], [-93.223692, 30.941858], [-93.233486, 30.941848], [-93.233838, 30.941873], [-93.234097, 30.941903], [-93.234814, 30.942276], [-93.234938, 30.942382], [-93.235208, 30.942831], [-93.235637, 30.943547], [-93.236977, 30.944601], [-93.238441, 30.945412], [-93.239282, 30.946007], [-93.239811, 30.947318], [-93.239817, 30.947616], [-93.239682, 30.948402], [-93.239611, 30.949587], [-93.239823, 30.951397], [-93.239881, 30.952369], [-93.239734, 30.953186], [-93.239711, 30.954013], [-93.239734, 30.954759], [-93.239864, 30.955722], [-93.23987, 30.955969], [-93.239623, 30.956892], [-93.239593, 30.957239], [-93.23964, 30.957693], [-93.239781, 30.958177], [-93.239993, 30.95853], [-93.241345, 30.960279], [-93.241527, 30.960566], [-93.24161, 30.960859], [-93.241645, 30.962426], [-93.241657, 30.96287], [-93.241516, 30.963273], [-93.241151, 30.964085], [-93.241116, 30.964896], [-93.241163, 30.965068], [-93.241492, 30.965415], [-93.241686, 30.965521], [-93.241951, 30.965567], [-93.242156, 30.965572], [-93.242486, 30.965486], [-93.244225, 30.964775], [-93.245695, 30.964291], [-93.248905, 30.963964], [-93.250568, 30.963823], [-93.253272, 30.963772], [-93.262139, 30.963717], [-93.269416, 30.963499], [-93.272064, 30.963602], [-93.280517, 30.963814], [-93.283227, 30.963738], [-93.283962, 30.963678], [-93.285443, 30.963421], [-93.285908, 30.96331], [-93.288929, 30.96334], [-93.302003, 30.963391], [-93.30339, 30.963587], [-93.304002, 30.963638], [-93.304225, 30.963607], [-93.304783, 30.963426], [-93.311156, 30.963315], [-93.319615, 30.963255], [-93.320114, 30.96328], [-93.32072, 30.963159], [-93.321513, 30.962831], [-93.321931, 30.962614], [-93.32226, 30.962393], [-93.322754, 30.962135], [-93.323106, 30.962191], [-93.3235, 30.962377], [-93.323847, 30.962534], [-93.32564, 30.962826], [-93.326093, 30.962962], [-93.326416, 30.963159], [-93.32668, 30.963376], [-93.327933, 30.96516], [-93.328197, 30.965866], [-93.328291, 30.967796], [-93.328285, 30.967952], [-93.32805, 30.968577], [-93.328009, 30.968754], [-93.328163, 30.97344], [-93.328155, 30.974413], [-93.328208, 30.9747], [-93.328502, 30.975108], [-93.328596, 30.975199], [-93.329519, 30.975632], [-93.330971, 30.9766], [-93.331206, 30.976802], [-93.331764, 30.977543], [-93.331911, 30.977643], [-93.332029, 30.977739], [-93.332493, 30.977855], [-93.333257, 30.977926], [-93.339183, 30.977936], [-93.347436, 30.97784], [-93.352409, 30.977976], [-93.354014, 30.978142], [-93.356865, 30.978213], [-93.374699, 30.978243], [-93.375107, 30.978246], [-93.375379, 30.978334], [-93.375715, 30.978381], [-93.376828, 30.978378], [-93.377003, 30.978348], [-93.37716, 30.978286], [-93.377602, 30.978203], [-93.380917, 30.978195], [-93.381044, 30.978199], [-93.385434, 30.979737], [-93.392688, 30.982275], [-93.398566, 30.984373], [-93.398981, 30.984492], [-93.399298, 30.984527], [-93.400087, 30.984555], [-93.400607, 30.984624], [-93.400916, 30.984764], [-93.40294, 30.985989], [-93.409783, 30.989637], [-93.416731, 30.993366], [-93.419129, 30.994706], [-93.422815, 30.996289], [-93.423056, 30.996334], [-93.423273, 30.996329], [-93.424473, 30.996213], [-93.424831, 30.996158], [-93.425454, 30.996218], [-93.426042, 30.996339], [-93.426895, 30.996631], [-93.435818, 31.000564], [-93.436566, 31.000836], [-93.438266, 31.001331], [-93.438998, 31.001784], [-93.440827, 31.00299], [-93.441087, 31.003164], [-93.441404, 31.003269], [-93.442283, 31.00338], [-93.443071, 31.003568], [-93.444385, 31.004094], [-93.445988, 31.00491], [-93.447094, 31.00532], [-93.447382, 31.00539], [-93.449787, 31.005731], [-93.449889, 31.005753], [-93.450076, 31.005801], [-93.450199, 31.005863], [-93.451087, 31.006424], [-93.451219, 31.006478], [-93.452872, 31.006805], [-93.453165, 31.006876], [-93.454523, 31.007007], [-93.454994, 31.007062], [-93.455587, 31.007208], [-93.456581, 31.007506], [-93.457639, 31.007949], [-93.45798, 31.00803], [-93.45815, 31.008009], [-93.458956, 31.007803], [-93.459155, 31.007778], [-93.466586, 31.008891], [-93.472829, 31.009879], [-93.473099, 31.009894], [-93.474404, 31.009702], [-93.475015, 31.009637], [-93.475227, 31.009682], [-93.477179, 31.010644], [-93.477361, 31.010655], [-93.493809, 31.010695], [-93.500228, 31.010685], [-93.500463, 31.010665], [-93.500798, 31.010579], [-93.501192, 31.010448], [-93.502021, 31.010398], [-93.502697, 31.010473], [-93.503355, 31.010624], [-93.503555, 31.010639], [-93.505783, 31.010675], [-93.513213, 31.010685], [-93.52149, 31.010609], [-93.521649, 31.010599], [-93.521854, 31.010559], [-93.52216, 31.010468], [-93.522742, 31.010448], [-93.523844, 31.010627], [-93.530338, 31.010489], [-93.530487, 31.010514], [-93.530534, 31.010555], [-93.530674, 31.011388], [-93.530796, 31.012425], [-93.531007, 31.012844], [-93.531166, 31.013136], [-93.531137, 31.014355], [-93.531336, 31.014879], [-93.531419, 31.015262], [-93.531477, 31.019428]]}},
{"type": "Feature", "properties": {"ProjectID": "P6518", "operator": "DCP Operating Company, LP", "pipeline": "valve"}, "geometry": {"type": "Point", "coordinates": [-93.088106, 31.849672]}},
{"type": "Feature", "properties": {"ProjectID": "P6518", "operator": "DCP Operating Company, LP", "pipeline": "valve"}, "geometry": {"type": "Point", "coordinates": [-92.920908, 30.981442]}},
{"type": "Feature", "properties": {"ProjectID": "P6518", "pipeline": "pig_launcher"}, "geometry": {"type": "Point", "coordinates": [-93.215794, 30.933003]}},
{"type": "Feature", "properties": {"ProjectID": "P6518", "diameter": "8.625\"", "layer": "-1", "location": "underground", "man_made": "pipeline", "name": "Black Lake Pipeline", "operator": "DCP Operating Company, LLC", "ref": "BLK-1-1", "substance": "ngl", "usage": "transmission"}, "geometry": {"type": "LineString", "coordinates": [[-93.531477, 31.019428], [-93.531313, 31.024161], [-93.531325, 31.025573], [-93.531281, 31.02712], [-93.531339, 31.027406], [-93.531579, 31.027696], [-93.532729, 31.028627], [-93.533388, 31.029039], [-93.534137, 31.029361], [-93.534357, 31.029396], [-93.53462, 31.029362], [-93.536814, 31.028263], [-93.537427, 31.028162], [-93.53887, 31.028018], [-93.540222, 31.027902], [-93.54276, 31.027763], [-93.544279, 31.027618], [-93.545672, 31.027395], [-93.546788, 31.027172], [-93.547181, 31.027059], [-93.547613, 31.027038], [-93.548507, 31.027358], [-93.548976, 31.027636], [-93.549591, 31.027965], [-93.550292, 31.028427], [-93.55067, 31.028485], [-93.551763, 31.028504], [-93.553308, 31.02849], [-93.554855, 31.0286], [-93.556316, 31.028488], [-93.556946, 31.028643], [-93.558214, 31.029006], [-93.558549, 31.029138], [-93.558795, 31.029347], [-93.559625, 31.029498], [-93.560371, 31.029454], [-93.561829, 31.028956], [-93.56316, 31.028584], [-93.56394, 31.028655], [-93.564994, 31.029063], [-93.566788, 31.029904], [-93.568342, 31.030798], [-93.569352, 31.031437], [-93.570006, 31.032003], [-93.570438, 31.03208], [-93.571469, 31.032122], [-93.574755, 31.032378], [-93.575686, 31.032666], [-93.575993, 31.032747], [-93.577313, 31.032822], [-93.579054, 31.032848], [-93.579936, 31.033229], [-93.581001, 31.033296], [-93.582086, 31.033168], [-93.582601, 31.033022], [-93.583816, 31.03297], [-93.587165, 31.032977], [-93.588222, 31.032926], [-93.596203, 31.032392], [-93.601, 31.031323], [-93.601841, 31.031413], [-93.602649, 31.031397], [-93.602917, 31.031315], [-93.603112, 31.031192], [-93.603515, 31.030748], [-93.604445, 31.030008], [-93.605106, 31.029887], [-93.61219, 31.029199], [-93.617587, 31.028712], [-93.617843, 31.028703], [-93.618249, 31.028756], [-93.618521, 31.02893], [-93.619274, 31.029686], [-93.620294, 31.030176], [-93.620959, 31.030389], [-93.624852, 31.030413], [-93.626373, 31.030396], [-93.632043, 31.030421], [-93.633159, 31.030539], [-93.634844, 31.030567], [-93.635917, 31.0307], [-93.639203, 31.031164], [-93.640584, 31.031068], [-93.641843, 31.030906], [-93.642395, 31.030875], [-93.642719, 31.030916], [-93.643393, 31.031291], [-93.644792, 31.031645], [-93.645775, 31.032371], [-93.653832, 31.032902], [-93.655396, 31.032971], [-93.657197, 31.032921], [-93.657321, 31.032832], [-93.657438, 31.032246], [-93.6575, 31.031562], [-93.658004, 31.031402], [-93.659217, 31.031328], [-93.659872, 31.031188], [-93.661934, 31.030888], [-93.663716, 31.030819], [-93.67063, 31.030805], [-93.673924, 31.03036], [-93.674187, 31.03017], [-93.681463, 31.021053], [-93.688596, 31.011893], [-93.690552, 31.009302]]}},
{"type": "Feature", "properties": {"ProjectID": "P6518", "diameter": "8.625\"", "layer": "-1", "location": "underground", "man_made": "pipeline", "name": "Black Lake Pipeline", "operator": "DCP Operating Company, LLC", "ref": "BLK-1", "substance": "ngl", "usage": "transmission"}, "geometry": {"type": "LineString", "coordinates": [[-93.870501, 30.79493], [-93.872724, 30.792196], [-93.873573, 30.791319], [-93.873769, 30.791136], [-93.874824, 30.789987], [-93.881457, 30.781534], [-93.887076, 30.7743], [-93.888826, 30.771926], [-93.894129, 30.76514], [-93.896054, 30.762815], [-93.900752, 30.75752], [-93.901456, 30.756744], [-93.906457, 30.75102], [-93.907618, 30.748725], [-93.908222, 30.747911], [-93.909652, 30.746292], [-93.911762, 30.743841], [-93.921573, 30.732625], [-93.923613, 30.730182], [-93.92448, 30.729187], [-93.925932, 30.728602], [-93.927995, 30.725725], [-93.928137, 30.725564], [-93.928519, 30.724901], [-93.92908, 30.723605], [-93.929219, 30.723419], [-93.930707, 30.722791], [-93.933006, 30.719635], [-93.934239, 30.716835], [-93.939524, 30.710402], [-93.941198, 30.708281], [-93.94224, 30.706628], [-93.943195, 30.705692], [-93.943656, 30.705211], [-93.943886, 30.705015], [-93.945531, 30.702976], [-93.952921, 30.693584], [-93.954868, 30.691135], [-93.955681, 30.690336], [-93.95757, 30.687904], [-93.965616, 30.677708], [-93.966767, 30.676055], [-93.968065, 30.674237], [-93.969549, 30.672121], [-93.970606, 30.670577], [-93.973223, 30.666872], [-93.980622, 30.656307], [-93.981414, 30.65523], [-93.999899, 30.63096], [-94.001178, 30.629365], [-94.002493, 30.627579], [-94.007415, 30.621161], [-94.012335, 30.614687], [-94.017027, 30.608593], [-94.02258, 30.599714], [-94.022755, 30.599407], [-94.023175, 30.598834], [-94.027278, 30.592973], [-94.031416, 30.587019], [-94.047393, 30.563935], [-94.048198, 30.563248], [-94.050841, 30.561164], [-94.073626, 30.543331]]}},
{"type": "Feature", "properties": {"ProjectID": "P6518", "layer": "-1", "location": "underground", "man_made": "pipeline", "name": "Black Lake NGL Pipeline", "oneway": "yes", "operator": "DCP Operating Company, LP", "ref": "BLK-1-1", "substance": "y-grade", "usage": "transmission"}, "geometry": {"type": "LineString", "coordinates": [[-92.853831, 30.98101], [-92.858692, 30.980961], [-92.866243, 30.981113], [-92.866731, 30.981068], [-92.867907, 30.980922], [-92.870564, 30.980861], [-92.87422, 30.981073], [-92.880046, 30.98133], [-92.889721, 30.981622], [-92.901566, 30.981824], [-92.913407, 30.982028], [-92.916892, 30.982083], [-92.917262, 30.982054], [-92.917419, 30.982017], [-92.918269, 30.981726], [-92.918554, 30.981682], [-92.920812, 30.981596], [-92.920908, 30.981442], [-92.92265, 30.978951], [-92.922991, 30.978527], [-92.926477, 30.975307], [-92.931403, 30.969959], [-92.936382, 30.964596], [-92.939368, 30.961395], [-92.943189, 30.957499], [-92.94584, 30.95457], [-92.949056, 30.951248], [-92.953858, 30.946514], [-92.955557, 30.94481], [-92.957244, 30.943151], [-92.958467, 30.942047], [-92.95872, 30.941663], [-92.959554, 30.940166], [-92.959825, 30.939858], [-92.960748, 30.939082], [-92.962347, 30.937862], [-92.962558, 30.93764], [-92.962817, 30.937544], [-92.963193, 30.937499], [-92.963493, 30.937499], [-92.963663, 30.937459], [-92.964827, 30.935497], [-92.969083, 30.931095], [-92.973845, 30.926219], [-92.977137, 30.922946], [-92.977254, 30.92285], [-92.977442, 30.92278], [-92.977666, 30.922724], [-92.983297, 30.92283], [-92.985308, 30.92281], [-92.98857, 30.922956], [-92.995154, 30.923072], [-92.995395, 30.923057], [-92.995718, 30.922977], [-92.996547, 30.922815], [-92.996847, 30.922835], [-92.998222, 30.923138], [-93.00038, 30.923168], [-93.000585, 30.923178], [-93.001714, 30.923511], [-93.002067, 30.923562], [-93.004636, 30.923597], [-93.011355, 30.92343], [-93.014194, 30.923345], [-93.015716, 30.92335], [-93.018138, 30.923445], [-93.021936, 30.923531], [-93.029566, 30.923652], [-93.034921, 30.923587], [-93.041117, 30.923299], [-93.041399, 30.923254], [-93.041728, 30.923173], [-93.042728, 30.922825], [-93.04331, 30.922724], [-93.043704, 30.922724], [-93.044427, 30.922941], [-93.044574, 30.922967], [-93.045867, 30.92285], [-93.046513, 30.92283], [-93.047636, 30.923002], [-93.04783, 30.923103], [-93.051275, 30.924963], [-93.051469, 30.925034], [-93.051751, 30.9251], [-93.052069, 30.925125], [-93.058294, 30.924999], [-93.065689, 30.924913], [-93.06603, 30.924893], [-93.066453, 30.924822], [-93.066923, 30.924631], [-93.067423, 30.924323], [-93.068352, 30.92342], [-93.068751, 30.922971], [-93.068922, 30.922845], [-93.069157, 30.922729], [-93.069727, 30.922639], [-93.077222, 30.922442], [-93.07771, 30.922442], [-93.078803, 30.922508], [-93.079244, 30.922482], [-93.080091, 30.922346], [-93.086028, 30.92222], [-93.086269, 30.92225], [-93.086692, 30.922346], [-93.086904, 30.922382], [-93.091883, 30.922341], [-93.092189, 30.922341], [-93.092524, 30.922235], [-93.093652, 30.92165], [-93.093911, 30.92157], [-93.09531, 30.921509], [-93.09568, 30.921534], [-93.098396, 30.922155], [-93.098702, 30.92219], [-93.102711, 30.922165], [-93.122527, 30.921645], [-93.127247, 30.921691], [-93.13376, 30.921554], [-93.133902, 30.921554], [-93.134084, 30.921554], [-93.134196, 30.9216], [-93.141961, 30.92694], [-93.142049, 30.926975], [-93.142214, 30.927006], [-93.153183, 30.927011], [-93.173287, 30.927011], [-93.1842, 30.926924], [-93.194429, 30.927134], [-93.208666, 30.926938], [-93.209532, 30.926914], [-93.211572, 30.929133], [-93.215465, 30.932679], [-93.215861, 30.933028]]}}
]
}
