{
"type": "FeatureCollection",
"features": [
{"type": "Feature", "properties": {"ProjectID": "P6515", "layer": "-1", "location": "underground", "man_made": "pipeline", "name": "Conway to Bushton Lateral", "operator": "Enterprise Products", "substance": "y-grade", "usage": "transmission"}, "geometry": {"type": "LineString", "coordinates": [[-98.349084, 38.537403], [-98.349084, 38.537137], [-98.348322, 38.536711], [-98.330925, 38.536879], [-98.313303, 38.525977], [-98.306469, 38.523694], [-98.303658, 38.521746], [-98.294699, 38.515616], [-98.29456, 38.510837], [-98.25725, 38.500439], [-98.221743, 38.490052], [-98.220252, 38.490623], [-98.218224, 38.48917], [-98.191295, 38.482519], [-98.186241, 38.484711], [-98.18548, 38.48456], [-98.181725, 38.480848], [-98.173638, 38.478005], [-98.166377, 38.475846], [-98.164419, 38.47491], [-98.161715, 38.474834], [-98.155106, 38.472957], [-98.14692, 38.470336], [-98.142505, 38.469924], [-98.126895, 38.46412], [-98.126085, 38.463418], [-98.119927, 38.462259], [-98.114111, 38.456672], [-98.102873, 38.456672], [-98.096961, 38.454925], [-98.095797, 38.455223], [-98.09098, 38.45353], [-98.084865, 38.454194], [-98.076206, 38.451278], [-98.072473, 38.451245], [-98.07228, 38.452093], [-98.071378, 38.452295], [-98.068235, 38.449169], [-98.066567, 38.449144], [-98.051578, 38.444388], [-98.051101, 38.443749], [-98.027862, 38.436749], [-98.025448, 38.434615], [-98.021774, 38.434703], [-98.017407, 38.433396], [-98.007767, 38.430203], [-98.00192, 38.42803], [-98.000439, 38.42761], [-97.994823, 38.426572], [-97.990011, 38.425916], [-97.975398, 38.421554], [-97.961322, 38.417628], [-97.939333, 38.411], [-97.93089, 38.408566], [-97.924329, 38.406716], [-97.906122, 38.401747], [-97.897121, 38.399364], [-97.887966, 38.396917], [-97.868968, 38.391712], [-97.858899, 38.384164], [-97.854629, 38.384492], [-97.841417, 38.384387], [-97.841433, 38.381923], [-97.834483, 38.380472], [-97.834475, 38.379564]]}}
]
}
