{
"type": "FeatureCollection",
"features": [
{"type": "Feature", "properties": {"ProjectID": "P6520", "layer": "-1", "location": "underground", "man_made": "pipeline", "name": "FERC Arbuckle Express", "operator": "Oneok NGL Pipeline, LLC", "substance": "ngl", "usage": "transmission"}, "geometry": {"type": "LineString", "coordinates": [[-97.794682, 33.19045], [-97.794645, 33.190772], [-97.796978, 33.192722], [-97.805271, 33.192318], [-97.805346, 33.194338]]}},
{"type": "Feature", "properties": {"ProjectID": "P6520", "layer": "-1", "location": "underground", "man_made": "pipeline", "name": "FERC Arbuckle Express", "operator": "Oneok NGL Pipeline, LLC", "substance": "ngl", "usage": "transmission"}, "geometry": {"type": "LineString", "coordinates": [[-97.69309, 33.553073], [-97.699699, 33.547261], [-97.80334, 33.548799], [-97.833724, 33.524116], [-97.847586, 33.524725], [-97.856169, 33.520682], [-97.859044, 33.525547], [-97.878292, 33.525843], [-97.879622, 33.527739], [-97.880298, 33.527757]]}},
{"type": "Feature", "properties": {"ProjectID": "P6520", "layer": "-1", "location": "underground", "man_made": "pipeline", "name": "FERC Arbuckle Express", "operator": "Oneok NGL Pipeline, LLC", "substance": "ngl", "usage": "transmission"}, "geometry": {"type": "LineString", "coordinates": [[-97.618514, 32.497579], [-97.608075, 32.497529], [-97.608065, 32.498958], [-97.599751, 32.498918], [-97.599811, 32.490145], [-97.588571, 32.49009], [-97.587433, 32.491828], [-97.58606, 32.491176], [-97.579536, 32.492859], [-97.5787, 32.492244], [-97.576897, 32.49228], [-97.576747, 32.499393], [-97.568743, 32.499483], [-97.568786, 32.507102], [-97.561308, 32.507147], [-97.552615, 32.502969], [-97.551818, 32.502383], [-97.551899, 32.499881], [-97.553149, 32.499836], [-97.553149, 32.499718], [-97.553052, 32.499637], [-97.553066, 32.499567]]}},
{"type": "Feature", "properties": {"ProjectID": "P6520", "diameter": "16\"", "layer": "-1", "location": "underground", "man_made": "pipeline", "name": "Arbuckle Express Pipeline", "operator": "Oneok NGL Pipeline, LLC", "ref": "10612", "substance": "ngl", "usage": "transmission"}, "geometry": {"type": "LineString", "coordinates": [[-94.639585, 30.054225], [-94.639837, 30.054507], [-94.643776, 30.051835], [-94.645329, 30.051065], [-94.646499, 30.049912], [-94.649693, 30.047656], [-94.652329, 30.047628], [-94.653312, 30.047467], [-94.656565, 30.047433], [-94.65703, 30.046947], [-94.657091, 30.043311], [-94.657967, 30.03784], [-94.665836, 30.032808], [-94.671107, 30.031459], [-94.672715, 30.03144], [-94.675789, 30.029261], [-94.676589, 30.028178], [-94.677925, 30.027743], [-94.685385, 30.022443], [-94.685924, 30.021964], [-94.698069, 30.01337], [-94.699269, 30.012332], [-94.707786, 30.009655], [-94.708405, 30.009522], [-94.709189, 30.009317], [-94.715527, 30.007389], [-94.722634, 30.005177], [-94.724162, 30.004723], [-94.729474, 30.003052], [-94.736303, 30.00084], [-94.740149, 29.999622], [-94.740432, 29.999422], [-94.740912, 29.999269], [-94.741885, 29.997578], [-94.742313, 29.996941], [-94.742427, 29.996589], [-94.74276, 29.996022], [-94.745442, 29.993969], [-94.75355, 29.993647], [-94.756493, 29.994844], [-94.760209, 29.993626], [-94.760831, 29.993551], [-94.76116, 29.993533], [-94.765407, 29.993433], [-94.768086, 29.990488], [-94.775418, 29.988083], [-94.781135, 29.98635], [-94.7859, 29.984937], [-94.793644, 29.982695], [-94.793954, 29.982653], [-94.806627, 29.978888], [-94.809517, 29.97483], [-94.810138, 29.974064], [-94.817801, 29.962736], [-94.817968, 29.962818], [-94.818691, 29.962007], [-94.822211, 29.958807], [-94.82338, 29.959019], [-94.842449, 29.957142], [-94.842642, 29.956983], [-94.843729, 29.957018], [-94.850562, 29.956345], [-94.861122, 29.955396], [-94.862284, 29.955406], [-94.873863, 29.954294], [-94.875027, 29.954048], [-94.87886, 29.952823], [-94.882165, 29.951786], [-94.889654, 29.949381], [-94.889001, 29.948711], [-94.889122, 29.948622], [-94.889812, 29.94933], [-94.902831, 29.945006], [-94.903038, 29.944713], [-94.90539, 29.944228], [-94.909199, 29.942961], [-94.909284, 29.942896], [-94.914755, 29.941066], [-94.915062, 29.940931], [-94.917136, 29.940265]]}},
{"type": "Feature", "properties": {"ProjectID": "P6520", "layer": "-1", "location": "underground", "man_made": "pipeline", "name": "FERC Arbuckle Express", "operator": "Oneok NGL Pipeline, LLC", "substance": "ngl", "usage": "transmission"}, "geometry": {"type": "LineString", "coordinates": [[-97.5734, 32.371154], [-97.54161, 32.376817], [-97.538971, 32.374371], [-97.539293, 32.371353]]}},
{"type": "Feature", "properties": {"ProjectID": "P6520", "diameter": "16\"", "layer": "-1", "location": "underground", "man_made": "pipeline", "name": "FERC Arbuckle Express", "operator": "Oneok NGL Pipeline, LLC", "ref": "10484", "substance": "ngl", "usage": "transmission"}, "geometry": {"type": "LineString", "coordinates": [[-97.688348, 34.46283], [-97.688354, 34.463082], [-97.686599, 34.462949], [-97.686535, 34.458995], [-97.68793, 34.459004], [-97.693058, 34.457084], [-97.693198, 34.454324], [-97.692522, 34.45313], [-97.693187, 34.452457], [-97.693101, 34.447963], [-97.692103, 34.447016], [-97.692865, 34.446202], [-97.694099, 34.441371], [-97.697961, 34.438451], [-97.699292, 34.436416], [-97.699742, 34.434841], [-97.700944, 34.434788], [-97.70251, 34.432611], [-97.702103, 34.290907], [-97.702596, 33.987584], [-97.694936, 33.974862], [-97.689335, 33.965911], [-97.690752, 33.886698], [-97.695193, 33.884311], [-97.69515, 33.875119], [-97.692618, 33.861543], [-97.688477, 33.859618], [-97.694721, 33.574117], [-97.702704, 33.569719], [-97.701159, 33.56314], [-97.69146, 33.554798], [-97.69309, 33.553073], [-97.690934, 33.551034], [-97.691578, 33.546599], [-97.689614, 33.537853], [-97.704377, 33.527622], [-97.729182, 33.506548], [-97.714419, 33.485576], [-97.712445, 33.468502], [-97.715449, 33.461342], [-97.747507, 33.435596], [-97.750125, 33.426409], [-97.757034, 33.420159], [-97.7636, 33.399811], [-97.763128, 33.38573], [-97.75815, 33.381609], [-97.758107, 33.35799], [-97.757635, 33.335369], [-97.758794, 33.331676], [-97.760038, 33.30564], [-97.748365, 33.2841], [-97.748408, 33.275041], [-97.753086, 33.266429], [-97.753258, 33.256812], [-97.754502, 33.251932], [-97.759481, 33.245184], [-97.770553, 33.242995], [-97.778621, 33.237611], [-97.787719, 33.222318], [-97.793555, 33.21521], [-97.791324, 33.202463], [-97.793877, 33.192839], [-97.794414, 33.192767], [-97.794645, 33.190772], [-97.794682, 33.19045], [-97.793684, 33.189391], [-97.789435, 33.168774], [-97.762371, 33.086986], [-97.760408, 33.079761], [-97.759164, 33.076524], [-97.758048, 33.072065], [-97.755924, 33.064315], [-97.754636, 33.059549], [-97.75322, 33.054891], [-97.752126, 33.051474], [-97.750388, 33.047463], [-97.747941, 33.041636], [-97.744379, 33.033271], [-97.74144, 33.026273], [-97.741311, 33.025337], [-97.740839, 33.024258], [-97.738865, 33.020012], [-97.736805, 33.013085], [-97.733865, 33.003242], [-97.732857, 32.999841], [-97.727562, 32.998802], [-97.725298, 32.992359], [-97.719934, 32.992413], [-97.718604, 32.991855], [-97.718217, 32.98732], [-97.714913, 32.984422], [-97.713754, 32.973316], [-97.711673, 32.971066], [-97.711887, 32.969932], [-97.713282, 32.969716], [-97.713304, 32.963919], [-97.709602, 32.963739], [-97.708712, 32.957581], [-97.708862, 32.945067], [-97.708883, 32.937126], [-97.708438, 32.932654], [-97.707472, 32.929052], [-97.707987, 32.926495], [-97.707279, 32.923811], [-97.70509, 32.912409], [-97.703567, 32.903996], [-97.703202, 32.898448], [-97.70273, 32.897331], [-97.699876, 32.890664], [-97.697366, 32.886249], [-97.694147, 32.878158], [-97.692001, 32.872716], [-97.690671, 32.866228], [-97.687989, 32.853358], [-97.687388, 32.851159], [-97.68271, 32.845553], [-97.677195, 32.839063], [-97.673097, 32.834285], [-97.671488, 32.83104], [-97.669106, 32.826496], [-97.663205, 32.815118], [-97.659901, 32.808517], [-97.65548, 32.798615], [-97.651317, 32.789741], [-97.647906, 32.782309], [-97.645992, 32.778254], [-97.638996, 32.768909], [-97.636271, 32.768855], [-97.636077, 32.766635], [-97.567198, 32.676644], [-97.570739, 32.672435], [-97.570803, 32.666745], [-97.573206, 32.666619], [-97.573679, 32.664198], [-97.579129, 32.663873], [-97.579365, 32.659447], [-97.609878, 32.65513], [-97.6161, 32.649854], [-97.616186, 32.645699], [-97.632279, 32.641435], [-97.632623, 32.579438], [-97.63567, 32.576291], [-97.636228, 32.552384], [-97.631035, 32.552384], [-97.630938, 32.541215], [-97.628889, 32.540238], [-97.630772, 32.53762], [-97.626534, 32.535643], [-97.627773, 32.532812], [-97.628417, 32.52098], [-97.626443, 32.519967], [-97.625585, 32.517542], [-97.623525, 32.516457], [-97.623568, 32.512512], [-97.619963, 32.508676], [-97.618718, 32.498542], [-97.618514, 32.497579], [-97.59769, 32.399168], [-97.5734, 32.371154], [-97.576275, 32.359881], [-97.572198, 32.353573], [-97.574086, 32.342298], [-97.557355, 32.316496], [-97.567692, 32.312035], [-97.560182, 32.301172], [-97.553967, 32.296632], [-97.544203, 32.292696], [-97.538045, 32.290156], [-97.531458, 32.287762], [-97.526458, 32.286147], [-97.52178, 32.284569], [-97.508433, 32.281757], [-97.500322, 32.280034], [-97.498649, 32.279961], [-97.495108, 32.27929], [-97.490645, 32.278728], [-97.47541, 32.274954], [-97.467471, 32.272904], [-97.466205, 32.272541], [-97.461889, 32.272645], [-97.453259, 32.272739], [-97.4523, 32.272895], [-97.450382, 32.272926], [-97.448439, 32.272781], [-97.44228, 32.27225], [-97.438026, 32.272032], [-97.432518, 32.272022], [-97.432235, 32.272209], [-97.429112, 32.272188], [-97.428178, 32.272583], [-97.427084, 32.272126], [-97.424453, 32.272417], [-97.423469, 32.272281], [-97.415551, 32.273331], [-97.410547, 32.273799], [-97.401953, 32.27461], [-97.399937, 32.273903], [-97.392622, 32.271336], [-97.392069, 32.271242], [-97.391491, 32.27146], [-97.387778, 32.27276], [-97.378348, 32.276065], [-97.373676, 32.278009], [-97.366816, 32.281647], [-97.359217, 32.282874], [-97.357521, 32.283913], [-97.356562, 32.284422], [-97.355431, 32.284163], [-97.347519, 32.285291], [-97.346292, 32.285313], [-97.342801, 32.285386], [-97.341006, 32.285978], [-97.339776, 32.286228], [-97.334096, 32.288951], [-97.330727, 32.287725], [-97.330309, 32.287428], [-97.327991, 32.2877], [-97.321447, 32.287972], [-97.31737, 32.288498], [-97.313207, 32.289188], [-97.305289, 32.290058], [-97.299453, 32.290911], [-97.291964, 32.291255], [-97.283407, 32.291542], [-97.279265, 32.291548], [-97.272052, 32.29175], [-97.264831, 32.292042], [-97.25792, 32.292369], [-97.255067, 32.292054], [-97.252398, 32.291786], [-97.249805, 32.292072], [-97.242528, 32.292822], [-97.234737, 32.293519], [-97.233103, 32.293525], [-97.232539, 32.292602], [-97.231588, 32.292167], [-97.230905, 32.292369], [-97.227855, 32.293709], [-97.225981, 32.292227], [-97.224519, 32.291299], [-97.224372, 32.290811], [-97.224974, 32.290011], [-97.224261, 32.288535], [-97.222134, 32.285656], [-97.21994, 32.286817], [-97.214339, 32.282787], [-97.211573, 32.280687], [-97.203262, 32.274471], [-97.196463, 32.269409], [-97.192787, 32.263982], [-97.191275, 32.26234], [-97.190451, 32.260988], [-97.187145, 32.255373], [-97.184305, 32.250559], [-97.184158, 32.248979], [-97.179609, 32.248303], [-97.177027, 32.248037], [-97.172158, 32.247549], [-97.163712, 32.250117], [-97.159311, 32.248952], [-97.158265, 32.248141], [-97.155708, 32.247236], [-97.154995, 32.246727], [-97.151245, 32.245344], [-97.14436, 32.241954], [-97.140918, 32.241237], [-97.13959, 32.23975], [-97.136783, 32.238631], [-97.129594, 32.234547], [-97.117128, 32.227486], [-97.109231, 32.222803], [-97.096271, 32.215233], [-97.094382, 32.214162], [-97.085893, 32.20585], [-97.084219, 32.204198], [-97.072289, 32.196535], [-97.072074, 32.196553], [-97.069177, 32.194719], [-97.060015, 32.188781], [-97.055402, 32.18584], [-97.046604, 32.180173], [-97.043214, 32.177885], [-97.030296, 32.169585], [-97.020683, 32.163572], [-97.016327, 32.160466], [-97.009332, 32.155307], [-97.002144, 32.150002], [-96.994462, 32.14437], [-96.98854, 32.14001], [-96.981501, 32.13485], [-96.979871, 32.134323], [-96.979077, 32.133069], [-96.97294, 32.128235], [-96.969381, 32.125512], [-96.966713, 32.123492], [-96.965717, 32.123222], [-96.965102, 32.122149], [-96.96327, 32.120754], [-96.957836, 32.116547], [-96.957861, 32.114662], [-96.956041, 32.112372], [-96.95298, 32.111018], [-96.952267, 32.111216], [-96.951136, 32.111653], [-96.943465, 32.107289], [-96.938157, 32.10436], [-96.928075, 32.098517], [-96.917207, 32.092361], [-96.911662, 32.089049], [-96.901617, 32.083226], [-96.892925, 32.078705], [-96.891658, 32.078372], [-96.886113, 32.074309], [-96.87945, 32.070381], [-96.877741, 32.067943], [-96.873155, 32.067005], [-96.869639, 32.061723], [-96.868741, 32.060129], [-96.868323, 32.059847], [-96.866627, 32.057336], [-96.866295, 32.057295], [-96.859595, 32.060344], [-96.858451, 32.058246], [-96.854602, 32.057524], [-96.852338, 32.056822], [-96.831424, 32.045681], [-96.812455, 32.035586], [-96.787757, 32.022325], [-96.764089, 32.009753], [-96.751751, 32.003057], [-96.742846, 31.997234], [-96.741108, 31.996215], [-96.721646, 31.986169], [-96.712333, 31.980982], [-96.705231, 31.976158], [-96.700956, 31.973751], [-96.697898, 31.971967], [-96.695977, 31.969942], [-96.689811, 31.966169], [-96.683784, 31.962256], [-96.681735, 31.961013], [-96.677492, 31.957085], [-96.673195, 31.95273], [-96.666049, 31.948305], [-96.64618, 31.935996], [-96.624829, 31.922902], [-96.612412, 31.914538], [-96.602397, 31.919931], [-96.596046, 31.911334], [-96.586199, 31.910358], [-96.579763, 31.913556], [-96.571218, 31.917686], [-96.56534, 31.909529], [-96.558626, 31.909529], [-96.55723, 31.909884], [-96.544359, 31.912904], [-96.532622, 31.908093], [-96.530163, 31.90904], [-96.524704, 31.908877], [-96.523657, 31.909114], [-96.521338, 31.910343], [-96.51778, 31.9087], [-96.513123, 31.908655], [-96.510821, 31.9083], [-96.508833, 31.908685], [-96.499415, 31.908419], [-96.496677, 31.906242], [-96.493555, 31.905176], [-96.492386, 31.904525], [-96.490241, 31.904895], [-96.474405, 31.903311], [-96.47362, 31.902718], [-96.468249, 31.902496], [-96.453756, 31.904717], [-96.443747, 31.907322], [-96.433234, 31.89818], [-96.434553, 31.890182], [-96.43103, 31.887193], [-96.427333, 31.882206], [-96.427823, 31.880095], [-96.426264, 31.878474], [-96.42637, 31.876661], [-96.421673, 31.873983], [-96.420862, 31.871725], [-96.416355, 31.865678], [-96.41552, 31.865221], [-96.409868, 31.85692], [-96.405638, 31.850502], [-96.404573, 31.847387], [-96.398192, 31.839108], [-96.395134, 31.837973], [-96.38342, 31.831058], [-96.377315, 31.82796], [-96.371057, 31.824376], [-96.368269, 31.822792], [-96.360218, 31.817653], [-96.357674, 31.815845], [-96.357094, 31.814994], [-96.351649, 31.812018], [-96.347669, 31.809377], [-96.34333, 31.807364], [-96.3414, 31.805871], [-96.3374, 31.803466], [-96.326814, 31.79693], [-96.31656, 31.790774], [-96.315649, 31.789643], [-96.313593, 31.788652], [-96.313524, 31.78736], [-96.302691, 31.779672], [-96.300513, 31.778664], [-96.296258, 31.775505], [-96.293798, 31.773014], [-96.292207, 31.771865], [-96.291858, 31.769298], [-96.286326, 31.765547], [-96.283421, 31.761036], [-96.277814, 31.754858], [-96.276853, 31.753889], [-96.275281, 31.753236], [-96.274497, 31.752513], [-96.274147, 31.751559], [-96.270973, 31.749067], [-96.271025, 31.746452], [-96.268464, 31.743635], [-96.267045, 31.74362], [-96.264905, 31.741594], [-96.262981, 31.740776], [-96.26243, 31.739092], [-96.261107, 31.737893], [-96.260761, 31.736538], [-96.259493, 31.73492], [-96.257891, 31.734755], [-96.256805, 31.733831], [-96.255404, 31.733367], [-96.255084, 31.732621], [-96.243997, 31.722418], [-96.24132, 31.721019], [-96.238018, 31.718742], [-96.235838, 31.716903], [-96.232207, 31.714393], [-96.230212, 31.712947], [-96.228354, 31.710908], [-96.22686, 31.709308], [-96.218998, 31.704522], [-96.216038, 31.702655], [-96.212059, 31.699731], [-96.209471, 31.698223], [-96.20555, 31.693986], [-96.201281, 31.686781], [-96.197985, 31.682006], [-96.188404, 31.676665], [-96.187229, 31.67594], [-96.186181, 31.674201], [-96.178222, 31.66976], [-96.176003, 31.666846], [-96.173349, 31.665664], [-96.172341, 31.665005], [-96.169211, 31.665261], [-96.159383, 31.664994], [-96.15718, 31.664934], [-96.153728, 31.665067], [-96.151516, 31.664473], [-96.150156, 31.663228], [-96.147583, 31.661349], [-96.145729, 31.659026], [-96.145312, 31.653022], [-96.143944, 31.647095], [-96.144671, 31.646285], [-96.14442, 31.643071], [-96.141857, 31.640725], [-96.140913, 31.638958], [-96.139176, 31.636307], [-96.136984, 31.63223], [-96.136695, 31.630871], [-96.135265, 31.629976], [-96.135082, 31.626505], [-96.131973, 31.622002], [-96.127942, 31.618152], [-96.127358, 31.615892], [-96.126077, 31.612673], [-96.125006, 31.609894], [-96.124297, 31.609481], [-96.121759, 31.605115], [-96.120858, 31.604766], [-96.116113, 31.604525], [-96.112245, 31.603023], [-96.110008, 31.601201], [-96.106972, 31.60073], [-96.103878, 31.598147], [-96.101568, 31.594787], [-96.101234, 31.59364], [-96.100453, 31.592724], [-96.098212, 31.58945], [-96.096156, 31.585318], [-96.094062, 31.582526], [-96.09251, 31.58023], [-96.09079, 31.579351], [-96.088245, 31.575359], [-96.086882, 31.573832], [-96.084423, 31.569421], [-96.080836, 31.565617], [-96.079828, 31.565017], [-96.078915, 31.563377], [-96.075226, 31.559468], [-96.072581, 31.554888], [-96.068415, 31.550834], [-96.060283, 31.542622], [-96.057239, 31.541409], [-96.053719, 31.537159], [-96.052025, 31.535003], [-96.052317, 31.532428], [-96.051946, 31.530771], [-96.045679, 31.527571], [-96.044749, 31.527023], [-96.043213, 31.52457], [-96.038809, 31.518509], [-96.038104, 31.517558], [-96.037458, 31.517429], [-96.035385, 31.515815], [-96.034309, 31.512261], [-96.032571, 31.509307], [-96.032509, 31.505266], [-96.031695, 31.501908], [-96.02929, 31.494265], [-96.015131, 31.486363], [-96.011221, 31.483484], [-96.00718, 31.478883], [-95.999613, 31.475044], [-95.994194, 31.467024], [-95.991368, 31.464375], [-95.984432, 31.459152], [-95.980892, 31.452546], [-95.977122, 31.449568], [-95.971549, 31.444338], [-95.966692, 31.439315], [-95.955255, 31.431741], [-95.951039, 31.42535], [-95.948214, 31.421612], [-95.944828, 31.415339], [-95.944129, 31.413959], [-95.941694, 31.412359], [-95.939314, 31.409322], [-95.93617, 31.406988], [-95.933677, 31.405045], [-95.932772, 31.404883], [-95.930315, 31.401665], [-95.928243, 31.398625], [-95.926333, 31.397403], [-95.923951, 31.395896], [-95.91996, 31.389979], [-95.913115, 31.385766], [-95.906392, 31.375791], [-95.905129, 31.375297], [-95.902989, 31.371771], [-95.899812, 31.369883], [-95.893775, 31.360341], [-95.889203, 31.353693], [-95.886249, 31.35257], [-95.875605, 31.343059], [-95.874693, 31.342151], [-95.87288, 31.341149], [-95.868819, 31.335033], [-95.863938, 31.327828], [-95.86141, 31.315145], [-95.859387, 31.304974], [-95.858897, 31.304519], [-95.858748, 31.303177], [-95.854851, 31.297179], [-95.849499, 31.288933], [-95.846861, 31.28666], [-95.842972, 31.28047], [-95.841687, 31.27582], [-95.8405, 31.273053], [-95.83693, 31.267883], [-95.837144, 31.264183], [-95.836887, 31.262572], [-95.83704, 31.261411], [-95.834937, 31.258446], [-95.83081, 31.252043], [-95.832133, 31.249891], [-95.817475, 31.210159], [-95.816964, 31.205799], [-95.815078, 31.201906], [-95.814786, 31.20059], [-95.814082, 31.200141], [-95.813983, 31.198224], [-95.813343, 31.195684], [-95.813552, 31.192235], [-95.813552, 31.191511], [-95.812232, 31.188394], [-95.810989, 31.186621], [-95.811023, 31.182305], [-95.809725, 31.179422], [-95.808315, 31.175969], [-95.807851, 31.175725], [-95.806806, 31.174081], [-95.807916, 31.165821], [-95.808972, 31.163772], [-95.807693, 31.159229], [-95.807885, 31.15456], [-95.805967, 31.151126], [-95.804992, 31.1498], [-95.802659, 31.144957], [-95.798916, 31.137745], [-95.798273, 31.133714], [-95.797291, 31.128686], [-95.796559, 31.12671], [-95.795644, 31.123923], [-95.794901, 31.122641], [-95.794175, 31.121646], [-95.793618, 31.120343], [-95.793755, 31.119639], [-95.793205, 31.116236], [-95.791843, 31.109104], [-95.792186, 31.107857], [-95.792997, 31.104989], [-95.790351, 31.097984], [-95.788299, 31.092981], [-95.788266, 31.092029], [-95.790254, 31.088994], [-95.792598, 31.08537], [-95.793001, 31.084428], [-95.791001, 31.082074], [-95.791178, 31.081059], [-95.789495, 31.079034], [-95.7877, 31.076853], [-95.786664, 31.075475], [-95.785006, 31.073493], [-95.78231, 31.070088], [-95.780514, 31.067547], [-95.779406, 31.065325], [-95.779079, 31.060942], [-95.778697, 31.058565], [-95.778048, 31.056366], [-95.776064, 31.052662], [-95.773647, 31.048268], [-95.773752, 31.03952], [-95.771102, 31.03725], [-95.769768, 31.035836], [-95.764025, 31.032605], [-95.762906, 31.031593], [-95.763737, 31.028531], [-95.764443, 31.027617], [-95.765688, 31.023512], [-95.765484, 31.023301], [-95.765618, 31.022872], [-95.766499, 31.019687], [-95.767155, 31.016711], [-95.768735, 31.016278], [-95.768569, 31.014793], [-95.767015, 31.013876], [-95.767012, 31.011149], [-95.766624, 31.010438], [-95.766562, 31.010089], [-95.767396, 31.007556], [-95.767326, 31.001984], [-95.767642, 30.998573], [-95.767125, 30.99726], [-95.766155, 30.995448], [-95.765914, 30.992998], [-95.766179, 30.991362], [-95.765029, 30.989327], [-95.764295, 30.98747], [-95.763326, 30.985602], [-95.762986, 30.984541], [-95.762696, 30.983386], [-95.761995, 30.981319], [-95.762206, 30.980297], [-95.762239, 30.977913], [-95.762031, 30.976064], [-95.761379, 30.975184], [-95.75874, 30.972903], [-95.757144, 30.971535], [-95.754899, 30.969375], [-95.753642, 30.96819], [-95.75379, 30.965097], [-95.749712, 30.943632], [-95.746477, 30.941713], [-95.745253, 30.935748], [-95.741376, 30.93028], [-95.740795, 30.928586], [-95.740513, 30.925793], [-95.740402, 30.924468], [-95.739577, 30.920921], [-95.73916, 30.918373], [-95.738926, 30.916626], [-95.738549, 30.915332], [-95.737238, 30.913792], [-95.737762, 30.911128], [-95.736398, 30.905199], [-95.73481, 30.897907], [-95.732086, 30.886845], [-95.731889, 30.885318], [-95.730917, 30.884521], [-95.730459, 30.882818], [-95.721034, 30.879992], [-95.689135, 30.870236], [-95.674158, 30.86984], [-95.670231, 30.869458], [-95.662399, 30.86862], [-95.659186, 30.868223], [-95.652539, 30.867436], [-95.647529, 30.866944], [-95.64144, 30.866244], [-95.636827, 30.865714], [-95.631333, 30.865115], [-95.629118, 30.864844], [-95.626919, 30.8643], [-95.625202, 30.864415], [-95.619618, 30.863739], [-95.613395, 30.863043], [-95.607639, 30.862394], [-95.604017, 30.861973], [-95.594063, 30.860787], [-95.582519, 30.859479], [-95.5657, 30.857547], [-95.553295, 30.856133], [-95.544184, 30.855088], [-95.469604, 30.840452], [-95.462673, 30.835533], [-95.458016, 30.835109], [-95.453939, 30.830724], [-95.452035, 30.824916], [-95.451448, 30.823874], [-95.450652, 30.822996], [-95.442333, 30.819236], [-95.441139, 30.818537], [-95.438903, 30.818358], [-95.436762, 30.817511], [-95.4357, 30.816795], [-95.435018, 30.815558], [-95.434658, 30.814452], [-95.43227, 30.810936], [-95.429939, 30.808918], [-95.429143, 30.808365], [-95.420881, 30.80856], [-95.419612, 30.808462], [-95.419138, 30.807681], [-95.419252, 30.804312], [-95.419687, 30.803514], [-95.419555, 30.799347], [-95.418077, 30.796434], [-95.409265, 30.786813], [-95.405513, 30.782759], [-95.404262, 30.781229], [-95.401419, 30.778038], [-95.399998, 30.777224], [-95.398312, 30.775319], [-95.397478, 30.774684], [-95.388116, 30.774602], [-95.379285, 30.774651], [-95.376898, 30.774049], [-95.373468, 30.772551], [-95.372786, 30.77146], [-95.372805, 30.770662], [-95.373752, 30.768903], [-95.374396, 30.765028], [-95.374226, 30.763595], [-95.370549, 30.759394], [-95.368181, 30.758189], [-95.363178, 30.755844], [-95.36223, 30.754981], [-95.360866, 30.753303], [-95.35755, 30.752505], [-95.351561, 30.748808], [-95.347222, 30.745893], [-95.346255, 30.745062], [-95.345042, 30.743678], [-95.344114, 30.741968], [-95.341553, 30.738287], [-95.339665, 30.735576], [-95.336918, 30.732717], [-95.33473, 30.730467], [-95.329129, 30.725893], [-95.326683, 30.72521], [-95.323679, 30.723477], [-95.316555, 30.719215], [-95.312736, 30.715637], [-95.310611, 30.714456], [-95.304067, 30.711449], [-95.299239, 30.706966], [-95.290196, 30.697047], [-95.267215, 30.676343], [-95.237002, 30.661578], [-95.191512, 30.632964], [-95.175676, 30.628828], [-95.153661, 30.625911], [-95.150228, 30.624729], [-95.148296, 30.624766], [-95.147309, 30.6258], [-95.144219, 30.625468], [-95.1401, 30.620556], [-95.134907, 30.619226], [-95.131345, 30.612985], [-95.116582, 30.59869], [-95.112848, 30.598284], [-95.107183, 30.593038], [-95.107527, 30.590859], [-95.109801, 30.587829], [-95.11066, 30.582029], [-95.088043, 30.566658], [-95.076928, 30.553096], [-95.076928, 30.550731], [-95.067058, 30.527112], [-95.059462, 30.518461], [-95.050406, 30.511769], [-95.051651, 30.509662], [-95.040493, 30.496462], [-95.040321, 30.486403], [-95.033197, 30.475234], [-95.027189, 30.454926], [-95.027447, 30.454112], [-95.026674, 30.452077], [-95.024657, 30.450413], [-95.021997, 30.443124], [-95.01292, 30.435299], [-95.007899, 30.430026], [-95.007191, 30.425252], [-95.008006, 30.424216], [-95.00747, 30.422384], [-95.007169, 30.413989], [-95.007083, 30.406218], [-95.007022, 30.402602], [-95.006907, 30.401934], [-95.0068, 30.39469], [-95.006709, 30.386626], [-95.006999, 30.384598], [-95.007105, 30.383715], [-95.007785, 30.378985], [-95.007662, 30.378723], [-95.007746, 30.377985], [-95.007617, 30.368444], [-95.007557, 30.365234], [-95.007435, 30.364335], [-95.004627, 30.361295], [-95.004474, 30.361166], [-95.004291, 30.361108], [-95.004146, 30.361089], [-95.003734, 30.361095], [-95.003551, 30.361076], [-95.003452, 30.361036], [-95.003367, 30.360992], [-95.00317, 30.360843], [-95.003078, 30.360731], [-95.003047, 30.360645], [-95.003002, 30.359828], [-95.002979, 30.356382], [-95.00291, 30.351867], [-95.003116, 30.351529], [-95.003009, 30.351283], [-95.002987, 30.351137], [-95.002971, 30.350706], [-95.002987, 30.350141], [-95.003025, 30.349737], [-95.002964, 30.349472], [-95.002857, 30.349229], [-95.002102, 30.3469], [-95.001728, 30.345827], [-95.000843, 30.342945], [-95.000919, 30.34287], [-95.011493, 30.336427], [-95.014805, 30.322234], [-95.014927, 30.322083], [-95.015064, 30.322007], [-95.017269, 30.321255], [-95.017177, 30.317765], [-95.017147, 30.317599], [-95.01717, 30.316971], [-95.017109, 30.316613], [-95.017109, 30.316325], [-95.017208, 30.315663], [-95.017215, 30.315136], [-95.017254, 30.314988], [-95.017551, 30.314469], [-95.018406, 30.311869], [-95.018818, 30.309363], [-95.018818, 30.309222], [-95.018291, 30.307307], [-95.018291, 30.307202], [-95.018398, 30.306839], [-95.022694, 30.288206], [-95.022892, 30.288016], [-95.02296, 30.287697], [-95.022877, 30.287405], [-95.023488, 30.284765], [-95.02393, 30.282993], [-95.024014, 30.282472], [-95.028195, 30.264417], [-95.028966, 30.262815], [-95.028989, 30.262716], [-95.029004, 30.260904], [-95.031651, 30.249471], [-95.028172, 30.246141], [-95.022771, 30.241009], [-95.01782, 30.238488], [-95.010374, 30.227675], [-95.010267, 30.227618], [-94.99729, 30.226752], [-94.99407, 30.226596], [-94.989385, 30.226615], [-94.988302, 30.226788], [-94.982161, 30.227002], [-94.981253, 30.227021], [-94.97981, 30.226672], [-94.978803, 30.22667], [-94.972197, 30.227019], [-94.972091, 30.227008], [-94.968444, 30.225893], [-94.966491, 30.224588], [-94.966407, 30.224485], [-94.965331, 30.221735], [-94.964927, 30.22113], [-94.964324, 30.219673], [-94.962844, 30.215931], [-94.962798, 30.215593], [-94.962752, 30.215398], [-94.96147, 30.212103], [-94.960883, 30.210657], [-94.959891, 30.208111], [-94.957129, 30.201191], [-94.957084, 30.200912], [-94.956588, 30.199644], [-94.955451, 30.196829], [-94.955199, 30.196314], [-94.954078, 30.193537], [-94.954039, 30.193358], [-94.955092, 30.185101], [-94.955016, 30.182013], [-94.955436, 30.181176], [-94.955413, 30.180331], [-94.955352, 30.179362], [-94.954841, 30.178303], [-94.954741, 30.174412], [-94.954582, 30.169535], [-94.949791, 30.153967], [-94.94574, 30.148882], [-94.945686, 30.148737], [-94.945442, 30.138981], [-94.945251, 30.137315], [-94.944923, 30.132378], [-94.94487, 30.121041], [-94.944992, 30.12054], [-94.944961, 30.119561], [-94.944946, 30.116126], [-94.94487, 30.109036], [-94.944923, 30.102191], [-94.945007, 30.102], [-94.946594, 30.100615], [-94.946641, 30.099649], [-94.946609, 30.097395], [-94.946594, 30.09321], [-94.946603, 30.088154], [-94.946556, 30.088035], [-94.946495, 30.087948], [-94.94494, 30.086719], [-94.944879, 30.086639], [-94.944833, 30.086515], [-94.944863, 30.08538], [-94.944856, 30.076132], [-94.960083, 30.070379], [-94.960258, 30.070278], [-94.960296, 30.069919], [-94.960221, 30.061387], [-94.960174, 30.059819], [-94.96016, 30.058515], [-94.96016, 30.052077], [-94.960191, 30.047065], [-94.959832, 30.045468], [-94.955651, 30.038649], [-94.953965, 30.03587], [-94.953858, 30.035815], [-94.948663, 30.035836], [-94.947183, 30.034457], [-94.947038, 30.034391], [-94.946885, 30.034357], [-94.944474, 30.034346], [-94.936509, 30.034364], [-94.93599, 30.033903], [-94.933053, 30.030586], [-94.932999, 30.030493], [-94.930536, 30.021536], [-94.928499, 30.00464], [-94.927935, 29.999839], [-94.927851, 29.998986], [-94.926714, 29.989738], [-94.92444, 29.970517], [-94.923792, 29.965363], [-94.922792, 29.95685], [-94.922396, 29.956511], [-94.918123, 29.953056], [-94.917368, 29.945488], [-94.91749, 29.945112], [-94.916986, 29.940992], [-94.917002, 29.94047], [-94.916719, 29.938536], [-94.915857, 29.93081], [-94.915621, 29.928975], [-94.914873, 29.92275], [-94.913835, 29.913243], [-94.913866, 29.912709], [-94.912989, 29.905006], [-94.912821, 29.904288], [-94.911739, 29.893135], [-94.906144, 29.893543], [-94.90284, 29.888181], [-94.902742, 29.88798], [-94.90205, 29.886151], [-94.901648, 29.885154], [-94.901479, 29.882268], [-94.899576, 29.878116], [-94.89977, 29.865967], [-94.90285, 29.864362], [-94.903669, 29.864538], [-94.904312, 29.864209], [-94.902471, 29.861644], [-94.902607, 29.861315], [-94.901919, 29.86035], [-94.901911, 29.860271], [-94.901433, 29.859611], [-94.903656, 29.858443], [-94.903687, 29.85845], [-94.904408, 29.858074], [-94.904529, 29.858252], [-94.904907, 29.858058], [-94.905228, 29.858523], [-94.911391, 29.855341], [-94.911485, 29.855039], [-94.913109, 29.854796], [-94.915014, 29.852782], [-94.915007, 29.852533], [-94.914414, 29.852535]]}}
]
}
