{
"type": "FeatureCollection",
"features": [
{"type": "Feature", "properties": {"ProjectID": "P6524", "TPMS_ID": 4895650, "OPER_LINK": 0, "OPS_ID": 0, "P5_NUM": "836027", "OPER_NM": "TARGA DOWNSTREAM LLC", "SYS_NM": "GRAND PRIX", "SUBSYS_NM": "DAYTONA", "T4PERMIT": "09746", "DIAMETER": 24.0, "COMMODITY1": "HVL", "COMMODITY2": null, "COMMODITY3": null, "CMDTY_DESC": "HIGHLY VOLATILE LIQUID", "INTERSTATE": "Y", "STATUS_CD": "I", "QUALITY_CD": "G", "SYSTYPE": "Q", "COUNTY": "059", "COM_CARRIE": "Y", "PLINE_ID": "DAY-A", "SYS_ID": "00330879", "NPMS_SYS_I": 0, "ALBERS_MIL": 30.9440854623, "LENGTH": 0.0}, "geometry": {"type": "MultiLineString", "coordinates": [[[-99.142345, 32.279226], [-99.141292, 32.280265], [-99.133532, 32.280755], [-99.117297, 32.282783]], [[-99.631409, 32.244093], [-99.622645, 32.244309], [-99.620297, 32.243819], [-99.61299, 32.243855], [-99.606169, 32.24315], [-99.594998, 32.24301], [-99.593463, 32.243246], [-99.575316, 32.24313], [-99.572289, 32.243285], [-99.564744, 32.24579], [-99.556281, 32.247366], [-99.554539, 32.247162], [-99.547306, 32.248304], [-99.54311, 32.249649], [-99.538147, 32.249579], [-99.536675, 32.251279], [-99.52779, 32.252997], [-99.526348, 32.254372], [-99.523634, 32.254191], [-99.500732, 32.255654], [-99.499637, 32.254518], [-99.497514, 32.254441], [-99.495534, 32.255986], [-99.423865, 32.260535], [-99.403655, 32.260438], [-99.403227, 32.260071], [-99.400918, 32.260078], [-99.400375, 32.260387], [-99.386475, 32.261698], [-99.385144, 32.261701], [-99.363262, 32.26405], [-99.358687, 32.264814], [-99.324169, 32.269144], [-99.323013, 32.269079], [-99.306667, 32.271067], [-99.304619, 32.271196], [-99.297181, 32.271304], [-99.296236, 32.271255], [-99.295307, 32.271257], [-99.29333, 32.271475], [-99.28344, 32.271973], [-99.278966, 32.271379], [-99.271608, 32.271395], [-99.268666, 32.271071], [-99.267247, 32.271026], [-99.265003, 32.271885], [-99.256338, 32.272211], [-99.253545, 32.272458], [-99.241959, 32.272916], [-99.240417, 32.272486], [-99.239379, 32.271318], [-99.237508, 32.272328], [-99.237041, 32.27367], [-99.217003, 32.273761], [-99.21423, 32.271415], [-99.199235, 32.27144], [-99.19761, 32.272229], [-99.184393, 32.272249], [-99.182504, 32.274466], [-99.180417, 32.276213], [-99.157859, 32.27765], [-99.156195, 32.277265], [-99.150481, 32.277234], [-99.150242, 32.278137], [-99.142976, 32.278602], [-99.142345, 32.279226]]]}},
{"type": "Feature", "properties": {"ProjectID": "P6524", "TPMS_ID": 4895649, "OPER_LINK": 0, "OPS_ID": 0, "P5_NUM": "836027", "OPER_NM": "TARGA DOWNSTREAM LLC", "SYS_NM": "GRAND PRIX", "SUBSYS_NM": "DAYTONA", "T4PERMIT": "09746", "DIAMETER": 24.0, "COMMODITY1": "HVL", "COMMODITY2": null, "COMMODITY3": null, "CMDTY_DESC": "HIGHLY VOLATILE LIQUID", "INTERSTATE": "Y", "STATUS_CD": "I", "QUALITY_CD": "G", "SYSTYPE": "Q", "COUNTY": "133", "COM_CARRIE": "Y", "PLINE_ID": "DAY-A", "SYS_ID": "00330879", "NPMS_SYS_I": 0, "ALBERS_MIL": 38.389634917, "LENGTH": 0.0}, "geometry": {"type": "MultiLineString", "coordinates": [[[-99.117297, 32.282783], [-99.10322, 32.284542], [-99.07858, 32.284918], [-99.072939, 32.285185], [-99.069866, 32.288053], [-99.055062, 32.288055], [-99.045777, 32.289491], [-99.020267, 32.289563], [-99.016519, 32.289532], [-99.007402, 32.29036], [-99.003743, 32.289808], [-99.001479, 32.289844], [-98.977248, 32.291231], [-98.975565, 32.292343], [-98.971854, 32.292364], [-98.969273, 32.291607], [-98.950701, 32.292694], [-98.947673, 32.293694], [-98.8903, 32.293554], [-98.888045, 32.293844], [-98.867607, 32.293823], [-98.859151, 32.294425], [-98.848452, 32.294412], [-98.838183, 32.295204], [-98.832221, 32.295707], [-98.829868, 32.296101], [-98.828143, 32.296098], [-98.81278, 32.297634], [-98.800617, 32.299005], [-98.793494, 32.299885], [-98.785044, 32.30233], [-98.756201, 32.302278], [-98.742351, 32.303679], [-98.740826, 32.303961], [-98.737205, 32.304082], [-98.733372, 32.304061], [-98.727905, 32.303971], [-98.727874, 32.305347], [-98.725791, 32.305313], [-98.724134, 32.306399], [-98.722251, 32.3069], [-98.709629, 32.306866], [-98.707268, 32.307151], [-98.701498, 32.307169], [-98.697662, 32.307363], [-98.683415, 32.307555], [-98.682609, 32.306971], [-98.677668, 32.307317], [-98.66568, 32.308753], [-98.663914, 32.308803], [-98.654491, 32.309588], [-98.649272, 32.309544], [-98.64635, 32.31017], [-98.632093, 32.309815], [-98.629226, 32.310691], [-98.62185, 32.310693], [-98.621211, 32.311421], [-98.615928, 32.311459], [-98.611224, 32.309874], [-98.592592, 32.309879], [-98.59256, 32.308646]], [[-98.59256, 32.308646], [-98.592493, 32.306083], [-98.579941, 32.306379], [-98.571398, 32.30626], [-98.562862, 32.306418], [-98.560533, 32.30812], [-98.54739, 32.308139], [-98.54599, 32.308297], [-98.538294, 32.308322], [-98.534019, 32.308622], [-98.509937, 32.308712], [-98.50852, 32.308871], [-98.493333, 32.308939], [-98.492437, 32.30818], [-98.491221, 32.308187], [-98.489674, 32.308947], [-98.484185, 32.308803], [-98.482397, 32.309115], [-98.474726, 32.309615]]]}},
{"type": "Feature", "properties": {"ProjectID": "P6524", "TPMS_ID": 4895650, "OPER_LINK": 0, "OPS_ID": 0, "P5_NUM": "836027", "OPER_NM": "TARGA DOWNSTREAM LLC", "SYS_NM": "GRAND PRIX", "SUBSYS_NM": "DAYTONA", "T4PERMIT": "09746", "DIAMETER": 24.0, "COMMODITY1": "HVL", "COMMODITY2": null, "COMMODITY3": null, "CMDTY_DESC": "HIGHLY VOLATILE LIQUID", "INTERSTATE": "Y", "STATUS_CD": "I", "QUALITY_CD": "G", "SYSTYPE": "Q", "COUNTY": "059", "COM_CARRIE": "Y", "PLINE_ID": "DAY-A", "SYS_ID": "00330879", "NPMS_SYS_I": 0, "ALBERS_MIL": 30.9440854623, "LENGTH": 0.0}, "geometry": {"type": "LineString", "coordinates": [[-99.117297, 32.282783], [-99.117297, 32.282783]]}},
{"type": "Feature", "properties": {"ProjectID": "P6524", "TPMS_ID": 4895647, "OPER_LINK": 0, "OPS_ID": 0, "P5_NUM": "836027", "OPER_NM": "TARGA DOWNSTREAM LLC", "SYS_NM": "GRAND PRIX", "SUBSYS_NM": "DAYTONA", "T4PERMIT": "09746", "DIAMETER": 24.0, "COMMODITY1": "HVL", "COMMODITY2": null, "COMMODITY3": null, "CMDTY_DESC": "HIGHLY VOLATILE LIQUID", "INTERSTATE": "Y", "STATUS_CD": "I", "QUALITY_CD": "G", "SYSTYPE": "Q", "COUNTY": "143", "COM_CARRIE": "Y", "PLINE_ID": "DAY-A", "SYS_ID": "00330879", "NPMS_SYS_I": 0, "ALBERS_MIL": 29.271379031, "LENGTH": 0.0}, "geometry": {"type": "MultiLineString", "coordinates": [[[-98.23036, 32.33475], [-98.229678, 32.337092], [-98.223375, 32.337692], [-98.222934, 32.33703], [-98.214551, 32.338093], [-98.206781, 32.339211], [-98.178481, 32.343528], [-98.173108, 32.344443], [-98.158826, 32.346565], [-98.154706, 32.34686], [-98.138427, 32.349319], [-98.08903, 32.358336], [-98.081222, 32.364007], [-98.080867, 32.364871], [-98.070622, 32.364844], [-98.069653, 32.365528], [-98.068454, 32.364304], [-98.063042, 32.364312], [-98.060906, 32.363602], [-98.033878, 32.363312], [-98.032307, 32.362548]], [[-98.032307, 32.362548], [-98.025439, 32.359208], [-98.009806, 32.355282], [-97.999473, 32.355282]], [[-98.27555, 32.32919], [-98.272979, 32.325466], [-98.266427, 32.328727], [-98.265017, 32.328415], [-98.257919, 32.330955], [-98.240225, 32.333274], [-98.230547, 32.334107], [-98.23036, 32.33475]], [[-98.302434, 32.327383], [-98.301012, 32.32809], [-98.299812, 32.326353], [-98.285362, 32.32861], [-98.276052, 32.329916], [-98.27555, 32.32919]], [[-98.474726, 32.309615], [-98.471305, 32.309839], [-98.46489, 32.309533], [-98.451443, 32.310431], [-98.447513, 32.310382], [-98.442733, 32.311012], [-98.434035, 32.3116], [-98.424239, 32.312608], [-98.406217, 32.313315], [-98.405195, 32.311833], [-98.403016, 32.312437], [-98.401336, 32.313262], [-98.399186, 32.313519], [-98.393791, 32.31352], [-98.386241, 32.314027], [-98.384241, 32.312063], [-98.380388, 32.314529], [-98.373227, 32.315117], [-98.372475, 32.315087], [-98.369828, 32.315269], [-98.369111, 32.31493], [-98.365925, 32.315417], [-98.365392, 32.315103], [-98.364111, 32.315299], [-98.363741, 32.315751], [-98.359082, 32.316464], [-98.34747, 32.318038], [-98.342009, 32.318907], [-98.336784, 32.319537], [-98.330409, 32.320564], [-98.326189, 32.320301], [-98.323665, 32.321369], [-98.321299, 32.321609], [-98.318189, 32.322126], [-98.308552, 32.324342], [-98.302434, 32.327383]]]}},
{"type": "Feature", "properties": {"ProjectID": "P6524", "TPMS_ID": 4895654, "OPER_LINK": 0, "OPS_ID": 0, "P5_NUM": "836027", "OPER_NM": "TARGA DOWNSTREAM LLC", "SYS_NM": "GRAND PRIX", "SUBSYS_NM": "DAYTONA", "T4PERMIT": "09746", "DIAMETER": 24.0, "COMMODITY1": "HVL", "COMMODITY2": null, "COMMODITY3": null, "CMDTY_DESC": "HIGHLY VOLATILE LIQUID", "INTERSTATE": "Y", "STATUS_CD": "I", "QUALITY_CD": "G", "SYSTYPE": "Q", "COUNTY": "221", "COM_CARRIE": "Y", "PLINE_ID": "DAY-A", "SYS_ID": "00330879", "NPMS_SYS_I": 0, "ALBERS_MIL": 24.9234156777, "LENGTH": 0.0}, "geometry": {"type": "LineString", "coordinates": [[-97.999473, 32.355282], [-97.999473, 32.355282]]}},
{"type": "Feature", "properties": {"ProjectID": "P6524", "TPMS_ID": 4895655, "OPER_LINK": 0, "OPS_ID": 0, "P5_NUM": "836027", "OPER_NM": "TARGA DOWNSTREAM LLC", "SYS_NM": "GRAND PRIX", "SUBSYS_NM": "DAYTONA", "T4PERMIT": "09746", "DIAMETER": 24.0, "COMMODITY1": "HVL", "COMMODITY2": null, "COMMODITY3": null, "CMDTY_DESC": "HIGHLY VOLATILE LIQUID", "INTERSTATE": "Y", "STATUS_CD": "I", "QUALITY_CD": "G", "SYSTYPE": "Q", "COUNTY": "173", "COM_CARRIE": "Y", "PLINE_ID": "DAY-A", "SYS_ID": "00330879", "NPMS_SYS_I": 0, "ALBERS_MIL": 33.6354708335, "LENGTH": 0.0}, "geometry": {"type": "MultiLineString", "coordinates": [[[-101.305533, 32.004028], [-101.297837, 32.002972], [-101.29764, 32.002974], [-101.291224, 32.004066], [-101.291014, 32.004135], [-101.290821, 32.004235], [-101.284838, 32.0083], [-101.284615, 32.008404], [-101.284387, 32.008469], [-101.282805, 32.00887], [-101.280797, 32.00896], [-101.2648, 32.013261]], [[-101.599257, 31.919929], [-101.598165, 31.921655], [-101.573431, 31.929451], [-101.572232, 31.930042], [-101.570803, 31.930482], [-101.570653, 31.930571], [-101.570531, 31.930695], [-101.568386, 31.933864], [-101.568197, 31.934026], [-101.567965, 31.93414], [-101.563003, 31.935275], [-101.562743, 31.935295], [-101.562431, 31.935248], [-101.560034, 31.934295], [-101.559852, 31.934261], [-101.559669, 31.934268], [-101.558589, 31.934562], [-101.558321, 31.934573], [-101.558059, 31.934524], [-101.55707, 31.934088], [-101.556888, 31.934055], [-101.556705, 31.934062], [-101.541531, 31.938187], [-101.541371, 31.938268], [-101.541245, 31.938378], [-101.540511, 31.93959], [-101.540322, 31.939756], [-101.540092, 31.939873], [-101.534146, 31.941308], [-101.533989, 31.941388], [-101.533861, 31.9415], [-101.533348, 31.942283], [-101.533205, 31.942421], [-101.532981, 31.942547], [-101.516725, 31.947169], [-101.516526, 31.947261], [-101.500152, 31.958338], [-101.499915, 31.958448], [-101.499667, 31.958518], [-101.479849, 31.962937], [-101.47958, 31.962956], [-101.479322, 31.962935], [-101.473952, 31.962317], [-101.473726, 31.962325], [-101.473506, 31.962366], [-101.46004, 31.965354], [-101.452052, 31.965647], [-101.429787, 31.969803], [-101.429573, 31.969864], [-101.429384, 31.96997], [-101.429132, 31.970212], [-101.425183, 31.974004], [-101.424959, 31.974129], [-101.424716, 31.974198], [-101.419567, 31.975085], [-101.419319, 31.975096], [-101.41907, 31.975077], [-101.412012, 31.973622], [-101.411786, 31.973627], [-101.411569, 31.973681], [-101.397499, 31.977768], [-101.397305, 31.977879], [-101.397161, 31.978019], [-101.397061, 31.978192], [-101.397017, 31.978381], [-101.396823, 31.979716], [-101.396723, 31.979927], [-101.396561, 31.98011], [-101.39635, 31.98025], [-101.396115, 31.980335], [-101.392422, 31.981317], [-101.385322, 31.982196], [-101.37779, 31.983704], [-101.368465, 31.986735], [-101.355199, 31.989435], [-101.344388, 31.992581], [-101.340536, 31.9932], [-101.332494, 31.995435], [-101.319741, 32.0017], [-101.30893, 32.004495], [-101.305533, 32.004028]], [[-101.774901, 31.869165], [-101.771376, 31.87003], [-101.770307, 31.870223], [-101.764159, 31.871496], [-101.751253, 31.875353], [-101.734312, 31.880287], [-101.719517, 31.884507], [-101.717218, 31.884648], [-101.711824, 31.884792], [-101.708996, 31.884737], [-101.707709, 31.885011], [-101.70421, 31.886027], [-101.703959, 31.886072], [-101.703692, 31.886059], [-101.695808, 31.883845], [-101.695196, 31.885432], [-101.695239, 31.88661], [-101.694677, 31.890232], [-101.694574, 31.890443], [-101.694411, 31.890624], [-101.694199, 31.890763], [-101.69396, 31.890847], [-101.676002, 31.894801], [-101.669916, 31.897964], [-101.648695, 31.903148], [-101.648516, 31.903212], [-101.648371, 31.903308], [-101.646954, 31.904894], [-101.646766, 31.905047], [-101.646531, 31.905156], [-101.631585, 31.908247], [-101.614294, 31.914651], [-101.600343, 31.918212], [-101.599257, 31.919929]], [[-101.775755, 31.859118], [-101.771976, 31.860072], [-101.775055, 31.869128], [-101.774901, 31.869165]]]}},
{"type": "Feature", "properties": {"ProjectID": "P6524", "TPMS_ID": 4895654, "OPER_LINK": 0, "OPS_ID": 0, "P5_NUM": "836027", "OPER_NM": "TARGA DOWNSTREAM LLC", "SYS_NM": "GRAND PRIX", "SUBSYS_NM": "DAYTONA", "T4PERMIT": "09746", "DIAMETER": 24.0, "COMMODITY1": "HVL", "COMMODITY2": null, "COMMODITY3": null, "CMDTY_DESC": "HIGHLY VOLATILE LIQUID", "INTERSTATE": "Y", "STATUS_CD": "I", "QUALITY_CD": "G", "SYSTYPE": "Q", "COUNTY": "221", "COM_CARRIE": "Y", "PLINE_ID": "DAY-A", "SYS_ID": "00330879", "NPMS_SYS_I": 0, "ALBERS_MIL": 24.9234156777, "LENGTH": 0.0}, "geometry": {"type": "LineString", "coordinates": [[-97.999473, 32.355282], [-97.994887, 32.355282], [-97.977969, 32.353355], [-97.96148, 32.349786], [-97.94756, 32.343789], [-97.937941, 32.346603], [-97.93414, 32.347715], [-97.917144, 32.346409], [-97.900378, 32.348626], [-97.884375, 32.353406], [-97.86907, 32.359586], [-97.854256, 32.363137], [-97.84027, 32.36311], [-97.83172, 32.35088], [-97.817268, 32.352131], [-97.807449, 32.343002], [-97.795777, 32.334792], [-97.778889, 32.333665], [-97.761798, 32.333366], [-97.758437, 32.332627], [-97.746996, 32.330109], [-97.742021, 32.331497], [-97.734069, 32.331144], [-97.732191, 32.329786], [-97.714143, 32.329407], [-97.71229, 32.326769], [-97.705832, 32.324818], [-97.691257, 32.330679], [-97.686857, 32.329462], [-97.673717, 32.326442], [-97.673134, 32.32764], [-97.669646, 32.334804], [-97.655732, 32.334634], [-97.651449, 32.335244], [-97.648922, 32.334327], [-97.64427, 32.331573], [-97.641304, 32.330231], [-97.638792, 32.331495], [-97.636343, 32.327987], [-97.616446, 32.319111], [-97.616393, 32.318702]]}},
{"type": "Feature", "properties": {"ProjectID": "P6524", "TPMS_ID": 4895653, "OPER_LINK": 0, "OPS_ID": 0, "P5_NUM": "836027", "OPER_NM": "TARGA DOWNSTREAM LLC", "SYS_NM": "GRAND PRIX", "SUBSYS_NM": "DAYTONA", "T4PERMIT": "09746", "DIAMETER": 24.0, "COMMODITY1": "HVL", "COMMODITY2": null, "COMMODITY3": null, "CMDTY_DESC": "HIGHLY VOLATILE LIQUID", "INTERSTATE": "Y", "STATUS_CD": "I", "QUALITY_CD": "G", "SYSTYPE": "Q", "COUNTY": "251", "COM_CARRIE": "Y", "PLINE_ID": "DAY-A", "SYS_ID": "00330879", "NPMS_SYS_I": 0, "ALBERS_MIL": 5.5907364471, "LENGTH": 0.0}, "geometry": {"type": "LineString", "coordinates": [[-97.615741, 32.314632], [-97.601531, 32.311151], [-97.598436, 32.310479], [-97.594199, 32.309919], [-97.589756, 32.308417], [-97.58145, 32.306398], [-97.579551, 32.309801], [-97.574731, 32.312183], [-97.574029, 32.312399], [-97.564903, 32.313677], [-97.561217, 32.315236], [-97.56058, 32.315695], [-97.557815, 32.316668], [-97.556037, 32.316819], [-97.548385, 32.318343], [-97.52817, 32.318041], [-97.528152, 32.316314]]}},
{"type": "Feature", "properties": {"ProjectID": "P6524", "TPMS_ID": 4895652, "OPER_LINK": 0, "OPS_ID": 0, "P5_NUM": "836027", "OPER_NM": "TARGA DOWNSTREAM LLC", "SYS_NM": "GRAND PRIX", "SUBSYS_NM": "DAYTONA", "T4PERMIT": "09746", "DIAMETER": 24.0, "COMMODITY1": "HVL", "COMMODITY2": null, "COMMODITY3": null, "CMDTY_DESC": "HIGHLY VOLATILE LIQUID", "INTERSTATE": "Y", "STATUS_CD": "I", "QUALITY_CD": "G", "SYSTYPE": "Q", "COUNTY": "329", "COM_CARRIE": "Y", "PLINE_ID": "DAY-A", "SYS_ID": "00330879", "NPMS_SYS_I": 0, "ALBERS_MIL": 1.3623107101, "LENGTH": 0.0}, "geometry": {"type": "MultiLineString", "coordinates": [[[-101.782043, 31.857741], [-101.78209, 31.857893], [-101.778285, 31.85875], [-101.777198, 31.858753], [-101.775755, 31.859118]], [[-101.788136, 31.850351], [-101.788104, 31.850254], [-101.786551, 31.850393], [-101.780151, 31.851727], [-101.782043, 31.857741]], [[-101.788374, 31.851082], [-101.788136, 31.850351]]]}},
{"type": "Feature", "properties": {"ProjectID": "P6524", "TPMS_ID": 4895645, "OPER_LINK": 0, "OPS_ID": 0, "P5_NUM": "836027", "OPER_NM": "TARGA DOWNSTREAM LLC", "SYS_NM": "GRAND PRIX", "SUBSYS_NM": "DAYTONA", "T4PERMIT": "09746", "DIAMETER": 24.0, "COMMODITY1": "HVL", "COMMODITY2": null, "COMMODITY3": null, "CMDTY_DESC": "HIGHLY VOLATILE LIQUID", "INTERSTATE": "Y", "STATUS_CD": "I", "QUALITY_CD": "G", "SYSTYPE": "Q", "COUNTY": "335", "COM_CARRIE": "Y", "PLINE_ID": "DAY-A", "SYS_ID": "00330879", "NPMS_SYS_I": 0, "ALBERS_MIL": 20.037782657, "LENGTH": 0.0}, "geometry": {"type": "LineString", "coordinates": [[-100.986585, 32.086788], [-100.96399, 32.095311], [-100.963743, 32.095363], [-100.963499, 32.095377], [-100.959519, 32.095419], [-100.959301, 32.095472], [-100.959107, 32.09557], [-100.958949, 32.095708], [-100.95709, 32.097807], [-100.956925, 32.097938], [-100.956735, 32.098043], [-100.930225, 32.108031], [-100.910233, 32.115108], [-100.902972, 32.117283], [-100.881634, 32.125235], [-100.879926, 32.125619], [-100.877414, 32.126782], [-100.866108, 32.130745], [-100.862245, 32.13159], [-100.862048, 32.131685], [-100.861887, 32.131819], [-100.860931, 32.132834], [-100.86074, 32.132977], [-100.860525, 32.133088], [-100.837195, 32.141771], [-100.819658, 32.145361], [-100.817358, 32.145446], [-100.787808, 32.15184], [-100.75521, 32.15802], [-100.748119, 32.159659], [-100.725764, 32.164769], [-100.72334, 32.165086], [-100.721914, 32.165418], [-100.720305, 32.166012], [-100.703783, 32.169857], [-100.701778, 32.170185], [-100.700042, 32.170578], [-100.692422, 32.172506], [-100.664544, 32.177997]]}},
{"type": "Feature", "properties": {"ProjectID": "P6524", "TPMS_ID": 4895645, "OPER_LINK": 0, "OPS_ID": 0, "P5_NUM": "836027", "OPER_NM": "TARGA DOWNSTREAM LLC", "SYS_NM": "GRAND PRIX", "SUBSYS_NM": "DAYTONA", "T4PERMIT": "09746", "DIAMETER": 24.0, "COMMODITY1": "HVL", "COMMODITY2": null, "COMMODITY3": null, "CMDTY_DESC": "HIGHLY VOLATILE LIQUID", "INTERSTATE": "Y", "STATUS_CD": "I", "QUALITY_CD": "G", "SYSTYPE": "Q", "COUNTY": "335", "COM_CARRIE": "Y", "PLINE_ID": "DAY-A", "SYS_ID": "00330879", "NPMS_SYS_I": 0, "ALBERS_MIL": 20.037782657, "LENGTH": 0.0}, "geometry": {"type": "LineString", "coordinates": [[-100.664544, 32.177997], [-100.664544, 32.177997]]}},
{"type": "Feature", "properties": {"ProjectID": "P6524", "TPMS_ID": 4895646, "OPER_LINK": 0, "OPS_ID": 0, "P5_NUM": "836027", "OPER_NM": "TARGA DOWNSTREAM LLC", "SYS_NM": "GRAND PRIX", "SUBSYS_NM": "DAYTONA", "T4PERMIT": "09746", "DIAMETER": 24.0, "COMMODITY1": "HVL", "COMMODITY2": null, "COMMODITY3": null, "CMDTY_DESC": "HIGHLY VOLATILE LIQUID", "INTERSTATE": "Y", "STATUS_CD": "I", "QUALITY_CD": "G", "SYSTYPE": "Q", "COUNTY": "353", "COM_CARRIE": "Y", "PLINE_ID": "DAY-A", "SYS_ID": "00330879", "NPMS_SYS_I": 0, "ALBERS_MIL": 31.1213765432, "LENGTH": 0.0}, "geometry": {"type": "MultiLineString", "coordinates": [[[-100.427889, 32.225182], [-100.42617, 32.226722], [-100.419641, 32.226869], [-100.384713, 32.229503], [-100.380841, 32.229685], [-100.365851, 32.229799], [-100.364567, 32.229555], [-100.36113, 32.229581], [-100.359544, 32.229847], [-100.348945, 32.229926], [-100.348307, 32.230429], [-100.336417, 32.230026], [-100.326466, 32.230131], [-100.326248, 32.230183], [-100.326053, 32.230281], [-100.325529, 32.230738], [-100.325297, 32.230855], [-100.325039, 32.230916], [-100.321247, 32.230999], [-100.320986, 32.230946], [-100.320749, 32.230837], [-100.319936, 32.23018], [-100.319774, 32.230105], [-100.319596, 32.230069], [-100.296199, 32.230579], [-100.281718, 32.231812], [-100.264625, 32.233033], [-100.263017, 32.233939], [-100.2593, 32.233942], [-100.25665, 32.233436], [-100.251757, 32.233257], [-100.248103, 32.233382], [-100.244587, 32.233371], [-100.240691, 32.232852], [-100.216291, 32.230348], [-100.212563, 32.229841], [-100.206438, 32.229511], [-100.197111, 32.229564], [-100.193286, 32.229294], [-100.176927, 32.226668], [-100.157821, 32.227231], [-100.150307, 32.227299]], [[-100.664544, 32.177997], [-100.65932, 32.179026], [-100.649768, 32.181152], [-100.649514, 32.181169], [-100.649268, 32.18115], [-100.644873, 32.180487], [-100.643767, 32.180265], [-100.642348, 32.180106], [-100.637603, 32.17939], [-100.637377, 32.17939], [-100.637154, 32.179423], [-100.625135, 32.182313], [-100.624931, 32.182397], [-100.624747, 32.18251], [-100.619757, 32.186171], [-100.619515, 32.18627], [-100.619256, 32.186312], [-100.618298, 32.186298], [-100.615667, 32.186162], [-100.612351, 32.18621], [-100.584756, 32.1858], [-100.581948, 32.185638], [-100.581701, 32.185661], [-100.581462, 32.185719], [-100.581236, 32.185813], [-100.578907, 32.187361], [-100.560972, 32.198235], [-100.545142, 32.204791], [-100.528716, 32.210544], [-100.49249, 32.218354], [-100.492266, 32.21838], [-100.492039, 32.218387], [-100.486939, 32.218077], [-100.486181, 32.218152], [-100.458752, 32.220026], [-100.458538, 32.22009], [-100.458352, 32.2202], [-100.455613, 32.222937], [-100.455392, 32.223067], [-100.455139, 32.223144], [-100.452377, 32.223334], [-100.449962, 32.223531], [-100.446333, 32.223746], [-100.428735, 32.224424], [-100.427889, 32.225182]]]}},
{"type": "Feature", "properties": {"ProjectID": "P6524", "TPMS_ID": 4895651, "OPER_LINK": 0, "OPS_ID": 0, "P5_NUM": "836027", "OPER_NM": "TARGA DOWNSTREAM LLC", "SYS_NM": "GRAND PRIX", "SUBSYS_NM": "DAYTONA", "T4PERMIT": "09746", "DIAMETER": 24.0, "COMMODITY1": "HVL", "COMMODITY2": null, "COMMODITY3": null, "CMDTY_DESC": "HIGHLY VOLATILE LIQUID", "INTERSTATE": "Y", "STATUS_CD": "I", "QUALITY_CD": "G", "SYSTYPE": "Q", "COUNTY": "425", "COM_CARRIE": "Y", "PLINE_ID": "DAY-A", "SYS_ID": "00330879", "NPMS_SYS_I": 0, "ALBERS_MIL": 0.2879586436, "LENGTH": 0.0}, "geometry": {"type": "LineString", "coordinates": [[-97.616393, 32.318702], [-97.615873, 32.314664], [-97.615741, 32.314632]]}},
{"type": "Feature", "properties": {"ProjectID": "P6524", "TPMS_ID": 4895645, "OPER_LINK": 0, "OPS_ID": 0, "P5_NUM": "836027", "OPER_NM": "TARGA DOWNSTREAM LLC", "SYS_NM": "GRAND PRIX", "SUBSYS_NM": "DAYTONA", "T4PERMIT": "09746", "DIAMETER": 24.0, "COMMODITY1": "HVL", "COMMODITY2": null, "COMMODITY3": null, "CMDTY_DESC": "HIGHLY VOLATILE LIQUID", "INTERSTATE": "Y", "STATUS_CD": "I", "QUALITY_CD": "G", "SYSTYPE": "Q", "COUNTY": "335", "COM_CARRIE": "Y", "PLINE_ID": "DAY-A", "SYS_ID": "00330879", "NPMS_SYS_I": 0, "ALBERS_MIL": 20.037782657, "LENGTH": 0.0}, "geometry": {"type": "LineString", "coordinates": [[-100.986586, 32.086788], [-100.986585, 32.086788]]}},
{"type": "Feature", "properties": {"ProjectID": "P6524", "TPMS_ID": 4895656, "OPER_LINK": 0, "OPS_ID": 0, "P5_NUM": "836027", "OPER_NM": "TARGA DOWNSTREAM LLC", "SYS_NM": "GRAND PRIX", "SUBSYS_NM": "DAYTONA", "T4PERMIT": "09746", "DIAMETER": 24.0, "COMMODITY1": "HVL", "COMMODITY2": null, "COMMODITY3": null, "CMDTY_DESC": "HIGHLY VOLATILE LIQUID", "INTERSTATE": "Y", "STATUS_CD": "I", "QUALITY_CD": "G", "SYSTYPE": "Q", "COUNTY": "431", "COM_CARRIE": "Y", "PLINE_ID": "DAY-A", "SYS_ID": "00330879", "NPMS_SYS_I": 0, "ALBERS_MIL": 17.2676777044, "LENGTH": 0.0}, "geometry": {"type": "LineString", "coordinates": [[-101.2648, 32.013261], [-101.253422, 32.01632], [-101.243932, 32.017399], [-101.239465, 32.018345], [-101.239257, 32.018443], [-101.239085, 32.018584], [-101.237565, 32.020093], [-101.237344, 32.020222], [-101.237106, 32.020294], [-101.218974, 32.024606], [-101.214408, 32.025419], [-101.209478, 32.025426], [-101.20926, 32.025476], [-101.209064, 32.025573], [-101.208905, 32.025709], [-101.208072, 32.026696], [-101.207865, 32.026841], [-101.207627, 32.026932], [-101.184683, 32.030993], [-101.178477, 32.032614], [-101.173649, 32.03382], [-101.161313, 32.037161], [-101.159064, 32.037686], [-101.157693, 32.03809], [-101.106051, 32.051693], [-101.101986, 32.052862], [-101.040789, 32.068953], [-101.039038, 32.06934], [-101.03581, 32.070265], [-101.028243, 32.072249], [-101.027992, 32.072276], [-101.018716, 32.072026], [-101.018496, 32.072069], [-101.018297, 32.07216], [-101.018132, 32.072292], [-101.013819, 32.076397], [-101.013642, 32.076542], [-101.013431, 32.076663], [-100.986586, 32.086788]]}},
{"type": "Feature", "properties": {"ProjectID": "P6524", "TPMS_ID": 4895655, "OPER_LINK": 0, "OPS_ID": 0, "P5_NUM": "836027", "OPER_NM": "TARGA DOWNSTREAM LLC", "SYS_NM": "GRAND PRIX", "SUBSYS_NM": "DAYTONA", "T4PERMIT": "09746", "DIAMETER": 24.0, "COMMODITY1": "HVL", "COMMODITY2": null, "COMMODITY3": null, "CMDTY_DESC": "HIGHLY VOLATILE LIQUID", "INTERSTATE": "Y", "STATUS_CD": "I", "QUALITY_CD": "G", "SYSTYPE": "Q", "COUNTY": "173", "COM_CARRIE": "Y", "PLINE_ID": "DAY-A", "SYS_ID": "00330879", "NPMS_SYS_I": 0, "ALBERS_MIL": 33.6354708335, "LENGTH": 0.0}, "geometry": {"type": "LineString", "coordinates": [[-101.2648, 32.013261], [-101.2648, 32.013261]]}},
{"type": "Feature", "properties": {"ProjectID": "P6524", "TPMS_ID": 4895646, "OPER_LINK": 0, "OPS_ID": 0, "P5_NUM": "836027", "OPER_NM": "TARGA DOWNSTREAM LLC", "SYS_NM": "GRAND PRIX", "SUBSYS_NM": "DAYTONA", "T4PERMIT": "09746", "DIAMETER": 24.0, "COMMODITY1": "HVL", "COMMODITY2": null, "COMMODITY3": null, "CMDTY_DESC": "HIGHLY VOLATILE LIQUID", "INTERSTATE": "Y", "STATUS_CD": "I", "QUALITY_CD": "G", "SYSTYPE": "Q", "COUNTY": "353", "COM_CARRIE": "Y", "PLINE_ID": "DAY-A", "SYS_ID": "00330879", "NPMS_SYS_I": 0, "ALBERS_MIL": 31.1213765432, "LENGTH": 0.0}, "geometry": {"type": "LineString", "coordinates": [[-100.150307, 32.227299], [-100.150306, 32.227299]]}},
{"type": "Feature", "properties": {"ProjectID": "P6524", "TPMS_ID": 4895648, "OPER_LINK": 0, "OPS_ID": 0, "P5_NUM": "836027", "OPER_NM": "TARGA DOWNSTREAM LLC", "SYS_NM": "GRAND PRIX", "SUBSYS_NM": "DAYTONA", "T4PERMIT": "09746", "DIAMETER": 24.0, "COMMODITY1": "HVL", "COMMODITY2": null, "COMMODITY3": null, "CMDTY_DESC": "HIGHLY VOLATILE LIQUID", "INTERSTATE": "Y", "STATUS_CD": "I", "QUALITY_CD": "G", "SYSTYPE": "Q", "COUNTY": "441", "COM_CARRIE": "Y", "PLINE_ID": "DAY-A", "SYS_ID": "00330879", "NPMS_SYS_I": 0, "ALBERS_MIL": 31.3290903057, "LENGTH": 0.0}, "geometry": {"type": "MultiLineString", "coordinates": [[[-99.671811, 32.241368], [-99.669525, 32.239504], [-99.653459, 32.239588], [-99.653239, 32.23964], [-99.653043, 32.239737], [-99.648693, 32.242929], [-99.648474, 32.24304], [-99.648245, 32.243114], [-99.644823, 32.244014], [-99.63972, 32.24414], [-99.637441, 32.243944], [-99.631409, 32.244093]], [[-100.150306, 32.227299], [-100.131357, 32.22747], [-100.064269, 32.224312], [-100.044295, 32.223567], [-100.039807, 32.219413], [-100.039615, 32.21931], [-100.039445, 32.219265], [-100.007343, 32.216301], [-100.004666, 32.216504], [-100.003233, 32.21594], [-99.992407, 32.214814], [-99.986376, 32.213762], [-99.98178, 32.212962], [-99.963377, 32.212431], [-99.955972, 32.212973], [-99.952361, 32.21428], [-99.947893, 32.216182], [-99.94616, 32.213994], [-99.944757, 32.212933], [-99.943071, 32.212667], [-99.938243, 32.212691], [-99.937136, 32.212208], [-99.911316, 32.218007], [-99.908576, 32.219384], [-99.906539, 32.219813], [-99.902592, 32.217733], [-99.890883, 32.215571], [-99.887481, 32.216358], [-99.883924, 32.216415], [-99.879549, 32.2174], [-99.857221, 32.218106], [-99.850326, 32.218775], [-99.840705, 32.220471], [-99.835474, 32.221188], [-99.81912, 32.222232], [-99.818907, 32.222296], [-99.81872, 32.222404], [-99.818519, 32.222602], [-99.818322, 32.222739], [-99.818098, 32.222846], [-99.81194, 32.224639], [-99.802184, 32.228513], [-99.796924, 32.230421], [-99.781788, 32.230693], [-99.780168, 32.230164], [-99.775092, 32.230949], [-99.766352, 32.230998], [-99.762859, 32.231547], [-99.749369, 32.231652], [-99.746856, 32.232082], [-99.73806, 32.232562], [-99.731068, 32.233604], [-99.716185, 32.233434], [-99.715961, 32.233465], [-99.715747, 32.233528], [-99.708522, 32.236911], [-99.695908, 32.23975], [-99.675992, 32.24215], [-99.672839, 32.242206], [-99.671811, 32.241368]]]}}
]
}
