{
  "type": "Feature",
  "geometry": {
    "type": "LineString",
    "coordinates": [
      [
        -102.911596575366,
        48.40002158270477
      ],
      [
        -102.912198157287,
        48.40522418502426
      ],
      [
        -102.9156088511176,
        48.41001404665877
      ],
      [
        -102.9176092745782,
        48.4182508594885
      ],
      [
        -102.9206334773177,
        48.42961501678172
      ],
      [
        -102.9375802394236,
        48.43032343184002
      ],
      [
        -102.9504378997866,
        48.44472245951792
      ],
      [
        -102.9507055741782,
        48.44925041880644
      ],
      [
        -102.9513192955562,
        48.4533251358328
      ],
      [
        -102.952176873147,
        48.45944825355121
      ],
      [
        -102.9521053087821,
        48.46284904760435
      ],
      [
        -102.9514128918015,
        48.46460413548169
      ],
      [
        -102.9514308079986,
        48.46568355532187
      ],
      [
        -102.9539787347415,
        48.46766998262915
      ],
      [
        -102.9544431376651,
        48.46877893562647
      ],
      [
        -102.9697506903022,
        48.47359506142396
      ],
      [
        -102.9783364344435,
        48.47685767152364
      ],
      [
        -102.9809776903399,
        48.47971787083462
      ],
      [
        -102.9880193587952,
        48.49047561068354
      ],
      [
        -102.9894682437098,
        48.498582282838
      ],
      [
        -102.990511363527,
        48.50334322495756
      ],
      [
        -103.0184361884868,
        48.50594564032251
      ],
      [
        -103.0318593523584,
        48.51485424602971
      ],
      [
        -103.0418877724755,
        48.518345510251
      ],
      [
        -103.0500072020315,
        48.51818534078141
      ],
      [
        -103.0604222608997,
        48.52476652915187
      ],
      [
        -103.0608032341103,
        48.52842453868099
      ],
      [
        -103.0861788885038,
        48.53875058578136
      ],
      [
        -103.1056616354258,
        48.53892148767427
      ],
      [
        -103.1092834694591,
        48.53638460918629
      ],
      [
        -103.1187592826456,
        48.53925694740735
      ],
      [
        -103.1255191488416,
        48.5391848401633
      ],
      [
        -103.1322205049894,
        48.54406398943391
      ],
      [
        -103.1357815761444,
        48.54883136004909
      ],
      [
        -103.1359827307024,
        48.55265149497583
      ],
      [
        -103.1477431323343,
        48.55389139036228
      ],
      [
        -103.1526612201378,
        48.55761696928377
      ],
      [
        -103.1899122028442,
        48.55752062507416
      ],
      [
        -103.1933170771752,
        48.56086261335407
      ],
      [
        -103.2372143923979,
        48.56085969234884
      ],
      [
        -103.2434462579321,
        48.56139279537403
      ],
      [
        -103.2444822724591,
        48.5622269555146
      ],
      [
        -103.2446528829936,
        48.56838521744426
      ],
      [
        -103.2500927044387,
        48.57617678886945
      ],
      [
        -103.2869620232787,
        48.57590338929334
      ],
      [
        -103.2886069538843,
        48.58263858353211
      ],
      [
        -103.2980540799512,
        48.58302000730576
      ],
      [
        -103.3066274627135,
        48.58573895896972
      ],
      [
        -103.3392624923326,
        48.58622399969123
      ],
      [
        -103.3416832462259,
        48.58958214926774
      ],
      [
        -103.3834837201837,
        48.58922499523204
      ],
      [
        -103.3896169282366,
        48.58927790050557
      ],
      [
        -103.3924013124138,
        48.58967488071997
      ],
      [
        -103.3993968197265,
        48.59523632424204
      ],
      [
        -103.4146899086313,
        48.59475405414011
      ],
      [
        -103.4248062343943,
        48.60230469564823
      ],
      [
        -103.4494016634967,
        48.60175909857971
      ],
      [
        -103.4506570145147,
        48.6066444429437
      ],
      [
        -103.4521695332142,
        48.60855658220408
      ],
      [
        -103.4605887454613,
        48.60837520097626
      ],
      [
        -103.4614192022775,
        48.6091438550936
      ],
      [
        -103.4615751512218,
        48.61942995835404
      ],
      [
        -103.4621985691415,
        48.62070710864878
      ],
      [
        -103.4631457741846,
        48.62349179725025
      ],
      [
        -103.4733379925865,
        48.62613991634653
      ],
      [
        -103.4800798112633,
        48.62934611761827
      ],
      [
        -103.4928920316096,
        48.62928381007296
      ],
      [
        -103.501610017305,
        48.64383715979036
      ],
      [
        -103.5066079352903,
        48.64751396065751
      ],
      [
        -103.5405257196993,
        48.64780495417688
      ],
      [
        -103.5412024407874,
        48.64835430267885
      ],
      [
        -103.5412205788206,
        48.65960207770859
      ],
      [
        -103.5555745684857,
        48.66701682406625
      ],
      [
        -103.5804470842091,
        48.67708717605419
      ],
      [
        -103.5807898255867,
        48.68435764635414
      ],
      [
        -103.5925554746058,
        48.68454119785392
      ],
      [
        -103.602712002423,
        48.70135987617232
      ],
      [
        -103.6062476280302,
        48.70390545106156
      ],
      [
        -103.6060004532477,
        48.70595627884788
      ],
      [
        -103.6143320426963,
        48.71755550044618
      ],
      [
        -103.6194450738824,
        48.72100663585941
      ],
      [
        -103.6217965803302,
        48.72092814053518
      ],
      [
        -103.625755751261,
        48.72647898974739
      ],
      [
        -103.631927067238,
        48.73184685468324
      ],
      [
        -103.6450651256763,
        48.73648893252467
      ],
      [
        -103.6551805965914,
        48.73830686321703
      ],
      [
        -103.6582199716993,
        48.74161180439991
      ],
      [
        -103.671202190036,
        48.74149032469487
      ],
      [
        -103.675092429511,
        48.74659430184229
      ],
      [
        -103.6765451368064,
        48.74773694540556
      ],
      [
        -103.6801549037394,
        48.755581459146
      ],
      [
        -103.6820155806991,
        48.7567084908481
      ],
      [
        -103.6834964140093,
        48.76077367638759
      ],
      [
        -103.6938374403158,
        48.76090397842228
      ],
      [
        -103.6963273452534,
        48.76304778387953
      ],
      [
        -103.7022424689779,
        48.77594703021114
      ],
      [
        -103.7080153827584,
        48.78380436169417
      ],
      [
        -103.713779788414,
        48.78684308559692
      ],
      [
        -103.7170825575815,
        48.79339877161379
      ],
      [
        -103.7186855359791,
        48.79667680799808
      ],
      [
        -103.7194914549883,
        48.80754912835091
      ],
      [
        -103.7218489731442,
        48.80806155093226
      ],
      [
        -103.7224928284105,
        48.8217694743314
      ],
      [
        -103.7352716178278,
        48.83504535910645
      ],
      [
        -103.7408552634468,
        48.84128271669596
      ],
      [
        -103.7542959288365,
        48.84169904606443
      ],
      [
        -103.7618681512352,
        48.84454193075504
      ],
      [
        -103.7673092662722,
        48.85143789266706
      ],
      [
        -103.781785198863,
        48.85563634267569
      ],
      [
        -103.7921397187999,
        48.86178302423383
      ],
      [
        -103.7933660174052,
        48.86719960135613
      ],
      [
        -103.7906611316317,
        48.87351747446515
      ],
      [
        -103.7909446155554,
        48.87962827153328
      ],
      [
        -103.7945112621491,
        48.88177219996837
      ],
      [
        -103.7970218169332,
        48.88316181359949
      ],
      [
        -103.7999480587035,
        48.88623878835627
      ],
      [
        -103.8015555059362,
        48.88720731319949
      ],
      [
        -103.8068303870062,
        48.89205804835471
      ],
      [
        -103.8139648244273,
        48.89472620644387
      ],
      [
        -103.8209572679353,
        48.89499209442592
      ],
      [
        -103.8252555607375,
        48.90184601864266
      ],
      [
        -103.8263729541557,
        48.90385398614715
      ],
      [
        -103.8265349612678,
        48.90847801404378
      ],
      [
        -103.83060445511,
        48.90943112112442
      ],
      [
        -103.8321541597405,
        48.90958358302996
      ],
      [
        -103.8322598219166,
        48.92303761264586
      ],
      [
        -103.8318745968107,
        48.92987978747835
      ],
      [
        -103.8319872941894,
        48.93121456051174
      ],
      [
        -103.833778684508,
        48.93121840851636
      ],
      [
        -103.8401843854995,
        48.93292140197735
      ],
      [
        -103.8497259892696,
        48.93534406272394
      ],
      [
        -103.8593932852974,
        48.9422281151906
      ],
      [
        -103.8600845374512,
        48.94968127581252
      ],
      [
        -103.9031363802074,
        48.95317104858728
      ],
      [
        -103.9180703431228,
        48.96139329490332
      ],
      [
        -103.9367298483434,
        48.96277700441305
      ],
      [
        -103.9424806909422,
        48.96181128388723
      ],
      [
        -103.9453624253857,
        48.96010856967676
      ],
      [
        -103.9481703467133,
        48.96022443136063
      ],
      [
        -103.9500422680247,
        48.96046095916806
      ],
      [
        -103.9604057368525,
        48.95787206185569
      ],
      [
        -103.9644244751473,
        48.95746221135329
      ],
      [
        -103.9810991287802,
        48.9590792237493
      ],
      [
        -103.9841271962176,
        48.95919929687274
      ],
      [
        -103.9912883575308,
        48.95746984179524
      ],
      [
        -104.0116569594629,
        48.95977968635149
      ],
      [
        -104.0115744267113,
        48.96647371890818
      ],
      [
        -104.0105631311772,
        48.96940907633562
      ],
      [
        -104.0121187841936,
        48.97679759408328
      ],
      [
        -104.0123794590908,
        48.98209900225739
      ],
      [
        -104.0119613004023,
        48.99598262459507
      ],
      [
        -104.0123240656206,
        48.99763471943414
      ],
      [
        -104.0106047151059,
        49.0002703958224
      ],
      [
        -104.0104424914359,
        49.00324372858533
      ],
      [
        -104.0182314042388,
        49.00375186421019
      ],
      [
        -104.0251753245237,
        49.00521449937346
      ],
      [
        -104.0291720116189,
        49.00411951520676
      ],
      [
        -104.0354393157407,
        49.00431052496014
      ],
      [
        -104.0371576074146,
        49.00366111988723
      ],
      [
        -104.03938116817,
        49.00365768656295
      ],
      [
        -104.0421918662914,
        49.00365258515108
      ],
      [
        -104.0462547704517,
        49.00362480107643
      ],
      [
        -104.0525199262711,
        49.0036920408223
      ],
      [
        -104.0542054762282,
        49.00454664019818
      ],
      [
        -104.0615853254198,
        49.00427708923175
      ],
      [
        -104.0623025637802,
        49.00373181247566
      ],
      [
        -104.0678919015549,
        49.00244575965851
      ],
      [
        -104.0712590312994,
        49.0016393913993
      ],
      [
        -104.0856422578021,
        49.00641693871852
      ],
      [
        -104.0901949384673,
        49.005936203056
      ],
      [
        -104.0961804119723,
        49.00341288798309
      ],
      [
        -104.101352631796,
        49.00332265860111
      ],
      [
        -104.1083997479812,
        49.00444217698837
      ],
      [
        -104.133763374842,
        49.01483593836108
      ],
      [
        -104.1365819773009,
        49.01630499187578
      ],
      [
        -104.1437180332177,
        49.01874480195145
      ],
      [
        -104.1538211271962,
        49.0248282098457
      ],
      [
        -104.1616431131394,
        49.02827048427226
      ],
      [
        -104.1649604418569,
        49.0291861223913
      ],
      [
        -104.1851467721841,
        49.02867686274176
      ],
      [
        -104.1935580046897,
        49.02582166942538
      ],
      [
        -104.2032132016441,
        49.02812533745891
      ],
      [
        -104.2083957690586,
        49.0345148507013
      ],
      [
        -104.2098502743171,
        49.03778680842481
      ],
      [
        -104.2098862046094,
        49.04234248455455
      ],
      [
        -104.2097211578567,
        49.04944904734739
      ],
      [
        -104.2186937236502,
        49.05166812703403
      ],
      [
        -104.21957144981,
        49.05502956350907
      ],
      [
        -104.2685516546621,
        49.05446582536551
      ],
      [
        -104.2973065842553,
        49.0647816283528
      ],
      [
        -104.3092761250661,
        49.08749402825904
      ],
      [
        -104.468868909651,
        49.1355969288405
      ],
      [
        -104.4682913563231,
        49.14855020700108
      ],
      [
        -104.4762749120173,
        49.1612632623083
      ],
      [
        -104.4740162281066,
        49.17673260522205
      ],
      [
        -104.4811028063141,
        49.22275704126655
      ],
      [
        -104.4851942696888,
        49.22236072839803
      ],
      [
        -104.4839631405043,
        49.30820190717968
      ],
      [
        -104.5141472602381,
        49.32379407551436
      ],
      [
        -104.5708111155086,
        49.32195974753357
      ],
      [
        -104.6373851045589,
        49.32703881405122
      ],
      [
        -104.7305326066829,
        49.32678075296951
      ],
      [
        -104.7694273646539,
        49.32961825875895
      ],
      [
        -104.8554928916895,
        49.33405666487662
      ],
      [
        -104.8609147377341,
        49.36746850012367
      ],
      [
        -104.8660041804663,
        49.3895029477969
      ],
      [
        -105.1801975841093,
        49.39363169908832
      ],
      [
        -105.1891792815559,
        49.44475822968462
      ],
      [
        -105.2217342967801,
        49.44552125044959
      ],
      [
        -105.2250173398705,
        49.47367044206064
      ],
      [
        -105.3482067625535,
        49.47478395389516
      ],
      [
        -105.3501955158274,
        49.50112240057528
      ],
      [
        -105.6334603678273,
        49.50853502577601
      ],
      [
        -105.6584951498721,
        49.51603968078665
      ],
      [
        -105.6728608425484,
        49.51940366646331
      ],
      [
        -105.7068710877927,
        49.52028811490163
      ],
      [
        -105.7270278447463,
        49.52155156445114
      ],
      [
        -105.7638480520701,
        49.52420528490073
      ],
      [
        -105.8010716679454,
        49.52380222922545
      ],
      [
        -105.8023217469853,
        49.55183564446771
      ],
      [
        -105.8965893194338,
        49.55212101404334
      ],
      [
        -106.0984963474674,
        49.55238631655102
      ],
      [
        -106.296140844075,
        49.55278611446543
      ],
      [
        -106.3710142974152,
        49.5522296491375
      ],
      [
        -106.3890224372315,
        49.55294105364117
      ],
      [
        -106.3904801735673,
        49.57343777213077
      ],
      [
        -106.6159800708174,
        49.57202448007263
      ],
      [
        -106.6197292184206,
        49.5848923415134
      ],
      [
        -106.6186438753975,
        49.59812358622865
      ],
      [
        -106.6739484754246,
        49.60011746384321
      ],
      [
        -106.6729824752282,
        49.61485257954109
      ],
      [
        -106.6785245013843,
        49.62114441490034
      ],
      [
        -106.6768220437622,
        49.63643059997175
      ],
      [
        -106.7482535996597,
        49.63714606340854
      ],
      [
        -107.0416196008327,
        49.64090646703758
      ],
      [
        -107.0495308852141,
        49.65861906025594
      ],
      [
        -107.2859135840962,
        49.67940766080142
      ],
      [
        -107.2884502885714,
        49.66989236512472
      ],
      [
        -107.3251868426823,
        49.6739891487573
      ],
      [
        -107.342574101355,
        49.69926235195891
      ],
      [
        -107.4802840012285,
        49.71117254338991
      ],
      [
        -107.4832671821314,
        49.73325200031675
      ],
      [
        -107.6688217221082,
        49.73033443209162
      ],
      [
        -107.7386434785661,
        49.73084499804242
      ],
      [
        -107.8009240891871,
        49.72969849231198
      ],
      [
        -107.8488554994621,
        49.72931928354325
      ],
      [
        -107.988600103067,
        49.73193847788015
      ],
      [
        -108.0963224694678,
        49.73232892938479
      ],
      [
        -108.3503704515135,
        49.73097684796235
      ],
      [
        -108.4121110534488,
        49.73180697794308
      ],
      [
        -108.4335579732107,
        49.74139069831824
      ],
      [
        -108.4429317711791,
        49.72333953773428
      ],
      [
        -108.4766415973654,
        49.70351030933563
      ],
      [
        -108.4970980955998,
        49.69700278915578
      ],
      [
        -108.5324918989668,
        49.69706082579237
      ],
      [
        -108.5502044062296,
        49.70449327181441
      ],
      [
        -108.564452312851,
        49.71585155981139
      ],
      [
        -108.5832309395354,
        49.73023037172181
      ],
      [
        -108.6774839095819,
        49.76603454134453
      ],
      [
        -108.8512144431503,
        49.84162350880405
      ],
      [
        -109.0032555265567,
        49.93048903449803
      ],
      [
        -109.0938866808421,
        50.00471735812001
      ],
      [
        -109.1554472397256,
        50.03274780849904
      ],
      [
        -109.2862319051851,
        50.10985089273108
      ],
      [
        -109.3243876854811,
        50.13897746274365
      ],
      [
        -109.4038349876162,
        50.13403477465938
      ],
      [
        -109.4970030535592,
        50.13669319864035
      ],
      [
        -109.499912433156,
        50.18949806480149
      ],
      [
        -109.5212146595721,
        50.20693563007283
      ],
      [
        -109.5573012026655,
        50.23680750563362
      ],
      [
        -109.5834720344975,
        50.25376258595515
      ],
      [
        -110.0000237653407,
        50.66123760560951
      ],
      [
        -110.033348335495,
        50.6827177415279
      ]
    ]
  },
  "properties": {
    "name": "vantage",
    "styleUrl": "#m_ylw-pushpin",
    "icon-scale": 1.1,
    "icon-offset": [
      20,
      2
    ],
    "icon-offset-units": [
      "pixels",
      "pixels"
    ],
    "icon": "http://maps.google.com/mapfiles/kml/pushpin/ylw-pushpin.png"
  }
}
