{
"type": "FeatureCollection",
"features": [
{"type": "Feature", "properties": {"ProjectID": "P7159"}, "geometry": {"type": "LineString", "coordinates": [[142.814631, -6.005586], [142.834086, -6.018946], [142.917928, -5.987125], [142.946633, -6.008979], [142.947947, -6.032585], [142.97306, -6.052029], [143.089095, -6.063181], [143.100136, -6.071443], [143.101476, -6.125637], [143.118268, -6.151892], [143.121072, -6.182482], [143.140836, -6.192347], [143.176677, -6.217445], [143.178341, -6.218615], [143.184833, -6.225311], [143.198909, -6.239789], [143.218365, -6.259844], [143.237638, -6.279668], [143.256431, -6.298977], [143.259258, -6.308762], [143.222819, -6.336588], [143.211646, -6.351787], [143.211777, -6.40309], [143.214555, -6.418317], [143.22437, -6.455291]]}}
]
}
