{
"type": "FeatureCollection",
"features": [
{"type": "Feature", "properties": {"ProjectID": "P7173", "OBJECTID": 1186, "FeatureID": null, "FeatureType_E": 1710152, "FeatureType_A": 1710152, "Name_E": "", "Name_A": "", "Diameter": null, "Category_E": 1, "Category_A": 1, "Status_E": null, "Status_A": null, "Owner_E": "", "Owner_A": "", "Shape__Length": 19426.19212810847}, "geometry": {"type": "MultiLineString", "coordinates": [[[47.48058, 30.051072], [47.480999, 30.050127], [47.481875, 30.048833], [47.482731, 30.047557], [47.483321, 30.046625], [47.484005, 30.045546], [47.485007, 30.043966], [47.485642, 30.042942], [47.486424, 30.041713], [47.487167, 30.040133], [47.488347, 30.036345], [47.489603, 30.030387], [47.490346, 30.026542], [47.491278, 30.022164], [47.49242, 30.016434], [47.493429, 30.011656], [47.495657, 30.000806], [47.49657, 29.996294], [47.498912, 29.984825], [47.499959, 29.978853], [47.500577, 29.975878], [47.501196, 29.972595], [47.501815, 29.969739], [47.502743, 29.966408], [47.504099, 29.961673], [47.505431, 29.95651], [47.506669, 29.951751], [47.508215, 29.945183], [47.510452, 29.935761], [47.512094, 29.928837], [47.51276, 29.925719], [47.513474, 29.922793], [47.514259, 29.919509], [47.514664, 29.917558], [47.515068, 29.91594], [47.515425, 29.914607], [47.51583, 29.913418], [47.517281, 29.911276], [47.520113, 29.909087], [47.523277, 29.907064], [47.523325, 29.906612]]]}}
]
}
