{
"type": "FeatureCollection",
"features": [
{"type": "Feature", "properties": {"ProjectID": "P7184"}, "geometry": {"type": "LineString", "coordinates": [[47.787071, 29.361262], [47.787071, 29.359013], [47.791692, 29.356241], [47.790333, 29.337031], [47.783064, 29.330162], [47.779294, 29.318595], [47.839832, 29.287396], [47.86571, 29.261536], [47.903904, 29.222544], [47.966565, 29.15942], [47.984994, 29.151993], [48.064497, 29.121557], [48.089714, 29.095037], [48.110255, 29.072151], [48.103868, 29.060968], [48.105756, 29.052825], [48.112921, 29.056171], [48.105723, 29.052816], [48.112404, 29.03932], [48.074703, 29.004171], [48.060243, 28.969497], [48.162273, 28.802252], [48.267286, 28.752884], [48.280107, 28.742369], [48.284889, 28.718228], [48.305955, 28.720568]]}}
]
}
