{
"type": "FeatureCollection",
"features": [
{"type": "Feature", "properties": {"ProjectID": "P7205", "objectid": 86, "feature_ty": "Oil pipeline", "name": "Jackson to Moonie", "length": 798.46105559, "state": "Queensland", "operationa": "Fully capable of operation.", "date_downl": "18-08-2022", "source": "GP Info Petrosys Pty Ltd", "license": "GA CCBY August 2022", "spatial_co": "0", "st_lengths": 8.0589385917656}, "geometry": {"type": "MultiLineString", "coordinates": [[[142.411804, -27.617828], [142.41806, -27.62229]], [[142.41806, -27.62229], [142.422379, -27.624804], [142.429596, -27.622675], [142.443558, -27.62368], [142.481918, -27.647717], [142.494751, -27.658054], [142.530121, -27.657804], [142.546555, -27.653694], [142.588028, -27.626848], [142.593124, -27.625923], [142.656296, -27.627981], [142.712189, -27.66403], [142.739212, -27.691677], [142.744568, -27.692301], [142.749176, -27.693422], [142.790405, -27.718081], [142.892899, -27.722813], [142.963745, -27.711916], [143.022171, -27.704878], [143.036621, -27.706869], [143.042343, -27.707369], [143.05954, -27.701141], [143.086319, -27.701265], [143.181717, -27.698898], [143.230774, -27.715836], [143.277115, -27.751703], [143.279846, -27.759174], [143.340256, -27.806875], [143.409012, -27.822035], [143.438507, -27.828169], [143.481476, -27.834272], [143.574631, -27.838257], [143.601669, -27.853201], [143.659332, -27.876987], [143.703537, -27.890936], [143.804703, -27.969934], [143.820969, -27.975748], [143.835785, -27.980232], [143.845749, -27.981726], [143.854843, -27.979858], [143.870285, -27.977242], [143.954102, -27.980976], [143.982986, -27.987453], [144.001053, -27.988573], [144.04837, -27.994553], [144.133682, -28.003393], [144.147507, -28.001274], [144.182632, -28.005384], [144.186981, -28.004932], [144.193436, -28.006914], [144.195328, -28.009619], [144.199188, -28.016344], [144.208664, -28.020578], [144.220062, -28.019388], [144.248383, -28.019333], [144.258469, -28.021076], [144.269577, -28.018719], [144.281509, -28.02145], [144.293839, -28.023319], [144.328339, -28.022322], [144.364655, -28.012743], [144.450638, -28.01298], [144.45311, -28.014532], [144.482025, -28.012856], [144.584152, -28.011732], [144.590424, -28.009289], [144.625931, -28.015741], [144.628174, -28.016518], [144.632431, -28.019245], [144.813629, -28.040579], [144.818024, -28.039246], [144.848099, -28.042753], [144.936646, -28.04402], [144.947647, -28.041954], [144.985626, -28.046539], [144.996613, -28.045473], [145.084595, -28.058126], [145.095428, -28.056122], [145.097534, -28.055357], [145.098358, -28.055754], [145.104965, -28.055054], [145.106201, -28.05534], [145.116547, -28.060631], [145.137054, -28.059149], [145.144333, -28.057049], [145.214722, -28.052233], [145.227066, -28.048405], [145.268692, -28.046059], [145.289749, -28.050259], [145.371063, -28.040995], [145.383041, -28.036549], [145.410599, -28.036051], [145.418106, -28.033831], [145.458984, -28.041489], [145.477997, -28.041365], [145.514084, -28.048067], [145.575714, -28.047638], [145.586639, -28.046776], [145.610382, -28.048311], [145.640503, -28.047289], [145.645081, -28.046919], [145.665207, -28.046303], [145.683853, -28.046673], [145.687592, -28.044273], [145.734848, -28.037905], [145.742142, -28.040127], [145.791656, -28.040619], [145.950836, -28.037533], [145.953796, -28.039509], [145.993195, -28.037653], [146.09433, -28.016291], [146.113464, -28.016043], [146.154694, -28.018513], [146.171249, -28.017649], [146.19693, -28.021353], [146.248917, -28.015177], [146.278595, -28.016592], [146.297211, -28.013449], [146.304611, -28.014559], [146.330917, -28.008755], [146.408844, -28.009249], [146.42897, -28.012213], [146.510712, -28.012459], [146.551956, -28.005419], [146.564682, -28.006037], [146.56926, -28.005297], [146.617172, -28.003815], [146.716324, -28.018744], [146.760345, -28.015339], [146.810547, -28.004221], [146.815201, -28.001505], [146.90567, -27.995689], [146.927078, -28.002575], [146.931412, -28.001192], [147.013809, -28.010355], [147.075165, -27.997599], [147.124084, -27.994179], [147.156342, -27.999176], [147.159775, -27.998871], [147.193466, -27.999868], [147.316711, -28.016033], [147.32962, -28.019768], [147.335602, -28.020109], [147.385696, -28.02578], [147.399307, -28.03171], [147.462387, -28.036886], [147.477829, -28.046217], [147.482697, -28.041605], [147.483871, -28.038404], [147.494705, -28.038336], [147.508606, -28.036589], [147.544037, -28.0333], [147.56485, -28.032696], [147.711395, -28.003639], [147.748169, -28.002249], [147.753983, -28.002323], [147.769791, -28.001722], [147.809006, -27.997639], [147.841476, -27.996954], [147.862885, -27.99892], [147.881882, -27.997782], [147.924301, -28.00058], [147.940018, -27.995872], [148.101807, -28.000668], [148.108307, -27.997095], [148.128525, -27.99114], [148.187836, -27.9916], [148.271729, -27.976778], [148.28006, -27.971521], [148.298843, -27.965321], [148.300293, -27.964075], [148.326202, -27.964716], [148.377426, -27.962011], [148.448151, -27.96125], [148.492905, -27.950472], [148.511108, -27.94696], [148.532562, -27.93782], [148.540283, -27.938423], [148.586243, -27.940409], [148.602249, -27.943905], [148.632156, -27.938168], [148.657837, -27.93609], [148.669159, -27.93836], [148.679611, -27.933163], [148.695908, -27.935089], [148.697403, -27.932575], [148.710861, -27.929674], [148.763489, -27.934519], [148.797119, -27.915157], [149.000092, -27.924482], [149.070068, -27.920185], [149.08049, -27.918201], [149.152039, -27.917454], [149.165634, -27.914867], [149.217468, -27.913012], [149.222672, -27.915224], [149.304306, -27.91271], [149.314209, -27.911289], [149.328781, -27.904947], [149.34436, -27.906878], [149.353027, -27.906263], [149.355347, -27.905039], [149.371414, -27.899282], [149.388824, -27.898062], [149.454773, -27.886623], [149.491684, -27.879932], [149.535767, -27.87351], [149.541321, -27.872892], [149.554291, -27.873758], [149.558014, -27.872196], [149.563919, -27.870052], [149.570465, -27.869312], [149.584305, -27.870052], [149.654053, -27.864479], [149.657043, -27.862766], [149.701004, -27.858566], [149.709656, -27.856852], [149.720932, -27.856863], [149.81337, -27.847452], [149.866226, -27.839025], [149.935379, -27.827461], [149.99144, -27.811516], [150.011078, -27.807318], [150.020691, -27.805061], [150.065674, -27.803503], [150.111832, -27.789469], [150.134155, -27.782059], [150.20903, -27.76659], [150.21051, -27.765205], [150.236923, -27.757383], [150.237579, -27.757248]], [[150.245255, -27.755682], [150.246979, -27.755331]], [[150.241348, -27.756479], [150.245255, -27.755682]], [[150.237579, -27.757248], [150.241348, -27.756479]]]}}
]
}
