{
"type": "FeatureCollection",
"features": [
{"type": "Feature", "id": 2, "properties": {"ProjectID": "P7209", "OBJECTID": 2, "Name": "OLUC", "Ext": 1381, "Cap": 17160, "orig_duto": "TT Uberaba", "dest_duto": "TT Cuiabá", "munic_orig": "Campo Grande", "munic_dest": "Rondonópolis", "uf_orig": "MG", "uf_dest": "MT", "diam": "Uberaba-Campo Grande: 14; Campo Grande-Rondonópolis: 10; Rondonópolis-Cuiabá: 8", "Produtos": "Claros/GLP"}, "geometry": {"type": "MultiLineString", "coordinates": [[[-54.436324, -20.472059], [-54.437682, -20.471187]], [[-54.437682, -20.471187], [-54.438241, -20.470885]], [[-54.437682, -20.471187], [-54.438255, -20.470819], [-54.449869, -20.42759], [-54.448675, -20.411389], [-54.451001, -20.395061], [-54.463002, -20.370895], [-54.465033, -20.328908], [-54.476446, -20.300664], [-54.477792, -20.255047], [-54.483878, -20.238682], [-54.476385, -20.209086], [-54.442221, -20.153127], [-54.448288, -20.104829], [-54.43459, -20.084033], [-54.427982, -20.068405], [-54.42124, -20.053762], [-54.401264, -19.985083], [-54.384168, -19.956744], [-54.378015, -19.945641], [-54.38916, -19.920808], [-54.383469, -19.895974], [-54.370296, -19.866202], [-54.374416, -19.801804], [-54.408823, -19.726599], [-54.416709, -19.60847], [-54.421875, -19.581731], [-54.431651, -19.565943], [-54.448253, -19.541118], [-54.465067, -19.529979], [-54.504924, -19.496517], [-54.560422, -19.462784], [-54.582494, -19.457254], [-54.609012, -19.448196], [-54.618593, -19.434141], [-54.631815, -19.390186], [-54.634631, -19.377685], [-54.642249, -19.34322], [-54.654678, -19.282511], [-54.656611, -19.179357], [-54.661898, -19.060045], [-54.658685, -18.969602], [-54.665546, -18.894585], [-54.669714, -18.7416], [-54.672526, -18.628987], [-54.670983, -18.508952], [-54.659198, -18.406931], [-54.653001, -18.340828], [-54.650174, -18.280107], [-54.63861, -18.215934], [-54.641592, -18.157965], [-54.660241, -17.947758], [-54.667756, -17.887621], [-54.667241, -17.65949], [-54.651415, -17.506547], [-54.720564, -17.013699], [-54.707363, -16.727965], [-54.703104, -16.683438], [-54.699701, -16.643046], [-54.708135, -16.61273], [-54.694059, -16.538277], [-54.693758, -16.525327], [-54.700812, -16.458189], [-54.702498, -16.45413], [-54.705006, -16.449252], [-54.707687, -16.44591]]]}}
]
}
