{
"type": "FeatureCollection",
"features": [
{"type": "Feature", "properties": {"ProjectID": "P7270", "id": null}, "geometry": {"type": "MultiLineString", "coordinates": [[[-108.484536, 45.783094], [-108.481828, 45.783106], [-108.482538, 45.78166], [-108.484249, 45.777984], [-108.484583, 45.777087], [-108.484629, 45.776616], [-108.484844, 45.775597], [-108.484886, 45.774971], [-108.484885, 45.774373], [-108.484885, 45.774328], [-108.484895, 45.774292], [-108.484889, 45.774081], [-108.484833, 45.774046], [-108.484017, 45.773776], [-108.482531, 45.773037], [-108.481194, 45.772234], [-108.477779, 45.769967], [-108.476355, 45.769416], [-108.469409, 45.766345], [-108.466381, 45.765451], [-108.466088, 45.765364], [-108.465833, 45.765199], [-108.465788, 45.765155]], [[-108.465788, 45.765155], [-108.465722, 45.765122], [-108.464708, 45.764354], [-108.464014, 45.763829], [-108.463578, 45.763471], [-108.462497, 45.762575], [-108.462066, 45.762355], [-108.461569, 45.762002], [-108.460689, 45.761328], [-108.460599, 45.761256], [-108.46026, 45.760922], [-108.460137, 45.760831], [-108.45983, 45.76055], [-108.459519, 45.76031], [-108.458628, 45.759605], [-108.453917, 45.755676], [-108.451614, 45.753862], [-108.450165, 45.752877], [-108.404001, 45.716043], [-108.364725, 45.69354], [-108.346894, 45.681707], [-108.345111, 45.678593], [-108.334953, 45.674471], [-108.312718, 45.66551], [-108.308706, 45.663018], [-108.293104, 45.647854], [-108.276611, 45.638608], [-108.194205, 45.590567], [-108.188276, 45.585527], [-108.180324, 45.581751], [-108.151662, 45.563581], [-108.118754, 45.543145], [-108.114436, 45.540316], [-108.111214, 45.538904], [-108.09481, 45.531341], [-108.081585, 45.523846], [-108.053501, 45.507291], [-108.042951, 45.503802], [-108.035522, 45.501147], [-108.025219, 45.492486], [-108.006175, 45.480209], [-107.973841, 45.458202], [-107.927403, 45.426167], [-107.88617, 45.395582], [-107.881146, 45.391946], [-107.866682, 45.385101], [-107.863231, 45.383283], [-107.85141, 45.375356], [-107.833556, 45.362466], [-107.830973, 45.360635]], [[-107.830973, 45.360635], [-107.772595, 45.328773], [-107.73225, 45.280905], [-107.730588, 45.27957], [-107.708626, 45.258344], [-107.705478, 45.254625], [-107.63212, 45.19688], [-107.479267, 45.072756], [-107.476222, 45.070498], [-107.391444, 45.001116], [-107.37293, 44.983926], [-107.368941, 44.981855], [-107.341756, 44.956346], [-107.187801, 44.847782], [-107.164769, 44.832714], [-107.054487, 44.76886], [-107.037605, 44.755971], [-106.981622, 44.706089], [-106.95191, 44.693357], [-106.949726, 44.692441], [-106.947432, 44.691319], [-106.945798, 44.690626], [-106.942585, 44.688447], [-106.906189, 44.67065], [-106.8998, 44.660716], [-106.884643, 44.631539], [-106.861463, 44.591554], [-106.828476, 44.544341], [-106.550611, 43.709009], [-106.365169, 42.862743], [-106.355994, 42.851606]]]}}
]
}
