{
"type": "FeatureCollection",
"features": [
{"type": "Feature", "properties": {"ProjectID": "P7279"}, "geometry": {"type": "LineString", "coordinates": [[28.72817, 55.494603], [28.638119, 55.503877], [28.531694, 55.513148], [28.449829, 55.531686], [28.392523, 55.545583], [28.351591, 55.554844], [28.294285, 55.554844], [28.253353, 55.559475], [28.171487, 55.587244], [28.130555, 55.605746], [28.097809, 55.62424], [28.04869, 55.638104], [28.032317, 55.638104], [27.983198, 55.638104], [27.942265, 55.651963], [27.876773, 55.675051], [27.844027, 55.688898], [27.794908, 55.711964], [27.778535, 55.716576], [27.704856, 55.721187], [27.639364, 55.725797], [27.492007, 55.735017], [27.475634, 55.744234], [27.410142, 55.753449], [27.377396, 55.758056], [27.336463, 55.771873], [27.221852, 55.771873], [27.197293, 55.771873], [27.115427, 55.785685], [27.041749, 55.808694], [26.99263, 55.813294], [26.96807, 55.813294], [26.927138, 55.813294], [26.910765, 55.813294], [26.853459, 55.813294], [26.771594, 55.808694], [26.697915, 55.817894], [26.61605, 55.83169], [26.525998, 55.84548], [26.45232, 55.850076], [26.386828, 55.859266], [26.329522, 55.896005], [26.190351, 55.896005], [26.124859, 55.900595], [26.067554, 55.909773], [26.018435, 55.918949], [25.944756, 55.937294], [25.920197, 55.960214], [25.895637, 55.97854], [25.821958, 56.006012], [25.764653, 56.028891], [25.674601, 56.038039], [25.617296, 56.060899], [25.576363, 56.115707], [25.502684, 56.147643], [25.420819, 56.179552], [25.273462, 56.188664], [25.216157, 56.206881], [25.093359, 56.215987], [24.929629, 56.220539], [24.839577, 56.229641], [24.708593, 56.261482], [24.536676, 56.288753], [24.430251, 56.302382], [24.372946, 56.320545], [24.299267, 56.343237], [24.233775, 56.356846], [24.110977, 56.388581], [23.914501, 56.470065], [23.824449, 56.515258], [23.767144, 56.537834], [23.685279, 56.569419], [23.595227, 56.59647], [23.521548, 56.641512], [23.496989, 56.664014], [23.472429, 56.67301], [23.415124, 56.699987], [23.349632, 56.731436], [23.28414, 56.753884], [23.218647, 56.762859], [23.169528, 56.803221], [23.120409, 56.821146], [23.046731, 56.86592], [22.964866, 56.892759], [22.850254, 56.901701], [22.727457, 56.932981], [22.637405, 56.946379], [22.53098, 56.991003], [22.457302, 57.022208], [22.318131, 57.044482], [22.260826, 57.053388], [22.195333, 57.071192], [22.146214, 57.097884], [22.105282, 57.111222], [22.047976, 57.151209], [21.982484, 57.191152], [21.916992, 57.231053], [21.884246, 57.275336], [21.859686, 57.310724], [21.753262, 57.341661], [21.712329, 57.363742], [21.655024, 57.403456], [21.564972, 57.403456]]}},
{"type": "Feature", "properties": {"ProjectID": "P7279"}, "geometry": {"type": "LineString", "coordinates": [[28.734901, 55.493213], [28.778058, 55.490024]]}}
]
}
