{
"type": "FeatureCollection",
"features": [
{"type": "Feature", "properties": {"ProjectID": "P7272", "OBJECTID": 245, "id": "4019", "name": "Diamondback Brownsville Expansion Project", "State": "TX", "Product": "Diesel,Gasoline", "PrjType": "Conversion", "Length": 31.41, "Diameter": "6, 8", "Units": "bpd", "Res": "Unknown", "DataSrce": "Texas Railroad Commission T-4 Permit 06356", "SrceLink": "NA", "DigName": "LM", "Method": "Shapefile from Source", "DigDate": 1655164800000, "Notes": null, "GlobalID": "055915ac-7433-497e-8826-918d2ff2df85", "Capacity": 32000.0, "SrceDate": "2022"}, "geometry": {"type": "LineString", "coordinates": [[-97.582208, 25.95925], [-97.577613, 25.959306], [-97.577265, 25.961833], [-97.565399, 25.968328], [-97.563086, 25.967195], [-97.5593, 25.966644], [-97.557873, 25.97519], [-97.557623, 25.976808], [-97.558088, 25.977644], [-97.556513, 25.987312], [-97.555956, 25.987945], [-97.554776, 25.995745], [-97.551113, 25.994679], [-97.549168, 25.992723], [-97.534442, 25.994828], [-97.529666, 25.995225], [-97.529557, 25.995234], [-97.529458, 25.995242], [-97.529311, 25.995363], [-97.529311, 25.995363], [-97.529276, 25.995392], [-97.52916, 25.995488], [-97.528379, 25.996132], [-97.525717, 25.998326], [-97.522686, 25.998286], [-97.519412, 25.999184], [-97.515634, 26.000356], [-97.513711, 26.000723], [-97.510715, 26.000716], [-97.50648, 26.000646], [-97.500441, 26.000548], [-97.499991, 26.00059], [-97.498977, 26.000687], [-97.488559, 26.000813], [-97.483031, 26.000755], [-97.482988, 26.000755], [-97.482909, 26.000754], [-97.482686, 26.000751], [-97.482386, 26.000748], [-97.465404, 26.000569], [-97.461168, 26.00068], [-97.456979, 25.997596], [-97.450901, 25.995119], [-97.448681, 25.993929], [-97.437801, 25.989689], [-97.424718, 25.982698], [-97.424432, 25.982465], [-97.421149, 25.979788], [-97.419604, 25.979828], [-97.416946, 25.979898], [-97.41658, 25.979888], [-97.414916, 25.979842], [-97.412131, 25.979766], [-97.404548, 25.979682], [-97.403169, 25.979278], [-97.398889, 25.97822], [-97.394288, 25.978404], [-97.394287, 25.977086], [-97.394285, 25.971123], [-97.394284, 25.970605], [-97.394284, 25.970542], [-97.394284, 25.970125], [-97.394284, 25.970123], [-97.39428, 25.959692]]}}
]
}
