{
"type": "FeatureCollection",
"features": [
{"type": "Feature", "properties": {"ProjectID": "P7299", "fid": null, "Fuel": null, "StartPrefe": null, "EndState/P": null, "CountriesO": null, "Wiki": null, "PipelineNa": "Alrar-Hassi R'Mel LPG Pipeline", "SegmentNam": null, "Status": null, "Owner": null, "Parent": null, "OwnerEntit": null, "ProposalYe": null, "Constructi": null, "Diameter": null, "DiameterUn": null, "StartYear1": null, "StartYear2": null, "StartYear3": null, "CancelledY": null, "DelayType": null, "StopYear": null, "ShelvedYea": null, "Capacity": null, "CapacityUn": null, "CapacityBO": null, "LengthKnow": null, "LengthKn_1": null, "LengthKn_2": null, "LengthEsti": null, "LengthMerg": null, "Diameter [": null, "FuelSource": null, "FuelSour_1": null, "StartLocat": null, "StartCount": null, "StartSubRe": null, "StartRegio": null, "EndLocatio": null, "EndPrefect": null, "EndCountry": null, "CostUSD": null, "EndRegion": null, "CostEuro": null, "OtherLangu": null, "EndSubRegi": null, "RouteType": null, "RouteAccur": null, "Cost": null, "CostUnits": null, "LastUpdate": null}, "geometry": {"type": "MultiLineString", "coordinates": [[[6.091397, 31.512402], [6.491236, 30.365702], [6.566206, 30.052558], [6.566206, 29.781808], [6.591196, 29.249014], [6.616186, 28.987034], [6.659919, 28.822958], [6.678661, 28.790112], [6.759879, 28.740823], [6.797364, 28.675068], [6.828601, 28.642175], [6.909818, 28.620241], [6.978541, 28.592817], [7.003531, 28.581845], [7.059758, 28.565386], [7.190956, 28.477557], [7.259678, 28.444602], [7.315905, 28.422627], [7.565805, 28.395151], [7.85319, 28.406142], [7.915665, 28.411638], [8.109337, 28.417132], [8.340494, 28.505011], [8.396722, 28.548923], [8.502929, 28.581845], [8.609136, 28.603787], [8.734086, 28.653141], [8.865283, 28.664105], [8.952748, 28.675068], [9.065203, 28.636692], [9.146421, 28.609272], [9.27137, 28.581845], [9.365083, 28.576359], [9.518146, 28.554411]]]}}
]
}
