{
"type": "FeatureCollection",
"features": [
{"type": "Feature", "properties": {"ProjectID": "P7291", "fid": null, "Fuel": "Oil", "StartPrefe": null, "EndState/P": null, "CountriesO": "Algeria", "Wiki": null, "PipelineNa": "Rhaoude El Baguel-Mesdar Oil Pipeline", "SegmentNam": null, "Status": "operating", "Owner": "Sonatrach [100.00%]", "Parent": "Sonatrach SpA [100.00%]", "OwnerEntit": null, "ProposalYe": null, "Constructi": null, "Diameter": null, "DiameterUn": null, "StartYear1": null, "StartYear2": null, "StartYear3": null, "CancelledY": null, "DelayType": null, "StopYear": null, "ShelvedYea": null, "Capacity": null, "CapacityUn": null, "CapacityBO": null, "LengthKnow": null, "LengthKn_1": null, "LengthKn_2": null, "LengthEsti": null, "LengthMerg": null, "Diameter [": null, "FuelSource": null, "FuelSour_1": null, "StartLocat": null, "StartCount": null, "StartSubRe": null, "StartRegio": null, "EndLocatio": null, "EndPrefect": null, "EndCountry": null, "CostUSD": null, "EndRegion": null, "CostEuro": null, "OtherLangu": null, "EndSubRegi": null, "RouteType": null, "RouteAccur": null, "Cost": null, "CostUnits": null, "LastUpdate": null}, "geometry": {"type": "MultiLineString", "coordinates": [[[6.94446, 31.274353], [6.950708, 31.274353], [6.888233, 31.204912], [6.785149, 31.068552]]]}}
]
}
