{
"type": "FeatureCollection",
"features": [
{"type": "Feature", "properties": {"ProjectID": "P7300", "fid": null, "Fuel": null, "StartPrefe": null, "EndState/P": null, "CountriesO": null, "Wiki": null, "PipelineNa": "Ohanet-Gassi Touil LPG Pipeline", "SegmentNam": null, "Status": null, "Owner": null, "Parent": null, "OwnerEntit": null, "ProposalYe": null, "Constructi": null, "Diameter": null, "DiameterUn": null, "StartYear1": null, "StartYear2": null, "StartYear3": null, "CancelledY": null, "DelayType": null, "StopYear": null, "ShelvedYea": null, "Capacity": null, "CapacityUn": null, "CapacityBO": null, "LengthKnow": null, "LengthKn_1": null, "LengthKn_2": null, "LengthEsti": null, "LengthMerg": null, "Diameter [": null, "FuelSource": null, "FuelSour_1": null, "StartLocat": null, "StartCount": null, "StartSubRe": null, "StartRegio": null, "EndLocatio": null, "EndPrefect": null, "EndCountry": null, "CostUSD": null, "EndRegion": null, "CostEuro": null, "OtherLangu": null, "EndSubRegi": null, "RouteType": null, "RouteAccur": null, "Cost": null, "CostUnits": null, "LastUpdate": null}, "geometry": {"type": "MultiLineString", "coordinates": [[[6.525598, 30.26323], [6.59432, 30.090404], [6.59432, 29.965998], [6.575578, 29.879363], [6.606815, 29.760117], [6.600568, 29.608143], [6.61931, 29.292612], [6.631805, 29.074434], [6.656795, 28.948772], [6.700527, 28.81201], [6.787992, 28.740823], [6.84422, 28.658623], [6.975417, 28.609272], [7.069129, 28.576359], [7.200327, 28.499521], [7.325277, 28.439109], [7.512701, 28.411638], [7.681384, 28.417132], [8.031243, 28.433615], [8.093718, 28.439109], [8.331123, 28.52697], [8.374855, 28.570872], [8.524795, 28.609272], [8.674735, 28.653141], [8.805932, 28.680549], [8.91214, 28.696991], [9.018347, 28.675068], [9.174534, 28.614757], [9.268247, 28.603787], [9.368207, 28.598302], [9.449424, 28.592817]]]}}
]
}
