{
"type": "FeatureCollection",
"features": [
{"type": "Feature", "properties": {"ProjectID": "P7325"}, "geometry": {"type": "LineString", "coordinates": [[30.783525, 28.259966], [30.783472, 28.259593], [30.786685, 28.254895], [30.816428, 28.218779], [30.823103, 28.214026], [30.848795, 28.199361], [30.850898, 28.197105], [30.850806, 28.194527], [30.849114, 28.187932], [30.851, 28.159665], [30.850051, 28.156632], [30.842578, 28.140526], [30.847228, 28.129624], [30.847228, 28.110173], [30.855064, 28.108637], [30.865511, 28.10147], [30.910036, 28.056815], [30.927654, 28.016039], [30.986776, 27.971995], [31.000365, 27.950441], [31.012788, 27.931617], [31.035445, 27.915091], [31.035293, 27.907701], [31.03286, 27.902325], [31.02252, 27.890096], [31.019975, 27.779337], [31.023795, 27.769841], [31.040389, 27.689311], [31.047855, 27.66392]]}}
]
}
