{
"type": "FeatureCollection",
"features": [
{"type": "Feature", "properties": {"ProjectID": "P7328"}, "geometry": {"type": "LineString", "coordinates": [[29.756746, 31.017058], [29.75747, 31.016401], [29.753549, 31.013589], [29.749245, 31.012055], [29.739379, 31.008417], [29.728696, 31.003387], [29.716959, 30.997003], [29.721323, 30.991457], [29.726213, 30.983395], [29.728771, 30.981847], [29.727296, 30.979875], [29.710831, 30.972883], [29.69988, 30.968355], [29.693745, 30.96669], [29.688943, 30.964133], [29.682416, 30.962284], [29.671631, 30.959802], [29.665785, 30.958536], [29.662314, 30.9553], [29.66041, 30.953617], [29.649906, 30.949558], [29.638016, 30.944708], [29.63086, 30.940302], [29.621014, 30.934736], [29.604539, 30.926068], [29.572039, 30.909261], [29.5638, 30.903718], [29.553313, 30.896326], [29.547694, 30.895362], [29.540766, 30.894609], [29.528814, 30.894483], [29.521095, 30.891232], [29.500086, 30.881215], [29.479003, 30.871109], [29.463557, 30.864796], [29.449474, 30.859974], [29.429535, 30.853352], [29.421713, 30.850242], [29.416871, 30.845247], [29.403896, 30.837228], [29.395677, 30.8335], [29.388257, 30.830929], [29.381192, 30.829736], [29.370617, 30.830362], [29.366638, 30.830166], [29.362976, 30.829679], [29.354703, 30.826813], [29.323005, 30.815377], [29.315881, 30.811566], [29.306912, 30.806706], [29.300719, 30.803587], [29.286328, 30.799792], [29.274511, 30.798274], [29.263798, 30.797894], [29.2543, 30.794764], [29.244139, 30.791918], [29.228677, 30.789925], [29.19322, 30.7894], [29.172768, 30.789034], [29.158848, 30.789522], [29.130774, 30.786656], [29.105644, 30.783666], [29.082897, 30.781974], [29.07018, 30.785051], [29.065881, 30.787052], [29.053164, 30.795053], [29.008858, 30.80808], [28.978254, 30.817666], [28.962874, 30.822335], [28.931674, 30.832014], [28.912516, 30.837296], [28.899744, 30.84539], [28.885216, 30.85475], [28.837491, 30.88534], [28.815915, 30.902694], [28.816399, 30.91103], [28.829987, 30.931134]]}}
]
}
