{
"type": "FeatureCollection",
"features": [
{"type": "Feature", "properties": {"ProjectID": "P7330"}, "geometry": {"type": "LineString", "coordinates": [[31.815028, 30.101366], [31.814859, 30.100246], [31.792277, 30.102515], [31.737162, 30.107645], [31.708144, 30.112077], [31.702678, 30.114297], [31.695545, 30.123759], [31.693302, 30.127742], [31.688874, 30.141145], [31.685288, 30.154022], [31.686901, 30.16155], [31.685998, 30.167739], [31.680193, 30.172534], [31.666383, 30.178432], [31.644483, 30.177863], [31.611424, 30.177016], [31.583928, 30.173722], [31.573575, 30.172773], [31.557162, 30.172564], [31.523044, 30.168558], [31.491946, 30.164309], [31.462038, 30.156822], [31.427743, 30.148167], [31.405211, 30.141303], [31.354751, 30.125137], [31.299722, 30.143963]]}}
]
}
