{
"type": "FeatureCollection",
"features": [
{"type": "Feature", "properties": {"ProjectID": "P7333"}, "geometry": {"type": "LineString", "coordinates": [[31.68419, 26.567479], [31.681258, 26.565649], [31.675736, 26.561076], [31.65778, 26.543998], [31.630713, 26.529629], [31.618575, 26.526643], [31.612122, 26.523039], [31.603789, 26.517512], [31.584045, 26.50509], [31.565685, 26.505548], [31.544438, 26.510361], [31.532061, 26.508203], [31.520809, 26.50921], [31.516233, 26.508739], [31.514722, 26.505991], [31.502886, 26.506156], [31.500219, 26.50628], [31.49852, 26.508171], [31.495493, 26.508951], [31.492965, 26.508505], [31.491577, 26.509768], [31.491717, 26.512605], [31.491927, 26.514711], [31.490901, 26.515233], [31.4885, 26.514607], [31.48551, 26.515307], [31.48464, 26.515827], [31.48386, 26.515157], [31.482195, 26.515417], [31.481446, 26.515841], [31.480575, 26.517249], [31.479181, 26.518123], [31.477812, 26.518742], [31.476995, 26.520222], [31.475956, 26.522324], [31.475045, 26.523012], [31.474318, 26.522642], [31.47355, 26.522006], [31.471151, 26.523262], [31.469366, 26.523789], [31.465695, 26.521876], [31.465145, 26.520911], [31.463719, 26.522221], [31.461549, 26.522984], [31.461055, 26.523657], [31.458798, 26.524982], [31.457666, 26.525375], [31.45572, 26.52696], [31.454186, 26.527951], [31.45349, 26.528856], [31.452857, 26.529408], [31.452217, 26.529534], [31.451236, 26.529667], [31.450181, 26.529249], [31.449075, 26.529687], [31.448614, 26.530133], [31.448372, 26.531561], [31.447022, 26.531912], [31.445672, 26.531739], [31.445408, 26.531428], [31.440852, 26.530455], [31.438498, 26.531021], [31.436194, 26.53059], [31.434937, 26.530353], [31.432643, 26.530817], [31.430508, 26.529173], [31.429694, 26.529589], [31.427601, 26.530188], [31.427509, 26.529346], [31.426105, 26.529583], [31.424085, 26.529131], [31.4235, 26.528878], [31.422389, 26.52886], [31.420928, 26.528234], [31.419293, 26.527577], [31.403884, 26.522962], [31.398913, 26.523027], [31.39071, 26.52109], [31.383907, 26.519264], [31.37319, 26.516983], [31.356527, 26.51554], [31.347837, 26.509206], [31.345726, 26.513132], [31.336168, 26.52781], [31.333476, 26.532329], [31.326294, 26.559305], [31.321283, 26.576032], [31.320417, 26.590242], [31.309116, 26.605592], [31.28806, 26.632964], [31.281864, 26.63815], [31.278832, 26.643216], [31.275419, 26.659157], [31.275058, 26.676489], [31.272547, 26.68281], [31.267184, 26.685563], [31.238808, 26.693564], [31.230522, 26.695991], [31.225089, 26.699267], [31.219387, 26.716419], [31.204718, 26.734479], [31.186876, 26.769883], [31.179343, 26.79112], [31.16525, 26.816076], [31.139504, 26.85829], [31.135895, 26.948275], [31.134491, 26.97355], [31.098954, 27.014743], [31.027797, 27.088683], [31.02205, 27.094624], [31.013893, 27.106011], [31.008146, 27.108982], [31.012774, 27.118815], [31.01999, 27.127693], [31.024659, 27.132982], [31.031239, 27.136571], [31.030177, 27.139215], [31.018929, 27.14337], [31.015533, 27.149036], [31.014428, 27.164509], [31.008981, 27.166771], [30.99954, 27.174847], [30.98597, 27.186503], [30.995867, 27.197523]]}}
]
}
