{
"type": "FeatureCollection",
"features": [
{"type": "Feature", "properties": {"ProjectID": "P7331"}, "geometry": {"type": "LineString", "coordinates": [[32.097429, 30.061456], [32.101604, 30.065502], [32.129326, 30.06478], [32.164516, 30.065382], [32.180975, 30.068212], [32.194354, 30.07071], [32.203017, 30.075457], [32.208311, 30.080454], [32.212257, 30.084368], [32.215796, 30.085411], [32.239552, 30.089413], [32.250933, 30.091974], [32.273951, 30.094323], [32.29197, 30.09564], [32.315368, 30.094436], [32.326728, 30.089712], [32.335626, 30.086227], [32.350403, 30.080101], [32.365215, 30.075207], [32.376745, 30.073969], [32.38799, 30.069102]]}}
]
}
