{
"type": "FeatureCollection",
"features": [
{"type": "Feature", "properties": {"ProjectID": "P7334"}, "geometry": {"type": "LineString", "coordinates": [[31.293351, 29.7726], [31.297506, 29.772232], [31.299177, 29.768361], [31.299397, 29.763838], [31.300661, 29.7583], [31.300927, 29.755851], [31.301217, 29.754608], [31.300928, 29.753055], [31.295948, 29.739606], [31.292744, 29.73104], [31.290671, 29.720947], [31.288974, 29.716472], [31.288074, 29.711004], [31.287454, 29.704001], [31.289758, 29.698076], [31.29277, 29.695536], [31.300468, 29.685449], [31.304306, 29.66584], [31.304306, 29.660587], [31.306166, 29.653921], [31.305467, 29.646266], [31.29982, 29.625476], [31.297994, 29.620175], [31.295448, 29.615907], [31.295266, 29.611638], [31.293266, 29.607844], [31.292594, 29.602014], [31.283515, 29.581567], [31.279091, 29.565773], [31.283999, 29.560949], [31.28412, 29.556861], [31.285966, 29.550804], [31.286117, 29.546094], [31.285064, 29.537067], [31.281756, 29.529086], [31.276192, 29.520319], [31.273753, 29.511957], [31.267717, 29.499317], [31.26055, 29.489795], [31.258475, 29.483556], [31.252817, 29.470092], [31.24414, 29.455969], [31.244388, 29.43695], [31.242769, 29.41044], [31.244388, 29.392951], [31.248921, 29.363608], [31.247851, 29.349018], [31.243548, 29.335116], [31.228106, 29.310174], [31.221, 29.303192], [31.219772, 29.300873], [31.225908, 29.299625], [31.229949, 29.285035], [31.229151, 29.269372], [31.234338, 29.249877], [31.23179, 29.233976], [31.213279, 29.203325], [31.212642, 29.199984], [31.214979, 29.195719], [31.212217, 29.190526], [31.202233, 29.181067], [31.192663, 29.176727], [31.189392, 29.17038], [31.180941, 29.161119], [31.179356, 29.156665], [31.178861, 29.152477], [31.174263, 29.145136], [31.174726, 29.138091], [31.174692, 29.129158], [31.17441, 29.126934], [31.167386, 29.11479], [31.162078, 29.10706], [31.16564, 29.104313], [31.155834, 29.092111], [31.152454, 29.08764], [31.149491, 29.089565], [31.164115, 29.075724], [31.164456, 29.072835], [31.159069, 29.057461], [31.155109, 29.046826], [31.119768, 29.025446], [31.098686, 29.014129], [31.087221, 29.00782], [31.073366, 28.999215], [31.070405, 28.995815], [31.052947, 28.972838], [31.039913, 28.965216], [31.037153, 28.961442], [31.041638, 28.944533], [31.040086, 28.934417], [31.038163, 28.932674], [31.022141, 28.927377], [31.012844, 28.919733], [31.009182, 28.909622], [31.010449, 28.90395], [31.012703, 28.894454], [31.009234, 28.889175], [31.001449, 28.875086], [30.98791, 28.854054], [30.978592, 28.840888], [30.978147, 28.835283], [30.97743, 28.827546], [30.976239, 28.822628], [30.979004, 28.816741], [30.980458, 28.813875], [30.980583, 28.811025], [30.978915, 28.80887], [30.973662, 28.80529], [30.963032, 28.797538], [30.95843, 28.794354], [30.957098, 28.792621], [30.955685, 28.789472], [30.947136, 28.770683], [30.94176, 28.758608], [30.939902, 28.756654], [30.934808, 28.752234], [30.933493, 28.747874], [30.929519, 28.740634], [30.923257, 28.729196], [30.918223, 28.719668], [30.917693, 28.715574], [30.917413, 28.708338], [30.923976, 28.673714], [30.930713, 28.639855], [30.934144, 28.628543], [30.934024, 28.62722], [30.928666, 28.610696], [30.927893, 28.609619], [30.910836, 28.595341], [30.898807, 28.58555], [30.884803, 28.575211], [30.883547, 28.573618], [30.88285, 28.571862], [30.882687, 28.570759], [30.884085, 28.53757], [30.884606, 28.526443], [30.884516, 28.524966], [30.883895, 28.523413], [30.879134, 28.513651], [30.873969, 28.503203], [30.872703, 28.500623], [30.87256, 28.499264], [30.872774, 28.49801], [30.873322, 28.496861], [30.883255, 28.485289], [30.884516, 28.483036], [30.884681, 28.481745], [30.884503, 28.480152], [30.88211, 28.474768], [30.87866, 28.467156], [30.869649, 28.449365], [30.856764, 28.423109], [30.843455, 28.397032], [30.836041, 28.382846], [30.834261, 28.381032], [30.811468, 28.363449], [30.807754, 28.360492], [30.804698, 28.355793], [30.802963, 28.35209], [30.80009, 28.344935], [30.79947, 28.342703], [30.799416, 28.340066], [30.800769, 28.329079], [30.800634, 28.325702], [30.797343, 28.311379], [30.793539, 28.296258], [30.790627, 28.284276], [30.788659, 28.278646], [30.78673, 28.272917], [30.784904, 28.267577], [30.783192, 28.26114], [30.783472, 28.259415], [30.786942, 28.254375], [30.795112, 28.244325], [30.8111, 28.224474], [30.816648, 28.218671], [30.821576, 28.214772], [30.849056, 28.199208], [30.850831, 28.197163], [30.850694, 28.194035], [30.849126, 28.187456], [30.85101, 28.159561], [30.849629, 28.155354], [30.842722, 28.140407], [30.843294, 28.13781], [30.846704, 28.131621], [30.847706, 28.128614], [30.84747, 28.109792], [30.856119, 28.107836], [30.862106, 28.104315], [30.866542, 28.100598], [30.87009, 28.097077], [30.87009, 28.097077], [30.90201, 28.064926], [30.911601, 28.05444], [30.927858, 28.016174], [30.987167, 27.971518], [31.012932, 27.931587], [31.035372, 27.914836], [31.035372, 27.907656], [31.033051, 27.902527], [31.022605, 27.889876], [31.02208, 27.879462], [31.020229, 27.779026], [31.023827, 27.769821], [31.040196, 27.690369], [31.047967, 27.663746], [31.050201, 27.625146], [31.052405, 27.615752], [31.059728, 27.608687], [31.085593, 27.571593], [31.085754, 27.557368], [31.091088, 27.5401], [31.086981, 27.514046], [31.093615, 27.49331], [31.143854, 27.428784], [31.169251, 27.387109], [31.17002, 27.361822], [31.183873, 27.326275], [31.216729, 27.3187], [31.218635, 27.317336], [31.228827, 27.302104], [31.232789, 27.293509], [31.244071, 27.277763], [31.267703, 27.262078], [31.276924, 27.260574], [31.262352, 27.235689], [31.245584, 27.223414], [31.223791, 27.199662], [31.220664, 27.189223], [31.209471, 27.193058], [31.19782, 27.202605], [31.1936, 27.209051], [31.183592, 27.203604], [31.183227, 27.196192], [31.151475, 27.186383], [31.137983, 27.183885], [31.117414, 27.192623], [31.114292, 27.191298], [31.110852, 27.188368], [31.102362, 27.188759], [31.094019, 27.186155], [31.083333, 27.186546], [31.07007, 27.18565], [31.065872, 27.184108], [31.047348, 27.185488], [31.02524, 27.194945], [31.012311, 27.204185], [30.998689, 27.200079]]}}
]
}
