{
"type": "FeatureCollection",
"features": [
{"type": "Feature", "properties": {"ProjectID": "P7340"}, "geometry": {"type": "LineString", "coordinates": [[30.964124, 30.792224], [30.971928, 30.789839], [30.972492, 30.789459], [30.972705, 30.788639], [30.972966, 30.785474], [30.973291, 30.784409], [30.973438, 30.783921], [30.974151, 30.78123], [30.974986, 30.777603], [30.976825, 30.775257], [30.979344, 30.772836], [30.980652, 30.771441], [30.981388, 30.769588], [30.982335, 30.768164], [30.984018, 30.76656], [30.988466, 30.764739], [30.991692, 30.763723], [30.993762, 30.763168], [30.996102, 30.763076], [31.00137, 30.762243], [31.006518, 30.762151], [31.008624, 30.761874], [31.010022, 30.761043], [31.010839, 30.759565], [31.012846, 30.756002], [31.014887, 30.75242], [31.018376, 30.746603], [31.020022, 30.743736], [31.023211, 30.737935], [31.027777, 30.72945], [31.031111, 30.723123], [31.035295, 30.715359], [31.048682, 30.690592], [31.060616, 30.667936], [31.065714, 30.658483], [31.067371, 30.655314], [31.075161, 30.64093], [31.077577, 30.638216], [31.08209, 30.63539], [31.085344, 30.633636], [31.089284, 30.630344], [31.095414, 30.626511], [31.101345, 30.622078], [31.102958, 30.61938], [31.118905, 30.588565], [31.128829, 30.569256], [31.137955, 30.551604], [31.15392, 30.520515], [31.167111, 30.495356], [31.171051, 30.488477], [31.17526, 30.486089], [31.184234, 30.481007], [31.190845, 30.479127], [31.196503, 30.477541], [31.200524, 30.475015], [31.204137, 30.472196], [31.204341, 30.469141], [31.199715, 30.462807], [31.198163, 30.458377], [31.199715, 30.457206], [31.208346, 30.455451], [31.207861, 30.453695], [31.205942, 30.447408], [31.204374, 30.445201], [31.201762, 30.442723], [31.20056, 30.440065], [31.1999, 30.432291], [31.200411, 30.429203], [31.202074, 30.42391], [31.203279, 30.421259], [31.207426, 30.417887], [31.210388, 30.413596], [31.21516, 30.407043], [31.218499, 30.400301], [31.219588, 30.394959], [31.220494, 30.392979], [31.225267, 30.384538], [31.226737, 30.382105], [31.229042, 30.378827], [31.230288, 30.375495], [31.233266, 30.366895], [31.234499, 30.361066], [31.235146, 30.358126], [31.236027, 30.356453], [31.237322, 30.354597], [31.238509, 30.35151], [31.238627, 30.348712], [31.238391, 30.347338], [31.23733, 30.344388], [31.236151, 30.342861], [31.236269, 30.341386], [31.230156, 30.327868], [31.220351, 30.30618], [31.219144, 30.30263], [31.214822, 30.276416], [31.215298, 30.270663], [31.217201, 30.264772], [31.220983, 30.257274], [31.223232, 30.251444], [31.22342, 30.245937], [31.222857, 30.235247], [31.22342, 30.228282], [31.225107, 30.221317], [31.225857, 30.215485], [31.228857, 30.210624], [31.230544, 30.206736], [31.232794, 30.204791], [31.237856, 30.197986], [31.238173, 30.195533], [31.23915, 30.190308], [31.240268, 30.187005], [31.243064, 30.181286], [31.244275, 30.179513], [31.246698, 30.177902], [31.251638, 30.175082], [31.254861, 30.173032], [31.256607, 30.170728], [31.257893, 30.167551], [31.257434, 30.16493], [31.254402, 30.158735], [31.253851, 30.156113], [31.253851, 30.151188], [31.25394, 30.148086], [31.254753, 30.147499], [31.258685, 30.145682], [31.261261, 30.143396], [31.262888, 30.14152], [31.263634, 30.140582], [31.264057, 30.139446], [31.264164, 30.137551], [31.265606, 30.136489], [31.295711, 30.128788], [31.30175, 30.134446], [31.303512, 30.142172], [31.299737, 30.143913]]}}
]
}
