{
"type": "FeatureCollection",
"features": [
{"type": "Feature", "id": 0, "properties": {"ProjectID": "P7363"}, "geometry": {"type": "LineString", "coordinates": [[33.101917, 28.347184], [33.089095, 28.310658], [33.051573, 28.349839], [33.022587, 28.339237], [33.004059, 28.335385], [32.989774, 28.339898], [32.987104, 28.34091], [32.959781, 28.333561], [32.912279, 28.321096], [32.866379, 28.307845], [32.807699, 28.299351], [32.748105, 28.293615], [32.734093, 28.292933], [32.712656, 28.279149], [32.693392, 28.249648], [32.676313, 28.223506], [32.665291, 28.215272], [32.632974, 28.199304], [32.622351, 28.185454], [32.619192, 28.183267], [32.612761, 28.181071], [32.604106, 28.180744], [32.585994, 28.173175], [32.562063, 28.16361], [32.557884, 28.16303], [32.553984, 28.163811], [32.531699, 28.160618], [32.52955, 28.159398], [32.526528, 28.155834], [32.516657, 28.143766], [32.511702, 28.143038], [32.503763, 28.144214], [32.470225, 28.155062], [32.407454, 28.179063], [32.401106, 28.18157], [32.37882, 28.199968], [32.364673, 28.211677], [32.357525, 28.216363], [32.353445, 28.216435], [32.347922, 28.222645], [32.334102, 28.23854], [32.308313, 28.257656], [32.285595, 28.270046], [32.271087, 28.276383], [32.264131, 28.280009], [32.241438, 28.298349], [32.227505, 28.305739], [32.211382, 28.31266], [32.200078, 28.316457], [32.175337, 28.321584], [32.164924, 28.323483], [32.154701, 28.319966], [32.150749, 28.318105], [32.136295, 28.313846], [32.132691, 28.312856], [32.124915, 28.312593], [32.11448, 28.317186], [32.109924, 28.31704], [32.096174, 28.309448], [32.087807, 28.305771], [32.077191, 28.300033], [32.056281, 28.296962], [32.050774, 28.296525], [32.041424, 28.296295], [32.029529, 28.29427], [32.004796, 28.288734], [31.986588, 28.283135], [31.97274, 28.278672], [31.966168, 28.280014], [31.949329, 28.284394], [31.944918, 28.284322], [31.922928, 28.280996], [31.89813, 28.27606], [31.880817, 28.269828], [31.854694, 28.259335], [31.825843, 28.249219], [31.812769, 28.243079], [31.775776, 28.183054], [31.649097, 27.977012], [31.483115, 27.705741], [31.480377, 27.68967], [31.483216, 27.678177], [31.477639, 27.674496], [31.470303, 27.66694], [31.467373, 27.664452], [31.460664, 27.663792], [31.451066, 27.660903], [31.442078, 27.650477], [31.437839, 27.640735], [31.442452, 27.627614], [31.442307, 27.624151], [31.437313, 27.621522], [31.433753, 27.613123], [31.433753, 27.610447], [31.437043, 27.603232], [31.436237, 27.600168], [31.434706, 27.596605], [31.435184, 27.591176], [31.434327, 27.583881], [31.432631, 27.578596], [31.434476, 27.574854], [31.441254, 27.571139], [31.447107, 27.558485], [31.447469, 27.546755], [31.451184, 27.539523], [31.469671, 27.52474], [31.488701, 27.516795], [31.495512, 27.507413], [31.497867, 27.497093], [31.520633, 27.471731], [31.527003, 27.463392], [31.529403, 27.455286], [31.529324, 27.445353], [31.491339, 27.385969], [31.463284, 27.351483], [31.440596, 27.328415], [31.412599, 27.310636], [31.377361, 27.285527], [31.37143, 27.283003], [31.342437, 27.275058], [31.336709, 27.274235], [31.315906, 27.266973], [31.295944, 27.262331], [31.277941, 27.25998], [31.266894, 27.241438], [31.262633, 27.234334], [31.248708, 27.22512], [31.226479, 27.201054], [31.222105, 27.188784], [31.213341, 27.191501], [31.198381, 27.202455], [31.194067, 27.208953], [31.184883, 27.204188], [31.183227, 27.196192], [31.137983, 27.183885], [31.117414, 27.192623], [31.111418, 27.188203], [31.102998, 27.188864], [31.094383, 27.185862], [31.067201, 27.184307], [31.048071, 27.18559], [31.026767, 27.194236], [31.005387, 27.202671]]}}
]
}
