{
"type": "FeatureCollection",
"features": [
{"type": "Feature", "id": 85, "properties": {"ProjectID": "P7394", "OBJECTID": 85, "Pipe_Seg": "LAKE BARRE - HOUMA", "Pipel_Name": "CAILLOU ISLAND ONSHORE CRUDE", "Diameter": "16\"", "Capicity": "125", "Approval_C": "Crude", "Origin": "Lake Barre", "Destination": "Houma\r\n", "Contact_BD": "Elizabeth Killary", "number_": "832-337-6327", "email": "Elizabeth.Killary@shell.com", "Contact_Oi": "Tim Geiger", "OilNumber": "832-762-2665", "Oilemail": "timothy.geiger@shell.com", "AssetSummary": "Zydeco: Provides a critical outlet to alleviate current transportation bottlenecks of crude oil arriving in Houston, TX from the Eagle Ford shale, Permian Basin and Bakken shale. Connects to several crude oil pipeline in Houston and Port Neches/Nederland areas. Spans over 350 miles and has a mainline capacity of 375 kbpd.", "Shape__Length": null, "Shape_Length": 63872.56705819823, "Tariff_Link": "https://www.shell.us/business-customers/shell-pipeline/shell-pipeline-customers/welcome-to-shell-pipeline-tariffs.html"}, "geometry": {"type": "LineString", "coordinates": [[-90.689097, 29.621325], [-90.689166, 29.621217], [-90.689178, 29.621191], [-90.689185, 29.621171], [-90.689189, 29.621132], [-90.689181, 29.621068], [-90.688702, 29.619938], [-90.688514, 29.619526], [-90.688493, 29.619484], [-90.688473, 29.619462], [-90.688407, 29.619414], [-90.685143, 29.617126], [-90.684301, 29.616536], [-90.683253, 29.615803], [-90.682682, 29.615406], [-90.682434, 29.615233], [-90.682394, 29.615207], [-90.682367, 29.615192], [-90.68234, 29.615175], [-90.682305, 29.615149], [-90.682278, 29.61513], [-90.682222, 29.615085], [-90.682036, 29.614944], [-90.681883, 29.61483], [-90.681814, 29.614778], [-90.681764, 29.61474], [-90.681679, 29.614682], [-90.681575, 29.614623], [-90.681514, 29.614586], [-90.680833, 29.614124], [-90.680632, 29.613984], [-90.679973, 29.613526], [-90.679874, 29.613453], [-90.679794, 29.613409], [-90.679148, 29.613097], [-90.677914, 29.612495], [-90.677607, 29.612346], [-90.676629, 29.611874], [-90.676248, 29.611687], [-90.675819, 29.611477], [-90.674765, 29.610967], [-90.673391, 29.610295], [-90.673283, 29.610238], [-90.673164, 29.610166], [-90.668579, 29.606987], [-90.667522, 29.606259], [-90.667193, 29.606073], [-90.666772, 29.60585], [-90.665763, 29.60531], [-90.664352, 29.604554], [-90.663545, 29.604123], [-90.662317, 29.603466], [-90.661113, 29.602821], [-90.660437, 29.60246], [-90.659283, 29.601842], [-90.656431, 29.600316], [-90.655779, 29.599967], [-90.655238, 29.599683], [-90.654574, 29.59932], [-90.654297, 29.59915], [-90.650665, 29.596593], [-90.650485, 29.596476], [-90.650453, 29.596458], [-90.648944, 29.59577], [-90.642273, 29.592706], [-90.636518, 29.589607], [-90.624183, 29.582975], [-90.623063, 29.582374], [-90.6187, 29.58003], [-90.618397, 29.579904], [-90.617366, 29.579513], [-90.617317, 29.579494], [-90.616705, 29.579273], [-90.615459, 29.578831], [-90.612501, 29.57778], [-90.611372, 29.57737], [-90.610353, 29.577], [-90.610198, 29.576938], [-90.610162, 29.57692], [-90.610141, 29.576905], [-90.610123, 29.576885], [-90.610094, 29.576827], [-90.609811, 29.575936], [-90.609621, 29.575361], [-90.609249, 29.574651], [-90.609199, 29.574582], [-90.609031, 29.574403], [-90.608862, 29.57422], [-90.60587, 29.572458], [-90.604391, 29.571584], [-90.602329, 29.570365], [-90.600531, 29.569303], [-90.599698, 29.56881], [-90.598445, 29.568069], [-90.598425, 29.568054], [-90.598378, 29.568011], [-90.598273, 29.567895], [-90.598, 29.56756], [-90.597959, 29.567518], [-90.597389, 29.567011], [-90.597168, 29.566975], [-90.59715, 29.566961], [-90.597095, 29.566916], [-90.596936, 29.566778], [-90.596162, 29.566106], [-90.595499, 29.565491], [-90.594751, 29.564804], [-90.593791, 29.563908], [-90.590979, 29.561278], [-90.588084, 29.55857], [-90.587343, 29.557869], [-90.585265, 29.556749], [-90.584148, 29.556135], [-90.583269, 29.555652], [-90.58246, 29.555207], [-90.581726, 29.554786], [-90.581188, 29.554478], [-90.5808, 29.553757], [-90.580324, 29.552873], [-90.579473, 29.551292], [-90.578985, 29.550373], [-90.578421, 29.549313], [-90.578119, 29.548753], [-90.577926, 29.548402], [-90.57763, 29.547868], [-90.577451, 29.547519], [-90.577212, 29.54706], [-90.577076, 29.546799], [-90.577059, 29.546777], [-90.577026, 29.546743], [-90.577008, 29.546728], [-90.576952, 29.54669], [-90.572565, 29.544095], [-90.572505, 29.544063], [-90.572466, 29.544027], [-90.572445, 29.544001], [-90.572424, 29.543973], [-90.572414, 29.543953], [-90.572388, 29.543823], [-90.572385, 29.543782], [-90.572376, 29.543617], [-90.572367, 29.543352], [-90.572353, 29.543215], [-90.572342, 29.543162], [-90.572328, 29.543121], [-90.572308, 29.543084], [-90.572284, 29.54305], [-90.572257, 29.54303], [-90.572223, 29.543013], [-90.57211, 29.542954], [-90.57019, 29.541972], [-90.569121, 29.541422], [-90.568321, 29.541016], [-90.566357, 29.540003], [-90.566252, 29.539949], [-90.564626, 29.539114], [-90.563536, 29.538558], [-90.563487, 29.538529], [-90.563394, 29.538466], [-90.563376, 29.538453], [-90.563349, 29.538428], [-90.563235, 29.53832], [-90.562318, 29.53745], [-90.561433, 29.536611], [-90.560424, 29.535652], [-90.558943, 29.53426], [-90.558701, 29.534046], [-90.558444, 29.53382], [-90.557454, 29.53295], [-90.555688, 29.531399], [-90.555194, 29.530964], [-90.554721, 29.530546], [-90.553835, 29.529763], [-90.552904, 29.528942], [-90.551189, 29.527431], [-90.550338, 29.526682], [-90.549461, 29.525909], [-90.548936, 29.525447], [-90.548535, 29.525093], [-90.547634, 29.5243], [-90.546762, 29.523528], [-90.54591, 29.522775], [-90.545168, 29.522118], [-90.545137, 29.522084], [-90.544716, 29.521475], [-90.54411, 29.520598], [-90.543482, 29.519689], [-90.542921, 29.518873], [-90.542288, 29.517955], [-90.541697, 29.517099], [-90.541234, 29.516426], [-90.54122, 29.516401], [-90.540963, 29.515744], [-90.540691, 29.515049], [-90.539568, 29.512141], [-90.539406, 29.511712], [-90.539351, 29.511568], [-90.539339, 29.511532], [-90.539337, 29.511505], [-90.539352, 29.511413], [-90.539441, 29.510851], [-90.539582, 29.509959], [-90.539646, 29.509558], [-90.539784, 29.508686], [-90.5399, 29.507959], [-90.539918, 29.50781], [-90.53992, 29.507785], [-90.539917, 29.507754], [-90.539909, 29.507727], [-90.539896, 29.507703], [-90.539853, 29.507642], [-90.539619, 29.507261], [-90.539256, 29.506661], [-90.538711, 29.506196], [-90.538603, 29.505934], [-90.538352, 29.505331], [-90.538288, 29.505185], [-90.538241, 29.505086], [-90.537726, 29.503993], [-90.537655, 29.503831], [-90.537634, 29.503794], [-90.537608, 29.503756], [-90.536235, 29.50179], [-90.53562, 29.500906], [-90.534983, 29.499989], [-90.534568, 29.499395], [-90.534329, 29.499053], [-90.534085, 29.498707], [-90.533739, 29.498215], [-90.533467, 29.49783], [-90.533172, 29.497399], [-90.531654, 29.495237], [-90.531049, 29.494371], [-90.5304, 29.493441], [-90.529886, 29.492704], [-90.529596, 29.492291], [-90.528986, 29.491429], [-90.528191, 29.490303], [-90.526792, 29.488321], [-90.526329, 29.487662], [-90.525712, 29.486785], [-90.525089, 29.485897], [-90.524505, 29.485063], [-90.523925, 29.484231], [-90.523591, 29.483754], [-90.52339, 29.483467], [-90.523272, 29.483298], [-90.523138, 29.483106], [-90.522543, 29.482253], [-90.521914, 29.481354], [-90.521287, 29.480459], [-90.521039, 29.480104], [-90.520967, 29.48], [-90.520864, 29.479856], [-90.518862, 29.476996], [-90.515344, 29.471974], [-90.514835, 29.471247], [-90.513959, 29.469997], [-90.513599, 29.46948], [-90.51303, 29.468664], [-90.512159, 29.467419], [-90.510015, 29.464359], [-90.509903, 29.464198], [-90.50954, 29.463686], [-90.50935, 29.463415], [-90.50931, 29.463357], [-90.509028, 29.462951], [-90.508512, 29.462205], [-90.507433, 29.460663], [-90.507172, 29.46029], [-90.506578, 29.459446], [-90.506333, 29.459097], [-90.506001, 29.458641], [-90.505398, 29.457811], [-90.504996, 29.457256], [-90.504679, 29.456816], [-90.504453, 29.456496], [-90.503906, 29.455719], [-90.503685, 29.455405], [-90.50344, 29.455054], [-90.503059, 29.454508], [-90.502965, 29.454372], [-90.50231, 29.453431], [-90.501292, 29.451971], [-90.500175, 29.450364], [-90.498567, 29.448056], [-90.497781, 29.446932], [-90.491373, 29.437725], [-90.490256, 29.436127], [-90.488967, 29.434276], [-90.488319, 29.433355], [-90.483226, 29.426046], [-90.48052, 29.422156], [-90.479886, 29.421239], [-90.479663, 29.420918], [-90.479398, 29.420539], [-90.478802, 29.419689], [-90.4785, 29.419255], [-90.47813, 29.418723], [-90.477904, 29.418398], [-90.477315, 29.41755], [-90.476952, 29.41704], [-90.476808, 29.41684], [-90.476496, 29.416437], [-90.476464, 29.416391], [-90.476312, 29.416144], [-90.475989, 29.415664], [-90.475869, 29.415488], [-90.475792, 29.41538], [-90.471234, 29.408865], [-90.470974, 29.40849], [-90.469443, 29.406291], [-90.468893, 29.405507], [-90.468509, 29.404941], [-90.468391, 29.404775], [-90.468236, 29.404556], [-90.468032, 29.404259], [-90.467897, 29.404056], [-90.467803, 29.403927], [-90.467741, 29.40385], [-90.467689, 29.403786], [-90.467624, 29.403711], [-90.466924, 29.402984], [-90.466031, 29.40208], [-90.465231, 29.40126], [-90.463305, 29.399289], [-90.460817, 29.396739], [-90.459911, 29.395812], [-90.458774, 29.394647], [-90.457159, 29.392991], [-90.456574, 29.392402], [-90.456125, 29.391943], [-90.455939, 29.391747], [-90.455422, 29.391217], [-90.443182, 29.378681], [-90.443021, 29.378517], [-90.442429, 29.377912], [-90.44242, 29.377899], [-90.442411, 29.377884], [-90.442402, 29.377868], [-90.442394, 29.377846], [-90.442392, 29.377826], [-90.442391, 29.377792], [-90.442385, 29.377665], [-90.442369, 29.377389], [-90.442362, 29.377144], [-90.442348, 29.376444], [-90.442332, 29.375892], [-90.44231, 29.3751], [-90.442252, 29.372928], [-90.442161, 29.369695], [-90.442093, 29.367265], [-90.44191, 29.360678], [-90.441903, 29.360398], [-90.441857, 29.35886], [-90.441774, 29.355942], [-90.44176, 29.355434], [-90.441749, 29.354963], [-90.441738, 29.354581], [-90.441696, 29.353059], [-90.441643, 29.351034], [-90.441608, 29.349869], [-90.441602, 29.349641], [-90.441597, 29.349424], [-90.441595, 29.349266], [-90.441595, 29.348971], [-90.4416, 29.348855], [-90.44162, 29.348619], [-90.441706, 29.348023], [-90.441871, 29.347125], [-90.441919, 29.3469], [-90.441938, 29.346816], [-90.441939, 29.346793], [-90.441941, 29.346693], [-90.441945, 29.346481], [-90.441947, 29.346429], [-90.442168, 29.344956], [-90.442458, 29.34323], [-90.44318, 29.338354], [-90.443718, 29.335032], [-90.443733, 29.334616], [-90.443737, 29.334579], [-90.443823, 29.334263], [-90.443851, 29.334144], [-90.443957, 29.333503], [-90.443989, 29.333261], [-90.444072, 29.332569], [-90.444556, 29.329713], [-90.4447, 29.328807], [-90.444801, 29.328188], [-90.444811, 29.328122], [-90.444942, 29.327229], [-90.445018, 29.326709], [-90.445113, 29.326052], [-90.44513, 29.325947], [-90.445227, 29.325382], [-90.445348, 29.324571], [-90.445446, 29.323883], [-90.445515, 29.323444], [-90.445656, 29.322555], [-90.445945, 29.320723], [-90.446111, 29.319684], [-90.446255, 29.318685], [-90.446389, 29.317913], [-90.446482, 29.317377], [-90.446649, 29.316567], [-90.446657, 29.316514], [-90.446685, 29.316292], [-90.446756, 29.315711], [-90.446772, 29.315605], [-90.446969, 29.314481], [-90.44713, 29.313669], [-90.447189, 29.313348], [-90.447268, 29.312778], [-90.447309, 29.312461], [-90.447322, 29.312378], [-90.447513, 29.311419], [-90.447538, 29.311286], [-90.447643, 29.310692], [-90.448545, 29.305518], [-90.448736, 29.304445], [-90.449649, 29.299158], [-90.449704, 29.298831], [-90.449741, 29.298606], [-90.449777, 29.298392], [-90.449836, 29.298034], [-90.449858, 29.297912], [-90.449883, 29.297784], [-90.449937, 29.297511], [-90.449949, 29.297447], [-90.450043, 29.29691], [-90.450204, 29.295991], [-90.450352, 29.29515], [-90.450548, 29.294012], [-90.450596, 29.293741], [-90.450624, 29.293573], [-90.450768, 29.292691], [-90.450888, 29.291988], [-90.451091, 29.290789], [-90.451307, 29.289582], [-90.451429, 29.288895], [-90.451487, 29.288568], [-90.451538, 29.288273], [-90.451631, 29.28772], [-90.451766, 29.286966], [-90.452109, 29.284898], [-90.452116, 29.284849], [-90.452162, 29.284534], [-90.452188, 29.284363], [-90.452285, 29.283857], [-90.452566, 29.282255], [-90.45301, 29.279582], [-90.454139, 29.272955], [-90.4542, 29.272596], [-90.454232, 29.272428], [-90.454378, 29.271657], [-90.454404, 29.271504], [-90.454516, 29.270856], [-90.454548, 29.27066], [-90.454575, 29.270463], [-90.454648, 29.269952], [-90.454659, 29.269885], [-90.45467, 29.269824], [-90.454682, 29.269764], [-90.454698, 29.269677], [-90.45484, 29.268927], [-90.455083, 29.267651], [-90.455094, 29.267579], [-90.455103, 29.267525], [-90.455112, 29.267466], [-90.45512, 29.267413], [-90.455136, 29.267276], [-90.45524, 29.266592], [-90.455271, 29.266393], [-90.455364, 29.265906], [-90.455485, 29.265157], [-90.455811, 29.263287], [-90.455841, 29.263122], [-90.455932, 29.262636], [-90.45597, 29.262445], [-90.456006, 29.262225], [-90.456041, 29.261977], [-90.456069, 29.261789], [-90.456116, 29.261485], [-90.45614, 29.261343], [-90.4563, 29.260377], [-90.456334, 29.260177], [-90.456378, 29.259924], [-90.456432, 29.259614], [-90.456576, 29.25874], [-90.456746, 29.257819], [-90.456915, 29.256777], [-90.457053, 29.256002], [-90.457137, 29.255504], [-90.457157, 29.255387], [-90.45726, 29.254747], [-90.457274, 29.254664], [-90.457424, 29.253813], [-90.457483, 29.253465], [-90.458224, 29.249061], [-90.45837, 29.248132], [-90.458531, 29.247214], [-90.458547, 29.247135], [-90.458589, 29.24693], [-90.458639, 29.246685], [-90.458715, 29.246297], [-90.458724, 29.246244], [-90.458777, 29.245829], [-90.458801, 29.245684], [-90.458813, 29.245632], [-90.458856, 29.245474], [-90.458893, 29.245313], [-90.458928, 29.244967], [-90.458971, 29.244689], [-90.459029, 29.244342], [-90.459056, 29.244183], [-90.459157, 29.243626], [-90.459287, 29.242869], [-90.459459, 29.241822], [-90.459606, 29.241002], [-90.459617, 29.240938], [-90.4597, 29.240363], [-90.460004, 29.238683], [-90.460196, 29.237348], [-90.460381, 29.236694], [-90.46042, 29.236236], [-90.460519, 29.235613], [-90.46055, 29.235442], [-90.460575, 29.235304], [-90.460602, 29.235141], [-90.460682, 29.23466], [-90.460746, 29.234272], [-90.460827, 29.233798], [-90.46084, 29.233721], [-90.460987, 29.232875], [-90.461083, 29.232346], [-90.461103, 29.232223], [-90.461214, 29.231574], [-90.461344, 29.230814], [-90.461499, 29.229894], [-90.461611, 29.229206], [-90.461824, 29.228029], [-90.461871, 29.227754], [-90.461897, 29.227604], [-90.461991, 29.227086], [-90.462069, 29.226601], [-90.46212, 29.226295], [-90.462262, 29.22555], [-90.462313, 29.225224], [-90.46234, 29.225038], [-90.462345, 29.225009], [-90.46243, 29.224524], [-90.462462, 29.224344], [-90.462572, 29.22382], [-90.462584, 29.223758], [-90.462737, 29.223193], [-90.462983, 29.222416], [-90.463832, 29.219691], [-90.46385, 29.21963], [-90.464032, 29.219027], [-90.464084, 29.218799], [-90.464142, 29.218471], [-90.464324, 29.218082], [-90.46473, 29.216818], [-90.46477, 29.216671], [-90.464952, 29.216018], [-90.465026, 29.215787], [-90.465035, 29.215764], [-90.46506, 29.215705], [-90.465079, 29.215666], [-90.465159, 29.215516], [-90.465706, 29.214616], [-90.465724, 29.214576], [-90.46567, 29.214364], [-90.465741, 29.214241]]}},
{"type": "Feature", "id": 79, "properties": {"ProjectID": "P7394", "OBJECTID": 79, "Pipe_Seg": "STATION 5 TO LAKE BARRE", "Pipel_Name": "CAILLOU ISLAND ONSHORE CRUDE", "Diameter": "16\"", "Capicity": "125", "Approval_C": "Eugene Island", "Origin": "Station 5", "Destination": "Lake Barre", "Contact_BD": "Elizabeth Killary", "number_": "832-337-6327", "email": "Elizabeth.Killary@shell.com", "Contact_Oi": "Tim Geiger", "OilNumber": "832-762-2665", "Oilemail": "timothy.geiger@shell.com", "AssetSummary": "Zydeco: Provides a critical outlet to alleviate current transportation bottlenecks of crude oil arriving in Houston, TX from the Eagle Ford shale, Permian Basin and Bakken shale. Connects to several crude oil pipeline in Houston and Port Neches/Nederland areas. Spans over 350 miles and has a mainline capacity of 375 kbpd.", "Shape__Length": null, "Shape_Length": 13716.835384452004, "Tariff_Link": "https://www.shell.us/business-customers/shell-pipeline/shell-pipeline-customers/welcome-to-shell-pipeline-tariffs.html"}, "geometry": {"type": "LineString", "coordinates": [[-90.465741, 29.214241], [-90.46585, 29.214056], [-90.466083, 29.213973], [-90.466134, 29.213869], [-90.466448, 29.213339], [-90.468031, 29.21063], [-90.468246, 29.210183], [-90.468441, 29.20992], [-90.468594, 29.209703], [-90.468664, 29.209593], [-90.468725, 29.209484], [-90.469194, 29.208574], [-90.469888, 29.207353], [-90.470463, 29.206375], [-90.470731, 29.205938], [-90.470962, 29.205616], [-90.471733, 29.204561], [-90.472428, 29.203569], [-90.473413, 29.202233], [-90.473717, 29.201831], [-90.473882, 29.201624], [-90.474828, 29.200429], [-90.474892, 29.200336], [-90.474953, 29.200222], [-90.474985, 29.200104], [-90.475001, 29.199992], [-90.475009, 29.199876], [-90.475006, 29.199769], [-90.474962, 29.199327], [-90.474907, 29.19884], [-90.474888, 29.198655], [-90.474621, 29.195589], [-90.474479, 29.194417], [-90.474423, 29.193422], [-90.474108, 29.188845], [-90.474041, 29.187578], [-90.473869, 29.185195], [-90.473842, 29.184619], [-90.473829, 29.183982], [-90.473745, 29.183346], [-90.473733, 29.183227], [-90.473729, 29.183155], [-90.473731, 29.183084], [-90.473742, 29.182886], [-90.473742, 29.182793], [-90.47372, 29.182492], [-90.473713, 29.182407], [-90.47356, 29.180097], [-90.473382, 29.177747], [-90.473356, 29.177167], [-90.473276, 29.175752], [-90.473194, 29.174327], [-90.473004, 29.172184], [-90.472862, 29.170009], [-90.472848, 29.169587], [-90.472775, 29.16831], [-90.472676, 29.167311], [-90.472601, 29.166005], [-90.472533, 29.16486], [-90.472492, 29.163967], [-90.472426, 29.163351], [-90.472353, 29.162487], [-90.472311, 29.161764], [-90.472258, 29.160828], [-90.472208, 29.16003], [-90.472179, 29.159643], [-90.472076, 29.158607], [-90.472064, 29.15837], [-90.472033, 29.157793], [-90.471967, 29.156853], [-90.471913, 29.156352], [-90.471897, 29.156172], [-90.471734, 29.154341], [-90.471713, 29.153182], [-90.471574, 29.151309], [-90.471572, 29.151244], [-90.471568, 29.151163], [-90.471569, 29.151076], [-90.471584, 29.150433], [-90.471599, 29.149955], [-90.471605, 29.149533], [-90.471608, 29.14935], [-90.471574, 29.148636], [-90.471538, 29.148098], [-90.47151, 29.14764], [-90.471506, 29.147573], [-90.471501, 29.147506], [-90.471478, 29.147253], [-90.471456, 29.146982], [-90.471449, 29.146686], [-90.471448, 29.146569], [-90.471395, 29.145599], [-90.471374, 29.145228], [-90.47127, 29.14393], [-90.47117, 29.142694], [-90.471076, 29.141634], [-90.471016, 29.14073], [-90.471012, 29.140562], [-90.470991, 29.140168], [-90.47095, 29.139655], [-90.470918, 29.13917], [-90.470874, 29.138649], [-90.470863, 29.138429], [-90.470827, 29.137893], [-90.470773, 29.137344], [-90.470757, 29.137119], [-90.470704, 29.135805], [-90.470698, 29.135594], [-90.470643, 29.135154], [-90.470566, 29.134327], [-90.470482, 29.13307], [-90.470458, 29.132728], [-90.470396, 29.132225], [-90.47038, 29.131986], [-90.47037, 29.131747], [-90.470369, 29.131277], [-90.470308, 29.130369], [-90.470187, 29.129314], [-90.470171, 29.129192], [-90.470507, 29.128781], [-90.470807, 29.128408], [-90.470891, 29.128302], [-90.471141, 29.127958], [-90.471669, 29.127333], [-90.472932, 29.125769], [-90.473335, 29.125281], [-90.473485, 29.125074], [-90.473885, 29.124542], [-90.474423, 29.123991], [-90.475372, 29.122815], [-90.475411, 29.122761], [-90.475661, 29.122367], [-90.475665, 29.122362], [-90.475696, 29.122318], [-90.475899, 29.122059], [-90.475953, 29.121999], [-90.476245, 29.121698], [-90.476729, 29.12108], [-90.477223, 29.120476], [-90.477412, 29.120241], [-90.477626, 29.119966], [-90.47814, 29.119355], [-90.47859, 29.118799], [-90.478706, 29.11866], [-90.478747, 29.118607], [-90.478981, 29.118304], [-90.479217, 29.118004], [-90.479574, 29.117558], [-90.480013, 29.117033], [-90.480445, 29.116519], [-90.480628, 29.116301], [-90.480784, 29.116107], [-90.481068, 29.115735], [-90.481248, 29.115499], [-90.481573, 29.115086], [-90.481736, 29.114879], [-90.481822, 29.114774], [-90.482156, 29.114378], [-90.48264, 29.113792], [-90.483053, 29.113284], [-90.483121, 29.113194], [-90.483166, 29.113139], [-90.483223, 29.113065], [-90.483415, 29.112818], [-90.483457, 29.112763], [-90.483459, 29.11276], [-90.483459, 29.112759], [-90.483461, 29.112753], [-90.483464, 29.112743], [-90.483467, 29.112708]]}}
]
}
