{
"type": "FeatureCollection",
"features": [
{"type": "Feature", "properties": {"ProjectID": "P7395", "SourceProjectID": "P1070", "fid": 330, "Fuel": "Oil", "StartPrefecture/District": "", "EndState/Province": "Yunnan", "CountriesOrAreas": "Myanmar, China", "Wiki": "https://www.gem.wiki/Sino-Myanmar_Oil_Pipeline", "PipelineName": "Sino-Myanmar Oil Pipeline", "SegmentName": "Sino-Myanmar Oil Pipeline(Myanmar section)", "Status": "operating", "Owner": "National Pipe Network Group Southwest Oil and Gas Pipeline Co., Ltd. [100.00%]", "Parent": "unknown [unknown %]", "OwnerEntityIDs": "E100001015451", "ProposalYear": "", "ConstructionYear": "", "Diameter": "", "DiameterUnits": "", "StartYear1": "2013", "StartYear2": "", "StartYear3": "", "CancelledYear": "", "DelayType": "", "StopYear": "", "ShelvedYear": "", "Capacity": "442,000.00", "CapacityUnits": "bpd", "CapacityBOEd": "442000.0", "LengthKnown": "771.0", "LengthKnownUnits": "km", "LengthKnownKm": "771.0", "LengthEstimateKm": "2157.73", "LengthMergedKm": "771.0", "Diameter [ref]": "", "FuelSource": "Middle East, Africa", "FuelSource [ref]": "", "StartLocation": "Kyaukphyu Port", "StartCountryOrArea": "Myanmar", "StartSubRegion": "South-eastern Asia", "StartRegion": "Asia", "EndLocation": "Anning", "EndPrefecture/District": "Kunming", "EndCountryOrArea": "China", "CostUSD": "1500000000.0", "EndRegion": "Asia", "CostEuro": "1376146788.99", "OtherLanguagePrimaryPipelineName": "中缅输油管道", "EndSubRegion": "Eastern Asia", "RouteType": "Mapped route (at any accuracy)", "RouteAccuracy": "high", "Cost": "1500000000.0", "CostUnits": "USD", "LastUpdated": "2025-02-25"}, "geometry": {"type": "MultiLineString", "coordinates": [[[97.981019, 24.033674], [97.982833, 24.038178], [97.985567, 24.045014], [97.988302, 24.05185], [97.992403, 24.057319], [97.996505, 24.064155], [98.000606, 24.069623], [98.006075, 24.075092], [98.010176, 24.080561], [98.015645, 24.086029], [98.021114, 24.091498], [98.025215, 24.096967], [98.030684, 24.101068], [98.03752, 24.106537], [98.042988, 24.110639], [98.048457, 24.11474], [98.053926, 24.118842], [98.059394, 24.12431], [98.06623, 24.128412], [98.071699, 24.132513], [98.077168, 24.136615], [98.082636, 24.140716], [98.089472, 24.144818], [98.097675, 24.150287], [98.104511, 24.154388], [98.111347, 24.15849], [98.11955, 24.163958], [98.126386, 24.16806], [98.134589, 24.172161], [98.155097, 24.188567], [98.157831, 24.195403], [98.160565, 24.202239], [98.164667, 24.207708], [98.167401, 24.214544], [98.170135, 24.22138], [98.174237, 24.226848], [98.176971, 24.233684], [98.178339, 24.24052], [98.18244, 24.247356], [98.186542, 24.254192], [98.190643, 24.261028], [98.194745, 24.266496], [98.198846, 24.271965], [98.202948, 24.277434], [98.207049, 24.28427], [98.211151, 24.289738], [98.216619, 24.295207], [98.220721, 24.300676], [98.224822, 24.306144], [98.230291, 24.311613], [98.237127, 24.317082], [98.241228, 24.32255], [98.246697, 24.328019], [98.252166, 24.333488], [98.257635, 24.338956], [98.261736, 24.344425], [98.267205, 24.348527], [98.271306, 24.353995], [98.276775, 24.359464], [98.280876, 24.364933], [98.286345, 24.370401], [98.290447, 24.37587], [98.295915, 24.381339], [98.301384, 24.38544], [98.306853, 24.390909], [98.312321, 24.395011], [98.31779, 24.399112], [98.323259, 24.403214], [98.328728, 24.408682], [98.335563, 24.412784], [98.341032, 24.416885], [98.346501, 24.422354], [98.351969, 24.426455], [98.360172, 24.433291], [98.365641, 24.437393], [98.37111, 24.441494], [98.379313, 24.446963], [98.386149, 24.451065], [98.391617, 24.455166], [98.399821, 24.460635], [98.405289, 24.466104], [98.410758, 24.470205], [98.416227, 24.475674], [98.421695, 24.479775], [98.425797, 24.485244], [98.431265, 24.490713], [98.436734, 24.496181], [98.442203, 24.50165], [98.447672, 24.505752], [98.45314, 24.509853], [98.458609, 24.513955], [98.464078, 24.519423], [98.472281, 24.524892], [98.479117, 24.530361], [98.485952, 24.534462], [98.491421, 24.538564], [98.498257, 24.544032], [98.505093, 24.549501], [98.511929, 24.553603], [98.518765, 24.559071], [98.5256, 24.563173], [98.533803, 24.567274], [98.540639, 24.571376], [98.55021, 24.576845], [98.558413, 24.582313], [98.565248, 24.586415], [98.572084, 24.590516], [98.577553, 24.594618], [98.583022, 24.598719], [98.589858, 24.602821], [98.595326, 24.606922], [98.600795, 24.611024], [98.606264, 24.615125], [98.611732, 24.619227], [98.617201, 24.623328], [98.624037, 24.628797], [98.63224, 24.635633], [98.637709, 24.639734], [98.644544, 24.645203], [98.65138, 24.649305], [98.658216, 24.653406], [98.665052, 24.658875], [98.670521, 24.662976], [98.677357, 24.667078], [98.682825, 24.671179], [98.689661, 24.675281], [98.696497, 24.679382], [98.701966, 24.683484], [98.707434, 24.687585], [98.71427, 24.691687], [98.719739, 24.695789], [98.725208, 24.69989], [98.730676, 24.703992], [98.738879, 24.708093], [98.744348, 24.713562], [98.749817, 24.717663], [98.755285, 24.723132], [98.760754, 24.727234], [98.766223, 24.731335], [98.771692, 24.736804], [98.77716, 24.740905], [98.782629, 24.745007], [98.78673, 24.750475], [98.793566, 24.751843], [98.799035, 24.755944], [98.803136, 24.761413], [98.808605, 24.766882], [98.815441, 24.770983], [98.82091, 24.775085], [98.825011, 24.780553], [98.831847, 24.784655], [98.838683, 24.788756], [98.844152, 24.792858], [98.850988, 24.795592], [98.859191, 24.802428], [98.866026, 24.80653], [98.872862, 24.810631], [98.878331, 24.814733], [98.885167, 24.818834], [98.892003, 24.821568], [98.898839, 24.82567], [98.904307, 24.829771], [98.911143, 24.832506], [98.920713, 24.836607], [98.928916, 24.840709], [98.937119, 24.84481], [98.943955, 24.847545], [98.952158, 24.851646], [98.958994, 24.855748], [98.964463, 24.859849], [98.969932, 24.863951], [98.9754, 24.869419], [98.980869, 24.873521], [98.986338, 24.87899], [98.991806, 24.883091], [98.997275, 24.887193], [99.002744, 24.891294], [99.008212, 24.896763], [99.015048, 24.900864], [99.020517, 24.906333], [99.025986, 24.910435], [99.031454, 24.915903], [99.036923, 24.921372], [99.042392, 24.926841], [99.04786, 24.930942], [99.053329, 24.936411], [99.058798, 24.94188], [99.065634, 24.947348], [99.069735, 24.952817], [99.075204, 24.956919], [99.080673, 24.96102], [99.084774, 24.966489], [99.087508, 24.973325], [99.09161, 24.978793], [99.094344, 24.985629], [99.098446, 24.991098], [99.102547, 24.997934], [99.106649, 25.00477], [99.109383, 25.011605], [99.113485, 25.017074], [99.116219, 25.02391], [99.120321, 25.030746], [99.124422, 25.037582], [99.128524, 25.044418], [99.131258, 25.051253], [99.135359, 25.056722], [99.138094, 25.063558], [99.142195, 25.069027], [99.146297, 25.075863], [99.149031, 25.082698], [99.150398, 25.089534], [99.1545, 25.099105], [99.158601, 25.107308], [99.162703, 25.115511], [99.166804, 25.123714], [99.169539, 25.130549], [99.172273, 25.137385], [99.17364, 25.144221], [99.176375, 25.151057], [99.177742, 25.157893], [99.177742, 25.164729], [99.179109, 25.171565], [99.179109, 25.178401], [99.180476, 25.185236], [99.181843, 25.192072], [99.183211, 25.198908], [99.184578, 25.205744], [99.185945, 25.21258], [99.187312, 25.220783], [99.187312, 25.227619], [99.188679, 25.234455], [99.190046, 25.242658], [99.190046, 25.250861], [99.191414, 25.257697], [99.191414, 25.264532], [99.192781, 25.272735], [99.192781, 25.279571], [99.192781, 25.286407], [99.194148, 25.29461], [99.194148, 25.301446], [99.194148, 25.308282], [99.194148, 25.315118], [99.194148, 25.323321], [99.194148, 25.330157], [99.194148, 25.336993], [99.195515, 25.343828], [99.195515, 25.352031], [99.195515, 25.358867], [99.196882, 25.365703], [99.196882, 25.372539], [99.198249, 25.379375], [99.199617, 25.387578], [99.199617, 25.394414], [99.199617, 25.40125], [99.200984, 25.409453], [99.200984, 25.416289], [99.200984, 25.423124], [99.202351, 25.42996], [99.202351, 25.436796], [99.202351, 25.443632], [99.203718, 25.450468], [99.205085, 25.457304], [99.206452, 25.46414], [99.209187, 25.470976], [99.213288, 25.477811], [99.21739, 25.484647], [99.221491, 25.490116], [99.225593, 25.495585], [99.231062, 25.499686], [99.23653, 25.505155], [99.241999, 25.509256], [99.248835, 25.513358], [99.255671, 25.517459], [99.262507, 25.518827], [99.27071, 25.521561], [99.277545, 25.524295], [99.284381, 25.525662], [99.292584, 25.52703], [99.29942, 25.529764], [99.306256, 25.531131], [99.313092, 25.533865], [99.319928, 25.5366], [99.328131, 25.539334], [99.334967, 25.542068], [99.34317, 25.54617], [99.350006, 25.548904], [99.355474, 25.553006], [99.365044, 25.557107], [99.37188, 25.561209], [99.378716, 25.563943], [99.385552, 25.566678], [99.392388, 25.569412], [99.399224, 25.570779], [99.40606, 25.573513], [99.414263, 25.574881], [99.421099, 25.577615], [99.427934, 25.578982], [99.43477, 25.581717], [99.441606, 25.583084], [99.448442, 25.585818], [99.455278, 25.588552], [99.462114, 25.58992], [99.470317, 25.591287], [99.477153, 25.592654], [99.483989, 25.594021], [99.490824, 25.595388], [99.49766, 25.596755], [99.504496, 25.59949], [99.512699, 25.600857], [99.519535, 25.602224], [99.527738, 25.603591], [99.535941, 25.606326], [99.542777, 25.607693], [99.55098, 25.607693], [99.56055, 25.60906], [99.568753, 25.60906], [99.575589, 25.610427], [99.582425, 25.611794], [99.589261, 25.613161], [99.596097, 25.614529], [99.602933, 25.615896], [99.609768, 25.617263], [99.616604, 25.61863], [99.62344, 25.619997], [99.630276, 25.621365], [99.637112, 25.621365], [99.645315, 25.622732], [99.652151, 25.624099], [99.661721, 25.624099], [99.668557, 25.625466], [99.675393, 25.626833], [99.682229, 25.626833], [99.689064, 25.6282], [99.6959, 25.629568], [99.702736, 25.632302], [99.709572, 25.633669], [99.716408, 25.636403], [99.725978, 25.639138], [99.732814, 25.641872], [99.73965, 25.644606], [99.751954, 25.648708], [99.75879, 25.651442], [99.772462, 25.656911], [99.784767, 25.66238], [99.791602, 25.666481], [99.803907, 25.670583], [99.810743, 25.673317], [99.820313, 25.678786], [99.828516, 25.68152], [99.838086, 25.685622], [99.846289, 25.688356], [99.854492, 25.69109], [99.862695, 25.695192], [99.868164, 25.699293], [99.875, 25.702028], [99.881836, 25.706129], [99.890039, 25.708864], [99.898242, 25.711598], [99.906445, 25.715699], [99.911914, 25.719801], [99.921484, 25.723902], [99.92832, 25.728004], [99.935156, 25.732106], [99.941991, 25.73484], [99.948827, 25.738941], [99.955663, 25.745777], [99.962499, 25.749879], [99.967968, 25.755347], [99.973436, 25.759449], [99.987108, 25.769019], [99.993944, 25.771754], [99.999413, 25.775855], [100.004881, 25.779957], [100.01035, 25.784058], [100.015819, 25.78816], [100.022655, 25.790894], [100.028123, 25.794995], [100.034959, 25.799097], [100.040428, 25.803198], [100.045897, 25.8073], [100.051365, 25.811402], [100.056834, 25.815503], [100.062303, 25.819605], [100.069138, 25.822339], [100.075974, 25.825073], [100.097849, 25.829175], [100.104685, 25.827808], [100.111521, 25.825073], [100.118357, 25.822339], [100.12656, 25.818237], [100.133396, 25.815503], [100.140231, 25.812769], [100.148435, 25.810034], [100.15527, 25.8073], [100.162106, 25.804566], [100.167575, 25.800464], [100.175778, 25.796363], [100.183981, 25.792261], [100.193551, 25.78816], [100.200387, 25.785425], [100.20859, 25.782691], [100.215426, 25.781324], [100.222262, 25.778589], [100.229098, 25.775855], [100.235934, 25.773121], [100.244137, 25.769019], [100.250972, 25.764918], [100.257808, 25.760816], [100.266011, 25.756715], [100.27148, 25.752613], [100.279683, 25.748512], [100.285152, 25.74441], [100.291988, 25.741676], [100.298824, 25.737574], [100.307027, 25.732106], [100.312495, 25.728004], [100.320698, 25.723902], [100.328901, 25.721168], [100.337104, 25.717067], [100.34394, 25.712965], [100.350776, 25.710231], [100.357612, 25.707496], [100.365815, 25.704762], [100.374018, 25.700661], [100.382221, 25.697926], [100.391791, 25.693825], [100.399994, 25.689723], [100.408197, 25.685622], [100.4164, 25.682887], [100.423236, 25.680153], [100.430072, 25.676051], [100.436908, 25.674684], [100.443744, 25.670583], [100.451947, 25.667848], [100.461517, 25.663747], [100.468353, 25.66238], [100.475189, 25.658278], [100.487493, 25.654177], [100.499798, 25.650075], [100.506634, 25.647341], [100.517571, 25.643239], [100.527141, 25.639138], [100.535344, 25.635036], [100.544915, 25.632302], [100.554485, 25.629568], [100.561321, 25.626833], [100.569524, 25.624099], [100.577727, 25.619997], [100.584563, 25.617263], [100.592766, 25.614529], [100.600969, 25.610427], [100.607805, 25.60906], [100.61464, 25.606326], [100.621476, 25.603591], [100.628312, 25.602224], [100.636515, 25.59949], [100.643351, 25.598123], [100.654288, 25.595388], [100.665226, 25.592654], [100.672062, 25.591287], [100.682999, 25.58992], [100.689835, 25.588552], [100.699405, 25.587185], [100.706241, 25.585818], [100.714444, 25.583084], [100.722647, 25.581717], [100.729483, 25.580349], [100.737686, 25.578982], [100.744522, 25.578982], [100.751358, 25.577615], [100.758194, 25.576248], [100.767764, 25.576248], [100.778701, 25.574881], [100.786904, 25.573513], [100.795107, 25.573513], [100.801943, 25.572146], [100.808779, 25.572146], [100.816982, 25.570779], [100.823818, 25.570779], [100.830654, 25.570779], [100.83749, 25.569412], [100.844325, 25.569412], [100.851161, 25.569412], [100.857997, 25.569412], [100.864833, 25.569412], [100.873036, 25.569412], [100.879872, 25.569412], [100.886708, 25.569412], [100.893544, 25.569412], [100.903114, 25.569412], [100.911317, 25.569412], [100.91952, 25.569412], [100.930457, 25.569412], [100.940028, 25.569412], [100.949598, 25.569412], [100.956434, 25.569412], [100.967371, 25.569412], [100.975574, 25.569412], [100.983777, 25.569412], [100.993347, 25.569412], [101.000183, 25.569412], [101.008386, 25.568045], [101.017956, 25.568045], [101.026159, 25.568045], [101.032995, 25.568045], [101.039831, 25.568045], [101.046667, 25.568045], [101.05487, 25.568045], [101.061706, 25.568045], [101.068542, 25.568045], [101.078112, 25.568045], [101.086315, 25.568045], [101.093151, 25.568045], [101.099987, 25.568045], [101.106823, 25.566678], [101.113658, 25.56531], [101.121862, 25.562576], [101.128697, 25.559842], [101.135533, 25.557107], [101.142369, 25.553006], [101.147838, 25.548904], [101.156041, 25.544803], [101.16151, 25.540701], [101.166978, 25.5366], [101.172447, 25.532498], [101.177916, 25.528397], [101.184751, 25.522928], [101.194322, 25.518827], [101.19979, 25.514725], [101.205259, 25.510624], [101.210728, 25.506522], [101.216196, 25.50242], [101.221665, 25.498319], [101.228501, 25.49285], [101.235337, 25.490116], [101.242173, 25.486014], [101.247641, 25.481913], [101.254477, 25.477811], [101.261313, 25.472343], [101.268149, 25.469608], [101.274985, 25.46414], [101.280454, 25.460038], [101.287289, 25.455937], [101.294125, 25.451835], [101.300961, 25.444999], [101.307797, 25.440898], [101.321469, 25.42996], [101.328305, 25.424492], [101.333773, 25.42039], [101.340609, 25.416289], [101.346078, 25.412187], [101.352914, 25.408086], [101.358382, 25.403984], [101.363851, 25.399883], [101.36932, 25.395781], [101.376156, 25.393047], [101.384359, 25.387578], [101.391195, 25.383476], [101.39803, 25.380742], [101.403499, 25.376641], [101.410335, 25.373906], [101.415804, 25.369805], [101.421272, 25.365703], [101.428108, 25.362969], [101.433577, 25.358867], [101.440413, 25.354766], [101.447249, 25.352031], [101.452717, 25.34793], [101.459553, 25.343828], [101.466389, 25.33836], [101.474592, 25.334258], [101.480061, 25.330157], [101.522443, 25.295977], [101.530646, 25.291876], [101.537482, 25.287774], [101.544318, 25.283673], [101.549787, 25.278204], [101.556622, 25.274103], [101.566193, 25.268634], [101.574396, 25.264532], [101.582599, 25.259064], [101.590802, 25.254962], [101.600372, 25.250861], [101.607208, 25.246759], [101.614044, 25.242658], [101.62088, 25.238556], [101.626348, 25.234455], [101.633184, 25.228986], [101.638653, 25.223517], [101.644122, 25.218049], [101.648223, 25.21258], [101.653692, 25.208478], [101.660528, 25.204377], [101.667363, 25.201642], [101.674199, 25.200275], [101.681035, 25.197541], [101.687871, 25.194807], [101.694707, 25.193439], [101.701543, 25.190705], [101.708379, 25.189338], [101.716582, 25.187971], [101.724785, 25.187971], [101.732988, 25.187971], [101.745292, 25.186604], [101.754863, 25.186604], [101.763066, 25.185236], [101.769901, 25.185236], [101.776737, 25.185236], [101.78494, 25.185236], [101.794511, 25.185236], [101.801346, 25.185236], [101.809549, 25.185236], [101.817752, 25.185236], [101.825956, 25.185236], [101.834159, 25.185236], [101.840994, 25.185236], [101.84783, 25.185236], [101.856033, 25.185236], [101.862869, 25.183869], [101.871072, 25.183869], [101.877908, 25.183869], [101.884744, 25.183869], [101.892947, 25.183869], [101.90115, 25.183869], [101.909353, 25.182502], [101.918923, 25.182502], [101.925759, 25.182502], [101.936697, 25.182502], [101.943532, 25.182502], [101.951735, 25.182502], [101.959938, 25.182502], [101.969509, 25.182502], [101.976345, 25.182502], [101.98318, 25.182502], [101.990016, 25.182502], [101.996852, 25.182502], [102.003688, 25.181135], [102.010524, 25.179768], [102.01736, 25.178401], [102.02693, 25.175666], [102.0365, 25.172932], [102.067945, 25.151057], [102.074781, 25.14969], [102.081617, 25.144221], [102.087086, 25.14012], [102.093921, 25.137385], [102.09939, 25.133284], [102.106226, 25.129182], [102.113062, 25.125081], [102.11853, 25.120979], [102.125366, 25.118245], [102.132202, 25.114143], [102.137671, 25.110042], [102.14314, 25.10594], [102.148608, 25.101839], [102.155444, 25.097737], [102.16228, 25.093636], [102.169116, 25.088167], [102.175952, 25.085433], [102.182788, 25.081331], [102.192358, 25.07723], [102.199194, 25.074495], [102.20603, 25.071761], [102.212865, 25.069027], [102.221068, 25.064925], [102.229271, 25.060824], [102.237475, 25.056722], [102.24431, 25.052621], [102.251146, 25.048519], [102.260716, 25.04305], [102.26892, 25.038949], [102.277123, 25.034847], [102.283958, 25.030746], [102.290794, 25.026644], [102.29763, 25.021176], [102.305833, 25.017074], [102.312669, 25.012973], [102.318138, 25.008871], [102.326341, 25.003402], [102.334544, 24.999301], [102.340012, 24.995199], [102.345481, 24.991098], [102.353684, 24.985629], [102.36052, 24.981528], [102.368723, 24.977426], [102.374192, 24.973325], [102.381028, 24.969223], [102.387864, 24.965122], [102.396067, 24.96102], [102.401535, 24.956919], [102.407004, 24.952817], [102.412473, 24.948715], [102.419309, 24.945981], [102.424777, 24.94188], [102.431613, 24.939145], [102.437082, 24.935044], [102.443918, 24.930942], [102.449386, 24.926841], [102.456222, 24.922739], [102.463058, 24.920005], [102.469894, 24.915903], [102.47673, 24.913169]]]}},
{"type": "Feature", "properties": {"ProjectID": "P7395", "fid": null, "Fuel": null, "StartPrefecture/District": null, "EndState/Province": null, "CountriesOrAreas": null, "Wiki": null, "PipelineName": null, "SegmentName": null, "Status": null, "Owner": null, "Parent": null, "OwnerEntityIDs": null, "ProposalYear": null, "ConstructionYear": null, "Diameter": null, "DiameterUnits": null, "StartYear1": null, "StartYear2": null, "StartYear3": null, "CancelledYear": null, "DelayType": null, "StopYear": null, "ShelvedYear": null, "Capacity": null, "CapacityUnits": null, "CapacityBOEd": null, "LengthKnown": null, "LengthKnownUnits": null, "LengthKnownKm": null, "LengthEstimateKm": null, "LengthMergedKm": null, "Diameter [ref]": null, "FuelSource": null, "FuelSource [ref]": null, "StartLocation": null, "StartCountryOrArea": null, "StartSubRegion": null, "StartRegion": null, "EndLocation": null, "EndPrefecture/District": null, "EndCountryOrArea": null, "CostUSD": null, "EndRegion": null, "CostEuro": null, "OtherLanguagePrimaryPipelineName": null, "EndSubRegion": null, "RouteType": null, "RouteAccuracy": null, "Cost": null, "CostUnits": null, "LastUpdated": null}, "geometry": {"type": "MultiLineString", "coordinates": [[[102.47673, 24.913169], [102.524692, 24.896112], [102.581775, 24.87633], [102.645271, 24.870511], [102.71005, 24.868184], [102.80935, 24.871621]]]}}
]
}
