{
"type": "FeatureCollection",
"features": [
{"type": "Feature", "properties": {"ProjectID": "P7428", "OBJECTID": 30420, "MAPPABLE_OBJECT_ID": null, "SOURCE": "EPF20020040A", "NAME": "ALPINE TO KUPARUK CPF-2 PIPELINE", "SOURCE_DATE": "20110325", "INFRA_TYPE": 8, "DISPLAY": "Y", "COVER": "rinfra", "SCALE": 0, "CREATED_USER": "ARCGIS_GIS_W", "CREATED_DATE": "2024-10-25T15:54:53Z", "LAST_EDITED_USER": "ARCGIS_GIS_W", "LAST_EDITED_DATE": "2024-10-25T15:54:53Z", "GlobalID": "{64BEC909-63DE-4194-BFB4-BA6958D3CCCD}", "ShapeSTLength": 1391.2331598742317}, "geometry": {"type": "MultiLineString", "coordinates": [[[-150.861451, 70.244498], [-150.861451, 70.244498], [-150.861506, 70.244615], [-150.860992, 70.244645], [-150.862709, 70.248048], [-150.86223, 70.248072], [-150.865705, 70.25498], [-150.865226, 70.255005], [-150.866892, 70.258338], [-150.871482, 70.260063], [-150.871118, 70.260173], [-150.875347, 70.261767], [-150.884932, 70.2632], [-150.884716, 70.263346], [-150.904829, 70.266352], [-150.904612, 70.266498], [-150.924618, 70.269485], [-150.924403, 70.269633], [-150.93454, 70.271145], [-150.940365, 70.27303], [-150.94002, 70.273146], [-150.94574, 70.274999], [-150.949681, 70.277056], [-150.949266, 70.277143], [-150.952998, 70.279092], [-150.953271, 70.281214], [-150.952785, 70.281219], [-150.953024, 70.283179], [-150.95873, 70.285915], [-150.958322, 70.286005], [-150.971162, 70.292163], [-150.970754, 70.292252], [-150.983729, 70.298475], [-150.983321, 70.298565], [-150.986389, 70.300036], [-150.988921, 70.30125]], [[-150.861436, 70.244498], [-150.861489, 70.244611], [-150.860975, 70.244641], [-150.862691, 70.248044], [-150.862213, 70.248068], [-150.865688, 70.254976], [-150.865209, 70.255], [-150.866878, 70.25834], [-150.87146, 70.260063], [-150.871096, 70.260172], [-150.875338, 70.261772], [-150.884911, 70.263202], [-150.884695, 70.263349], [-150.904808, 70.266354], [-150.904591, 70.266501], [-150.924597, 70.269488], [-150.924383, 70.269635], [-150.934531, 70.271149], [-150.940343, 70.27303], [-150.939998, 70.273146], [-150.945728, 70.275003], [-150.94966, 70.277054], [-150.949245, 70.277141], [-150.952983, 70.279093], [-150.953255, 70.281209], [-150.952769, 70.281214], [-150.953009, 70.283181], [-150.958708, 70.285913], [-150.958301, 70.286004], [-150.97114, 70.292162], [-150.970732, 70.292251], [-150.983708, 70.298473], [-150.983299, 70.298563], [-150.989693, 70.301629], [-150.991374, 70.30475], [-150.990893, 70.304778], [-150.992497, 70.307766], [-150.990735, 70.31208], [-150.99026, 70.312054], [-150.98674, 70.320652], [-150.986257, 70.320624], [-150.984526, 70.324863], [-150.977408, 70.327363], [-150.977068, 70.327244], [-150.962513, 70.33234], [-150.96217, 70.332224], [-150.954822, 70.334795], [-150.94677, 70.337153], [-150.946458, 70.337026], [-150.938474, 70.339365], [-150.93722, 70.338952], [-150.934092, 70.340037], [-150.933743, 70.339924], [-150.927881, 70.341959], [-150.928108, 70.342035], [-150.928004, 70.34207], [-150.927782, 70.341994], [-150.925578, 70.342756], [-150.925592, 70.343062], [-150.925384, 70.343062], [-150.925386, 70.34317], [-150.925602, 70.343172], [-150.925613, 70.343403], [-150.925414, 70.343404]], [[-150.861451, 70.244498], [-150.861457, 70.244498]], [[-150.825265, 70.244387], [-150.825258, 70.244083], [-150.825281, 70.244083], [-150.861308, 70.244194], [-150.861451, 70.244498]], [[-150.861436, 70.244498], [-150.861443, 70.244498], [-150.861451, 70.244498]], [[-150.82528, 70.244387], [-150.825277, 70.244235], [-150.861365, 70.244346], [-150.861436, 70.244498]], [[-150.82528, 70.244387], [-150.861361, 70.244498], [-150.861436, 70.244498]], [[-149.884442, 70.288801], [-149.884025, 70.2888], [-149.884027, 70.288681], [-149.882766, 70.288679], [-149.882767, 70.288605], [-149.88272, 70.288605], [-149.882721, 70.288118], [-149.886834, 70.288119], [-149.88683, 70.288184], [-149.890895, 70.28819], [-149.890909, 70.285962], [-149.894104, 70.28385], [-149.893705, 70.283782], [-149.894328, 70.283369], [-149.894724, 70.28344], [-149.898205, 70.281127], [-149.919798, 70.279451], [-149.919892, 70.279613], [-149.940481, 70.278043], [-149.940579, 70.278203], [-149.961818, 70.27658], [-149.961908, 70.276742], [-149.982691, 70.275153], [-149.982788, 70.275314], [-149.993091, 70.274525], [-150.001264, 70.272148], [-150.001568, 70.272274], [-150.009971, 70.269829], [-150.02222, 70.269281], [-150.022266, 70.269443], [-150.047791, 70.268296], [-150.047844, 70.268461], [-150.0731, 70.267322], [-150.073146, 70.267485], [-150.085703, 70.266921], [-150.097632, 70.265033], [-150.097818, 70.265185], [-150.123272, 70.261155], [-150.123471, 70.261306], [-150.148238, 70.257381], [-150.148436, 70.257531], [-150.173393, 70.253569], [-150.173582, 70.253721], [-150.198064, 70.249832], [-150.198251, 70.249984], [-150.223201, 70.246015], [-150.223386, 70.246166], [-150.23626, 70.244116], [-150.246378, 70.244506], [-150.246314, 70.244669], [-150.268479, 70.245523], [-150.268417, 70.245686], [-150.275766, 70.24597], [-150.275775, 70.245914], [-150.276478, 70.245943], [-150.276461, 70.245997], [-150.278413, 70.246074], [-150.284519, 70.24399], [-150.284857, 70.244108], [-150.292874, 70.241377], [-150.295796, 70.241227], [-150.295751, 70.24114], [-150.296455, 70.241106], [-150.296487, 70.241192], [-150.307457, 70.240629], [-150.307518, 70.240792], [-150.336853, 70.239283], [-150.336914, 70.239449], [-150.348895, 70.23883], [-150.357934, 70.239191], [-150.357864, 70.239355], [-150.3673, 70.239733], [-150.379312, 70.238727], [-150.379417, 70.238887], [-150.402387, 70.236963], [-150.402491, 70.237123], [-150.426172, 70.235136], [-150.426274, 70.235297], [-150.436505, 70.234438], [-150.441711, 70.234373], [-150.441696, 70.234327], [-150.442404, 70.234321], [-150.442413, 70.234365], [-150.45119, 70.234255], [-150.451179, 70.23416], [-150.451881, 70.23415], [-150.45189, 70.234246], [-150.47713, 70.233929], [-150.477136, 70.234095], [-150.504139, 70.233751], [-150.504132, 70.233915], [-150.517825, 70.233739], [-150.525822, 70.231781], [-150.526088, 70.231918], [-150.533791, 70.230033], [-150.546362, 70.231727], [-150.546168, 70.23188], [-150.5584, 70.233526], [-150.573012, 70.233247], [-150.573027, 70.233413], [-150.601574, 70.232865], [-150.601581, 70.233029], [-150.630653, 70.232467], [-150.630661, 70.232631], [-150.644863, 70.232357], [-150.658767, 70.230727], [-150.658912, 70.230883], [-150.684301, 70.227909], [-150.684448, 70.228065], [-150.695403, 70.226783], [-150.703129, 70.227127], [-150.703051, 70.22729], [-150.718238, 70.227967], [-150.718169, 70.22813], [-150.725498, 70.22846], [-150.731004, 70.231643], [-150.730576, 70.231722], [-150.736951, 70.235419], [-150.750054, 70.234803], [-150.7501, 70.234968], [-150.765746, 70.234236], [-150.765724, 70.234182], [-150.766417, 70.234149], [-150.766443, 70.234205], [-150.777423, 70.233689], [-150.777477, 70.233853], [-150.791049, 70.233215], [-150.798939, 70.235988], [-150.798576, 70.236097], [-150.814243, 70.2416], [-150.813887, 70.241712], [-150.821566, 70.24441], [-150.824515, 70.244419], [-150.8245, 70.244519], [-150.825283, 70.244523], [-150.82528, 70.244387]], [[-150.825265, 70.244387], [-150.825273, 70.244387], [-150.82528, 70.244387]], [[-149.884482, 70.288813], [-149.884009, 70.288812], [-149.884011, 70.288686], [-149.88275, 70.288684], [-149.882751, 70.288605], [-149.882687, 70.288605], [-149.882698, 70.28811], [-149.886849, 70.288112], [-149.886849, 70.288113], [-149.886845, 70.288179], [-149.89088, 70.288184], [-149.890894, 70.28596], [-149.894083, 70.283852], [-149.893684, 70.283784], [-149.894322, 70.283361], [-149.894718, 70.283433], [-149.898195, 70.281122], [-149.91981, 70.279445], [-149.919903, 70.279607], [-149.940492, 70.278037], [-149.940591, 70.278197], [-149.96183, 70.276574], [-149.96192, 70.276736], [-149.982702, 70.275147], [-149.9828, 70.275307], [-149.993084, 70.27452], [-150.001266, 70.27214], [-150.00157, 70.272266], [-150.009965, 70.269824], [-150.022233, 70.269275], [-150.02228, 70.269437], [-150.047804, 70.26829], [-150.047857, 70.268455], [-150.073114, 70.267316], [-150.07316, 70.267479], [-150.085698, 70.266915], [-150.09764, 70.265026], [-150.097826, 70.265178], [-150.123279, 70.261148], [-150.123478, 70.261299], [-150.148245, 70.257374], [-150.148444, 70.257524], [-150.173401, 70.253562], [-150.17359, 70.253714], [-150.198072, 70.249825], [-150.198259, 70.249977], [-150.223208, 70.246008], [-150.223394, 70.246159], [-150.236257, 70.24411], [-150.246395, 70.244502], [-150.246331, 70.244664], [-150.268496, 70.245518], [-150.268434, 70.245681], [-150.275752, 70.245964], [-150.275761, 70.245909], [-150.276495, 70.245939], [-150.276478, 70.245992], [-150.278407, 70.246069], [-150.284519, 70.243983], [-150.284857, 70.244101], [-150.292867, 70.241372], [-150.295779, 70.241222], [-150.295733, 70.241135], [-150.296468, 70.2411], [-150.2965, 70.241186], [-150.30747, 70.240623], [-150.307531, 70.240786], [-150.336866, 70.239277], [-150.336927, 70.239442], [-150.348895, 70.238824], [-150.357951, 70.239187], [-150.357881, 70.23935], [-150.367299, 70.239728], [-150.379323, 70.23872], [-150.379428, 70.238881], [-150.402398, 70.236956], [-150.402503, 70.237117], [-150.426183, 70.235129], [-150.426286, 70.235291], [-150.436503, 70.234432], [-150.441694, 70.234368], [-150.441679, 70.234322], [-150.442418, 70.234316], [-150.442427, 70.234359], [-150.451175, 70.23425], [-150.451163, 70.234155], [-150.451896, 70.234144], [-150.451904, 70.234241], [-150.477145, 70.233924], [-150.477151, 70.23409], [-150.504155, 70.233745], [-150.504147, 70.233909], [-150.51782, 70.233734], [-150.525826, 70.231774], [-150.526091, 70.231911], [-150.533789, 70.230027], [-150.546382, 70.231724], [-150.546189, 70.231878], [-150.558402, 70.233521], [-150.573026, 70.233242], [-150.573041, 70.233407], [-150.601589, 70.23286], [-150.601596, 70.233023], [-150.630668, 70.232461], [-150.630676, 70.232625], [-150.64486, 70.232352], [-150.658776, 70.23072], [-150.658921, 70.230877], [-150.68431, 70.227903], [-150.684458, 70.228058], [-150.695402, 70.226777], [-150.703146, 70.227122], [-150.703068, 70.227285], [-150.718256, 70.227963], [-150.718186, 70.228126], [-150.725507, 70.228455], [-150.731025, 70.231645], [-150.730597, 70.231724], [-150.736959, 70.235414], [-150.750068, 70.234797], [-150.750114, 70.234962], [-150.765729, 70.234232], [-150.765707, 70.234177], [-150.766429, 70.234143], [-150.766456, 70.234199], [-150.777436, 70.233683], [-150.777491, 70.233847], [-150.791055, 70.233209], [-150.798962, 70.235988], [-150.798598, 70.236097], [-150.814265, 70.2416], [-150.813909, 70.241712], [-150.821572, 70.244404], [-150.824531, 70.244414], [-150.824516, 70.244514], [-150.825268, 70.244518], [-150.825265, 70.244387], [-150.825265, 70.244387]], [[-149.882398, 70.288781], [-149.882397, 70.288797], [-149.88205, 70.288797], [-149.882052, 70.288689], [-149.882732, 70.28869], [-149.882733, 70.28861], [-149.88264, 70.28861], [-149.882642, 70.288399], [-149.882682, 70.288386], [-149.882688, 70.288108], [-149.886855, 70.288109], [-149.886855, 70.288111], [-149.886851, 70.288177], [-149.890875, 70.288182], [-149.890888, 70.28596], [-149.894076, 70.283853], [-149.893677, 70.283785], [-149.89432, 70.283359], [-149.894715, 70.28343], [-149.898191, 70.28112], [-149.919814, 70.279443], [-149.919908, 70.279605], [-149.940497, 70.278035], [-149.940595, 70.278194], [-149.961834, 70.276572], [-149.961924, 70.276734], [-149.982707, 70.275145], [-149.982804, 70.275305], [-149.993081, 70.274519], [-150.001266, 70.272137], [-150.001571, 70.272263], [-150.009962, 70.269822], [-150.022238, 70.269272], [-150.022285, 70.269435], [-150.047809, 70.268288], [-150.047862, 70.268453], [-150.073119, 70.267314], [-150.073165, 70.267477], [-150.085697, 70.266914], [-150.097643, 70.265024], [-150.097828, 70.265176], [-150.123282, 70.261146], [-150.123481, 70.261296], [-150.148248, 70.257371], [-150.148446, 70.257521], [-150.173404, 70.25356], [-150.173593, 70.253711], [-150.198075, 70.249822], [-150.198262, 70.249974], [-150.223211, 70.246005], [-150.223397, 70.246157], [-150.236256, 70.244108], [-150.246402, 70.2445], [-150.246337, 70.244662], [-150.268502, 70.245517], [-150.268441, 70.24568], [-150.275746, 70.245962], [-150.275755, 70.245906], [-150.276501, 70.245937], [-150.276484, 70.245991], [-150.278405, 70.246067], [-150.284519, 70.24398], [-150.284857, 70.244098], [-150.292864, 70.241371], [-150.295772, 70.241221], [-150.295726, 70.241134], [-150.296473, 70.241098], [-150.296505, 70.241184], [-150.307475, 70.240621], [-150.307536, 70.240784], [-150.336871, 70.239275], [-150.336932, 70.23944], [-150.348895, 70.238822], [-150.357958, 70.239185], [-150.357887, 70.239348], [-150.367299, 70.239726], [-150.379327, 70.238718], [-150.379432, 70.238878], [-150.402402, 70.236954], [-150.402507, 70.237115], [-150.426187, 70.235127], [-150.42629, 70.235288], [-150.436503, 70.234431], [-150.441688, 70.234366], [-150.441672, 70.23432], [-150.442424, 70.234314], [-150.442432, 70.234357], [-150.451169, 70.234248], [-150.451157, 70.234153], [-150.451901, 70.234142], [-150.45191, 70.234239], [-150.47715, 70.233922], [-150.477157, 70.234088], [-150.50416, 70.233743], [-150.504153, 70.233907], [-150.517818, 70.233732], [-150.525828, 70.231771], [-150.526093, 70.231908], [-150.533788, 70.230025], [-150.54639, 70.231723], [-150.546196, 70.231876], [-150.558403, 70.233519], [-150.573032, 70.23324], [-150.573047, 70.233405], [-150.601595, 70.232857], [-150.601601, 70.233021], [-150.630673, 70.232459], [-150.630681, 70.232623], [-150.644859, 70.23235], [-150.65878, 70.230718], [-150.658925, 70.230874], [-150.684314, 70.2279], [-150.684461, 70.228055], [-150.695401, 70.226775], [-150.703152, 70.227121], [-150.703075, 70.227283], [-150.718262, 70.227961], [-150.718193, 70.228124], [-150.72551, 70.228453], [-150.731033, 70.231645], [-150.730605, 70.231725], [-150.736962, 70.235411], [-150.750073, 70.234795], [-150.750119, 70.23496], [-150.765723, 70.23423], [-150.7657, 70.234175], [-150.766434, 70.234141], [-150.76646, 70.234197], [-150.777441, 70.233681], [-150.777495, 70.233844], [-150.791057, 70.233207], [-150.79897, 70.235988], [-150.798606, 70.236097], [-150.814273, 70.2416], [-150.813917, 70.241712], [-150.821575, 70.244403], [-150.824537, 70.244412], [-150.824522, 70.244512], [-150.825262, 70.244516], [-150.82526, 70.244387], [-150.825265, 70.244387]]]}}
]
}
