{
"type": "FeatureCollection",
"features": [
{"type": "Feature", "properties": {"ProjectID": "P7873", "FID": 1, "OBJECTID": 1, "COMMODITY1": "CRUDE", "SYSTEM": "MANITO PL", "DIVISION": "CANADIAN CRUDE", "DISTRICT": "EAST", "DIAMETER": "4 In - 12 In", "Shape_Leng": 426876.986556, "Shape__Length": 427488.73811531876}, "geometry": {"type": "MultiLineString", "coordinates": [[[-110.093226, 52.146771], [-110.092198, 52.145785], [-110.091166, 52.144803], [-110.090131, 52.143825], [-110.089093, 52.14285], [-110.088051, 52.141878], [-110.087005, 52.140911], [-110.085956, 52.139947], [-110.084903, 52.138986], [-110.083847, 52.13803], [-110.082787, 52.137077], [-110.081724, 52.136127], [-110.080657, 52.135181], [-110.079586, 52.134239], [-110.078512, 52.133301], [-110.077435, 52.132366], [-110.076354, 52.131434], [-110.075269, 52.130507], [-110.074181, 52.129583], [-110.073089, 52.128662], [-110.071994, 52.127745], [-110.070895, 52.126832], [-110.069793, 52.125923], [-110.068687, 52.125017], [-110.067577, 52.124115], [-110.066464, 52.123216], [-110.065348, 52.122321], [-110.064228, 52.12143], [-110.063104, 52.120542], [-110.061977, 52.119658], [-110.060847, 52.118778], [-110.059712, 52.117901], [-110.058575, 52.117028], [-110.057433, 52.116158], [-110.056288, 52.115292], [-110.05514, 52.11443], [-110.053988, 52.113571], [-110.052833, 52.112716], [-110.051674, 52.111865], [-110.050511, 52.111017], [-110.049345, 52.110173], [-110.048175, 52.109333], [-110.047002, 52.108496], [-110.045825, 52.107663], [-110.044645, 52.106833], [-110.043461, 52.106007], [-110.042274, 52.105185], [-110.041083, 52.104367], [-110.039888, 52.103552], [-110.03869, 52.10274], [-110.037489, 52.101933], [-110.036284, 52.101129], [-110.035075, 52.100328], [-110.033863, 52.099531], [-110.032647, 52.098738], [-110.031428, 52.097949], [-110.030205, 52.097163], [-110.028979, 52.096381], [-110.027749, 52.095602], [-110.026516, 52.094827], [-110.025279, 52.094056], [-110.024038, 52.093288], [-110.022794, 52.092524], [-110.021547, 52.091764], [-110.020295, 52.091007], [-110.019041, 52.090254], [-110.017783, 52.089505], [-110.016521, 52.088759], [-110.015255, 52.088017], [-110.013987, 52.087278], [-110.012714, 52.086544], [-110.011438, 52.085812], [-110.010159, 52.085085], [-110.008876, 52.084361], [-110.007589, 52.083641], [-110.006299, 52.082924], [-110.005006, 52.082211], [-110.003708, 52.081502], [-110.002408, 52.080796], [-110.001103, 52.080094], [-109.999796, 52.079395], [-109.998484, 52.078701], [-109.997169, 52.07801], [-109.995851, 52.077322], [-109.994529, 52.076638], [-109.993203, 52.075958], [-109.991874, 52.075281], [-109.990542, 52.074609], [-109.989205, 52.073939], [-109.987866, 52.073274], [-109.986522, 52.072612], [-109.985176, 52.071954], [-109.983825, 52.071299], [-109.982471, 52.070648], [-109.981114, 52.07], [-109.979753, 52.069357], [-109.978389, 52.068717], [-109.977021, 52.06808], [-109.975649, 52.067448], [-109.974274, 52.066818], [-109.972895, 52.066193], [-109.971513, 52.065571], [-109.970127, 52.064953], [-109.968738, 52.064338], [-109.967345, 52.063727], [-109.965949, 52.06312], [-109.964549, 52.062517], [-109.963145, 52.061917], [-109.961738, 52.06132], [-109.960328, 52.060728], [-109.958914, 52.060139], [-109.957496, 52.059554], [-109.956075, 52.058972], [-109.95465, 52.058394], [-109.953222, 52.057819], [-109.95179, 52.057249], [-109.950355, 52.056682], [-109.948916, 52.056118], [-109.947473, 52.055558], [-109.946027, 52.055002], [-109.944578, 52.05445], [-109.943125, 52.053901], [-109.941668, 52.053356], [-109.940208, 52.052814], [-109.938744, 52.052276], [-109.937277, 52.051742], [-109.935806, 52.051212], [-109.934332, 52.050685], [-109.932854, 52.050161], [-109.932062, 52.049884], [-109.931265, 52.049607], [-109.930465, 52.049332], [-109.929661, 52.049058], [-109.928853, 52.048785], [-109.928041, 52.048514], [-109.927225, 52.048244], [-109.926404, 52.047975], [-109.92558, 52.047708], [-109.924752, 52.047442], [-109.92392, 52.047177], [-109.923084, 52.046913], [-109.922243, 52.046651], [-109.921398, 52.04639], [-109.920549, 52.04613], [-109.919696, 52.045871], [-109.918839, 52.045614], [-109.917977, 52.045357], [-109.917111, 52.045102], [-109.916241, 52.044848], [-109.915366, 52.044596], [-109.914487, 52.044344], [-109.913603, 52.044094], [-109.912715, 52.043845], [-109.911822, 52.043596], [-109.910924, 52.043349], [-109.910022, 52.043104], [-109.909116, 52.042859], [-109.908204, 52.042615], [-109.907288, 52.042372], [-109.906367, 52.042131], [-109.905441, 52.04189], [-109.904511, 52.041651], [-109.903577, 52.041413], [-109.902637, 52.041176], [-109.901693, 52.040939], [-109.900743, 52.040704], [-109.899788, 52.04047], [-109.898828, 52.040237], [-109.897862, 52.040004], [-109.896891, 52.039773], [-109.895915, 52.039542], [-109.894933, 52.039312], [-109.893945, 52.039083], [-109.892952, 52.038855], [-109.891953, 52.038628], [-109.890948, 52.038402], [-109.889937, 52.038176], [-109.888921, 52.037951], [-109.887898, 52.037727], [-109.88687, 52.037504], [-109.885835, 52.037281], [-109.884793, 52.037059], [-109.883745, 52.036838], [-109.88269, 52.036617], [-109.881629, 52.036397], [-109.88056, 52.036177], [-109.879485, 52.035958], [-109.878402, 52.03574], [-109.877313, 52.035522], [-109.876215, 52.035304], [-109.87511, 52.035087], [-109.873997, 52.034871], [-109.872877, 52.034654], [-109.871221, 52.034338], [-109.869546, 52.034022], [-109.867853, 52.033707], [-109.866141, 52.033392], [-109.864408, 52.033077], [-109.862653, 52.032762], [-109.860876, 52.032447], [-109.859076, 52.032132], [-109.857253, 52.031816], [-109.855405, 52.031499], [-109.853528, 52.031182], [-109.851623, 52.030863], [-109.849687, 52.030542], [-109.847717, 52.030219], [-109.845712, 52.029894], [-109.843667, 52.029565], [-109.841741, 52.029259], [-109.839776, 52.028949], [-109.837767, 52.028635], [-109.83571, 52.028315], [-109.833602, 52.027991], [-109.831432, 52.027659], [-109.829193, 52.02732], [-109.826872, 52.02697], [-109.824757, 52.026653], [-109.82255, 52.026324], [-109.82023, 52.02598], [-109.817755, 52.025614], [-109.812923, 52.024903], [-109.803759, 52.02356], [-109.80004, 52.023014], [-109.796188, 52.022446], [-109.792731, 52.021933], [-109.790725, 52.021634], [-109.788796, 52.021345], [-109.786932, 52.021065], [-109.785124, 52.020791], [-109.783361, 52.020523], [-109.781642, 52.02026], [-109.779962, 52.020001], [-109.778316, 52.019747], [-109.776305, 52.019433], [-109.774339, 52.019124], [-109.772413, 52.018818], [-109.770525, 52.018516], [-109.76867, 52.018216], [-109.766847, 52.017919], [-109.765053, 52.017623], [-109.763287, 52.017329], [-109.761545, 52.017037], [-109.759827, 52.016745], [-109.758132, 52.016454], [-109.75646, 52.016164], [-109.754808, 52.015875], [-109.753177, 52.015586], [-109.751565, 52.015297], [-109.749971, 52.015008], [-109.748627, 52.014764], [-109.747275, 52.01452], [-109.745916, 52.014277], [-109.74455, 52.014034], [-109.743177, 52.013791], [-109.741796, 52.013548], [-109.740407, 52.013306], [-109.73901, 52.013064], [-109.737606, 52.012822], [-109.736193, 52.01258], [-109.734771, 52.012338], [-109.733341, 52.012097], [-109.731902, 52.011855], [-109.730454, 52.011614], [-109.728996, 52.011372], [-109.727529, 52.01113], [-109.726054, 52.010889], [-109.724568, 52.010647], [-109.723072, 52.010405], [-109.721565, 52.010163], [-109.720047, 52.009921], [-109.718517, 52.009678], [-109.716976, 52.009434], [-109.715422, 52.00919], [-109.713856, 52.008946], [-109.712277, 52.008701], [-109.710683, 52.008455], [-109.709076, 52.008209], [-109.707454, 52.007961], [-109.705816, 52.007712], [-109.704162, 52.007463], [-109.702491, 52.007212], [-109.699496, 52.006765], [-109.696441, 52.006314], [-109.693319, 52.005857], [-109.690122, 52.005392], [-109.686845, 52.00492], [-109.683473, 52.004438], [-109.679991, 52.003943], [-109.67638, 52.003434], [-109.673155, 52.002982], [-109.669789, 52.002512], [-109.666249, 52.002021], [-109.662471, 52.001498], [-109.659011, 52.001021], [-109.655169, 52.000493], [-109.641471, 51.998614], [-109.635963, 51.997857], [-109.630279, 51.997073], [-109.625173, 51.996365], [-109.622226, 51.995954], [-109.619392, 51.995557], [-109.61665, 51.995172], [-109.61399, 51.994796], [-109.611396, 51.994427], [-109.608865, 51.994066], [-109.606389, 51.99371], [-109.603964, 51.99336], [-109.60102, 51.992932], [-109.59814, 51.992509], [-109.595317, 51.992092], [-109.592546, 51.991679], [-109.589823, 51.99127], [-109.587144, 51.990864], [-109.584507, 51.990461], [-109.581909, 51.99006], [-109.579343, 51.98966], [-109.576812, 51.989262], [-109.574314, 51.988865], [-109.571846, 51.98847], [-109.569406, 51.988075], [-109.566995, 51.98768], [-109.56461, 51.987286], [-109.562251, 51.986892], [-109.560787, 51.986645], [-109.559332, 51.986399], [-109.557886, 51.986152], [-109.556449, 51.985905], [-109.555021, 51.985658], [-109.5536, 51.985411], [-109.552189, 51.985163], [-109.550785, 51.984916], [-109.549389, 51.984668], [-109.548, 51.984419], [-109.54662, 51.984171], [-109.545246, 51.983921], [-109.54388, 51.983672], [-109.542521, 51.983422], [-109.541169, 51.983172], [-109.539823, 51.982921], [-109.538484, 51.982669], [-109.537152, 51.982417], [-109.535826, 51.982165], [-109.534506, 51.981912], [-109.533193, 51.981658], [-109.531886, 51.981403], [-109.530585, 51.981148], [-109.529289, 51.980893], [-109.528, 51.980637], [-109.526717, 51.98038], [-109.525439, 51.980122], [-109.524167, 51.979864], [-109.5229, 51.979604], [-109.521639, 51.979345], [-109.520383, 51.979084], [-109.519132, 51.978822], [-109.517885, 51.97856], [-109.516643, 51.978296], [-109.515407, 51.978032], [-109.514175, 51.977767], [-109.512948, 51.977501], [-109.511726, 51.977234], [-109.510509, 51.976966], [-109.509297, 51.976698], [-109.50809, 51.976428], [-109.506887, 51.976158], [-109.505689, 51.975886], [-109.504496, 51.975614], [-109.503307, 51.975341], [-109.502122, 51.975067], [-109.500942, 51.974791], [-109.499767, 51.974515], [-109.498596, 51.974238], [-109.497429, 51.97396], [-109.496266, 51.97368], [-109.495108, 51.9734], [-109.493953, 51.973119], [-109.492803, 51.972836], [-109.491657, 51.972553], [-109.490515, 51.972269], [-109.489378, 51.971983], [-109.488244, 51.971696], [-109.487114, 51.971408], [-109.485988, 51.97112], [-109.484866, 51.97083], [-109.483747, 51.970539], [-109.482633, 51.970246], [-109.481523, 51.969953], [-109.480322, 51.969633], [-109.479118, 51.969308], [-109.477911, 51.968978], [-109.476699, 51.968642], [-109.475483, 51.968302], [-109.474263, 51.967957], [-109.473039, 51.967607], [-109.47181, 51.967252], [-109.470577, 51.966891], [-109.469338, 51.966525], [-109.468094, 51.966154], [-109.466845, 51.965777], [-109.465591, 51.965395], [-109.46433, 51.965008], [-109.463064, 51.964614], [-109.461791, 51.964215], [-109.460513, 51.963811], [-109.459229, 51.963401], [-109.457938, 51.962985], [-109.456638, 51.962563], [-109.455332, 51.962135], [-109.454016, 51.961701], [-109.452693, 51.96126], [-109.45136, 51.960813], [-109.450018, 51.960359], [-109.448666, 51.959898], [-109.447304, 51.95943], [-109.44593, 51.958954], [-109.444545, 51.958472], [-109.443147, 51.957981], [-109.441736, 51.957483], [-109.440311, 51.956976], [-109.43916, 51.956564], [-109.437999, 51.956147], [-109.436827, 51.955724], [-109.435644, 51.955294], [-109.434449, 51.954858], [-109.433241, 51.954416], [-109.43202, 51.953966], [-109.430784, 51.95351], [-109.429535, 51.953046], [-109.428269, 51.952574], [-109.426985, 51.952094], [-109.425682, 51.951604], [-109.424358, 51.951105], [-109.423011, 51.950596], [-109.421638, 51.950075], [-109.420237, 51.949541], [-109.417907, 51.94865], [-109.415475, 51.947716], [-109.412916, 51.946728], [-109.410182, 51.94567], [-109.40777, 51.944733], [-109.405086, 51.943688], [-109.396031, 51.940156], [-109.392589, 51.938815], [-109.389135, 51.937473], [-109.386021, 51.936267], [-109.38431, 51.935607], [-109.38266, 51.934972], [-109.38106, 51.934358], [-109.379503, 51.933763], [-109.377983, 51.933184], [-109.376496, 51.932619], [-109.375039, 51.932068], [-109.373609, 51.931529], [-109.372014, 51.93093], [-109.370448, 51.930345], [-109.368908, 51.929773], [-109.367391, 51.929212], [-109.365896, 51.928662], [-109.364421, 51.928122], [-109.362964, 51.927593], [-109.361525, 51.927072], [-109.360101, 51.92656], [-109.358691, 51.926057], [-109.357296, 51.925562], [-109.355914, 51.925075], [-109.354545, 51.924595], [-109.353188, 51.924123], [-109.351842, 51.923658], [-109.350506, 51.9232], [-109.349086, 51.922717], [-109.347678, 51.922242], [-109.346279, 51.921774], [-109.344891, 51.921313], [-109.343512, 51.92086], [-109.342141, 51.920413], [-109.34078, 51.919973], [-109.339427, 51.91954], [-109.338081, 51.919113], [-109.336742, 51.918693], [-109.335411, 51.918279], [-109.334087, 51.917872], [-109.332769, 51.91747], [-109.331457, 51.917075], [-109.330151, 51.916686], [-109.328851, 51.916302], [-109.327555, 51.915924], [-109.326265, 51.915552], [-109.32498, 51.915186], [-109.323699, 51.914826], [-109.322423, 51.914471], [-109.321152, 51.914121], [-109.319885, 51.913778], [-109.318622, 51.91344], [-109.317363, 51.913107], [-109.316108, 51.912779], [-109.314857, 51.912457], [-109.313609, 51.912141], [-109.312365, 51.911829], [-109.311124, 51.911523], [-109.309886, 51.911223], [-109.308651, 51.910927], [-109.306684, 51.910462], [-109.304715, 51.91], [-109.302743, 51.909543], [-109.30077, 51.909088], [-109.298794, 51.908638], [-109.296816, 51.908191], [-109.294836, 51.907748], [-109.292854, 51.907309], [-109.29087, 51.906873], [-109.288883, 51.906441], [-109.286895, 51.906013], [-109.284904, 51.905589], [-109.282911, 51.905168], [-109.280917, 51.904751], [-109.27892, 51.904337], [-109.276921, 51.903928], [-109.274919, 51.903522], [-109.272916, 51.903119], [-109.270911, 51.902721], [-109.268903, 51.902326], [-109.266894, 51.901934], [-109.264882, 51.901547], [-109.262868, 51.901163], [-109.260852, 51.900783], [-109.258834, 51.900407], [-109.256814, 51.900034], [-109.254791, 51.899665], [-109.252767, 51.899299], [-109.25074, 51.898938], [-109.248711, 51.89858], [-109.246681, 51.898226], [-109.244648, 51.897875], [-109.242613, 51.897528], [-109.240575, 51.897185], [-109.238536, 51.896846], [-109.236495, 51.89651], [-109.234451, 51.896178], [-109.232406, 51.89585], [-109.230358, 51.895525], [-109.228308, 51.895204], [-109.226256, 51.894887], [-109.224202, 51.894573], [-109.222146, 51.894264], [-109.220087, 51.893957], [-109.218027, 51.893655], [-109.215964, 51.893356], [-109.2139, 51.893061], [-109.211833, 51.89277], [-109.209764, 51.892482], [-109.207693, 51.892198], [-109.20562, 51.891918], [-109.203544, 51.891642], [-109.201467, 51.891369], [-109.199387, 51.8911], [-109.197306, 51.890834], [-109.195222, 51.890573], [-109.193136, 51.890315], [-109.191048, 51.890061], [-109.188958, 51.88981], [-109.186866, 51.889563], [-109.184771, 51.88932], [-109.182675, 51.88908], [-109.180576, 51.888845], [-109.178476, 51.888613], [-109.176373, 51.888384], [-109.174268, 51.88816], [-109.172161, 51.887939], [-109.170052, 51.887721], [-109.16794, 51.887508], [-109.165827, 51.887298], [-109.163712, 51.887092], [-109.161594, 51.886889], [-109.159474, 51.886691], [-109.157352, 51.886496], [-109.155228, 51.886304], [-109.153102, 51.886117], [-109.150974, 51.885933], [-109.148844, 51.885752], [-109.146711, 51.885576], [-109.144577, 51.885403], [-109.14244, 51.885234], [-109.140301, 51.885069], [-109.13816, 51.884907], [-109.136017, 51.884749], [-109.133872, 51.884595], [-109.131725, 51.884444], [-109.129575, 51.884297], [-109.127424, 51.884154], [-109.12527, 51.884014], [-109.123115, 51.883879], [-109.120957, 51.883747], [-109.118797, 51.883618], [-109.116635, 51.883494], [-109.11447, 51.883373], [-109.112304, 51.883255], [-109.110136, 51.883142], [-109.107965, 51.883032], [-109.105792, 51.882926], [-109.103618, 51.882823], [-109.101441, 51.882725], [-109.099262, 51.88263], [-109.097081, 51.882538], [-109.094897, 51.882451], [-109.092712, 51.882367], [-109.090524, 51.882286], [-109.088335, 51.88221], [-109.086143, 51.882137], [-109.083949, 51.882068], [-109.081753, 51.882003], [-109.079555, 51.881941], [-109.077355, 51.881883], [-109.075153, 51.881829], [-109.072948, 51.881778], [-109.070742, 51.881731], [-109.068533, 51.881688], [-109.066322, 51.881649], [-109.064109, 51.881613], [-109.061894, 51.881581], [-109.059677, 51.881552], [-109.057458, 51.881528], [-109.055236, 51.881507], [-109.053013, 51.88149], [-109.050787, 51.881476], [-109.04856, 51.881466], [-109.04633, 51.88146], [-109.044098, 51.881458], [-109.041864, 51.881459], [-109.039627, 51.881464]], [[-109.698877, 52.404128], [-109.693992, 52.404214], [-109.689107, 52.404303], [-109.684222, 52.404395], [-109.679338, 52.40449], [-109.674454, 52.404588], [-109.66957, 52.404689], [-109.664686, 52.404792], [-109.659803, 52.404899], [-109.65492, 52.405009], [-109.650037, 52.405121], [-109.645155, 52.405237], [-109.640273, 52.405355], [-109.635391, 52.405476], [-109.630509, 52.405601], [-109.625628, 52.405728], [-109.620747, 52.405858], [-109.615867, 52.405991], [-109.610986, 52.406127], [-109.606106, 52.406266], [-109.601227, 52.406408], [-109.596347, 52.406553], [-109.591468, 52.4067], [-109.586589, 52.406851], [-109.581711, 52.407004], [-109.576832, 52.407161], [-109.571954, 52.40732], [-109.567077, 52.407483], [-109.562199, 52.407648], [-109.557322, 52.407816], [-109.552445, 52.407987], [-109.547569, 52.408161], [-109.542693, 52.408338], [-109.536751, 52.408558], [-109.53081, 52.408782], [-109.52487, 52.40901], [-109.518929, 52.409243], [-109.51299, 52.40948], [-109.50705, 52.409721], [-109.501111, 52.409967], [-109.495173, 52.410217], [-109.489235, 52.410472], [-109.483297, 52.41073], [-109.47736, 52.410994], [-109.471424, 52.411261], [-109.465487, 52.411533], [-109.459551, 52.411809], [-109.453616, 52.41209], [-109.447681, 52.412375], [-109.441747, 52.412664], [-109.435813, 52.412957], [-109.429879, 52.413255], [-109.423946, 52.413558], [-109.418013, 52.413864], [-109.412081, 52.414175], [-109.406149, 52.41449], [-109.400217, 52.41481], [-109.394286, 52.415134], [-109.388356, 52.415462], [-109.382426, 52.415795], [-109.376496, 52.416132], [-109.370567, 52.416474], [-109.364638, 52.416819], [-109.35871, 52.417169], [-109.352782, 52.417524]], [[-109.89499, 53.184953], [-109.894452, 53.183575], [-109.893911, 53.182197], [-109.893366, 53.180819], [-109.892817, 53.179443], [-109.892264, 53.178067], [-109.891708, 53.176692], [-109.891148, 53.175318], [-109.890585, 53.173944], [-109.890018, 53.172572], [-109.889447, 53.1712], [-109.888873, 53.169828], [-109.888294, 53.168458], [-109.887713, 53.167088], [-109.887127, 53.165719], [-109.886538, 53.16435], [-109.885945, 53.162983], [-109.885349, 53.161616], [-109.884749, 53.160249], [-109.884145, 53.158884], [-109.883538, 53.157519], [-109.882927, 53.156155], [-109.882312, 53.154792], [-109.881694, 53.153429], [-109.881072, 53.152068], [-109.880446, 53.150706], [-109.879817, 53.149346], [-109.879184, 53.147986], [-109.878548, 53.146628], [-109.877907, 53.145269], [-109.877263, 53.143912], [-109.876616, 53.142555], [-109.875965, 53.141199], [-109.87531, 53.139844], [-109.874651, 53.13849], [-109.873989, 53.137136], [-109.873323, 53.135783], [-109.872654, 53.134431], [-109.87198, 53.133079], [-109.871304, 53.131728], [-109.870623, 53.130378], [-109.869939, 53.129029], [-109.869251, 53.12768], [-109.86856, 53.126332], [-109.867865, 53.124985], [-109.867166, 53.123639], [-109.866463, 53.122293], [-109.865757, 53.120948], [-109.865047, 53.119604], [-109.864334, 53.118261], [-109.863617, 53.116918], [-109.862896, 53.115576], [-109.862172, 53.114235], [-109.861444, 53.112894], [-109.860712, 53.111554], [-109.859977, 53.110215], [-109.859238, 53.108877], [-109.858495, 53.107539], [-109.857749, 53.106203], [-109.856999, 53.104866], [-109.856245, 53.103531], [-109.855488, 53.102196], [-109.854727, 53.100862], [-109.853963, 53.099529], [-109.853194, 53.098197], [-109.852555, 53.097095], [-109.851908, 53.095989], [-109.851255, 53.094879], [-109.850593, 53.093764], [-109.849925, 53.092644], [-109.849248, 53.09152], [-109.848565, 53.09039], [-109.847873, 53.089256], [-109.847174, 53.088116], [-109.846467, 53.086972], [-109.845751, 53.085821], [-109.845028, 53.084665], [-109.844296, 53.083503], [-109.843557, 53.082335], [-109.842808, 53.08116], [-109.842051, 53.079979], [-109.841286, 53.078793], [-109.840513, 53.077599], [-109.83973, 53.076398], [-109.838938, 53.07519], [-109.838136, 53.073974], [-109.837325, 53.07275], [-109.836504, 53.071517], [-109.835673, 53.070275], [-109.834831, 53.069025], [-109.833979, 53.067765], [-109.833116, 53.066494], [-109.832242, 53.065214], [-109.831356, 53.063922], [-109.830458, 53.062618], [-109.829548, 53.061302], [-109.828625, 53.059973], [-109.827806, 53.058799], [-109.826976, 53.057614], [-109.826135, 53.056417], [-109.825283, 53.055207], [-109.824418, 53.053985], [-109.823541, 53.052749], [-109.822651, 53.051499], [-109.821747, 53.050233], [-109.82083, 53.048952], [-109.819897, 53.047653], [-109.818948, 53.046335], [-109.817981, 53.044996], [-109.816996, 53.043635], [-109.81599, 53.042249], [-109.814961, 53.040836], [-109.813908, 53.039392], [-109.81235, 53.037262], [-109.810726, 53.035047], [-109.809021, 53.032729], [-109.807212, 53.030274], [-109.805352, 53.027756], [-109.803293, 53.024973], [-109.795176, 53.01402], [-109.793341, 53.011542], [-109.791697, 53.009317], [-109.789805, 53.006753], [-109.788042, 53.004358], [-109.786373, 53.002086], [-109.78478, 52.99991], [-109.783596, 52.998295], [-109.782403, 52.996673], [-109.7812, 52.995045], [-109.779988, 52.99341], [-109.778766, 52.991769], [-109.777534, 52.99012], [-109.776291, 52.988465], [-109.775039, 52.986802], [-109.773776, 52.985132], [-109.772502, 52.983453], [-109.771218, 52.981767], [-109.769923, 52.980073], [-109.768616, 52.97837], [-109.767299, 52.976658], [-109.765969, 52.974937], [-109.764628, 52.973207], [-109.763276, 52.971469], [-109.761912, 52.969721], [-109.760535, 52.967962], [-109.759145, 52.966193], [-109.757743, 52.964412], [-109.756326, 52.96262], [-109.754896, 52.960816], [-109.753451, 52.958999], [-109.751992, 52.95717], [-109.750518, 52.955327], [-109.749028, 52.953469], [-109.747522, 52.951597], [-109.746, 52.94971], [-109.74446, 52.947806], [-109.742902, 52.945884], [-109.741325, 52.943945], [-109.739917, 52.942217], [-109.738493, 52.940474], [-109.737053, 52.938714], [-109.735595, 52.936937], [-109.73412, 52.935141], [-109.732626, 52.933327], [-109.731113, 52.931493], [-109.729578, 52.929636], [-109.728024, 52.92776], [-109.726446, 52.925858], [-109.724844, 52.923931], [-109.723216, 52.921975], [-109.72156, 52.919989], [-109.719874, 52.91797], [-109.718155, 52.915914], [-109.716399, 52.913819], [-109.713291, 52.910115], [-109.710041, 52.906252], [-109.706619, 52.902191], [-109.702963, 52.89786], [-109.69961, 52.893894], [-109.695883, 52.889491], [-109.682581, 52.873786], [-109.677231, 52.867464], [-109.674379, 52.864089], [-109.671714, 52.860932], [-109.669186, 52.857932], [-109.666767, 52.855059], [-109.663915, 52.851665], [-109.661175, 52.848398], [-109.658529, 52.845236], [-109.655965, 52.842165], [-109.653468, 52.839167], [-109.651035, 52.836239], [-109.64866, 52.833372], [-109.646337, 52.83056], [-109.644921, 52.828842], [-109.643523, 52.827143], [-109.642142, 52.825461], [-109.640777, 52.823795], [-109.639426, 52.822144], [-109.638091, 52.820508], [-109.63677, 52.818886], [-109.635462, 52.817278], [-109.634167, 52.815681], [-109.632885, 52.814097], [-109.631615, 52.812525], [-109.630357, 52.810964], [-109.62911, 52.809414], [-109.627875, 52.807874], [-109.626651, 52.806344], [-109.625437, 52.804824], [-109.624232, 52.803311], [-109.623037, 52.801807], [-109.621852, 52.800312], [-109.620676, 52.798825], [-109.61951, 52.797346], [-109.618354, 52.795876], [-109.617206, 52.794413], [-109.616067, 52.792957], [-109.614937, 52.791508], [-109.613815, 52.790067], [-109.612702, 52.788632], [-109.611597, 52.787204], [-109.6105, 52.785782], [-109.60941, 52.784367], [-109.608329, 52.782957], [-109.607255, 52.781554], [-109.604306, 52.777689], [-109.601364, 52.773825], [-109.598429, 52.769962], [-109.595501, 52.766101], [-109.592581, 52.76224], [-109.589667, 52.758381], [-109.58676, 52.754522], [-109.583861, 52.750665], [-109.580968, 52.746808], [-109.578083, 52.742953], [-109.575205, 52.739099], [-109.572333, 52.735246], [-109.569469, 52.731394], [-109.566612, 52.727542], [-109.563762, 52.723692], [-109.560919, 52.719843], [-109.558083, 52.715995], [-109.555254, 52.712149], [-109.552432, 52.708303], [-109.549618, 52.704458], [-109.54681, 52.700614], [-109.544009, 52.696771], [-109.541216, 52.69293], [-109.538429, 52.689089], [-109.53565, 52.685249], [-109.532877, 52.68141], [-109.530112, 52.677573], [-109.527353, 52.673736], [-109.524602, 52.669901], [-109.521858, 52.666066], [-109.51912, 52.662233], [-109.51639, 52.6584], [-109.513667, 52.654569], [-109.510951, 52.650738], [-109.508242, 52.646909], [-109.50554, 52.64308], [-109.502845, 52.639253], [-109.500157, 52.635426], [-109.497476, 52.631601], [-109.494802, 52.627777], [-109.492135, 52.623953], [-109.489475, 52.620131], [-109.486822, 52.61631], [-109.484177, 52.612489], [-109.481538, 52.60867], [-109.478906, 52.604851], [-109.476281, 52.601034], [-109.473664, 52.597218], [-109.471053, 52.593402], [-109.468449, 52.589588], [-109.465853, 52.585775], [-109.463263, 52.581962], [-109.46068, 52.578151], [-109.458105, 52.574341], [-109.455536, 52.570531], [-109.452975, 52.566723], [-109.45042, 52.562915], [-109.447873, 52.559109], [-109.445332, 52.555304], [-109.442799, 52.551499], [-109.440272, 52.547696], [-109.437753, 52.543893], [-109.43524, 52.540092], [-109.432735, 52.536291], [-109.431777, 52.534834], [-109.430804, 52.533351], [-109.429814, 52.531838], [-109.428806, 52.530294], [-109.427778, 52.528715], [-109.426726, 52.527096], [-109.425647, 52.525432], [-109.424536, 52.523715], [-109.423387, 52.521937], [-109.422192, 52.520084], [-109.419612, 52.516074], [-109.416891, 52.511835], [-109.41148, 52.503392], [-109.409204, 52.499843], [-109.406814, 52.496122], [-109.404666, 52.492785], [-109.403398, 52.49082], [-109.402177, 52.488931], [-109.400995, 52.487106], [-109.399845, 52.485335], [-109.398722, 52.483609], [-109.397624, 52.481925], [-109.396547, 52.480279], [-109.39549, 52.478666], [-109.393865, 52.476195], [-109.39222, 52.473704], [-109.390555, 52.471192], [-109.388869, 52.468658], [-109.387161, 52.4661], [-109.385431, 52.463518], [-109.383677, 52.460909], [-109.381899, 52.458273], [-109.380097, 52.45561], [-109.378268, 52.452916], [-109.376411, 52.450189], [-109.374525, 52.447426], [-109.372607, 52.444626], [-109.370655, 52.441785], [-109.368668, 52.4389], [-109.366643, 52.435966], [-109.364633, 52.433063], [-109.36258, 52.430105], [-109.360481, 52.427087], [-109.358331, 52.424002], [-109.356126, 52.420844], [-109.353856, 52.4176], [-109.351513, 52.414258], [-109.349084, 52.410799], [-109.346826, 52.407588], [-109.344468, 52.404239], [-109.341989, 52.400722], [-109.339345, 52.396976], [-109.334133, 52.389598], [-109.324133, 52.375453], [-109.32004, 52.36966], [-109.315788, 52.363635], [-109.311976, 52.358222], [-109.309756, 52.355065], [-109.307623, 52.352027], [-109.305563, 52.349089], [-109.303565, 52.346236], [-109.30162, 52.343454], [-109.299724, 52.340736], [-109.297871, 52.338077], [-109.296059, 52.335469], [-109.293836, 52.332266], [-109.291666, 52.329129], [-109.289542, 52.326051], [-109.287462, 52.323028], [-109.285421, 52.320054], [-109.283417, 52.317125], [-109.281448, 52.314238], [-109.279512, 52.31139], [-109.277604, 52.308575], [-109.275725, 52.305793], [-109.273875, 52.303044], [-109.272051, 52.300324], [-109.270252, 52.297633], [-109.268478, 52.294968], [-109.266727, 52.292329], [-109.265, 52.289714], [-109.263787, 52.287874], [-109.262571, 52.286025], [-109.261351, 52.284166], [-109.260126, 52.282297], [-109.258897, 52.280418], [-109.257663, 52.278529], [-109.256425, 52.27663], [-109.255181, 52.274719], [-109.253932, 52.272798], [-109.252678, 52.270865], [-109.251419, 52.26892], [-109.250153, 52.266963], [-109.248882, 52.264994], [-109.247604, 52.263012], [-109.245029, 52.259007], [-109.242429, 52.254953], [-109.239798, 52.250838], [-109.237134, 52.246658], [-109.234434, 52.242409], [-109.231693, 52.238086], [-109.228908, 52.23368], [-109.226072, 52.229183], [-109.223181, 52.224586], [-109.220845, 52.220865], [-109.218465, 52.217066], [-109.216035, 52.213182], [-109.213549, 52.2092], [-109.211002, 52.205116], [-109.208381, 52.200905], [-109.205673, 52.196548], [-109.202858, 52.192013], [-109.200524, 52.188249], [-109.198087, 52.184315], [-109.192775, 52.175731], [-109.187715, 52.167542], [-109.175692, 52.148071], [-109.169658, 52.138302], [-109.166718, 52.133547], [-109.163948, 52.129071], [-109.161305, 52.124804], [-109.158765, 52.120707], [-109.156323, 52.116772], [-109.153952, 52.112956], [-109.151642, 52.109242], [-109.149385, 52.105619], [-109.147174, 52.102073], [-109.145005, 52.0986], [-109.142873, 52.095192], [-109.140777, 52.091845], [-109.140121, 52.090802], [-109.139456, 52.089751], [-109.138781, 52.088692], [-109.138096, 52.087623], [-109.137402, 52.086545], [-109.136697, 52.085458], [-109.135981, 52.084359], [-109.135254, 52.08325], [-109.134515, 52.08213], [-109.133765, 52.080997], [-109.133003, 52.079852], [-109.132227, 52.078692], [-109.131437, 52.077517], [-109.130633, 52.076327], [-109.129814, 52.075119], [-109.128978, 52.073892], [-109.128099, 52.072608], [-109.127201, 52.0713], [-109.126281, 52.069966], [-109.125337, 52.068603], [-109.124368, 52.067208], [-109.12337, 52.065776], [-109.122339, 52.064302], [-109.121269, 52.062777], [-109.120255, 52.061335], [-109.119196, 52.059833], [-109.118082, 52.058256], [-109.116893, 52.056576], [-109.11453, 52.053244], [-109.109955, 52.046805], [-109.108073, 52.044153], [-109.106114, 52.041388], [-109.104361, 52.038905], [-109.103338, 52.037452], [-109.102357, 52.036055], [-109.10141, 52.034704], [-109.100493, 52.033392], [-109.099601, 52.032112], [-109.098733, 52.030863], [-109.097886, 52.02964], [-109.097059, 52.028441], [-109.096044, 52.026963], [-109.095054, 52.025517], [-109.094088, 52.024098], [-109.093143, 52.022704], [-109.092219, 52.021333], [-109.091314, 52.019982], [-109.090426, 52.018651], [-109.089556, 52.017338], [-109.088701, 52.01604], [-109.087861, 52.014757], [-109.087036, 52.013489], [-109.086225, 52.012235], [-109.085429, 52.010993], [-109.084645, 52.009764], [-109.083874, 52.008547], [-109.083116, 52.00734], [-109.082644, 52.006584], [-109.082177, 52.005833], [-109.081714, 52.005085], [-109.081256, 52.004341], [-109.080803, 52.0036], [-109.080354, 52.002864], [-109.07991, 52.00213], [-109.079469, 52.0014], [-109.079034, 52.000674], [-109.078602, 51.99995], [-109.078175, 51.99923], [-109.077751, 51.998512], [-109.077332, 51.997798], [-109.076917, 51.997086], [-109.076506, 51.996377], [-109.076099, 51.995671], [-109.075695, 51.994967], [-109.075296, 51.994266], [-109.0749, 51.993568], [-109.074509, 51.992871], [-109.074121, 51.992178], [-109.073737, 51.991486], [-109.073356, 51.990797], [-109.07298, 51.990111], [-109.072607, 51.989426], [-109.072237, 51.988744], [-109.071872, 51.988063], [-109.07151, 51.987385], [-109.071151, 51.986709], [-109.070796, 51.986035], [-109.070445, 51.985362], [-109.070097, 51.984692], [-109.069752, 51.984023], [-109.069411, 51.983355], [-109.069073, 51.982689], [-109.068738, 51.982025], [-109.068407, 51.981362], [-109.06808, 51.980702], [-109.067756, 51.980043], [-109.067435, 51.979385], [-109.067117, 51.97873], [-109.066803, 51.978075], [-109.066493, 51.977423], [-109.066185, 51.976771], [-109.065881, 51.976122], [-109.065581, 51.975473], [-109.065283, 51.974827], [-109.064989, 51.974181], [-109.064698, 51.973537], [-109.064411, 51.972894], [-109.064126, 51.972253], [-109.063845, 51.971613], [-109.063567, 51.970974], [-109.063293, 51.970336], [-109.063021, 51.9697], [-109.062753, 51.969065], [-109.062488, 51.968431], [-109.062226, 51.967798], [-109.061967, 51.967167], [-109.061712, 51.966536], [-109.06146, 51.965907], [-109.06121, 51.965279], [-109.060964, 51.964652], [-109.060721, 51.964026], [-109.060204, 51.962677], [-109.059693, 51.961327], [-109.059188, 51.959977], [-109.058689, 51.958625], [-109.058195, 51.957272], [-109.057708, 51.955918], [-109.057227, 51.954564], [-109.056751, 51.953208], [-109.056282, 51.951851], [-109.055818, 51.950493], [-109.055361, 51.949135], [-109.054909, 51.947775], [-109.054464, 51.946414], [-109.054024, 51.945052], [-109.05359, 51.943689], [-109.053163, 51.942325], [-109.052741, 51.940961], [-109.052325, 51.939595], [-109.051915, 51.938228], [-109.051511, 51.93686], [-109.051113, 51.935491], [-109.050721, 51.934121], [-109.050335, 51.93275], [-109.049955, 51.931378], [-109.049581, 51.930005], [-109.049213, 51.928631], [-109.048851, 51.927256], [-109.048494, 51.92588], [-109.048144, 51.924503], [-109.0478, 51.923125], [-109.047461, 51.921746], [-109.047129, 51.920366], [-109.046803, 51.918985], [-109.046482, 51.917603], [-109.046168, 51.91622], [-109.045859, 51.914836], [-109.045556, 51.913451], [-109.04526, 51.912064], [-109.044969, 51.910677], [-109.044684, 51.909289], [-109.044405, 51.9079], [-109.044133, 51.90651], [-109.043866, 51.905118], [-109.043605, 51.903726], [-109.04335, 51.902333], [-109.043101, 51.900939], [-109.042858, 51.899543], [-109.042621, 51.898147], [-109.04239, 51.89675], [-109.042165, 51.895352], [-109.041945, 51.893952], [-109.041732, 51.892552], [-109.041525, 51.891151], [-109.041323, 51.889748], [-109.041128, 51.888345], [-109.040939, 51.88694], [-109.040755, 51.885535], [-109.040578, 51.884129], [-109.040406, 51.882721], [-109.040241, 51.881313], [-109.040081, 51.879903], [-109.039927, 51.878493], [-109.03978, 51.877081], [-109.039638, 51.875669]]]}}
]
}
