{
"type": "FeatureCollection",
"features": [
{"type": "Feature", "properties": {"ProjectID": "P7897"}, "geometry": {"type": "LineString", "coordinates": [[72.64956, 32.96041], [72.632659, 32.968778], [72.61279, 32.980817], [72.574154, 33.021551], [72.541037, 33.075217], [72.517856, 33.131624], [72.503833, 33.150091], [72.475837, 33.189278], [72.440496, 33.261841], [72.451052, 33.274121], [72.509715, 33.305997], [72.610845, 33.377646], [72.67519, 33.399136], [72.780715, 33.428139], [72.833478, 33.439952], [72.891388, 33.438878], [72.941576, 33.461427], [72.980183, 33.490409], [73.034233, 33.526891], [73.064917, 33.542888], [73.074591, 33.552121], [73.074887, 33.553598]]}}
]
}
