{
"type": "FeatureCollection",
"features": [
{"type": "Feature", "properties": {"ProjectID": "P7895", "FID": 34, "Type": "Oleoduc", "Nom": "Sidi El Kilani - Skhira", "Ø": "8\"", "Shape__Length": 135652.91914872004}, "geometry": {"type": "LineString", "coordinates": [[10.09663, 34.314594], [10.093228, 34.324722], [10.097278, 34.355021], [10.105362, 34.367082], [10.115913, 34.381142], [10.127592, 34.388113], [10.150396, 34.405596], [10.166597, 34.430215], [10.175407, 34.449342], [10.185527, 34.474523], [10.190633, 34.490145], [10.193161, 34.496187], [10.201338, 34.512791], [10.211416, 34.533924], [10.217067, 34.544485], [10.228994, 34.566104], [10.239659, 34.584702], [10.250971, 34.605314], [10.267326, 34.635477], [10.276964, 34.665709], [10.287292, 34.700483], [10.294592, 34.736804], [10.299965, 34.767079], [10.309027, 34.797819], [10.357498, 34.935008], [10.367124, 34.959737], [10.371715, 34.983831], [10.371222, 35.004533], [10.375864, 35.031386], [10.382153, 35.05615], [10.390939, 35.079505], [10.39629, 35.09807], [10.403359, 35.118685], [10.40278, 35.133869], [10.398747, 35.143574], [10.395612, 35.156717], [10.396687, 35.170502], [10.406236, 35.188328], [10.414084, 35.204793], [10.419499, 35.226115], [10.419751, 35.240599], [10.426794, 35.25866]]}}
]
}
