{
"type": "FeatureCollection",
"features": [
{"type": "Feature", "properties": {"ProjectID": "P7909", "OBJECTID": 2832, "PIPE_NAME": "ANDR-A/ TCOT 24\" Crude", "REGION": "Peninsular Malaysia", "STATUS": "EXISTING", "FRM_LOC": "ANDRA", "TO_LOC": "TCOT", "FRM_FACILITY": "Angsi-A Drilling & Riser Platform", "TO_FACILITY": "Terengganu Crude Oil Terminal", "OPERATOR": "PCSB", "CONTENT": "OIL", "TYPE": "EXPORT LINE", "INSTALL_YEAR": null, "LGTH_KM": 165.5, "MATERIAL": "UNCLASSIFIED", "MAT_GRADE": "X-65", "OUTER_DIA_INCH": 24.0, "INNER_DIA_INCH": null, "WALL_THICK_INCH": null, "MAX_PRESSURE": null, "LANDING_PRESSURE": null, "DESIGN_CAPACITY": null, "CURRENT_PROD": null, "GLOBALID": "{4A0A5039-3EE3-4D45-B6D9-742462626D06}"}, "geometry": {"type": "LineString", "coordinates": [[104.726532, 5.211415], [104.721726, 5.220169], [104.720441, 5.222361], [104.719036, 5.224477], [104.717514, 5.226511], [104.71588, 5.228456], [104.71414, 5.230305], [104.712299, 5.232054], [104.710363, 5.233696], [104.708338, 5.235227], [104.70623, 5.236641], [104.704047, 5.237934], [104.701794, 5.239102], [104.699479, 5.240141], [104.69711, 5.241049], [104.694694, 5.241821], [104.692238, 5.242456], [104.689751, 5.242952], [104.687239, 5.243307], [104.684712, 5.24352], [104.682177, 5.24359], [104.665049, 5.243581], [104.66304, 5.243535], [104.610709, 5.241167], [104.608917, 5.241157], [104.607129, 5.24129], [104.605358, 5.241564], [104.603615, 5.241979], [104.601909, 5.242531], [104.600253, 5.243217], [104.597399, 5.244535], [104.595899, 5.245163], [104.594359, 5.24568], [104.592785, 5.246086], [104.591187, 5.246376], [104.589571, 5.246551], [104.587947, 5.246609], [104.517486, 5.246558], [104.515153, 5.246489], [104.512829, 5.246286], [104.51052, 5.245949], [104.508234, 5.24548], [104.505979, 5.24488], [104.503762, 5.244152], [104.501591, 5.243296], [104.499472, 5.242318], [104.497412, 5.241218], [104.495419, 5.240002], [104.027723, 4.935569], [104.026408, 4.934643], [104.025161, 4.933626], [104.02399, 4.932523], [104.022901, 4.931338], [104.021898, 4.930079], [104.011764, 4.916378], [104.010277, 4.914487], [104.008681, 4.912688], [104.006981, 4.910986], [104.005185, 4.909388], [104.003297, 4.9079], [104.001325, 4.906526], [103.58855, 4.636562], [103.586684, 4.635412], [103.584759, 4.634364], [103.582781, 4.633423], [103.580755, 4.632589], [103.578687, 4.631867], [103.576583, 4.631258], [103.574449, 4.630763], [103.560167, 4.627857], [103.558183, 4.627401], [103.556224, 4.626846], [103.554296, 4.626193], [103.552402, 4.625444], [103.550549, 4.6246], [103.54874, 4.623664], [103.528822, 4.612714], [103.52735, 4.611843], [103.525936, 4.61088], [103.524585, 4.60983], [103.523303, 4.608696], [103.522095, 4.607483], [103.520966, 4.606196], [103.519919, 4.604839], [103.510115, 4.591261], [103.508645, 4.589336], [103.507074, 4.587493], [103.505407, 4.585737], [103.503648, 4.584073], [103.501804, 4.582506], [103.499878, 4.581041], [103.497877, 4.579681], [103.495806, 4.578431], [103.493671, 4.577294], [103.491478, 4.576274], [103.489235, 4.575373], [103.486946, 4.574595], [103.484619, 4.57394], [103.479661, 4.572688], [103.477965, 4.5722], [103.476306, 4.571603], [103.474688, 4.570898], [103.47312, 4.57009], [103.465779, 4.565994], [103.465765, 4.565986], [103.458631, 4.56327], [103.458885, 4.562602], [103.45691, 4.561879]]}}
]
}
