{
"type": "FeatureCollection",
"features": [
{"type": "Feature", "properties": {"ProjectID": "P7951"}, "geometry": {"type": "LineString", "coordinates": [[-39.835447, -19.599422], [-39.847975, -19.605555], [-39.869688, -19.615068], [-39.889726, -19.625647], [-39.899094, -19.632657], [-39.906083, -19.640684], [-39.908946, -19.643422], [-39.911713, -19.646169], [-39.916275, -19.649751], [-39.92069, -19.654029], [-39.92609, -19.658472], [-39.931116, -19.661608], [-39.934539, -19.664613], [-39.944787, -19.677147], [-39.957726, -19.693538], [-39.968773, -19.704572], [-39.976904, -19.711572], [-39.984817, -19.718858], [-39.988731, -19.722481], [-39.990165, -19.724907], [-39.991599, -19.726595], [-39.993033, -19.728632], [-39.99499, -19.730464], [-39.99838, -19.734333], [-40.011292, -19.746964], [-40.014476, -19.750887], [-40.01609, -19.752547], [-40.017485, -19.75409], [-40.019035, -19.755746], [-40.020586, -19.757401], [-40.022146, -19.759125], [-40.02272, -19.760196], [-40.023408, -19.761034], [-40.025144, -19.762876], [-40.026084, -19.763823], [-40.026488, -19.764245], [-40.026806, -19.764697], [-40.030092, -19.768368], [-40.030642, -19.769131], [-40.031075, -19.769888], [-40.031768, -19.771757], [-40.033136, -19.775284], [-40.034734, -19.777958], [-40.041685, -19.788664], [-40.046982, -19.796774], [-40.051037, -19.802955], [-40.053375, -19.80922], [-40.054824, -19.81326], [-40.057812, -19.816862], [-40.059062, -19.81751], [-40.060162, -19.818196], [-40.061371, -19.818973], [-40.064085, -19.821344], [-40.067939, -19.82446], [-40.068333, -19.830211], [-40.068376, -19.831054], [-40.068142, -19.831522], [-40.06778, -19.831995], [-40.068943, -19.835122], [-40.065932, -19.836981], [-40.064202, -19.837173], [-40.063337, -19.837269], [-40.062455, -19.837324], [-40.061468, -19.83864], [-40.061998, -19.840053]]}},
{"type": "Feature", "properties": {"ProjectID": "P7951", "NMOleoduto": "Sem denominação", "NMProprietario": " ", "OBJECTID": 28, "CDRestricao": 2, "SHAPE_Length": 0.7579663253443101}, "geometry": {"type": "LineString", "coordinates": [[-39.756746, -19.457413], [-39.757737, -19.459634], [-39.758256, -19.460932], [-39.759137, -19.463278], [-39.760007, -19.464997], [-39.760877, -19.466637], [-39.762473, -19.469483], [-39.763983, -19.472353], [-39.765759, -19.475769], [-39.767464, -19.4789], [-39.769663, -19.483614], [-39.771535, -19.488328], [-39.773033, -19.492849], [-39.773624, -19.494546], [-39.773793, -19.495149], [-39.773902, -19.495468], [-39.774011, -19.495651], [-39.774108, -19.495799], [-39.774204, -19.495969], [-39.774325, -19.496208], [-39.774482, -19.496539], [-39.7747, -19.496914], [-39.774893, -19.497165], [-39.775087, -19.497484], [-39.775305, -19.497916], [-39.77551, -19.49819], [-39.775788, -19.498554], [-39.776151, -19.498963], [-39.776502, -19.499351], [-39.776865, -19.499772], [-39.777336, -19.500295], [-39.777772, -19.500785], [-39.778147, -19.501286], [-39.778909, -19.502174], [-39.779731, -19.503312], [-39.780566, -19.504439], [-39.780965, -19.505042], [-39.781182, -19.505543], [-39.781593, -19.506249], [-39.781799, -19.506716], [-39.781944, -19.506989], [-39.782125, -19.507376], [-39.782331, -19.50798], [-39.782548, -19.508504], [-39.782765, -19.509073], [-39.783177, -19.509893], [-39.783515, -19.510508], [-39.78389, -19.5111], [-39.78418, -19.511601], [-39.784543, -19.512455], [-39.784833, -19.513126], [-39.784942, -19.513388], [-39.785099, -19.513787], [-39.785292, -19.514425], [-39.785485, -19.514971], [-39.785824, -19.51603], [-39.786331, -19.517522], [-39.786512, -19.518171], [-39.787068, -19.519537], [-39.787504, -19.520129], [-39.788338, -19.521439], [-39.788762, -19.521962], [-39.789548, -19.522725], [-39.790226, -19.523271], [-39.790831, -19.523772], [-39.791884, -19.524591], [-39.793094, -19.525888], [-39.794534, -19.527299], [-39.795647, -19.528711], [-39.796844, -19.530567], [-39.797993, -19.533242], [-39.798706, -19.534973], [-39.799698, -19.536977], [-39.800314, -19.539129], [-39.800882, -19.541395], [-39.802438, -19.550517], [-39.802642, -19.553535], [-39.802472, -19.554765], [-39.802386, -19.555631], [-39.802217, -19.55644], [-39.802131, -19.557055], [-39.802083, -19.557385], [-39.802034, -19.557602], [-39.801949, -19.558023], [-39.801864, -19.558445], [-39.801852, -19.55898], [-39.801912, -19.559311], [-39.802045, -19.559686], [-39.802202, -19.560187], [-39.802444, -19.560551], [-39.802856, -19.560973], [-39.803279, -19.561257], [-39.804006, -19.561735], [-39.80455, -19.562099], [-39.805047, -19.562508], [-39.805979, -19.5631], [-39.806366, -19.56343], [-39.80725, -19.564158], [-39.807964, -19.565034], [-39.808327, -19.565558], [-39.808521, -19.565911], [-39.808581, -19.56599], [-39.808714, -19.566241], [-39.808787, -19.566457], [-39.809368, -19.566958], [-39.809767, -19.567185], [-39.810252, -19.567492], [-39.810796, -19.567822], [-39.811583, -19.568232], [-39.815024, -19.570484], [-39.830861, -19.584094], [-39.835447, -19.599422]]}}
]
}
