{
"type": "FeatureCollection",
"features": [
{"type": "Feature", "properties": {"ProjectID": "P7953", "NMOleoduto": "Sem denominação", "NMProprietario": " ", "OBJECTID": 5, "CDRestricao": 2, "SHAPE_Length": 0.4099612329187296}, "geometry": {"type": "LineString", "coordinates": [[-46.802926, -23.510069], [-46.802971, -23.51005], [-46.8031, -23.509999], [-46.80319, -23.50997], [-46.803288, -23.509941], [-46.803509, -23.509899], [-46.80371, -23.509861], [-46.803892, -23.509831], [-46.804101, -23.509809], [-46.804332, -23.509779], [-46.804603, -23.509745], [-46.804815, -23.509725], [-46.804947, -23.50971], [-46.805119, -23.509689], [-46.805261, -23.509676], [-46.805349, -23.509666], [-46.805446, -23.509658], [-46.805531, -23.509656], [-46.805686, -23.50966], [-46.805822, -23.509676], [-46.805989, -23.509693], [-46.806064, -23.509701], [-46.806147, -23.509714], [-46.806174, -23.509725], [-46.806242, -23.509756], [-46.806337, -23.509808], [-46.806397, -23.509853], [-46.806444, -23.509891], [-46.806494, -23.509931], [-46.806536, -23.509957], [-46.80658, -23.509974], [-46.806635, -23.509988], [-46.806747, -23.510009], [-46.806891, -23.510041], [-46.807017, -23.510066], [-46.807135, -23.51007], [-46.807243, -23.510067], [-46.807511, -23.510055], [-46.807672, -23.510045], [-46.807881, -23.510015], [-46.808133, -23.509969], [-46.80838, -23.509906], [-46.808489, -23.509884], [-46.808574, -23.509863], [-46.808635, -23.50984], [-46.808693, -23.509812], [-46.808739, -23.50977], [-46.808868, -23.509644], [-46.808955, -23.50956], [-46.809116, -23.509409], [-46.809255, -23.509285], [-46.809523, -23.509053], [-46.809799, -23.508794], [-46.809925, -23.508665], [-46.810135, -23.508463], [-46.810257, -23.508358], [-46.810301, -23.508321], [-46.810348, -23.508297], [-46.810376, -23.508281], [-46.810404, -23.508271], [-46.810429, -23.508264], [-46.810456, -23.508259], [-46.810505, -23.508255], [-46.810531, -23.508254], [-46.810738, -23.508255], [-46.811003, -23.508254], [-46.811179, -23.508244], [-46.811427, -23.508212], [-46.81165, -23.508151], [-46.811783, -23.508103], [-46.811961, -23.508082], [-46.812067, -23.508071], [-46.812187, -23.508064], [-46.81229, -23.508058], [-46.812187, -23.508064], [-46.812067, -23.508071], [-46.811961, -23.508082], [-46.811783, -23.508103], [-46.81165, -23.508151], [-46.811427, -23.508212], [-46.811179, -23.508244], [-46.811003, -23.508254], [-46.810738, -23.508255], [-46.810531, -23.508254], [-46.810505, -23.508255], [-46.810456, -23.508259], [-46.810429, -23.508264], [-46.810404, -23.508271], [-46.810376, -23.508281], [-46.810348, -23.508297], [-46.810301, -23.508321], [-46.810257, -23.508358], [-46.810135, -23.508463], [-46.809925, -23.508665], [-46.809799, -23.508794], [-46.809523, -23.509053], [-46.809255, -23.509285], [-46.809116, -23.509409], [-46.808955, -23.50956], [-46.808868, -23.509644], [-46.808739, -23.50977], [-46.808693, -23.509812], [-46.808635, -23.50984], [-46.808574, -23.509863], [-46.808489, -23.509884], [-46.80838, -23.509906], [-46.808133, -23.509969], [-46.807881, -23.510015], [-46.807672, -23.510045], [-46.807511, -23.510055], [-46.807243, -23.510067], [-46.807135, -23.51007], [-46.807017, -23.510066], [-46.806891, -23.510041], [-46.806747, -23.510009], [-46.806635, -23.509988], [-46.80658, -23.509974], [-46.806536, -23.509957], [-46.806494, -23.509931], [-46.806444, -23.509891], [-46.806397, -23.509853], [-46.806337, -23.509808], [-46.806242, -23.509756], [-46.806174, -23.509725], [-46.806147, -23.509714], [-46.806064, -23.509701], [-46.805989, -23.509693], [-46.805822, -23.509676], [-46.805686, -23.50966], [-46.805531, -23.509656], [-46.805446, -23.509658], [-46.805349, -23.509666], [-46.805261, -23.509676], [-46.805119, -23.509689], [-46.804947, -23.50971], [-46.804815, -23.509725], [-46.804603, -23.509745], [-46.804332, -23.509779], [-46.804101, -23.509809], [-46.803892, -23.509831], [-46.80371, -23.509861], [-46.803509, -23.509899], [-46.803288, -23.509941], [-46.80319, -23.50997], [-46.8031, -23.509999], [-46.802971, -23.51005], [-46.802926, -23.510069], [-46.802864, -23.510096], [-46.802753, -23.510152], [-46.802606, -23.510206], [-46.802483, -23.510252], [-46.802282, -23.510318], [-46.802142, -23.510368], [-46.801946, -23.510408], [-46.801574, -23.510515], [-46.801006, -23.51076], [-46.800887, -23.510805], [-46.800797, -23.510828], [-46.800707, -23.510845], [-46.800517, -23.510895], [-46.800358, -23.510932], [-46.800185, -23.510954], [-46.79991, -23.510975], [-46.799473, -23.511017], [-46.798946, -23.511061], [-46.798848, -23.511062], [-46.798517, -23.511087], [-46.798278, -23.511136], [-46.797693, -23.511176], [-46.797165, -23.511185], [-46.796487, -23.511203], [-46.796071, -23.511212], [-46.795805, -23.51124], [-46.795373, -23.511289], [-46.794772, -23.511362], [-46.794352, -23.511428], [-46.794122, -23.511479], [-46.793215, -23.511531], [-46.792955, -23.511545], [-46.792467, -23.511586], [-46.792118, -23.511608], [-46.791662, -23.511631], [-46.791315, -23.511663], [-46.790927, -23.511663], [-46.789625, -23.511689], [-46.789197, -23.51169], [-46.789071, -23.511693], [-46.788888, -23.511698], [-46.788709, -23.511709], [-46.788456, -23.511716], [-46.788308, -23.51172], [-46.788263, -23.511714], [-46.788095, -23.511665], [-46.787913, -23.511592], [-46.787682, -23.511465], [-46.787032, -23.511141], [-46.786499, -23.510863], [-46.785971, -23.510596], [-46.785807, -23.510502], [-46.785459, -23.510328], [-46.784959, -23.510112], [-46.784687, -23.509989], [-46.78459, -23.509941], [-46.784372, -23.509817], [-46.784154, -23.509707], [-46.784053, -23.509661], [-46.784039, -23.509654], [-46.783926, -23.509592], [-46.783792, -23.509517], [-46.783552, -23.50936], [-46.783485, -23.509326], [-46.783359, -23.509252], [-46.783222, -23.509197], [-46.783061, -23.509125], [-46.782804, -23.509032], [-46.782376, -23.508846], [-46.781961, -23.508682], [-46.781321, -23.50841], [-46.781003, -23.508267], [-46.780835, -23.50822], [-46.780629, -23.508195], [-46.78038, -23.508161], [-46.780156, -23.508156], [-46.779884, -23.508179], [-46.779453, -23.508213], [-46.779058, -23.508243], [-46.778592, -23.50829], [-46.778274, -23.508299], [-46.778053, -23.508313], [-46.777861, -23.508316], [-46.777614, -23.50834], [-46.777253, -23.508357], [-46.776862, -23.508408], [-46.776412, -23.508453], [-46.776044, -23.508484], [-46.775804, -23.508511], [-46.775504, -23.508556], [-46.774978, -23.508599], [-46.774638, -23.508625], [-46.77452, -23.508634], [-46.773847, -23.508676], [-46.773504, -23.508685], [-46.77337, -23.508697], [-46.773312, -23.508715], [-46.773232, -23.508753], [-46.773148, -23.508803], [-46.772834, -23.509035], [-46.772396, -23.509421], [-46.772156, -23.509635], [-46.771952, -23.509801], [-46.771902, -23.50985], [-46.771881, -23.509885], [-46.77184, -23.509986], [-46.771781, -23.510127], [-46.771711, -23.510279], [-46.771646, -23.510395], [-46.771611, -23.510429], [-46.77158, -23.510452], [-46.771503, -23.510492], [-46.771439, -23.510515], [-46.771362, -23.510538], [-46.771256, -23.510566], [-46.771153, -23.510579], [-46.771075, -23.510578], [-46.770963, -23.510562], [-46.770722, -23.51051], [-46.770275, -23.510393], [-46.769978, -23.510322], [-46.769777, -23.510268], [-46.769598, -23.510214], [-46.769467, -23.510168], [-46.769208, -23.510087], [-46.769037, -23.510033], [-46.768839, -23.509959], [-46.768735, -23.509933], [-46.768628, -23.509917], [-46.768113, -23.509879], [-46.767994, -23.509902], [-46.76792, -23.50994], [-46.767811, -23.509966], [-46.767354, -23.510071], [-46.767267, -23.510097], [-46.767216, -23.51012], [-46.766976, -23.510325], [-46.766583, -23.510663], [-46.766498, -23.510742], [-46.766331, -23.510844], [-46.76622, -23.510899], [-46.766168, -23.510931], [-46.766138, -23.510949], [-46.765961, -23.51107], [-46.765891, -23.511142], [-46.765838, -23.511203], [-46.765753, -23.511319], [-46.76558, -23.511529], [-46.765328, -23.511822], [-46.76512, -23.512036], [-46.764732, -23.512472], [-46.764486, -23.512722], [-46.764336, -23.5129], [-46.764304, -23.512956], [-46.764266, -23.513016], [-46.764258, -23.513041], [-46.764258, -23.513055], [-46.764259, -23.513101], [-46.764271, -23.51312], [-46.764295, -23.51317], [-46.764299, -23.513202], [-46.764281, -23.513227], [-46.764258, -23.513255], [-46.764196, -23.513305], [-46.764105, -23.513388], [-46.763919, -23.513555], [-46.763751, -23.513728], [-46.763657, -23.513811], [-46.763504, -23.513909], [-46.763253, -23.514055], [-46.763162, -23.514124], [-46.763005, -23.514236], [-46.762818, -23.514357], [-46.762712, -23.514435], [-46.762627, -23.514518], [-46.762563, -23.51464], [-46.762498, -23.514901], [-46.762328, -23.515573], [-46.762191, -23.516177], [-46.762095, -23.516596], [-46.762026, -23.51694], [-46.761958, -23.517206], [-46.761836, -23.517681], [-46.761759, -23.517934], [-46.761626, -23.518534], [-46.761588, -23.518705], [-46.761506, -23.518977], [-46.761462, -23.519154], [-46.761431, -23.519323], [-46.761308, -23.519868], [-46.761183, -23.520287], [-46.761068, -23.520716], [-46.760916, -23.521413], [-46.760893, -23.521534], [-46.760847, -23.521776], [-46.760832, -23.52185], [-46.760803, -23.521923], [-46.760782, -23.521986], [-46.76075, -23.52212], [-46.76063, -23.522875], [-46.760407, -23.523793], [-46.760236, -23.524288], [-46.76022, -23.52437], [-46.760212, -23.524443], [-46.760187, -23.524557], [-46.760175, -23.524654], [-46.760112, -23.52489], [-46.759885, -23.525728], [-46.759761, -23.526273], [-46.759655, -23.526634], [-46.759564, -23.526999], [-46.759479, -23.527351], [-46.759463, -23.527417], [-46.759313, -23.527968], [-46.759189, -23.528447], [-46.759171, -23.528521], [-46.759108, -23.528797], [-46.758846, -23.529668], [-46.758627, -23.530476], [-46.758511, -23.530806], [-46.758468, -23.530981], [-46.758373, -23.531266], [-46.75834, -23.531367], [-46.758302, -23.531498], [-46.758255, -23.531587], [-46.758218, -23.531634], [-46.758192, -23.531662], [-46.758166, -23.53168], [-46.758147, -23.531697], [-46.758129, -23.531722], [-46.758108, -23.531764], [-46.758052, -23.531961], [-46.757975, -23.532223], [-46.757855, -23.532487], [-46.757824, -23.532593], [-46.757794, -23.532745], [-46.757689, -23.53305], [-46.757618, -23.533348], [-46.757525, -23.533747], [-46.757454, -23.53404], [-46.757333, -23.534551], [-46.757204, -23.535033], [-46.757105, -23.535436], [-46.757058, -23.535676], [-46.757073, -23.53593], [-46.757085, -23.5361], [-46.757103, -23.536355], [-46.757066, -23.536712], [-46.756911, -23.537277], [-46.756852, -23.537627], [-46.75675, -23.538027], [-46.756697, -23.53825], [-46.756654, -23.538452], [-46.75662, -23.538612], [-46.756595, -23.538697], [-46.756551, -23.538859], [-46.756527, -23.538943], [-46.756489, -23.539049], [-46.756467, -23.539149], [-46.756443, -23.539275], [-46.75639, -23.539475], [-46.756353, -23.539632], [-46.75629, -23.539845], [-46.756243, -23.539978], [-46.756131, -23.540214], [-46.756033, -23.540456], [-46.75596, -23.540616], [-46.755903, -23.540776], [-46.755846, -23.540927], [-46.755825, -23.541069], [-46.755798, -23.541201], [-46.755689, -23.541638], [-46.755646, -23.541822], [-46.755503, -23.542388], [-46.755426, -23.542723], [-46.755385, -23.542843], [-46.755353, -23.54294], [-46.755311, -23.543151], [-46.75526, -23.54332], [-46.755239, -23.543394], [-46.755227, -23.54347], [-46.755218, -23.543536], [-46.755213, -23.543641], [-46.755212, -23.543792], [-46.755219, -23.544105], [-46.755216, -23.544643], [-46.755229, -23.544931], [-46.75523, -23.544962], [-46.755253, -23.545418], [-46.755284, -23.545812], [-46.755283, -23.545956], [-46.755282, -23.546127], [-46.755271, -23.546293], [-46.755262, -23.546332], [-46.755249, -23.546402], [-46.755256, -23.546654], [-46.755258, -23.546753], [-46.755262, -23.546819], [-46.75525, -23.546927], [-46.755239, -23.547048], [-46.755228, -23.547208], [-46.75521, -23.547352], [-46.755185, -23.547739], [-46.755176, -23.547977], [-46.755164, -23.548113], [-46.755157, -23.548281], [-46.755161, -23.548356], [-46.755175, -23.548434], [-46.755196, -23.548485], [-46.75523, -23.548587], [-46.755241, -23.548683], [-46.75523, -23.548845], [-46.755232, -23.548969], [-46.755202, -23.549257], [-46.755174, -23.549552], [-46.755131, -23.550039], [-46.755071, -23.550429], [-46.755057, -23.550577], [-46.755039, -23.550707], [-46.755024, -23.550833], [-46.755016, -23.550927], [-46.754987, -23.551227], [-46.754976, -23.551411], [-46.754963, -23.551619], [-46.754927, -23.552054], [-46.754916, -23.552268], [-46.754894, -23.552581], [-46.754876, -23.553129], [-46.75487, -23.553412], [-46.754869, -23.553599], [-46.754859, -23.553772], [-46.754846, -23.553939], [-46.754829, -23.554141], [-46.754803, -23.554771], [-46.754791, -23.555155], [-46.754786, -23.555536], [-46.754785, -23.556045], [-46.754753, -23.556418], [-46.754729, -23.556695], [-46.754684, -23.557433], [-46.754657, -23.557666], [-46.754643, -23.557726], [-46.754628, -23.557765], [-46.754619, -23.557811], [-46.754604, -23.558005], [-46.754572, -23.558158], [-46.754561, -23.558348], [-46.754551, -23.558573], [-46.754537, -23.558696], [-46.754524, -23.558744], [-46.754516, -23.558828], [-46.754499, -23.558926], [-46.75449, -23.55906], [-46.754471, -23.559286], [-46.754467, -23.559495], [-46.754465, -23.55966], [-46.754448, -23.559939], [-46.754441, -23.560221], [-46.754434, -23.560368], [-46.75442, -23.560799], [-46.754409, -23.560998], [-46.754402, -23.561152], [-46.754395, -23.561253], [-46.754387, -23.561369], [-46.75438, -23.561493], [-46.75437, -23.561576], [-46.754348, -23.56164], [-46.754324, -23.561706], [-46.754283, -23.561787], [-46.754237, -23.561872], [-46.754217, -23.561913], [-46.754202, -23.561949], [-46.754187, -23.561972], [-46.754176, -23.562003], [-46.754161, -23.562067], [-46.754142, -23.56217], [-46.754133, -23.56229], [-46.754132, -23.562395], [-46.754138, -23.562545], [-46.754149, -23.562679], [-46.75416, -23.562783], [-46.754156, -23.562894], [-46.754156, -23.562957], [-46.754155, -23.562999], [-46.754167, -23.563135], [-46.754194, -23.563315], [-46.754193, -23.563554], [-46.754188, -23.563681], [-46.754187, -23.563759], [-46.754191, -23.563896], [-46.754183, -23.56402], [-46.754191, -23.564343], [-46.754196, -23.564374], [-46.754232, -23.564735], [-46.754237, -23.564818], [-46.754253, -23.564989], [-46.754264, -23.565134], [-46.754261, -23.565552], [-46.754241, -23.565778], [-46.754229, -23.566145], [-46.754208, -23.566656], [-46.754189, -23.566907], [-46.75418, -23.567166], [-46.754171, -23.567401], [-46.754147, -23.567734], [-46.754141, -23.567956], [-46.754122, -23.56835], [-46.754114, -23.568478], [-46.754098, -23.568915], [-46.754083, -23.56942], [-46.754077, -23.569602], [-46.754051, -23.570115], [-46.754046, -23.570255], [-46.754017, -23.570863], [-46.754007, -23.571064], [-46.754001, -23.571193], [-46.753988, -23.571466], [-46.75398, -23.571793], [-46.753969, -23.571981], [-46.753966, -23.57202], [-46.753956, -23.572251], [-46.75395, -23.572393], [-46.753953, -23.572757], [-46.753941, -23.573051], [-46.753936, -23.573216], [-46.753919, -23.57337], [-46.753915, -23.573444], [-46.753912, -23.573627], [-46.753899, -23.573825], [-46.753887, -23.574078], [-46.753876, -23.574465], [-46.753856, -23.574869], [-46.75385, -23.575033], [-46.753833, -23.575217], [-46.753829, -23.575384], [-46.753839, -23.575501], [-46.753849, -23.57554], [-46.753869, -23.575615], [-46.753908, -23.575823], [-46.753922, -23.575922], [-46.753937, -23.576035], [-46.753963, -23.576152], [-46.753978, -23.576309], [-46.753972, -23.576447], [-46.753959, -23.576577], [-46.753925, -23.576713], [-46.753909, -23.576757], [-46.753903, -23.576783], [-46.753906, -23.576967], [-46.753885, -23.577399], [-46.75388, -23.577463], [-46.753873, -23.57752], [-46.753863, -23.577593], [-46.753856, -23.57767], [-46.753849, -23.577723], [-46.753836, -23.577807], [-46.753825, -23.578037], [-46.753815, -23.578177], [-46.753807, -23.57837], [-46.753797, -23.578672], [-46.753794, -23.579154], [-46.753801, -23.579502], [-46.75379, -23.579763], [-46.75379, -23.579928], [-46.753788, -23.580052], [-46.753791, -23.580428], [-46.753801, -23.580583], [-46.7538, -23.580971], [-46.7538, -23.581026], [-46.753799, -23.581151], [-46.753794, -23.581345], [-46.753787, -23.581488], [-46.753778, -23.581727], [-46.753761, -23.581921], [-46.753737, -23.582166], [-46.753737, -23.58238], [-46.753732, -23.582683], [-46.753726, -23.582863], [-46.753719, -23.582918], [-46.753716, -23.582949], [-46.753706, -23.583019], [-46.753696, -23.583083], [-46.753687, -23.583171], [-46.753693, -23.58353], [-46.753691, -23.583669], [-46.753675, -23.583962], [-46.753661, -23.584134], [-46.753652, -23.584537], [-46.753653, -23.584703], [-46.753645, -23.584992], [-46.753638, -23.585175], [-46.75363, -23.58554], [-46.753619, -23.585728], [-46.753611, -23.585845], [-46.753611, -23.585905], [-46.753607, -23.585946], [-46.753595, -23.585995], [-46.753582, -23.586027], [-46.753571, -23.586067], [-46.75356, -23.586178], [-46.753559, -23.586244], [-46.753565, -23.586661], [-46.753562, -23.586707], [-46.75355, -23.58676], [-46.753543, -23.586833], [-46.753531, -23.586921], [-46.753514, -23.587005], [-46.753492, -23.587082], [-46.75348, -23.587166], [-46.75346, -23.587256], [-46.753445, -23.58733], [-46.753427, -23.58755], [-46.753403, -23.587746], [-46.753371, -23.587921], [-46.753354, -23.588014], [-46.753338, -23.588173], [-46.75332, -23.588434], [-46.753294, -23.588792], [-46.7533, -23.589192], [-46.753301, -23.589282], [-46.753306, -23.589357], [-46.753293, -23.589658], [-46.753299, -23.589767], [-46.75329, -23.590024], [-46.753288, -23.590106], [-46.753286, -23.590264], [-46.753259, -23.590603], [-46.753251, -23.590749], [-46.75325, -23.59081], [-46.753244, -23.590845], [-46.753237, -23.590893], [-46.753224, -23.590984], [-46.753225, -23.591059], [-46.753215, -23.591168], [-46.75321, -23.591288], [-46.753193, -23.591472], [-46.753199, -23.591576], [-46.753194, -23.591674], [-46.753189, -23.591768], [-46.753186, -23.591829], [-46.753179, -23.592002], [-46.753164, -23.592115], [-46.753151, -23.592245], [-46.753142, -23.592373], [-46.753133, -23.592563], [-46.753127, -23.592701], [-46.753111, -23.592971], [-46.753109, -23.593119], [-46.753117, -23.593392], [-46.75312, -23.593619], [-46.753119, -23.5937], [-46.753114, -23.593867], [-46.753115, -23.59394], [-46.753119, -23.593995], [-46.753116, -23.594024], [-46.75312, -23.594155], [-46.753115, -23.594297], [-46.75311, -23.594475], [-46.753107, -23.594559], [-46.753095, -23.594713], [-46.753074, -23.59485], [-46.753062, -23.594883], [-46.753055, -23.594924], [-46.753055, -23.59496], [-46.753066, -23.595033], [-46.753079, -23.595086], [-46.753087, -23.595118], [-46.753102, -23.595189], [-46.753091, -23.595506], [-46.753083, -23.595657], [-46.753046, -23.595997], [-46.753036, -23.596256], [-46.753023, -23.596473], [-46.753004, -23.596657], [-46.753007, -23.596764], [-46.753001, -23.596899], [-46.752985, -23.597085], [-46.75298, -23.597155], [-46.752972, -23.597209], [-46.752968, -23.597284], [-46.752959, -23.597354], [-46.752954, -23.597443], [-46.752944, -23.597563], [-46.752947, -23.59782], [-46.752943, -23.597996], [-46.752939, -23.598218], [-46.752935, -23.598348], [-46.752927, -23.598624], [-46.752926, -23.59889], [-46.752923, -23.599051], [-46.75292, -23.599176], [-46.752914, -23.599441], [-46.752903, -23.599629], [-46.752903, -23.599898], [-46.752883, -23.60003], [-46.752884, -23.600087], [-46.75288, -23.60014], [-46.752875, -23.600209], [-46.752877, -23.600295], [-46.752879, -23.600463], [-46.75289, -23.600532], [-46.752906, -23.60059], [-46.752935, -23.60068], [-46.752954, -23.600776], [-46.752932, -23.601049], [-46.752908, -23.601277], [-46.752897, -23.601355], [-46.752888, -23.601412], [-46.752881, -23.601463], [-46.752873, -23.601576], [-46.752867, -23.6019], [-46.752855, -23.601973], [-46.752838, -23.602037], [-46.752809, -23.602154], [-46.752789, -23.602289], [-46.752779, -23.602417], [-46.752778, -23.602881], [-46.752764, -23.603227], [-46.752759, -23.603516], [-46.752748, -23.603764], [-46.752738, -23.603884], [-46.752739, -23.603953], [-46.75273, -23.604064], [-46.752713, -23.604217], [-46.75269, -23.60439], [-46.752673, -23.604496], [-46.752656, -23.604643], [-46.752579, -23.604861], [-46.752556, -23.604909], [-46.752531, -23.604964], [-46.752508, -23.605026], [-46.752464, -23.605139], [-46.752449, -23.60519], [-46.752413, -23.605343], [-46.752338, -23.605663], [-46.752295, -23.605885], [-46.752256, -23.606038], [-46.752213, -23.60619], [-46.752192, -23.606343], [-46.752171, -23.606499], [-46.752152, -23.606631], [-46.752144, -23.606722], [-46.752145, -23.606751], [-46.752148, -23.60678], [-46.752151, -23.606808], [-46.752217, -23.607231], [-46.752241, -23.607282], [-46.752249, -23.607296], [-46.752257, -23.607319], [-46.752263, -23.607344], [-46.752206, -23.60761], [-46.75216, -23.607733], [-46.752108, -23.608021], [-46.752106, -23.608034], [-46.75209, -23.608151], [-46.752054, -23.608339], [-46.752021, -23.608554], [-46.751987, -23.608717], [-46.751962, -23.609028], [-46.751883, -23.609372], [-46.751824, -23.60955], [-46.751761, -23.609736], [-46.751718, -23.609848], [-46.751675, -23.609982], [-46.751653, -23.61024], [-46.751627, -23.610396], [-46.751594, -23.610545], [-46.75154, -23.61072], [-46.751535, -23.610888], [-46.751502, -23.61105], [-46.751421, -23.611304], [-46.751348, -23.611641], [-46.751301, -23.611803], [-46.751248, -23.612022], [-46.751208, -23.612323], [-46.751178, -23.612465], [-46.751124, -23.612632], [-46.751105, -23.612713], [-46.751084, -23.612797], [-46.751069, -23.613009], [-46.751029, -23.61319], [-46.751018, -23.613296], [-46.751017, -23.613347], [-46.751019, -23.613369], [-46.750979, -23.613583], [-46.750959, -23.613711], [-46.750888, -23.614016], [-46.750846, -23.614195], [-46.750733, -23.614606], [-46.750715, -23.614932], [-46.7507, -23.615049], [-46.750636, -23.615338], [-46.750608, -23.615491], [-46.750572, -23.615677], [-46.750541, -23.615858], [-46.750519, -23.61596], [-46.750436, -23.616166], [-46.750351, -23.616387], [-46.750208, -23.616668], [-46.750116, -23.616846], [-46.750089, -23.616898], [-46.749994, -23.617083], [-46.749857, -23.617296], [-46.749754, -23.617518], [-46.749642, -23.617743], [-46.749323, -23.618345], [-46.749108, -23.618739], [-46.748535, -23.619907], [-46.748413, -23.620168], [-46.748296, -23.620464], [-46.748217, -23.620603], [-46.748157, -23.62073], [-46.748081, -23.620935], [-46.748009, -23.621098], [-46.747896, -23.621334], [-46.747724, -23.62164], [-46.747568, -23.621905], [-46.747464, -23.622097], [-46.747441, -23.622149], [-46.747435, -23.622185], [-46.747428, -23.622231], [-46.747417, -23.622299], [-46.747402, -23.622376], [-46.747283, -23.622632], [-46.747242, -23.622704], [-46.747214, -23.622756], [-46.747195, -23.622792], [-46.747183, -23.622841], [-46.747172, -23.622899], [-46.74716, -23.622959], [-46.747148, -23.623016], [-46.747096, -23.623205], [-46.747037, -23.623383], [-46.746969, -23.623537], [-46.746883, -23.623692], [-46.746763, -23.623895], [-46.746642, -23.624046], [-46.746483, -23.624276], [-46.74643, -23.624342], [-46.746411, -23.624385], [-46.746395, -23.624425], [-46.746374, -23.624475], [-46.74635, -23.624522], [-46.74632, -23.624605], [-46.746277, -23.624663], [-46.746245, -23.624695], [-46.746195, -23.624753], [-46.746147, -23.624831], [-46.746098, -23.624961], [-46.746056, -23.625063], [-46.746038, -23.625098], [-46.745984, -23.625198], [-46.74593, -23.625282], [-46.745873, -23.625374], [-46.745768, -23.625608], [-46.745665, -23.62579], [-46.745619, -23.62591], [-46.745507, -23.62617], [-46.745403, -23.626373], [-46.745266, -23.626604], [-46.745143, -23.626804], [-46.744881, -23.627259], [-46.744838, -23.627352], [-46.744795, -23.627451], [-46.744685, -23.627775], [-46.744494, -23.628155], [-46.744401, -23.628349], [-46.744071, -23.628986], [-46.743966, -23.629167], [-46.743603, -23.629883], [-46.743424, -23.630294], [-46.743256, -23.630638], [-46.743103, -23.630954], [-46.742792, -23.631567], [-46.742593, -23.631959], [-46.742308, -23.632438], [-46.742098, -23.632835], [-46.741982, -23.633041], [-46.741911, -23.633211], [-46.741886, -23.633269], [-46.741856, -23.633337], [-46.741775, -23.633587], [-46.741743, -23.633707], [-46.741708, -23.633807], [-46.741662, -23.633905], [-46.7416, -23.634023], [-46.741555, -23.634115], [-46.74151, -23.634198], [-46.741414, -23.634402], [-46.741333, -23.634635], [-46.741277, -23.634756], [-46.741189, -23.634838], [-46.741088, -23.634924], [-46.740952, -23.635004], [-46.740875, -23.635052], [-46.740768, -23.63514], [-46.740656, -23.635283], [-46.740576, -23.635445], [-46.740534, -23.63553], [-46.740445, -23.635715], [-46.740382, -23.635843], [-46.740284, -23.636049], [-46.740233, -23.636151], [-46.740129, -23.636357], [-46.740046, -23.636479], [-46.739997, -23.636565], [-46.739951, -23.63668], [-46.739909, -23.636776], [-46.739864, -23.636864], [-46.739836, -23.63693], [-46.739815, -23.637001], [-46.739788, -23.637085], [-46.739765, -23.637214], [-46.739754, -23.637293], [-46.739743, -23.637322], [-46.739715, -23.637391], [-46.739673, -23.637486], [-46.739535, -23.637851], [-46.739415, -23.638126], [-46.739319, -23.638327], [-46.73925, -23.63846], [-46.739182, -23.638578], [-46.739098, -23.638734], [-46.739021, -23.638869], [-46.73891, -23.63907], [-46.738843, -23.639213], [-46.738774, -23.639356], [-46.738646, -23.63959], [-46.738586, -23.639711], [-46.738522, -23.639854], [-46.738479, -23.639946], [-46.738395, -23.640098], [-46.738327, -23.640233], [-46.738289, -23.640313], [-46.738214, -23.640478], [-46.738112, -23.640683], [-46.737976, -23.640968], [-46.737882, -23.641153], [-46.73777, -23.641388], [-46.737738, -23.641446], [-46.737691, -23.641533], [-46.737541, -23.641828], [-46.73745, -23.641971], [-46.737343, -23.642193], [-46.737243, -23.642403], [-46.737146, -23.642609], [-46.736912, -23.643058], [-46.736861, -23.643157], [-46.736798, -23.643292], [-46.736734, -23.64344], [-46.736705, -23.643501], [-46.736687, -23.643535], [-46.736652, -23.643607], [-46.73659, -23.643785], [-46.736518, -23.643952], [-46.736429, -23.644088], [-46.736334, -23.644273], [-46.736256, -23.644435], [-46.736195, -23.644554], [-46.736106, -23.644717], [-46.736017, -23.644899], [-46.735902, -23.645108], [-46.735834, -23.645287], [-46.735817, -23.645317], [-46.735803, -23.645344], [-46.73577, -23.645396], [-46.735719, -23.645488], [-46.735401, -23.646139], [-46.735219, -23.646494], [-46.735122, -23.646672], [-46.734962, -23.647074], [-46.734878, -23.647246], [-46.73474, -23.647524], [-46.73462, -23.647743], [-46.734434, -23.648089], [-46.734368, -23.648238], [-46.734292, -23.648411], [-46.734083, -23.648816], [-46.7339, -23.649186], [-46.73381, -23.649422], [-46.733786, -23.649522], [-46.733779, -23.64961], [-46.733765, -23.64971], [-46.733763, -23.649722], [-46.733756, -23.649779], [-46.733748, -23.649806], [-46.733715, -23.649857], [-46.733655, -23.649971], [-46.733609, -23.650062], [-46.733512, -23.65029], [-46.733371, -23.650611], [-46.733294, -23.650765], [-46.733153, -23.65103], [-46.733053, -23.651219], [-46.732957, -23.651395], [-46.732941, -23.651425], [-46.732918, -23.65145], [-46.732895, -23.651482], [-46.732864, -23.651518], [-46.732835, -23.651538], [-46.732769, -23.651605], [-46.732669, -23.651694], [-46.732515, -23.651824], [-46.732391, -23.651933], [-46.732247, -23.65205], [-46.732096, -23.652193], [-46.731984, -23.652302], [-46.731787, -23.652479], [-46.731674, -23.652564], [-46.731511, -23.652721], [-46.731441, -23.652783], [-46.731318, -23.652922], [-46.731222, -23.653018], [-46.731112, -23.653106], [-46.731032, -23.653194], [-46.730814, -23.653385], [-46.730699, -23.653496], [-46.730602, -23.653578], [-46.730522, -23.653648], [-46.730345, -23.653801], [-46.730269, -23.653842], [-46.730183, -23.653883], [-46.730126, -23.653915], [-46.730048, -23.653954], [-46.729963, -23.653995], [-46.729879, -23.654047], [-46.7298, -23.654124], [-46.729756, -23.654179], [-46.729723, -23.654241], [-46.729676, -23.654336], [-46.729645, -23.654427], [-46.729579, -23.654657], [-46.729528, -23.654818], [-46.729502, -23.654887], [-46.729465, -23.654929], [-46.729432, -23.654958], [-46.729393, -23.654975], [-46.729232, -23.655022], [-46.729068, -23.655063], [-46.728924, -23.655091], [-46.728775, -23.655122], [-46.728585, -23.655169], [-46.728385, -23.655217], [-46.728247, -23.655255], [-46.728178, -23.655269], [-46.728137, -23.655271], [-46.728083, -23.655269], [-46.728006, -23.655264], [-46.727944, -23.655254], [-46.727883, -23.655236], [-46.727762, -23.655193], [-46.727514, -23.655093], [-46.727443, -23.655069], [-46.727327, -23.655031], [-46.727275, -23.655021], [-46.727207, -23.655019], [-46.727161, -23.655025], [-46.727062, -23.655044], [-46.726934, -23.655085], [-46.726798, -23.655139], [-46.726519, -23.655266], [-46.726481, -23.655288], [-46.726366, -23.655354], [-46.72619, -23.655432], [-46.726052, -23.655502], [-46.725919, -23.655566], [-46.725868, -23.655593], [-46.725817, -23.655636], [-46.725775, -23.655681], [-46.725721, -23.655734], [-46.725631, -23.655803], [-46.725486, -23.655847], [-46.72531, -23.655927], [-46.725203, -23.655951], [-46.725013, -23.655987], [-46.724834, -23.656044], [-46.724362, -23.656186], [-46.724234, -23.656224], [-46.724069, -23.656276], [-46.723777, -23.656397], [-46.72359, -23.656468], [-46.723224, -23.656606], [-46.722862, -23.656747], [-46.722681, -23.656836], [-46.722506, -23.656935], [-46.72237, -23.657009], [-46.72226, -23.657061], [-46.72073, -23.657693], [-46.720538, -23.657745], [-46.72045, -23.657772], [-46.720338, -23.657808], [-46.720256, -23.657835], [-46.720186, -23.65787], [-46.720086, -23.657914], [-46.719976, -23.657954], [-46.719832, -23.658001], [-46.719657, -23.658064], [-46.719521, -23.658102], [-46.719084, -23.658284], [-46.718442, -23.658706], [-46.71803, -23.658996], [-46.717823, -23.659132], [-46.71778, -23.659161], [-46.717711, -23.659209], [-46.717124, -23.659554], [-46.716169, -23.660021], [-46.716025, -23.660113], [-46.715899, -23.660194], [-46.715839, -23.660229], [-46.715794, -23.660249], [-46.715711, -23.660297], [-46.715628, -23.66035], [-46.715566, -23.660392], [-46.715489, -23.660446], [-46.715422, -23.660498], [-46.715349, -23.660567], [-46.715262, -23.660637], [-46.715173, -23.660731], [-46.715053, -23.660826], [-46.714992, -23.660874], [-46.714941, -23.660919], [-46.714895, -23.660965], [-46.714862, -23.660999], [-46.71482, -23.66104], [-46.714775, -23.661086], [-46.714732, -23.661134], [-46.714688, -23.661175], [-46.714618, -23.661234], [-46.714539, -23.661291], [-46.714483, -23.661316], [-46.714408, -23.661355], [-46.714313, -23.661401], [-46.714216, -23.661451], [-46.714167, -23.661486], [-46.714115, -23.661536], [-46.714074, -23.66159], [-46.714009, -23.661663], [-46.71399, -23.661688], [-46.713972, -23.661718], [-46.713939, -23.661781], [-46.713893, -23.661859], [-46.71382, -23.661956], [-46.713731, -23.66208], [-46.71365, -23.662204], [-46.713573, -23.662316], [-46.713431, -23.662457], [-46.713267, -23.662594], [-46.713137, -23.662712], [-46.712984, -23.662854], [-46.712851, -23.662991], [-46.712722, -23.663124], [-46.712558, -23.663306], [-46.712397, -23.663494], [-46.712357, -23.663535], [-46.712331, -23.663565], [-46.7123, -23.663601], [-46.712263, -23.663649], [-46.71222, -23.663693], [-46.712037, -23.663908], [-46.711949, -23.664016], [-46.711813, -23.664185], [-46.711671, -23.664364], [-46.711632, -23.664427], [-46.711598, -23.664491], [-46.711558, -23.664546], [-46.711508, -23.66462], [-46.711468, -23.664677], [-46.711444, -23.664718], [-46.711402, -23.664778], [-46.71137, -23.664805], [-46.711338, -23.664823], [-46.711288, -23.664848], [-46.711247, -23.664872], [-46.711197, -23.664904], [-46.71114, -23.664931], [-46.711102, -23.664949], [-46.71105, -23.66497], [-46.710996, -23.664992], [-46.710943, -23.665017], [-46.710892, -23.665044], [-46.710851, -23.665076], [-46.710822, -23.665105], [-46.710756, -23.665206], [-46.710715, -23.665262], [-46.710684, -23.665312], [-46.710659, -23.665354], [-46.710653, -23.665374], [-46.710637, -23.665418], [-46.710619, -23.665455], [-46.710596, -23.665493], [-46.710579, -23.665518], [-46.710558, -23.665585], [-46.710541, -23.665635], [-46.710512, -23.665693], [-46.710486, -23.665742], [-46.710482, -23.665765], [-46.710484, -23.665794], [-46.710487, -23.665825], [-46.710493, -23.665901], [-46.710501, -23.665956], [-46.710514, -23.666029], [-46.710528, -23.666102], [-46.710559, -23.66624], [-46.710577, -23.666305], [-46.710586, -23.666351], [-46.710592, -23.666371], [-46.710592, -23.666397], [-46.710584, -23.666421], [-46.710568, -23.666456], [-46.71053, -23.666512], [-46.710491, -23.666574], [-46.710453, -23.666642], [-46.710431, -23.666692], [-46.710398, -23.666772], [-46.71036, -23.666866], [-46.710327, -23.666942], [-46.710292, -23.667026], [-46.71027, -23.667074], [-46.710209, -23.667188], [-46.710132, -23.667335], [-46.710046, -23.667479], [-46.710003, -23.667561], [-46.709955, -23.667664], [-46.709916, -23.667743], [-46.70988, -23.667811], [-46.709823, -23.667894], [-46.709784, -23.667957], [-46.709695, -23.668094], [-46.709613, -23.668201], [-46.70956, -23.66828], [-46.709527, -23.668335], [-46.709429, -23.66849], [-46.709378, -23.66856], [-46.709307, -23.668645], [-46.709232, -23.668729], [-46.709194, -23.668764], [-46.709128, -23.668848], [-46.709062, -23.668958], [-46.708985, -23.669087], [-46.708931, -23.669184], [-46.708886, -23.669258], [-46.708809, -23.669391], [-46.708743, -23.669507], [-46.708675, -23.669635], [-46.708606, -23.669754], [-46.708536, -23.669877], [-46.708427, -23.670061], [-46.708334, -23.670231], [-46.708271, -23.670332], [-46.708151, -23.670533], [-46.70801, -23.670763], [-46.707966, -23.670835], [-46.707888, -23.670962], [-46.707771, -23.671153], [-46.707701, -23.671259], [-46.707604, -23.671406], [-46.707511, -23.671546], [-46.70743, -23.67169], [-46.707395, -23.67175], [-46.707352, -23.671827], [-46.707281, -23.671963], [-46.707198, -23.672101], [-46.707166, -23.672158], [-46.707112, -23.67225], [-46.70706, -23.672332], [-46.706995, -23.672458], [-46.706911, -23.672577], [-46.706824, -23.672731], [-46.706757, -23.67284], [-46.706662, -23.673004], [-46.706573, -23.673151], [-46.706506, -23.673279], [-46.706482, -23.67332], [-46.706436, -23.673398], [-46.706383, -23.673492], [-46.706365, -23.67353], [-46.706292, -23.673662], [-46.706246, -23.673733], [-46.706177, -23.673842], [-46.706138, -23.673916], [-46.706095, -23.674], [-46.706047, -23.674096], [-46.705995, -23.674185], [-46.705966, -23.674256], [-46.705924, -23.674337], [-46.705871, -23.674426], [-46.705831, -23.674487], [-46.705785, -23.674578], [-46.705748, -23.674649], [-46.705709, -23.674734], [-46.705632, -23.674865], [-46.70558, -23.674973], [-46.705499, -23.675095], [-46.705458, -23.675152], [-46.705413, -23.675203], [-46.705366, -23.675271], [-46.705328, -23.675331], [-46.7053, -23.675389], [-46.705264, -23.675463], [-46.705244, -23.6755], [-46.705205, -23.675572], [-46.705176, -23.675635], [-46.705136, -23.675716], [-46.705106, -23.675783], [-46.705066, -23.67587], [-46.705042, -23.675935], [-46.705034, -23.675981], [-46.70503, -23.676027], [-46.705026, -23.676081], [-46.705024, -23.676117], [-46.70502, -23.676151], [-46.705003, -23.676197], [-46.704983, -23.676241], [-46.704936, -23.676333], [-46.704894, -23.67641], [-46.704866, -23.676485], [-46.704834, -23.67657], [-46.704799, -23.676669], [-46.704774, -23.676729], [-46.704745, -23.676806], [-46.704719, -23.676843], [-46.704698, -23.676864], [-46.704653, -23.676902], [-46.704615, -23.676949], [-46.704561, -23.677016], [-46.704515, -23.67708], [-46.704465, -23.677153], [-46.704401, -23.677256], [-46.704359, -23.677341], [-46.704305, -23.67744], [-46.704222, -23.677566], [-46.704181, -23.677628], [-46.704074, -23.677785], [-46.703983, -23.677911], [-46.703853, -23.678061], [-46.703759, -23.678169], [-46.703621, -23.678319], [-46.703497, -23.678475], [-46.703386, -23.678589], [-46.703297, -23.678682], [-46.703204, -23.678772], [-46.70308, -23.67888], [-46.702955, -23.679021], [-46.702833, -23.679137], [-46.702727, -23.679229], [-46.702648, -23.679283], [-46.70257, -23.67934], [-46.702498, -23.679397], [-46.702445, -23.679444], [-46.702382, -23.679506], [-46.702295, -23.679613], [-46.702247, -23.679671], [-46.702233, -23.679696], [-46.702225, -23.679709], [-46.702211, -23.679725], [-46.702196, -23.679745], [-46.702165, -23.679778], [-46.702136, -23.679807], [-46.702114, -23.679826], [-46.702077, -23.67987], [-46.702052, -23.679897], [-46.702031, -23.679921], [-46.702001, -23.67995], [-46.701963, -23.680007], [-46.701928, -23.680055], [-46.701912, -23.680078], [-46.701891, -23.680117], [-46.70187, -23.680142], [-46.701837, -23.680192], [-46.7018, -23.680238], [-46.701753, -23.680282], [-46.701728, -23.6803], [-46.701683, -23.680337], [-46.70162, -23.68039], [-46.701545, -23.680445], [-46.701503, -23.680482], [-46.701411, -23.680559], [-46.701356, -23.68062], [-46.70123, -23.680739], [-46.701138, -23.680843], [-46.701122, -23.68086], [-46.701016, -23.680963], [-46.700978, -23.681006], [-46.700949, -23.681036], [-46.700928, -23.681063], [-46.700913, -23.681083], [-46.700894, -23.681108], [-46.700873, -23.681135], [-46.700845, -23.681165], [-46.700748, -23.681285], [-46.700638, -23.681403], [-46.700495, -23.681564], [-46.700403, -23.681648], [-46.700297, -23.681763], [-46.700219, -23.681847], [-46.7001, -23.681993], [-46.700002, -23.682113], [-46.699915, -23.682224], [-46.699882, -23.682264], [-46.699859, -23.6823], [-46.699838, -23.682335], [-46.699805, -23.6824], [-46.69977, -23.682446], [-46.699735, -23.6825], [-46.699657, -23.682582], [-46.69959, -23.68265], [-46.699525, -23.682718], [-46.699464, -23.682776], [-46.69938, -23.682837], [-46.699351, -23.682862], [-46.699323, -23.68289], [-46.699292, -23.682931], [-46.699262, -23.682967], [-46.69923, -23.683007], [-46.699205, -23.683039], [-46.699182, -23.683066], [-46.699158, -23.683107], [-46.699133, -23.683149], [-46.699116, -23.683178], [-46.699034, -23.683308], [-46.698968, -23.683403], [-46.698905, -23.683516], [-46.698849, -23.683611], [-46.69876, -23.683751], [-46.698697, -23.683852], [-46.698674, -23.683894], [-46.698632, -23.683959], [-46.698577, -23.684055], [-46.698554, -23.684106], [-46.698505, -23.684201], [-46.698468, -23.68427], [-46.698419, -23.684361], [-46.698362, -23.684443], [-46.698325, -23.684504], [-46.698271, -23.684611], [-46.69822, -23.684679], [-46.698144, -23.684798], [-46.69806, -23.684931], [-46.697997, -23.685041], [-46.697938, -23.685121], [-46.697886, -23.685194], [-46.697818, -23.685295], [-46.697738, -23.685412], [-46.697672, -23.685499], [-46.697586, -23.685614], [-46.697529, -23.685689], [-46.697509, -23.685719], [-46.697486, -23.685758], [-46.697456, -23.685812], [-46.697404, -23.685909], [-46.697353, -23.685985], [-46.697317, -23.686041], [-46.697267, -23.686127], [-46.69722, -23.686214], [-46.697206, -23.686249], [-46.697197, -23.686283], [-46.697188, -23.686314], [-46.697181, -23.686341], [-46.697175, -23.686363], [-46.697167, -23.686389], [-46.697159, -23.686401], [-46.697152, -23.686413], [-46.697138, -23.686434], [-46.697122, -23.686452], [-46.697105, -23.686467], [-46.697084, -23.686484], [-46.697051, -23.686507], [-46.69688, -23.686658], [-46.696829, -23.686704], [-46.696749, -23.686781], [-46.696722, -23.686803], [-46.696678, -23.686839], [-46.696646, -23.686862], [-46.696622, -23.686877], [-46.696603, -23.686888], [-46.696587, -23.6869], [-46.696564, -23.686931], [-46.696536, -23.686975], [-46.696512, -23.687023], [-46.696489, -23.687065], [-46.696462, -23.687116], [-46.696442, -23.687147], [-46.696416, -23.687188], [-46.69639, -23.687243], [-46.696374, -23.687278], [-46.696345, -23.687321], [-46.696314, -23.687367], [-46.696277, -23.687416], [-46.696251, -23.687464], [-46.69623, -23.687499], [-46.696213, -23.687526], [-46.6962, -23.687548], [-46.696187, -23.687568], [-46.696175, -23.687587], [-46.696161, -23.687614], [-46.696128, -23.687659], [-46.696104, -23.687692], [-46.696093, -23.687711], [-46.696073, -23.687735], [-46.696059, -23.687767], [-46.696048, -23.687796], [-46.696035, -23.68782], [-46.696024, -23.68784], [-46.696006, -23.687871], [-46.69599, -23.687909], [-46.695976, -23.687935], [-46.695949, -23.68797], [-46.695929, -23.687994], [-46.695914, -23.68802], [-46.695892, -23.688051], [-46.695876, -23.688083], [-46.695842, -23.688153], [-46.695824, -23.688193], [-46.695786, -23.688284], [-46.695753, -23.688353], [-46.69574, -23.688381], [-46.695732, -23.688407], [-46.695712, -23.688465], [-46.695695, -23.688509], [-46.695684, -23.688543], [-46.695671, -23.688596], [-46.695657, -23.68865], [-46.695639, -23.688756], [-46.695633, -23.688776], [-46.695629, -23.688789], [-46.695617, -23.688811], [-46.695602, -23.688834], [-46.695575, -23.688883], [-46.69554, -23.688941], [-46.695508, -23.688977], [-46.695473, -23.689024], [-46.695401, -23.689142], [-46.695352, -23.689224], [-46.695314, -23.68929], [-46.695228, -23.689444], [-46.695157, -23.689557], [-46.695109, -23.689645], [-46.695042, -23.689749], [-46.694995, -23.689826], [-46.69491, -23.68996], [-46.694859, -23.690044], [-46.694799, -23.690154], [-46.694748, -23.690249], [-46.694685, -23.690367], [-46.694633, -23.690441], [-46.694545, -23.690582], [-46.694494, -23.69067], [-46.694446, -23.690737], [-46.694414, -23.690799], [-46.694322, -23.690953], [-46.694265, -23.691049], [-46.6942, -23.691145], [-46.694145, -23.691234], [-46.694055, -23.691364], [-46.693992, -23.691469], [-46.693942, -23.691556], [-46.693884, -23.691645], [-46.693825, -23.691742], [-46.693783, -23.691803], [-46.693706, -23.691922], [-46.693666, -23.691983], [-46.693624, -23.692051], [-46.693604, -23.69209], [-46.693592, -23.692114], [-46.693559, -23.692162], [-46.69351, -23.692224], [-46.693445, -23.692318], [-46.693388, -23.692386], [-46.693312, -23.692479], [-46.693258, -23.692565], [-46.693221, -23.692634], [-46.69314, -23.692765], [-46.693062, -23.692886], [-46.692999, -23.692988], [-46.692937, -23.693108], [-46.692891, -23.693177], [-46.692863, -23.693218], [-46.692793, -23.693355], [-46.692762, -23.693422], [-46.692727, -23.693493], [-46.692655, -23.693621], [-46.692598, -23.693726], [-46.692553, -23.693788], [-46.692449, -23.693939], [-46.69239, -23.694039], [-46.69235, -23.694107], [-46.692327, -23.694154], [-46.6923, -23.694216], [-46.692258, -23.694306], [-46.692201, -23.694411], [-46.692142, -23.694506], [-46.69209, -23.694583], [-46.692007, -23.694707], [-46.691953, -23.694793], [-46.691917, -23.694847], [-46.691813, -23.694963], [-46.691754, -23.695046], [-46.691703, -23.695112], [-46.691669, -23.695154], [-46.691657, -23.695176], [-46.691632, -23.69521], [-46.691588, -23.695289], [-46.691543, -23.695362], [-46.691512, -23.695404], [-46.691468, -23.695464], [-46.691418, -23.695525], [-46.691376, -23.695587], [-46.691315, -23.695672], [-46.691265, -23.695741], [-46.691216, -23.695797], [-46.691173, -23.695854], [-46.691133, -23.695915], [-46.691094, -23.695977], [-46.691077, -23.695998], [-46.691059, -23.696012], [-46.691032, -23.696036], [-46.691015, -23.696051], [-46.69099, -23.696066], [-46.690968, -23.696079], [-46.690946, -23.696088], [-46.690881, -23.696117], [-46.690848, -23.69613], [-46.690806, -23.696145], [-46.690774, -23.696153], [-46.690753, -23.696158], [-46.69075, -23.696158], [-46.690719, -23.69616], [-46.690697, -23.696161], [-46.690664, -23.696164], [-46.690621, -23.696167], [-46.690583, -23.696168], [-46.690543, -23.69617], [-46.690506, -23.69617], [-46.690478, -23.69617], [-46.689583, -23.696153], [-46.689563, -23.696155], [-46.68954, -23.69616], [-46.689511, -23.69617], [-46.689494, -23.69618], [-46.689479, -23.696192], [-46.689453, -23.696221], [-46.68944, -23.696243], [-46.689423, -23.696268], [-46.689401, -23.696305], [-46.689385, -23.696329], [-46.689363, -23.696364], [-46.689341, -23.696401], [-46.689323, -23.696427], [-46.689304, -23.696461], [-46.689288, -23.696485], [-46.689239, -23.696555], [-46.689208, -23.696597], [-46.689172, -23.696652], [-46.689141, -23.696702], [-46.68911, -23.696751], [-46.689095, -23.69677], [-46.68908, -23.696794], [-46.689068, -23.696814], [-46.689057, -23.696836], [-46.689036, -23.696864], [-46.689025, -23.696884], [-46.689006, -23.696911], [-46.688989, -23.696927], [-46.688941, -23.696981], [-46.688914, -23.697017], [-46.688881, -23.697063], [-46.688854, -23.6971], [-46.68882, -23.69715], [-46.688769, -23.69721], [-46.688716, -23.697266], [-46.688672, -23.697313], [-46.688621, -23.69737], [-46.688558, -23.697442], [-46.68848, -23.697527], [-46.688396, -23.697613], [-46.688324, -23.697698], [-46.68823, -23.697793], [-46.688221, -23.697798], [-46.68815, -23.697868], [-46.68805, -23.697968], [-46.687974, -23.698041], [-46.687909, -23.698094], [-46.687839, -23.698149], [-46.687781, -23.698199], [-46.687712, -23.69826], [-46.687626, -23.698327], [-46.68754, -23.698394], [-46.687427, -23.698467], [-46.687297, -23.698535], [-46.687253, -23.698555], [-46.687175, -23.698588], [-46.687111, -23.698609], [-46.687061, -23.698624], [-46.687045, -23.698629], [-46.687014, -23.698643], [-46.686979, -23.698662], [-46.686876, -23.698741], [-46.686826, -23.69878], [-46.686753, -23.698831], [-46.686697, -23.698867], [-46.686657, -23.698898], [-46.686594, -23.698941], [-46.686524, -23.698975], [-46.686487, -23.699], [-46.686407, -23.699039], [-46.686276, -23.699088], [-46.686191, -23.699115], [-46.686105, -23.699151], [-46.686009, -23.699193], [-46.685867, -23.699255], [-46.685744, -23.699314], [-46.685635, -23.699366], [-46.685565, -23.699396], [-46.685527, -23.699412], [-46.6855, -23.699422], [-46.685449, -23.699443], [-46.685373, -23.699473], [-46.685328, -23.699492], [-46.685287, -23.69951], [-46.685216, -23.699541], [-46.685169, -23.699561], [-46.685122, -23.699581], [-46.685082, -23.699597], [-46.68505, -23.699606], [-46.685036, -23.699607], [-46.685002, -23.699608], [-46.68495, -23.699604], [-46.684813, -23.69959], [-46.684665, -23.699575], [-46.684572, -23.699562], [-46.684513, -23.699553], [-46.684439, -23.699535], [-46.684371, -23.699519], [-46.684329, -23.699504], [-46.684267, -23.699472], [-46.684178, -23.699414], [-46.684101, -23.699351], [-46.684059, -23.69932], [-46.683989, -23.699276], [-46.683886, -23.699201], [-46.683807, -23.699143], [-46.683753, -23.699104], [-46.683706, -23.699071], [-46.683675, -23.69904], [-46.683653, -23.698995], [-46.683632, -23.698947], [-46.683615, -23.698898], [-46.683589, -23.698834], [-46.683567, -23.69878], [-46.683515, -23.698661], [-46.683472, -23.698562], [-46.683443, -23.698492], [-46.683412, -23.698422], [-46.683391, -23.698366], [-46.683363, -23.698304], [-46.683336, -23.698235], [-46.683258, -23.698049], [-46.683223, -23.697973], [-46.683161, -23.697817], [-46.683118, -23.697707], [-46.683067, -23.697589], [-46.68303, -23.697502], [-46.683021, -23.697479], [-46.682929, -23.697245], [-46.682869, -23.697065], [-46.682838, -23.696977], [-46.682803, -23.696884], [-46.682741, -23.69673], [-46.682686, -23.696604], [-46.682618, -23.696444], [-46.682551, -23.696289], [-46.682516, -23.696193], [-46.682456, -23.696025], [-46.682406, -23.695911], [-46.68238, -23.695852], [-46.682361, -23.695809], [-46.682337, -23.695769], [-46.682319, -23.695734], [-46.682284, -23.695672], [-46.682264, -23.695634], [-46.682243, -23.6956], [-46.682223, -23.69558], [-46.682207, -23.695573], [-46.682191, -23.695564], [-46.682179, -23.69556], [-46.682165, -23.69556], [-46.682147, -23.695559], [-46.682132, -23.695559], [-46.682108, -23.695559], [-46.682017, -23.695562], [-46.681929, -23.695571], [-46.681874, -23.695583], [-46.681783, -23.695604], [-46.681673, -23.695625], [-46.681569, -23.695648], [-46.68145, -23.695672], [-46.681354, -23.695697], [-46.681266, -23.695714], [-46.681107, -23.695745], [-46.680971, -23.695779], [-46.680812, -23.695814], [-46.680675, -23.695852], [-46.680489, -23.695894], [-46.680408, -23.695912], [-46.680282, -23.695942], [-46.680187, -23.695964], [-46.680089, -23.695983], [-46.680008, -23.696004], [-46.679813, -23.696054], [-46.679674, -23.696087], [-46.679548, -23.696114], [-46.679429, -23.69614], [-46.679254, -23.696178], [-46.679124, -23.696192], [-46.678972, -23.696201], [-46.678851, -23.696191], [-46.678777, -23.696171], [-46.678677, -23.696141], [-46.678456, -23.696015], [-46.678246, -23.695898], [-46.677871, -23.695675], [-46.677676, -23.695557], [-46.677494, -23.695507], [-46.677255, -23.695551], [-46.676846, -23.695679], [-46.676601, -23.695828], [-46.675642, -23.696582], [-46.675487, -23.696714], [-46.675102, -23.697232], [-46.675035, -23.697286], [-46.674838, -23.69735], [-46.674682, -23.69739], [-46.67453, -23.697387], [-46.674427, -23.697371], [-46.674403, -23.697365], [-46.674233, -23.697282], [-46.674105, -23.697218], [-46.674021, -23.697155], [-46.673946, -23.697109], [-46.673707, -23.696959], [-46.673649, -23.696923], [-46.673517, -23.69686], [-46.673411, -23.696807], [-46.673298, -23.696741], [-46.673222, -23.69669], [-46.673128, -23.69664], [-46.673032, -23.696581], [-46.672925, -23.696511], [-46.672838, -23.69645], [-46.672802, -23.69643], [-46.672577, -23.696297], [-46.672423, -23.6962], [-46.672327, -23.69614], [-46.672281, -23.696112], [-46.672169, -23.696044], [-46.672097, -23.695996], [-46.672042, -23.695952], [-46.671904, -23.695876], [-46.671738, -23.695773], [-46.671594, -23.695692], [-46.671396, -23.695568], [-46.671108, -23.6954], [-46.670908, -23.695282], [-46.670724, -23.695174], [-46.670544, -23.695059], [-46.67035, -23.694945], [-46.670153, -23.694812], [-46.670031, -23.694741], [-46.669943, -23.694682], [-46.669839, -23.694628], [-46.669695, -23.694553], [-46.669507, -23.694446], [-46.669139, -23.694241], [-46.669063, -23.694198], [-46.668975, -23.694143], [-46.668827, -23.694049], [-46.668738, -23.693994], [-46.668674, -23.693955], [-46.668471, -23.693828], [-46.668316, -23.693749], [-46.668098, -23.69363], [-46.667921, -23.693535], [-46.667694, -23.693411], [-46.667624, -23.693368], [-46.667442, -23.693267], [-46.667349, -23.693218], [-46.667246, -23.693159], [-46.66717, -23.693112], [-46.666874, -23.692943], [-46.666721, -23.692852], [-46.666555, -23.692754], [-46.666426, -23.69268], [-46.666332, -23.692626], [-46.666273, -23.692596], [-46.666169, -23.692522], [-46.665922, -23.692374], [-46.665839, -23.692321], [-46.665795, -23.692299], [-46.665762, -23.692281], [-46.66575, -23.692275], [-46.665678, -23.692244], [-46.665603, -23.692209], [-46.66533, -23.692049], [-46.665271, -23.69202], [-46.664926, -23.691829], [-46.664653, -23.69167], [-46.664405, -23.691529], [-46.66398, -23.691287], [-46.663797, -23.691188], [-46.663644, -23.6911], [-46.66332, -23.690925], [-46.66306, -23.690773], [-46.662899, -23.690681], [-46.662771, -23.690601], [-46.66255, -23.690477], [-46.6624, -23.690388], [-46.662322, -23.690348], [-46.662186, -23.690268], [-46.661984, -23.690166], [-46.661774, -23.690059], [-46.661649, -23.689991], [-46.661514, -23.689913], [-46.661451, -23.689872], [-46.661271, -23.689781], [-46.661085, -23.689701], [-46.660982, -23.689644], [-46.660919, -23.689601], [-46.660786, -23.689503], [-46.660676, -23.689421], [-46.660509, -23.689301], [-46.660369, -23.689193], [-46.660229, -23.689093], [-46.660129, -23.689026], [-46.660025, -23.688969], [-46.659898, -23.68889], [-46.65982, -23.688839], [-46.659748, -23.688798], [-46.659656, -23.688751], [-46.659575, -23.688703], [-46.659407, -23.688612], [-46.659218, -23.68851], [-46.659107, -23.688438], [-46.658745, -23.688262], [-46.658545, -23.688148], [-46.658361, -23.688032], [-46.65818, -23.687932], [-46.657965, -23.687816], [-46.657724, -23.687679], [-46.657535, -23.687571], [-46.657443, -23.687523], [-46.6573, -23.687448], [-46.656794, -23.687195], [-46.656394, -23.686981], [-46.65592, -23.686736], [-46.655697, -23.686605], [-46.655567, -23.686524], [-46.655184, -23.686306], [-46.654955, -23.686184], [-46.654723, -23.68605], [-46.654516, -23.685934], [-46.654403, -23.685865], [-46.654174, -23.685723], [-46.653978, -23.685611], [-46.653795, -23.685506], [-46.653629, -23.685416], [-46.653584, -23.685387], [-46.653545, -23.68536], [-46.65339, -23.685265], [-46.653315, -23.685213], [-46.653228, -23.685158], [-46.653123, -23.685096], [-46.652918, -23.684978], [-46.652738, -23.684876], [-46.652501, -23.68476], [-46.652295, -23.684656], [-46.652181, -23.684591], [-46.652128, -23.684559], [-46.651935, -23.684447], [-46.651779, -23.684347], [-46.651651, -23.684279], [-46.651516, -23.684207], [-46.651362, -23.684114], [-46.651242, -23.68405], [-46.65107, -23.683944], [-46.650915, -23.683854], [-46.65079, -23.683787], [-46.650632, -23.683714], [-46.650573, -23.683684], [-46.650511, -23.683645], [-46.650342, -23.683517], [-46.650229, -23.683439], [-46.650157, -23.683396], [-46.650101, -23.683359], [-46.650032, -23.683316], [-46.649825, -23.683202], [-46.649718, -23.683146], [-46.649571, -23.683069], [-46.649478, -23.683017], [-46.649395, -23.682963], [-46.649322, -23.682917], [-46.649165, -23.682833], [-46.649083, -23.68279], [-46.649034, -23.682765], [-46.648906, -23.682701], [-46.648608, -23.682554], [-46.648428, -23.682438], [-46.648368, -23.682403], [-46.648281, -23.682348], [-46.648163, -23.682275], [-46.64802, -23.682194], [-46.647774, -23.682064], [-46.647664, -23.682001], [-46.647413, -23.681868], [-46.647308, -23.681816], [-46.647196, -23.681756], [-46.647153, -23.681735], [-46.647109, -23.681706], [-46.647063, -23.681665], [-46.647031, -23.681629], [-46.647005, -23.681583], [-46.646979, -23.681522], [-46.646937, -23.681439], [-46.646908, -23.681389], [-46.64686, -23.681335], [-46.646818, -23.681283], [-46.646752, -23.681217], [-46.646683, -23.681148], [-46.646629, -23.681094], [-46.646553, -23.681015], [-46.646473, -23.680942], [-46.646447, -23.68091], [-46.646393, -23.680847], [-46.646315, -23.680765], [-46.646222, -23.680664], [-46.646122, -23.680555], [-46.646031, -23.680453], [-46.645975, -23.68039], [-46.64595, -23.680362], [-46.645918, -23.680325], [-46.645895, -23.680296], [-46.645876, -23.680276], [-46.645846, -23.680259], [-46.645815, -23.68024], [-46.645778, -23.680224], [-46.645701, -23.680186], [-46.645629, -23.680157], [-46.645602, -23.680146], [-46.64556, -23.680132], [-46.645491, -23.680116], [-46.645446, -23.680107], [-46.645382, -23.680093], [-46.645271, -23.680062], [-46.64514, -23.680024], [-46.644826, -23.679931], [-46.644661, -23.679893], [-46.64456, -23.67986], [-46.644476, -23.679831], [-46.644413, -23.679814], [-46.644291, -23.679774], [-46.644219, -23.679748], [-46.644133, -23.679718], [-46.64408, -23.679702], [-46.644042, -23.679695], [-46.643982, -23.679682], [-46.643902, -23.679668], [-46.643799, -23.679643], [-46.643727, -23.679631], [-46.643594, -23.679612], [-46.643512, -23.679594], [-46.643459, -23.679575], [-46.643352, -23.67953], [-46.643116, -23.679412], [-46.642992, -23.679346], [-46.642877, -23.679284], [-46.642698, -23.679191], [-46.642619, -23.679158], [-46.642501, -23.679104], [-46.642416, -23.679054], [-46.64217, -23.678897], [-46.642076, -23.678833], [-46.641962, -23.678755], [-46.641929, -23.678728], [-46.641902, -23.678705], [-46.641837, -23.678669], [-46.641776, -23.678635], [-46.641637, -23.678568], [-46.641483, -23.678511], [-46.64141, -23.678476], [-46.64121, -23.678356], [-46.641168, -23.678332], [-46.640846, -23.678121], [-46.640738, -23.678055], [-46.640731, -23.67805], [-46.64024, -23.677776], [-46.640097, -23.677688], [-46.64002, -23.677637], [-46.639996, -23.677618], [-46.639973, -23.677602], [-46.639965, -23.677597], [-46.639959, -23.677594], [-46.639951, -23.677591], [-46.639941, -23.677588], [-46.639927, -23.677581], [-46.639626, -23.677436], [-46.639483, -23.677354], [-46.63902, -23.677083], [-46.638894, -23.67701], [-46.63879, -23.676951], [-46.63869, -23.676896], [-46.638557, -23.676813], [-46.638468, -23.676761], [-46.638263, -23.676636], [-46.63799, -23.67647], [-46.637912, -23.676426], [-46.637848, -23.676393], [-46.637773, -23.676355], [-46.637678, -23.676306], [-46.637565, -23.676241], [-46.637287, -23.676084], [-46.63716, -23.676018], [-46.637029, -23.675949], [-46.636898, -23.675881], [-46.636769, -23.67581], [-46.636687, -23.675764], [-46.636615, -23.675718], [-46.636478, -23.675638], [-46.636404, -23.675594], [-46.636335, -23.675556], [-46.636263, -23.675511], [-46.636136, -23.675435], [-46.636001, -23.675356], [-46.635922, -23.675302], [-46.635743, -23.675187], [-46.635682, -23.67515], [-46.635564, -23.67509], [-46.635518, -23.675062], [-46.635372, -23.674982], [-46.635256, -23.674923], [-46.635178, -23.674878], [-46.635098, -23.674844], [-46.63505, -23.674821], [-46.634971, -23.674785], [-46.634907, -23.674754], [-46.634873, -23.674736], [-46.634848, -23.674724], [-46.634816, -23.674712], [-46.634772, -23.674695], [-46.634737, -23.674678], [-46.634713, -23.674663], [-46.634665, -23.674643], [-46.634629, -23.674619], [-46.634548, -23.674564], [-46.634478, -23.674517], [-46.634251, -23.674381], [-46.634129, -23.6743], [-46.633987, -23.674201], [-46.633934, -23.67417], [-46.633895, -23.674145], [-46.633752, -23.674065], [-46.633588, -23.673978], [-46.633506, -23.673933], [-46.633435, -23.673898], [-46.633387, -23.673875], [-46.63334, -23.673847], [-46.633302, -23.673816], [-46.633158, -23.673713], [-46.633068, -23.673655], [-46.632983, -23.673593], [-46.632878, -23.673519], [-46.63278, -23.67346], [-46.632641, -23.673376], [-46.632547, -23.67332], [-46.63242, -23.673252], [-46.632315, -23.673197], [-46.6322, -23.673131], [-46.632128, -23.673087], [-46.631999, -23.672998], [-46.631962, -23.672971], [-46.631923, -23.672938], [-46.631886, -23.672908], [-46.631779, -23.672825], [-46.63172, -23.672776], [-46.631671, -23.672733], [-46.631642, -23.672714], [-46.631619, -23.672703], [-46.631602, -23.672698], [-46.631279, -23.672527], [-46.630963, -23.672363], [-46.63087, -23.672315], [-46.630683, -23.672223], [-46.63066, -23.67221], [-46.630579, -23.672171], [-46.630555, -23.672163], [-46.630522, -23.67216], [-46.630487, -23.672159], [-46.630452, -23.672165], [-46.630422, -23.672174], [-46.630378, -23.672183], [-46.630298, -23.672209], [-46.630221, -23.67224], [-46.630165, -23.672263], [-46.630052, -23.672306], [-46.630013, -23.67232], [-46.62999, -23.672329], [-46.629959, -23.672338], [-46.629904, -23.672353], [-46.629851, -23.672364], [-46.629807, -23.672374], [-46.629751, -23.672388], [-46.629687, -23.6724], [-46.629608, -23.672413], [-46.629511, -23.672427], [-46.629441, -23.67244], [-46.629345, -23.672453], [-46.629208, -23.672483], [-46.629136, -23.672497], [-46.629052, -23.672517], [-46.628917, -23.672543], [-46.628816, -23.67256], [-46.628586, -23.672594], [-46.628494, -23.672607], [-46.628403, -23.672624], [-46.628311, -23.672638], [-46.628127, -23.672667], [-46.627953, -23.672695], [-46.627786, -23.672717], [-46.627603, -23.672743], [-46.627438, -23.67277], [-46.627303, -23.672795], [-46.627223, -23.67281], [-46.62715, -23.672824], [-46.627112, -23.672834], [-46.627073, -23.67285], [-46.627047, -23.672864], [-46.627023, -23.672874], [-46.626995, -23.672889], [-46.626958, -23.672911], [-46.626922, -23.672936], [-46.62691, -23.672947], [-46.626885, -23.672973], [-46.626848, -23.673011], [-46.626815, -23.673055], [-46.626772, -23.673115], [-46.62675, -23.673143], [-46.626712, -23.673203], [-46.62669, -23.673227], [-46.62667, -23.673242], [-46.626635, -23.67326], [-46.626593, -23.673277], [-46.626564, -23.673285], [-46.626524, -23.673294], [-46.626474, -23.673302], [-46.626409, -23.673308], [-46.62626, -23.673313], [-46.626084, -23.673316], [-46.625782, -23.673311], [-46.625562, -23.673309], [-46.625327, -23.673311], [-46.625, -23.673319], [-46.624915, -23.67332], [-46.624813, -23.673316], [-46.624662, -23.673304], [-46.624552, -23.673292], [-46.624491, -23.673284], [-46.624389, -23.673273], [-46.62429, -23.673264], [-46.624207, -23.673261], [-46.624056, -23.673262], [-46.623716, -23.673261], [-46.623432, -23.673259], [-46.623426, -23.673259], [-46.623254, -23.673253], [-46.623088, -23.673252], [-46.622963, -23.673251], [-46.622819, -23.673247], [-46.622625, -23.673248], [-46.622341, -23.673239], [-46.622174, -23.673233], [-46.62209, -23.673228], [-46.621979, -23.673223], [-46.621837, -23.673216], [-46.62175, -23.673208], [-46.621581, -23.673203], [-46.621447, -23.673194], [-46.621326, -23.673191], [-46.621167, -23.673195], [-46.620822, -23.673192], [-46.620578, -23.673179], [-46.620488, -23.673172], [-46.620411, -23.673169], [-46.62028, -23.673164], [-46.620056, -23.673152], [-46.620015, -23.673147], [-46.619962, -23.673147], [-46.619874, -23.673151], [-46.619774, -23.673152], [-46.61967, -23.673149], [-46.619507, -23.673149], [-46.619303, -23.67315], [-46.619038, -23.673153], [-46.618796, -23.673153], [-46.618673, -23.67315], [-46.618572, -23.673148], [-46.618325, -23.673137], [-46.618052, -23.673123], [-46.61774, -23.673111], [-46.617461, -23.673107], [-46.617237, -23.673109], [-46.617006, -23.673104], [-46.616855, -23.6731], [-46.616674, -23.673098], [-46.616487, -23.673093], [-46.616408, -23.673089], [-46.616072, -23.67309], [-46.615764, -23.673101], [-46.615461, -23.6731], [-46.615212, -23.673097], [-46.61506, -23.673095], [-46.614935, -23.673087], [-46.614782, -23.673074], [-46.61463, -23.673061], [-46.614477, -23.673045], [-46.614375, -23.673028], [-46.614129, -23.673], [-46.614094, -23.672997], [-46.614059, -23.672995], [-46.613886, -23.67299], [-46.613669, -23.672982], [-46.613635, -23.672982], [-46.613537, -23.672981], [-46.613388, -23.67298], [-46.613281, -23.67298], [-46.61304, -23.672982], [-46.612832, -23.672983], [-46.612653, -23.672978], [-46.612474, -23.672973], [-46.612343, -23.672969], [-46.612203, -23.672963], [-46.612017, -23.672957], [-46.611816, -23.672954], [-46.611701, -23.672951], [-46.611605, -23.672948], [-46.611474, -23.672945], [-46.611363, -23.672943], [-46.611195, -23.672941], [-46.611003, -23.672937], [-46.610833, -23.672935], [-46.610587, -23.672928], [-46.610454, -23.672928], [-46.610344, -23.672927], [-46.610274, -23.672926], [-46.61005, -23.672921], [-46.609843, -23.672916], [-46.609678, -23.67291], [-46.609574, -23.672905], [-46.60948, -23.672901], [-46.609394, -23.672901], [-46.609239, -23.672902], [-46.609181, -23.672903], [-46.609103, -23.672904], [-46.608915, -23.6729], [-46.608851, -23.672899], [-46.608761, -23.672897], [-46.6087, -23.672895], [-46.60853, -23.672883], [-46.608435, -23.672879], [-46.608288, -23.672872], [-46.608165, -23.672868], [-46.608051, -23.672864], [-46.607865, -23.672861], [-46.607737, -23.67286], [-46.607628, -23.672859], [-46.60742, -23.67285], [-46.607198, -23.672842], [-46.606972, -23.672829], [-46.606728, -23.672815], [-46.606613, -23.67281], [-46.606312, -23.672796], [-46.606114, -23.67279], [-46.605853, -23.67279], [-46.605715, -23.672795], [-46.605516, -23.672794], [-46.605233, -23.672789], [-46.605047, -23.672789], [-46.604699, -23.6728], [-46.60452, -23.672801], [-46.604356, -23.6728], [-46.604267, -23.672794], [-46.604194, -23.672792], [-46.603836, -23.672767], [-46.60379, -23.672764], [-46.603642, -23.672755], [-46.603346, -23.67273], [-46.60312, -23.672712], [-46.602957, -23.672698], [-46.602881, -23.672698], [-46.60277, -23.672701], [-46.602609, -23.672706], [-46.602418, -23.672714], [-46.6023, -23.672716], [-46.60206, -23.672708], [-46.601968, -23.672704], [-46.601859, -23.672698], [-46.601763, -23.672693], [-46.601652, -23.672688], [-46.601554, -23.672686], [-46.601435, -23.672677], [-46.601302, -23.672676], [-46.601113, -23.672676], [-46.601033, -23.672676], [-46.600918, -23.672677], [-46.600637, -23.672678], [-46.600559, -23.672679], [-46.600441, -23.672677], [-46.60035, -23.672674], [-46.600272, -23.672667], [-46.600195, -23.672662], [-46.600095, -23.672656], [-46.599991, -23.67265], [-46.599903, -23.672644], [-46.599759, -23.672638], [-46.599604, -23.672632], [-46.599451, -23.672628], [-46.59931, -23.672625], [-46.599204, -23.672623], [-46.599016, -23.672623], [-46.598879, -23.672623], [-46.59877, -23.67262], [-46.598627, -23.672615], [-46.598438, -23.6726], [-46.598307, -23.672592], [-46.598207, -23.672587], [-46.598104, -23.672585], [-46.598031, -23.672585], [-46.59795, -23.672586], [-46.597823, -23.672587], [-46.597659, -23.672586], [-46.597476, -23.672587], [-46.597381, -23.672585], [-46.59724, -23.672583], [-46.596973, -23.672576], [-46.596795, -23.672561], [-46.596717, -23.672552], [-46.596558, -23.67253], [-46.596459, -23.672521], [-46.596354, -23.672516], [-46.5962, -23.672519], [-46.596059, -23.672526], [-46.59588, -23.672528], [-46.595743, -23.672527], [-46.595601, -23.672527], [-46.595473, -23.672527], [-46.595373, -23.672525], [-46.595262, -23.672523], [-46.595139, -23.672519], [-46.595038, -23.672515], [-46.594885, -23.672516], [-46.594703, -23.672512], [-46.59459, -23.672508], [-46.594366, -23.672499], [-46.594054, -23.672485], [-46.594032, -23.672484], [-46.593469, -23.672467], [-46.593276, -23.672463], [-46.593079, -23.672459], [-46.592888, -23.672457], [-46.592726, -23.672456], [-46.592542, -23.672452], [-46.592381, -23.672449], [-46.592266, -23.672451], [-46.592181, -23.672449], [-46.591873, -23.672451], [-46.591696, -23.672449], [-46.591439, -23.672433], [-46.591075, -23.672423], [-46.590826, -23.672412], [-46.590541, -23.672398], [-46.590455, -23.672399], [-46.5902, -23.672397], [-46.590057, -23.6724], [-46.589859, -23.6724], [-46.589631, -23.672396], [-46.589431, -23.672387], [-46.589249, -23.672382], [-46.589047, -23.672372], [-46.588856, -23.672363], [-46.588613, -23.672348], [-46.588376, -23.672351], [-46.588201, -23.672349], [-46.588052, -23.672346], [-46.587867, -23.672339], [-46.587664, -23.672335], [-46.587596, -23.672334], [-46.587331, -23.672319], [-46.587151, -23.672312], [-46.586875, -23.672301], [-46.586593, -23.672297], [-46.586254, -23.672292], [-46.585952, -23.672287], [-46.585851, -23.672285], [-46.585676, -23.672278], [-46.585516, -23.672273], [-46.58532, -23.672267], [-46.585127, -23.672253], [-46.584928, -23.67225], [-46.584665, -23.672243], [-46.584464, -23.672246], [-46.584285, -23.672255], [-46.58423, -23.672255], [-46.581071, -23.672168], [-46.580936, -23.672165], [-46.580614, -23.67215], [-46.580373, -23.672143], [-46.580189, -23.672139], [-46.579923, -23.672128], [-46.579697, -23.672117], [-46.579534, -23.672109], [-46.579394, -23.672107], [-46.579076, -23.672104], [-46.578832, -23.672098], [-46.578529, -23.672082], [-46.57819, -23.67207], [-46.578036, -23.672064], [-46.57785, -23.672056], [-46.577719, -23.672046], [-46.57734, -23.672038], [-46.577036, -23.672031], [-46.576779, -23.672028], [-46.576518, -23.672025], [-46.576193, -23.67202], [-46.575919, -23.672014], [-46.575529, -23.672001], [-46.575223, -23.671989], [-46.574953, -23.671979], [-46.574715, -23.671969], [-46.574511, -23.671963], [-46.574435, -23.671964], [-46.574147, -23.67197], [-46.573893, -23.671969], [-46.57355, -23.671958], [-46.573326, -23.671955], [-46.573111, -23.671949], [-46.572922, -23.671949], [-46.572708, -23.671943], [-46.572459, -23.671936], [-46.572178, -23.67193], [-46.571896, -23.671929], [-46.571724, -23.671929], [-46.571462, -23.671922], [-46.571421, -23.67192], [-46.571177, -23.671921], [-46.570807, -23.67193], [-46.57067, -23.671937], [-46.570413, -23.671937], [-46.570062, -23.671929], [-46.569781, -23.671917], [-46.569539, -23.671908], [-46.569307, -23.671899], [-46.56903, -23.671888], [-46.568742, -23.671882], [-46.568489, -23.671882], [-46.568243, -23.671868], [-46.567895, -23.671844], [-46.567518, -23.67182], [-46.567329, -23.671805], [-46.567106, -23.671786], [-46.566946, -23.671777], [-46.566837, -23.671771], [-46.566482, -23.67176], [-46.566238, -23.671756], [-46.566076, -23.671755], [-46.565662, -23.671748], [-46.565383, -23.671738], [-46.565117, -23.671731], [-46.564864, -23.671721], [-46.564729, -23.671715], [-46.564686, -23.671713], [-46.564646, -23.67171], [-46.564617, -23.671707]]}},
{"type": "Feature", "properties": {"ProjectID": "P7953", "NMOleoduto": "Sem denominação", "NMProprietario": " ", "OBJECTID": 66, "CDRestricao": 2, "SHAPE_Length": 0.34585674975358555}, "geometry": {"type": "LineString", "coordinates": [[-46.549813, -23.615719], [-46.549891, -23.615764], [-46.549977, -23.615837], [-46.550065, -23.616023], [-46.549938, -23.616576], [-46.549643, -23.617002], [-46.549331, -23.617361], [-46.548967, -23.617792], [-46.54856, -23.61826], [-46.54816, -23.618734], [-46.548007, -23.618969], [-46.547821, -23.619273], [-46.547499, -23.619834], [-46.547265, -23.620165], [-46.547098, -23.620501], [-46.546547, -23.621385], [-46.546102, -23.622116], [-46.545672, -23.622809], [-46.545319, -23.623399], [-46.545302, -23.623427], [-46.545037, -23.623899], [-46.544796, -23.624279], [-46.544712, -23.624404], [-46.544695, -23.624441], [-46.544695, -23.624481], [-46.544696, -23.624517], [-46.544721, -23.62456], [-46.544906, -23.624674], [-46.545296, -23.624908], [-46.546118, -23.62543], [-46.546353, -23.625592], [-46.54655, -23.62574], [-46.547095, -23.626222], [-46.547422, -23.626499], [-46.547746, -23.626812], [-46.547979, -23.627075], [-46.548212, -23.627349], [-46.548402, -23.627587], [-46.548707, -23.628007], [-46.548889, -23.628249], [-46.549029, -23.628447], [-46.549107, -23.628589], [-46.549142, -23.628681], [-46.549164, -23.628771], [-46.549246, -23.629647], [-46.549459, -23.630488], [-46.549477, -23.630562], [-46.549499, -23.630672], [-46.549554, -23.630949], [-46.549656, -23.631354], [-46.549764, -23.631944], [-46.549801, -23.632217], [-46.549852, -23.632496], [-46.54995, -23.633024], [-46.549962, -23.633104], [-46.55004, -23.633533], [-46.550063, -23.63396], [-46.5501, -23.634351], [-46.550141, -23.635038], [-46.55016, -23.635274], [-46.550223, -23.635707], [-46.550285, -23.636092], [-46.550361, -23.636618], [-46.550443, -23.637011], [-46.550498, -23.637223], [-46.550556, -23.637495], [-46.550649, -23.637891], [-46.550692, -23.638044], [-46.550757, -23.638205], [-46.550824, -23.638335], [-46.550896, -23.638423], [-46.550943, -23.638475], [-46.551256, -23.638666], [-46.551362, -23.638747], [-46.551458, -23.638844], [-46.551501, -23.638917], [-46.551541, -23.639074], [-46.551546, -23.639094], [-46.551588, -23.639266], [-46.551625, -23.639578], [-46.551802, -23.640875], [-46.551803, -23.640995], [-46.551808, -23.641032], [-46.551811, -23.641058], [-46.551823, -23.641105], [-46.551844, -23.641174], [-46.551861, -23.641232], [-46.551885, -23.641295], [-46.551902, -23.641355], [-46.551914, -23.641448], [-46.551922, -23.64152], [-46.55193, -23.641604], [-46.551924, -23.641704], [-46.551942, -23.641742], [-46.552015, -23.641781], [-46.552149, -23.641848], [-46.552485, -23.642027], [-46.552767, -23.642172], [-46.553117, -23.642345], [-46.553471, -23.642525], [-46.553773, -23.642679], [-46.554084, -23.642837], [-46.554473, -23.643042], [-46.554719, -23.643163], [-46.555025, -23.643315], [-46.555441, -23.643524], [-46.55568, -23.643646], [-46.555712, -23.643666], [-46.555729, -23.643686], [-46.55574, -23.643719], [-46.555761, -23.643808], [-46.555854, -23.644239], [-46.555862, -23.644431], [-46.555865, -23.644474], [-46.555895, -23.644628], [-46.555973, -23.645089], [-46.556036, -23.645466], [-46.556104, -23.645941], [-46.556109, -23.645981], [-46.556186, -23.646588], [-46.556255, -23.647139], [-46.55627, -23.647341], [-46.556255, -23.647429], [-46.556227, -23.647555], [-46.556182, -23.647647], [-46.555791, -23.648354], [-46.555706, -23.648557], [-46.555687, -23.648716], [-46.555689, -23.648871], [-46.555694, -23.64898], [-46.555702, -23.649112], [-46.555728, -23.649237], [-46.555746, -23.649355], [-46.5558, -23.649615], [-46.555849, -23.649858], [-46.555862, -23.64991], [-46.555905, -23.649986], [-46.555955, -23.650071], [-46.55602, -23.650178], [-46.556119, -23.650312], [-46.55635, -23.650618], [-46.556503, -23.650827], [-46.556652, -23.651066], [-46.556679, -23.651113], [-46.556727, -23.651261], [-46.556764, -23.651402], [-46.556828, -23.651607], [-46.556894, -23.651813], [-46.556932, -23.652043], [-46.557002, -23.652301], [-46.557028, -23.652389], [-46.557055, -23.652474], [-46.55709, -23.652584], [-46.557117, -23.652659], [-46.557184, -23.652846], [-46.557222, -23.652947], [-46.557265, -23.653095], [-46.557313, -23.653269], [-46.557351, -23.653402], [-46.557421, -23.653628], [-46.557461, -23.653741], [-46.557501, -23.653853], [-46.557555, -23.654045], [-46.557613, -23.65424], [-46.55766, -23.654431], [-46.557668, -23.654459], [-46.557706, -23.654597], [-46.557735, -23.654704], [-46.557781, -23.65487], [-46.55781, -23.654978], [-46.557865, -23.65524], [-46.557909, -23.655367], [-46.557954, -23.655493], [-46.558086, -23.655976], [-46.558193, -23.656373], [-46.558321, -23.656785], [-46.558389, -23.657031], [-46.558429, -23.657146], [-46.558488, -23.657298], [-46.558678, -23.657613], [-46.558731, -23.657703], [-46.55878, -23.657794], [-46.55881, -23.657854], [-46.558847, -23.657959], [-46.558939, -23.658221], [-46.559206, -23.658883], [-46.559277, -23.65895], [-46.559438, -23.659057], [-46.559599, -23.659164], [-46.559714, -23.659237], [-46.559888, -23.659358], [-46.560063, -23.659479], [-46.560262, -23.659614], [-46.560555, -23.659818], [-46.5607, -23.659919], [-46.561019, -23.66014], [-46.561159, -23.660237], [-46.561474, -23.660455], [-46.561529, -23.66051], [-46.561744, -23.660683], [-46.56176, -23.66069], [-46.56179, -23.660717], [-46.561807, -23.660755], [-46.561818, -23.660802], [-46.56181, -23.660832], [-46.561802, -23.660863], [-46.561771, -23.660899], [-46.561566, -23.661149], [-46.561361, -23.661402], [-46.561185, -23.661625], [-46.561048, -23.661791], [-46.560982, -23.66187], [-46.560805, -23.662109], [-46.56063, -23.662357], [-46.560455, -23.662611], [-46.560403, -23.662686], [-46.560279, -23.662864], [-46.560073, -23.66317], [-46.559944, -23.663355], [-46.559738, -23.66362], [-46.559592, -23.663833], [-46.559381, -23.664138], [-46.559256, -23.664319], [-46.558984, -23.664713], [-46.558865, -23.664884], [-46.55871, -23.665108], [-46.558478, -23.665441], [-46.558347, -23.665627], [-46.55812, -23.665955], [-46.558006, -23.66614], [-46.558002, -23.666158], [-46.557994, -23.666188], [-46.558, -23.666205], [-46.558018, -23.666239], [-46.558042, -23.666265], [-46.55809, -23.666298], [-46.558281, -23.666403], [-46.558801, -23.666711], [-46.559119, -23.666901], [-46.559511, -23.667131], [-46.559981, -23.667389], [-46.560168, -23.66751], [-46.560238, -23.667581], [-46.560377, -23.667861], [-46.56049, -23.668196], [-46.560534, -23.668303], [-46.560667, -23.668555], [-46.560807, -23.668705], [-46.560844, -23.668729], [-46.56094, -23.668791], [-46.561069, -23.668866], [-46.561325, -23.66901], [-46.561647, -23.669235], [-46.561946, -23.669452], [-46.562153, -23.669611], [-46.56231, -23.669926], [-46.562441, -23.670242], [-46.562603, -23.670556], [-46.562751, -23.670793], [-46.562994, -23.671053], [-46.563278, -23.671316], [-46.563453, -23.671487], [-46.563679, -23.671647], [-46.564617, -23.671707]]}}
]
}
