{
"type": "FeatureCollection",
"features": [
{"type": "Feature", "properties": {"ProjectID": "P7963", "layer": "P5133-uzhgorod-sahy", "path": "/Users/dan-gem/Documents/pipeline-tracker/pipeline-routes/european-oil-pipelines/routes-out/P5133-uzhgorod-sahy.geojson"}, "geometry": {"type": "MultiLineString", "coordinates": [[[17.16744, 48.855521], [17.167982, 48.855073], [17.18493, 48.840707], [17.186418, 48.839743], [17.197423, 48.82912], [17.213935, 48.820142], [17.220919, 48.816553], [17.222453, 48.815515], [17.225449, 48.814111], [17.225608, 48.814008], [17.23381, 48.807206], [17.25479, 48.795519], [17.266082, 48.788911], [17.271259, 48.78316], [17.285271, 48.776021], [17.306275, 48.760259], [17.3062, 48.759504], [17.309711, 48.750983], [17.31809, 48.74417], [17.320139, 48.737636], [17.336844, 48.718328], [17.33767, 48.717864], [17.342949, 48.716631], [17.362062, 48.705337], [17.362572, 48.705368], [17.374312, 48.695758], [17.383134, 48.688682], [17.391537, 48.682966], [17.392041, 48.673514], [17.398277, 48.660303], [17.395767, 48.654861], [17.393981, 48.649531], [17.397049, 48.64254], [17.398921, 48.640608], [17.401833, 48.637797], [17.429414, 48.613641], [17.430605, 48.611736], [17.434315, 48.605787], [17.432385, 48.598916], [17.429729, 48.588797], [17.428948, 48.582929], [17.430582, 48.578964], [17.432471, 48.576181], [17.432535, 48.575794], [17.432394, 48.57147], [17.432389, 48.567749], [17.432492, 48.566757], [17.433167, 48.565029], [17.434106, 48.563797], [17.435866, 48.56172], [17.43729, 48.560498], [17.437391, 48.560245], [17.436588, 48.557508], [17.439984, 48.553905], [17.440123, 48.553811], [17.440308, 48.553736], [17.441544, 48.553458], [17.441753, 48.553306], [17.443814, 48.550178], [17.443843, 48.5498], [17.442007, 48.547478], [17.441955, 48.547222], [17.444144, 48.542817], [17.446032, 48.538427], [17.449312, 48.536574], [17.480074, 48.534773], [17.487635, 48.533397], [17.487678, 48.533015], [17.52782, 48.525015], [17.536419, 48.517854], [17.542131, 48.515642], [17.561051, 48.508562], [17.577486, 48.498589], [17.590678, 48.490679], [17.617038, 48.471991], [17.644858, 48.455522], [17.660627, 48.446088], [17.67373, 48.438287], [17.693251, 48.432048], [17.695517, 48.430679], [17.696539, 48.429048], [17.696612, 48.428937], [17.697043, 48.428868], [17.698079, 48.428708], [17.699768, 48.428354], [17.724477, 48.41467], [17.730598, 48.407549], [17.745119, 48.399586], [17.749588, 48.39708], [17.765681, 48.388321], [17.775173, 48.379242], [17.775611, 48.378968], [17.776276, 48.378819], [17.781635, 48.378309], [17.792538, 48.374439], [17.809465, 48.368595], [17.811289, 48.369369], [17.817915, 48.366782], [17.820508, 48.366015], [17.820495, 48.364739], [17.830408, 48.361724], [17.841207, 48.357675], [17.850713, 48.353985], [17.854173, 48.352998], [17.860224, 48.350296], [17.874321, 48.343757], [17.879079, 48.341967], [17.891662, 48.336683], [17.907795, 48.331283], [17.917226, 48.32828], [17.933008, 48.323729], [17.937019, 48.323418], [17.938056, 48.322258], [17.943101, 48.320717], [17.950112, 48.31553], [17.960401, 48.312064], [17.961834, 48.310239], [17.979721, 48.302573], [18.006779, 48.294039], [18.01393, 48.292604], [18.015263, 48.291587], [18.019032, 48.287705], [18.019641, 48.287723], [18.022733, 48.283921], [18.038467, 48.275346], [18.050923, 48.270401], [18.06339, 48.266537], [18.0653, 48.264977], [18.066244, 48.264384], [18.067177, 48.263963], [18.070482, 48.26272], [18.079011, 48.259399], [18.080771, 48.258531], [18.089912, 48.254927], [18.101547, 48.250355], [18.116326, 48.255463], [18.124641, 48.251534], [18.133814, 48.25632], [18.153105, 48.242796], [18.164129, 48.232978], [18.167288, 48.231077], [18.175324, 48.231091], [18.178242, 48.231932], [18.189138, 48.232249], [18.207554, 48.237587], [18.219393, 48.240295], [18.221142, 48.241195], [18.223287, 48.240938], [18.248461, 48.235074], [18.285665, 48.226052], [18.307155, 48.221013], [18.31106, 48.220073], [18.329396, 48.212964], [18.342914, 48.207819], [18.349094, 48.206371], [18.353751, 48.203601], [18.360552, 48.202124], [18.368481, 48.196568], [18.391805, 48.190903], [18.411257, 48.1836], [18.430928, 48.175922], [18.441802, 48.171817], [18.463485, 48.163123], [18.493696, 48.153912], [18.514178, 48.147498], [18.557501, 48.140325], [18.590707, 48.134819], [18.596764, 48.13381], [18.605781, 48.137837], [18.626611, 48.134408], [18.64786, 48.126876], [18.663695, 48.126269], [18.680481, 48.125421], [18.696713, 48.125148], [18.711889, 48.128783], [18.753335, 48.127114], [18.781895, 48.132005], [18.78977, 48.133273], [18.795864, 48.133373], [18.82598, 48.130355], [18.839852, 48.126061], [18.842408, 48.125593], [18.858874, 48.122574], [18.861374, 48.121478], [18.869592, 48.116729], [18.876191, 48.111214], [18.887601, 48.104505], [18.890133, 48.102029], [18.891351, 48.102223], [18.894387, 48.102724], [18.895605, 48.100349], [18.896121, 48.099699], [18.899565, 48.100522], [18.89973, 48.100156], [18.900304, 48.099161], [18.901141, 48.097888], [18.903812, 48.094434], [18.905191, 48.092657], [18.906881, 48.090528], [18.907342, 48.09022], [18.907921, 48.089977], [18.908672, 48.089758], [18.909965, 48.089434], [18.92115, 48.086662], [18.922883, 48.087597], [18.924272, 48.088128], [18.925699, 48.088436], [18.926302, 48.088501], [18.944371, 48.088062], [18.981772, 48.087769], [18.985221, 48.086526], [18.996513, 48.087145], [19.005268, 48.092076], [19.016082, 48.094828], [19.020889, 48.094713], [19.026554, 48.096891], [19.036682, 48.098497], [19.05093, 48.099414], [19.066208, 48.101477], [19.076851, 48.100789], [19.114337, 48.105031], [19.131954, 48.106865], [19.137104, 48.110074], [19.162881, 48.122731], [19.169204, 48.124973], [19.175041, 48.126004], [19.1874, 48.131389], [19.247825, 48.156932], [19.278381, 48.167695], [19.31134, 48.181776], [19.329708, 48.187841], [19.35786, 48.198026], [19.37022, 48.199514], [19.381893, 48.203175], [19.390648, 48.202832], [19.405582, 48.201573], [19.43837, 48.207637], [19.444034, 48.209696], [19.456394, 48.209925], [19.474418, 48.220677], [19.48077, 48.232341], [19.502914, 48.247547], [19.509094, 48.253491], [19.522312, 48.25772], [19.535701, 48.261377], [19.546688, 48.262977], [19.563339, 48.26172], [19.59903, 48.273896], [19.615739, 48.280829], [19.634922, 48.285827], [19.645157, 48.288397], [19.66581, 48.297984], [19.682987, 48.304557], [19.689546, 48.30757]], [[22.372967, 48.596164], [22.358024, 48.568932], [22.350456, 48.55412], [22.344046, 48.542617], [22.330769, 48.51731], [22.317131, 48.519454], [22.265525, 48.529828], [22.245063, 48.530738], [22.175721, 48.538499], [22.159411, 48.541767], [22.10426, 48.553109], [22.085549, 48.568333], [22.03817, 48.575943], [21.995256, 48.590007], [21.977746, 48.595588], [21.943413, 48.619424], [21.928822, 48.621353], [21.911141, 48.620899], [21.858097, 48.62124], [21.833035, 48.621013], [21.718708, 48.602853], [21.686779, 48.606713], [21.580864, 48.62714], [21.550995, 48.626459], [21.519744, 48.621505], [21.519316, 48.621517], [21.518583, 48.621643], [21.498829, 48.627495], [21.486542, 48.628278], [21.480859, 48.62889], [21.477638, 48.62967], [21.472097, 48.630272], [21.468103, 48.63093], [21.452192, 48.633021], [21.439213, 48.634228], [21.43742, 48.634701], [21.437186, 48.634711], [21.435816, 48.634591], [21.429555, 48.635467], [21.428706, 48.635451], [21.427879, 48.635335], [21.418113, 48.631904], [21.415065, 48.631662], [21.41132, 48.629855], [21.409673, 48.629223], [21.407831, 48.628917], [21.403629, 48.627134], [21.38663, 48.620764], [21.382077, 48.619162], [21.371024, 48.615236], [21.360817, 48.613175], [21.351021, 48.611671], [21.338797, 48.606387], [21.320828, 48.598592], [21.312715, 48.596822], [21.302112, 48.59646], [21.298284, 48.595722], [21.257779, 48.581412], [21.19497, 48.558677], [21.114632, 48.568106], [21.050431, 48.586277], [20.998761, 48.592863], [20.973564, 48.595285], [20.899884, 48.597291], [20.873963, 48.592522], [20.834137, 48.596156], [20.825726, 48.596837], [20.80135, 48.600696], [20.744702, 48.602059], [20.74041, 48.600015], [20.702816, 48.592863], [20.663678, 48.581849], [20.638633, 48.564017], [20.632775, 48.561318], [20.629836, 48.559593], [20.623451, 48.557999], [20.618826, 48.55742], [20.613962, 48.556625], [20.610806, 48.55595], [20.601364, 48.553223], [20.594586, 48.553965], [20.591007, 48.55421], [20.5867, 48.556206], [20.584345, 48.556282], [20.583594, 48.556359], [20.582534, 48.556589], [20.581362, 48.556955], [20.579734, 48.557486], [20.579203, 48.557615], [20.576819, 48.557962], [20.576633, 48.558038], [20.576486, 48.558194], [20.576261, 48.558538], [20.575987, 48.559213], [20.575673, 48.559678], [20.57537, 48.560078], [20.574209, 48.561443], [20.573887, 48.561894], [20.573726, 48.56219], [20.573391, 48.563243], [20.573265, 48.56352], [20.573131, 48.563759], [20.572862, 48.563974], [20.572363, 48.564274], [20.572025, 48.564471], [20.571746, 48.564553], [20.571454, 48.564588], [20.570864, 48.564613], [20.57033, 48.56461], [20.569732, 48.564592], [20.569099, 48.564499], [20.567825, 48.564393], [20.566473, 48.564315], [20.561948, 48.563818], [20.553988, 48.563026], [20.551922, 48.562902], [20.550908, 48.562866], [20.550141, 48.562685], [20.549492, 48.56255], [20.547813, 48.56222], [20.546177, 48.561975], [20.54497, 48.56184], [20.541134, 48.561297], [20.540566, 48.561287], [20.531489, 48.560658], [20.529767, 48.560544], [20.527123, 48.560342], [20.5265, 48.560271], [20.525926, 48.560175], [20.525079, 48.559891], [20.523555, 48.559312], [20.521442, 48.558418], [20.519907, 48.557775], [20.518609, 48.557024], [20.516313, 48.555038], [20.514243, 48.553188], [20.513452, 48.552335], [20.513221, 48.552075], [20.512588, 48.551584], [20.510579, 48.550468], [20.50928, 48.549832], [20.504125, 48.546718], [20.503533, 48.546355], [20.502838, 48.546004], [20.500885, 48.545219], [20.498686, 48.544523], [20.492967, 48.543415], [20.489244, 48.542587], [20.486128, 48.541948], [20.4855, 48.541895], [20.484905, 48.541976], [20.484449, 48.542044], [20.483971, 48.542044], [20.483537, 48.541937], [20.482813, 48.541678], [20.481632, 48.541248], [20.479889, 48.540705], [20.478094, 48.540295], [20.476802, 48.541208], [20.475914, 48.541654], [20.474808, 48.54195], [20.473432, 48.542116], [20.470451, 48.54222], [20.468886, 48.542107], [20.467237, 48.542157], [20.464482, 48.54215], [20.458826, 48.542153], [20.457287, 48.542266], [20.456351, 48.542213], [20.455769, 48.542104], [20.455005, 48.541897], [20.449887, 48.540263], [20.442943, 48.538058], [20.439791, 48.537586], [20.435069, 48.536625], [20.434776, 48.536499], [20.434412, 48.536282], [20.433062, 48.535328], [20.431711, 48.534598], [20.427086, 48.532621], [20.424156, 48.531462], [20.421979, 48.530623], [20.419064, 48.529693], [20.412436, 48.527155], [20.409585, 48.526625], [20.404789, 48.520818], [20.403436, 48.51927], [20.402802, 48.518786], [20.401794, 48.51825], [20.400779, 48.517616], [20.400229, 48.517209], [20.398249, 48.515625], [20.396571, 48.514113], [20.395199, 48.512301], [20.392281, 48.506501], [20.392109, 48.503202], [20.38181, 48.488642], [20.375802, 48.481815], [20.367953, 48.473892], [20.35876, 48.464196], [20.348856, 48.453906], [20.34683, 48.451766], [20.346508, 48.451596], [20.337854, 48.449091], [20.317898, 48.435561], [20.31702, 48.435237], [20.315995, 48.43502], [20.312888, 48.434756], [20.309483, 48.434949], [20.271449, 48.431447], [20.258278, 48.430478], [20.237679, 48.428659], [20.228489, 48.427096], [20.226812, 48.426464], [20.215985, 48.422113], [20.215166, 48.421661], [20.209805, 48.418852], [20.19384, 48.413269], [20.175301, 48.407572], [20.164315, 48.403697], [20.142685, 48.398796], [20.125348, 48.396859], [20.082089, 48.392527], [20.045791, 48.376149], [20.032467, 48.37014], [20.023296, 48.369764], [20.022459, 48.369965], [20.008283, 48.368988], [19.964157, 48.367216], [19.957417, 48.368579], [19.952313, 48.369611], [19.921013, 48.370117], [19.910622, 48.368168], [19.910413, 48.368613], [19.909893, 48.369312], [19.909582, 48.369536], [19.908922, 48.369693], [19.908246, 48.369821], [19.905698, 48.371126], [19.905033, 48.371247], [19.904668, 48.371161], [19.904239, 48.370987], [19.902066, 48.370181], [19.900784, 48.370064], [19.89778, 48.370278], [19.894583, 48.370563], [19.890243, 48.371094], [19.882931, 48.370203], [19.867512, 48.368242], [19.856526, 48.365619], [19.839703, 48.361513], [19.826313, 48.356837], [19.812065, 48.350563], [19.800593, 48.347818], [19.7849, 48.341771], [19.778077, 48.336301], [19.762112, 48.330823], [19.698769, 48.310162], [19.689901, 48.307701]]]}}
]
}
