{
"type": "FeatureCollection",
"features": [
{"type": "Feature", "properties": {"ProjectID": "P7965"}, "geometry": {"type": "LineString", "coordinates": [[30.927089, 29.911474], [30.920867, 29.904393], [30.952579, 29.899918], [30.967546, 29.897537], [30.974737, 29.896554], [30.978149, 29.897029], [30.981646, 29.898782], [30.991473, 29.907787], [30.996447, 29.912014], [31.017686, 29.91811], [31.032243, 29.926722], [31.037422, 29.932069], [31.042646, 29.932919], [31.092338, 29.892676], [31.130083, 29.85609], [31.148397, 29.844682], [31.186513, 29.825076], [31.192171, 29.822747], [31.201902, 29.822092], [31.215196, 29.816098], [31.223774, 29.812445], [31.294237, 29.772465]]}}
]
}
